Time_recorded,METAR
2026-05-02 15:47:00,METAR KSUA 021547Z 22012G20KT 7SM BKN035 31/21 A2987
2026-05-02 14:47:00,METAR KSUA 021447Z 23011G20KT 7SM SCT025 30/23 A2987
2026-05-02 13:47:00,METAR KSUA 021347Z 20008G18KT 7SM SCT018 28/24 A2986
2026-05-02 12:47:00,METAR KSUA 021247Z 18009G15KT 7SM CLR 25/22 A2986
2026-05-02 11:47:00,METAR KSUA 021147Z 22004KT 7SM SCT070 23/20 A2987
2026-05-02 10:51:00,METAR KSUA 021051Z 22004KT 7SM SCT055 BKN070 22/19 A2986
2026-05-02 10:35:00,METAR KSUA 021035Z AUTO 23004KT 10SM SCT055 BKN070 22/19 A2986 RMK AO2
2026-05-02 10:15:00,METAR KSUA 021015Z AUTO 22006KT 10SM FEW048 FEW055 SCT070 22/19 A2987 RMK AO2
2026-05-02 09:55:00,METAR KSUA 020955Z AUTO 20005KT 10SM FEW048 FEW055 22/19 A2986 RMK AO2
2026-05-02 09:35:00,METAR KSUA 020935Z AUTO 20005KT 10SM CLR 22/19 A2986 RMK AO2
2026-05-02 09:15:00,METAR KSUA 020915Z AUTO 21006KT 9SM CLR 22/19 A2987 RMK AO2
2026-05-02 08:55:00,METAR KSUA 020855Z AUTO 19007KT 10SM CLR 22/19 A2986 RMK AO2
2026-05-02 08:35:00,METAR KSUA 020835Z AUTO 20006KT 10SM CLR 22/20 A2986 RMK AO2
2026-05-02 08:15:00,METAR KSUA 020815Z AUTO 20007KT 10SM CLR 23/20 A2985 RMK AO2
2026-05-02 07:55:00,METAR KSUA 020755Z AUTO 22006KT 10SM CLR 23/21 A2985 RMK AO2
2026-05-02 07:35:00,METAR KSUA 020735Z AUTO 23006KT 10SM CLR 23/21 A2985 RMK AO2
2026-05-02 07:15:00,METAR KSUA 020715Z AUTO 24006KT 10SM CLR 24/21 A2986 RMK AO2
2026-05-02 06:55:00,METAR KSUA 020655Z AUTO 22008KT 10SM CLR 24/21 A2986 RMK AO2
2026-05-02 06:35:00,METAR KSUA 020635Z AUTO 21008KT 10SM CLR 24/21 A2986 RMK AO2
2026-05-02 06:15:00,METAR KSUA 020615Z AUTO 21006KT 10SM CLR 24/21 A2986 RMK AO2
2026-05-02 05:55:00,METAR KSUA 020555Z AUTO 20007KT 10SM CLR 25/21 A2986 RMK AO2
2026-05-02 05:35:00,METAR KSUA 020535Z AUTO 19005KT 10SM CLR 25/21 A2987 RMK AO2
2026-05-02 05:15:00,METAR KSUA 020515Z AUTO 19007KT 10SM CLR 25/21 A2988 RMK AO2
2026-05-02 04:55:00,METAR KSUA 020455Z AUTO 18007KT 10SM CLR 25/21 A2987 RMK AO2
2026-05-02 04:35:00,METAR KSUA 020435Z AUTO 18007KT 10SM CLR 26/21 A2988 RMK AO2
2026-05-02 04:15:00,METAR KSUA 020415Z AUTO 18007KT 10SM CLR 26/21 A2988 RMK AO2
2026-05-02 03:55:00,METAR KSUA 020355Z AUTO 18007G13KT 10SM CLR 26/21 A2988 RMK AO2
2026-05-02 03:35:00,METAR KSUA 020335Z AUTO 19008KT 10SM CLR 26/21 A2988 RMK AO2
2026-05-02 03:15:00,METAR KSUA 020315Z AUTO 18008KT 10SM CLR 26/21 A2988 RMK AO2
2026-05-02 02:55:00,METAR KSUA 020255Z AUTO 17006KT 10SM CLR 26/21 A2988 RMK AO2
2026-05-02 02:35:00,METAR KSUA 020235Z AUTO 17010KT 10SM CLR 26/22 A2987 RMK AO2
2026-05-02 02:15:00,METAR KSUA 020215Z AUTO 17007KT 10SM CLR 26/22 A2987 RMK AO2
2026-05-02 01:47:00,METAR KSUA 020147Z 16008KT 7SM CLR 26/21 A2987
2026-05-02 00:47:00,METAR KSUA 020047Z 15007KT 7SM CLR 27/22 A2984
2026-05-01 23:47:00,METAR KSUA 012347Z 15010G18KT 7SM CLR 28/21 A2982
2026-05-01 22:47:00,METAR KSUA 012247Z 13010G18KT 7SM CLR 29/21 A2981
2026-05-01 21:47:00,METAR KSUA 012147Z 12013KT 7SM CLR 29/21 A2981
2026-05-01 20:47:00,METAR KSUA 012047Z 12013KT 7SM CLR 30/22 A2983
2026-05-01 19:47:00,METAR KSUA 011947Z 13010KT 7SM CLR 30/21 A2985
2026-05-01 18:47:00,METAR KSUA 011847Z 09010KT 7SM FEW040 30/22 A2988
2026-05-01 17:48:00,METAR KSUA 011748Z 09010KT 7SM SCT040 30/22 A2989
2026-05-01 15:47:00,METAR KSUA 011547Z 28006KT 7SM BKN021 29/20 A2991
2026-05-01 14:47:00,METAR KSUA 011447Z 30007KT 7SM BKN021 28/21 A2992
2026-05-01 13:47:00,METAR KSUA 011347Z 27008KT 7SM SCT018 27/22 A2991
2026-05-01 12:47:00,METAR KSUA 011247Z 27008KT 6SM HZ FEW020 25/22 A2990
2026-05-01 11:47:00,METAR KSUA 011147Z 27008KT 5SM HZ FEW020 23/22 A2990
2026-05-01 10:47:00,METAR KSUA 011047Z VRB04KT 6SM HZ FEW020 22/22 A2988
2026-05-01 10:35:00,METAR KSUA 011035Z AUTO 27005KT 10SM BKN045 22/21 A2988 RMK AO2
2026-05-01 10:15:00,METAR KSUA 011015Z AUTO 28006KT 10SM SCT046 22/21 A2987 RMK AO2
2026-05-01 09:55:00,METAR KSUA 010955Z AUTO 27006KT 10SM FEW047 FEW055 22/21 A2987 RMK AO2
2026-05-01 09:35:00,METAR KSUA 010935Z AUTO 25005KT 10SM FEW047 BKN055 22/21 A2986 RMK AO2
2026-05-01 09:15:00,METAR KSUA 010915Z AUTO 26008KT 10SM BKN050 23/21 A2987 RMK AO2
2026-05-01 08:55:00,METAR KSUA 010855Z AUTO 25006KT 10SM CLR 22/21 A2987 RMK AO2
2026-05-01 08:35:00,METAR KSUA 010835Z AUTO 28007KT 10SM CLR 23/21 A2987 RMK AO2
2026-05-01 08:15:00,METAR KSUA 010815Z AUTO 27006KT 10SM CLR 23/21 A2986 RMK AO2
2026-05-01 07:55:00,METAR KSUA 010755Z AUTO 28008KT 10SM FEW060 23/21 A2985 RMK AO2
2026-05-01 07:35:00,METAR KSUA 010735Z AUTO 27008KT 10SM SCT060 24/21 A2987 RMK AO2
2026-05-01 07:15:00,METAR KSUA 010715Z AUTO 27008KT 10SM CLR 24/20 A2987 RMK AO2
2026-05-01 06:55:00,METAR KSUA 010655Z AUTO 25007KT 10SM CLR 24/20 A2986 RMK AO2
2026-05-01 06:35:00,METAR KSUA 010635Z AUTO 26007KT 10SM CLR 24/20 A2987 RMK AO2
2026-05-01 06:15:00,METAR KSUA 010615Z AUTO 25006KT 10SM CLR 24/20 A2987 RMK AO2
2026-05-01 05:55:00,METAR KSUA 010555Z AUTO 26006KT 10SM CLR 25/20 A2988 RMK AO2
2026-05-01 05:35:00,METAR KSUA 010535Z AUTO 25006KT 10SM CLR 25/20 A2988 RMK AO2
2026-05-01 05:15:00,METAR KSUA 010515Z AUTO 26005KT 10SM CLR 25/20 A2988 RMK AO2
2026-05-01 04:55:00,METAR KSUA 010455Z AUTO 27006KT 10SM CLR 25/20 A2988 RMK AO2
2026-05-01 04:35:00,METAR KSUA 010435Z AUTO 28005KT 10SM CLR 25/20 A2987 RMK AO2
2026-05-01 04:15:00,METAR KSUA 010415Z AUTO 27007KT 10SM CLR 26/19 A2988 RMK AO2
2026-05-01 03:55:00,METAR KSUA 010355Z AUTO 26005KT 10SM CLR 26/20 A2988 RMK AO2
2026-05-01 03:35:00,METAR KSUA 010335Z AUTO 25006KT 10SM CLR 27/19 A2988 RMK AO2
2026-05-01 03:15:00,METAR KSUA 010315Z AUTO 25008KT 10SM CLR 27/19 A2987 RMK AO2
2026-05-01 02:55:00,METAR KSUA 010255Z AUTO 27007KT 10SM CLR 27/19 A2987 RMK AO2
2026-05-01 02:35:00,METAR KSUA 010235Z AUTO 27006KT 10SM CLR 27/19 A2987 RMK AO2
2026-05-01 02:15:00,METAR KSUA 010215Z AUTO VRB06KT 10SM CLR 28/19 A2986 RMK AO2
2026-05-01 01:48:00,METAR KSUA 010148Z 24006KT 7SM CLR 28/19 A2986
2026-05-01 00:48:00,METAR KSUA 010048Z 23006KT 7SM FEW070 29/18 A2983
2026-04-30 23:48:00,METAR KSUA 302348Z 23006KT 7SM CLR 30/17 A2982
2026-04-30 22:48:00,METAR KSUA 302248Z 25009G15KT 7SM SCT060 32/17 A2980
2026-04-30 21:48:00,METAR KSUA 302148Z 25009G15KT 7SM SCT060 32/17 A2981
2026-04-30 20:48:00,METAR KSUA 302048Z 25008G15KT 7SM SCT040 33/17 A2981
2026-04-30 19:47:00,METAR KSUA 301947Z 26010G19KT 7SM SCT020 32/17 A2984
2026-04-30 18:47:00,METAR KSUA 301847Z 25012G19KT 7SM FEW020 32/17 A2986
2026-04-30 17:47:00,METAR KSUA 301747Z 23012G18KT 7SM SCT020 31/17 A2987
2026-04-30 16:47:00,METAR KSUA 301647Z 22010G18KT 7SM FEW025 31/17 A2987
2026-04-30 14:47:00,METAR KSUA 301447Z 28008KT 7SM CLR 29/18 A2991
2026-04-30 13:47:00,METAR KSUA 301347Z 29008KT 7SM CLR 27/19 A2990
2026-04-30 12:47:00,METAR KSUA 301247Z 27008KT 6SM HZ FEW020 24/22 A2991
2026-04-30 11:47:00,METAR KSUA 301147Z 25008KT 6SM HZ FEW040 23/22 A2990
2026-04-30 10:50:00,METAR KSUA 301050Z 25008KT 10SM CLR 22/21 A2989
2026-04-30 10:35:00,METAR KSUA 301035Z AUTO 24006KT 10SM CLR 22/21 A2988 RMK AO2
2026-04-30 10:20:00,METAR KSUA 301020Z AUTO 24006KT 10SM CLR 22/21 A2988 RMK AO2
2026-04-30 09:55:00,METAR KSUA 300955Z AUTO 24006KT 10SM CLR 22/21 A2988 RMK AO2
2026-04-30 09:35:00,METAR KSUA 300935Z AUTO 22005KT 10SM CLR 22/21 A2988 RMK AO2
2026-04-30 09:15:00,METAR KSUA 300915Z AUTO 23005KT 10SM CLR 22/21 A2988 RMK AO2
2026-04-30 08:55:00,METAR KSUA 300855Z AUTO 23004KT 10SM CLR 22/21 A2988 RMK AO2
2026-04-30 08:35:00,METAR KSUA 300835Z AUTO 23005KT 10SM CLR 22/21 A2988 RMK AO2
2026-04-30 08:15:00,METAR KSUA 300815Z AUTO 23003KT 10SM CLR 22/21 A2988 RMK AO2
2026-04-30 08:00:00,METAR KSUA 300800Z AUTO 21004KT 10SM CLR 22/21 A2987 RMK AO2
2026-04-30 06:30:00,METAR KSUA 300630Z AUTO 20004KT 10SM SCT047 23/21 A2990 RMK AO2
2026-04-30 05:50:00,METAR KSUA 300550Z AUTO 21004KT 10SM CLR 24/21 A2992 RMK AO2
2026-04-30 05:15:00,METAR KSUA 300515Z AUTO 19006KT 10SM CLR 24/21 A2992 RMK AO2
2026-04-30 04:55:00,METAR KSUA 300455Z AUTO 17005KT 10SM CLR 24/21 A2992 RMK AO2
2026-04-30 04:35:00,METAR KSUA 300435Z AUTO 18005KT 10SM CLR 24/21 A2993 RMK AO2
2026-04-30 04:15:00,METAR KSUA 300415Z AUTO 19006KT 10SM CLR 24/21 A2993 RMK AO2
2026-04-30 03:55:00,METAR KSUA 300355Z AUTO 19006KT 10SM CLR 24/21 A2993 RMK AO2
2026-04-30 03:35:00,METAR KSUA 300335Z AUTO 18006KT 10SM CLR 24/21 A2994 RMK AO2
2026-04-30 03:15:00,METAR KSUA 300315Z AUTO 17005KT 10SM CLR 25/21 A2994 RMK AO2
2026-04-30 02:55:00,METAR KSUA 300255Z AUTO 17006KT 10SM CLR 25/21 A2994 RMK AO2
2026-04-30 02:35:00,METAR KSUA 300235Z AUTO 19006KT 10SM CLR 25/21 A2993 RMK AO2
2026-04-30 02:15:00,METAR KSUA 300215Z AUTO 17005KT 10SM CLR 25/20 A2993 RMK AO2
2026-04-30 01:48:00,METAR KSUA 300148Z 16006KT 10SM CLR 25/20 A2992
2026-04-30 00:48:00,METAR KSUA 300048Z 14005KT 10SM CLR 25/20 A2991
2026-04-29 23:48:00,METAR KSUA 292348Z 158010KT 10SM CLR 26/20 A2988
2026-04-29 22:48:00,METAR KSUA 292248Z 14010KT 10SM CLR 27/20 A2989
2026-04-29 21:47:00,METAR KSUA 292147Z 11010KT 7SM SCT025 28/20 A2990
2026-04-29 20:47:00,METAR KSUA 292047Z 11010KT 7SM SCT025 28/20 A2990
2026-04-29 19:47:00,METAR KSUA 291947Z 10010KT 7SM SCT030 29/20 A2994
2026-04-29 18:47:00,METAR KSUA 291847Z 11010KT 7SM SCT030 29/20 A2996
2026-04-29 17:47:00,METAR KSUA 291747Z 09010KT 10SM SCT045 29/20 A2999
2026-04-29 16:47:00,METAR KSUA 291647Z 09006KT 10SM SCT045 29/20 A3002
2026-04-29 15:47:00,METAR KSUA 291547Z 08008KT 10SM SCT030 SCT045 28/20 A3004
2026-04-29 14:47:00,METAR KSUA 291447Z VRB04KT 10SM SCT026 SCT045 28/17 A3005
2026-04-29 13:47:00,METAR KSUA 291347Z 18004KT 10SM SCT026 27/19 A3004
2026-04-29 13:20:00,SPECI KSUA 291320Z 18004KT 10SM SCT026 27/20 A3003
2026-04-29 12:47:00,METAR KSUA 291247Z 18004KT 10SM CLR 26/20 A3002
2026-04-29 11:47:00,METAR KSUA 291147Z 00000KT 10SM CLR 22/20 A3001
2026-04-29 10:47:00,METAR KSUA 291047Z 00000KT 10SM FEW024 20/19 A2999
2026-04-29 10:35:00,METAR KSUA 291035Z AUTO 00000KT 10SM CLR 20/19 A2999 RMK AO2
2026-04-29 10:15:00,METAR KSUA 291015Z AUTO 00000KT 10SM CLR 20/19 A2999 RMK AO2
2026-04-29 09:55:00,METAR KSUA 290955Z AUTO 00000KT 10SM CLR 20/19 A2998 RMK AO2
2026-04-29 09:35:00,METAR KSUA 290935Z AUTO 00000KT 10SM CLR 20/19 A2998 RMK AO2
2026-04-29 09:15:00,METAR KSUA 290915Z AUTO 00000KT 10SM CLR 21/19 A2998 RMK AO2
2026-04-29 09:00:00,METAR KSUA 290900Z AUTO 00000KT 10SM CLR 21/19 A2998 RMK AO2
2026-04-29 08:35:00,METAR KSUA 290835Z AUTO 13004KT 10SM CLR 22/19 A2998 RMK AO2
2026-04-29 08:20:00,METAR KSUA 290820Z AUTO 12004KT 10SM CLR 22/19 A2998 RMK AO2
2026-04-29 07:55:00,METAR KSUA 290755Z AUTO 12004KT 10SM CLR 22/19 A2997 RMK AO2
2026-04-29 07:35:00,METAR KSUA 290735Z AUTO 11004KT 10SM CLR 21/20 A2997 RMK AO2
2026-04-29 07:15:00,METAR KSUA 290715Z AUTO 09003KT 10SM CLR 21/19 A2998 RMK AO2
2026-04-29 06:55:00,METAR KSUA 290655Z AUTO 00000KT 10SM CLR 21/19 A2998 RMK AO2
2026-04-29 06:35:00,METAR KSUA 290635Z AUTO 00000KT 10SM CLR 22/20 A2999 RMK AO2
2026-04-29 06:15:00,METAR KSUA 290615Z AUTO 00000KT 10SM CLR 23/20 A3000 RMK AO2
2026-04-29 05:55:00,METAR KSUA 290555Z AUTO 00000KT 10SM CLR 23/20 A3002 RMK AO2
2026-04-29 05:35:00,METAR KSUA 290535Z AUTO 14003KT 10SM CLR 24/20 A3002 RMK AO2
2026-04-29 05:15:00,METAR KSUA 290515Z AUTO 15004KT 10SM FEW034 SCT060 24/20 A3003 RMK AO2
2026-04-29 04:55:00,METAR KSUA 290455Z AUTO 00000KT 10SM FEW026 SCT035 BKN060 24/20 A3005 RMK AO2
2026-04-29 04:30:00,METAR KSUA 290430Z AUTO 11005KT 10SM FEW025 SCT034 BKN043 25/20 A3005 RMK AO2
2026-04-29 04:15:00,METAR KSUA 290415Z AUTO 10004KT 10SM FEW024 SCT032 BKN055 24/20 A3005 RMK AO2
2026-04-29 03:55:00,METAR KSUA 290355Z AUTO 07007KT 10SM FEW023 FEW046 OVC050 25/21 A3004 RMK AO2
2026-04-29 03:35:00,METAR KSUA 290335Z AUTO 07008KT 10SM OVC055 25/20 A3004 RMK AO2
2026-04-29 03:15:00,METAR KSUA 290315Z AUTO 07008KT 10SM FEW024 SCT050 OVC060 25/20 A3005 RMK AO2
2026-04-29 02:55:00,METAR KSUA 290255Z AUTO 06006KT 10SM SCT025 SCT055 24/20 A3005 RMK AO2
2026-04-29 02:40:00,METAR KSUA 290240Z AUTO 06008KT 10SM CLR 25/20 A3005 RMK AO2
2026-04-29 02:15:00,METAR KSUA 290215Z AUTO 06009KT 10SM SCT024 SCT055 25/20 A3006 RMK AO2
2026-04-29 01:47:00,METAR KSUA 290147Z 06010KT 7SM SCT024 25/20 A3006
2026-04-29 00:47:00,METAR KSUA 290047Z 09008KT 7SM SCT021 25/20 A3005
2026-04-28 23:47:00,METAR KSUA 282347Z 03010G18KT 7SM SCT021 25/20 A3004
2026-04-28 21:47:00,METAR KSUA 282147Z 06012G20KT 7SM SCT023 28/20 A3005
2026-04-28 20:47:00,METAR KSUA 282047Z 08011KT 7SM SCT023 28/20 A3006
2026-04-28 19:47:00,METAR KSUA 281947Z 09012KT 7SM SCT021 28/20 A3007
2026-04-28 18:47:00,METAR KSUA 281847Z 04012KT 7SM SCT023 28/20 A3008
2026-04-28 17:50:00,METAR KSUA 281750Z 04010KT 10SM SCT030 28/20 A3009
2026-04-28 16:50:00,METAR KSUA 281650Z 06008G13KT 10SM FEW031 28/19 A3010
2026-04-28 15:47:00,METAR KSUA 281547Z 06006KT 10SM FEW035 28/19 A3010
2026-04-28 14:47:00,METAR KSUA 281447Z 09005KT 10SM CLR 28/19 A3009
2026-04-28 13:47:00,METAR KSUA 281347Z 10005KT 10SM CLR 27/19 A3008
2026-04-28 12:47:00,METAR KSUA 281247Z 09005KT 10SM CLR 26/19 A3007
2026-04-28 11:47:00,METAR KSUA 281147Z 10006KT 10SM CLR 25/19 A3007
2026-04-28 10:47:00,METAR KSUA 281047Z 07007KT 10SM FEW028 23/19 A3004
2026-04-28 10:35:00,METAR KSUA 281035Z AUTO 07007KT 10SM FEW029 23/19 A3004 RMK AO2
2026-04-28 10:15:00,METAR KSUA 281015Z AUTO 06006KT 10SM SCT030 SCT037 24/18 A3004 RMK AO2
2026-04-28 09:55:00,METAR KSUA 280955Z AUTO 06009KT 10SM BKN030 BKN035 BKN042 24/19 A3003 RMK AO2
2026-04-28 09:35:00,METAR KSUA 280935Z AUTO 06007KT 10SM BKN028 BKN033 OVC041 24/20 A3002 RMK AO2
2026-04-28 09:15:00,METAR KSUA 280915Z AUTO 04008KT 10SM SCT026 OVC038 24/20 A3002 RMK AO2
2026-04-28 08:55:00,METAR KSUA 280855Z AUTO 03004KT 10SM SCT026 SCT040 23/19 A3002 RMK AO2
2026-04-28 08:35:00,METAR KSUA 280835Z AUTO 04006KT 10SM FEW029 SCT038 24/19 A3002 RMK AO2
2026-04-28 08:20:00,METAR KSUA 280820Z AUTO 03008KT 10SM SCT029 OVC038 24/19 A3002 RMK AO2
2026-04-28 08:00:00,METAR KSUA 280800Z AUTO 04005KT 10SM FEW027 OVC037 24/19 A3002 RMK AO2
2026-04-28 07:35:00,METAR KSUA 280735Z AUTO 02006KT 10SM SCT028 BKN035 24/19 A3002 RMK AO2
2026-04-28 07:15:00,METAR KSUA 280715Z AUTO 03007KT 10SM CLR 24/18 A3002 RMK AO2
2026-04-28 06:55:00,METAR KSUA 280655Z AUTO 02005KT 10SM CLR 24/19 A3003 RMK AO2
2026-04-28 06:35:00,METAR KSUA 280635Z AUTO 04008KT 10SM FEW026 24/19 A3003 RMK AO2
2026-04-28 06:15:00,METAR KSUA 280615Z AUTO 03008KT 10SM FEW025 FEW038 24/19 A3004 RMK AO2
2026-04-28 05:55:00,METAR KSUA 280555Z AUTO 04008KT 10SM SCT025 SCT037 24/20 A3004 RMK AO2
2026-04-28 05:35:00,METAR KSUA 280535Z AUTO 04006KT 10SM SCT025 BKN031 BKN036 24/19 A3004 RMK AO2
2026-04-28 05:15:00,METAR KSUA 280515Z AUTO 04008KT 10SM FEW026 BKN031 BKN037 24/20 A3005 RMK AO2
2026-04-28 04:55:00,METAR KSUA 280455Z AUTO 04009KT 10SM SCT025 SCT033 SCT039 24/20 A3005 RMK AO2
2026-04-28 04:35:00,METAR KSUA 280435Z AUTO 04009KT 10SM FEW027 24/20 A3006 RMK AO2
2026-04-28 04:15:00,METAR KSUA 280415Z AUTO 03009G16KT 10SM SCT026 SCT035 24/19 A3006 RMK AO2
2026-04-28 03:55:00,METAR KSUA 280355Z AUTO 03012KT 10SM BKN026 BKN035 25/19 A3006 RMK AO2
2026-04-28 03:35:00,METAR KSUA 280335Z AUTO 05012KT 10SM SCT026 24/20 A3006 RMK AO2
2026-04-28 03:15:00,METAR KSUA 280315Z AUTO 04011G16KT 10SM SCT024 24/20 A3006 RMK AO2
2026-04-28 02:55:00,METAR KSUA 280255Z AUTO 04010G15KT 10SM FEW026 SCT033 24/20 A3006 RMK AO2
2026-04-28 02:35:00,METAR KSUA 280235Z AUTO 04011G18KT 10SM SCT027 BKN033 25/20 A3005 RMK AO2
2026-04-28 02:15:00,METAR KSUA 280215Z AUTO 03011KT 10SM SCT022 BKN028 BKN034 25/20 A3005 RMK AO2
2026-04-28 01:50:00,METAR KSUA 280150Z 04012KT 10SM FEW024 24/20 A3004
2026-04-28 00:50:00,METAR KSUA 280050Z 05014G19KT 10SM FEW023 25/20 A3002
2026-04-27 23:50:00,METAR KSUA 272350Z 04012G19KT 10SM FEW023 25/20 A3001
2026-04-27 22:50:00,METAR KSUA 272250Z 04012G19KT 10SM SCT023 SCT060 26/20 A3000
2026-04-27 21:50:00,METAR KSUA 272150Z 04015G20KT 10SM FEW023 SCT065 27/21 A2999
2026-04-27 20:50:00,METAR KSUA 272050Z 05012G18KT 10SM SCT023 28/21 A2999
2026-04-27 19:50:00,METAR KSUA 271950Z 04015G21KT 10SM SCT021 29/21 A2999
2026-04-27 18:50:00,METAR KSUA 271850Z 03018G21KT 10SM BKN025 29/21 A2999
2026-04-27 17:47:00,METAR KSUA 271747Z 04008G18KT 7SM BKN028 29/22 A2999
2026-04-27 16:47:00,METAR KSUA 271647Z 04008G18KT 7SM SCT015 28/22 A3000
2026-04-27 16:30:00,SPECI KSUA 271630Z 05008G18KT 7SM SCT015 28/22 A3000
2026-04-27 15:47:00,METAR KSUA 271547Z 36010G18KT 7SM SCT015 28/22 A3000
2026-04-27 14:47:00,METAR KSUA 271447Z 36010KT 7SM SCT015 28/23 A2999
2026-04-27 12:47:00,METAR KSUA 271247Z 35009KT 7SM SCT015 27/23 A2997
2026-04-27 11:47:00,METAR KSUA 271147Z 32005KT 7SM HZ CLR 22/22 A2993
2026-04-27 10:47:00,METAR KSUA 271047Z 29005KT 10SM SCT004 21/21 A2991
2026-04-27 10:35:00,METAR KSUA 271035Z AUTO 31004KT 10SM SCT004 21/20 A2991 RMK AO2 LTG DSNT NE
2026-04-27 10:15:00,METAR KSUA 271015Z AUTO 33004KT 10SM CLR 21/20 A2990 RMK AO2
2026-04-27 09:55:00,METAR KSUA 270955Z AUTO 31004KT 10SM CLR 20/19 A2989 RMK AO2
2026-04-27 09:35:00,METAR KSUA 270935Z AUTO 00000KT 10SM CLR 20/19 A2988 RMK AO2
2026-04-27 09:15:00,METAR KSUA 270915Z AUTO 29005KT 10SM CLR 20/19 A2987 RMK AO2
2026-04-27 08:55:00,METAR KSUA 270855Z AUTO 27004KT 10SM CLR 20/19 A2987 RMK AO2
2026-04-27 08:35:00,METAR KSUA 270835Z AUTO 27003KT 10SM CLR 20/19 A2987 RMK AO2
2026-04-27 08:15:00,METAR KSUA 270815Z AUTO 26005KT 10SM CLR 21/20 A2987 RMK AO2
2026-04-27 07:55:00,METAR KSUA 270755Z AUTO 26005KT 10SM CLR 20/20 A2987 RMK AO2
2026-04-27 07:35:00,METAR KSUA 270735Z AUTO 24003KT 10SM CLR 21/20 A2987 RMK AO2
2026-04-27 07:20:00,METAR KSUA 270720Z AUTO 24004KT 10SM CLR 21/20 A2987 RMK AO2
2026-04-27 06:55:00,METAR KSUA 270655Z AUTO 00000KT 10SM CLR 21/20 A2987 RMK AO2
2026-04-27 06:35:00,METAR KSUA 270635Z AUTO 00000KT 10SM CLR 21/20 A2987 RMK AO2 LTG DSNT E
2026-04-27 06:15:00,METAR KSUA 270615Z AUTO 15004KT 10SM CLR 21/20 A2988 RMK AO2
2026-04-27 05:55:00,METAR KSUA 270555Z AUTO 15005KT 10SM CLR 22/20 A2988 RMK AO2
2026-04-27 05:35:00,METAR KSUA 270535Z AUTO 14003KT 10SM FEW060 21/21 A2988 RMK AO2 LTG DSNT E
2026-04-27 05:15:00,METAR KSUA 270515Z AUTO 00000KT 10SM CLR 21/20 A2989 RMK AO2 LTG DSNT NE AND E
2026-04-27 04:55:00,METAR KSUA 270455Z AUTO 00000KT 10SM VCTS FEW065 21/21 A2989 RMK AO2 LTG DSNT E
2026-04-27 04:35:00,METAR KSUA 270435Z AUTO 00000KT 10SM SCT060 21/21 A2989 RMK AO2 LTG DSNT E
2026-04-27 04:15:00,METAR KSUA 270415Z AUTO 00000KT 10SM VCTS SCT060 22/21 A2989 RMK AO2 LTG DSNT NE AND E
2026-04-27 03:55:00,METAR KSUA 270355Z AUTO 27003KT 10SM VCTS FEW060 FEW090 22/21 A2989 RMK AO2 LTG DSNT E
2026-04-27 03:35:00,METAR KSUA 270335Z AUTO 00000KT 10SM VCTS BKN090 22/21 A2990 RMK AO2 LTG DSNT NE AND E
2026-04-27 03:15:00,METAR KSUA 270315Z AUTO 00000KT 10SM VCTS FEW055 SCT070 BKN085 22/21 A2990 RMK AO2 LTG DSNT NE AND E
2026-04-27 02:55:00,METAR KSUA 270255Z AUTO 00000KT 10SM VCTS BKN055 OVC065 23/21 A2989 RMK AO2 LTG DSNT NE AND E
2026-04-27 02:35:00,METAR KSUA 270235Z AUTO 00000KT 10SM VCTS SCT055 BKN065 23/20 A2990 RMK AO2 LTG DSNT NE AND E
2026-04-27 02:15:00,METAR KSUA 270215Z AUTO 21003KT 10SM FEW050 SCT110 22/20 A2989 RMK AO2 LTG DSNT NE AND E
2026-04-27 01:50:00,METAR KSUA 270150Z 00000KT 10SM VCTS SCT055 BKN065 23/20 A2988 RMK LTG DNST NE
2026-04-27 00:50:00,METAR KSUA 270050Z 00000KT 10SM VCTS SCT018 BKN055 OVC080 23/21 A2988 RMK LTG DNST NE AND E
2026-04-26 23:50:00,METAR KSUA 262350Z 16008G15KT 7SM VCTS FEW026 SCT050 BKN095 27/21 A2983 RMK LTG DNST ALQDS
2026-04-26 22:47:00,METAR KSUA 262247Z 15012KT 7SM VCSH FEW060 28/21 A2983
2026-04-26 21:47:00,METAR KSUA 262147Z 09010KT 7SM SCT080 30/22 A2980
2026-04-26 20:47:00,METAR KSUA 262047Z 04005KT 7SM SCT110 31/21 A2980
2026-04-26 19:50:00,METAR KSUA 261950Z 24011KT 7SM SCT050 32/16 A2982
2026-04-26 18:50:00,METAR KSUA 261850Z 22008KT 7SM SCT050 31/18 A2984
2026-04-26 17:50:00,METAR KSUA 261750Z 24010KT 6SM HZ SCT050 31/20 A2986
2026-04-26 16:50:00,METAR KSUA 261650Z 25010KT 7SM SCT050 30/20 A2987
2026-04-26 15:48:00,METAR KSUA 261548Z 22010KT 10SM SCT040 28/19 A2989
2026-04-26 14:48:00,METAR KSUA 261448Z 22010KT 10SM SCT040 28/19 A2990
2026-04-26 13:47:00,METAR KSUA 261347Z 22010KT 10SM CLR 27/19 A2990
2026-04-26 12:47:00,METAR KSUA 261247Z 23009KT 10SM CLR 25/20 A2990
2026-04-26 11:47:00,METAR KSUA 261147Z VRB05KT 10SM FEW075 22/20 A2989
2026-04-26 10:51:00,METAR KSUA 261051Z 20004KT 10SM FEW100 22/20 A2986
2026-04-26 10:35:00,METAR KSUA 261035Z AUTO 21004KT 10SM FEW095 22/20 A2986 RMK AO2
2026-04-26 10:15:00,METAR KSUA 261015Z AUTO 20003KT 10SM FEW075 FEW090 22/20 A2986 RMK AO2
2026-04-26 09:55:00,METAR KSUA 260955Z AUTO 20005KT 10SM SCT080 SCT110 22/20 A2986 RMK AO2
2026-04-26 09:35:00,METAR KSUA 260935Z AUTO 18005KT 10SM SCT075 SCT110 22/20 A2986 RMK AO2
2026-04-26 09:15:00,METAR KSUA 260915Z AUTO 21004KT 10SM BKN075 22/20 A2986 RMK AO2
2026-04-26 08:55:00,METAR KSUA 260855Z AUTO 22004KT 10SM SCT075 22/20 A2985 RMK AO2
2026-04-26 08:35:00,METAR KSUA 260835Z AUTO 19004KT 10SM FEW046 FEW065 SCT075 22/19 A2985 RMK AO2
2026-04-26 08:15:00,METAR KSUA 260815Z AUTO 20004KT 10SM FEW046 SCT065 BKN075 23/20 A2985 RMK AO2
2026-04-26 07:55:00,METAR KSUA 260755Z AUTO 00000KT 10SM FEW047 FEW055 BKN080 23/19 A2986 RMK AO2
2026-04-26 07:35:00,METAR KSUA 260735Z AUTO 00000KT 10SM FEW050 BKN055 23/20 A2985 RMK AO2
2026-04-26 07:15:00,METAR KSUA 260715Z AUTO 00000KT 10SM CLR 23/19 A2985 RMK AO2
2026-04-26 06:55:00,METAR KSUA 260655Z AUTO 19003KT 10SM FEW120 22/19 A2985 RMK AO2
2026-04-26 06:35:00,METAR KSUA 260635Z AUTO 21004KT 10SM SCT120 22/19 A2986 RMK AO2
2026-04-26 06:15:00,METAR KSUA 260615Z AUTO 00000KT 10SM FEW048 SCT120 21/19 A2986 RMK AO2
2026-04-26 05:55:00,METAR KSUA 260555Z AUTO 00000KT 10SM FEW046 FEW055 21/19 A2986 RMK AO2
2026-04-26 05:35:00,METAR KSUA 260535Z AUTO 00000KT 10SM SCT060 21/19 A2987 RMK AO2
2026-04-26 05:15:00,METAR KSUA 260515Z AUTO 00000KT 10SM SCT055 21/19 A2988 RMK AO2
2026-04-26 04:55:00,METAR KSUA 260455Z AUTO 00000KT 10SM BKN050 22/19 A2988 RMK AO2
2026-04-26 04:35:00,METAR KSUA 260435Z AUTO 00000KT 10SM SCT050 22/19 A2988 RMK AO2
2026-04-26 04:15:00,METAR KSUA 260415Z AUTO 00000KT 10SM BKN050 BKN055 23/19 A2988 RMK AO2
2026-04-26 03:55:00,METAR KSUA 260355Z AUTO 00000KT 10SM FEW027 BKN050 BKN055 23/19 A2988 RMK AO2
2026-04-26 03:35:00,METAR KSUA 260335Z AUTO 00000KT 10SM FEW027 OVC050 23/19 A2989 RMK AO2
2026-04-26 03:15:00,METAR KSUA 260315Z AUTO 22005KT 10SM FEW026 OVC055 23/19 A2989 RMK AO2
2026-04-26 02:55:00,METAR KSUA 260255Z AUTO 22003KT 10SM SCT026 OVC055 23/19 A2989 RMK AO2
2026-04-26 02:35:00,METAR KSUA 260235Z AUTO 21004KT 10SM BKN055 OVC065 24/19 A2989 RMK AO2
2026-04-26 02:15:00,METAR KSUA 260215Z AUTO 16005KT 10SM SCT055 OVC070 24/19 A2988 RMK AO2
2026-04-26 00:47:00,METAR KSUA 260047Z 15006KT 10SM CLR 24/19 A2987
2026-04-25 23:47:00,METAR KSUA 252347Z 12009KT 10SM CLR 25/18 A2985
2026-04-25 22:47:00,METAR KSUA 252247Z 12013KT 10SM CLR 26/19 A2984
2026-04-25 21:47:00,METAR KSUA 252147Z 12011KT 10SM CLR 27/18 A2984
2026-04-25 20:47:00,METAR KSUA 252047Z 11011KT 10SM CLR 28/19 A2985
2026-04-25 19:47:00,METAR KSUA 251947Z 09013KT 7SM CLR 28/19 A2987
2026-04-25 18:47:00,METAR KSUA 251847Z 11013KT 7SM SCT025 28/19 A2987
2026-04-25 17:47:00,METAR KSUA 251747Z 10012KT 7SM SCT025 28/18 A2988
2026-04-25 16:47:00,METAR KSUA 251647Z 10009KT 7SM SCT025 28/18 A2989
2026-04-25 15:47:00,METAR KSUA 251547Z 07010KT 7SM SCT025 28/19 A2990
2026-04-25 14:47:00,METAR KSUA 251447Z 11010KT 7SM SCT015 27/19 A2989
2026-04-25 13:47:00,METAR KSUA 251347Z 15008KT 7SM CLR 26/19 A2989
2026-04-25 12:47:00,METAR KSUA 251247Z 18004KT 7SM CLR 24/19 A2990
2026-04-25 11:47:00,METAR KSUA 251147Z 00000KT 7SM CLR 20/20 A2988
2026-04-25 10:47:00,METAR KSUA 251047Z 00000KT 6SM BR CLR 18/18 A2987
2026-04-25 10:35:00,METAR KSUA 251035Z AUTO 00000KT 10SM CLR 18/18 A2987 RMK AO2
2026-04-25 10:15:00,METAR KSUA 251015Z AUTO 00000KT 10SM CLR 18/18 A2987 RMK AO2
2026-04-25 09:55:00,METAR KSUA 250955Z AUTO 00000KT 10SM CLR 18/18 A2986 RMK AO2
2026-04-25 09:35:00,METAR KSUA 250935Z AUTO 00000KT 10SM CLR 18/18 A2986 RMK AO2
2026-04-25 09:15:00,METAR KSUA 250915Z AUTO 00000KT 10SM CLR 19/19 A2986 RMK AO2
2026-04-25 08:55:00,METAR KSUA 250855Z AUTO 00000KT 10SM CLR 19/18 A2986 RMK AO2
2026-04-25 08:35:00,METAR KSUA 250835Z AUTO 00000KT 10SM CLR 19/18 A2986 RMK AO2
2026-04-25 08:15:00,METAR KSUA 250815Z AUTO 00000KT 10SM CLR 19/18 A2986 RMK AO2
2026-04-25 07:55:00,METAR KSUA 250755Z AUTO 00000KT 10SM CLR 19/18 A2986 RMK AO2
2026-04-25 07:35:00,METAR KSUA 250735Z AUTO 00000KT 10SM CLR 20/18 A2986 RMK AO2
2026-04-25 07:15:00,METAR KSUA 250715Z AUTO 00000KT 10SM CLR 20/18 A2986 RMK AO2
2026-04-25 06:55:00,METAR KSUA 250655Z AUTO 00000KT 10SM CLR 20/19 A2987 RMK AO2
2026-04-25 06:35:00,METAR KSUA 250635Z AUTO 00000KT 10SM CLR 20/19 A2987 RMK AO2
2026-04-25 06:15:00,METAR KSUA 250615Z AUTO 00000KT 10SM CLR 20/19 A2988 RMK AO2
2026-04-25 05:55:00,METAR KSUA 250555Z AUTO 00000KT 10SM CLR 21/19 A2989 RMK AO2
2026-04-25 05:40:00,METAR KSUA 250540Z AUTO 00000KT 10SM CLR 21/19 A2990 RMK AO2
2026-04-25 05:15:00,METAR KSUA 250515Z AUTO 00000KT 10SM CLR 22/19 A2990 RMK AO2
2026-04-25 04:55:00,METAR KSUA 250455Z AUTO 20003KT 10SM CLR 22/19 A2990 RMK AO2
2026-04-25 04:35:00,METAR KSUA 250435Z AUTO 17004KT 10SM CLR 22/19 A2991 RMK AO2
2026-04-25 04:15:00,METAR KSUA 250415Z AUTO 18003KT 10SM CLR 22/19 A2991 RMK AO2
2026-04-25 03:55:00,METAR KSUA 250355Z AUTO 16005KT 10SM CLR 22/19 A2990 RMK AO2
2026-04-25 03:35:00,METAR KSUA 250335Z AUTO 13005KT 10SM CLR 22/19 A2990 RMK AO2
2026-04-25 03:15:00,METAR KSUA 250315Z AUTO 14004KT 10SM FEW025 22/19 A2991 RMK AO2
2026-04-25 02:55:00,METAR KSUA 250255Z AUTO 14005KT 10SM FEW024 22/20 A2991 RMK AO2
2026-04-25 02:35:00,METAR KSUA 250235Z AUTO 13004KT 10SM CLR 22/19 A2991 RMK AO2
2026-04-25 01:47:00,METAR KSUA 250147Z 11006KT 10SM CLR 22/19 A2991
2026-04-25 00:47:00,METAR KSUA 250047Z 11006KT 10SM CLR 23/19 A2990
2026-04-24 23:47:00,METAR KSUA 242347Z 11008KT 7SM CLR 24/19 A2989
2026-04-24 22:47:00,METAR KSUA 242247Z 10010KT 7SM FEW080 25/19 A2989
2026-04-24 21:47:00,METAR KSUA 242147Z 10012KT 7SM CLR 25/19 A2988
2026-04-24 20:47:00,METAR KSUA 242047Z 09012KT 7SM CLR 26/19 A2987
2026-04-24 19:47:00,METAR KSUA 241947Z 10011G16KT 7SM CLR 27/20 A2989
2026-04-24 18:47:00,METAR KSUA 241847Z 10012G18KT 7SM FEW075 27/20 A2991
2026-04-24 17:47:00,METAR KSUA 241747Z 08014KT 7SM SCT047 27/19 A2993
2026-04-24 16:47:00,METAR KSUA 241647Z 08010KT 7SM SCT039 27/18 A2995
2026-04-24 15:47:00,METAR KSUA 241547Z 10005KT 7SM VCSH SCT017 BKN030 26/18 A2997
2026-04-24 14:48:00,METAR KSUA 241448Z 13006KT 7SM VCSH SCT017 BKN030 25/16 A2998
2026-04-24 14:47:00,METAR KSUA 241447Z 13006KT 7SM SCT017 BKN030 25/16 A2998
2026-04-24 13:47:00,METAR KSUA 241347Z 15004KT 7SM SCT014 SCT030 24/17 A2997
2026-04-24 12:47:00,METAR KSUA 241247Z VRB03KT 7SM SCT012 SCT027 23/18 A2997
2026-04-24 11:47:00,METAR KSUA 241147Z VRB03KT 7SM SCT012 SCT027 21/18 A2996
2026-04-24 10:47:00,METAR KSUA 241047Z 00000KT 7SM VCSH SCT012 SCT027 20/17 A2994
2026-04-24 10:35:00,METAR KSUA 241035Z AUTO 00000KT 9SM FEW035 SCT075 OVC110 20/18 A2994 RMK AO2
2026-04-24 10:15:00,METAR KSUA 241015Z AUTO 00000KT 10SM BKN120 20/17 A2994 RMK AO2
2026-04-24 09:55:00,METAR KSUA 240955Z AUTO 00000KT 10SM BKN120 20/17 A2993 RMK AO2
2026-04-24 09:35:00,METAR KSUA 240935Z AUTO 00000KT 10SM FEW040 FEW046 OVC120 20/17 A2993 RMK AO2
2026-04-24 09:15:00,METAR KSUA 240915Z AUTO 00000KT 10SM FEW035 SCT045 OVC120 21/17 A2993 RMK AO2
2026-04-24 08:55:00,METAR KSUA 240855Z AUTO 00000KT 10SM FEW035 SCT042 OVC120 21/17 A2993 RMK AO2
2026-04-24 04:35:00,METAR KSUA 240435Z AUTO 00000KT 10SM CLR 22/13 A3001 RMK AO2
2026-04-24 04:15:00,METAR KSUA 240415Z AUTO 13004KT 10SM CLR 21/13 A3001 RMK AO2
2026-04-24 03:55:00,METAR KSUA 240355Z AUTO 12005KT 10SM CLR 21/13 A3001 RMK AO2
2026-04-24 03:35:00,METAR KSUA 240335Z AUTO 12004KT 10SM CLR 21/13 A3001 RMK AO2
2026-04-24 03:15:00,METAR KSUA 240315Z AUTO 09007KT 10SM FEW065 21/13 A3001 RMK AO2
2026-04-24 02:55:00,METAR KSUA 240255Z AUTO 10005KT 10SM FEW065 21/14 A3001 RMK AO2
2026-04-24 02:35:00,METAR KSUA 240235Z AUTO 10006KT 10SM FEW070 22/14 A3001 RMK AO2
2026-04-24 02:15:00,METAR KSUA 240215Z AUTO 10006KT 10SM CLR 21/14 A3002 RMK AO2
2026-04-24 01:47:00,METAR KSUA 240147Z 09008KT 7SM CLR 22/14 A3001
2026-04-24 00:47:00,METAR KSUA 240047Z 10009KT 7SM CLR 22/15 A3001
2026-04-23 23:47:00,METAR KSUA 232347Z 11008KT 7SM BKN085 22/15 A3000
2026-04-23 22:47:00,METAR KSUA 232247Z 10009KT 7SM SCT090 24/15 A3000
2026-04-23 21:47:00,METAR KSUA 232147Z 11013KT 7SM SCT047 25/16 A3000
2026-04-23 20:47:00,METAR KSUA 232047Z 09013G21KT 7SM SCT047 25/16 A3000
2026-04-23 19:47:00,METAR KSUA 231947Z 12014G21KT 7SM SCT032 BKN039 25/16 A3002
2026-04-23 18:47:00,METAR KSUA 231847Z 10013G20KT 7SM SCT032 BKN041 25/17 A3004
2026-04-23 17:47:00,METAR KSUA 231747Z 11014KT 7SM SCT019 SCT032 25/17 A3005
2026-04-23 16:47:00,METAR KSUA 231647Z 13014G20KT 7SM SCT017 SCT040 26/17 A3007
2026-04-23 15:47:00,METAR KSUA 231547Z 11012G20KT 7SM SCT017 SCT040 26/17 A3009
2026-04-23 14:47:00,METAR KSUA 231447Z 11012KT 7SM SCT017 SCT040 26/17 A3009
2026-04-23 13:47:00,METAR KSUA 231347Z 11012KT 7SM SCT017 24/16 A3008
2026-04-23 11:47:00,METAR KSUA 231147Z 10009KT 7SM SCT015 21/16 A3008
2026-04-23 10:50:00,METAR KSUA 231050Z 10005KT 10SM FEW015 20/15 A3007
2026-04-23 10:35:00,METAR KSUA 231035Z AUTO 12005G10KT 10SM CLR 20/15 A3007 RMK AO2
2026-04-23 10:15:00,METAR KSUA 231015Z AUTO 13005KT 10SM CLR 20/15 A3006 RMK AO2
2026-04-23 09:55:00,METAR KSUA 230955Z AUTO 09007KT 10SM FEW036 20/15 A3006 RMK AO2
2026-04-23 09:40:00,METAR KSUA 230940Z AUTO 11006KT 10SM FEW036 20/15 A3006 RMK AO2
2026-04-23 09:15:00,METAR KSUA 230915Z AUTO 10004KT 10SM FEW037 FEW043 20/15 A3006 RMK AO2
2026-04-23 08:55:00,METAR KSUA 230855Z AUTO 12004KT 10SM FEW039 20/15 A3007 RMK AO2
2026-04-23 08:35:00,METAR KSUA 230835Z AUTO 12004KT 10SM CLR 20/15 A3006 RMK AO2
2026-04-23 08:00:00,METAR KSUA 230800Z AUTO 12005KT 10SM CLR 20/15 A3006 RMK AO2 LTG DSNT SW
2026-04-23 07:35:00,METAR KSUA 230735Z AUTO 12006KT 10SM CLR 20/15 A3006 RMK AO2 LTG DSNT SW
2026-04-23 07:15:00,METAR KSUA 230715Z AUTO 12006KT 10SM CLR 20/15 A3007 RMK AO2
2026-04-23 06:55:00,METAR KSUA 230655Z AUTO 12006KT 10SM CLR 20/15 A3007 RMK AO2
2026-04-23 06:15:00,METAR KSUA 230615Z AUTO 12006KT 10SM SCT038 BKN047 21/14 A3008 RMK AO2
2026-04-23 05:55:00,METAR KSUA 230555Z AUTO 12007KT 10SM SCT038 21/14 A3009 RMK AO2
2026-04-23 05:35:00,METAR KSUA 230535Z AUTO 12008KT 10SM FEW042 20/14 A3010 RMK AO2
2026-04-23 05:15:00,METAR KSUA 230515Z AUTO 12006KT 10SM FEW043 21/14 A3010 RMK AO2
2026-04-23 05:00:00,METAR KSUA 230500Z AUTO 12008KT 10SM CLR 21/14 A3010 RMK AO2
2026-04-23 04:35:00,METAR KSUA 230435Z AUTO 11008KT 10SM FEW043 21/14 A3011 RMK AO2
2026-04-23 04:15:00,METAR KSUA 230415Z AUTO 11006KT 10SM SCT042 21/14 A3011 RMK AO2
2026-04-23 03:55:00,METAR KSUA 230355Z AUTO 11007KT 10SM SCT041 21/14 A3012 RMK AO2
2026-04-23 03:35:00,METAR KSUA 230335Z AUTO 10008KT 10SM FEW041 22/14 A3012 RMK AO2
2026-04-23 03:15:00,METAR KSUA 230315Z AUTO 09010KT 10SM CLR 22/14 A3012 RMK AO2
2026-04-23 02:55:00,METAR KSUA 230255Z AUTO 10009KT 10SM CLR 22/13 A3013 RMK AO2
2026-04-23 02:35:00,METAR KSUA 230235Z AUTO 09008KT 10SM FEW070 22/14 A3013 RMK AO2
2026-04-23 02:15:00,METAR KSUA 230215Z AUTO 09010KT 10SM FEW070 22/13 A3013 RMK AO2
2026-04-23 01:48:00,METAR KSUA 230148Z 10008KT 10SM CLR 22/13 A3012
2026-04-23 00:48:00,METAR KSUA 230048Z 09010KT 10SM FEW043 22/14 A3012
2026-04-22 23:48:00,METAR KSUA 222348Z 09010KT 10SM SCT040 22/13 A3011
2026-04-22 22:47:00,METAR KSUA 222247Z 10012KT 7SM SCT025 24/14 A3012
2026-04-22 21:47:00,METAR KSUA 222147Z 11012G19KT 7SM SCT025 24/14 A3012
2026-04-22 20:47:00,METAR KSUA 222047Z 10014G20KT 7SM SCT025 26/15 A3012
2026-04-22 19:47:00,METAR KSUA 221947Z 10015KT 7SM SCT025 26/14 A3014
2026-04-22 18:47:00,METAR KSUA 221847Z 11014G23KT 7SM SCT025 BKN040 26/13 A3017
2026-04-22 17:48:00,METAR KSUA 221748Z 10016G24KT 7SM SCT025 BKN040 26/14 A3018
2026-04-22 17:47:00,METAR KSUA 221747Z 10016G24KT 7SM SCT025 26/14 A3018
2026-04-22 16:47:00,METAR KSUA 221647Z 11014G24KT 7SM SCT025 26/13 A3020
2026-04-22 15:50:00,METAR KSUA 221550Z 11014G23KT 10SM SCT047 BKN060 24/12 A3022
2026-04-22 14:50:00,METAR KSUA 221450Z 11014G19KT 10SM SCT047 BKN055 24/13 A3022
2026-04-22 13:50:00,METAR KSUA 221350Z 10015G21KT 10SM SCT050 BKN065 24/13 A3020
2026-04-22 12:50:00,METAR KSUA 221250Z 11014G20KT 10SM SCT049 BKN055 24/13 A3020
2026-04-22 11:50:00,METAR KSUA 221150Z 10013G20KT 10SM SCT047 BKN065 22/13 A3019
2026-04-22 10:47:00,METAR KSUA 221047Z 11014KT 10SM FEW046 OVC060 22/13 A3017
2026-04-22 10:35:00,METAR KSUA 221035Z AUTO 10012G18KT 10SM OVC060 22/12 A3017 RMK AO2
2026-04-22 10:20:00,METAR KSUA 221020Z AUTO 10013KT 10SM OVC060 22/12 A3016 RMK AO2
2026-04-22 09:35:00,METAR KSUA 220935Z AUTO 10011G18KT 10SM OVC060 22/13 A3016 RMK AO2
2026-04-22 09:15:00,METAR KSUA 220915Z AUTO 09013G19KT 10SM FEW047 OVC060 22/12 A3016 RMK AO2
2026-04-22 08:20:00,METAR KSUA 220820Z AUTO 10016G22KT 10SM SCT050 BKN060 22/12 A3016 RMK AO2
2026-04-22 08:00:00,METAR KSUA 220800Z AUTO 09012G19KT 10SM SCT049 OVC060 22/12 A3016 RMK AO2
2026-04-22 07:40:00,METAR KSUA 220740Z AUTO 11014KT 10SM SCT047 BKN060 22/12 A3017 RMK AO2
2026-04-22 07:15:00,METAR KSUA 220715Z AUTO 10015KT 10SM SCT046 OVC055 22/12 A3017 RMK AO2
2026-04-22 06:55:00,METAR KSUA 220655Z AUTO 10013G18KT 10SM SCT045 BKN050 22/13 A3017 RMK AO2
2026-04-22 06:35:00,METAR KSUA 220635Z AUTO 08013KT 10SM FEW048 SCT055 22/12 A3018 RMK AO2
2026-04-22 06:20:00,METAR KSUA 220620Z AUTO 09014G21KT 10SM FEW050 SCT060 22/11 A3018 RMK AO2
2026-04-22 06:00:00,METAR KSUA 220600Z AUTO 09015KT 10SM FEW050 SCT055 22/10 A3019 RMK AO2
2026-04-22 05:30:00,METAR KSUA 220530Z AUTO 09017KT 10SM FEW050 22/12 A3019 RMK AO2
2026-04-22 05:15:00,METAR KSUA 220515Z AUTO 08015KT 10SM FEW049 FEW060 22/12 A3020 RMK AO2
2026-04-22 05:00:00,METAR KSUA 220500Z AUTO 08012G26KT 10SM FEW048 FEW060 22/12 A3021 RMK AO2
2026-04-22 04:35:00,METAR KSUA 220435Z AUTO 08017G22KT 10SM FEW050 22/11 A3021 RMK AO2
2026-04-22 04:20:00,METAR KSUA 220420Z AUTO 07015G23KT 10SM FEW055 22/12 A3021 RMK AO2
2026-04-22 03:55:00,METAR KSUA 220355Z AUTO 07015G20KT 10SM FEW047 BKN055 22/11 A3022 RMK AO2
2026-04-22 03:35:00,METAR KSUA 220335Z AUTO 08015G20KT 10SM FEW049 BKN060 22/12 A3022 RMK AO2
2026-04-22 03:15:00,METAR KSUA 220315Z AUTO 07014G19KT 10SM FEW055 22/10 A3023 RMK AO2
2026-04-22 03:00:00,METAR KSUA 220300Z AUTO 09012G19KT 10SM SCT050 22/11 A3023 RMK AO2
2026-04-22 02:35:00,METAR KSUA 220235Z AUTO 08013G20KT 10SM FEW047 FEW055 SCT065 22/11 A3023 RMK AO2
2026-04-22 01:47:00,METAR KSUA 220147Z 09017KT 7SM SCT032 22/11 A3023
2026-04-22 00:47:00,METAR KSUA 220047Z 08015G25KT 7SM SCT032 22/11 A3022
2026-04-21 23:47:00,METAR KSUA 212347Z 09016G25KT 7SM SCT025 22/12 A3021
2026-04-21 22:47:00,METAR KSUA 212247Z 09018G27KT 7SM SCT025 23/12 A3020
2026-04-21 21:47:00,METAR KSUA 212147Z 08017G26KT 7SM SCT025 24/12 A3020
2026-04-21 20:47:00,METAR KSUA 212047Z 07019G27KT 7SM SCT030 25/13 A3020
2026-04-21 19:47:00,METAR KSUA 211947Z 08017G28KT 7SM SCT030 25/12 A3021
2026-04-21 18:47:00,METAR KSUA 211847Z 08018G27KT 7SM SCT030 26/13 A3023
2026-04-21 17:50:00,METAR KSUA 211750Z 06019G28KT 10SM FEW050 25/12 A3024
2026-04-21 16:50:00,METAR KSUA 211650Z 06016G28KT 10SM FEW050 26/13 A3025
2026-04-21 15:47:00,METAR KSUA 211547Z 06017G25KT 7SM FEW048 25/12 A3027
2026-04-21 14:47:00,METAR KSUA 211447Z 06017G25KT 7SM FEW048 25/12 A3025
2026-04-21 13:50:00,METAR KSUA 211350Z 07017G25KT 7SM FEW049 24/12 A3024
2026-04-21 12:50:00,METAR KSUA 211250Z 05012G22KT 7SM SCT048 23/14 A3022
2026-04-21 11:50:00,METAR KSUA 211150Z 04020G25KT 7SM SCT043 22/14 A3020
2026-04-21 10:47:00,METAR KSUA 211047Z 05013G19KT 10SM SCT045 22/14 A3017
2026-04-21 10:35:00,METAR KSUA 211035Z AUTO 04011G24KT 10SM SCT045 22/13 A3017 RMK AO2
2026-04-21 10:15:00,METAR KSUA 211015Z AUTO 05014G23KT 10SM BKN044 BKN049 22/13 A3016 RMK AO2
2026-04-21 09:55:00,METAR KSUA 210955Z AUTO 04016G22KT 10SM BKN045 22/13 A3016 RMK AO2
2026-04-21 09:35:00,METAR KSUA 210935Z AUTO 05016G25KT 10SM SCT042 SCT050 22/13 A3016 RMK AO2
2026-04-21 09:15:00,METAR KSUA 210915Z AUTO 05015G23KT 10SM SCT041 SCT049 22/14 A3016 RMK AO2
2026-04-21 08:55:00,METAR KSUA 210855Z AUTO 05015G21KT 10SM SCT044 22/14 A3016 RMK AO2
2026-04-21 08:35:00,METAR KSUA 210835Z AUTO 06018G25KT 10SM SCT044 BKN049 22/13 A3016 RMK AO2
2026-04-21 08:20:00,METAR KSUA 210820Z AUTO 06019G26KT 10SM SCT044 BKN050 22/14 A3016 RMK AO2
2026-04-21 07:55:00,METAR KSUA 210755Z AUTO 04016G23KT 10SM BKN047 22/13 A3015 RMK AO2
2026-04-21 07:35:00,METAR KSUA 210735Z AUTO 04016KT 10SM BKN046 22/14 A3015 RMK AO2
2026-04-21 07:15:00,METAR KSUA 210715Z AUTO 05017KT 10SM FEW042 22/14 A3015 RMK AO2
2026-04-21 06:55:00,METAR KSUA 210655Z AUTO 04014G22KT 10SM SCT041 22/14 A3015 RMK AO2
2026-04-21 06:35:00,METAR KSUA 210635Z AUTO 05015KT 10SM SCT042 SCT047 22/14 A3015 RMK AO2
2026-04-21 06:15:00,METAR KSUA 210615Z AUTO 04015G21KT 10SM BKN042 BKN047 22/14 A3015 RMK AO2
2026-04-21 05:55:00,METAR KSUA 210555Z AUTO 05018KT 10SM BKN043 22/15 A3015 RMK AO2
2026-04-21 05:35:00,METAR KSUA 210535Z AUTO 04017KT 10SM SCT041 23/14 A3015 RMK AO2
2026-04-21 05:15:00,METAR KSUA 210515Z AUTO 05015G21KT 10SM SCT039 23/15 A3015 RMK AO2
2026-04-21 04:55:00,METAR KSUA 210455Z AUTO 05016KT 10SM FEW041 23/15 A3015 RMK AO2
2026-04-21 04:35:00,METAR KSUA 210435Z AUTO 05016KT 10SM SCT041 23/14 A3016 RMK AO2
2026-04-21 04:15:00,METAR KSUA 210415Z AUTO 04016G21KT 10SM SCT041 23/15 A3015 RMK AO2
2026-04-21 03:55:00,METAR KSUA 210355Z AUTO 05012G21KT 10SM SCT041 23/15 A3015 RMK AO2
2026-04-21 03:35:00,METAR KSUA 210335Z AUTO 04018KT 10SM FEW038 SCT044 23/16 A3015 RMK AO2
2026-04-21 03:15:00,METAR KSUA 210315Z AUTO 04015G22KT 10SM FEW037 FEW045 23/16 A3015 RMK AO2
2026-04-21 02:55:00,METAR KSUA 210255Z AUTO 05016KT 10SM SCT035 BKN048 23/16 A3015 RMK AO2
2026-04-21 02:35:00,METAR KSUA 210235Z AUTO 04016G24KT 10SM SCT032 SCT037 BKN048 23/17 A3014 RMK AO2
2026-04-21 02:15:00,METAR KSUA 210215Z AUTO 04016G24KT 10SM SCT032 SCT042 BKN050 23/18 A3014 RMK AO2
2026-04-21 01:50:00,METAR KSUA 210150Z 04015G24KT 10SM SCT037 BKN047 23/17 A3013
2026-04-21 00:50:00,METAR KSUA 210050Z 04016G24KT 10SM SCT027 BKN032 OVC050 23/19 A3011
2026-04-20 23:50:00,METAR KSUA 202350Z 04015G26KT 10SM SCT029 BKN035 OVC060 24/19 A3009
2026-04-20 21:47:00,METAR KSUA 202147Z 05020G26KT 7SM SCT029 BKN035 OVC050 23/19 A3008
2026-04-20 20:47:00,METAR KSUA 202047Z 03013G26KT 6SM -RA BR BKN020 OVC025 24/21 A3007
2026-04-20 19:47:00,METAR KSUA 201947Z 04018G26KT 7SM VCSH SCT030 27/21 A3007
2026-04-20 18:47:00,METAR KSUA 201847Z 03018G24KT 7SM VCSH SCT021 BKN037 27/21 A3008
2026-04-20 17:47:00,METAR KSUA 201747Z 04018G24KT 7SM VCSH FEW022 BKN037 OVC060 25/22 A3008
2026-04-20 16:47:00,METAR KSUA 201647Z 05016G22KT 7SM VCSH SCT021 BKN036 OVC100 27/22 A3008
2026-04-20 15:47:00,METAR KSUA 201547Z 04013G22KT 7SM VCSH SCT020 BKN029 26/22 A3008
2026-04-20 14:47:00,METAR KSUA 201447Z 04013G21KT 7SM VCSH BKN018 BKN026 27/23 A3007
2026-04-20 13:47:00,METAR KSUA 201347Z 05008G17KT 6SM BR FEW020 BKN043 26/22 A3006
2026-04-20 12:47:00,METAR KSUA 201247Z 04008G17KT 6SM BR FEW020 BKN060 25/21 A3005
2026-04-20 11:47:00,METAR KSUA 201147Z 02008KT 6SM BR FEW020 BKN035 24/21 A3004
2026-04-20 10:47:00,METAR KSUA 201047Z 36004KT 6SM -RA BR SCT016 BKN020 OVC029 24/22 A3001
2026-04-20 10:40:00,METAR KSUA 201040Z AUTO 34005KT 10SM BKN016 BKN020 OVC027 24/23 A3001 RMK AO2
2026-04-20 10:15:00,METAR KSUA 201015Z AUTO 32006KT 10SM SCT014 BKN020 OVC029 23/23 A3000 RMK AO2
2026-04-20 09:50:00,METAR KSUA 200950Z AUTO 33005KT 10SM BKN015 23/23 A2999 RMK AO2
2026-04-20 09:30:00,METAR KSUA 200930Z AUTO 33004KT 10SM SCT016 SCT020 23/23 A2999 RMK AO2
2026-04-20 08:35:00,METAR KSUA 200835Z AUTO 31003KT 10SM SCT050 SCT055 SCT085 23/23 A2998 RMK AO2
2026-04-20 08:15:00,METAR KSUA 200815Z AUTO 00000KT 10SM SCT085 23/23 A2997 RMK AO2
2026-04-20 08:00:00,METAR KSUA 200800Z AUTO 00000KT 10SM BKN085 23/23 A2997 RMK AO2
2026-04-20 07:15:00,METAR KSUA 200715Z AUTO 00000KT 10SM FEW070 SCT075 BKN085 24/23 A2998 RMK AO2
2026-04-20 07:00:00,METAR KSUA 200700Z AUTO 17004KT 10SM BKN065 BKN075 24/23 A2998 RMK AO2
2026-04-20 06:35:00,METAR KSUA 200635Z AUTO 00000KT 10SM BKN060 24/23 A2999 RMK AO2
2026-04-20 05:15:00,METAR KSUA 200515Z AUTO 00000KT 10SM FEW060 SCT075 24/23 A3000 RMK AO2
2026-04-20 04:55:00,METAR KSUA 200455Z AUTO 00000KT 10SM SCT060 OVC075 25/23 A3001 RMK AO2
2026-04-20 04:40:00,METAR KSUA 200440Z AUTO 00000KT 10SM SCT060 OVC070 25/23 A3001 RMK AO2
2026-04-20 03:55:00,METAR KSUA 200355Z AUTO 00000KT 10SM OVC060 25/23 A3001 RMK AO2
2026-04-20 03:35:00,METAR KSUA 200335Z AUTO 14004KT 10SM BKN060 25/23 A3001 RMK AO2
2026-04-20 02:55:00,METAR KSUA 200255Z AUTO 11004KT 10SM FEW050 BKN060 25/23 A3001 RMK AO2
2026-04-20 01:50:00,METAR KSUA 200150Z 08006KT 10SM BKN050 OVC060 26/23 A3001
2026-04-20 00:50:00,METAR KSUA 200050Z 11006KT 10SM OVC048 26/23 A2999
2026-04-19 23:50:00,METAR KSUA 192350Z 10004KT 10SM BKN043 BKN050 26/23 A2997
2026-04-19 22:50:00,METAR KSUA 192250Z 12007KT 10SM VCSH SCT043 BKN050 26/23 A2995
2026-04-19 21:50:00,SPECI KSUA 192150Z 13007KT 10SM SCT049 BKN070 26/24 A2994
2026-04-19 20:50:00,SPECI KSUA 192050Z 12012KT 10SM SCT045 BKN050 BKN100 27/23 A2994
2026-04-19 19:50:00,SPECI KSUA 191950Z 10010KT 10SM SCT040 BKN050 29/23 A2995
2026-04-19 18:50:00,SPECI KSUA 191850Z 11010KT 10SM FEW040 SCT045 29/23 A2998
2026-04-19 17:47:00,SPECI KSUA 191747Z 11008KT 10SM FEW044 SCT050 BKN095 28/23 A2999
2026-04-19 16:47:00,SPECI KSUA 191647Z 09008KT 10SM FEW042 SCT080 28/24 A3001
2026-04-19 16:30:00,SPECI KSUA 191630Z 07008KT 10SM SCT034 BKN090 29/23 A3001
2026-04-19 15:47:00,METAR KSUA 191547Z 27004KT 10SM SCT029 BKN040 29/22 A3002
2026-04-19 14:47:00,METAR KSUA 191447Z 23007KT 10SM FEW022 SCT035 28/22 A3002
2026-04-19 13:47:00,METAR KSUA 191347Z 26006KT 10SM SCT018 BKN024 27/22 A3002
2026-04-19 12:47:00,METAR KSUA 191247Z 00000KT 10SM SCT085 25/23 A3002
2026-04-19 11:47:00,METAR KSUA 191147Z 00000KT 10SM SCT011 BKN018 23/23 A3001
2026-04-19 10:47:00,METAR KSUA 191047Z 00000KT 10SM CLR 21/21 A2999
2026-04-19 09:30:00,METAR KSUA 190930Z AUTO 00000KT 10SM FEW015 SCT085 21/21 A2997 RMK AO2
2026-04-19 09:20:00,METAR KSUA 190920Z AUTO 00000KT 10SM CLR 21/21 A2997 RMK AO2
2026-04-19 08:10:00,METAR KSUA 190810Z AUTO 00000KT 10SM CLR 22/22 A2997 RMK AO2
2026-04-19 06:15:00,METAR KSUA 190615Z AUTO 00000KT 10SM BKN019 BKN065 24/22 A2999 RMK AO2
2026-04-19 05:15:00,METAR KSUA 190515Z AUTO 14006KT 10SM BKN016 24/22 A3000 RMK AO2
2026-04-19 04:15:00,METAR KSUA 190415Z AUTO 13009KT 10SM FEW017 24/22 A3001 RMK AO2
2026-04-19 03:55:00,METAR KSUA 190355Z AUTO 12006KT 10SM SCT017 24/22 A3001 RMK AO2
2026-04-19 03:40:00,METAR KSUA 190340Z AUTO 12007KT 10SM SCT018 24/22 A3001 RMK AO2
2026-04-19 02:55:00,METAR KSUA 190255Z AUTO 11008KT 10SM SCT019 24/22 A3001 RMK AO2
2026-04-19 02:35:00,METAR KSUA 190235Z AUTO 11007KT 10SM BKN019 24/22 A3001 RMK AO2
2026-04-19 00:47:00,METAR KSUA 190047Z 10009KT 10SM SCT019 25/22 A2998
2026-04-18 23:47:00,METAR KSUA 182347Z 09007KT 10SM FEW 27/21 A2996
2026-04-18 22:47:00,METAR KSUA 182247Z 10008KT 10SM CLR 27/21 A2996
2026-04-18 21:47:00,METAR KSUA 182147Z 09009KT 10SM CLR 27/20 A2997
2026-04-18 20:47:00,METAR KSUA 182047Z 08009KT 10SM CLR 28/20 A2997
2026-04-18 19:47:00,METAR KSUA 181947Z 09012KT 10SM CLR 28/21 A2998
2026-04-18 18:47:00,METAR KSUA 181847Z 08010KT 10SM CLR 29/21 A3000
2026-04-18 17:47:00,METAR KSUA 181747Z 11011KT 7SM SCT025 29/22 A3001
2026-04-18 16:47:00,METAR KSUA 181647Z 10010KT 7SM SCT025 28/22 A3002
2026-04-18 14:47:00,METAR KSUA 181447Z 07006KT 7SM SCT020 28/23 A3004
2026-04-18 13:47:00,METAR KSUA 181347Z 06006KT 7SM SCT020 26/22 A3003
2026-04-18 12:47:00,METAR KSUA 181247Z 16006KT 7SM CLR 26/23 A3002
2026-04-18 11:47:00,METAR KSUA 181147Z 00000KT 6SM BR CLR 22/22 A3000
2026-04-18 10:47:00,METAR KSUA 181047Z 15004KT 6SM BR SCT020 22/22 A2998
2026-04-18 10:35:00,METAR KSUA 181035Z AUTO 17003KT 10SM CLR 22/22 A2998 RMK AO2
2026-04-18 10:20:00,METAR KSUA 181020Z AUTO 15003KT 10SM CLR 22/22 A2998 RMK AO2
2026-04-18 09:35:00,METAR KSUA 180935Z AUTO 16005KT 10SM CLR 23/22 A2997 RMK AO2
2026-04-18 08:50:00,METAR KSUA 180850Z AUTO 17004KT 10SM FEW048 23/22 A2997 RMK AO2
2026-04-18 07:10:00,METAR KSUA 180710Z AUTO 00000KT 10SM CLR 22/22 A2997 RMK AO2
2026-04-18 05:50:00,METAR KSUA 180550Z AUTO 12005KT 10SM SCT018 BKN042 23/22 A2999 RMK AO2
2026-04-18 05:35:00,METAR KSUA 180535Z AUTO 12006KT 10SM FEW015 FEW021 BKN042 23/22 A3000 RMK AO2
2026-04-18 04:10:00,METAR KSUA 180410Z AUTO 12005KT 10SM SCT017 23/22 A3002 RMK AO2
2026-04-18 03:15:00,METAR KSUA 180315Z AUTO 10007KT 10SM FEW060 24/21 A3002 RMK AO2
2026-04-18 02:55:00,METAR KSUA 180255Z AUTO 09007KT 10SM BKN060 24/21 A3003 RMK AO2
2026-04-18 01:47:00,METAR KSUA 180147Z 10009KT 7SM OVC060 24/22 A3002
2026-04-18 00:47:00,METAR KSUA 180047Z 09008KT 7SM SCT020 SCT027 25/21 A3001
2026-04-17 23:47:00,METAR KSUA 172347Z 09006KT 7SM SCT020 BKN038 25/22 A3000
2026-04-17 22:47:00,METAR KSUA 172247Z 06007KT 7SM SCT020 OVC055 25/21 A3000
2026-04-17 21:47:00,METAR KSUA 172147Z 10006KT 7SM OVC040 26/22 A3001
2026-04-17 20:47:00,METAR KSUA 172047Z 09007G14KT 7SM SCT020 BKN035 26/21 A3002
2026-04-17 19:47:00,METAR KSUA 171947Z 09010KT 7SM SCT022 BKN035 26/22 A3002
2026-04-17 18:47:00,METAR KSUA 171847Z 07009G15KT 7SM SCT022 BKN041 27/22 A3004
2026-04-17 17:47:00,METAR KSUA 171747Z 07010G17KT 6SM -RA SCT015 BKN021 26/21 A3005
2026-04-17 16:47:00,METAR KSUA 171647Z 04012G17KT 7SM VCSH SCT015 BKN023 27/21 A3007
2026-04-17 15:47:00,METAR KSUA 171547Z 06011KT 7SM VCSH SCT015 BKN023 27/21 A3008
2026-04-17 14:47:00,METAR KSUA 171447Z 02011KT 7SM VCSH SCT015 BKN023 27/21 A3008
2026-04-17 13:49:00,METAR KSUA 171349Z COR 09011KT 7SM VCSH SCT015 BKN023 27/22 A3007
2026-04-17 13:48:00,METAR KSUA 171348Z COR 09011KT 7SM SCT015 BKN023 27/22 A3007
2026-04-17 13:47:00,METAR KSUA 171347Z 09011KT 7SM SCT015 SCT023 27/22 A3007
2026-04-17 12:47:00,METAR KSUA 171247Z 08006KT 7SM SCT016 SCT025 26/21 A3006
2026-04-17 11:47:00,METAR KSUA 171147Z VRB03KT 7SM SCT016 SCT025 23/22 A3005
2026-04-17 10:50:00,METAR KSUA 171050Z 00000KT 10SM SCT018 21/21 A3003
2026-04-17 09:35:00,METAR KSUA 170935Z AUTO 00000KT 10SM CLR 20/20 A3002 RMK AO2
2026-04-17 09:00:00,METAR KSUA 170900Z AUTO 00000KT 10SM SCT019 SCT026 21/20 A3001 RMK AO2
2026-04-17 08:35:00,METAR KSUA 170835Z AUTO 00000KT 10SM FEW018 21/20 A3001 RMK AO2
2026-04-17 08:00:00,METAR KSUA 170800Z AUTO 00000KT 10SM SCT018 SCT026 BKN033 21/20 A3002 RMK AO2
2026-04-17 06:55:00,METAR KSUA 170655Z AUTO 00000KT 10SM FEW019 22/20 A3003 RMK AO2
2026-04-17 06:10:00,METAR KSUA 170610Z AUTO 11003KT 10SM FEW019 21/20 A3005 RMK AO2
2026-04-17 05:55:00,METAR KSUA 170555Z AUTO 12004KT 10SM SCT020 22/20 A3005 RMK AO2
2026-04-17 05:35:00,METAR KSUA 170535Z AUTO 11003KT 10SM CLR 21/19 A3005 RMK AO2
2026-04-17 05:20:00,METAR KSUA 170520Z AUTO 13005KT 10SM CLR 22/19 A3006 RMK AO2
2026-04-17 04:35:00,METAR KSUA 170435Z AUTO 09005KT 10SM FEW024 FEW034 22/19 A3007 RMK AO2
2026-04-17 04:10:00,METAR KSUA 170410Z AUTO 10004KT 10SM FEW027 BKN034 BKN040 22/19 A3007 RMK AO2
2026-04-17 03:55:00,METAR KSUA 170355Z AUTO 09006KT 10SM BKN028 BKN034 BKN040 23/19 A3008 RMK AO2
2026-04-17 03:15:00,METAR KSUA 170315Z AUTO 08004KT 10SM CLR 22/18 A3008 RMK AO2
2026-04-17 01:48:00,METAR KSUA 170148Z 09006KT 10SM SCT030 23/18 A3008
2026-04-17 00:48:00,METAR KSUA 170048Z 09006KT 10SM SCT030 23/18 A3008
2026-04-16 23:48:00,METAR KSUA 162348Z 09010KT 10SM SCT030 24/18 A3007
2026-04-16 22:48:00,METAR KSUA 162248Z 09010KT 10SM FEW022 25/17 A3006
2026-04-16 21:47:00,METAR KSUA 162147Z 09010G16KT 7SM CLR 26/17 A3006
2026-04-16 20:47:00,METAR KSUA 162047Z 06010KT 7SM CLR 26/17 A3006
2026-04-16 19:47:00,METAR KSUA 161947Z 05011KT 7SM SCT040 26/17 A3009
2026-04-16 18:47:00,METAR KSUA 161847Z VRB05KT 7SM OVC045 26/16 A3012
2026-04-16 17:47:00,METAR KSUA 161747Z 06010G15KT 7SM SCT040 27/16 A3013
2026-04-16 16:47:00,METAR KSUA 161647Z 10009G15KT 7SM SCT040 27/16 A3014
2026-04-16 15:47:00,METAR KSUA 161547Z 09010G15KT 7SM BKN040 26/16 A3014
2026-04-16 14:47:00,METAR KSUA 161447Z 12008G15KT 7SM BKN040 26/16 A3014
2026-04-16 13:47:00,METAR KSUA 161347Z 10008KT 7SM BKN039 26/16 A3012
2026-04-16 12:47:00,METAR KSUA 161247Z 11008KT 7SM BKN037 25/16 A3013
2026-04-16 11:47:00,METAR KSUA 161147Z 09008KT 7SM SCT030 23/15 A3012
2026-04-16 10:50:00,METAR KSUA 161050Z COR 00000KT 10SM BKN042 22/15 A3010
2026-04-16 10:35:00,METAR KSUA 161035Z AUTO 09006KT 10SM OVC043 22/14 A3010 RMK AO2
2026-04-16 09:30:00,METAR KSUA 160930Z AUTO 12007KT 10SM OVC041 22/15 A3008 RMK AO2
2026-04-16 05:40:00,METAR KSUA 160540Z AUTO 10011KT 10SM OVC039 23/16 A3012 RMK AO2
2026-04-16 04:55:00,METAR KSUA 160455Z AUTO 08007KT 10SM OVC040 22/15 A3013 RMK AO2
2026-04-16 02:55:00,METAR KSUA 160255Z AUTO 09010KT 10SM BKN041 23/15 A3014 RMK AO2
2026-04-16 02:35:00,METAR KSUA 160235Z AUTO 07011KT 10SM BKN040 23/15 A3014 RMK AO2
2026-04-16 02:15:00,METAR KSUA 160215Z AUTO 11012KT 10SM OVC039 23/15 A3014 RMK AO2
2026-04-16 01:48:00,METAR KSUA 160148Z 10006KT 10SM BKN040 22/14 A3013
2026-04-16 00:48:00,METAR KSUA 160048Z 08008KT 10SM BKN040 23/15 A3012
2026-04-15 22:48:00,METAR KSUA 152248Z 09007KT 10SM BKN040 24/16 A3010
2026-04-15 21:48:00,METAR KSUA 152148Z 09010KT 10SM BKN040 25/17 A3011
2026-04-15 20:48:00,METAR KSUA 152048Z 10012KT 10SM SCT041 26/15 A3011
2026-04-15 19:48:00,METAR KSUA 151948Z 11012KT 10SM SCT041 26/16 A3012
2026-04-15 18:48:00,METAR KSUA 151848Z 11012KT 10SM SCT042 26/16 A3012
2026-04-15 17:47:00,METAR KSUA 151747Z 10008G18KT 7SM SCT023 SCT035 26/15 A3015
2026-04-15 16:47:00,METAR KSUA 151647Z 09008KT 7SM SCT025 BKN037 26/16 A3017
2026-04-15 15:50:00,METAR KSUA 151550Z 10011KT 10SM BKN041 26/15 A3017
2026-04-15 14:50:00,METAR KSUA 151450Z 08012KT 10SM BKN041 25/15 A3018
2026-04-15 13:50:00,METAR KSUA 151350Z 07010KT 10SM OVC040 24/16 A3016
2026-04-15 12:50:00,METAR KSUA 151250Z 12006KT 10SM OVC039 23/15 A3015
2026-04-15 11:50:00,METAR KSUA 151150Z 12008KT 10SM OVC040 23/15 A3015
2026-04-15 10:50:00,METAR KSUA 151050Z 12009KT 10SM OVC042 22/15 A3013
2026-04-15 09:35:00,METAR KSUA 150935Z AUTO 10004KT 10SM OVC039 22/15 A3010 RMK AO2
2026-04-15 08:50:00,METAR KSUA 150850Z AUTO 08009KT 10SM OVC038 22/15 A3010 RMK AO2
2026-04-15 08:40:00,METAR KSUA 150840Z AUTO 09011KT 10SM OVC038 22/15 A3010 RMK AO2
2026-04-15 06:55:00,METAR KSUA 150655Z AUTO 13007KT 10SM BKN037 22/15 A3011 RMK AO2
2026-04-15 06:35:00,METAR KSUA 150635Z AUTO 10009G15KT 10SM BKN037 22/15 A3011 RMK AO2
2026-04-15 05:35:00,METAR KSUA 150535Z AUTO 10009KT 10SM SCT037 21/14 A3014 RMK AO2
2026-04-15 04:15:00,METAR KSUA 150415Z AUTO 07011KT 10SM BKN040 22/14 A3016 RMK AO2
2026-04-15 03:35:00,METAR KSUA 150335Z AUTO 08009G14KT 10SM SCT040 22/15 A3017 RMK AO2
2026-04-15 03:15:00,METAR KSUA 150315Z AUTO 08009G15KT 10SM BKN040 22/15 A3017 RMK AO2
2026-04-15 02:40:00,METAR KSUA 150240Z AUTO 08011KT 10SM BKN040 23/15 A3017 RMK AO2
2026-04-15 02:15:00,METAR KSUA 150215Z AUTO 07011KT 10SM SCT038 SCT044 22/16 A3017 RMK AO2
2026-04-15 01:47:00,METAR KSUA 150147Z 08010KT 7SM SCT030 23/16 A3016
2026-04-15 00:47:00,METAR KSUA 150047Z 09012KT 7SM BKN030 23/17 A3015
2026-04-14 22:50:00,METAR KSUA 142250Z 08012KT 10SM FEW035 25/17 A3014
2026-04-14 21:50:00,METAR KSUA 142150Z 10013KT 10SM SCT036 25/17 A3014
2026-04-14 20:50:00,METAR KSUA 142050Z 09013G19KT 10SM SCT037 26/17 A3014
2026-04-14 19:50:00,METAR KSUA 141950Z 10014G19KT 10SM SCT034 SCT044 25/18 A3015
2026-04-14 18:50:00,METAR KSUA 141850Z 10014G19KT 10SM SCT033 BKN042 26/18 A3017
2026-04-14 17:50:00,METAR KSUA 141750Z 07009G18KT 6SM -RA HZ SCT024 BKN037 24/21 A3019
2026-04-14 16:50:00,METAR KSUA 141650Z 07015G20KT 10SM SCT025 SCT034 27/18 A3021
2026-04-14 15:47:00,METAR KSUA 141547Z 07007KT 10SM SCT030 27/18 A3022
2026-04-14 14:47:00,METAR KSUA 141447Z 09007KT 10SM BKN037 BKN055 25/17 A3022
2026-04-14 13:47:00,METAR KSUA 141347Z 10008KT 10SM SCT046 26/16 A3021
2026-04-14 12:47:00,METAR KSUA 141247Z 11008KT 10SM SCT046 24/16 A3020
2026-04-14 11:47:00,METAR KSUA 141147Z 12003KT 7SM FEW020 22/15 A3017
2026-04-14 10:50:00,METAR KSUA 141050Z 09008KT 7SM SCT028 22/16 A3016
2026-04-14 10:35:00,METAR KSUA 141035Z AUTO 09009KT 10SM CLR 22/16 A3016 RMK AO2
2026-04-14 10:15:00,METAR KSUA 141015Z AUTO 09006KT 10SM CLR 22/15 A3016 RMK AO2
2026-04-14 10:00:00,METAR KSUA 141000Z AUTO 09008KT 10SM CLR 22/15 A3016 RMK AO2
2026-04-14 09:15:00,METAR KSUA 140915Z AUTO 09007KT 10SM SCT047 22/14 A3016 RMK AO2
2026-04-14 08:35:00,METAR KSUA 140835Z AUTO 10012KT 10SM CLR 22/14 A3015 RMK AO2
2026-04-14 08:15:00,METAR KSUA 140815Z AUTO 10011KT 10SM CLR 23/15 A3015 RMK AO2
2026-04-14 07:55:00,METAR KSUA 140755Z AUTO 10012KT 10SM FEW036 FEW043 23/15 A3016 RMK AO2
2026-04-14 07:30:00,METAR KSUA 140730Z AUTO 09013KT 10SM SCT035 SCT041 BKN050 23/16 A3015 RMK AO2
2026-04-14 07:20:00,METAR KSUA 140720Z AUTO 10013G19KT 10SM SCT034 SCT040 BKN050 23/17 A3015 RMK AO2
2026-04-14 06:55:00,METAR KSUA 140655Z AUTO 10014KT 10SM SCT033 BKN055 23/18 A3015 RMK AO2
2026-04-14 06:35:00,METAR KSUA 140635Z AUTO 09013G19KT 10SM SCT029 BKN035 OVC055 23/18 A3016 RMK AO2
2026-04-14 06:15:00,METAR KSUA 140615Z AUTO 08014KT 10SM SCT028 BKN040 BKN050 23/18 A3016 RMK AO2
2026-04-14 05:55:00,METAR KSUA 140555Z AUTO 08010G16KT 10SM FEW032 SCT038 BKN055 23/18 A3017 RMK AO2
2026-04-14 05:00:00,METAR KSUA 140500Z AUTO 09011KT 10SM SCT032 SCT047 23/17 A3019 RMK AO2
2026-04-14 04:35:00,METAR KSUA 140435Z AUTO 10011G18KT 10SM SCT033 BKN048 23/17 A3019 RMK AO2
2026-04-14 04:10:00,METAR KSUA 140410Z AUTO 09010G17KT 10SM FEW034 FEW048 23/17 A3019 RMK AO2
2026-04-14 03:50:00,METAR KSUA 140350Z AUTO 09010KT 10SM FEW034 SCT050 SCT095 23/17 A3020 RMK AO2
2026-04-14 03:40:00,METAR KSUA 140340Z AUTO 09009KT 10SM FEW034 FEW047 SCT050 23/17 A3020 RMK AO2
2026-04-14 03:15:00,METAR KSUA 140315Z AUTO 09009KT 10SM CLR 23/16 A3020 RMK AO2
2026-04-14 02:50:00,METAR KSUA 140250Z AUTO 09011KT 10SM SCT042 SCT050 23/16 A3021 RMK AO2
2026-04-14 01:47:00,METAR KSUA 140147Z 08010KT 10SM SCT041 23/15 A3021
2026-04-14 00:47:00,METAR KSUA 140047Z 07010KT 10SM SCT038 23/16 A3019
2026-04-13 23:47:00,METAR KSUA 132347Z 07010KT 10SM SCT035 24/17 A3019
2026-04-13 22:47:00,METAR KSUA 132247Z 07013KT 10SM SCT035 25/18 A3019
2026-04-13 21:47:00,METAR KSUA 132147Z 10010KT 10SM SCT034 25/17 A3020
2026-04-13 20:47:00,METAR KSUA 132047Z 06012KT 10SM SCT034 26/17 A3021
2026-04-13 19:47:00,METAR KSUA 131947Z 11015KT 10SM SCT044 26/17 A3023
2026-04-13 18:47:00,METAR KSUA 131847Z 10011KT 10SM SCT045 26/17 A3024
2026-04-13 17:47:00,METAR KSUA 131747Z 09012G20KT 10SM SCT045 27/16 A3026
2026-04-13 16:47:00,METAR KSUA 131647Z 11013G20KT 10SM SCT045 26/16 A3028
2026-04-13 15:47:00,METAR KSUA 131547Z 10012G20KT 10SM SCT035 26/17 A3029
2026-04-13 14:47:00,METAR KSUA 131447Z 10010G18KT 10SM SCT040 25/16 A3029
2026-04-13 13:47:00,METAR KSUA 131347Z 10012G20KT 10SM BKN045 25/15 A3028
2026-04-13 12:47:00,METAR KSUA 131247Z 1001G18KT 10SM BKN042 23/14 A3027
2026-04-13 11:47:00,METAR KSUA 131147Z 10010KT 10SM BKN040 22/15 A3026
2026-04-13 10:47:00,METAR KSUA 131047Z 09012KT 10SM BKN040 22/15 A3025
2026-04-13 10:35:00,METAR KSUA 131035Z AUTO 10009G14KT 10SM BKN041 22/14 A3024 RMK AO2
2026-04-13 10:15:00,METAR KSUA 131015Z AUTO 09013G21KT 10SM SCT039 BKN045 22/15 A3024 RMK AO2
2026-04-13 10:00:00,METAR KSUA 131000Z AUTO 10011G17KT 10SM SCT039 OVC045 22/15 A3024 RMK AO2
2026-04-13 09:35:00,METAR KSUA 130935Z AUTO 09009KT 10SM OVC043 22/15 A3023 RMK AO2
2026-04-13 09:15:00,METAR KSUA 130915Z AUTO 09014KT 10SM BKN041 22/14 A3023 RMK AO2
2026-04-13 08:55:00,METAR KSUA 130855Z AUTO 09011KT 10SM SCT036 OVC044 22/15 A3023 RMK AO2
2026-04-13 08:35:00,METAR KSUA 130835Z AUTO 09013KT 10SM BKN034 OVC044 22/15 A3023 RMK AO2
2026-04-13 08:20:00,METAR KSUA 130820Z AUTO 10009KT 10SM BKN036 OVC043 22/16 A3023 RMK AO2
2026-04-13 08:00:00,METAR KSUA 130800Z AUTO 07011KT 10SM BKN041 22/15 A3023 RMK AO2
2026-04-13 07:35:00,METAR KSUA 130735Z AUTO 09013KT 10SM BKN034 BKN042 OVC047 22/16 A3023 RMK AO2
2026-04-13 07:15:00,METAR KSUA 130715Z AUTO 09011KT 10SM BKN035 OVC046 22/16 A3023 RMK AO2
2026-04-13 06:55:00,METAR KSUA 130655Z AUTO 11010KT 10SM BKN036 OVC045 22/16 A3024 RMK AO2
2026-04-13 06:40:00,METAR KSUA 130640Z AUTO 09010KT 10SM FEW037 BKN044 22/15 A3024 RMK AO2
2026-04-13 06:15:00,METAR KSUA 130615Z AUTO 09012KT 10SM FEW038 SCT045 22/14 A3025 RMK AO2
2026-04-13 05:55:00,METAR KSUA 130555Z AUTO 10016KT 10SM SCT035 OVC046 22/15 A3025 RMK AO2
2026-04-13 05:40:00,METAR KSUA 130540Z AUTO 07012KT 10SM BKN035 OVC044 22/16 A3026 RMK AO2
2026-04-13 05:15:00,METAR KSUA 130515Z AUTO 08012G18KT 10SM BKN035 OVC044 23/16 A3026 RMK AO2
2026-04-13 05:00:00,METAR KSUA 130500Z AUTO 08010KT 10SM SCT036 BKN044 22/15 A3027 RMK AO2
2026-04-13 04:35:00,METAR KSUA 130435Z AUTO 08012KT 10SM SCT043 22/15 A3027 RMK AO2
2026-04-13 04:15:00,METAR KSUA 130415Z AUTO 08011KT 10SM SCT044 22/15 A3027 RMK AO2
2026-04-13 03:55:00,METAR KSUA 130355Z AUTO 08013KT 10SM BKN039 OVC045 23/15 A3027 RMK AO2
2026-04-13 03:40:00,METAR KSUA 130340Z AUTO 08012KT 10SM BKN037 OVC046 23/15 A3027 RMK AO2
2026-04-13 03:15:00,METAR KSUA 130315Z AUTO 07011KT 10SM SCT041 BKN048 23/15 A3028 RMK AO2
2026-04-13 02:55:00,METAR KSUA 130255Z AUTO 08011G18KT 10SM SCT041 BKN048 23/15 A3027 RMK AO2
2026-04-13 02:35:00,METAR KSUA 130235Z AUTO 07012G19KT 10SM SCT039 BKN047 23/15 A3027 RMK AO2
2026-04-13 02:15:00,METAR KSUA 130215Z AUTO 07012KT 10SM SCT042 23/15 A3027 RMK AO2
2026-04-13 01:50:00,METAR KSUA 130150Z 08013G21KT 10SM BKN041 23/15 A3026
2026-04-13 00:50:00,METAR KSUA 130050Z 07011G21KT 10SM SCT035 BKN041 23/15 A3024
2026-04-12 23:50:00,METAR KSUA 122350Z 08011G17KT 10SM SCT037 SCT043 23/16 A3023
2026-04-12 22:47:00,METAR KSUA 122247Z 09016G21KT 10SM FEW037 SCT050 24/17 A3022
2026-04-12 21:47:00,METAR KSUA 122147Z 09014KT 10SM FEW037 SCT055 25/17 A3022
2026-04-12 20:47:00,METAR KSUA 122047Z 06015KT 10SM FEW035 SCT050 26/17 A3022
2026-04-12 19:47:00,METAR KSUA 121947Z 09010G22KT 10SM FEW035 SCT050 26/17 A3023
2026-04-12 18:47:00,METAR KSUA 121847Z 10012G22KT 10SM FEW035 SCT050 26/17 A3025
2026-04-12 17:47:00,METAR KSUA 121747Z 07013G21KT 10SM FEW039 SCT049 26/16 A3027
2026-04-12 16:47:00,METAR KSUA 121647Z 07012G20KT 10SM SCT040 26/16 A3029
2026-04-12 15:47:00,METAR KSUA 121547Z 07011G19KT 10SM SCT040 25/16 A3030
2026-04-12 14:47:00,METAR KSUA 121447Z 07013G20KT 10SM SCT040 25/15 A3029
2026-04-12 13:47:00,METAR KSUA 121347Z 08011G21KT 10SM SCT040 24/15 A3027
2026-04-12 12:47:00,METAR KSUA 121247Z 08011G21KT 10SM BKN040 23/14 A3026
2026-04-12 11:47:00,METAR KSUA 121147Z 07015G20KT 10SM BKN040 22/14 A3024
2026-04-12 10:51:00,METAR KSUA 121051Z 08015G20KT 10SM BKN050 22/14 A3021
2026-04-12 10:35:00,METAR KSUA 121035Z AUTO 08013KT 10SM BKN040 22/15 A3020 RMK AO2
2026-04-12 09:55:00,METAR KSUA 120955Z AUTO 07010G15KT 10SM BKN040 22/15 A3019 RMK AO2
2026-04-12 09:40:00,METAR KSUA 120940Z AUTO 07011KT 10SM SCT041 22/14 A3018 RMK AO2
2026-04-12 09:20:00,METAR KSUA 120920Z AUTO 06012G17KT 10SM SCT041 22/14 A3018 RMK AO2
2026-04-12 08:55:00,METAR KSUA 120855Z AUTO 08012KT 10SM FEW037 BKN044 22/15 A3018 RMK AO2
2026-04-12 08:35:00,METAR KSUA 120835Z AUTO 07010G16KT 10SM FEW038 BKN046 22/15 A3017 RMK AO2
2026-04-12 08:15:00,METAR KSUA 120815Z AUTO 07010G16KT 10SM BKN044 22/15 A3018 RMK AO2
2026-04-12 07:55:00,METAR KSUA 120755Z AUTO 09012KT 10SM FEW038 BKN045 22/15 A3018 RMK AO2
2026-04-12 07:35:00,METAR KSUA 120735Z AUTO 08010KT 10SM SCT042 SCT048 22/15 A3018 RMK AO2
2026-04-12 07:10:00,METAR KSUA 120710Z AUTO 07008G16KT 10SM SCT045 22/14 A3018 RMK AO2
2026-04-12 06:55:00,METAR KSUA 120655Z AUTO 07010G16KT 10SM BKN045 22/15 A3018 RMK AO2
2026-04-12 06:35:00,METAR KSUA 120635Z AUTO 07010KT 10SM FEW046 22/14 A3019 RMK AO2
2026-04-12 06:10:00,METAR KSUA 120610Z AUTO 07013KT 10SM BKN047 22/15 A3021 RMK AO2
2026-04-12 05:55:00,METAR KSUA 120555Z AUTO 07012KT 10SM FEW047 22/15 A3021 RMK AO2
2026-04-12 05:35:00,METAR KSUA 120535Z AUTO 07012KT 10SM CLR 22/14 A3021 RMK AO2
2026-04-12 05:15:00,METAR KSUA 120515Z AUTO 06013KT 10SM FEW045 22/15 A3021 RMK AO2
2026-04-12 04:55:00,METAR KSUA 120455Z AUTO 07009KT 10SM FEW050 22/15 A3022 RMK AO2
2026-04-12 04:35:00,METAR KSUA 120435Z AUTO 06013KT 10SM SCT050 23/15 A3023 RMK AO2
2026-04-12 04:15:00,METAR KSUA 120415Z AUTO 06011KT 10SM SCT039 SCT050 22/16 A3023 RMK AO2
2026-04-12 04:00:00,METAR KSUA 120400Z AUTO 05011KT 10SM SCT039 OVC050 23/16 A3023 RMK AO2
2026-04-12 03:35:00,METAR KSUA 120335Z AUTO 05009KT 10SM FEW040 SCT050 23/15 A3023 RMK AO2
2026-04-12 03:15:00,METAR KSUA 120315Z AUTO 04009G14KT 10SM SCT040 BKN050 23/16 A3023 RMK AO2
2026-04-12 02:40:00,METAR KSUA 120240Z AUTO 06008KT 10SM FEW050 22/15 A3023 RMK AO2
2026-04-12 02:15:00,METAR KSUA 120215Z AUTO 07009KT 10SM CLR 23/15 A3023 RMK AO2
2026-04-12 00:47:00,METAR KSUA 120047Z 06008G14KT 10SM FEW050 23/15 A3021
2026-04-11 23:47:00,METAR KSUA 112347Z 09013KT 10SM FEW041 23/15 A3020
2026-04-11 22:47:00,METAR KSUA 112247Z 06015G21KT 10SM CLR 24/15 A3019
2026-04-11 21:47:00,METAR KSUA 112147Z 06015G22KT 7SM SCT040 25/15 A3018
2026-04-11 20:47:00,METAR KSUA 112047Z 07012G19KT 7SM SCT040 26/16 A3017
2026-04-11 19:47:00,METAR KSUA 111947Z 06012G18KT 7SM SCT040 26/16 A3018
2026-04-11 18:47:00,METAR KSUA 111847Z 05011G17KT 7SM SCT035 26/17 A3020
2026-04-11 17:47:00,METAR KSUA 111747Z 07012G18KT 7SM SCT045 26/17 A3021
2026-04-11 16:47:00,METAR KSUA 111647Z 07012G18KT 7SM SCT025 26/15 A3022
2026-04-11 15:47:00,METAR KSUA 111547Z 04010G18KT 7SM SCT025 26/16 A3023
2026-04-11 14:47:00,METAR KSUA 111447Z 05012G18KT 7SM SCT025 26/14 A3023
2026-04-11 13:47:00,METAR KSUA 111347Z 07012KT 7SM SCT025 24/15 A3022
2026-04-11 12:47:00,METAR KSUA 111247Z 09012G18KT 7SM VCSH SCT016 SCT025 24/14 A3021
2026-04-11 11:47:00,METAR KSUA 111147Z 06009KT 7SM VCSH SCT016 SCT025 22/16 A3019
2026-04-11 10:47:00,METAR KSUA 111047Z 34006KT 7SM VCSH SCT016 SCT025 22/15 A3018
2026-04-11 10:35:00,METAR KSUA 111035Z AUTO 01008KT 10SM SCT055 21/14 A3017 RMK AO2
2026-04-11 09:40:00,METAR KSUA 110940Z AUTO 01008KT 10SM CLR 22/14 A3016 RMK AO2
2026-04-11 09:10:00,METAR KSUA 110910Z AUTO 03008KT 10SM CLR 21/15 A3016 RMK AO2
2026-04-11 09:00:00,METAR KSUA 110900Z AUTO 02007KT 10SM CLR 21/14 A3016 RMK AO2
2026-04-11 08:35:00,METAR KSUA 110835Z AUTO 04009KT 10SM CLR 22/15 A3016 RMK AO2
2026-04-11 07:10:00,METAR KSUA 110710Z AUTO 04009G15KT 10SM BKN055 22/16 A3015 RMK AO2
2026-04-11 06:55:00,METAR KSUA 110655Z AUTO 04012KT 10SM BKN055 22/16 A3015 RMK AO2
2026-04-11 06:40:00,METAR KSUA 110640Z AUTO 04010G15KT 10SM BKN055 22/16 A3015 RMK AO2
2026-04-11 06:15:00,METAR KSUA 110615Z AUTO 05009G16KT 10SM FEW037 FEW045 OVC055 22/16 A3016 RMK AO2
2026-04-11 05:55:00,METAR KSUA 110555Z AUTO 05010KT 10SM SCT034 SCT041 OVC055 22/17 A3016 RMK AO2
2026-04-11 05:35:00,METAR KSUA 110535Z AUTO 05010G15KT 10SM BKN032 BKN044 OVC050 22/17 A3017 RMK AO2
2026-04-11 04:55:00,METAR KSUA 110455Z AUTO 06012G17KT 10SM FEW030 SCT035 BKN055 22/17 A3018 RMK AO2
2026-04-11 04:10:00,METAR KSUA 110410Z AUTO 05013KT 10SM CLR 22/17 A3018 RMK AO2
2026-04-11 04:00:00,METAR KSUA 110400Z AUTO 05012G19KT 10SM FEW032 22/17 A3018 RMK AO2
2026-04-11 03:15:00,METAR KSUA 110315Z AUTO 06011G17KT 10SM FEW030 FEW037 SCT060 23/18 A3020 RMK AO2
2026-04-11 02:40:00,METAR KSUA 110240Z AUTO 06010G16KT 10SM FEW029 FEW065 22/18 A3020 RMK AO2
2026-04-11 01:47:00,METAR KSUA 110147Z 06012G20KT 7SM SCT026 22/18 A3019
2026-04-11 00:47:00,METAR KSUA 110047Z 05010KT 7SM SCT026 22/19 A3017
2026-04-10 23:47:00,METAR KSUA 102347Z 05012KT 5SM BR VCSH BKN029 22/19 A3017
2026-04-10 22:47:00,METAR KSUA 102247Z 36005G18KT 5SM -RA BR FEW006 BKN021 21/20 A3016
2026-04-10 21:47:00,METAR KSUA 102147Z 01014G22KT 4SM -RA HZ SCT025 BKN030 23/20 A3015
2026-04-10 20:47:00,METAR KSUA 102047Z 05012G19KT 7SM SCT030 26/18 A3015
2026-04-10 19:47:00,METAR KSUA 101947Z 05011G17KT 7SM SCT025 26/17 A3016
2026-04-10 18:47:00,METAR KSUA 101847Z 06013G20KT 7SM SCT025 26/17 A3018
2026-04-10 17:47:00,METAR KSUA 101747Z 07012G20KT 7SM SCT015 SCT025 26/17 A3018
2026-04-10 16:47:00,METAR KSUA 101647Z 06011G19KT 7SM SCT026 26/17 A3019
2026-04-10 15:50:00,METAR KSUA 101550Z 06014G19KT 7SM SCT026 26/17 A3019
2026-04-08 14:50:00,METAR KSUA 081450Z 06017G23KT 6SM -RA BR BKN020 BKN028 BKN040 23/21 A3001
2026-04-08 13:50:00,METAR KSUA 081350Z 04013G22KT 10SM BKN020 BKN021 BKN039 25/21 A2999
2026-04-08 12:50:00,METAR KSUA 081250Z 05016G24KT 10SM BKN019 BKN021 BKN038 24/20 A2997
2026-04-08 11:50:00,METAR KSUA 081150Z 06018G25KT 10SM BKN018 BKN023 BKN030 23/20 A2996
2026-04-08 10:47:00,METAR KSUA 081047Z 06017G23KT 7SM -RA BKN023 BKN033 OVC050 22/20 A2994
2026-04-08 10:35:00,METAR KSUA 081035Z AUTO 06016G24KT 10SM SCT021 BKN026 OVC075 23/20 A2994 RMK AO2
2026-04-08 10:15:00,METAR KSUA 081015Z AUTO 07020KT 10SM FEW022 SCT027 OVC070 23/20 A2993 RMK AO2
2026-04-08 09:55:00,METAR KSUA 080955Z AUTO 06018G23KT 10SM FEW021 SCT027 OVC065 23/19 A2992 RMK AO2
2026-04-08 09:35:00,METAR KSUA 080935Z AUTO 06021KT 10SM SCT025 BKN044 OVC065 23/20 A2992 RMK AO2
2026-04-08 09:15:00,METAR KSUA 080915Z AUTO 06021G27KT 10SM FEW020 SCT034 OVC044 22/19 A2991 RMK AO2
2026-04-08 08:55:00,METAR KSUA 080855Z AUTO 07020G27KT 10SM FEW020 SCT027 BKN035 22/20 A2991 RMK AO2
2026-04-08 08:35:00,METAR KSUA 080835Z AUTO 06019G25KT 9SM FEW022 SCT027 BKN035 23/20 A2991 RMK AO2
2026-04-08 08:15:00,METAR KSUA 080815Z AUTO 06016G24KT 10SM SCT022 BKN033 OVC049 23/20 A2990 RMK AO2
2026-04-08 07:55:00,METAR KSUA 080755Z AUTO 06016G23KT 10SM FEW022 SCT031 OVC036 22/20 A2990 RMK AO2
2026-04-08 07:35:00,METAR KSUA 080735Z AUTO 05016G24KT 9SM SCT018 BKN036 OVC045 22/21 A2990 RMK AO2
2026-04-08 07:15:00,METAR KSUA 080715Z AUTO 05019G25KT 7SM -RA BKN017 BKN027 OVC037 22/21 A2990 RMK AO2
2026-04-08 06:55:00,METAR KSUA 080655Z AUTO 07017G23KT 9SM SCT018 BKN028 OVC060 22/21 A2990 RMK AO2
2026-04-08 06:40:00,METAR KSUA 080640Z AUTO 05015G22KT 9SM SCT018 BKN030 OVC055 22/20 A2991 RMK AO2
2026-04-08 06:15:00,METAR KSUA 080615Z AUTO 05015G20KT 10SM SCT034 BKN040 OVC046 22/21 A2991 RMK AO2
2026-04-08 05:55:00,METAR KSUA 080555Z AUTO 05014G25KT 10SM SCT029 OVC034 21/20 A2992 RMK AO2 P0005
2026-04-08 05:35:00,METAR KSUA 080535Z AUTO 05018G23KT 10SM SCT015 BKN025 OVC032 21/20 A2992 RMK AO2
2026-04-08 05:15:00,METAR KSUA 080515Z AUTO 04017G24KT 4SM -RA BR FEW004 SCT016 BKN022 22/21 A2993 RMK AO2
2026-04-08 04:55:00,METAR KSUA 080455Z AUTO 04019G26KT 1 3/4SM RA BR SCT004 BKN016 OVC022 22/21 A2992 RMK AO2 P0003 VIS 1V4
2026-04-08 04:35:00,METAR KSUA 080435Z AUTO 04015G27KT 9SM BKN019 BKN025 OVC038 23/20 A2992 RMK AO2
2026-04-08 04:15:00,METAR KSUA 080415Z AUTO 04016G23KT 10SM FEW020 OVC038 23/20 A2993 RMK AO2
2026-04-08 04:00:00,METAR KSUA 080400Z AUTO 04014G26KT 10SM SCT020 OVC035 23/20 A2993 RMK AO2
2026-04-08 03:35:00,METAR KSUA 080335Z AUTO 04017G26KT 9SM BKN022 OVC033 23/20 A2993 RMK AO2
2026-04-08 03:15:00,METAR KSUA 080315Z AUTO 04017G24KT 10SM SCT021 OVC033 23/20 A2993 RMK AO2 LTG DSNT NE
2026-04-08 02:55:00,METAR KSUA 080255Z AUTO 04015G29KT 10SM SCT019 SCT026 OVC033 23/20 A2992 RMK AO2
2026-04-08 02:35:00,METAR KSUA 080235Z AUTO 03018G28KT 10SM SCT018 BKN027 OVC033 23/20 A2992 RMK AO2 LTG DSNT NE
2026-04-08 02:15:00,METAR KSUA 080215Z AUTO 04021G30KT 10SM SCT018 BKN026 OVC035 22/20 A2991 RMK AO2
2026-04-08 01:47:00,METAR KSUA 080147Z 04025G33KT 7SM VCSH SCT016 BKN021 OVC034 22/20 A2990
2026-04-08 00:47:00,METAR KSUA 080047Z 03019G28KT 3SM -RA BKN011 BKN018 OVC027 21/21 A2988
2026-04-07 23:47:00,METAR KSUA 072347Z 03016G28KT 1SM +RABR BKN005 BKN011 OVC023 21/21 A2988
2026-04-07 23:09:00,SPECI KSUA 072309Z 03017G24KT 3SM RA SCT007 SCT015 BKN020 22/21 A2987
2026-04-07 22:47:00,METAR KSUA 072247Z 01016G22KT 7SM VCSH SCT011 BKN020 23/20 A2986
2026-04-07 21:47:00,METAR KSUA 072147Z 36014G18KT 7SM VCSH SCT011 BKN020 24/21 A2985
2026-04-07 20:47:00,METAR KSUA 072047Z 03019KT 7SM VCSH SCT008 SCT015 BKN030 25/21 A2984
2026-04-07 19:47:00,METAR KSUA 071947Z 02012G18KT 5SM -RA SCT008 BKN015 OVC030 25/21 A2985
2026-04-07 18:47:00,METAR KSUA 071847Z 03010G17KT 7SM VCSH SCT012 BKN019 OVC030 25/21 A2987
2026-04-07 17:50:00,METAR KSUA 071750Z 03009KT 6SM BR VCSH SCT015 BKN020 OVC040 26/20 A2989
2026-04-07 16:50:00,METAR KSUA 071650Z 03010KT 4SM BR VCSH SCT006 BKN017 OVC040 25/21 A2989
2026-04-07 15:50:00,METAR KSUA 071550Z 03006KT 3SM BR VCSH SCT006 BKN017 OVC040 23/22 A2991
2026-04-07 14:47:00,METAR KSUA 071447Z 03006KT 2SM RA BR VCTS SCT008 BKN012 OVC018 21/21 A2991
2026-04-07 13:50:00,METAR KSUA 071350Z 06008KT 2SM RA BR VCTS SCT007 OVC020 21/21 A2991
2026-04-07 12:50:00,METAR KSUA 071250Z COR 06008KT 2SM RA BR VCTS SCT003 BKN018 OVC050 21/21 A2990
2026-04-07 12:37:00,SPECI KSUA 071237Z 06008KT 6SM RA BR VCTS SCT003 BKN018 OVC050 22/21 A2990
2026-04-07 11:47:00,METAR KSUA 071147Z 36005KT 6SM RA BR VCTS SCT003 BKN010 OVC055 21/21 A2989
2026-04-07 11:29:00,SPECI KSUA 071129Z 33004KT 6SM RA- BR VCTS SCT008 BKN027 OVC055 21/21 A2989
2026-04-07 10:47:00,METAR KSUA 071047Z VRB03KT 7SM VCTS SCT008 BKN050 OVC055 21/21 A2989
2026-04-07 10:35:00,METAR KSUA 071035Z AUTO 00000KT 10SM BKN050 BKN065 OVC090 21/21 A2988 RMK AO2 LTG DSNT E-S
2026-04-07 10:15:00,METAR KSUA 071015Z AUTO 00000KT 10SM VCTS FEW065 BKN080 OVC090 21/21 A2988 RMK AO2 LTG DSNT ALQDS
2026-04-07 09:55:00,METAR KSUA 070955Z AUTO 07003KT 10SM VCTS FEW004 SCT065 OVC080 21/21 A2988 RMK AO2 LTG DSNT E-S P0001
2026-04-07 09:35:00,METAR KSUA 070935Z AUTO 08004KT 10SM FEW004 SCT041 OVC075 21/21 A2988 RMK AO2 LTG DSNT ALQDS
2026-04-07 09:15:00,METAR KSUA 070915Z AUTO 12004KT 8SM VCTS DZ FEW004 SCT027 BKN045 21/21 A2988 RMK AO2 LTG DSNT ALQDS
2026-04-07 08:55:00,METAR KSUA 070855Z AUTO 15003KT 3SM -RA BR FEW004 SCT013 BKN026 21/21 A2988 RMK AO2 LTG DSNT E AND SW P0004
2026-04-07 08:35:00,METAR KSUA 070835Z AUTO 18004KT 7SM -DZ SCT010 BKN014 OVC075 21/21 A2988 RMK AO2 LTG DSNT E AND S
2026-04-07 08:15:00,METAR KSUA 070815Z AUTO 24003KT 10SM -DZ FEW007 SCT017 BKN060 21/21 A2988 RMK AO2
2026-04-07 07:55:00,METAR KSUA 070755Z AUTO 09004KT 9SM -RA FEW005 SCT010 OVC016 21/21 A2989 RMK AO2 P0018
2026-04-07 07:35:00,METAR KSUA 070735Z AUTO 00000KT 1 1/4SM VCTS RA BR BKN004 OVC015 21/21 A2990 RMK AO2 LTG DSNT E AND W VIS 1/2V2 1/2
2026-04-07 07:15:00,METAR KSUA 070715Z AUTO 00000KT 4SM VCTS RA BR SCT004 BKN016 OVC027 21/21 A2990 RMK AO2 LTG DSNT E
2026-04-07 06:55:00,METAR KSUA 070655Z AUTO 22004KT 3SM -DZ BR FEW005 SCT016 BKN027 21/21 A2990 RMK AO2 P0030
2026-04-07 06:35:00,METAR KSUA 070635Z AUTO 00000KT 1 1/4SM +RA BR BKN004 BKN008 OVC013 21/21 A2991 RMK AO2 VIS 3/4V2 1/2
2026-04-07 06:15:00,METAR KSUA 070615Z AUTO VRB05KT 1SM VCTS RA BR OVC004 21/21 A2991 RMK AO2 LTG DSNT W-NE VIS 1/2V2 1/2
2026-04-07 05:55:00,METAR KSUA 070555Z AUTO VRB04G13KT 1/4SM VCTS RA FG OVC003 22/22 A2992 RMK AO2 LTG DSNT ALQDS P0060
2026-04-07 05:35:00,METAR KSUA 070535Z AUTO VRB06KT 5SM VCTS RA BR OVC020 22/21 A2991 RMK AO2 LTG DSNT W
2026-04-07 05:15:00,METAR KSUA 070515Z AUTO 05011KT 9SM VCTS FEW004 BKN021 OVC035 22/22 A2991 RMK AO2 LTG DSNT W
2026-04-07 04:55:00,METAR KSUA 070455Z AUTO 06010KT 3SM VCTS RA BR FEW004 SCT019 BKN029 22/22 A2992 RMK AO2 LTG DSNT ALQDS P0033
2026-04-07 04:35:00,METAR KSUA 070435Z AUTO 08010KT 4SM VCTS RA BR FEW003 BKN017 OVC033 22/22 A2993 RMK AO2 LTG DSNT W-NE
2026-04-07 04:15:00,METAR KSUA 070415Z AUTO 06008G13KT 1 1/2SM +TSRA BR BKN003 BKN017 OVC021 21/21 A2993 RMK AO2 LTG DSNT E AND W AND NW
2026-04-07 03:55:00,METAR KSUA 070355Z AUTO 13010G21KT 1SM +RA BR SCT004 SCT013 OVC018 22/21 A2993 RMK AO2 LTG DSNT E AND SW AND NW P0009
2026-04-07 03:35:00,METAR KSUA 070335Z AUTO 11007KT 10SM BKN019 BKN026 OVC033 25/22 A2993 RMK AO2
2026-04-07 03:15:00,METAR KSUA 070315Z AUTO 10006KT 10SM BKN022 BKN033 OVC120 25/22 A2994 RMK AO2
2026-04-07 02:55:00,METAR KSUA 070255Z AUTO 08006G12KT 10SM SCT025 BKN050 OVC120 25/21 A2995 RMK AO2
2026-04-07 02:35:00,METAR KSUA 070235Z AUTO 09009KT 10SM FEW019 SCT033 OVC055 25/22 A2996 RMK AO2
2026-04-07 02:15:00,METAR KSUA 070215Z AUTO 09008KT 10SM SCT018 BKN044 OVC055 25/22 A2996 RMK AO2
2026-04-07 01:50:00,METAR KSUA 070150Z 09008KT 10SM VCTS BKN019 OVC047 25/22 A2995
2026-04-07 00:50:00,METAR KSUA 070050Z 08010KT 10SM FEW015 SCT019 BKN027 25/21 A2992
2026-04-06 23:50:00,METAR KSUA 062350Z 09008KT 10SM BKN020 OVC120 25/21 A2991
2026-04-06 22:47:00,METAR KSUA 062247Z 09011KT 7SM FEW020 25/21 A2991
2026-04-06 21:55:00,METAR KSUA 062155Z 09013KT 7SM CLR 26/21 A2991
2026-04-06 20:55:00,METAR KSUA 062055Z 10013KT 7SM CLR 28/22 A2990
2026-04-06 19:47:00,METAR KSUA 061947Z 10012KT 7SM VCTS FEW110 26/22 A2993
2026-04-06 18:47:00,METAR KSUA 061847Z 12012KT 7SM VCTS SCT035 28/21 A2995
2026-04-06 17:47:00,METAR KSUA 061747Z 11011G16KT 7SM SCT024 28/21 A2997
2026-04-06 16:47:00,METAR KSUA 061647Z 09010KT 7SM SCT024 28/21 A2999
2026-04-06 15:47:00,METAR KSUA 061547Z 09007KT 7SM SCT024 28/22 A3000
2026-04-06 14:47:00,METAR KSUA 061447Z 13010KT 7SM SCT024 27/21 A3000
2026-04-06 13:47:00,METAR KSUA 061347Z 13004KT 7SM SCT020 25/22 A3000
2026-04-06 12:47:00,METAR KSUA 061247Z 13004KT 7SM FEW032 24/22 A3000
2026-04-06 11:47:00,METAR KSUA 061147Z VRB03KT 7SM FEW026 21/21 A2999
2026-04-06 10:47:00,METAR KSUA 061047Z VRB03KT 7SM FEW022 21/21 A2999
2026-04-06 10:35:00,METAR KSUA 061035Z AUTO 00000KT 10SM FEW022 21/21 A2999 RMK AO2
2026-04-06 10:15:00,METAR KSUA 061015Z AUTO 21003KT 10SM FEW047 FEW060 SCT075 22/22 A2998 RMK AO2
2026-04-06 09:55:00,METAR KSUA 060955Z AUTO 19004KT 10SM -DZ FEW005 SCT033 BKN048 22/21 A2998 RMK AO2
2026-04-06 09:35:00,METAR KSUA 060935Z AUTO 00000KT 2 1/2SM -RA BR FEW003 BKN019 OVC033 22/22 A2999 RMK AO2 VIS 1/2V5
2026-04-06 09:15:00,METAR KSUA 060915Z AUTO 00000KT 10SM BKN019 BKN025 OVC030 21/21 A2998 RMK AO2
2026-04-06 08:55:00,METAR KSUA 060855Z AUTO 00000KT 10SM SCT020 SCT029 BKN036 20/20 A2999 RMK AO2
2026-04-06 08:35:00,METAR KSUA 060835Z AUTO 00000KT 9SM FEW020 20/20 A2999 RMK AO2
2026-04-06 08:15:00,METAR KSUA 060815Z AUTO 00000KT 10SM FEW021 20/20 A2999 RMK AO2
2026-04-06 07:55:00,METAR KSUA 060755Z AUTO 00000KT 10SM FEW020 SCT028 20/20 A3000 RMK AO2
2026-04-06 07:35:00,METAR KSUA 060735Z AUTO 27003KT 10SM SCT020 21/21 A3000 RMK AO2
2026-04-06 07:15:00,METAR KSUA 060715Z AUTO 00000KT 10SM SCT021 20/20 A3001 RMK AO2
2026-04-06 06:55:00,METAR KSUA 060655Z AUTO 00000KT 10SM FEW021 20/20 A3001 RMK AO2
2026-04-06 06:35:00,METAR KSUA 060635Z AUTO 00000KT 10SM CLR 21/21 A3001 RMK AO2
2026-04-06 06:15:00,METAR KSUA 060615Z AUTO 00000KT 10SM CLR 21/21 A3002 RMK AO2
2026-04-06 05:55:00,METAR KSUA 060555Z AUTO 00000KT 10SM CLR 21/21 A3003 RMK AO2
2026-04-06 05:35:00,METAR KSUA 060535Z AUTO 00000KT 10SM CLR 21/21 A3003 RMK AO2
2026-04-06 05:15:00,METAR KSUA 060515Z AUTO 00000KT 10SM FEW022 22/21 A3004 RMK AO2
2026-04-06 04:55:00,METAR KSUA 060455Z AUTO 00000KT 10SM CLR 21/21 A3004 RMK AO2
2026-04-06 04:35:00,METAR KSUA 060435Z AUTO 14004KT 10SM CLR 22/22 A3005 RMK AO2
2026-04-06 04:15:00,METAR KSUA 060415Z AUTO 00000KT 10SM FEW021 22/22 A3006 RMK AO2
2026-04-06 03:55:00,METAR KSUA 060355Z AUTO 00000KT 10SM FEW021 22/21 A3006 RMK AO2
2026-04-06 03:35:00,METAR KSUA 060335Z AUTO 00000KT 10SM CLR 23/22 A3006 RMK AO2
2026-04-06 03:15:00,METAR KSUA 060315Z AUTO 14004KT 10SM CLR 23/22 A3007 RMK AO2
2026-04-06 02:55:00,METAR KSUA 060255Z AUTO 16004KT 10SM CLR 23/22 A3007 RMK AO2
2026-04-06 02:35:00,METAR KSUA 060235Z AUTO 00000KT 10SM FEW016 23/22 A3007 RMK AO2 LTG DSNT W
2026-04-06 02:15:00,METAR KSUA 060215Z AUTO 12003KT 10SM FEW017 23/22 A3007 RMK AO2
2026-04-06 01:50:00,METAR KSUA 060150Z 12006KT 10SM CLR 23/22 A3006
2026-04-06 00:50:00,METAR KSUA 060050Z 12004KT 10SM CLR 24/21 A3004
2026-04-05 23:50:00,METAR KSUA 052350Z 11007G14KT 10SM SCT019 24/21 A3002
2026-04-05 22:50:00,METAR KSUA 052250Z 12012G18KT 10SM SCT019 25/21 A3002
2026-04-05 21:50:00,METAR KSUA 052150Z 11011G16KT 10SM SCT020 BKN025 26/21 A3003
2026-04-05 20:50:00,METAR KSUA 052050Z 11012G22KT 7SM BKN023 BKN027 28/21 A3003
2026-04-05 19:50:00,METAR KSUA 051950Z 10015G22KT 10SM SCT022 BKN027 BKN043 26/21 A3004
2026-04-05 18:50:00,METAR KSUA 051850Z 10016G23KT 10SM BKN022 BKN029 26/21 A3006
2026-04-05 17:47:00,METAR KSUA 051747Z 10016G21KT 10SM SCT025 BKN033 27/21 A3009
2026-04-05 16:47:00,METAR KSUA 051647Z 10014G20KT 10SM SCT022 BKN027 27/21 A3011
2026-04-05 15:47:00,METAR KSUA 051547Z 10014G19KT 10SM SCT023 BKN030 28/21 A3012
2026-04-05 12:47:00,METAR KSUA 051247Z 10010KT 10SM SCT022 SCT028 25/21 A3012
2026-04-05 11:47:00,METAR KSUA 051147Z 10010KT 10SM SCT021 BKN027 24/21 A3011
2026-04-05 10:51:00,METAR KSUA 051051Z 11010KT 10SM SCT022 BKN027 23/21 A3010
2026-04-05 10:35:00,METAR KSUA 051035Z AUTO 11009KT 10SM BKN023 OVC033 23/21 A3010 RMK AO2
2026-04-05 10:15:00,METAR KSUA 051015Z AUTO 11010KT 10SM SCT022 BKN033 23/21 A3010 RMK AO2
2026-04-05 09:55:00,METAR KSUA 050955Z AUTO 12008KT 10SM SCT023 BKN030 BKN035 23/21 A3009 RMK AO2
2026-04-05 09:35:00,METAR KSUA 050935Z AUTO 11008KT 10SM SCT021 SCT028 23/20 A3009 RMK AO2
2026-04-05 09:15:00,METAR KSUA 050915Z AUTO 11008KT 10SM SCT022 BKN029 BKN034 23/20 A3009 RMK AO2
2026-04-05 08:55:00,METAR KSUA 050855Z AUTO 11009KT 10SM BKN025 OVC030 23/20 A3009 RMK AO2
2026-04-05 08:35:00,METAR KSUA 050835Z AUTO 11009KT 10SM SCT023 BKN028 23/20 A3009 RMK AO2
2026-04-05 08:15:00,METAR KSUA 050815Z AUTO 11007KT 10SM BKN025 BKN030 23/20 A3009 RMK AO2
2026-04-05 07:55:00,METAR KSUA 050755Z AUTO 12007KT 10SM SCT024 SCT032 23/20 A3010 RMK AO2
2026-04-05 07:35:00,METAR KSUA 050735Z AUTO 12007KT 10SM BKN024 23/20 A3010 RMK AO2
2026-04-05 07:15:00,METAR KSUA 050715Z AUTO 12008KT 10SM BKN026 23/20 A3010 RMK AO2
2026-04-05 06:55:00,METAR KSUA 050655Z AUTO 11009G16KT 10SM OVC027 23/20 A3011 RMK AO2
2026-04-05 06:35:00,METAR KSUA 050635Z AUTO 12010G16KT 10SM BKN025 23/20 A3011 RMK AO2
2026-04-05 06:15:00,METAR KSUA 050615Z AUTO 11012KT 10SM SCT024 BKN030 BKN042 23/20 A3012 RMK AO2
2026-04-05 05:55:00,METAR KSUA 050555Z AUTO 11011G17KT 10SM BKN025 BKN031 BKN042 23/20 A3013 RMK AO2
2026-04-05 05:35:00,METAR KSUA 050535Z AUTO 12012KT 10SM SCT022 SCT027 23/20 A3014 RMK AO2
2026-04-05 05:15:00,METAR KSUA 050515Z AUTO 12011KT 10SM SCT024 23/20 A3014 RMK AO2
2026-04-05 04:55:00,METAR KSUA 050455Z AUTO 12013KT 10SM SCT025 SCT031 SCT040 23/20 A3014 RMK AO2
2026-04-05 04:35:00,METAR KSUA 050435Z AUTO 12015KT 10SM SCT021 SCT025 BKN032 24/21 A3014 RMK AO2
2026-04-05 04:15:00,METAR KSUA 050415Z AUTO 12013G18KT 10SM SCT020 BKN025 BKN033 24/22 A3015 RMK AO2
2026-04-05 03:55:00,METAR KSUA 050355Z AUTO 12011G19KT 10SM BKN019 BKN024 OVC045 23/22 A3014 RMK AO2 P0002
2026-04-05 03:40:00,METAR KSUA 050340Z AUTO 15006G14KT 10SM -RA BKN019 BKN031 OVC120 22/21 A3014 RMK AO2
2026-04-05 03:15:00,METAR KSUA 050315Z AUTO 09010KT 10SM FEW055 FEW095 OVC120 23/21 A3014 RMK AO2
2026-04-05 02:55:00,METAR KSUA 050255Z AUTO 10010KT 10SM FEW004 SCT050 BKN100 22/22 A3015 RMK AO2 P0016
2026-04-05 02:35:00,METAR KSUA 050235Z AUTO 10011KT 3SM -RA BR SCT004 BKN030 BKN045 22/22 A3015 RMK AO2
2026-04-05 02:15:00,METAR KSUA 050215Z AUTO 12013KT 6SM -RA BR BKN029 BKN038 OVC050 22/20 A3015 RMK AO2
2026-04-05 00:47:00,METAR KSUA 050047Z 13010KT 10SM VCSH FEW021 SCT035 BKN050 22/21 A3013
2026-04-04 23:47:00,METAR KSUA 042347Z 10007KT 10SM -RA FEW017 SCT027 BKN055 24/22 A3013
2026-04-04 22:47:00,METAR KSUA 042247Z 10007KT 10SM -RA FEW017 SCT027 BKN055 24/22 A3013
2026-04-04 21:47:00,METAR KSUA 042147Z 09016KT 10SM SCT020 BKN031 26/20 A3013
2026-04-04 20:47:00,METAR KSUA 042047Z 08012KT 10SM SCT023 BKN031 27/20 A3014
2026-04-04 19:48:00,METAR KSUA 041948Z 08013G22KT 10SM SCT026 BKN031 28/20 A3015
2026-04-04 18:48:00,METAR KSUA 041848Z 09014G22KT 10SM SCT027 28/19 A3016
2026-04-04 17:48:00,METAR KSUA 041748Z 11013G19KT 10SM SCT027 28/19 A3019
2026-04-04 16:48:00,METAR KSUA 041648Z 08012G17KT 10SM SCT030 28/19 A3020
2026-04-04 15:48:00,METAR KSUA 041548Z 08012G20KT 10SM SCT030 27/18 A3021
2026-04-04 14:48:00,METAR KSUA 041448Z 09015G20KT 10SM SCT024 BKN031 26/19 A3020
2026-04-04 13:48:00,METAR KSUA 041348Z 11011G19KT 10SM SCT025 26/20 A3019
2026-04-04 12:48:00,METAR KSUA 041248Z 10013G18KT 10SM BKN022 26/20 A3018
2026-04-04 11:48:00,METAR KSUA 041148Z 09011KT 10SM BKN022 24/20 A3016
2026-04-04 10:51:00,METAR KSUA 041051Z 09008KT 10SM FEW024 23/20 A3016
2026-04-04 10:40:00,METAR KSUA 041040Z AUTO 09007KT 10SM FEW025 FEW031 23/20 A3016 RMK AO2
2026-04-04 10:15:00,METAR KSUA 041015Z AUTO 09007KT 10SM FEW024 SCT036 SCT041 23/20 A3015 RMK AO2
2026-04-04 09:55:00,METAR KSUA 040955Z AUTO 09008KT 10SM SCT024 SCT030 SCT040 23/19 A3015 RMK AO2
2026-04-04 09:40:00,METAR KSUA 040940Z AUTO 09008KT 10SM FEW024 SCT030 SCT038 22/19 A3015 RMK AO2
2026-04-04 09:15:00,METAR KSUA 040915Z AUTO 10005KT 10SM SCT024 22/19 A3015 RMK AO2
2026-04-04 08:55:00,METAR KSUA 040855Z AUTO 11008KT 10SM FEW023 22/19 A3015 RMK AO2
2026-04-04 08:35:00,METAR KSUA 040835Z AUTO 11006KT 10SM CLR 22/19 A3015 RMK AO2
2026-04-04 08:20:00,METAR KSUA 040820Z AUTO 10007G13KT 10SM FEW024 22/18 A3015 RMK AO2
2026-04-04 07:55:00,METAR KSUA 040755Z AUTO 10007KT 10SM BKN025 23/19 A3015 RMK AO2
2026-04-04 07:35:00,METAR KSUA 040735Z AUTO 11007KT 10SM SCT027 BKN033 BKN042 22/18 A3016 RMK AO2
2026-04-04 07:15:00,METAR KSUA 040715Z AUTO 10007KT 10SM BKN026 BKN031 OVC042 23/19 A3016 RMK AO2
2026-04-04 06:55:00,METAR KSUA 040655Z AUTO 11006KT 10SM BKN027 23/18 A3017 RMK AO2
2026-04-04 06:35:00,METAR KSUA 040635Z AUTO 11012KT 10SM CLR 23/18 A3018 RMK AO2
2026-04-04 06:15:00,METAR KSUA 040615Z AUTO 11008KT 10SM SCT028 23/18 A3018 RMK AO2
2026-04-04 05:55:00,METAR KSUA 040555Z AUTO 11009KT 10SM SCT027 23/18 A3019 RMK AO2
2026-04-04 05:35:00,METAR KSUA 040535Z AUTO 11011KT 10SM FEW032 23/17 A3020 RMK AO2
2026-04-04 05:15:00,METAR KSUA 040515Z AUTO 12012KT 10SM SCT030 24/18 A3021 RMK AO2
2026-04-04 04:55:00,METAR KSUA 040455Z AUTO 11009G17KT 10SM SCT028 BKN033 24/19 A3021 RMK AO2
2026-04-04 04:35:00,METAR KSUA 040435Z AUTO 11013KT 10SM SCT027 BKN034 24/20 A3021 RMK AO2
2026-04-04 04:15:00,METAR KSUA 040415Z AUTO 10012G18KT 10SM SCT025 BKN031 24/20 A3021 RMK AO2
2026-04-04 03:55:00,METAR KSUA 040355Z AUTO 11011G19KT 10SM SCT026 SCT032 24/19 A3021 RMK AO2
2026-04-04 03:35:00,METAR KSUA 040335Z AUTO 11012KT 10SM SCT026 24/20 A3021 RMK AO2
2026-04-04 03:15:00,METAR KSUA 040315Z AUTO 10014KT 10SM SCT025 SCT031 SCT049 24/20 A3021 RMK AO2
2026-04-04 02:55:00,METAR KSUA 040255Z AUTO 10014G20KT 10SM SCT023 SCT031 SCT049 24/20 A3021 RMK AO2
2026-04-04 02:35:00,METAR KSUA 040235Z AUTO 10015G20KT 10SM SCT025 24/20 A3021 RMK AO2
2026-04-04 02:15:00,METAR KSUA 040215Z AUTO 11015KT 10SM SCT024 BKN028 BKN035 24/20 A3021 RMK AO2
2026-04-04 01:47:00,METAR KSUA 040147Z 10015G22KT 10SM BKN022 BKN026 24/20 A3020
2026-04-04 00:47:00,METAR KSUA 040047Z 10013G21KT 10SM BKN022 BKN026 24/21 A3018
2026-04-03 23:47:00,METAR KSUA 032347Z 09013G21KT 10SM BKN019 BKN024 25/21 A3017
2026-04-03 22:47:00,METAR KSUA 032247Z 09013G21KT 10SM BKN019 BKN024 25/21 A3017
2026-04-03 21:47:00,METAR KSUA 032147Z 11013G21KT 10SM VCSH BKN020 BKN025 26/21 A3017
2026-04-03 20:47:00,METAR KSUA 032047Z 09013G21KT 10SM VCSH SCT020 BKN025 27/21 A3018
2026-04-03 19:47:00,METAR KSUA 031947Z 09013G21KT 7SM SCT020 28/22 A3019
2026-04-03 18:47:00,METAR KSUA 031847Z 10015G20KT 7SM SCT021 BKN026 28/22 A3020
2026-04-03 17:47:00,METAR KSUA 031747Z 10016G22KT 7SM FEW022 BKN028 28/22 A3021
2026-04-03 16:47:00,METAR KSUA 031647Z 10016G22KT 7SM SCT022 BKN028 28/21 A3022
2026-04-03 15:47:00,METAR KSUA 031547Z 10016G20KT 7SM SCT022 BKN028 28/21 A3024
2026-04-03 14:47:00,METAR KSUA 031447Z 10016G22KT 7SM SCT022 BKN028 27/21 A3022
2026-04-03 13:47:00,METAR KSUA 031347Z 10014G20KT 7SM SCT022 BKN030 26/20 A3021
2026-04-03 12:47:00,METAR KSUA 031247Z 11012G19KT 7SM SCT022 25/20 A3019
2026-04-03 11:50:00,METAR KSUA 031150Z 11012G19KT 7SM FEW013 SCT024 24/20 A3018
2026-04-03 10:50:00,METAR KSUA 031050Z 11012G17KT 7SM SCT023 23/20 A3015
2026-04-03 06:15:00,METAR KSUA 030615Z AUTO 10014KT 10SM FEW020 SCT030 24/21 A3016 RMK AO2
2026-04-03 05:55:00,METAR KSUA 030555Z AUTO 10013KT 10SM SCT021 SCT027 SCT037 24/21 A3016 RMK AO2
2026-04-03 05:35:00,METAR KSUA 030535Z AUTO 10011KT 10SM FEW020 SCT024 BKN040 24/21 A3016 RMK AO2
2026-04-03 05:15:00,METAR KSUA 030515Z AUTO 12013KT 10SM BKN021 BKN029 BKN038 24/21 A3017 RMK AO2
2026-04-03 04:55:00,METAR KSUA 030455Z AUTO 12010KT 10SM BKN022 BKN035 24/21 A3017 RMK AO2
2026-04-03 04:35:00,METAR KSUA 030435Z AUTO 12009G17KT 10SM FEW024 SCT029 SCT036 24/21 A3017 RMK AO2
2026-04-03 04:15:00,METAR KSUA 030415Z AUTO 11013KT 10SM FEW022 SCT037 BKN055 24/21 A3018 RMK AO2
2026-04-03 03:55:00,METAR KSUA 030355Z AUTO 11011G19KT 10SM SCT021 SCT036 BKN055 24/22 A3017 RMK AO2
2026-04-03 03:40:00,METAR KSUA 030340Z AUTO 11013G19KT 10SM SCT021 SCT033 BKN041 24/21 A3018 RMK AO2
2026-04-03 03:15:00,METAR KSUA 030315Z AUTO 10013G18KT 10SM SCT019 BKN025 OVC048 24/22 A3018 RMK AO2
2026-04-03 02:55:00,METAR KSUA 030255Z AUTO 09011KT 10SM SCT018 BKN026 BKN033 24/22 A3018 RMK AO2
2026-04-03 02:40:00,METAR KSUA 030240Z AUTO 09012G18KT 10SM FEW015 SCT023 BKN037 24/22 A3018 RMK AO2
2026-04-03 02:15:00,METAR KSUA 030215Z AUTO 10016KT 10SM SCT021 BKN027 OVC075 24/22 A3018 RMK AO2
2026-04-03 00:47:00,METAR KSUA 030047Z 09010KT 7SM VCSH FEW023 BKN050 23/21 A3016
2026-04-02 23:47:00,METAR KSUA 022347Z 08012KT 7SM VCTS FEW023 SCT028 BKN0120 23/21 A3012
2026-04-02 22:47:00,METAR KSUA 022247Z 1208KT 7SM VCSH FEW023 SCT027 BKN034 24/22 A3012
2026-04-02 21:48:00,METAR KSUA 022148Z 10013KT 5SM RA BKN018 OVC035 24/21 A3010
2026-04-02 20:48:00,METAR KSUA 022048Z 10012KT 10SM VCSH BKN023 BKN035 26/21 A3013
2026-04-02 19:48:00,METAR KSUA 021948Z 11011KT 10SM VCSH BKN023 BKN035 25/21 A3014
2026-04-02 18:55:00,METAR KSUA 021855Z 11012KT 10SM VCSH SCT022 BKN037 24/22 A3014
2026-04-02 17:48:00,METAR KSUA 021748Z 10018G25KT 10SM VCSH SCT021 BKN067 27/21 A3015
2026-04-02 16:48:00,METAR KSUA 021648Z 11013G22KT 10SM SCT022 BKN047 27/21 A3017
2026-04-02 15:50:00,METAR KSUA 021550Z 10015G23KT 10SM SCT025 BKN035 BKN060 27/21 A3017
2026-04-02 14:50:00,METAR KSUA 021450Z 10015G24KT 10SM BKN038 BKN045 OVC055 26/21 A3018
2026-04-02 13:50:00,METAR KSUA 021350Z 10013G24KT 10SM BKN022 BKN030 BKN047 25/20 A3015
2026-04-02 12:50:00,METAR KSUA 021250Z 10012G25KT 10SM FEW011 BKN035 BKN044 23/20 A3014
2026-04-02 11:50:00,METAR KSUA 021150Z 11015G25KT 10SM SCT019 SCT032 BKN043 23/20 A3012
2026-04-02 10:35:00,METAR KSUA 021035Z AUTO 09011G16KT 10SM SCT043 BKN048 BKN060 24/19 A3010 RMK AO2 LTG DSNT E AND SW
2026-04-02 10:15:00,METAR KSUA 021015Z AUTO 09013KT 10SM FEW023 SCT027 BKN048 24/19 A3010 RMK AO2
2026-04-02 09:55:00,METAR KSUA 020955Z AUTO 09011KT 10SM SCT023 SCT028 SCT036 23/19 A3010 RMK AO2 LTG DSNT E
2026-04-02 09:35:00,METAR KSUA 020935Z AUTO 08012KT 10SM FEW028 FEW036 FEW044 23/19 A3009 RMK AO2
2026-04-02 09:15:00,METAR KSUA 020915Z AUTO 08008KT 10SM CLR 23/18 A3008 RMK AO2
2026-04-02 08:55:00,METAR KSUA 020855Z AUTO 09008G14KT 10SM FEW023 FEW033 23/19 A3009 RMK AO2
2026-04-02 08:35:00,METAR KSUA 020835Z AUTO 09008G14KT 10SM SCT023 BKN033 BKN050 23/19 A3010 RMK AO2
2026-04-02 08:15:00,METAR KSUA 020815Z AUTO 10009KT 10SM SCT025 BKN034 BKN039 23/19 A3010 RMK AO2
2026-04-02 07:55:00,METAR KSUA 020755Z AUTO 09011KT 10SM FEW025 SCT032 SCT042 23/19 A3011 RMK AO2
2026-04-02 07:35:00,METAR KSUA 020735Z AUTO 09009KT 10SM SCT028 SCT036 BKN043 23/19 A3012 RMK AO2
2026-04-02 07:15:00,METAR KSUA 020715Z AUTO 09008KT 10SM SCT027 BKN034 BKN043 23/19 A3012 RMK AO2
2026-04-02 06:55:00,METAR KSUA 020655Z AUTO 09009KT 10SM FEW026 SCT033 SCT049 23/18 A3013 RMK AO2
2026-04-02 06:35:00,METAR KSUA 020635Z AUTO 09009KT 10SM FEW028 FEW035 SCT042 23/18 A3013 RMK AO2
2026-04-02 06:15:00,METAR KSUA 020615Z AUTO 09011KT 10SM SCT027 SCT031 23/18 A3014 RMK AO2
2026-04-02 05:55:00,METAR KSUA 020555Z AUTO 09010KT 10SM BKN028 BKN034 23/18 A3014 RMK AO2
2026-04-02 05:40:00,METAR KSUA 020540Z AUTO 10009G14KT 10SM BKN029 BKN039 23/18 A3014 RMK AO2
2026-04-02 05:15:00,METAR KSUA 020515Z AUTO 09007G14KT 10SM SCT028 23/18 A3015 RMK AO2
2026-04-02 04:55:00,METAR KSUA 020455Z AUTO 09011G16KT 10SM CLR 23/17 A3015 RMK AO2
2026-04-02 04:35:00,METAR KSUA 020435Z AUTO 10013KT 10SM CLR 23/18 A3015 RMK AO2
2026-04-02 04:15:00,METAR KSUA 020415Z AUTO 10012G18KT 10SM FEW029 SCT035 SCT041 23/17 A3015 RMK AO2
2026-04-02 03:55:00,METAR KSUA 020355Z AUTO 09011G16KT 10SM FEW031 SCT041 23/17 A3015 RMK AO2
2026-04-02 03:35:00,METAR KSUA 020335Z AUTO 09011KT 10SM SCT029 SCT037 23/17 A3015 RMK AO2
2026-04-02 03:15:00,METAR KSUA 020315Z AUTO 09011G16KT 10SM FEW030 SCT037 23/18 A3015 RMK AO2
2026-04-02 02:55:00,METAR KSUA 020255Z AUTO 09012KT 10SM SCT029 SCT036 SCT050 23/18 A3015 RMK AO2
2026-04-02 02:35:00,METAR KSUA 020235Z AUTO 09010G17KT 10SM SCT029 BKN036 BKN055 23/18 A3015 RMK AO2
2026-04-02 02:15:00,METAR KSUA 020215Z AUTO 08012KT 10SM FEW029 FEW036 BKN055 23/18 A3015 RMK AO2
2026-04-02 01:48:00,METAR KSUA 020148Z 09013KT 10SM SCT028 23/17 A3015
2026-04-02 00:48:00,METAR KSUA 020048Z 08012KT 10SM SCT030 23/18 A3013
2026-04-01 23:48:00,METAR KSUA 012348Z 08012KT 10SM FEW032 24/17 A3013
2026-04-01 22:47:00,METAR KSUA 012247Z 09012G19KT 7SM SCT022 24/18 A3013
2026-04-01 21:47:00,METAR KSUA 012147Z 10014G19KT 7SM SCT016 SCT025 26/18 A3014
2026-04-01 20:47:00,METAR KSUA 012047Z 09012G18KT 6SM SHRA SCT014 SCT023 26/18 A3015
2026-04-01 19:47:00,METAR KSUA 011947Z 07012G21KT 5SM -RA SCT014 SCT023 22/20 A3017
2026-04-01 18:47:00,METAR KSUA 011847Z 09014G19KT 6SM SHRA SCT014 SCT023 26/20 A3019
2026-04-01 17:50:00,METAR KSUA 011750Z 08014G19KT 10SM SCT035 26/20 A3020
2026-04-01 17:05:00,SPECI KSUA 011705Z 09010G16KT 3SM -RA SCT020 BKN033 22/21 A3021
2026-04-01 16:50:00,METAR KSUA 011650Z 12013G20KT 1 1/2SM +RA BKN020 25/20 A3022
2026-04-01 15:50:00,METAR KSUA 011550Z 08012KT 7SM SCT032 BKN040 27/18 A3022
2026-04-01 14:50:00,METAR KSUA 011450Z 11012KT 10SM FEW035 SCT060 26/18 A3022
2026-04-01 13:47:00,METAR KSUA 011347Z 10011KT 10SM SCT035 26/18 A3020
2026-04-01 12:50:00,METAR KSUA 011250Z 08011KT 10SM SCT035 25/17 A3019
2026-04-01 11:47:00,METAR KSUA 011147Z 11008KT 7SM SCT028 23/17 A3016
2026-04-01 10:47:00,METAR KSUA 011047Z 11008KT 7SM FEW031 22/16 A3013
2026-04-01 10:35:00,METAR KSUA 011035Z AUTO 10008KT 10SM FEW032 22/17 A3014 RMK AO2
2026-04-01 10:15:00,METAR KSUA 011015Z AUTO 09007KT 10SM FEW032 FEW039 22/17 A3014 RMK AO2
2026-04-01 09:55:00,METAR KSUA 010955Z AUTO 10008KT 10SM FEW033 SCT039 22/17 A3013 RMK AO2
2026-04-01 09:35:00,METAR KSUA 010935Z AUTO 11008KT 10SM FEW031 FEW037 SCT043 22/17 A3013 RMK AO2
2026-04-01 09:15:00,METAR KSUA 010915Z AUTO 11008KT 10SM FEW030 SCT034 SCT043 22/17 A3013 RMK AO2
2026-04-01 09:00:00,METAR KSUA 010900Z AUTO 12009G14KT 10SM SCT032 22/17 A3013 RMK AO2
2026-04-01 08:35:00,METAR KSUA 010835Z AUTO 11008KT 10SM SCT030 SCT038 22/17 A3013 RMK AO2
2026-04-01 08:15:00,METAR KSUA 010815Z AUTO 11009KT 10SM SCT031 SCT038 22/17 A3013 RMK AO2
2026-04-01 07:55:00,METAR KSUA 010755Z AUTO 12007KT 10SM FEW033 FEW039 22/17 A3014 RMK AO2
2026-04-01 07:35:00,METAR KSUA 010735Z AUTO 11008KT 10SM SCT033 SCT039 SCT050 22/16 A3014 RMK AO2
2026-04-01 07:15:00,METAR KSUA 010715Z AUTO 11009KT 10SM SCT032 SCT039 23/17 A3015 RMK AO2
2026-04-01 06:55:00,METAR KSUA 010655Z AUTO 11008KT 10SM FEW031 FEW039 23/17 A3015 RMK AO2
2026-04-01 06:35:00,METAR KSUA 010635Z AUTO 10012KT 10SM FEW030 FEW039 FEW050 23/17 A3016 RMK AO2
2026-04-01 06:15:00,METAR KSUA 010615Z AUTO 10009KT 10SM SCT030 SCT035 SCT050 23/17 A3016 RMK AO2
2026-04-01 05:55:00,METAR KSUA 010555Z AUTO 10010KT 10SM SCT030 23/18 A3017 RMK AO2
2026-04-01 05:35:00,METAR KSUA 010535Z AUTO 10010G16KT 10SM FEW028 FEW036 23/18 A3017 RMK AO2
2026-04-01 05:15:00,METAR KSUA 010515Z AUTO 09010KT 10SM FEW028 23/18 A3018 RMK AO2
2026-04-01 04:55:00,METAR KSUA 010455Z AUTO 09011KT 10SM FEW028 23/18 A3018 RMK AO2
2026-04-01 04:35:00,METAR KSUA 010435Z AUTO 09011KT 10SM FEW032 FEW060 23/17 A3019 RMK AO2
2026-04-01 04:15:00,METAR KSUA 010415Z AUTO 10009KT 10SM SCT029 SCT034 BKN041 23/18 A3020 RMK AO2
2026-04-01 03:55:00,METAR KSUA 010355Z AUTO 09010KT 10SM FEW029 SCT033 BKN050 23/18 A3020 RMK AO2
2026-04-01 03:35:00,METAR KSUA 010335Z AUTO 08010KT 10SM SCT029 BKN035 BKN055 23/18 A3020 RMK AO2
2026-04-01 03:15:00,METAR KSUA 010315Z AUTO 09010KT 10SM FEW030 SCT035 23/18 A3020 RMK AO2
2026-04-01 02:55:00,METAR KSUA 010255Z AUTO 09010KT 10SM FEW030 SCT035 SCT060 23/17 A3020 RMK AO2
2026-04-01 02:35:00,METAR KSUA 010235Z AUTO 09012KT 10SM FEW030 SCT060 23/17 A3020 RMK AO2
2026-04-01 02:15:00,METAR KSUA 010215Z AUTO 09011KT 10SM FEW034 FEW040 FEW048 23/17 A3020 RMK AO2
2026-04-01 01:47:00,METAR KSUA 010147Z 09008G15KT 7SM SCT024 23/17 A3020
2026-04-01 00:47:00,METAR KSUA 010047Z 10012KT 7SM SCT024 23/17 A3019
2026-03-31 22:47:00,METAR KSUA 312247Z 09014KT 7SM SCT018 SCT027 25/17 A3018
2026-03-31 21:47:00,METAR KSUA 312147Z 09010G18KT 7SM SCT018 SCT033 26/16 A3018
2026-03-31 20:47:00,METAR KSUA 312047Z 09014G20KT 7SM SCT021 SCT033 26/17 A3018
2026-03-31 19:47:00,METAR KSUA 311947Z 08012G20KT 7SM SCT021 BKN033 27/17 A3021
2026-03-31 18:47:00,METAR KSUA 311847Z 09012G20KT 7SM SCT023 BKN035 27/17 A3023
2026-03-31 17:47:00,METAR KSUA 311747Z 07010G19KT 7SM SCT032 BKN042 26/17 A3025
2026-03-31 15:47:00,METAR KSUA 311547Z 10012G20KT 7SM SCT028 BKN040 28/18 A3028
2026-03-31 14:47:00,METAR KSUA 311447Z COR 10012G20KT 7SM SCT030 SCT042 28/17 A3028
2026-03-31 13:47:00,METAR KSUA 311347Z 10010G16KT 7SM SCT026 BKN038 27/19 A3027
2026-03-31 12:47:00,METAR KSUA 311247Z 10012KT 7SM SCT026 SCT035 25/19 A3026
2026-03-31 11:37:00,METAR KSUA 311137Z 10012KT 7SM SCT026 SCT035 23/19 A3024
2026-03-31 10:50:00,METAR KSUA 311050Z 11009KT 6SM BR SCT023 BKN035 24/19 A3023
2026-03-31 10:35:00,METAR KSUA 311035Z AUTO 09011KT 10SM SCT025 SCT030 OVC065 23/18 A3023 RMK AO2
2026-03-31 10:15:00,METAR KSUA 311015Z AUTO 10010KT 10SM SCT026 SCT031 BKN065 23/18 A3022 RMK AO2
2026-03-31 09:55:00,METAR KSUA 310955Z AUTO 09009G15KT 10SM FEW027 FEW060 23/18 A3021 RMK AO2
2026-03-31 09:35:00,METAR KSUA 310935Z AUTO 10010G15KT 10SM SCT026 BKN060 23/18 A3021 RMK AO2
2026-03-31 09:15:00,METAR KSUA 310915Z AUTO 11010KT 10SM FEW024 FEW031 BKN060 23/19 A3020 RMK AO2
2026-03-31 08:55:00,METAR KSUA 310855Z AUTO 10010KT 10SM FEW025 SCT033 23/19 A3020 RMK AO2
2026-03-31 08:35:00,METAR KSUA 310835Z AUTO 11011KT 10SM SCT025 SCT029 23/19 A3020 RMK AO2
2026-03-31 08:15:00,METAR KSUA 310815Z AUTO 10011KT 10SM FEW024 FEW032 23/19 A3020 RMK AO2
2026-03-31 07:55:00,METAR KSUA 310755Z AUTO 10012KT 10SM SCT025 SCT033 SCT039 23/18 A3020 RMK AO2
2026-03-31 07:35:00,METAR KSUA 310735Z AUTO 10010KT 10SM SCT024 BKN033 OVC040 23/19 A3021 RMK AO2
2026-03-31 07:15:00,METAR KSUA 310715Z AUTO 10011KT 10SM FEW024 SCT030 BKN038 23/19 A3021 RMK AO2
2026-03-31 06:55:00,METAR KSUA 310655Z AUTO 10012KT 10SM FEW026 SCT033 BKN039 23/19 A3022 RMK AO2
2026-03-31 06:35:00,METAR KSUA 310635Z AUTO 11012KT 10SM FEW022 SCT034 BKN042 23/19 A3022 RMK AO2
2026-03-31 06:15:00,METAR KSUA 310615Z AUTO 11013KT 10SM SCT024 BKN034 BKN041 23/19 A3022 RMK AO2
2026-03-31 05:55:00,METAR KSUA 310555Z AUTO 11013KT 10SM FEW024 SCT030 BKN040 23/19 A3023 RMK AO2
2026-03-31 05:35:00,METAR KSUA 310535Z AUTO 10012KT 10SM SCT023 SCT031 BKN037 23/19 A3024 RMK AO2
2026-03-31 05:15:00,METAR KSUA 310515Z AUTO 11012KT 10SM BKN023 OVC033 23/19 A3024 RMK AO2
2026-03-31 04:55:00,METAR KSUA 310455Z AUTO 11013KT 10SM SCT023 SCT031 BKN036 23/19 A3024 RMK AO2
2026-03-31 04:35:00,METAR KSUA 310435Z AUTO 11013KT 10SM FEW024 BKN060 23/19 A3025 RMK AO2
2026-03-31 04:15:00,METAR KSUA 310415Z AUTO 11015KT 10SM OVC065 23/19 A3025 RMK AO2
2026-03-31 03:55:00,METAR KSUA 310355Z AUTO 11011G18KT 10SM FEW027 FEW039 BKN060 24/19 A3026 RMK AO2
2026-03-31 03:35:00,METAR KSUA 310335Z AUTO 10014G19KT 10SM FEW024 SCT032 BKN040 24/19 A3026 RMK AO2
2026-03-31 03:15:00,METAR KSUA 310315Z AUTO 10014KT 10SM FEW023 SCT031 BKN038 24/19 A3025 RMK AO2
2026-03-31 02:55:00,METAR KSUA 310255Z AUTO 11012G17KT 10SM FEW022 FEW050 SCT110 24/19 A3026 RMK AO2
2026-03-31 02:35:00,METAR KSUA 310235Z AUTO 09012KT 10SM CLR 24/19 A3026 RMK AO2
2026-03-31 02:15:00,METAR KSUA 310215Z AUTO 09013G18KT 10SM CLR 24/18 A3026 RMK AO2
2026-03-31 01:50:00,METAR KSUA 310150Z 09012G19KT 10SM BKN023 BKN035 24/19 A3025
2026-03-31 00:50:00,METAR KSUA 310050Z 09014G19KT 10SM BKN022 BKN048 24/19 A3024
2026-03-30 23:50:00,METAR KSUA 302350Z 10012G17KT 10SM BKN024 BKN029 24/19 A3023
2026-03-30 22:47:00,METAR KSUA 302247Z 10013KT 7SM FEW023 SCT070 26/19 A3023
2026-03-30 21:47:00,METAR KSUA 302147Z 09015KT 7SM FEW023 26/19 A3022
2026-03-30 20:47:00,METAR KSUA 302047Z 08016KT 7SM FEW023 FEW065 26/19 A3023
2026-03-30 19:47:00,METAR KSUA 301947Z 08016KT 7SM FEW024 FEW080 27/19 A3024
2026-03-30 18:47:00,METAR KSUA 301847Z 09015G21KT 7SM SCT024 BKN035 27/20 A3025
2026-03-30 17:47:00,METAR KSUA 301747Z 10015G21KT 7SM SCT022 BKN033 26/19 A3027
2026-03-30 16:53:00,METAR KSUA 301653Z 09013G22KT 7SM BKN022 BKN055 27/19 A3028
2026-03-30 15:47:00,METAR KSUA 301547Z 12015G22KT 6SM BR BKN022 OVC055 27/19 A3029
2026-03-30 14:47:00,METAR KSUA 301447Z 10015G22KT 6SM BR SCT022 OVC055 26/19 A3029
2026-03-30 13:47:00,METAR KSUA 301347Z 12014G20KT 6SM BR BKN020 OVC055 25/19 A3028
2026-03-30 12:47:00,METAR KSUA 301247Z 12014G20KT 6SM BR BKN027 BKN032 24/18 A3026
2026-03-30 11:47:00,METAR KSUA 301147Z 12015G20KT 6SM BR SCT025 BKN044 23/18 A3025
2026-03-30 10:47:00,METAR KSUA 301047Z 09014G19KT 10SM SCT025 BKN044 BKN050 23/19 A3023
2026-03-30 10:35:00,METAR KSUA 301035Z AUTO 09013G18KT 10SM FEW033 BKN049 OVC055 23/18 A3023 RMK AO2
2026-03-30 10:15:00,METAR KSUA 301015Z AUTO 09013G18KT 10SM SCT023 BKN048 OVC055 23/18 A3023 RMK AO2
2026-03-30 09:55:00,METAR KSUA 300955Z AUTO 10014G19KT 10SM SCT023 BKN028 OVC065 23/19 A3022 RMK AO2
2026-03-30 09:35:00,METAR KSUA 300935Z AUTO 08011G18KT 10SM SCT022 OVC040 23/19 A3022 RMK AO2
2026-03-30 09:15:00,METAR KSUA 300915Z AUTO 09015G20KT 10SM FEW025 SCT032 BKN043 23/19 A3021 RMK AO2
2026-03-30 08:55:00,METAR KSUA 300855Z AUTO 09015G21KT 10SM SCT023 BKN027 OVC065 23/19 A3021 RMK AO2
2026-03-30 08:40:00,METAR KSUA 300840Z AUTO 09015G22KT 10SM FEW021 SCT028 BKN048 23/19 A3021 RMK AO2
2026-03-30 08:15:00,METAR KSUA 300815Z AUTO 10015G24KT 10SM FEW022 SCT030 BKN047 23/19 A3021 RMK AO2
2026-03-30 07:55:00,METAR KSUA 300755Z AUTO 09015G21KT 10SM SCT024 BKN055 OVC070 22/19 A3021 RMK AO2
2026-03-30 07:35:00,METAR KSUA 300735Z AUTO 08014G21KT 9SM SCT024 SCT050 OVC065 23/19 A3022 RMK AO2
2026-03-30 07:15:00,METAR KSUA 300715Z AUTO 08016G21KT 10SM FEW023 SCT028 OVC065 23/19 A3022 RMK AO2
2026-03-30 06:55:00,METAR KSUA 300655Z AUTO 08016G24KT 10SM FEW030 FEW036 OVC065 23/19 A3023 RMK AO2
2026-03-30 06:35:00,METAR KSUA 300635Z AUTO 08018G28KT 10SM FEW023 SCT029 OVC065 23/19 A3023 RMK AO2
2026-03-30 06:10:00,METAR KSUA 300610Z AUTO 08017G23KT 10SM FEW023 SCT030 BKN040 23/19 A3024 RMK AO2
2026-03-30 05:55:00,METAR KSUA 300555Z AUTO 08017G25KT 10SM FEW022 SCT027 BKN032 23/19 A3025 RMK AO2
2026-03-30 05:40:00,METAR KSUA 300540Z AUTO 07017G23KT 10SM FEW024 FEW030 OVC065 23/19 A3025 RMK AO2
2026-03-30 05:15:00,METAR KSUA 300515Z AUTO 08015G24KT 10SM SCT023 SCT034 OVC060 23/19 A3026 RMK AO2
2026-03-30 04:55:00,METAR KSUA 300455Z AUTO 08012G22KT 10SM BKN024 BKN035 OVC055 23/19 A3026 RMK AO2
2026-03-30 04:35:00,METAR KSUA 300435Z AUTO 08015G24KT 10SM SCT026 BKN055 OVC065 23/19 A3027 RMK AO2
2026-03-30 04:15:00,METAR KSUA 300415Z AUTO 09016G24KT 10SM SCT024 BKN046 OVC055 23/19 A3027 RMK AO2
2026-03-30 03:55:00,METAR KSUA 300355Z AUTO 08019KT 10SM SCT023 SCT030 OVC047 23/19 A3027 RMK AO2
2026-03-30 03:35:00,METAR KSUA 300335Z AUTO 08015G21KT 5SM -RA HZ FEW006 SCT023 BKN031 23/19 A3027 RMK AO2
2026-03-30 03:15:00,METAR KSUA 300315Z AUTO 08018G26KT 10SM FEW024 SCT029 OVC044 23/19 A3027 RMK AO2
2026-03-30 02:55:00,METAR KSUA 300255Z AUTO 08020KT 10SM SCT024 SCT035 OVC042 23/19 A3027 RMK AO2
2026-03-30 02:35:00,METAR KSUA 300235Z AUTO 07017G27KT 10SM BKN023 BKN036 OVC045 23/19 A3027 RMK AO2
2026-03-30 02:15:00,METAR KSUA 300215Z AUTO 08018G23KT 10SM SCT022 BKN036 OVC050 23/19 A3027 RMK AO2
2026-03-30 01:50:00,METAR KSUA 300150Z 07015G21KT 10SM FEW004 SCT023 OVC041 22/19 A3027
2026-03-30 00:50:00,METAR KSUA 300050Z 07016G26KT 7SM FEW016 SCT025 OVC041 22/19 A3026
2026-03-29 23:47:00,METAR KSUA 292347Z 09020KT 7SM FEW018 SCT027 OVC039 22/19 A3025
2026-03-29 22:47:00,METAR KSUA 292247Z 09018G28KT 7SM SCT024 BKN032 OVC050 23/19 A3024
2026-03-29 21:47:00,METAR KSUA 292147Z 07012G22KT 7SM FEW022 OVC055 23/19 A3024
2026-03-29 20:47:00,METAR KSUA 292047Z 07018G28KT 6SM SCT022 BKN031 OVC050 23/20 A3025
2026-03-29 19:47:00,METAR KSUA 291947Z 07020G28KT 10SM SCT022 BKN042 OVC050 25/19 A3025
2026-03-29 18:47:00,METAR KSUA 291847Z 06018G28KT 10SM FEW024 SCT045 26/19 A3026
2026-03-29 17:47:00,METAR KSUA 291747Z 07020G25KT 10SM SCT029 BKN080 26/19 A3028
2026-03-29 16:47:00,METAR KSUA 291647Z 08018G28KT 10SM SCT024 BKN034 OVC041 25/19 A3029
2026-03-29 15:48:00,METAR KSUA 291548Z 06020G28KT 10SM SCT024 BKN034 OVC060 25/19 A3030
2026-03-29 14:48:00,METAR KSUA 291448Z 07020G28KT 10SM BKN021 BKN047 24/19 A3029
2026-03-29 13:48:00,METAR KSUA 291348Z 06018G28KT 10SM SCT021 BKN044 25/20 A3027
2026-03-29 12:47:00,METAR KSUA 291247Z 06020G29KT 10SM SCT021 BKN028 24/20 A3024
2026-03-29 11:47:00,METAR KSUA 291147Z 07017G29KT 10SM SCT012 BKN020 22/20 A3022
2026-03-29 10:51:00,METAR KSUA 291051Z 07020G28KT 10SM SCT021 BKN033 23/20 A3020
2026-03-29 10:35:00,METAR KSUA 291035Z AUTO 07021G27KT 10SM SCT020 BKN027 OVC055 23/20 A3020 RMK AO2
2026-03-29 10:15:00,METAR KSUA 291015Z AUTO 06016G24KT 10SM SCT020 BKN035 OVC080 23/20 A3019 RMK AO2
2026-03-29 09:55:00,METAR KSUA 290955Z AUTO 06021KT 10SM FEW018 SCT023 BKN035 23/20 A3019 RMK AO2
2026-03-29 09:35:00,METAR KSUA 290935Z AUTO 06021G29KT 8SM BKN018 BKN026 OVC033 22/20 A3018 RMK AO2
2026-03-29 09:15:00,METAR KSUA 290915Z AUTO 06017G27KT 10SM SCT019 BKN024 OVC034 23/20 A3018 RMK AO2
2026-03-29 08:55:00,METAR KSUA 290855Z AUTO 06017G29KT 10SM BKN019 BKN025 OVC034 23/20 A3018 RMK AO2
2026-03-29 08:35:00,METAR KSUA 290835Z AUTO 06021G27KT 10SM SCT018 BKN024 OVC075 23/20 A3018 RMK AO2
2026-03-29 08:15:00,METAR KSUA 290815Z AUTO 06018G28KT 10SM SCT018 BKN023 OVC075 23/20 A3017 RMK AO2
2026-03-29 07:55:00,METAR KSUA 290755Z AUTO 06020G30KT 10SM SCT020 BKN030 OVC050 23/20 A3017 RMK AO2
2026-03-29 07:35:00,METAR KSUA 290735Z AUTO 07023KT 6SM BR FEW019 BKN027 OVC042 22/20 A3017 RMK AO2
2026-03-29 07:15:00,METAR KSUA 290715Z AUTO 06023G30KT 10SM FEW017 SCT028 BKN034 22/20 A3017 RMK AO2 LTG DSNT SW
2026-03-29 06:55:00,METAR KSUA 290655Z AUTO 06025G31KT 9SM VCTS FEW017 BKN033 OVC085 22/20 A3017 RMK AO2 LTG DSNT SW
2026-03-29 06:35:00,METAR KSUA 290635Z AUTO 06021G29KT 10SM FEW018 SCT024 BKN070 23/20 A3018 RMK AO2
2026-03-29 06:15:00,METAR KSUA 290615Z AUTO 07024G33KT 10SM BKN019 BKN029 OVC075 23/20 A3017 RMK AO2 LTG DSNT S
2026-03-29 05:55:00,METAR KSUA 290555Z AUTO 07020G31KT 10SM SCT019 BKN030 OVC055 23/20 A3018 RMK AO2 P0003
2026-03-29 05:35:00,METAR KSUA 290535Z AUTO 06023G33KT 5SM BR SCT015 BKN033 OVC060 22/21 A3018 RMK AO2
2026-03-29 05:15:00,METAR KSUA 290515Z AUTO 06023G31KT 6SM HZ BKN018 BKN025 OVC033 23/21 A3018 RMK AO2
2026-03-29 04:55:00,METAR KSUA 290455Z AUTO 05023G30KT 10SM SCT018 BKN026 OVC034 23/21 A3018 RMK AO2
2026-03-29 04:35:00,METAR KSUA 290435Z AUTO 06023G30KT 10SM SCT018 OVC026 23/21 A3017 RMK AO2
2026-03-29 04:15:00,METAR KSUA 290415Z AUTO 05020G27KT 10SM SCT018 BKN026 OVC080 23/21 A3017 RMK AO2
2026-03-29 03:55:00,METAR KSUA 290355Z AUTO 05023G33KT 9SM SCT016 BKN050 OVC070 23/21 A3017 RMK AO2 P0001
2026-03-29 03:35:00,METAR KSUA 290335Z AUTO 04020G27KT 8SM FEW015 SCT036 BKN049 23/22 A3017 RMK AO2
2026-03-29 03:15:00,METAR KSUA 290315Z AUTO 07015G23KT 3SM -RA BR FEW010 SCT019 BKN036 23/22 A3017 RMK AO2
2026-03-29 02:55:00,METAR KSUA 290255Z AUTO 07016G22KT 9SM FEW012 SCT027 BKN039 24/22 A3018 RMK AO2 LTG DSNT E
2026-03-29 02:35:00,METAR KSUA 290235Z AUTO 05011G20KT 10SM VCTS SCT023 BKN028 BKN034 23/21 A3016 RMK AO2 LTG DSNT NE AND E
2026-03-29 02:15:00,METAR KSUA 290215Z AUTO 05016KT 10SM SCT022 SCT028 SCT034 24/21 A3016 RMK AO2
2026-03-29 00:47:00,METAR KSUA 290047Z 05012KT 10SM FEW021 25/21 A3014
2026-03-28 23:47:00,METAR KSUA 282347Z 04010KT 10SM FEW021 25/21 A3013
2026-03-28 22:55:00,METAR KSUA 282255Z 03010KT 10SM SCT021 25/21 A3011
2026-03-28 21:48:00,METAR KSUA 282148Z 03010KT 7SM BKN025 27/20 A3010
2026-03-28 21:47:00,METAR KSUA 282147Z 03010KT 10SM SCT021 25/21 A3011
2026-03-28 20:48:00,METAR KSUA 282048Z 07007G16KT 7SM CLR 26/20 A3010
2026-03-28 19:48:00,METAR KSUA 281948Z 08011G16KT 7SM CLR 28/20 A3010
2026-03-28 18:48:00,METAR KSUA 281848Z 06010G15KT 7SM SCT022 29/19 A3012
2026-03-28 17:48:00,METAR KSUA 281748Z 08008KT 7SM SCT022 BKN070 28/20 A3014
2026-03-28 16:48:00,METAR KSUA 281648Z 09007KT 7SM SCT022 BKN070 28/20 A3015
2026-03-28 15:47:00,METAR KSUA 281547Z VRB04KT 7SM SCT01 SCT025 28/19 A3015
2026-03-28 14:47:00,METAR KSUA 281447Z 16008KT 6SM HZ SCT012 SCT025 26/20 A3016
2026-03-28 13:47:00,METAR KSUA 281347Z 30004KT 5SM FU HZ FEW012 25/21 A3015
2026-03-28 12:47:00,METAR KSUA 281247Z 30004KT 4SM FU HZ CLR 23/21 A3014
2026-03-28 11:47:00,METAR KSUA 281147Z 30004KT 4SM FU HZ CLR 19/19 A3012
2026-03-28 10:47:00,METAR KSUA 281047Z 27006KT 4SM BR SCT025 19/19 A3010
2026-03-28 10:35:00,METAR KSUA 281035Z AUTO 00000KT 6SM BR FEW044 FEW050 19/19 A3010 RMK AO2
2026-03-28 10:15:00,METAR KSUA 281015Z AUTO 00000KT 3SM BR CLR 19/19 A3009 RMK AO2
2026-03-28 09:55:00,METAR KSUA 280955Z AUTO 00000KT 2 1/2SM BR FEW049 19/19 A3009 RMK AO2
2026-03-28 09:35:00,METAR KSUA 280935Z AUTO 00000KT 4SM BR FEW046 20/20 A3008 RMK AO2
2026-03-28 09:15:00,METAR KSUA 280915Z AUTO 00000KT 10SM FEW046 20/20 A3008 RMK AO2
2026-03-28 08:55:00,METAR KSUA 280855Z AUTO 28003KT 10SM CLR 20/20 A3008 RMK AO2
2026-03-28 08:35:00,METAR KSUA 280835Z AUTO 27003KT 10SM CLR 20/20 A3008 RMK AO2
2026-03-28 08:15:00,METAR KSUA 280815Z AUTO 26004KT 10SM CLR 20/20 A3008 RMK AO2
2026-03-28 07:55:00,METAR KSUA 280755Z AUTO 24004KT 10SM CLR 20/20 A3008 RMK AO2
2026-03-28 07:35:00,METAR KSUA 280735Z AUTO 25004KT 10SM CLR 20/19 A3008 RMK AO2
2026-03-28 07:15:00,METAR KSUA 280715Z AUTO 25004KT 10SM FEW050 20/19 A3008 RMK AO2
2026-03-28 06:55:00,METAR KSUA 280655Z AUTO 26005KT 10SM FEW050 21/19 A3009 RMK AO2
2026-03-28 06:35:00,METAR KSUA 280635Z AUTO 00000KT 10SM CLR 21/19 A3008 RMK AO2
2026-03-28 06:15:00,METAR KSUA 280615Z AUTO 00000KT 10SM CLR 21/19 A3009 RMK AO2
2026-03-28 05:55:00,METAR KSUA 280555Z AUTO 00000KT 10SM FEW045 FEW050 21/20 A3010 RMK AO2
2026-03-28 05:35:00,METAR KSUA 280535Z AUTO 23003KT 10SM SCT045 OVC055 21/20 A3011 RMK AO2
2026-03-28 05:15:00,METAR KSUA 280515Z AUTO 22004KT 10SM SCT044 BKN060 OVC075 21/20 A3011 RMK AO2
2026-03-28 04:55:00,METAR KSUA 280455Z AUTO 26003KT 10SM BKN042 BKN055 OVC075 22/19 A3012 RMK AO2
2026-03-28 04:35:00,METAR KSUA 280435Z AUTO 00000KT 10SM SCT040 BKN055 OVC070 22/19 A3012 RMK AO2
2026-03-28 04:15:00,METAR KSUA 280415Z AUTO 00000KT 10SM BKN039 BKN070 22/20 A3011 RMK AO2
2026-03-28 03:55:00,METAR KSUA 280355Z AUTO 17003KT 10SM FEW038 BKN070 23/19 A3012 RMK AO2
2026-03-28 03:35:00,METAR KSUA 280335Z AUTO 00000KT 10SM BKN038 BKN075 23/19 A3012 RMK AO2
2026-03-28 03:15:00,METAR KSUA 280315Z AUTO 15004KT 10SM SCT038 BKN075 23/19 A3012 RMK AO2
2026-03-28 02:55:00,METAR KSUA 280255Z AUTO 14003KT 10SM BKN075 23/19 A3012 RMK AO2
2026-03-28 02:35:00,METAR KSUA 280235Z AUTO 14004KT 10SM SCT075 23/19 A3012 RMK AO2
2026-03-28 02:15:00,METAR KSUA 280215Z AUTO 13006KT 10SM FEW075 23/19 A3011 RMK AO2
2026-03-28 01:48:00,METAR KSUA 280148Z 11006KT 7SM CLR 22/19 A3010
2026-03-28 00:48:00,METAR KSUA 280048Z 10007KT 7SM CLR 23/19 A3008
2026-03-27 23:48:00,METAR KSUA 272348Z 11007KT 7SM CLR 24/19 A3007
2026-03-27 22:48:00,METAR KSUA 272248Z 10010KT 7SM SCT020 25/19 A3006
2026-03-27 21:47:00,METAR KSUA 272147Z 12009KT 7SM SCT020 26/20 A3005
2026-03-27 20:47:00,METAR KSUA 272047Z 10010G17KT 7SM FEW020 27/20 A3005
2026-03-27 19:47:00,METAR KSUA 271947Z 11010G15KT 7SM CLR 28/20 A3007
2026-03-27 18:47:00,METAR KSUA 271847Z 07010G15KT 7SM SCT025 28/20 A3009
2026-03-27 17:47:00,METAR KSUA 271747Z 09014KT 7SM SCT016 SCT025 28/20 A3011
2026-03-27 16:47:00,METAR KSUA 271647Z 10010KT 7SM SCT016 SCT025 27/20 A3012
2026-03-25 14:47:00,METAR KSUA 251447Z 16007KT 10SM CLR 26/16 A3012
2026-03-25 13:50:00,METAR KSUA 251350Z 17006KT 10SM BKN060 23/16 A3012
2026-03-25 12:47:00,METAR KSUA 251247Z 00000KT 10SM BKN060 20/17 A3010
2026-03-25 11:47:00,METAR KSUA 251147Z 00000KT 10SM SCT065 17/16 A3008
2026-03-25 10:47:00,METAR KSUA 251047Z 00000KT 10SM FEW050 17/15 A3006
2026-03-25 10:35:00,METAR KSUA 251035Z AUTO 00000KT 10SM OVC060 17/15 A3006 RMK AO2 LTG DSNT NE
2026-03-25 10:15:00,METAR KSUA 251015Z AUTO 00000KT 10SM FEW004 OVC060 18/15 A3005 RMK AO2 LTG DSNT NE
2026-03-25 09:55:00,METAR KSUA 250955Z AUTO 00000KT 10SM OVC060 18/15 A3005 RMK AO2 LTG DSNT N AND NE
2026-03-25 09:35:00,METAR KSUA 250935Z AUTO 00000KT 10SM OVC060 18/15 A3004 RMK AO2
2026-03-25 09:15:00,METAR KSUA 250915Z AUTO 00000KT 10SM OVC060 19/15 A3004 RMK AO2 LTG DSNT N
2026-03-25 08:55:00,METAR KSUA 250855Z AUTO 17004KT 10SM OVC055 19/15 A3003 RMK AO2
2026-03-25 08:35:00,METAR KSUA 250835Z AUTO 00000KT 10SM OVC060 18/15 A3003 RMK AO2
2026-03-25 08:15:00,METAR KSUA 250815Z AUTO 17004KT 10SM OVC060 19/15 A3003 RMK AO2 LTG DSNT N AND NE
2026-03-25 07:55:00,METAR KSUA 250755Z AUTO 00000KT 10SM OVC065 17/15 A3004 RMK AO2
2026-03-25 07:35:00,METAR KSUA 250735Z AUTO 00000KT 10SM OVC060 18/14 A3005 RMK AO2 LTG DSNT N
2026-03-25 07:15:00,METAR KSUA 250715Z AUTO 00000KT 10SM FEW043 OVC060 18/15 A3005 RMK AO2
2026-03-25 06:55:00,METAR KSUA 250655Z AUTO 00000KT 10SM VCTS FEW040 OVC060 19/14 A3005 RMK AO2 LTG DSNT W
2026-03-25 06:35:00,METAR KSUA 250635Z AUTO 17003KT 10SM FEW040 BKN060 20/15 A3005 RMK AO2 LTG DSNT N AND NE
2026-03-25 06:15:00,METAR KSUA 250615Z AUTO 15005KT 10SM FEW055 21/15 A3005 RMK AO2
2026-03-25 05:55:00,METAR KSUA 250555Z AUTO 00000KT 10SM SCT055 20/15 A3006 RMK AO2 LTG DSNT NW
2026-03-25 05:35:00,METAR KSUA 250535Z AUTO 15004KT 10SM SCT041 BKN060 OVC065 20/15 A3006 RMK AO2
2026-03-25 05:15:00,METAR KSUA 250515Z AUTO 00000KT 10SM SCT042 OVC065 20/15 A3007 RMK AO2 LTG DSNT NW
2026-03-25 04:55:00,METAR KSUA 250455Z AUTO 09004KT 10SM FEW038 OVC065 20/15 A3008 RMK AO2
2026-03-25 04:35:00,METAR KSUA 250435Z AUTO 14004KT 10SM BKN070 22/15 A3008 RMK AO2 LTG DSNT NW-NE
2026-03-25 04:15:00,METAR KSUA 250415Z AUTO 16004KT 10SM BKN070 BKN085 23/16 A3008 RMK AO2 LTG DSNT N AND NE
2026-03-25 03:55:00,METAR KSUA 250355Z AUTO 13003KT 10SM FEW046 SCT060 BKN075 23/16 A3009 RMK AO2 LTG DSNT N AND NE
2026-03-25 03:35:00,METAR KSUA 250335Z AUTO 00000KT 10SM FEW046 OVC065 22/17 A3009 RMK AO2 LTG DSNT NW-NE
2026-03-25 03:20:00,METAR KSUA 250320Z AUTO 26005KT 10SM OVC060 20/17 A3009 RMK AO2 LTG DSNT NW-NE
2026-03-25 02:55:00,METAR KSUA 250255Z AUTO 00000KT 10SM SCT050 SCT070 21/17 A3006 RMK AO2 LTG DSNT N AND NE
2026-03-25 02:35:00,METAR KSUA 250235Z AUTO 00000KT 10SM VCTS FEW060 FEW070 21/16 A3006 RMK AO2 LTG DSNT N AND NE
2026-03-25 01:48:00,METAR KSUA 250148Z 00000KT 10SM CLR 21/16 A3005
2026-03-25 00:48:00,METAR KSUA 250048Z VRB03KT 10SM CLR 24/15 A3004
2026-03-24 23:48:00,METAR KSUA 242348Z 14005KT 10SM CLR 24/15 A3004
2026-03-24 21:48:00,METAR KSUA 242148Z 10010KT 10SM CLR 26/17 A3003
2026-03-24 20:48:00,METAR KSUA 242048Z 10010KT 10SM CLR 26/18 A3003
2026-03-24 19:48:00,METAR KSUA 241948Z 08008KT 10SM CLR 26/19 A3003
2026-03-24 18:50:00,METAR KSUA 241850Z 08010KT 10SM CLR 26/18 A3004
2026-03-24 17:47:00,METAR KSUA 241747Z 32008KT 10SM CLR 28/13 A3005
2026-03-24 16:47:00,METAR KSUA 241647Z 26004KT 10SM CLR 27/14 A3007
2026-03-24 15:47:00,METAR KSUA 241547Z 29006KT 10SM CLR 25/15 A3009
2026-03-24 14:47:00,METAR KSUA 241447Z 27006KT 10SM CLR 23/17 A3010
2026-03-24 13:47:00,METAR KSUA 241347Z 25006KT 10SM CLR 21/17 A3009
2026-03-24 12:47:00,METAR KSUA 241247Z VRB03KT 10SM CLR 17/16 A3008
2026-03-24 11:47:00,METAR KSUA 241147Z VRB03KT 10SM CLR 15/15 A3007
2026-03-24 10:50:00,METAR KSUA 241050Z VRB03KT 10SM CLR 15/14 A3005
2026-03-24 05:55:00,METAR KSUA 240555Z AUTO 27003KT 10SM CLR 18/13 A3006 RMK AO2
2026-03-24 05:35:00,METAR KSUA 240535Z AUTO 25004KT 10SM CLR 18/13 A3006 RMK AO2
2026-03-24 05:15:00,METAR KSUA 240515Z AUTO 26003KT 10SM CLR 18/13 A3006 RMK AO2
2026-03-24 04:55:00,METAR KSUA 240455Z AUTO 23005KT 10SM CLR 19/14 A3006 RMK AO2
2026-03-24 04:35:00,METAR KSUA 240435Z AUTO 26004KT 10SM CLR 19/14 A3007 RMK AO2
2026-03-24 04:15:00,METAR KSUA 240415Z AUTO 22006KT 10SM CLR 20/14 A3007 RMK AO2
2026-03-24 03:55:00,METAR KSUA 240355Z AUTO 22006KT 10SM CLR 20/15 A3007 RMK AO2
2026-03-24 03:35:00,METAR KSUA 240335Z AUTO 21006KT 10SM CLR 21/15 A3007 RMK AO2
2026-03-24 03:15:00,METAR KSUA 240315Z AUTO 20005KT 10SM CLR 21/15 A3006 RMK AO2
2026-03-24 02:55:00,METAR KSUA 240255Z AUTO 20006G12KT 10SM CLR 21/15 A3006 RMK AO2
2026-03-24 02:35:00,METAR KSUA 240235Z AUTO 20007KT 10SM CLR 21/15 A3007 RMK AO2
2026-03-24 02:15:00,METAR KSUA 240215Z AUTO 21006KT 10SM CLR 22/15 A3007 RMK AO2
2026-03-24 01:50:00,METAR KSUA 240150Z 18007KT 10SM CLR 22/15 A3006
2026-03-24 00:50:00,METAR KSUA 240050Z 17007KT 10SM CLR 23/15 A3004
2026-03-23 23:50:00,METAR KSUA 232350Z 16009KT 10SM CLR 24/15 A3003
2026-03-23 22:47:00,METAR KSUA 232247Z 14011KT 10SM CLR 26/15 A3002
2026-03-23 21:47:00,METAR KSUA 232147Z 13010KT 10SM CLR 26/16 A3001
2026-03-23 20:47:00,METAR KSUA 232047Z 09010KT 10SM CLR 27/16 A3001
2026-03-23 19:47:00,METAR KSUA 231947Z 080\10KT 10SM CLR 27/16 A3004
2026-03-23 18:47:00,METAR KSUA 231847Z 08008KT 10SM CLR 26/16 A3004
2026-03-23 17:47:00,METAR KSUA 231747Z 08008KT 10SM CLR 27/16 A3008
2026-03-23 16:47:00,METAR KSUA 231647Z 32006KT 10SM CLR 26/13 A3010
2026-03-23 15:47:00,METAR KSUA 231547Z 28008KT 10SM CLR 25/11 A3011
2026-03-23 14:47:00,METAR KSUA 231447Z 28005KT 10SM CLR 23/13 A3012
2026-03-23 13:47:00,METAR KSUA 231347Z 33008KT 10SM CLR 21/14 A3011
2026-03-23 12:47:00,METAR KSUA 231247Z 31004KT 10SM CLR 18/13 A3010
2026-03-23 11:47:00,METAR KSUA 231147Z 28004KT 10SM CLR 14/13 A3008
2026-03-23 10:47:00,METAR KSUA 231047Z 29003KT 10SM CLR 15/13 A3005
2026-03-23 10:35:00,METAR KSUA 231035Z AUTO 29004KT 10SM CLR 15/14 A3005 RMK AO2
2026-03-23 10:20:00,METAR KSUA 231020Z AUTO 28004KT 10SM CLR 15/14 A3005 RMK AO2
2026-03-23 09:55:00,METAR KSUA 230955Z AUTO 28006KT 10SM CLR 16/15 A3005 RMK AO2
2026-03-23 09:35:00,METAR KSUA 230935Z AUTO 27006KT 10SM CLR 16/15 A3005 RMK AO2
2026-03-23 09:15:00,METAR KSUA 230915Z AUTO 26006KT 10SM CLR 16/14 A3005 RMK AO2
2026-03-23 08:55:00,METAR KSUA 230855Z AUTO 25006KT 10SM CLR 16/14 A3005 RMK AO2
2026-03-23 08:35:00,METAR KSUA 230835Z AUTO 24007KT 10SM CLR 17/14 A3005 RMK AO2
2026-03-23 08:15:00,METAR KSUA 230815Z AUTO 24008KT 10SM CLR 17/14 A3005 RMK AO2
2026-03-23 07:55:00,METAR KSUA 230755Z AUTO 23007KT 10SM CLR 17/13 A3005 RMK AO2
2026-03-23 07:35:00,METAR KSUA 230735Z AUTO 22006KT 10SM CLR 17/13 A3005 RMK AO2
2026-03-23 07:15:00,METAR KSUA 230715Z AUTO 22007KT 10SM CLR 18/13 A3006 RMK AO2
2026-03-23 06:55:00,METAR KSUA 230655Z AUTO 22006KT 10SM CLR 18/14 A3006 RMK AO2
2026-03-23 06:35:00,METAR KSUA 230635Z AUTO 22006KT 10SM CLR 18/15 A3006 RMK AO2
2026-03-23 06:15:00,METAR KSUA 230615Z AUTO 21005KT 10SM CLR 18/15 A3007 RMK AO2
2026-03-23 05:55:00,METAR KSUA 230555Z AUTO 22005KT 10SM CLR 19/16 A3007 RMK AO2
2026-03-23 05:35:00,METAR KSUA 230535Z AUTO 20006KT 10SM CLR 19/16 A3007 RMK AO2
2026-03-23 05:15:00,METAR KSUA 230515Z AUTO 19005KT 10SM CLR 19/15 A3008 RMK AO2
2026-03-23 04:55:00,METAR KSUA 230455Z AUTO 22005KT 10SM CLR 20/15 A3008 RMK AO2
2026-03-23 04:35:00,METAR KSUA 230435Z AUTO 21006KT 10SM CLR 20/15 A3009 RMK AO2
2026-03-23 04:15:00,METAR KSUA 230415Z AUTO 20006KT 10SM CLR 20/14 A3009 RMK AO2
2026-03-23 03:55:00,METAR KSUA 230355Z AUTO 20006KT 10SM CLR 20/14 A3009 RMK AO2
2026-03-23 03:35:00,METAR KSUA 230335Z AUTO 20005KT 10SM CLR 20/14 A3009 RMK AO2
2026-03-23 03:15:00,METAR KSUA 230315Z AUTO 19004KT 10SM CLR 20/14 A3009 RMK AO2
2026-03-23 02:55:00,METAR KSUA 230255Z AUTO 20006KT 10SM SCT075 21/14 A3009 RMK AO2
2026-03-23 02:35:00,METAR KSUA 230235Z AUTO 17004KT 10SM OVC070 21/14 A3008 RMK AO2
2026-03-23 02:15:00,METAR KSUA 230215Z AUTO 14005KT 10SM OVC070 21/14 A3008 RMK AO2
2026-03-23 01:50:00,METAR KSUA 230150Z 14006KT 10SM BKN070 21/14 A3007
2026-03-23 00:47:00,METAR KSUA 230047Z 15004KT 10SM CLR 22/13 A3007
2026-03-22 23:47:00,METAR KSUA 222347Z 13004KT 10SM CLR 23/13 A3006
2026-03-22 22:47:00,METAR KSUA 222247Z 12008KT 10SM CLR 24/13 A3005
2026-03-22 20:50:00,METAR KSUA 222050Z 10010KT 10SM CLR 26/12 A3005
2026-03-22 19:50:00,METAR KSUA 221950Z 08010KT 10SM CLR 26/11 A3006
2026-03-22 18:50:00,METAR KSUA 221850Z 07009KT 10SM CLR 26/18 A3008
2026-03-22 17:47:00,METAR KSUA 221747Z 07008KT 10SM CLR 25/12 A3009
2026-03-22 16:47:00,METAR KSUA 221647Z 06009KT 10SM CLR 25/10 A3012
2026-03-22 15:47:00,METAR KSUA 221547Z 36004KT 10SM CLR 24/12 A3013
2026-03-22 14:47:00,METAR KSUA 221447Z 01008KT 10SM CLR 23/11 A3013
2026-03-22 13:47:00,METAR KSUA 221347Z 35007KT 10SM CLR 20/12 A3012
2026-03-22 12:47:00,METAR KSUA 221247Z VRB03KT 10SM CLR 17/12 A3011
2026-03-22 11:47:00,METAR KSUA 221147Z VRB03KT 10SM CLR 14/09 A3010
2026-03-22 10:51:00,METAR KSUA 221051Z 31003KT 10SM CLR 15/09 A3008
2026-03-22 10:35:00,METAR KSUA 221035Z AUTO 32004KT 10SM BKN070 15/09 A3008 RMK AO2
2026-03-22 10:15:00,METAR KSUA 221015Z AUTO 31003KT 10SM BKN070 15/09 A3008 RMK AO2
2026-03-22 09:55:00,METAR KSUA 220955Z AUTO 33003KT 10SM BKN070 14/10 A3007 RMK AO2
2026-03-22 09:35:00,METAR KSUA 220935Z AUTO 00000KT 10SM BKN070 14/10 A3006 RMK AO2
2026-03-22 09:15:00,METAR KSUA 220915Z AUTO 00000KT 10SM BKN065 15/10 A3005 RMK AO2
2026-03-22 08:55:00,METAR KSUA 220855Z AUTO 32003KT 10SM CLR 16/09 A3005 RMK AO2
2026-03-22 08:35:00,METAR KSUA 220835Z AUTO 32005KT 10SM CLR 16/11 A3005 RMK AO2
2026-03-22 08:15:00,METAR KSUA 220815Z AUTO 32004KT 10SM CLR 15/12 A3005 RMK AO2
2026-03-22 07:55:00,METAR KSUA 220755Z AUTO 29004KT 10SM FEW003 15/13 A3004 RMK AO2
2026-03-22 07:35:00,METAR KSUA 220735Z AUTO 27005KT 10SM FEW003 15/12 A3004 RMK AO2
2026-03-22 07:15:00,METAR KSUA 220715Z AUTO 24005KT 10SM CLR 15/12 A3004 RMK AO2
2026-03-22 06:55:00,METAR KSUA 220655Z AUTO 27005KT 10SM CLR 15/12 A3005 RMK AO2
2026-03-22 06:35:00,METAR KSUA 220635Z AUTO 28005KT 10SM CLR 16/13 A3006 RMK AO2
2026-03-22 06:15:00,METAR KSUA 220615Z AUTO 23005KT 10SM CLR 16/13 A3006 RMK AO2
2026-03-22 05:55:00,METAR KSUA 220555Z AUTO 00000KT 10SM CLR 16/12 A3005 RMK AO2
2026-03-22 05:35:00,METAR KSUA 220535Z AUTO 00000KT 10SM CLR 16/12 A3005 RMK AO2
2026-03-22 05:15:00,METAR KSUA 220515Z AUTO 00000KT 10SM CLR 16/12 A3006 RMK AO2
2026-03-22 05:00:00,METAR KSUA 220500Z AUTO 21005KT 10SM CLR 16/12 A3006 RMK AO2
2026-03-22 04:35:00,METAR KSUA 220435Z AUTO 00000KT 10SM CLR 16/12 A3006 RMK AO2
2026-03-22 04:15:00,METAR KSUA 220415Z AUTO 00000KT 10SM FEW070 16/12 A3006 RMK AO2
2026-03-22 03:55:00,METAR KSUA 220355Z AUTO 00000KT 10SM SCT075 17/12 A3006 RMK AO2
2026-03-22 03:35:00,METAR KSUA 220335Z AUTO 00000KT 10SM BKN075 17/12 A3006 RMK AO2
2026-03-22 03:15:00,METAR KSUA 220315Z AUTO 23004KT 10SM SCT080 16/11 A3006 RMK AO2
2026-03-22 02:55:00,METAR KSUA 220255Z AUTO 00000KT 10SM FEW060 16/11 A3006 RMK AO2
2026-03-22 02:35:00,METAR KSUA 220235Z AUTO 00000KT 10SM CLR 16/11 A3006 RMK AO2
2026-03-22 02:15:00,METAR KSUA 220215Z AUTO 00000KT 10SM CLR 17/10 A3006 RMK AO2
2026-03-22 00:47:00,METAR KSUA 220047Z 00000KT 10SM CLR 19/09 A3005
2026-03-21 23:47:00,METAR KSUA 212347Z 00000KT 10SM CLR 21/09 A3005
2026-03-21 22:48:00,METAR KSUA 212248Z 05010KT 10SM CLR 23/06 A3004
2026-03-21 21:47:00,METAR KSUA 212147Z 04010KT 10SM CLR 24/07 A3003
2026-03-21 20:48:00,METAR KSUA 212048Z 04010KT 10SM CLR 25/07 A3004
2026-03-21 20:30:00,SPECI KSUA 212030Z 04010KT 10SM CLR 25/12 A3004
2026-03-21 19:47:00,METAR KSUA 211947Z 03009KT 10SM CLR 25/12 A3004
2026-03-21 16:48:00,METAR KSUA 211648Z 36010KT 10SM FEW025 25/12 A3010
2026-03-21 16:47:00,METAR KSUA 211647Z 03009KT 10SM CLR 25/13 A3006
2026-03-21 15:48:00,METAR KSUA 211548Z 36012KT 10SM FEW025 24/12 A3011
2026-03-21 13:50:00,METAR KSUA 211350Z 33006KT 10SM FEW015 22/16 A3010
2026-03-21 12:48:00,METAR KSUA 211248Z 31006KT 10SM FEW015 19/16 A3009
2026-03-21 11:50:00,METAR KSUA 211150Z 32007KT 10SM CLR 16/16 A3007
2026-03-21 10:50:00,METAR KSUA 211050Z 31005KT 10SM CLR 16/16 A3005
2026-03-21 10:35:00,METAR KSUA 211035Z AUTO 31005KT 10SM FEW003 16/16 A3005 RMK AO2
2026-03-21 10:15:00,METAR KSUA 211015Z AUTO 32005KT 10SM FEW003 16/16 A3004 RMK AO2
2026-03-21 09:55:00,METAR KSUA 210955Z AUTO 32005KT 10SM FEW003 FEW038 16/16 A3004 RMK AO2
2026-03-21 09:35:00,METAR KSUA 210935Z AUTO 32006KT 10SM FEW003 FEW037 16/16 A3003 RMK AO2
2026-03-21 09:15:00,METAR KSUA 210915Z AUTO 31006KT 10SM CLR 16/16 A3004 RMK AO2
2026-03-21 08:55:00,METAR KSUA 210855Z AUTO 32006KT 10SM CLR 16/15 A3003 RMK AO2
2026-03-21 08:35:00,METAR KSUA 210835Z AUTO 31008KT 10SM CLR 16/15 A3003 RMK AO2
2026-03-21 08:15:00,METAR KSUA 210815Z AUTO 30005KT 10SM CLR 16/15 A3003 RMK AO2
2026-03-21 07:55:00,METAR KSUA 210755Z AUTO 31006KT 10SM CLR 16/15 A3003 RMK AO2
2026-03-21 07:35:00,METAR KSUA 210735Z AUTO 31005KT 10SM FEW042 16/15 A3003 RMK AO2
2026-03-21 07:15:00,METAR KSUA 210715Z AUTO 30006KT 10SM CLR 17/15 A3004 RMK AO2
2026-03-21 06:55:00,METAR KSUA 210655Z AUTO 31005KT 10SM CLR 16/15 A3005 RMK AO2
2026-03-21 06:35:00,METAR KSUA 210635Z AUTO 30005KT 10SM CLR 17/16 A3005 RMK AO2
2026-03-21 06:20:00,METAR KSUA 210620Z AUTO 31005KT 10SM CLR 17/16 A3005 RMK AO2
2026-03-21 05:55:00,METAR KSUA 210555Z AUTO 31006KT 10SM CLR 17/16 A3006 RMK AO2
2026-03-21 05:35:00,METAR KSUA 210535Z AUTO 32006KT 10SM FEW044 FEW050 17/16 A3006 RMK AO2
2026-03-21 05:20:00,METAR KSUA 210520Z AUTO 32007KT 10SM FEW044 SCT050 17/16 A3006 RMK AO2
2026-03-21 04:55:00,METAR KSUA 210455Z AUTO 33009KT 10SM CLR 18/16 A3006 RMK AO2
2026-03-21 04:35:00,METAR KSUA 210435Z AUTO 32008KT 10SM CLR 18/15 A3007 RMK AO2
2026-03-21 04:15:00,METAR KSUA 210415Z AUTO 33008KT 10SM CLR 18/15 A3007 RMK AO2
2026-03-21 03:55:00,METAR KSUA 210355Z AUTO 32007KT 10SM CLR 18/15 A3008 RMK AO2
2026-03-21 03:35:00,METAR KSUA 210335Z AUTO 33005KT 10SM CLR 18/15 A3008 RMK AO2
2026-03-21 03:15:00,METAR KSUA 210315Z AUTO 34006KT 10SM CLR 19/16 A3008 RMK AO2
2026-03-21 02:55:00,METAR KSUA 210255Z AUTO 33006KT 10SM FEW042 FEW050 SCT055 19/16 A3008 RMK AO2
2026-03-21 02:35:00,METAR KSUA 210235Z AUTO 33007KT 10SM SCT043 BKN050 20/16 A3008 RMK AO2
2026-03-21 02:20:00,METAR KSUA 210220Z AUTO 33006G12KT 10SM SCT043 BKN050 20/16 A3007 RMK AO2
2026-03-21 00:47:00,METAR KSUA 210047Z 02007KT 10SM FEW042 21/14 A3005
2026-03-20 23:48:00,METAR KSUA 202348Z 03006KT 7SM CLR 21/13 A3005
2026-03-20 22:48:00,METAR KSUA 202248Z 03007KT 7SM FEW060 22/13 A3005
2026-03-20 21:48:00,METAR KSUA 202148Z 01010KT 7SM SCT040 23/14 A3003
2026-03-20 20:47:00,METAR KSUA 202047Z 02013G19KT 7SM CLR 24/13 A3003
2026-03-20 19:47:00,METAR KSUA 201947Z 03014KT SCT045 24/13 A3004
2026-03-20 18:47:00,METAR KSUA 201847Z 02013G22KT FEW039 SCT046 24/14 A3006
2026-03-20 17:47:00,METAR KSUA 201747Z 02012G21KT SCT014 SCT024 25/14 A3008
2026-03-20 16:47:00,METAR KSUA 201647Z 01013G20KT SCT014 BKN024 24/14 A3009
2026-03-20 15:47:00,METAR KSUA 201547Z 01010G20KT SCT014 BKN024 23/15 A3009
2026-03-20 14:47:00,METAR KSUA 201447Z 35006KT 6SM -RABR SCT014 BKN024 20/17 A3009
2026-03-20 13:47:00,METAR KSUA 201347Z 36008KT 5SM -RABR SCT006 SCT013 BKN022 17/17 A3009
2026-03-20 12:47:00,METAR KSUA 201247Z 32009KT 6SM SHRA FEW006 SCT015 BKN024 17/16 A3007
2026-03-20 11:47:00,METAR KSUA 201147Z 33009KT 5SM -RABR SCT006 SCT015 BKN024 16/15 A3006
2026-03-20 10:50:00,METAR KSUA 201050Z 34006KT 5SM -RA FEW005 SCT020 BKN032 15/15 A3005
2026-03-20 10:35:00,METAR KSUA 201035Z AUTO 32006KT 7SM -RA FEW005 SCT025 BKN034 15/15 A3005 RMK AO2
2026-03-20 10:15:00,METAR KSUA 201015Z AUTO 32007KT 10SM SCT037 SCT044 BKN055 16/14 A3005 RMK AO2
2026-03-20 09:55:00,METAR KSUA 200955Z AUTO 31006KT 10SM FEW040 16/15 A3004 RMK AO2
2026-03-20 09:35:00,METAR KSUA 200935Z AUTO 30006KT 10SM FEW028 FEW034 SCT041 16/15 A3003 RMK AO2
2026-03-20 09:15:00,METAR KSUA 200915Z AUTO 29007KT 10SM SCT027 BKN034 OVC065 16/15 A3003 RMK AO2
2026-03-20 08:55:00,METAR KSUA 200855Z AUTO 31009KT 10SM BKN027 OVC035 16/15 A3003 RMK AO2
2026-03-20 08:35:00,METAR KSUA 200835Z AUTO 30007KT 280V340 10SM FEW032 OVC040 17/15 A3002 RMK AO2
2026-03-20 08:15:00,METAR KSUA 200815Z AUTO 30005KT 10SM SCT039 17/15 A3002 RMK AO2
2026-03-20 07:55:00,METAR KSUA 200755Z AUTO 01005G10KT 10SM FEW055 20/14 A3003 RMK AO2
2026-03-20 07:35:00,METAR KSUA 200735Z AUTO 01007KT 10SM CLR 20/14 A3003 RMK AO2
2026-03-20 07:15:00,METAR KSUA 200715Z AUTO 02009KT 10SM CLR 20/14 A3004 RMK AO2
2026-03-20 06:55:00,METAR KSUA 200655Z AUTO 03009KT 10SM CLR 20/13 A3004 RMK AO2
2026-03-20 06:35:00,METAR KSUA 200635Z AUTO 02010G16KT 10SM CLR 20/14 A3004 RMK AO2
2026-03-20 06:15:00,METAR KSUA 200615Z AUTO 02010KT 10SM CLR 20/14 A3005 RMK AO2
2026-03-20 05:55:00,METAR KSUA 200555Z AUTO 03011G18KT 10SM CLR 20/13 A3005 RMK AO2
2026-03-20 05:35:00,METAR KSUA 200535Z AUTO 02011G19KT 10SM CLR 20/14 A3006 RMK AO2
2026-03-20 05:15:00,METAR KSUA 200515Z AUTO 02011G17KT 10SM CLR 20/14 A3007 RMK AO2
2026-03-20 04:55:00,METAR KSUA 200455Z AUTO 03013KT 10SM CLR 20/14 A3007 RMK AO2
2026-03-20 04:35:00,METAR KSUA 200435Z AUTO 03013KT 10SM CLR 20/14 A3007 RMK AO2
2026-03-20 04:15:00,METAR KSUA 200415Z AUTO 03011G18KT 10SM FEW060 20/15 A3007 RMK AO2
2026-03-20 03:55:00,METAR KSUA 200355Z AUTO 03013G20KT 10SM FEW060 20/15 A3007 RMK AO2
2026-03-20 03:35:00,METAR KSUA 200335Z AUTO 03014G19KT 10SM CLR 20/15 A3008 RMK AO2
2026-03-20 03:15:00,METAR KSUA 200315Z AUTO 03015G21KT 10SM FEW035 FEW045 SCT065 20/15 A3008 RMK AO2
2026-03-20 02:55:00,METAR KSUA 200255Z AUTO 03016G22KT 10SM SCT036 SCT045 BKN060 21/16 A3008 RMK AO2
2026-03-20 02:35:00,METAR KSUA 200235Z AUTO 03013G20KT 10SM CLR 20/15 A3007 RMK AO2
2026-03-20 02:15:00,METAR KSUA 200215Z AUTO 04015G22KT 10SM CLR 20/15 A3007 RMK AO2
2026-03-20 01:48:00,METAR KSUA 200148Z 05013G21KT 7SM FEW038 20/16 A3006
2026-03-20 00:48:00,METAR KSUA 200048Z 36007KT 7SM SCT013 BKN038 17/17 A3005
2026-03-19 23:48:00,METAR KSUA 192348Z 32008KT 4SM -RA BKN038 16/16 A3006
2026-03-19 22:47:00,METAR KSUA 192247Z 35016G25KT 4SM -RABR SCT005 SCT014 BKN022 17/15 A3005
2026-03-19 21:47:00,METAR KSUA 192147Z 36018G26KT 7SM SCT012 SCT027 20/15 A3003
2026-03-19 20:47:00,METAR KSUA 192047Z 34018G24KT 7SM SCT012 SCT027 20/15 A3003
2026-03-19 19:47:00,METAR KSUA 191947Z 36016G26KT 7SM SCT012 SCT027 21/15 A3004
2026-03-19 18:47:00,METAR KSUA 191847Z 35017G26KT 7SM BKN012 BKN027 21/16 A3006
2026-03-19 17:50:00,METAR KSUA 191750Z 36010G24KT 10SM BKN013 BKN039 21/10 A3007
2026-03-19 17:10:00,SPECI KSUA 191710Z 35014G24KT 10SM BKN030 BKN045 22/15 A3008
2026-03-19 16:47:00,METAR KSUA 191647Z 32014G20KT 10SM SCT040 24/14 A3008
2026-03-19 15:47:00,METAR KSUA 191547Z 32012G20KT 10SM SCT040 23/15 A3009
2026-03-19 14:47:00,METAR KSUA 191447Z 32012KT 10SM SCT040 22/12 A3009
2026-03-19 13:47:00,METAR KSUA 191347Z 32008KT 10SM SCT038 19/12 A3009
2026-03-19 12:47:00,METAR KSUA 191247Z 32008KT 10SM SCT038 16/12 A3007
2026-03-19 11:47:00,METAR KSUA 191147Z 32008KT 10SM SCT036 13/12 A3006
2026-03-19 10:50:00,METAR KSUA 191050Z 31006KT 10SM SCT039 14/12 A3006
2026-03-19 10:30:00,METAR KSUA 191030Z AUTO 31006KT 10SM FEW037 14/12 A3005 RMK AO2
2026-03-19 10:15:00,METAR KSUA 191015Z AUTO 31006KT 10SM SCT038 14/12 A3005 RMK AO2
2026-03-19 09:55:00,METAR KSUA 190955Z AUTO 32005KT 10SM FEW037 SCT060 14/12 A3004 RMK AO2
2026-03-19 09:35:00,METAR KSUA 190935Z AUTO 31006KT 10SM FEW037 BKN060 14/13 A3005 RMK AO2
2026-03-19 09:15:00,METAR KSUA 190915Z AUTO 30007KT 10SM FEW037 BKN060 BKN075 15/13 A3004 RMK AO2
2026-03-19 08:55:00,METAR KSUA 190855Z AUTO 31006KT 10SM BKN055 OVC075 15/13 A3004 RMK AO2
2026-03-19 08:35:00,METAR KSUA 190835Z AUTO 10SM SCT060 BKN075 15/14 A3004 RMK AO2
2026-03-19 08:15:00,METAR KSUA 190815Z AUTO 32007KT 10SM BKN060 BKN075 16/14 A3004 RMK AO2
2026-03-19 07:55:00,METAR KSUA 190755Z AUTO 33006KT 10SM SCT037 BKN043 OVC060 16/14 A3005 RMK AO2
2026-03-19 07:35:00,METAR KSUA 190735Z AUTO 32007KT 10SM BKN037 OVC043 16/14 A3005 RMK AO2
2026-03-19 07:15:00,METAR KSUA 190715Z AUTO 31007KT 10SM OVC038 17/14 A3005 RMK AO2
2026-03-19 06:55:00,METAR KSUA 190655Z AUTO 32005G12KT 10SM OVC038 20/14 A3006 RMK AO2
2026-03-19 06:35:00,METAR KSUA 190635Z AUTO 02009KT 10SM OVC039 20/13 A3006 RMK AO2
2026-03-19 06:15:00,METAR KSUA 190615Z AUTO 03009G16KT 10SM OVC039 20/13 A3007 RMK AO2
2026-03-19 05:55:00,METAR KSUA 190555Z AUTO 03010G15KT 10SM OVC037 20/13 A3007 RMK AO2
2026-03-19 05:35:00,METAR KSUA 190535Z AUTO 03009G15KT 10SM OVC037 20/13 A3008 RMK AO2
2026-03-19 05:15:00,METAR KSUA 190515Z AUTO 03008G14KT 10SM BKN034 OVC041 19/14 A3009 RMK AO2
2026-03-19 04:55:00,METAR KSUA 190455Z AUTO 04012KT 10SM FEW016 BKN033 OVC042 19/14 A3010 RMK AO2
2026-03-19 04:35:00,METAR KSUA 190435Z AUTO 03012KT 10SM FEW026 OVC032 19/14 A3010 RMK AO2
2026-03-19 04:15:00,METAR KSUA 190415Z AUTO 04011KT 9SM OVC035 19/15 A3011 RMK AO2
2026-03-19 03:55:00,METAR KSUA 190355Z AUTO 05010G16KT 10SM FEW025 OVC036 19/15 A3011 RMK AO2
2026-03-19 03:35:00,METAR KSUA 190335Z AUTO 06015KT 10SM OVC033 19/15 A3012 RMK AO2
2026-03-19 03:15:00,METAR KSUA 190315Z AUTO 03012G18KT 10SM FEW023 SCT029 OVC034 19/15 A3012 RMK AO2
2026-03-19 02:55:00,METAR KSUA 190255Z AUTO 01010G17KT 10SM FEW023 BKN029 OVC035 19/15 A3012 RMK AO2
2026-03-19 02:35:00,METAR KSUA 190235Z AUTO 03011KT 10SM BKN028 OVC037 19/15 A3011 RMK AO2
2026-03-19 02:15:00,METAR KSUA 190215Z AUTO 02012KT 10SM SCT029 OVC040 19/14 A3010 RMK AO2
2026-03-19 01:48:00,METAR KSUA 190148Z 02013KT 10SM SCT028 OVC035 19/15 A3010
2026-03-19 00:48:00,METAR KSUA 190048Z 36010KT 7SM FEW020 OVC035 18/15 A3009
2026-03-18 23:48:00,METAR KSUA 182348Z 02006G15KT 4SM -RA SCT005 OVC019 17/17 A3008
2026-03-18 22:48:00,METAR KSUA 182248Z 02010G17KT 4SM -RA BKN017 BKN023 OVC034 17/17 A3007
2026-03-18 21:47:00,METAR KSUA 182147Z 36012G21KT 3SM RABR BKN012 BKN017 OVC025 18/13 A3006
2026-03-18 20:47:00,METAR KSUA 182047Z 36012G20KT 3SM RABR BKN014 BKN021 OVC029 18/16 A3007
2026-03-18 19:47:00,METAR KSUA 181947Z 01013G20KT 6SM BR BKN016 OVC025 19/15 A3007
2026-03-18 18:47:00,METAR KSUA 181847Z 02010KT 5SM BR -RA BKN014 OVC023 19/15 A3009
2026-03-18 17:47:00,METAR KSUA 181747Z 01012G21KT 4SM BR -RA BKN014 OVC023 20/15 A3012
2026-03-18 16:47:00,METAR KSUA 181647Z 05012G21KT 5SM BR BKN016 OVC023 19/15 A3013
2026-03-18 15:47:00,METAR KSUA 181547Z 01015G24KT 6SM BR BKN018 OVC024 19/15 A3013
2026-03-18 14:47:00,METAR KSUA 181447Z 02012G20KT 6SM BR BKN018 OVC024 20/14 A3012
2026-03-18 13:50:00,METAR KSUA 181350Z 01015G20KT 10SM OVC027 19/14 A3011
2026-03-18 12:47:00,METAR KSUA 181247Z 36012G20KT 7SM BKN018 OVC030 18/14 A3009
2026-03-18 11:47:00,METAR KSUA 181147Z 36012G20KT 7SM BKN016 OVC025 17/14 A3008
2026-03-18 10:50:00,METAR KSUA 181050Z 36012G18KT 8SM BKN017 OVC022 17/14 A3007
2026-03-18 10:35:00,METAR KSUA 181035Z AUTO 02011G20KT 7SM -DZ BKN019 OVC025 17/14 A3006 RMK AO2
2026-03-18 10:15:00,METAR KSUA 181015Z AUTO 36012G19KT 9SM OVC021 17/14 A3006 RMK AO2
2026-03-18 09:55:00,METAR KSUA 180955Z AUTO 02012KT 10SM OVC022 17/14 A3005 RMK AO2
2026-03-18 09:35:00,METAR KSUA 180935Z AUTO 02013KT 350V050 9SM -DZ OVC021 17/14 A3005 RMK AO2
2026-03-18 09:15:00,METAR KSUA 180915Z AUTO 02013G21KT 10SM OVC021 17/13 A3005 RMK AO2
2026-03-18 08:55:00,METAR KSUA 180855Z AUTO 03014KT 10SM OVC022 17/13 A3005 RMK AO2
2026-03-18 08:35:00,METAR KSUA 180835Z AUTO 02010G22KT 10SM OVC023 17/13 A3005 RMK AO2
2026-03-18 08:15:00,METAR KSUA 180815Z AUTO 01010G16KT 10SM OVC023 17/13 A3006 RMK AO2
2026-03-18 07:55:00,METAR KSUA 180755Z AUTO 01011G17KT 10SM OVC023 17/13 A3007 RMK AO2
2026-03-18 07:35:00,METAR KSUA 180735Z AUTO 01012G17KT 10SM OVC023 17/13 A3007 RMK AO2
2026-03-18 07:15:00,METAR KSUA 180715Z AUTO 01011G18KT 10SM OVC023 17/12 A3008 RMK AO2
2026-03-18 06:55:00,METAR KSUA 180655Z AUTO 36014G20KT 10SM OVC025 17/12 A3008 RMK AO2
2026-03-18 06:35:00,METAR KSUA 180635Z AUTO 01012G21KT 10SM OVC026 17/11 A3008 RMK AO2
2026-03-18 06:15:00,METAR KSUA 180615Z AUTO 36013KT 320V020 10SM OVC026 17/11 A3010 RMK AO2
2026-03-18 05:55:00,METAR KSUA 180555Z AUTO 01010G18KT 10SM OVC026 17/11 A3011 RMK AO2
2026-03-18 05:35:00,METAR KSUA 180535Z AUTO 36011G18KT 10SM OVC027 17/11 A3012 RMK AO2
2026-03-18 05:15:00,METAR KSUA 180515Z AUTO 36010G15KT 10SM OVC028 17/11 A3011 RMK AO2
2026-03-18 04:55:00,METAR KSUA 180455Z AUTO 36010KT 330V030 10SM OVC028 16/10 A3012 RMK AO2
2026-03-18 04:35:00,METAR KSUA 180435Z AUTO 35012KT 10SM OVC028 16/10 A3012 RMK AO2
2026-03-18 04:15:00,METAR KSUA 180415Z AUTO 01012G19KT 10SM OVC029 16/11 A3013 RMK AO2
2026-03-18 03:55:00,METAR KSUA 180355Z AUTO 36009G14KT 320V040 10SM BKN028 OVC038 16/11 A3013 RMK AO2
2026-03-18 03:35:00,METAR KSUA 180335Z AUTO 36012KT 10SM BKN025 BKN034 OVC040 15/11 A3013 RMK AO2
2026-03-18 03:15:00,METAR KSUA 180315Z AUTO 36012G18KT 10SM SCT025 OVC033 15/11 A3013 RMK AO2
2026-03-18 02:55:00,METAR KSUA 180255Z AUTO 35009G14KT 10SM SCT024 SCT029 OVC034 14/12 A3014 RMK AO2
2026-03-18 02:35:00,METAR KSUA 180235Z AUTO 36009G16KT 9SM SCT016 BKN023 OVC034 14/12 A3014 RMK AO2
2026-03-18 02:15:00,METAR KSUA 180215Z AUTO 34007G14KT 9SM -DZ BKN016 OVC024 14/12 A3014 RMK AO2
2026-03-18 01:47:00,METAR KSUA 180147Z 34012KT 1 7SM BKN016 OVC024 14/12 A3013
2026-03-18 00:47:00,METAR KSUA 180047Z 35012G18KT 7SM SCT008 BKN012 OVC020 14/12 A3011
2026-03-17 23:47:00,METAR KSUA 172347Z 36010KT 4SM -RA BKN008 OVC012 13/13 A3010
2026-03-17 22:59:00,SPECI KSUA 172259Z 36010KT 4SM -RA OVC013 14/12 A3010
2026-03-17 22:50:00,METAR KSUA 172250Z 36009KT 10SM OVC017 15/12 A3009
2026-03-17 21:50:00,METAR KSUA 172150Z 34010G20KT 10SM OVC016 16/12 A3008
2026-03-17 20:50:00,METAR KSUA 172050Z 34012G19KT 10SM OVC014 15/12 A3008
2026-03-17 19:50:00,METAR KSUA 171950Z 35010G20KT 10SM OVC013 15/13 A3007
2026-03-17 18:50:00,METAR KSUA 171850Z 34011G20KT 10SM OVC012 16/13 A3008
2026-03-17 17:50:00,METAR KSUA 171750Z 34010G16KT 10SM OVC015 15/12 A3010
2026-03-17 16:50:00,METAR KSUA 171650Z 35014G24KT 10SM BKN012 OVC015 15/12 A3009
2026-03-17 15:47:00,METAR KSUA 171547Z 34011G21KT 10SM OVC017 15/12 A3008
2026-03-17 14:47:00,METAR KSUA 171447Z 34010G22KT 10SM OVC016 15/12 A3009
2026-03-17 13:47:00,METAR KSUA 171347Z 35013G19KT 10SM BKN017 OVC023 15/12 A3008
2026-03-17 12:47:00,METAR KSUA 171247Z 33011KT 10SM FEW020 BKN034 15/11 A3007
2026-03-17 11:47:00,METAR KSUA 171147Z 31008KT 10SM SCT026 16/13 A3004
2026-03-17 10:50:00,METAR KSUA 171050Z 32010KT 7SM OVC022 16/13 A3002
2026-03-17 10:35:00,METAR KSUA 171035Z AUTO 33007KT 10SM OVC022 16/13 A3001 RMK AO2
2026-03-17 10:15:00,METAR KSUA 171015Z AUTO 33007KT 310V010 10SM OVC020 17/14 A3001 RMK AO2
2026-03-17 09:55:00,METAR KSUA 170955Z AUTO 33006KT 10SM OVC019 17/14 A3001 RMK AO2 LTG DSNT NE AND E
2026-03-17 09:35:00,METAR KSUA 170935Z AUTO 32006KT 10SM BKN020 OVC070 17/15 A3001 RMK AO2
2026-03-17 09:15:00,METAR KSUA 170915Z AUTO 30006G13KT 10SM FEW019 FEW055 BKN075 17/15 A3001 RMK AO2
2026-03-17 08:55:00,METAR KSUA 170855Z AUTO 31008KT 10SM FEW019 SCT055 BKN090 17/16 A3000 RMK AO2 LTG DSNT NE AND E
2026-03-17 08:35:00,METAR KSUA 170835Z AUTO 31008KT 270V330 10SM FEW015 SCT065 BKN085 17/16 A2999 RMK AO2 LTG DSNT E
2026-03-17 08:20:00,METAR KSUA 170820Z AUTO 29005KT 10SM FEW012 SCT065 BKN085 18/16 A2999 RMK AO2
2026-03-17 07:55:00,METAR KSUA 170755Z AUTO 28010KT 10SM BKN012 BKN025 BKN065 18/17 A2999 RMK AO2 LTG DSNT NE AND E
2026-03-17 07:35:00,METAR KSUA 170735Z AUTO 28007KT 10SM VCTS FEW017 SCT065 BKN080 19/19 A2998 RMK AO2 LTG DSNT E
2026-03-17 07:15:00,METAR KSUA 170715Z AUTO 27005KT 10SM FEW080 SCT085 BKN120 19/19 A2998 RMK AO2 LTG DSNT NE AND E
2026-03-17 06:55:00,METAR KSUA 170655Z AUTO 25006KT 10SM FEW060 SCT100 BKN120 19/19 A2998 RMK AO2 LTG DSNT NE AND E AND SW
2026-03-17 06:35:00,METAR KSUA 170635Z AUTO 27005KT 10SM FEW100 FEW120 19/19 A2997 RMK AO2 LTG DSNT NE AND E
2026-03-17 06:15:00,METAR KSUA 170615Z AUTO 26006KT 10SM CLR 19/19 A2997 RMK AO2 LTG DSNT NE
2026-03-17 05:55:00,METAR KSUA 170555Z AUTO 28004KT 10SM FEW014 19/19 A2995 RMK AO2 LTG DSNT NE-S
2026-03-17 05:35:00,METAR KSUA 170535Z AUTO 30008KT 10SM FEW014 20/19 A2992 RMK AO2 LTG DSNT NE AND E AND SW
2026-03-17 05:15:00,METAR KSUA 170515Z AUTO 30007KT 10SM FEW018 20/19 A2992 RMK AO2 LTG DSNT NE AND E AND SW
2026-03-17 04:55:00,METAR KSUA 170455Z AUTO 29009KT 10SM FEW018 20/19 A2992 RMK AO2 LTG DSNT NE AND E
2026-03-17 04:35:00,METAR KSUA 170435Z AUTO 30005KT 10SM FEW019 20/20 A2991 RMK AO2 LTG DSNT NE AND S
2026-03-17 04:15:00,METAR KSUA 170415Z AUTO 34004KT 10SM CLR 20/20 A2992 RMK AO2 LTG DSNT NE AND S
2026-03-17 03:55:00,METAR KSUA 170355Z AUTO 00000KT 10SM FEW023 20/20 A2993 RMK AO2 LTG DSNT NE
2026-03-17 03:35:00,METAR KSUA 170335Z AUTO 31006KT 10SM VCTS CLR 20/20 A2993 RMK AO2 LTG DSNT NE AND E
2026-03-17 03:15:00,METAR KSUA 170315Z AUTO 18006KT 10SM VCTS CLR 20/20 A2992 RMK AO2 LTG DSNT NE AND E
2026-03-17 02:55:00,METAR KSUA 170255Z AUTO 16004KT 10SM VCTS FEW075 FEW090 FEW110 20/20 A2991 RMK AO2 LTG DSNT NE AND E
2026-03-17 02:35:00,METAR KSUA 170235Z AUTO 18005KT 10SM -TSRA FEW005 SCT060 BKN075 20/20 A2991 RMK AO2 LTG DSNT ALQDS
2026-03-17 02:15:00,METAR KSUA 170215Z AUTO 23007KT 2SM -TSRA BR SCT005 BKN014 OVC055 20/19 A2993 RMK AO2 LTG DSNT ALQDS
2026-03-17 01:50:00,METAR KSUA 170150Z 29011G23KT 9SM VCTS RA FEW011 BKN028 23/20 A2993
2026-03-17 00:50:00,METAR KSUA 170050Z 23007KT 10SM SCT065 BKN075 27/22 A2988
2026-03-16 23:50:00,METAR KSUA 162350Z 23010G17KT 10SM SCT043 BKN090 28/21 A2986
2026-03-16 22:50:00,METAR KSUA 162250Z 23013G23KT 10SM SCT049 BKN060 29/20 A2983
2026-03-16 21:50:00,METAR KSUA 162150Z 23016G25KT 10SM VCTS SCT050 BKN060 30/20 A2981
2026-03-16 20:45:00,METAR KSUA 162045Z 18009KT 10SM VCTS SCT050 SCT060 26/24 A2979
2026-03-16 19:50:00,METAR KSUA 161950Z 17012G25KT 3SM TSRA BR BKN004 OVC024 24/22 A2980
2026-03-16 18:50:00,METAR KSUA 161850Z 15014G33KT 7SM VCTS RA BKN043 26/22 A2982
2026-03-16 17:48:00,METAR KSUA 161748Z 18013G20KT 7SM VCSH BKN042 31/21 A2983
2026-03-16 16:48:00,METAR KSUA 161648Z 18013G20KT 7SM BKN038 30/21 A2987
2026-03-16 15:47:00,METAR KSUA 161547Z 18012G22KT 7SM SCT025 BKN037 29/22 A2990
2026-03-16 14:47:00,METAR KSUA 161447Z 18012G22KT 7SM SCT023 BKN030 27/22 A2991
2026-03-16 14:05:00,SPECI KSUA 161405Z 17010G18KT 7SM SCT015 SCT045 27/22 A2991
2026-03-16 13:47:00,METAR KSUA 161347Z 17012KT 7SM SCT025 26/22 A2992
2026-03-16 12:47:00,METAR KSUA 161247Z 15005KT 7SM VCSH SCT025 23/22 A2992
2026-03-16 11:47:00,METAR KSUA 161147Z 16005KT 7SM VCSH SCT025 22/22 A2992
2026-03-16 10:51:00,METAR KSUA 161051Z 16005KT 10SM VCSH FEW025 22/22 A2990
2026-03-16 10:35:00,METAR KSUA 161035Z AUTO 17005KT 10SM FEW025 22/22 A2990 RMK AO2 LTG DSNT NE
2026-03-16 10:15:00,METAR KSUA 161015Z AUTO 17005KT 10SM SCT024 22/22 A2990 RMK AO2 LTG DSNT NE
2026-03-16 09:55:00,METAR KSUA 160955Z AUTO 17004KT 10SM BKN024 22/22 A2990 RMK AO2 LTG DSNT NE AND W
2026-03-16 09:35:00,METAR KSUA 160935Z AUTO 18004KT 10SM CLR 22/22 A2990 RMK AO2 LTG DSNT NE
2026-03-16 09:15:00,METAR KSUA 160915Z AUTO 18003KT 10SM VCTS FEW020 22/22 A2990 RMK AO2 LTG DSNT NE AND E AND W
2026-03-16 08:55:00,METAR KSUA 160855Z AUTO 16003KT 10SM FEW021 22/22 A2990 RMK AO2 LTG DSNT NE
2026-03-16 08:35:00,METAR KSUA 160835Z AUTO 00000KT 10SM FEW019 22/22 A2990 RMK AO2 LTG DSNT NE
2026-03-16 08:15:00,METAR KSUA 160815Z AUTO 00000KT 10SM CLR 21/21 A2991 RMK AO2 LTG DSNT NE AND W
2026-03-16 07:55:00,METAR KSUA 160755Z AUTO 00000KT 10SM SCT020 22/22 A2991 RMK AO2
2026-03-16 07:35:00,METAR KSUA 160735Z AUTO 00000KT 10SM CLR 22/22 A2992 RMK AO2 LTG DSNT NE AND W
2026-03-16 07:15:00,METAR KSUA 160715Z AUTO 14003KT 10SM CLR 22/21 A2992 RMK AO2 LTG DSNT NE AND W
2026-03-16 06:55:00,METAR KSUA 160655Z AUTO 14004KT 10SM CLR 22/21 A2992 RMK AO2 LTG DSNT NE
2026-03-16 06:35:00,METAR KSUA 160635Z AUTO 14005KT 10SM CLR 22/21 A2993 RMK AO2 LTG DSNT NE
2026-03-16 06:15:00,METAR KSUA 160615Z AUTO 14005KT 10SM CLR 22/21 A2994 RMK AO2 LTG DSNT NE
2026-03-16 05:55:00,METAR KSUA 160555Z AUTO 14005KT 10SM CLR 22/21 A2995 RMK AO2 LTG DSNT NE AND W
2026-03-16 05:35:00,METAR KSUA 160535Z AUTO 14005KT 10SM CLR 22/20 A2996 RMK AO2 LTG DSNT NE
2026-03-16 05:15:00,METAR KSUA 160515Z AUTO 14005KT 10SM CLR 21/20 A2997 RMK AO2 LTG DSNT NE AND W
2026-03-16 04:55:00,METAR KSUA 160455Z AUTO 16004KT 10SM VCTS CLR 22/20 A2997 RMK AO2 LTG DSNT NE AND W
2026-03-16 04:35:00,METAR KSUA 160435Z AUTO 17003KT 10SM CLR 22/21 A2997 RMK AO2 LTG DSNT NE
2026-03-16 04:15:00,METAR KSUA 160415Z AUTO 00000KT 10SM VCTS CLR 22/21 A2997 RMK AO2 LTG DSNT NE AND E AND W
2026-03-16 03:55:00,METAR KSUA 160355Z AUTO 00000KT 10SM VCTS CLR 22/21 A2998 RMK AO2 LTG DSNT NE AND W
2026-03-16 03:35:00,METAR KSUA 160335Z AUTO 15004KT 10SM VCTS FEW065 SCT080 SCT095 22/21 A2998 RMK AO2 LTG DSNT E AND W
2026-03-16 03:15:00,METAR KSUA 160315Z AUTO 14005KT 10SM -RA SCT060 SCT075 BKN120 22/21 A2998 RMK AO2 LTG DSNT NE
2026-03-16 02:55:00,METAR KSUA 160255Z AUTO 00000KT 10SM FEW120 22/21 A3000 RMK AO2 LTG DSNT NE
2026-03-16 02:35:00,METAR KSUA 160235Z AUTO 00000KT 10SM FEW039 FEW065 BKN090 22/21 A3001 RMK AO2 LTG DSNT NE AND SW AND NW
2026-03-16 02:15:00,METAR KSUA 160215Z AUTO 27003KT 5SM VCTS RA BR FEW037 SCT060 OVC100 23/21 A3002 RMK AO2 LTG DSNT NE
2026-03-16 01:50:00,METAR KSUA 160150Z 00000KT 10SM VCSH FEW100 23/21 A3001
2026-03-16 00:50:00,METAR KSUA 160050Z 00000KT 10SM VCSH FEW060 BKN080 23/21 A3001
2026-03-15 23:47:00,METAR KSUA 152347Z 20003KT 7SM VCSH FEW049 BKN075 24/21 A2997
2026-03-15 22:47:00,METAR KSUA 152247Z 18007KT 7SM VCSH FEW023 24/21 A2997
2026-03-15 21:47:00,METAR KSUA 152147Z 22007KT 7SM VCSH FEW023 SCT031 24/22 A2997
2026-03-15 20:47:00,METAR KSUA 152047Z 18013G23KT 7SM VCTS SCT025 BKN055 26/22 A2995
2026-03-15 19:47:00,METAR KSUA 151947Z 14014G23KT 7SM VCTS BKN055 27/22 A2995
2026-03-15 18:47:00,METAR KSUA 151847Z 13014G22KT 7SM VCTS FEW027 BKN040 28/22 A2998
2026-03-15 17:47:00,METAR KSUA 151747Z 14013G22KT 7SM VCTS SCT014 BKN025 31/22 A3000
2026-03-15 16:47:00,METAR KSUA 151647Z 14014G21KT 7SM SCT014 SCT021 29/21 A3002
2026-03-15 15:47:00,METAR KSUA 151547Z 16012G18KT 7SM SCT014 SCT021 29/21 A3004
2026-03-15 14:47:00,METAR KSUA 151447Z 16010G17KT 7SM SCT014 BKN021 27/21 A3004
2026-03-15 13:47:00,METAR KSUA 151347Z 15012KT 7SM VCTS SCT014 SCT022 27/23 A3003
2026-03-15 12:47:00,METAR KSUA 151247Z 15009KT 7SM VCTS SCT012 25/23 A3002
2026-03-15 11:47:00,METAR KSUA 151147Z 15004KT 6SM BR SCT010 22/22 A3001
2026-03-15 10:51:00,METAR KSUA 151051Z 00000KT 10SM CLR 22/22 A2999
2026-03-15 10:35:00,METAR KSUA 151035Z AUTO 00000KT 10SM CLR 22/22 A2999 RMK AO2
2026-03-15 10:15:00,METAR KSUA 151015Z AUTO 16003KT 10SM CLR 22/22 A2999 RMK AO2 LTG DSNT NE AND E
2026-03-15 09:55:00,METAR KSUA 150955Z AUTO 14004KT 10SM VCTS CLR 22/22 A2999 RMK AO2 LTG DSNT NE
2026-03-15 09:35:00,METAR KSUA 150935Z AUTO 00000KT 10SM CLR 23/22 A2999 RMK AO2 LTG DSNT NE
2026-03-15 09:15:00,METAR KSUA 150915Z AUTO 15004KT 10SM CLR 23/22 A2999 RMK AO2 LTG DSNT NE
2026-03-15 08:55:00,METAR KSUA 150855Z AUTO 15004KT 10SM FEW015 BKN120 23/22 A2999 RMK AO2
2026-03-15 08:35:00,METAR KSUA 150835Z AUTO 17004KT 10SM BKN120 23/22 A2999 RMK AO2 LTG DSNT NE
2026-03-15 08:15:00,METAR KSUA 150815Z AUTO 16005KT 10SM BKN120 23/22 A2999 RMK AO2
