Time_recorded,METAR
2026-05-02 15:30:00,METAR LEMG 021530Z 16005KT 080V230 9999 FEW025 21/15 Q1017 NOSIG
2026-05-02 15:00:00,METAR LEMG 021500Z 13007KT 090V170 9999 FEW025 SCT039 20/15 Q1017 NOSIG
2026-05-02 14:30:00,METAR LEMG 021430Z 12006KT 080V170 9999 FEW025 BKN039 21/14 Q1018 NOSIG
2026-05-02 14:00:00,METAR LEMG 021400Z 13006KT 090V170 9999 FEW020 BKN039 20/15 Q1018 NOSIG
2026-05-02 13:30:00,METAR LEMG 021330Z 12006KT 050V170 9999 FEW020 BKN035 20/15 Q1018 NOSIG
2026-05-02 13:00:00,METAR LEMG 021300Z 12006KT 080V170 9999 FEW020 SCT030 BKN055 20/16 Q1019 NOSIG
2026-05-02 12:30:00,METAR LEMG 021230Z 14007KT 100V170 9999 FEW020 BKN030 BKN050 19/16 Q1019 NOSIG
2026-05-02 12:00:00,METAR LEMG 021200Z 14007KT 110V170 9999 FEW020 SCT030 BKN050 19/16 Q1019 NOSIG
2026-05-02 11:30:00,METAR LEMG 021130Z 15007KT 120V190 8000 FEW015 SCT020 BKN035 19/16 Q1019 NOSIG
2026-05-02 11:00:00,METAR LEMG 021100Z 14007KT 110V170 8000 FEW015 SCT030 BKN045 19/16 Q1019 NOSIG
2026-05-02 10:30:00,METAR LEMG 021030Z 13010KT 100V160 8000 FEW015 SCT020 BKN035 20/16 Q1019 NOSIG
2026-05-02 10:00:00,METAR LEMG 021000Z 14008KT 080V190 8000 FEW015 SCT025 BKN035 19/16 Q1019 NOSIG
2026-05-02 09:30:00,METAR LEMG 020930Z 14009KT 100V160 8000 FEW018 SCT035 BKN045 20/16 Q1019 NOSIG
2026-05-02 09:00:00,METAR LEMG 020900Z 13008KT 100V170 8000 FEW015 SCT025 BKN035 19/16 Q1019 NOSIG
2026-05-02 08:30:00,METAR LEMG 020830Z 14009KT 110V170 8000 FEW015 BKN020 BKN030 19/16 Q1019 NOSIG
2026-05-02 08:00:00,METAR LEMG 020800Z 15008KT 120V190 9000 FEW015 BKN030 18/16 Q1019 NOSIG
2026-05-02 07:30:00,METAR LEMG 020730Z 15008KT 8000 FEW015 BKN025 18/16 Q1019 NOSIG
2026-05-02 07:00:00,METAR LEMG 020700Z 14008KT 110V170 8000 FEW015 BKN025 18/17 Q1019 NOSIG
2026-05-02 06:30:00,METAR LEMG 020630Z 15007KT 120V190 9999 SCT015 BKN025 18/16 Q1019 NOSIG
2026-05-02 06:00:00,METAR LEMG 020600Z 15009KT 120V190 9999 SCT012 BKN025 18/16 Q1019 NOSIG
2026-05-02 05:30:00,METAR LEMG 020530Z 15007KT 120V190 9999 SCT010 BKN020 18/16 Q1018 NOSIG
2026-05-02 05:00:00,METAR LEMG 020500Z 14009KT 110V170 9999 SCT010 BKN020 18/16 Q1018 NOSIG
2026-05-02 04:30:00,METAR LEMG 020430Z 14007KT 9999 SCT010 BKN020 18/16 Q1018 NOSIG
2026-05-02 04:00:00,METAR LEMG 020400Z 14007KT 9999 SCT010 BKN020 18/16 Q1019 NOSIG
2026-05-02 03:30:00,METAR LEMG 020330Z 13007KT 9999 SCT011 BKN025 18/16 Q1019 NOSIG
2026-05-02 03:00:00,METAR LEMG 020300Z 11005KT 9999 SCT011 BKN025 18/16 Q1019 NOSIG
2026-05-02 02:30:00,METAR LEMG 020230Z 12005KT 9999 SCT014 BKN025 18/16 Q1019 NOSIG
2026-05-02 02:00:00,METAR LEMG 020200Z 12005KT 9999 SCT018 BKN040 18/16 Q1019 NOSIG
2026-05-02 01:30:00,METAR LEMG 020130Z 11005KT 060V130 9999 SCT018 BKN040 18/16 Q1020 NOSIG
2026-05-02 01:00:00,METAR LEMG 020100Z 12005KT 9999 FEW018 BKN040 18/16 Q1020 NOSIG
2026-05-02 00:30:00,METAR LEMG 020030Z 12004KT 9999 FEW018 BKN040 18/16 Q1020 NOSIG
2026-05-02 00:00:00,METAR LEMG 020000Z 09005KT 050V140 9999 FEW011 BKN040 18/17 Q1021 NOSIG
2026-05-01 23:30:00,METAR LEMG 012330Z 12004KT 9999 FEW011 BKN040 18/17 Q1021 NOSIG
2026-05-01 23:00:00,METAR LEMG 012300Z 15003KT 120V180 9999 FEW011 BKN040 18/16 Q1021 NOSIG
2026-05-01 22:30:00,METAR LEMG 012230Z 14003KT 9999 FEW025 BKN040 18/16 Q1021 NOSIG
2026-05-01 22:00:00,METAR LEMG 012200Z 14003KT 110V170 9999 FEW025 17/16 Q1021 NOSIG
2026-05-01 21:30:00,METAR LEMG 012130Z 15004KT 120V180 9999 FEW025 18/15 Q1021 NOSIG
2026-05-01 21:00:00,METAR LEMG 012100Z 14004KT CAVOK 18/15 Q1020 NOSIG
2026-05-01 20:30:00,METAR LEMG 012030Z 14004KT CAVOK 18/15 Q1020 NOSIG
2026-05-01 20:00:00,METAR LEMG 012000Z 14004KT CAVOK 18/14 Q1020 NOSIG
2026-05-01 19:30:00,METAR LEMG 011930Z 16004KT 120V190 CAVOK 18/14 Q1019 NOSIG
2026-05-01 19:00:00,METAR LEMG 011900Z 16004KT CAVOK 18/14 Q1019 NOSIG
2026-05-01 18:30:00,METAR LEMG 011830Z 13004KT CAVOK 19/14 Q1019 NOSIG
2026-05-01 18:00:00,METAR LEMG 011800Z 12005KT 100V160 CAVOK 19/15 Q1019 NOSIG
2026-05-01 17:30:00,METAR LEMG 011730Z 12007KT CAVOK 20/15 Q1019 NOSIG
2026-05-01 17:00:00,METAR LEMG 011700Z 12007KT 090V150 CAVOK 20/15 Q1019 NOSIG
2026-05-01 16:30:00,METAR LEMG 011630Z 11009KT 080V140 CAVOK 20/15 Q1019 NOSIG
2026-05-01 16:00:00,METAR LEMG 011600Z 11010KT 9999 FEW012 20/15 Q1019 NOSIG
2026-05-01 15:30:00,METAR LEMG 011530Z 12009KT 080V150 9999 FEW012 21/16 Q1019 NOSIG
2026-05-01 15:00:00,METAR LEMG 011500Z 12010KT 080V150 9999 FEW012 20/15 Q1019 NOSIG
2026-05-01 14:30:00,METAR LEMG 011430Z 12010KT 080V150 9999 FEW012 21/16 Q1020 NOSIG
2026-05-01 14:00:00,METAR LEMG 011400Z 10011KT 070V140 9999 SCT012 21/16 Q1019 NOSIG
2026-05-01 13:30:00,METAR LEMG 011330Z 11010KT 080V150 9999 SCT012 21/16 Q1020 NOSIG
2026-05-01 13:00:00,METAR LEMG 011300Z 10010KT 070V150 9999 FEW015 21/16 Q1020 NOSIG
2026-05-01 12:30:00,METAR LEMG 011230Z 12009KT 080V160 9999 FEW015 20/16 Q1019 NOSIG
2026-05-01 12:00:00,METAR LEMG 011200Z 12009KT 090V180 9999 FEW040 21/14 Q1019 NOSIG
2026-05-01 11:30:00,METAR LEMG 011130Z 15008KT 110V190 9999 FEW040 21/15 Q1019 NOSIG
2026-05-01 11:00:00,METAR LEMG 011100Z 14009KT 110V200 9999 FEW040 21/14 Q1019 NOSIG
2026-05-01 10:30:00,METAR LEMG 011030Z 15009KT 100V190 CAVOK 21/14 Q1019 NOSIG
2026-05-01 10:00:00,METAR LEMG 011000Z 14006KT 100V170 CAVOK 22/14 Q1019 NOSIG
2026-05-01 09:30:00,METAR LEMG 010930Z 14006KT 110V170 CAVOK 21/14 Q1019 NOSIG
2026-05-01 09:00:00,METAR LEMG 010900Z 14005KT 100V170 CAVOK 21/14 Q1019 NOSIG
2026-05-01 08:30:00,METAR LEMG 010830Z 30003KT 240V020 CAVOK 20/12 Q1019 NOSIG
2026-05-01 08:00:00,METAR LEMG 010800Z 30005KT CAVOK 19/12 Q1018 NOSIG
2026-05-01 07:30:00,METAR LEMG 010730Z 30006KT CAVOK 18/12 Q1018 NOSIG
2026-05-01 07:00:00,METAR LEMG 010700Z 30006KT CAVOK 15/12 Q1018 NOSIG
2026-05-01 06:30:00,METAR LEMG 010630Z 29007KT CAVOK 14/12 Q1018 NOSIG
2026-05-01 06:00:00,METAR LEMG 010600Z 28005KT CAVOK 13/12 Q1018 NOSIG
2026-05-01 05:30:00,METAR LEMG 010530Z 29005KT CAVOK 13/12 Q1018 NOSIG
2026-05-01 05:00:00,METAR LEMG 010500Z 29005KT CAVOK 14/12 Q1017 NOSIG
2026-05-01 04:30:00,METAR LEMG 010430Z 28005KT CAVOK 14/12 Q1017 NOSIG
2026-05-01 04:00:00,METAR LEMG 010400Z 29004KT CAVOK 14/12 Q1017 NOSIG
2026-05-01 03:30:00,METAR LEMG 010330Z 30004KT CAVOK 14/12 Q1017 NOSIG
2026-05-01 03:00:00,METAR LEMG 010300Z 29005KT 9999 FEW060 14/13 Q1017 NOSIG
2026-05-01 02:30:00,METAR LEMG 010230Z 29004KT 9000 3000NW FEW060 15/13 Q1017 NOSIG
2026-05-01 02:00:00,METAR LEMG 010200Z 29005KT 9999 FEW060 14/13 Q1017 NOSIG
2026-05-01 01:30:00,METAR LEMG 010130Z 31003KT 9999 FEW060 15/13 Q1017 NOSIG
2026-05-01 01:00:00,METAR LEMG 010100Z 32001KT CAVOK 17/13 Q1017 NOSIG
2026-05-01 00:30:00,METAR LEMG 010030Z 34003KT 320V030 CAVOK 17/14 Q1017 NOSIG
2026-05-01 00:00:00,METAR LEMG 010000Z 35003KT 300V050 CAVOK 18/14 Q1017 NOSIG
2026-04-30 23:30:00,METAR LEMG 302330Z 02004KT 340V060 CAVOK 18/14 Q1017 NOSIG
2026-04-30 23:00:00,METAR LEMG 302300Z 01004KT 340V050 CAVOK 18/14 Q1017 NOSIG
2026-04-30 22:30:00,METAR LEMG 302230Z 36003KT 9999 FEW080 19/13 Q1017 NOSIG
2026-04-30 22:00:00,METAR LEMG 302200Z 02004KT 350V050 9999 FEW080 19/13 Q1017 NOSIG
2026-04-30 21:30:00,METAR LEMG 302130Z 36003KT 300V070 9999 SCT075 20/13 Q1017 NOSIG
2026-04-30 21:00:00,METAR LEMG 302100Z 05002KT 9999 SCT080 20/13 Q1017 NOSIG
2026-04-30 20:30:00,METAR LEMG 302030Z 35003KT 260V030 9999 FEW080 20/13 Q1016 NOSIG
2026-04-30 20:00:00,METAR LEMG 302000Z 36005KT 320V040 9999 SCT080 20/13 Q1015 NOSIG
2026-04-30 19:30:00,METAR LEMG 301930Z 03005KT 350V060 9999 SCT080 20/14 Q1015 NOSIG
2026-04-30 19:00:00,METAR LEMG 301900Z 02006KT 350V100 9999 FEW080 21/14 Q1015 NOSIG
2026-04-30 18:30:00,METAR LEMG 301830Z 17005KT 140V210 9999 SCT085 22/13 Q1014 NOSIG
2026-04-30 18:00:00,METAR LEMG 301800Z 17007KT 140V210 9999 SCT080 22/13 Q1014 NOSIG
2026-04-30 17:30:00,METAR LEMG 301730Z 17008KT 130V230 9999 FEW080 23/12 Q1014 NOSIG
2026-04-30 17:00:00,METAR LEMG 301700Z 17009KT 140V200 9999 FEW075 23/13 Q1014 NOSIG
2026-04-30 16:30:00,METAR LEMG 301630Z 17008KT 140V220 9999 SCT075 23/13 Q1014 NOSIG
2026-04-30 16:00:00,METAR LEMG 301600Z 16009KT 120V210 9999 FEW075 23/13 Q1014 NOSIG
2026-04-30 15:00:00,METAR LEMG 301500Z 15010KT 120V200 9999 FEW060 23/13 Q1014 NOSIG
2026-04-30 14:30:00,METAR LEMG 301430Z 16011KT 120V200 9999 FEW050 23/12 Q1015 NOSIG
2026-04-30 14:00:00,METAR LEMG 301400Z 16009KT 110V190 9999 FEW050 23/12 Q1015 NOSIG
2026-04-30 13:30:00,METAR LEMG 301330Z 17011KT 130V210 9999 FEW050 22/11 Q1015 NOSIG
2026-04-30 13:00:00,METAR LEMG 301300Z 17008KT 120V210 9999 FEW020 22/11 Q1015 NOSIG
2026-04-30 12:30:00,METAR LEMG 301230Z 16009KT 120V200 9999 FEW020 23/12 Q1015 NOSIG
2026-04-30 12:00:00,METAR LEMG 301200Z 16010KT 110V210 9999 FEW020 23/12 Q1015 NOSIG
2026-04-30 11:30:00,METAR LEMG 301130Z 16010KT 120V190 9999 FEW020 22/13 Q1015 NOSIG
2026-04-30 11:00:00,METAR LEMG 301100Z 15007KT 110V190 9999 FEW020 23/12 Q1015 NOSIG
2026-04-30 10:30:00,METAR LEMG 301030Z 12005KT 080V170 9999 FEW020 22/10 Q1016 NOSIG
2026-04-30 10:00:00,METAR LEMG 301000Z 13004KT 100V180 9999 FEW020 22/12 Q1015 NOSIG
2026-04-30 09:30:00,METAR LEMG 300930Z 13003KT 9999 FEW020 22/12 Q1015 NOSIG
2026-04-30 09:00:00,METAR LEMG 300900Z 31002KT 9999 FEW020 21/13 Q1015 NOSIG
2026-04-30 08:30:00,METAR LEMG 300830Z 27006KT 240V310 9999 FEW020 19/12 Q1015 NOSIG
2026-04-30 08:00:00,METAR LEMG 300800Z 28008KT 250V310 CAVOK 18/12 Q1015 NOSIG
2026-04-30 07:30:00,METAR LEMG 300730Z 29009KT 260V320 CAVOK 17/13 Q1015 NOSIG
2026-04-30 07:00:00,METAR LEMG 300700Z 29008KT 250V320 CAVOK 15/13 Q1015 NOSIG
2026-04-30 06:30:00,METAR LEMG 300630Z 30009KT 9999 FEW058 14/12 Q1015 NOSIG
2026-04-30 06:00:00,METAR LEMG 300600Z 30009KT 9999 FEW058 13/12 Q1015 NOSIG
2026-04-30 05:30:00,METAR LEMG 300530Z COR 30005KT 9999 FEW058 13/12 Q1015 NOSIG
2026-04-30 05:00:00,METAR LEMG 300500Z 30008KT CAVOK 13/12 Q1015 NOSIG
2026-04-30 04:30:00,METAR LEMG 300430Z 30006KT CAVOK 13/12 Q1015 NOSIG
2026-04-30 04:00:00,METAR LEMG 300400Z 32004KT CAVOK 14/12 Q1014 NOSIG
2026-04-30 03:30:00,METAR LEMG 300330Z 31002KT 9999 FEW020 14/12 Q1014 NOSIG
2026-04-30 03:00:00,METAR LEMG 300300Z 30005KT CAVOK 13/12 Q1014 NOSIG
2026-04-30 02:30:00,METAR LEMG 300230Z 30003KT 9999 FEW020 14/13 Q1014 NOSIG
2026-04-30 02:00:00,METAR LEMG 300200Z 23002KT 9999 FEW020 15/14 Q1014 NOSIG
2026-04-30 01:30:00,METAR LEMG 300130Z 29005KT 9999 FEW020 15/14 Q1014 NOSIG
2026-04-30 01:00:00,METAR LEMG 300100Z 30003KT 9999 FEW020 15/14 Q1014 NOSIG
2026-04-30 00:30:00,METAR LEMG 300030Z 30003KT 250V360 9999 SCT060 16/14 Q1014 NOSIG
2026-04-30 00:00:00,METAR LEMG 300000Z 29005KT 9999 BKN060 16/14 Q1014 NOSIG
2026-04-29 23:30:00,METAR LEMG 292330Z 29004KT 9999 BKN060 17/15 Q1014 NOSIG
2026-04-29 23:00:00,METAR LEMG 292300Z 27004KT 9999 FEW020 BKN060 18/15 Q1014 NOSIG
2026-04-29 22:30:00,METAR LEMG 292230Z VRB02KT 9999 FEW020 BKN060 18/15 Q1014 NOSIG
2026-04-29 22:00:00,METAR LEMG 292200Z 20005KT 9999 FEW020 SCT060 17/13 Q1014 NOSIG
2026-04-29 21:30:00,METAR LEMG 292130Z 17003KT 130V200 9999 FEW020 SCT048 18/13 Q1013 NOSIG
2026-04-29 21:00:00,METAR LEMG 292100Z 20005KT 150V250 9999 FEW020 SCT042 17/13 Q1013 NOSIG
2026-04-29 20:30:00,METAR LEMG 292030Z 19004KT 140V260 9999 FEW020 SCT040 18/14 Q1013 NOSIG
2026-04-29 20:00:00,METAR LEMG 292000Z 20005KT 150V260 9999 FEW020 SCT040 18/14 Q1012 NOSIG
2026-04-29 19:30:00,METAR LEMG 291930Z 19006KT 150V230 9999 FEW020 SCT040 18/14 Q1012 NOSIG
2026-04-29 19:00:00,METAR LEMG 291900Z 17012KT 140V200 9999 FEW020 18/15 Q1011 NOSIG
2026-04-29 18:30:00,METAR LEMG 291830Z 17008KT 120V210 9999 FEW018 19/15 Q1011 NOSIG
2026-04-29 18:00:00,METAR LEMG 291800Z 17007KT 140V210 9999 FEW018 20/15 Q1010 NOSIG
2026-04-29 17:30:00,METAR LEMG 291730Z 17008KT 110V210 9999 FEW018 20/15 Q1010 NOSIG
2026-04-29 17:00:00,METAR LEMG 291700Z 18010KT 140V220 9999 FEW018 20/15 Q1010 NOSIG
2026-04-29 16:30:00,METAR LEMG 291630Z 17008KT 140V210 9999 FEW018 SCT060 20/15 Q1010 NOSIG
2026-04-29 16:00:00,METAR LEMG 291600Z 17010KT 120V210 9999 FEW018 SCT060 20/15 Q1010 NOSIG
2026-04-29 15:30:00,METAR LEMG 291530Z 16010KT 140V200 9999 FEW018 SCT065 20/15 Q1010 NOSIG
2026-04-29 15:00:00,METAR LEMG 291500Z 16009KT 110V190 9999 FEW018 SCT065 20/15 Q1011 NOSIG
2026-04-29 14:30:00,METAR LEMG 291430Z 14010KT 110V200 9999 FEW017 SCT065 19/15 Q1011 NOSIG
2026-04-29 14:00:00,METAR LEMG 291400Z 12010KT 090V150 9999 FEW017 SCT070 19/15 Q1011 NOSIG
2026-04-29 13:30:00,METAR LEMG 291330Z 14010KT 100V170 9999 FEW015 SCT039 19/15 Q1011 NOSIG
2026-04-29 13:00:00,METAR LEMG 291300Z 14010KT 090V200 9999 FEW015 SCT039 20/15 Q1011 NOSIG
2026-04-29 12:30:00,METAR LEMG 291230Z 12009KT 100V160 9999 FEW015 SCT036 20/15 Q1011 NOSIG
2026-04-29 12:00:00,METAR LEMG 291200Z 12009KT 080V160 9999 FEW015 BKN034 20/15 Q1011 NOSIG
2026-04-29 11:30:00,METAR LEMG 291130Z 13007KT 080V170 9999 FEW015 BKN031 19/15 Q1011 NOSIG
2026-04-29 11:17:00,SPECI LEMG 291117Z 12007KT 080V160 9999 FEW014 BKN029 19/15 Q1011 NOSIG
2026-04-29 11:00:00,METAR LEMG 291100Z 12008KT 9000 BKN013 BKN029 18/15 Q1011 NOSIG
2026-04-29 10:30:00,METAR LEMG 291030Z 12008KT 9000 BKN012 BKN028 18/15 Q1011 NOSIG
2026-04-29 10:00:00,METAR LEMG 291000Z 12008KT 080V150 9000 BKN012 BKN028 18/15 Q1011 NOSIG
2026-04-29 09:30:00,METAR LEMG 290930Z 10006KT 070V130 9000 SCT010 BKN028 18/15 Q1011 NOSIG
2026-04-29 09:00:00,METAR LEMG 290900Z 10005KT 050V130 9999 SCT012 BKN028 17/15 Q1011 NOSIG
2026-04-29 08:30:00,METAR LEMG 290830Z 11007KT 9999 SCT011 BKN028 17/15 Q1011 NOSIG
2026-04-29 08:00:00,METAR LEMG 290800Z 09005KT 040V130 9999 FEW011 BKN028 17/14 Q1011 NOSIG
2026-04-29 07:30:00,METAR LEMG 290730Z 12003KT 9999 SCT011 BKN028 16/13 Q1011 NOSIG
2026-04-29 07:00:00,METAR LEMG 290700Z VRB02KT 9999 FEW015 BKN035 15/13 Q1011 NOSIG
2026-04-29 06:30:00,METAR LEMG 290630Z 30002KT 9999 FEW025 14/13 Q1010 NOSIG
2026-04-29 06:00:00,METAR LEMG 290600Z 29005KT 9999 FEW025 13/12 Q1010 NOSIG
2026-04-29 05:30:00,METAR LEMG 290530Z 31003KT 9999 FEW035 13/12 Q1010 NOSIG
2026-04-29 05:00:00,METAR LEMG 290500Z 29004KT 9999 FEW025 13/12 Q1010 NOSIG
2026-04-29 04:30:00,METAR LEMG 290430Z 30004KT 250V340 9999 BKN025 14/12 Q1010 NOSIG
2026-04-29 04:00:00,METAR LEMG 290400Z 28006KT 9999 BKN025 14/13 Q1010 NOSIG
2026-04-29 03:30:00,METAR LEMG 290330Z 28005KT 9999 FEW040 13/12 Q1010 NOSIG
2026-04-29 03:00:00,METAR LEMG 290300Z 28004KT 250V310 9999 FEW040 13/12 Q1010 NOSIG
2026-04-29 02:30:00,METAR LEMG 290230Z 30005KT CAVOK 13/12 Q1010 NOSIG
2026-04-29 02:00:00,METAR LEMG 290200Z 32004KT CAVOK 14/12 Q1010 NOSIG
2026-04-29 01:30:00,METAR LEMG 290130Z 29005KT CAVOK 14/12 Q1010 NOSIG
2026-04-29 01:00:00,METAR LEMG 290100Z 28003KT CAVOK 14/13 Q1010 NOSIG
2026-04-29 00:30:00,METAR LEMG 290030Z 27003KT CAVOK 15/13 Q1010 NOSIG
2026-04-29 00:00:00,METAR LEMG 290000Z 29005KT CAVOK 15/13 Q1011 NOSIG
2026-04-28 23:30:00,METAR LEMG 282330Z 30005KT CAVOK 15/13 Q1011 NOSIG
2026-04-28 23:00:00,METAR LEMG 282300Z 28005KT CAVOK 15/13 Q1011 NOSIG
2026-04-28 22:30:00,METAR LEMG 282230Z 30003KT 9999 FEW025 16/13 Q1011 NOSIG
2026-04-28 22:00:00,METAR LEMG 282200Z VRB02KT 9999 FEW025 16/13 Q1011 NOSIG
2026-04-28 21:30:00,METAR LEMG 282130Z 00000KT 9999 FEW025 17/13 Q1011 NOSIG
2026-04-28 21:00:00,METAR LEMG 282100Z 20003KT 170V230 9999 FEW025 17/14 Q1011 NOSIG
2026-04-28 20:30:00,METAR LEMG 282030Z 22003KT 170V260 9999 FEW025 17/13 Q1011 NOSIG
2026-04-28 20:00:00,METAR LEMG 282000Z 20007KT 170V230 9999 FEW025 18/12 Q1010 NOSIG
2026-04-28 19:30:00,METAR LEMG 281930Z 18008KT 150V240 9999 FEW025 18/12 Q1010 NOSIG
2026-04-28 19:00:00,METAR LEMG 281900Z 15003KT 090V230 9999 FEW025 18/12 Q1010 NOSIG
2026-04-28 18:30:00,METAR LEMG 281830Z 13006KT 100V160 9999 FEW025 18/12 Q1009 NOSIG
2026-04-28 18:00:00,METAR LEMG 281800Z 13009KT 9999 FEW025 18/13 Q1010 NOSIG
2026-04-28 17:30:00,METAR LEMG 281730Z 14007KT 100V190 9999 FEW025 19/13 Q1010 NOSIG
2026-04-28 17:00:00,METAR LEMG 281700Z 15008KT 120V190 9999 FEW025 19/12 Q1010 NOSIG
2026-04-28 16:30:00,METAR LEMG 281630Z 15010KT 110V180 9999 FEW025 20/13 Q1010 NOSIG
2026-04-28 16:00:00,METAR LEMG 281600Z 15009KT 120V200 9999 FEW025 20/13 Q1010 NOSIG
2026-04-28 15:30:00,METAR LEMG 281530Z 15010KT 120V190 9999 FEW025 21/13 Q1010 NOSIG
2026-04-28 15:00:00,METAR LEMG 281500Z 16008KT 130V210 9999 FEW025 19/13 Q1011 NOSIG
2026-04-28 14:30:00,METAR LEMG 281430Z 16010KT 120V190 9999 FEW020 SCT030 19/14 Q1011 NOSIG
2026-04-28 14:00:00,METAR LEMG 281400Z 15009KT 120V190 9999 FEW020 SCT030 18/14 Q1011 NOSIG
2026-04-28 13:30:00,METAR LEMG 281330Z 15008KT 120V190 9999 FEW020 SCT035 19/14 Q1012 NOSIG
2026-04-28 13:00:00,METAR LEMG 281300Z 15008KT 120V200 9999 FEW020 SCT035 19/14 Q1012 NOSIG
2026-04-28 12:30:00,METAR LEMG 281230Z 16008KT 120V210 9999 FEW020 BKN035 20/14 Q1012 NOSIG
2026-04-28 12:00:00,METAR LEMG 281200Z 17009KT 130V210 9999 FEW020 BKN035 19/14 Q1012 NOSIG
2026-04-28 11:30:00,METAR LEMG 281130Z 17008KT 120V220 9999 FEW020 SCT035 19/14 Q1012 NOSIG
2026-04-28 11:00:00,METAR LEMG 281100Z 18010KT 150V230 9999 FEW020 SCT035 19/14 Q1013 NOSIG
2026-04-28 10:30:00,METAR LEMG 281030Z 18010KT 140V230 9999 FEW020 SCT040 19/14 Q1013 NOSIG
2026-04-28 10:00:00,METAR LEMG 281000Z 17010KT 130V220 9999 FEW020 SCT040 20/14 Q1013 NOSIG
2026-04-28 09:30:00,METAR LEMG 280930Z 15009KT 120V180 9999 FEW020 SCT040 20/14 Q1012 NOSIG
2026-04-28 09:00:00,METAR LEMG 280900Z 22003KT 9999 FEW015 SCT040 20/14 Q1012 NOSIG
2026-04-28 08:30:00,METAR LEMG 280830Z 27006KT 240V300 9999 FEW015 SCT040 18/14 Q1011 NOSIG
2026-04-28 08:00:00,METAR LEMG 280800Z VRB02KT 9999 VCSH FEW035TCU BKN040 18/14 Q1011 NOSIG
2026-04-28 07:30:00,METAR LEMG 280730Z 02003G14KT 300V090 9999 VCSH FEW035TCU BKN040 18/13 Q1011 NOSIG
2026-04-28 07:00:00,METAR LEMG 280700Z 06004KT 9999 VCSH FEW035TCU BKN040 18/13 Q1011 NOSIG
2026-04-28 06:30:00,METAR LEMG 280630Z 17005KT 130V220 9999 VCSH FEW035TCU BKN040 17/13 Q1012 NOSIG
2026-04-28 06:00:00,METAR LEMG 280600Z 17006KT 130V220 9999 VCSH FEW035TCU BKN045 17/13 Q1012 NOSIG
2026-04-28 05:30:00,METAR LEMG 280530Z 17003KT 120V230 9999 FEW030 SCT075 17/13 Q1012 NOSIG
2026-04-28 05:00:00,METAR LEMG 280500Z 18003KT 110V240 9999 FEW030 BKN070 17/13 Q1012 NOSIG
2026-04-28 04:30:00,METAR LEMG 280430Z 18007KT 150V230 9999 SCT070 17/13 Q1012 NOSIG
2026-04-28 04:00:00,METAR LEMG 280400Z 19011KT 150V230 9999 FEW030 17/13 Q1012 NOSIG
2026-04-28 03:30:00,METAR LEMG 280330Z 27009KT 230V290 9999 FEW030 17/14 Q1011 NOSIG
2026-04-28 03:00:00,METAR LEMG 280300Z 28008KT 9999 FEW030 16/14 Q1011 NOSIG
2026-04-28 02:30:00,METAR LEMG 280230Z 32003KT 9999 FEW027 16/14 Q1011 NOSIG
2026-04-28 02:00:00,METAR LEMG 280200Z 14004KT 100V180 9999 FEW019 BKN030 17/14 Q1012 NOSIG
2026-04-28 01:30:00,METAR LEMG 280130Z 14004KT 110V180 9999 OVC028 17/14 Q1013 NOSIG
2026-04-28 01:00:00,METAR LEMG 280100Z VRB02KT 9999 SCT018 OVC028 17/14 Q1013 NOSIG
2026-04-28 00:30:00,METAR LEMG 280030Z VRB02KT 9999 SCT018 OVC026 17/14 Q1013 NOSIG
2026-04-28 00:00:00,METAR LEMG 280000Z 20002KT 9999 SCT018 OVC026 17/14 Q1013 NOSIG
2026-04-27 23:30:00,METAR LEMG 272330Z VRB01KT 9999 SCT018 OVC026 17/14 Q1013 NOSIG
2026-04-27 23:00:00,METAR LEMG 272300Z 00000KT 9999 SCT018 OVC025 17/14 Q1014 NOSIG
2026-04-27 22:30:00,METAR LEMG 272230Z 00000KT 9999 OVC024 17/14 Q1014 NOSIG
2026-04-27 22:00:00,METAR LEMG 272200Z VRB02KT 9999 OVC020 18/14 Q1014 NOSIG
2026-04-27 21:30:00,METAR LEMG 272130Z 11002KT 9999 BKN020 17/14 Q1014 NOSIG
2026-04-27 21:00:00,METAR LEMG 272100Z 01003KT 9999 SCT020 OVC030 18/14 Q1014 NOSIG
2026-04-27 20:30:00,METAR LEMG 272030Z VRB02KT 9999 SCT018 BKN030 17/14 Q1014 NOSIG
2026-04-27 20:00:00,METAR LEMG 272000Z 09003KT 360V170 9999 SCT019 OVC028 17/14 Q1014 NOSIG
2026-04-27 19:30:00,METAR LEMG 271930Z 14004KT 110V170 9999 SCT019 BKN028 17/14 Q1014 NOSIG
2026-04-27 19:00:00,METAR LEMG 271900Z 16004KT 120V200 9999 SCT018 BKN027 17/14 Q1014 NOSIG
2026-04-27 18:30:00,METAR LEMG 271830Z 14006KT 110V170 9999 FEW016 BKN027 17/14 Q1014 NOSIG
2026-04-27 18:00:00,METAR LEMG 271800Z 15004KT 090V190 9999 FEW016 BKN028 18/14 Q1014 NOSIG
2026-04-27 17:30:00,METAR LEMG 271730Z 14006KT 090V200 9999 FEW017 SCT028 18/14 Q1014 NOSIG
2026-04-27 17:00:00,METAR LEMG 271700Z 15007KT 110V180 9999 SCT017 18/14 Q1014 NOSIG
2026-04-27 16:30:00,METAR LEMG 271630Z 13008KT 090V170 9999 SCT018 18/14 Q1014 NOSIG
2026-04-27 16:00:00,METAR LEMG 271600Z 15008KT 120V190 9999 FEW017 SCT033 18/13 Q1014 NOSIG
2026-04-27 15:30:00,METAR LEMG 271530Z 12008KT 080V160 9999 FEW018 SCT032 19/14 Q1014 NOSIG
2026-04-27 15:00:00,METAR LEMG 271500Z 13008KT 090V170 9999 SCT016 BKN030 19/14 Q1015 NOSIG
2026-04-27 14:30:00,METAR LEMG 271430Z 12009KT 080V160 9999 SCT016 BKN028 20/14 Q1015 NOSIG
2026-04-27 14:00:00,METAR LEMG 271400Z 13008KT 100V170 9999 SCT017 BKN029 19/14 Q1015 NOSIG
2026-04-27 13:30:00,METAR LEMG 271330Z 14010KT 110V170 9999 SCT017 BKN028 19/14 Q1015 NOSIG
2026-04-27 13:00:00,METAR LEMG 271300Z 13011KT 100V170 9999 SCT028 20/14 Q1015 NOSIG
2026-04-27 12:30:00,METAR LEMG 271230Z 12012KT 080V150 9999 SCT026 20/13 Q1016 NOSIG
2026-04-27 12:00:00,METAR LEMG 271200Z 13010KT 100V160 9999 SCT025 19/14 Q1016 NOSIG
2026-04-27 11:30:00,METAR LEMG 271130Z 12009KT 090V160 9999 SCT022 20/13 Q1016 NOSIG
2026-04-27 11:00:00,METAR LEMG 271100Z 14008KT 100V170 9999 SCT020 19/13 Q1016 NOSIG
2026-04-27 10:30:00,METAR LEMG 271030Z 13008KT 110V170 9999 SCT018 BKN026 19/13 Q1016 NOSIG
2026-04-27 10:00:00,METAR LEMG 271000Z 13007KT 9999 SCT018 BKN026 18/14 Q1017 NOSIG
2026-04-27 09:30:00,METAR LEMG 270930Z 12009KT 9999 SCT018 OVC030 17/13 Q1017 NOSIG
2026-04-27 09:00:00,METAR LEMG 270900Z 12009KT 090V150 9999 SCT018 BKN034 17/13 Q1017 NOSIG
2026-04-27 08:30:00,METAR LEMG 270830Z 12010KT 9999 SCT018 BKN032 17/14 Q1017 NOSIG
2026-04-27 08:00:00,METAR LEMG 270800Z 12010KT 9999 SCT020 BKN032 18/14 Q1017 NOSIG
2026-04-27 07:30:00,METAR LEMG 270730Z 13010KT 9999 SCT022 BKN035 18/14 Q1017 NOSIG
2026-04-27 07:00:00,METAR LEMG 270700Z 12009KT 9999 BKN022 17/14 Q1017 NOSIG
2026-04-27 06:30:00,METAR LEMG 270630Z 13008KT 9999 BKN020 17/14 Q1016 NOSIG
2026-04-27 06:00:00,METAR LEMG 270600Z 13007KT 100V160 9999 BKN018 16/14 Q1016 NOSIG
2026-04-27 05:30:00,METAR LEMG 270530Z 13007KT 9999 BKN016 16/14 Q1016 NOSIG
2026-04-27 05:00:00,METAR LEMG 270500Z 12005KT 9999 BKN016 16/14 Q1016 NOSIG
2026-04-27 04:30:00,METAR LEMG 270430Z 13002KT 9999 SCT016 16/14 Q1016 NOSIG
2026-04-27 04:00:00,METAR LEMG 270400Z VRB02KT 9999 FEW014 BKN020 16/14 Q1016 NOSIG
2026-04-27 03:30:00,METAR LEMG 270330Z 15003KT 110V190 9999 FEW014 BKN020 16/14 Q1016 NOSIG
2026-04-27 03:00:00,METAR LEMG 270300Z 14004KT 110V170 9999 FEW014 BKN020 16/14 Q1016 NOSIG
2026-04-27 02:30:00,METAR LEMG 270230Z 14003KT 100V180 9999 BKN020 16/14 Q1016 NOSIG
2026-04-27 02:00:00,METAR LEMG 270200Z VRB01KT 9999 BKN020 16/14 Q1016 NOSIG
2026-04-27 01:30:00,METAR LEMG 270130Z VRB02KT 9999 BKN020 16/14 Q1017 NOSIG
2026-04-27 01:00:00,METAR LEMG 270100Z 12004KT 9999 BKN025 16/14 Q1017 NOSIG
2026-04-27 00:30:00,METAR LEMG 270030Z 12006KT 9999 BKN025 17/14 Q1017 NOSIG
2026-04-27 00:00:00,METAR LEMG 270000Z 12007KT 080V140 9999 BKN025 17/15 Q1018 NOSIG
2026-04-26 23:30:00,METAR LEMG 262330Z 11005KT 080V140 9999 BKN025 17/14 Q1018 NOSIG
2026-04-26 23:00:00,METAR LEMG 262300Z 12004KT 9999 BKN025 17/14 Q1018 NOSIG
2026-04-26 22:30:00,METAR LEMG 262230Z 12003KT 9999 SCT025 16/14 Q1018 NOSIG
2026-04-26 22:00:00,METAR LEMG 262200Z 13003KT 9999 FEW015 16/14 Q1018 NOSIG
2026-04-26 21:30:00,METAR LEMG 262130Z 11003KT 080V140 9999 BKN015 16/15 Q1018 TEMPO BKN010
2026-04-26 21:00:00,METAR LEMG 262100Z 12003KT 080V170 9999 BKN015 16/14 Q1018 NOSIG
2026-04-26 20:30:00,METAR LEMG 262030Z 11004KT 9999 SCT015 17/14 Q1018 NOSIG
2026-04-26 20:00:00,METAR LEMG 262000Z 12004KT 070V140 9999 FEW014 16/14 Q1017 NOSIG
2026-04-26 19:30:00,METAR LEMG 261930Z VRB05KT 9999 FEW015 17/14 Q1017 NOSIG
2026-04-26 19:00:00,METAR LEMG 261900Z 11005KT 080V140 9999 FEW015 17/14 Q1016 NOSIG
2026-04-26 18:30:00,METAR LEMG 261830Z 12006KT 090V150 9999 FEW016 17/14 Q1016 NOSIG
2026-04-26 18:00:00,METAR LEMG 261800Z 12008KT 9999 FEW020 18/13 Q1016 NOSIG
2026-04-26 17:30:00,METAR LEMG 261730Z 14007KT 100V170 CAVOK 18/12 Q1016 NOSIG
2026-04-26 17:00:00,METAR LEMG 261700Z 12006KT 060V150 9999 FEW025 19/11 Q1016 NOSIG
2026-04-26 16:30:00,METAR LEMG 261630Z 12008KT 090V150 9999 FEW025 19/12 Q1016 NOSIG
2026-04-26 16:00:00,METAR LEMG 261600Z 10009KT 080V140 9999 SCT025 19/13 Q1016 NOSIG
2026-04-26 15:30:00,METAR LEMG 261530Z 11009KT 080V150 9999 SCT023 19/13 Q1016 NOSIG
2026-04-26 15:00:00,METAR LEMG 261500Z 12010KT 9999 SCT023 20/13 Q1016 NOSIG
2026-04-26 14:30:00,METAR LEMG 261430Z 12011KT 9999 SCT020 19/13 Q1017 NOSIG
2026-04-26 14:00:00,METAR LEMG 261400Z 13010KT 100V160 9999 FEW020 19/14 Q1017 NOSIG
2026-04-26 13:30:00,METAR LEMG 261330Z 11009KT 080V170 9999 FEW018 20/13 Q1017 NOSIG
2026-04-26 13:00:00,METAR LEMG 261300Z 10011KT 9999 SCT018 20/13 Q1017 NOSIG
2026-04-26 12:30:00,METAR LEMG 261230Z 12011KT 080V150 9999 SCT018 19/14 Q1017 NOSIG
2026-04-26 12:00:00,METAR LEMG 261200Z 13009KT 100V170 9999 FEW020 20/13 Q1017 NOSIG
2026-04-26 11:30:00,METAR LEMG 261130Z 13008KT 080V190 9999 FEW022 19/13 Q1018 NOSIG
2026-04-26 11:00:00,METAR LEMG 261100Z 12008KT 080V160 9999 FEW022 19/12 Q1018 NOSIG
2026-04-26 10:30:00,METAR LEMG 261030Z 12007KT 020V190 9999 FEW022 SCT045 19/13 Q1018 NOSIG
2026-04-26 10:00:00,METAR LEMG 261000Z 11007KT 070V160 9999 FEW022 SCT050 19/12 Q1018 NOSIG
2026-04-26 09:30:00,METAR LEMG 260930Z 12006KT 080V150 9999 FEW026 BKN050 18/12 Q1018 NOSIG
2026-04-26 09:00:00,METAR LEMG 260900Z 10006G16KT 030V150 9999 FEW024 SCT040 19/12 Q1018 NOSIG
2026-04-26 08:30:00,METAR LEMG 260830Z 26002KT 9999 SCT040 18/12 Q1018 NOSIG
2026-04-26 08:00:00,METAR LEMG 260800Z VRB02KT 9999 FEW040 17/12 Q1018 NOSIG
2026-04-26 07:30:00,METAR LEMG 260730Z 30005KT 9999 SCT044 16/13 Q1017 NOSIG
2026-04-26 07:00:00,METAR LEMG 260700Z 30006KT 9999 SCT044 15/12 Q1017 NOSIG
2026-04-26 06:30:00,METAR LEMG 260630Z 29005KT 9999 SCT055 14/12 Q1017 NOSIG
2026-04-26 06:00:00,METAR LEMG 260600Z 29005KT 9999 FEW060 13/11 Q1017 NOSIG
2026-04-26 05:30:00,METAR LEMG 260530Z 28004KT 9999 FEW055 13/11 Q1017 NOSIG
2026-04-26 05:00:00,METAR LEMG 260500Z 28004KT 9999 SCT055 12/11 Q1016 NOSIG
2026-04-26 04:30:00,METAR LEMG 260430Z 29004KT 9999 FEW035 SCT055 13/12 Q1017 NOSIG
2026-04-26 04:00:00,METAR LEMG 260400Z 28002KT 9999 FEW035 14/12 Q1017 NOSIG
2026-04-26 03:30:00,METAR LEMG 260330Z VRB01KT 9999 SCT033 14/12 Q1017 NOSIG
2026-04-26 03:00:00,METAR LEMG 260300Z VRB02KT 9999 FEW035 15/12 Q1017 NOSIG
2026-04-26 02:30:00,METAR LEMG 260230Z 16003KT 130V200 9999 BKN035 16/13 Q1017 NOSIG
2026-04-26 02:00:00,METAR LEMG 260200Z 15003KT 120V190 9999 BKN035 16/13 Q1017 NOSIG
2026-04-26 01:30:00,METAR LEMG 260130Z 15004KT 120V180 9999 FEW021 BKN035 16/13 Q1017 NOSIG
2026-04-26 01:00:00,METAR LEMG 260100Z 14004KT 9999 FEW021 BKN035 16/13 Q1017 NOSIG
2026-04-26 00:30:00,METAR LEMG 260030Z 13005KT 9999 SCT015 BKN035 16/13 Q1017 NOSIG
2026-04-26 00:00:00,METAR LEMG 260000Z 10004KT 9999 FEW015 BKN035 16/13 Q1018 NOSIG
2026-04-25 23:30:00,METAR LEMG 252330Z 10003KT 9999 BKN035 16/14 Q1018 NOSIG
2026-04-25 23:00:00,METAR LEMG 252300Z 10003KT 080V140 9999 FEW024 BKN032 16/14 Q1018 NOSIG
2026-04-25 22:30:00,METAR LEMG 252230Z 14002KT 9999 FEW017 BKN032 16/14 Q1018 NOSIG
2026-04-25 22:00:00,METAR LEMG 252200Z VRB02KT 9999 FEW018 BKN024 BKN033 16/14 Q1018 NOSIG
2026-04-25 21:30:00,METAR LEMG 252130Z 14003KT 100V160 9999 SCT015 BKN030 15/12 Q1018 NOSIG
2026-04-25 21:00:00,METAR LEMG 252100Z 16003KT 9999 FEW030 15/12 Q1018 NOSIG
2026-04-25 20:30:00,METAR LEMG 252030Z 14003KT 9999 FEW025 15/12 Q1017 NOSIG
2026-04-25 20:00:00,METAR LEMG 252000Z 12004KT 070V150 CAVOK 15/12 Q1017 NOSIG
2026-04-25 19:30:00,METAR LEMG 251930Z 16003KT 9999 FEW050 16/12 Q1016 NOSIG
2026-04-25 19:00:00,METAR LEMG 251900Z 15004KT 9999 FEW050 16/11 Q1016 NOSIG
2026-04-25 18:30:00,METAR LEMG 251830Z 15004KT 9999 FEW045 17/11 Q1016 NOSIG
2026-04-25 18:00:00,METAR LEMG 251800Z 16005KT 9999 FEW025 SCT045 17/11 Q1016 NOSIG
2026-04-25 17:30:00,METAR LEMG 251730Z 12005KT 080V160 9999 FEW030 18/10 Q1016 NOSIG
2026-04-25 17:00:00,METAR LEMG 251700Z 13004KT 060V170 9999 FEW030 SCT043 19/10 Q1016 NOSIG
2026-04-25 16:30:00,METAR LEMG 251630Z 08003KT 9999 FEW030 SCT045 19/12 Q1016 NOSIG
2026-04-25 16:00:00,METAR LEMG 251600Z 09002KT 9999 FEW020 BKN035 17/14 Q1016 NOSIG
2026-04-25 15:30:00,METAR LEMG 251530Z 12004KT 080V170 9999 FEW010 BKN020 BKN035 17/15 Q1016 NOSIG
2026-04-25 15:00:00,METAR LEMG 251500Z 13007KT 9999 FEW010 BKN015 BKN025 17/15 Q1016 NOSIG
2026-04-25 14:30:00,METAR LEMG 251430Z 13008KT 9999 SCT010 BKN015 BKN025 16/14 Q1016 NOSIG
2026-04-25 14:00:00,METAR LEMG 251400Z 14009KT 110V170 9999 -RA FEW010 SCT020 BKN030 16/15 Q1017 NOSIG
2026-04-25 13:30:00,METAR LEMG 251330Z 15007KT 110V200 9999 FEW016 BKN030 BKN040 19/15 Q1017 NOSIG
2026-04-25 13:00:00,METAR LEMG 251300Z 14008KT 100V210 9999 FEW016 SCT030 BKN070 19/15 Q1017 NOSIG
2026-04-25 12:30:00,METAR LEMG 251230Z 15008KT 120V190 9999 FEW020 SCT030 BKN070 19/15 Q1017 NOSIG
2026-04-25 12:00:00,METAR LEMG 251200Z 15008KT 110V200 9999 FEW020 BKN030 18/14 Q1017 NOSIG
2026-04-25 11:30:00,METAR LEMG 251130Z 15008KT 9999 FEW025 BKN060 18/15 Q1017 NOSIG
2026-04-25 11:00:00,METAR LEMG 251100Z 16008KT 120V190 9999 SCT030 BKN065 18/15 Q1017 NOSIG
2026-04-25 10:30:00,METAR LEMG 251030Z 15009KT 120V190 9999 FEW030 BKN060 18/14 Q1017 NOSIG
2026-04-25 10:00:00,METAR LEMG 251000Z 14006KT 120V190 9999 SCT030 BKN055 18/13 Q1017 NOSIG
2026-04-25 09:30:00,METAR LEMG 250930Z 16006KT 120V200 9999 FEW020 BKN035 BKN050 18/14 Q1016 NOSIG
2026-04-25 09:00:00,METAR LEMG 250900Z 13006KT 100V160 9999 FEW020 SCT035 BKN045 18/14 Q1017 NOSIG
2026-04-25 08:30:00,METAR LEMG 250830Z 12002KT 9999 FEW015 SCT025 BKN035 17/15 Q1017 NOSIG
2026-04-25 08:00:00,METAR LEMG 250800Z 01001KT 9000 FEW010 SCT025 BKN035 16/15 Q1017 NOSIG
2026-04-25 07:30:00,METAR LEMG 250730Z 28002KT 7000 FEW008 SCT025 BKN035 16/15 Q1017 NOSIG
2026-04-25 07:00:00,METAR LEMG 250700Z 30001KT 7000 FEW008 SCT030 BKN048 16/15 Q1016 NOSIG
2026-04-25 06:30:00,METAR LEMG 250630Z 28001KT 5000 BR FEW005 BKN027 15/15 Q1016 NOSIG
2026-04-25 06:00:00,METAR LEMG 250600Z 13001KT 5000 BR FEW005 SCT025 15/15 Q1016 NOSIG
2026-04-25 05:30:00,METAR LEMG 250530Z VRB01KT 6000 FEW005 SCT025 BKN042 15/15 Q1016 NOSIG
2026-04-25 05:00:00,METAR LEMG 250500Z 28002KT 5000 BR FEW005 SCT025 BKN038 15/15 Q1016 NOSIG
2026-04-25 04:30:00,METAR LEMG 250430Z 29003KT 5000 BR FEW005 SCT025 BKN038 15/15 Q1016 NOSIG
2026-04-25 04:00:00,METAR LEMG 250400Z 00000KT 6000 BKN025 BKN048 15/15 Q1016 NOSIG
2026-04-25 03:30:00,METAR LEMG 250330Z 27002KT 7000 BKN024 SCT044 15/15 Q1016 NOSIG
2026-04-25 03:00:00,METAR LEMG 250300Z 32002KT 8000 SCT022 SCT044 BKN070 15/15 Q1016 NOSIG
2026-04-25 02:30:00,METAR LEMG 250230Z 31001KT 9999 SCT028 SCT044 BKN070 15/15 Q1016 NOSIG
2026-04-25 02:00:00,METAR LEMG 250200Z 29003KT 9000 FEW032 SCT044 BKN070 15/14 Q1016 NOSIG
2026-04-25 01:30:00,METAR LEMG 250130Z 30003KT 9000 FEW006 SCT032 BKN048 15/15 Q1017 NOSIG
2026-04-25 01:00:00,METAR LEMG 250100Z 29002KT 9000 SCT021 BKN032 15/15 Q1017 NOSIG
2026-04-25 00:30:00,METAR LEMG 250030Z 00000KT 7000 -RA SCT022 BKN035 15/15 Q1018 NOSIG
2026-04-25 00:00:00,METAR LEMG 250000Z VRB01KT 6000 -RA BKN022 BKN038 15/15 Q1018 NOSIG
2026-04-24 23:30:00,METAR LEMG 242330Z 02002KT 8000 -RA BKN022 BKN038 16/14 Q1018 NOSIG
2026-04-24 23:00:00,METAR LEMG 242300Z VRB02KT 9999 BKN022 SCT040 16/14 Q1018 NOSIG
2026-04-24 22:30:00,METAR LEMG 242230Z 28005KT 9999 -RA SCT024 SCT040 BKN052 16/14 Q1018 NOSIG
2026-04-24 22:00:00,METAR LEMG 242200Z 29003KT 9999 -RA FEW026 SCT040 BKN052 16/14 Q1018 NOSIG
2026-04-24 21:30:00,METAR LEMG 242130Z VRB02KT 9999 FEW027 BKN050 17/13 Q1018 NOSIG
2026-04-24 21:00:00,METAR LEMG 242100Z 18005KT 140V220 9999 FEW027 BKN050 17/13 Q1018 NOSIG
2026-04-24 20:30:00,METAR LEMG 242030Z 17006KT 140V220 9999 FEW028 BKN040 17/13 Q1018 NOSIG
2026-04-24 20:00:00,METAR LEMG 242000Z 17006KT 130V200 9999 FEW028 BKN038 17/13 Q1017 NOSIG
2026-04-24 19:30:00,METAR LEMG 241930Z 16005KT 130V190 9999 -RA FEW028 SCT038 BKN075 16/13 Q1017 NOSIG
2026-04-24 19:00:00,METAR LEMG 241900Z 13006KT 9999 -RA FEW028 SCT055 BKN080 17/14 Q1017 NOSIG
2026-04-24 18:30:00,METAR LEMG 241830Z 13006KT 9999 -RA FEW028 SCT057 BKN080 17/13 Q1016 NOSIG
2026-04-24 18:00:00,METAR LEMG 241800Z 15005KT 110V190 9999 -RA FEW028 SCT057 17/13 Q1016 NOSIG
2026-04-24 17:30:00,METAR LEMG 241730Z 16003KT 110V200 9999 -RA FEW028 SCT057 18/14 Q1016 NOSIG
2026-04-24 17:00:00,METAR LEMG 241700Z VRB01KT 9999 FEW027 SCT055 18/13 Q1016 NOSIG
2026-04-24 16:30:00,METAR LEMG 241630Z 28003KT 250V310 9999 -RA FEW027 SCT052 18/14 Q1016 NOSIG
2026-04-24 16:00:00,METAR LEMG 241600Z 32003KT 290V030 9999 FEW027 SCT052 19/13 Q1016 NOSIG
2026-04-24 15:30:00,METAR LEMG 241530Z 29002KT 9999 FEW027 BKN052 19/13 Q1016 NOSIG
2026-04-24 15:00:00,METAR LEMG 241500Z 34004KT 250V020 9999 FEW027 BKN051 19/13 Q1016 NOSIG
2026-04-24 14:30:00,METAR LEMG 241430Z 08002KT 9999 -RA FEW027 BKN051 18/13 Q1017 NOSIG
2026-04-24 14:00:00,METAR LEMG 241400Z 09003KT 050V140 9999 FEW027 BKN051 18/12 Q1017 NOSIG
2026-04-24 13:30:00,METAR LEMG 241330Z 10002KT 9999 FEW027 BKN050 18/14 Q1017 NOSIG
2026-04-24 13:00:00,METAR LEMG 241300Z VRB02KT 9999 -RA FEW027 SCT070 17/15 Q1017 NOSIG
2026-04-24 12:30:00,METAR LEMG 241230Z 08003KT 020V140 9000 4000E -RA FEW010 SCT030 BKN075 16/14 Q1017 NOSIG
2026-04-24 12:00:00,METAR LEMG 241200Z 10007KT 070V130 9000 4000E -RA FEW010 SCT028 BKN075 17/15 Q1018 NOSIG
2026-04-24 11:30:00,METAR LEMG 241130Z 10003KT 070V150 9000 -RA FEW028 SCT050 BKN075 17/15 Q1017 NOSIG
2026-04-24 11:00:00,METAR LEMG 241100Z 09005KT 010V160 9000 -RA FEW028 SCT050 17/15 Q1017 NOSIG
2026-04-24 10:30:00,METAR LEMG 241030Z COR VRB02KT 8000 -RA FEW028 BKN050 17/13 Q1017 NOSIG
2026-04-24 10:00:00,METAR LEMG 241000Z 32004KT 290V350 9999 FEW028 SCT048 18/13 Q1017 NOSIG
2026-04-24 09:30:00,METAR LEMG 240930Z 29006KT 9999 FEW028 SCT048 17/13 Q1017 NOSIG
2026-04-24 09:00:00,METAR LEMG 240900Z 28006KT 9999 FEW028 17/13 Q1017 NOSIG
2026-04-24 08:30:00,METAR LEMG 240830Z 28006KT 9999 FEW018 16/13 Q1017 NOSIG
2026-04-24 08:00:00,METAR LEMG 240800Z 28004KT 240V300 9999 FEW018 16/13 Q1016 NOSIG
2026-04-24 07:30:00,METAR LEMG 240730Z 29005KT 9999 FEW018 15/13 Q1016 NOSIG
2026-04-24 07:00:00,METAR LEMG 240700Z 26005KT 210V320 9999 SCT022 15/12 Q1016 NOSIG
2026-04-24 06:30:00,METAR LEMG 240630Z 27006KT 240V300 9999 BKN023 15/13 Q1016 NOSIG
2026-04-24 06:00:00,METAR LEMG 240600Z 28004KT 9999 SCT020 15/12 Q1016 NOSIG
2026-04-24 05:30:00,METAR LEMG 240530Z VRB01KT 9999 SCT020 15/12 Q1016 NOSIG
2026-04-24 05:00:00,METAR LEMG 240500Z VRB02KT 9999 SCT020 SCT046 15/12 Q1015 NOSIG
2026-04-24 04:30:00,METAR LEMG 240430Z 21003KT 9999 FEW030 SCT045 15/12 Q1015 NOSIG
2026-04-24 04:00:00,METAR LEMG 240400Z 00000KT 9999 FEW030 SCT045 16/12 Q1015 NOSIG
2026-04-24 03:30:00,METAR LEMG 240330Z VRB02KT 9999 FEW030 SCT045 17/12 Q1015 NOSIG
2026-04-24 03:00:00,METAR LEMG 240300Z 17003KT 120V210 9999 FEW030 BKN043 17/13 Q1015 NOSIG
2026-04-24 02:30:00,METAR LEMG 240230Z 17003KT 130V230 9999 FEW025 BKN041 17/12 Q1015 NOSIG
2026-04-24 02:00:00,METAR LEMG 240200Z VRB02KT 9999 FEW025 BKN039 17/13 Q1015 NOSIG
2026-04-24 01:30:00,METAR LEMG 240130Z 15003KT 080V190 9999 FEW025 BKN038 17/13 Q1015 NOSIG
2026-04-24 01:00:00,METAR LEMG 240100Z 14004KT 100V180 9999 FEW030 BKN038 18/13 Q1015 NOSIG
2026-04-24 00:30:00,METAR LEMG 240030Z 16005KT 110V200 9999 FEW030 BKN039 18/13 Q1016 NOSIG
2026-04-24 00:00:00,METAR LEMG 240000Z 18005KT 150V230 9999 FEW030 BKN038 18/13 Q1016 NOSIG
2026-04-23 23:30:00,METAR LEMG 232330Z 18004KT 150V210 9999 FEW025 BKN037 17/13 Q1016 NOSIG
2026-04-23 23:00:00,METAR LEMG 232300Z 15003KT 110V200 9999 FEW030 BKN036 17/14 Q1016 NOSIG
2026-04-23 22:30:00,METAR LEMG 232230Z 16004KT 120V210 9999 SCT030 BKN036 17/14 Q1016 NOSIG
2026-04-23 22:00:00,METAR LEMG 232200Z 15004KT 110V230 9999 FEW020 BKN035 18/14 Q1016 NOSIG
2026-04-23 21:30:00,METAR LEMG 232130Z 15004KT 110V210 9999 FEW020 BKN034 18/14 Q1016 NOSIG
2026-04-23 21:00:00,METAR LEMG 232100Z 16004KT 070V210 9999 FEW015 BKN033 18/15 Q1016 NOSIG
2026-04-23 20:30:00,METAR LEMG 232030Z 15003KT 120V180 9999 FEW020 BKN032 18/14 Q1016 NOSIG
2026-04-23 20:00:00,METAR LEMG 232000Z 12006KT 070V140 9999 FEW020 BKN032 18/14 Q1015 NOSIG
2026-04-23 19:30:00,METAR LEMG 231930Z 12005KT 9999 FEW015 BKN034 18/14 Q1015 NOSIG
2026-04-23 19:00:00,METAR LEMG 231900Z 11005KT 070V150 9999 FEW015 BKN033 18/14 Q1015 NOSIG
2026-04-23 18:30:00,METAR LEMG 231830Z 14005KT 110V170 9999 FEW015 BKN033 18/14 Q1014 NOSIG
2026-04-23 18:00:00,METAR LEMG 231800Z 13005KT 100V170 9999 FEW015 BKN032 18/15 Q1014 NOSIG
2026-04-23 17:30:00,METAR LEMG 231730Z 14005KT 110V190 9999 FEW015 BKN033 19/15 Q1014 NOSIG
2026-04-23 17:00:00,METAR LEMG 231700Z 13006KT 9999 FEW020 BKN032 19/15 Q1014 NOSIG
2026-04-23 16:30:00,METAR LEMG 231630Z 16006KT 120V200 9999 FEW020 BKN031 19/14 Q1014 NOSIG
2026-04-23 16:00:00,METAR LEMG 231600Z 13006KT 100V160 9999 FEW020 BKN028 19/14 Q1014 NOSIG
2026-04-23 15:30:00,METAR LEMG 231530Z 15006KT 100V190 9999 FEW015 BKN026 20/15 Q1014 NOSIG
2026-04-23 15:00:00,METAR LEMG 231500Z 14006KT 100V200 9999 FEW015 BKN041 20/15 Q1014 NOSIG
2026-04-23 14:30:00,METAR LEMG 231430Z 15006KT 120V190 9999 SCT017 BKN025 19/16 Q1014 NOSIG
2026-04-23 14:00:00,METAR LEMG 231400Z 16006KT 120V220 9999 BKN018 19/15 Q1014 NOSIG
2026-04-23 13:30:00,METAR LEMG 231330Z 16005KT 140V200 9999 BKN019 19/15 Q1015 NOSIG
2026-04-23 13:00:00,METAR LEMG 231300Z 13005KT 100V170 9999 SCT020 BKN033 19/15 Q1015 NOSIG
2026-04-23 12:30:00,METAR LEMG 231230Z 14006KT 100V170 9999 FEW020 BKN033 19/15 Q1015 NOSIG
2026-04-23 12:00:00,METAR LEMG 231200Z 12006KT 080V150 9999 FEW015 BKN030 19/15 Q1015 NOSIG
2026-04-23 11:30:00,METAR LEMG 231130Z 11005KT 080V150 9999 SCT018 BKN037 19/15 Q1015 NOSIG
2026-04-23 11:00:00,METAR LEMG 231100Z 11006KT 080V140 9999 FEW020 BKN026 19/15 Q1015 NOSIG
2026-04-23 10:30:00,METAR LEMG 231030Z 11005KT 070V150 9999 FEW015 BKN026 19/15 Q1015 NOSIG
2026-04-23 10:00:00,METAR LEMG 231000Z 10006KT 060V130 9999 FEW015 BKN033 19/16 Q1015 NOSIG
2026-04-23 09:30:00,METAR LEMG 230930Z 11007KT 060V140 9999 FEW015 BKN033 19/15 Q1015 NOSIG
2026-04-23 09:00:00,METAR LEMG 230900Z 10008KT 070V130 9999 BKN028 19/15 Q1015 NOSIG
2026-04-23 08:30:00,METAR LEMG 230830Z 10010KT 050V120 9999 FEW020 19/15 Q1015 NOSIG
2026-04-23 08:00:00,METAR LEMG 230800Z 11007KT 080V150 CAVOK 19/14 Q1014 NOSIG
2026-04-23 07:30:00,METAR LEMG 230730Z 09006KT 070V130 CAVOK 18/14 Q1014 NOSIG
2026-04-23 07:00:00,METAR LEMG 230700Z 05002KT CAVOK 16/10 Q1014 NOSIG
2026-04-23 06:30:00,METAR LEMG 230630Z 00000KT CAVOK 14/11 Q1013 NOSIG
2026-04-23 06:00:00,METAR LEMG 230600Z 27003KT 220V310 CAVOK 13/10 Q1013 NOSIG
2026-04-23 05:30:00,METAR LEMG 230530Z 28007KT CAVOK 13/10 Q1012 NOSIG
2026-04-23 05:00:00,METAR LEMG 230500Z 29009KT CAVOK 12/10 Q1012 NOSIG
2026-04-23 04:30:00,METAR LEMG 230430Z 30009KT CAVOK 12/10 Q1011 NOSIG
2026-04-23 04:00:00,METAR LEMG 230400Z 31008KT CAVOK 13/10 Q1011 NOSIG
2026-04-23 03:30:00,METAR LEMG 230330Z 30010KT CAVOK 13/10 Q1012 NOSIG
2026-04-23 03:00:00,METAR LEMG 230300Z 30009KT CAVOK 13/10 Q1012 NOSIG
2026-04-23 02:30:00,METAR LEMG 230230Z 30010KT CAVOK 13/11 Q1012 NOSIG
2026-04-23 02:00:00,METAR LEMG 230200Z 31006KT CAVOK 13/11 Q1012 NOSIG
2026-04-23 01:30:00,METAR LEMG 230130Z 29008KT CAVOK 14/12 Q1013 NOSIG
2026-04-23 01:00:00,METAR LEMG 230100Z 31003KT CAVOK 14/12 Q1013 NOSIG
2026-04-23 00:30:00,METAR LEMG 230030Z 32003KT CAVOK 14/11 Q1013 NOSIG
2026-04-23 00:00:00,METAR LEMG 230000Z VRB01KT CAVOK 16/14 Q1013 NOSIG
2026-04-22 23:30:00,METAR LEMG 222330Z VRB01KT CAVOK 16/14 Q1013 NOSIG
2026-04-22 23:00:00,METAR LEMG 222300Z VRB02KT CAVOK 16/14 Q1013 NOSIG
2026-04-22 22:30:00,METAR LEMG 222230Z 33003KT 250V050 CAVOK 16/14 Q1013 NOSIG
2026-04-22 22:00:00,METAR LEMG 222200Z 13004KT CAVOK 16/15 Q1013 NOSIG
2026-04-22 21:30:00,METAR LEMG 222130Z 16003KT 130V190 CAVOK 16/14 Q1013 NOSIG
2026-04-22 21:00:00,METAR LEMG 222100Z 11003KT 060V150 CAVOK 17/14 Q1012 NOSIG
2026-04-22 20:30:00,METAR LEMG 222030Z 13003KT CAVOK 17/14 Q1012 NOSIG
2026-04-22 20:00:00,METAR LEMG 222000Z 11002KT CAVOK 17/14 Q1012 NOSIG
2026-04-22 19:30:00,METAR LEMG 221930Z 12004KT CAVOK 17/14 Q1012 NOSIG
2026-04-22 19:00:00,METAR LEMG 221900Z 09005KT CAVOK 19/13 Q1011 NOSIG
2026-04-22 18:30:00,METAR LEMG 221830Z 14005KT CAVOK 20/12 Q1011 NOSIG
2026-04-22 18:00:00,METAR LEMG 221800Z 11005KT CAVOK 22/09 Q1011 NOSIG
2026-04-22 17:30:00,METAR LEMG 221730Z 14008KT CAVOK 23/09 Q1011 NOSIG
2026-04-22 17:00:00,METAR LEMG 221700Z 15008KT 110V170 CAVOK 23/10 Q1011 NOSIG
2026-04-22 16:30:00,METAR LEMG 221630Z 14009KT CAVOK 24/10 Q1011 NOSIG
2026-04-22 16:00:00,METAR LEMG 221600Z 14007KT 100V170 CAVOK 24/09 Q1011 NOSIG
2026-04-22 15:30:00,METAR LEMG 221530Z 14007KT 100V190 CAVOK 25/10 Q1011 NOSIG
2026-04-22 15:00:00,METAR LEMG 221500Z 15007KT CAVOK 25/10 Q1011 NOSIG
2026-04-22 14:30:00,METAR LEMG 221430Z 13008KT CAVOK 25/10 Q1012 NOSIG
2026-04-22 14:00:00,METAR LEMG 221400Z 14007KT CAVOK 25/12 Q1012 NOSIG
2026-04-22 13:30:00,METAR LEMG 221330Z 14007KT 110V180 CAVOK 26/13 Q1012 NOSIG
2026-04-22 13:00:00,METAR LEMG 221300Z 15006KT 100V210 CAVOK 26/13 Q1012 NOSIG
2026-04-22 12:30:00,METAR LEMG 221230Z 15008KT 120V190 CAVOK 24/12 Q1012 NOSIG
2026-04-22 12:00:00,METAR LEMG 221200Z 15008KT 110V170 CAVOK 24/13 Q1012 NOSIG
2026-04-22 11:30:00,METAR LEMG 221130Z 14007KT 100V180 CAVOK 24/12 Q1013 NOSIG
2026-04-22 11:00:00,METAR LEMG 221100Z 25005KT CAVOK 24/12 Q1013 NOSIG
2026-04-22 10:30:00,METAR LEMG 221030Z 26009KT 210V290 CAVOK 23/13 Q1013 NOSIG
2026-04-22 10:00:00,METAR LEMG 221000Z 26009KT 220V300 CAVOK 22/13 Q1013 NOSIG
2026-04-22 09:30:00,METAR LEMG 220930Z 26011KT 220V290 CAVOK 21/12 Q1013 NOSIG
2026-04-22 09:00:00,METAR LEMG 220900Z 27012KT 230V300 CAVOK 20/12 Q1013 NOSIG
2026-04-22 08:30:00,METAR LEMG 220830Z 28013KT 240V310 CAVOK 20/12 Q1013 NOSIG
2026-04-22 08:00:00,METAR LEMG 220800Z 27014KT CAVOK 19/12 Q1013 NOSIG
2026-04-22 07:30:00,METAR LEMG 220730Z 27013KT CAVOK 18/12 Q1013 NOSIG
2026-04-22 07:00:00,METAR LEMG 220700Z 27011KT CAVOK 17/11 Q1013 NOSIG
2026-04-22 06:30:00,METAR LEMG 220630Z 29008KT CAVOK 15/11 Q1013 NOSIG
2026-04-22 06:00:00,METAR LEMG 220600Z 30009KT CAVOK 13/10 Q1012 NOSIG
2026-04-22 05:30:00,METAR LEMG 220530Z 30006KT 260V330 CAVOK 14/10 Q1012 NOSIG
2026-04-22 05:00:00,METAR LEMG 220500Z 30009KT CAVOK 12/09 Q1012 NOSIG
2026-04-22 04:30:00,METAR LEMG 220430Z 29009KT CAVOK 13/09 Q1011 NOSIG
2026-04-22 04:00:00,METAR LEMG 220400Z 29008KT CAVOK 13/10 Q1011 NOSIG
2026-04-22 03:30:00,METAR LEMG 220330Z 30007KT CAVOK 13/10 Q1011 NOSIG
2026-04-22 03:00:00,METAR LEMG 220300Z 28006KT CAVOK 13/10 Q1012 NOSIG
2026-04-22 02:30:00,METAR LEMG 220230Z 29005KT CAVOK 13/11 Q1011 NOSIG
2026-04-22 02:00:00,METAR LEMG 220200Z 30005KT CAVOK 13/11 Q1011 NOSIG
2026-04-22 01:30:00,METAR LEMG 220130Z 30005KT CAVOK 14/11 Q1011 NOSIG
2026-04-22 01:00:00,METAR LEMG 220100Z 28007KT CAVOK 13/11 Q1012 NOSIG
2026-04-22 00:30:00,METAR LEMG 220030Z 21001KT CAVOK 15/12 Q1011 NOSIG
2026-04-22 00:00:00,METAR LEMG 220000Z 28004KT 240V300 CAVOK 14/12 Q1012 NOSIG
2026-04-21 23:30:00,METAR LEMG 212330Z VRB01KT CAVOK 15/12 Q1012 NOSIG
2026-04-21 23:00:00,METAR LEMG 212300Z VRB01KT CAVOK 16/13 Q1012 NOSIG
2026-04-21 22:30:00,METAR LEMG 212230Z VRB01KT CAVOK 16/13 Q1012 NOSIG
2026-04-21 22:00:00,METAR LEMG 212200Z VRB01KT CAVOK 16/13 Q1011 NOSIG
2026-04-21 21:30:00,METAR LEMG 212130Z 29003KT 270V330 CAVOK 15/12 Q1011 NOSIG
2026-04-21 21:00:00,METAR LEMG 212100Z VRB01KT CAVOK 16/13 Q1011 NOSIG
2026-04-21 20:30:00,METAR LEMG 212030Z 09003KT 050V190 CAVOK 17/13 Q1010 NOSIG
2026-04-21 20:00:00,METAR LEMG 212000Z 08003KT 360V110 CAVOK 17/14 Q1010 NOSIG
2026-04-21 19:30:00,METAR LEMG 211930Z VRB02KT CAVOK 17/15 Q1010 NOSIG
2026-04-21 19:00:00,METAR LEMG 211900Z 11004KT 020V150 CAVOK 18/14 Q1009 NOSIG
2026-04-21 18:30:00,METAR LEMG 211830Z 13007KT 100V160 CAVOK 19/13 Q1009 NOSIG
2026-04-21 18:00:00,METAR LEMG 211800Z 12006KT CAVOK 19/12 Q1009 NOSIG
2026-04-21 17:30:00,METAR LEMG 211730Z 12005KT 070V150 CAVOK 20/12 Q1009 NOSIG
2026-04-21 17:00:00,METAR LEMG 211700Z 12004KT 080V160 CAVOK 20/12 Q1009 NOSIG
2026-04-21 16:30:00,METAR LEMG 211630Z 15003KT 050V200 CAVOK 20/13 Q1009 NOSIG
2026-04-21 16:00:00,METAR LEMG 211600Z 15006KT 120V190 CAVOK 20/13 Q1009 NOSIG
2026-04-21 15:30:00,METAR LEMG 211530Z 15005KT 110V240 CAVOK 21/12 Q1009 NOSIG
2026-04-21 15:00:00,METAR LEMG 211500Z 06003KT CAVOK 21/12 Q1008 NOSIG
2026-04-21 14:30:00,METAR LEMG 211430Z 09005KT 030V140 CAVOK 20/12 Q1009 NOSIG
2026-04-21 14:00:00,METAR LEMG 211400Z 15005KT 080V210 9999 FEW015 19/13 Q1009 NOSIG
2026-04-21 13:30:00,METAR LEMG 211330Z 14006KT 060V170 9999 FEW015 19/12 Q1010 NOSIG
2026-04-21 13:00:00,METAR LEMG 211300Z 13005KT 060V160 CAVOK 20/12 Q1010 NOSIG
2026-04-21 12:30:00,METAR LEMG 211230Z 06003KT CAVOK 20/10 Q1010 NOSIG
2026-04-21 12:00:00,METAR LEMG 211200Z VRB04KT CAVOK 20/08 Q1010 NOSIG
2026-04-21 11:30:00,METAR LEMG 211130Z 16007KT 110V210 CAVOK 21/11 Q1010 NOSIG
2026-04-21 11:00:00,METAR LEMG 211100Z 15006KT 100V180 CAVOK 20/11 Q1010 NOSIG
2026-04-21 10:30:00,METAR LEMG 211030Z 14006KT 100V160 CAVOK 19/11 Q1010 NOSIG
2026-04-21 10:00:00,METAR LEMG 211000Z 10005KT 050V140 CAVOK 20/08 Q1010 NOSIG
2026-04-21 09:30:00,METAR LEMG 210930Z 11003KT 050V170 CAVOK 19/08 Q1010 NOSIG
2026-04-21 09:00:00,METAR LEMG 210900Z 29003KT 260V330 CAVOK 18/10 Q1010 NOSIG
2026-04-21 08:30:00,METAR LEMG 210830Z 29004KT 260V320 CAVOK 16/10 Q1011 NOSIG
2026-04-21 08:00:00,METAR LEMG 210800Z 30005KT CAVOK 15/09 Q1011 NOSIG
2026-04-21 07:30:00,METAR LEMG 210730Z 30006KT CAVOK 14/08 Q1011 NOSIG
2026-04-21 07:00:00,METAR LEMG 210700Z 31004KT CAVOK 14/07 Q1011 NOSIG
2026-04-21 06:30:00,METAR LEMG 210630Z 29006KT CAVOK 12/08 Q1011 NOSIG
2026-04-21 06:00:00,METAR LEMG 210600Z 28006KT CAVOK 11/07 Q1010 NOSIG
2026-04-21 05:30:00,METAR LEMG 210530Z 29006KT CAVOK 11/07 Q1010 NOSIG
2026-04-21 05:00:00,METAR LEMG 210500Z 29006KT CAVOK 11/08 Q1010 NOSIG
2026-04-21 04:30:00,METAR LEMG 210430Z 29007KT CAVOK 11/08 Q1010 NOSIG
2026-04-21 04:00:00,METAR LEMG 210400Z 29008KT CAVOK 12/07 Q1010 NOSIG
2026-04-21 03:30:00,METAR LEMG 210330Z 29008KT CAVOK 12/08 Q1010 NOSIG
2026-04-21 03:00:00,METAR LEMG 210300Z 30007KT CAVOK 11/08 Q1010 NOSIG
2026-04-21 02:30:00,METAR LEMG 210230Z 29008KT CAVOK 12/07 Q1010 NOSIG
2026-04-21 02:00:00,METAR LEMG 210200Z 29008KT CAVOK 13/08 Q1011 NOSIG
2026-04-21 01:30:00,METAR LEMG 210130Z 29007KT CAVOK 13/08 Q1011 NOSIG
2026-04-21 01:00:00,METAR LEMG 210100Z 29008KT CAVOK 13/08 Q1011 NOSIG
2026-04-21 00:30:00,METAR LEMG 210030Z 29008KT CAVOK 13/08 Q1012 NOSIG
2026-04-21 00:00:00,METAR LEMG 210000Z 31005KT CAVOK 13/08 Q1012 NOSIG
2026-04-20 23:30:00,METAR LEMG 202330Z 29006KT CAVOK 14/08 Q1012 NOSIG
2026-04-20 23:00:00,METAR LEMG 202300Z 30005KT CAVOK 14/09 Q1012 NOSIG
2026-04-20 22:30:00,METAR LEMG 202230Z 30003KT 260V330 CAVOK 15/09 Q1012 NOSIG
2026-04-20 22:00:00,METAR LEMG 202200Z 27003KT CAVOK 15/09 Q1012 NOSIG
2026-04-20 21:30:00,METAR LEMG 202130Z 22001KT CAVOK 15/10 Q1012 NOSIG
2026-04-20 21:00:00,METAR LEMG 202100Z 07003KT 020V100 CAVOK 17/11 Q1012 NOSIG
2026-04-20 20:30:00,METAR LEMG 202030Z 12003KT CAVOK 17/10 Q1012 NOSIG
2026-04-20 20:00:00,METAR LEMG 202000Z 14004KT CAVOK 17/10 Q1011 NOSIG
2026-04-20 19:30:00,METAR LEMG 201930Z 14003KT CAVOK 17/10 Q1011 NOSIG
2026-04-20 19:00:00,METAR LEMG 201900Z 12004KT CAVOK 17/09 Q1011 NOSIG
2026-04-20 18:30:00,METAR LEMG 201830Z 12005KT CAVOK 19/08 Q1011 NOSIG
2026-04-20 18:00:00,METAR LEMG 201800Z 14006KT CAVOK 19/07 Q1011 NOSIG
2026-04-20 17:30:00,METAR LEMG 201730Z 13005KT 110V170 CAVOK 21/07 Q1011 NOSIG
2026-04-20 17:00:00,METAR LEMG 201700Z 13007KT CAVOK 21/07 Q1011 NOSIG
2026-04-20 16:30:00,METAR LEMG 201630Z 12007KT CAVOK 22/08 Q1011 NOSIG
2026-04-20 16:00:00,METAR LEMG 201600Z 14006KT 120V180 CAVOK 22/08 Q1011 NOSIG
2026-04-20 15:30:00,METAR LEMG 201530Z 13007KT 100V190 CAVOK 22/08 Q1012 NOSIG
2026-04-20 15:00:00,METAR LEMG 201500Z 14007KT 100V180 CAVOK 22/07 Q1012 NOSIG
2026-04-20 14:30:00,METAR LEMG 201430Z 13007KT 110V170 CAVOK 22/07 Q1012 NOSIG
2026-04-20 14:00:00,METAR LEMG 201400Z 13007KT 100V180 CAVOK 22/06 Q1013 NOSIG
2026-04-20 13:30:00,METAR LEMG 201330Z 12007KT 090V160 CAVOK 23/05 Q1013 NOSIG
2026-04-20 13:00:00,METAR LEMG 201300Z 13007KT 100V160 CAVOK 22/05 Q1013 NOSIG
2026-04-20 12:30:00,METAR LEMG 201230Z 13007KT 090V170 CAVOK 22/07 Q1013 NOSIG
2026-04-20 12:00:00,METAR LEMG 201200Z 15006KT 100V190 CAVOK 22/06 Q1014 NOSIG
2026-04-20 11:30:00,METAR LEMG 201130Z 13006KT 100V180 CAVOK 22/06 Q1014 NOSIG
2026-04-20 11:00:00,METAR LEMG 201100Z 12005KT 070V170 CAVOK 22/07 Q1014 NOSIG
2026-04-20 10:30:00,METAR LEMG 201030Z 12005KT CAVOK 21/05 Q1014 NOSIG
2026-04-20 10:00:00,METAR LEMG 201000Z 10003KT CAVOK 22/05 Q1014 NOSIG
2026-04-20 09:30:00,METAR LEMG 200930Z 35003KT CAVOK 21/07 Q1015 NOSIG
2026-04-20 09:00:00,METAR LEMG 200900Z 30005KT 270V330 CAVOK 19/08 Q1015 NOSIG
2026-04-20 08:30:00,METAR LEMG 200830Z 30006KT 260V330 CAVOK 18/09 Q1015 NOSIG
2026-04-20 08:00:00,METAR LEMG 200800Z 29007KT CAVOK 16/08 Q1015 NOSIG
2026-04-20 07:30:00,METAR LEMG 200730Z 30006KT CAVOK 14/08 Q1015 NOSIG
2026-04-20 07:00:00,METAR LEMG 200700Z 28008KT CAVOK 14/07 Q1015 NOSIG
2026-04-20 06:30:00,METAR LEMG 200630Z 28008KT CAVOK 13/07 Q1015 NOSIG
2026-04-20 06:00:00,METAR LEMG 200600Z 28008KT CAVOK 12/06 Q1015 NOSIG
2026-04-20 05:30:00,METAR LEMG 200530Z 29009KT CAVOK 10/07 Q1015 NOSIG
2026-04-20 05:00:00,METAR LEMG 200500Z 29008KT CAVOK 11/07 Q1015 NOSIG
2026-04-20 04:30:00,METAR LEMG 200430Z 29009KT CAVOK 13/06 Q1015 NOSIG
2026-04-20 04:00:00,METAR LEMG 200400Z 28008KT CAVOK 13/06 Q1015 NOSIG
2026-04-20 03:30:00,METAR LEMG 200330Z 28009KT CAVOK 12/07 Q1015 NOSIG
2026-04-20 03:00:00,METAR LEMG 200300Z 28008KT CAVOK 12/07 Q1015 NOSIG
2026-04-20 02:30:00,METAR LEMG 200230Z 30007KT CAVOK 11/07 Q1015 NOSIG
2026-04-20 02:00:00,METAR LEMG 200200Z 29007KT CAVOK 12/07 Q1015 NOSIG
2026-04-20 01:30:00,METAR LEMG 200130Z 28010KT CAVOK 13/07 Q1016 NOSIG
2026-04-20 01:00:00,METAR LEMG 200100Z 28009KT CAVOK 13/07 Q1016 NOSIG
2026-04-20 00:30:00,METAR LEMG 200030Z 29007KT 260V330 CAVOK 13/07 Q1016 NOSIG
2026-04-20 00:00:00,METAR LEMG 200000Z 29008KT CAVOK 13/08 Q1017 NOSIG
2026-04-19 23:30:00,METAR LEMG 192330Z 30007KT CAVOK 13/07 Q1017 NOSIG
2026-04-19 23:00:00,METAR LEMG 192300Z 30008KT CAVOK 13/07 Q1017 NOSIG
2026-04-19 22:30:00,METAR LEMG 192230Z 29009KT CAVOK 15/07 Q1017 NOSIG
2026-04-19 22:00:00,METAR LEMG 192200Z 27007KT CAVOK 16/08 Q1017 NOSIG
2026-04-19 21:30:00,METAR LEMG 192130Z 29006KT CAVOK 15/08 Q1017 NOSIG
2026-04-19 21:00:00,METAR LEMG 192100Z 29004KT CAVOK 15/07 Q1017 NOSIG
2026-04-19 20:30:00,METAR LEMG 192030Z 24003KT CAVOK 16/08 Q1017 NOSIG
2026-04-19 20:00:00,METAR LEMG 192000Z 00000KT CAVOK 16/08 Q1016 NOSIG
2026-04-19 19:30:00,METAR LEMG 191930Z 03002KT CAVOK 19/06 Q1016 NOSIG
2026-04-19 19:00:00,METAR LEMG 191900Z VRB02KT CAVOK 19/07 Q1016 NOSIG
2026-04-19 18:30:00,METAR LEMG 191830Z 12003KT 090V160 CAVOK 20/08 Q1016 NOSIG
2026-04-19 18:00:00,METAR LEMG 191800Z 11004KT 080V140 CAVOK 20/08 Q1016 NOSIG
2026-04-19 17:30:00,METAR LEMG 191730Z 13005KT 100V170 CAVOK 21/07 Q1016 NOSIG
2026-04-19 17:00:00,METAR LEMG 191700Z 11005KT 060V150 CAVOK 22/06 Q1016 NOSIG
2026-04-19 16:30:00,METAR LEMG 191630Z 10006KT 060V130 CAVOK 22/05 Q1016 NOSIG
2026-04-19 16:00:00,METAR LEMG 191600Z 14007KT CAVOK 21/06 Q1016 NOSIG
2026-04-19 15:30:00,METAR LEMG 191530Z 13007KT 090V160 CAVOK 21/07 Q1016 NOSIG
2026-04-19 15:00:00,METAR LEMG 191500Z 13007KT 100V170 CAVOK 22/07 Q1017 NOSIG
2026-04-19 14:30:00,METAR LEMG 191430Z 13007KT 100V170 CAVOK 22/04 Q1017 NOSIG
2026-04-19 14:00:00,METAR LEMG 191400Z 13007KT 090V170 CAVOK 22/07 Q1017 NOSIG
2026-04-19 13:30:00,METAR LEMG 191330Z 13007KT 080V160 CAVOK 21/06 Q1017 NOSIG
2026-04-19 13:00:00,METAR LEMG 191300Z 13008KT CAVOK 22/05 Q1018 NOSIG
2026-04-19 12:30:00,METAR LEMG 191230Z 12007KT 090V150 CAVOK 22/06 Q1018 NOSIG
2026-04-19 12:00:00,METAR LEMG 191200Z 12007KT 080V160 CAVOK 22/06 Q1018 NOSIG
2026-04-19 11:30:00,METAR LEMG 191130Z 12006KT 070V170 CAVOK 22/05 Q1018 NOSIG
2026-04-19 11:00:00,METAR LEMG 191100Z 12006KT 080V150 CAVOK 22/06 Q1018 NOSIG
2026-04-19 10:30:00,METAR LEMG 191030Z 12007KT 070V150 CAVOK 22/05 Q1019 NOSIG
2026-04-19 10:00:00,METAR LEMG 191000Z 11007KT 080V140 CAVOK 21/06 Q1019 NOSIG
2026-04-19 09:30:00,METAR LEMG 190930Z 11004KT CAVOK 21/07 Q1019 NOSIG
2026-04-19 09:00:00,METAR LEMG 190900Z 33001KT CAVOK 20/07 Q1019 NOSIG
2026-04-19 08:30:00,METAR LEMG 190830Z 31003KT 280V340 CAVOK 18/07 Q1019 NOSIG
2026-04-19 08:00:00,METAR LEMG 190800Z 29006KT CAVOK 16/08 Q1018 NOSIG
2026-04-19 07:30:00,METAR LEMG 190730Z 30006KT CAVOK 14/07 Q1018 NOSIG
2026-04-19 07:00:00,METAR LEMG 190700Z 29006KT CAVOK 12/07 Q1018 NOSIG
2026-04-19 06:30:00,METAR LEMG 190630Z 30006KT CAVOK 11/07 Q1018 NOSIG
2026-04-19 06:00:00,METAR LEMG 190600Z 28008KT CAVOK 10/07 Q1018 NOSIG
2026-04-19 05:30:00,METAR LEMG 190530Z 29007KT CAVOK 10/06 Q1018 NOSIG
2026-04-19 05:00:00,METAR LEMG 190500Z 28008KT CAVOK 11/07 Q1018 NOSIG
2026-04-19 04:30:00,METAR LEMG 190430Z 29009KT CAVOK 11/07 Q1018 NOSIG
2026-04-19 04:00:00,METAR LEMG 190400Z 28009KT CAVOK 11/07 Q1018 NOSIG
2026-04-19 03:30:00,METAR LEMG 190330Z 28009KT CAVOK 11/07 Q1018 NOSIG
2026-04-19 03:00:00,METAR LEMG 190300Z 29010KT CAVOK 12/07 Q1018 NOSIG
2026-04-19 02:30:00,METAR LEMG 190230Z 29009KT CAVOK 11/08 Q1018 NOSIG
2026-04-19 02:00:00,METAR LEMG 190200Z 30008KT CAVOK 11/07 Q1018 NOSIG
2026-04-19 01:30:00,METAR LEMG 190130Z 30008KT CAVOK 12/07 Q1019 NOSIG
2026-04-19 01:00:00,METAR LEMG 190100Z 29008KT CAVOK 12/07 Q1019 NOSIG
2026-04-19 00:30:00,METAR LEMG 190030Z 29006KT CAVOK 13/08 Q1019 NOSIG
2026-04-19 00:00:00,METAR LEMG 190000Z 29010KT CAVOK 13/08 Q1019 NOSIG
2026-04-18 23:30:00,METAR LEMG 182330Z 30007KT CAVOK 13/07 Q1019 NOSIG
2026-04-18 23:00:00,METAR LEMG 182300Z 29006KT CAVOK 14/08 Q1019 NOSIG
2026-04-18 22:30:00,METAR LEMG 182230Z 29004KT 260V320 CAVOK 14/08 Q1019 NOSIG
2026-04-18 22:00:00,METAR LEMG 182200Z 30004KT CAVOK 14/08 Q1019 NOSIG
2026-04-18 21:30:00,METAR LEMG 182130Z VRB01KT CAVOK 14/07 Q1019 NOSIG
2026-04-18 21:00:00,METAR LEMG 182100Z VRB01KT CAVOK 15/07 Q1019 NOSIG
2026-04-18 20:30:00,METAR LEMG 182030Z 12002KT CAVOK 17/09 Q1019 NOSIG
2026-04-18 20:00:00,METAR LEMG 182000Z 11003KT CAVOK 17/07 Q1019 NOSIG
2026-04-18 19:30:00,METAR LEMG 181930Z 15003KT CAVOK 19/06 Q1018 NOSIG
2026-04-18 19:00:00,METAR LEMG 181900Z 15004KT CAVOK 18/06 Q1018 NOSIG
2026-04-18 18:30:00,METAR LEMG 181830Z 15004KT CAVOK 19/07 Q1018 NOSIG
2026-04-18 18:00:00,METAR LEMG 181800Z 15004KT CAVOK 20/06 Q1018 NOSIG
2026-04-18 17:30:00,METAR LEMG 181730Z 12004KT 080V160 CAVOK 21/07 Q1018 NOSIG
2026-04-18 17:00:00,METAR LEMG 181700Z 12005KT 090V150 CAVOK 21/08 Q1018 NOSIG
2026-04-18 16:30:00,METAR LEMG 181630Z 13004KT 080V180 CAVOK 21/09 Q1018 NOSIG
2026-04-18 16:00:00,METAR LEMG 181600Z 14005KT 100V170 CAVOK 21/09 Q1018 NOSIG
2026-04-18 15:00:00,METAR LEMG 181500Z 15007KT 110V210 CAVOK 21/09 Q1018 NOSIG
2026-04-18 14:30:00,METAR LEMG 181430Z 15007KT 100V200 CAVOK 21/10 Q1019 NOSIG
2026-04-18 14:00:00,METAR LEMG 181400Z 13007KT 090V160 CAVOK 22/08 Q1019 NOSIG
2026-04-18 13:30:00,METAR LEMG 181330Z 13006KT 050V170 CAVOK 22/07 Q1019 NOSIG
2026-04-18 13:00:00,METAR LEMG 181300Z 13007KT 080V160 CAVOK 22/07 Q1019 NOSIG
2026-04-18 12:30:00,METAR LEMG 181230Z 13007KT 100V160 CAVOK 22/08 Q1019 NOSIG
2026-04-18 12:00:00,METAR LEMG 181200Z 12007KT 070V170 CAVOK 23/06 Q1020 NOSIG
2026-04-18 11:30:00,METAR LEMG 181130Z 13008KT 080V160 CAVOK 22/06 Q1020 NOSIG
2026-04-18 11:00:00,METAR LEMG 181100Z 13007KT 070V170 CAVOK 22/07 Q1020 NOSIG
2026-04-18 10:30:00,METAR LEMG 181030Z 13007KT 100V180 CAVOK 22/05 Q1020 NOSIG
2026-04-18 10:00:00,METAR LEMG 181000Z 13007KT 100V160 CAVOK 22/05 Q1020 NOSIG
2026-04-18 09:30:00,METAR LEMG 180930Z 13003KT CAVOK 22/07 Q1020 NOSIG
2026-04-18 09:00:00,METAR LEMG 180900Z 33003KT 270V020 CAVOK 20/07 Q1019 NOSIG
2026-04-18 08:30:00,METAR LEMG 180830Z 30005KT 260V320 CAVOK 17/08 Q1020 NOSIG
2026-04-18 08:00:00,METAR LEMG 180800Z 29006KT CAVOK 15/08 Q1019 NOSIG
2026-04-18 07:30:00,METAR LEMG 180730Z 30008KT CAVOK 13/08 Q1019 NOSIG
2026-04-18 07:00:00,METAR LEMG 180700Z 29008KT CAVOK 11/07 Q1019 NOSIG
2026-04-18 06:30:00,METAR LEMG 180630Z 29008KT CAVOK 10/07 Q1019 NOSIG
2026-04-18 06:00:00,METAR LEMG 180600Z 29009KT CAVOK 09/07 Q1019 NOSIG
2026-04-18 05:30:00,METAR LEMG 180530Z 30008KT CAVOK 09/07 Q1018 NOSIG
2026-04-18 05:00:00,METAR LEMG 180500Z 29008KT CAVOK 10/07 Q1018 NOSIG
2026-04-18 04:30:00,METAR LEMG 180430Z 29009KT CAVOK 10/07 Q1018 NOSIG
2026-04-18 04:00:00,METAR LEMG 180400Z 29008KT CAVOK 10/07 Q1018 NOSIG
2026-04-18 03:30:00,METAR LEMG 180330Z 29008KT CAVOK 11/07 Q1018 NOSIG
2026-04-18 03:00:00,METAR LEMG 180300Z 28008KT CAVOK 11/08 Q1019 NOSIG
2026-04-18 02:30:00,METAR LEMG 180230Z 30006KT CAVOK 11/07 Q1019 NOSIG
2026-04-18 02:00:00,METAR LEMG 180200Z 29007KT CAVOK 12/08 Q1019 NOSIG
2026-04-18 01:30:00,METAR LEMG 180130Z 29007KT CAVOK 12/08 Q1019 NOSIG
2026-04-18 01:00:00,METAR LEMG 180100Z 29008KT CAVOK 12/08 Q1019 NOSIG
2026-04-18 00:30:00,METAR LEMG 180030Z 30008KT CAVOK 11/08 Q1019 NOSIG
2026-04-18 00:00:00,METAR LEMG 180000Z 29008KT CAVOK 13/08 Q1019 NOSIG
2026-04-17 23:30:00,METAR LEMG 172330Z 30005KT CAVOK 13/08 Q1019 NOSIG
2026-04-17 23:00:00,METAR LEMG 172300Z 30005KT CAVOK 14/08 Q1020 NOSIG
2026-04-17 22:30:00,METAR LEMG 172230Z 30004KT CAVOK 14/08 Q1020 NOSIG
2026-04-17 22:00:00,METAR LEMG 172200Z 30002KT 9999 FEW015 14/08 Q1020 NOSIG
2026-04-17 21:30:00,METAR LEMG 172130Z VRB01KT 9999 FEW015 15/07 Q1020 NOSIG
2026-04-17 21:00:00,METAR LEMG 172100Z VRB01KT 9999 FEW015 15/07 Q1019 NOSIG
2026-04-17 20:30:00,METAR LEMG 172030Z VRB01KT 9999 FEW015 16/08 Q1019 NOSIG
2026-04-17 20:00:00,METAR LEMG 172000Z VRB01KT 9999 FEW015 17/08 Q1019 NOSIG
2026-04-17 19:30:00,METAR LEMG 171930Z 14003KT 9999 FEW015 17/07 Q1018 NOSIG
2026-04-17 19:00:00,METAR LEMG 171900Z 14003KT CAVOK 18/07 Q1018 NOSIG
2026-04-17 18:30:00,METAR LEMG 171830Z 12004KT CAVOK 19/08 Q1018 NOSIG
2026-04-17 18:00:00,METAR LEMG 171800Z 12004KT 080V150 CAVOK 20/08 Q1018 NOSIG
2026-04-17 17:30:00,METAR LEMG 171730Z 12004KT 090V160 CAVOK 20/08 Q1018 NOSIG
2026-04-17 17:00:00,METAR LEMG 171700Z 12005KT CAVOK 19/09 Q1018 NOSIG
2026-04-17 16:30:00,METAR LEMG 171630Z 13006KT CAVOK 20/08 Q1018 NOSIG
2026-04-17 16:00:00,METAR LEMG 171600Z 13007KT CAVOK 21/09 Q1018 NOSIG
2026-04-17 15:30:00,METAR LEMG 171530Z 13007KT 090V150 CAVOK 21/08 Q1018 NOSIG
2026-04-17 15:00:00,METAR LEMG 171500Z 13007KT 100V170 CAVOK 21/09 Q1018 NOSIG
2026-04-17 14:30:00,METAR LEMG 171430Z 13007KT 100V160 CAVOK 21/08 Q1018 NOSIG
2026-04-17 14:00:00,METAR LEMG 171400Z 12008KT CAVOK 21/08 Q1018 NOSIG
2026-04-17 13:30:00,METAR LEMG 171330Z 12008KT 100V160 CAVOK 22/08 Q1019 NOSIG
2026-04-17 13:00:00,METAR LEMG 171300Z 14007KT 100V160 CAVOK 21/09 Q1019 NOSIG
2026-04-17 12:30:00,METAR LEMG 171230Z 13007KT 100V170 CAVOK 21/10 Q1019 NOSIG
2026-04-17 12:00:00,METAR LEMG 171200Z 12006KT 080V160 CAVOK 21/10 Q1019 NOSIG
2026-04-17 11:30:00,METAR LEMG 171130Z 11006KT 080V160 CAVOK 21/10 Q1020 NOSIG
2026-04-17 11:00:00,METAR LEMG 171100Z 12006KT 080V170 CAVOK 21/11 Q1020 NOSIG
2026-04-17 10:30:00,METAR LEMG 171030Z 12006KT 080V150 CAVOK 20/11 Q1020 NOSIG
2026-04-17 10:00:00,METAR LEMG 171000Z 11006KT 070V140 CAVOK 21/09 Q1020 NOSIG
2026-04-17 09:30:00,METAR LEMG 170930Z VRB02KT CAVOK 22/09 Q1020 NOSIG
2026-04-17 09:00:00,METAR LEMG 170900Z 30005KT 260V340 CAVOK 19/11 Q1020 NOSIG
2026-04-17 08:30:00,METAR LEMG 170830Z 30006KT 280V340 CAVOK 18/12 Q1020 NOSIG
2026-04-17 08:00:00,METAR LEMG 170800Z 30009KT CAVOK 16/11 Q1020 NOSIG
2026-04-17 07:30:00,METAR LEMG 170730Z 30008KT CAVOK 14/10 Q1020 NOSIG
2026-04-17 07:00:00,METAR LEMG 170700Z 30009KT CAVOK 12/09 Q1020 NOSIG
2026-04-17 06:30:00,METAR LEMG 170630Z 30006KT CAVOK 12/09 Q1020 NOSIG
2026-04-17 06:00:00,METAR LEMG 170600Z 29008KT CAVOK 12/09 Q1020 NOSIG
2026-04-17 05:30:00,METAR LEMG 170530Z 29009KT CAVOK 12/09 Q1019 NOSIG
2026-04-17 05:00:00,METAR LEMG 170500Z 29008KT CAVOK 12/09 Q1019 NOSIG
2026-04-17 04:30:00,METAR LEMG 170430Z 30005KT CAVOK 12/09 Q1019 NOSIG
2026-04-17 04:00:00,METAR LEMG 170400Z 30006KT CAVOK 12/09 Q1020 NOSIG
2026-04-17 03:30:00,METAR LEMG 170330Z 29006KT CAVOK 13/10 Q1020 NOSIG
2026-04-17 03:00:00,METAR LEMG 170300Z 29005KT CAVOK 13/10 Q1019 NOSIG
2026-04-17 02:30:00,METAR LEMG 170230Z 27005KT CAVOK 13/10 Q1020 NOSIG
2026-04-17 02:00:00,METAR LEMG 170200Z 30005KT CAVOK 12/10 Q1020 NOSIG
2026-04-17 01:30:00,METAR LEMG 170130Z VRB02KT CAVOK 15/12 Q1020 NOSIG
2026-04-17 01:00:00,METAR LEMG 170100Z 14004KT CAVOK 15/12 Q1020 NOSIG
2026-04-17 00:30:00,METAR LEMG 170030Z 15004KT 130V190 CAVOK 16/11 Q1020 NOSIG
2026-04-17 00:00:00,METAR LEMG 170000Z 00000KT CAVOK 15/08 Q1020 NOSIG
2026-04-16 23:30:00,METAR LEMG 162330Z 28003KT 250V320 CAVOK 15/09 Q1020 NOSIG
2026-04-16 23:00:00,METAR LEMG 162300Z 28005KT CAVOK 15/09 Q1020 NOSIG
2026-04-16 22:30:00,METAR LEMG 162230Z 30003KT CAVOK 15/09 Q1020 NOSIG
2026-04-16 22:00:00,METAR LEMG 162200Z 19004KT CAVOK 17/07 Q1020 NOSIG
2026-04-16 21:30:00,METAR LEMG 162130Z 19005KT CAVOK 17/07 Q1020 NOSIG
2026-04-16 21:00:00,METAR LEMG 162100Z 18003KT 140V210 CAVOK 17/07 Q1020 NOSIG
2026-04-16 20:30:00,METAR LEMG 162030Z 17004KT 140V200 CAVOK 17/08 Q1020 NOSIG
2026-04-16 20:00:00,METAR LEMG 162000Z 17003KT 130V200 CAVOK 17/08 Q1019 NOSIG
2026-04-16 19:30:00,METAR LEMG 161930Z 17003KT 150V210 CAVOK 17/10 Q1019 NOSIG
2026-04-16 19:00:00,METAR LEMG 161900Z 17003KT 140V210 CAVOK 17/11 Q1019 NOSIG
2026-04-16 18:30:00,METAR LEMG 161830Z VRB02KT CAVOK 18/12 Q1019 NOSIG
2026-04-16 18:00:00,METAR LEMG 161800Z 11004KT 080V150 CAVOK 19/11 Q1019 NOSIG
2026-04-16 17:30:00,METAR LEMG 161730Z 13005KT CAVOK 20/09 Q1019 NOSIG
2026-04-16 17:00:00,METAR LEMG 161700Z 12006KT 100V160 CAVOK 20/10 Q1019 NOSIG
2026-04-16 16:30:00,METAR LEMG 161630Z 13006KT CAVOK 20/11 Q1019 NOSIG
2026-04-16 16:00:00,METAR LEMG 161600Z 12006KT CAVOK 21/11 Q1019 NOSIG
2026-04-16 15:30:00,METAR LEMG 161530Z 11007KT 080V150 CAVOK 21/11 Q1019 NOSIG
2026-04-16 15:00:00,METAR LEMG 161500Z 12007KT CAVOK 21/12 Q1019 NOSIG
2026-04-16 14:30:00,METAR LEMG 161430Z 12008KT CAVOK 22/09 Q1020 NOSIG
2026-04-16 14:00:00,METAR LEMG 161400Z 13007KT CAVOK 23/07 Q1020 NOSIG
2026-04-16 13:30:00,METAR LEMG 161330Z 13007KT 100V160 CAVOK 23/08 Q1020 NOSIG
2026-04-16 13:00:00,METAR LEMG 161300Z 14007KT 110V170 CAVOK 23/09 Q1020 NOSIG
2026-04-16 12:30:00,METAR LEMG 161230Z 14007KT 110V170 CAVOK 24/07 Q1020 NOSIG
2026-04-16 12:00:00,METAR LEMG 161200Z 13007KT 100V160 CAVOK 24/08 Q1020 NOSIG
2026-04-16 11:30:00,METAR LEMG 161130Z 13006KT 100V200 CAVOK 24/07 Q1020 NOSIG
2026-04-16 11:00:00,METAR LEMG 161100Z 13006KT 100V160 CAVOK 23/08 Q1021 NOSIG
2026-04-16 10:30:00,METAR LEMG 161030Z 10005KT 050V140 CAVOK 24/06 Q1020 NOSIG
2026-04-16 10:00:00,METAR LEMG 161000Z 01002KT CAVOK 23/06 Q1020 NOSIG
2026-04-16 09:30:00,METAR LEMG 160930Z 29005KT CAVOK 22/11 Q1020 NOSIG
2026-04-16 09:00:00,METAR LEMG 160900Z 29006KT CAVOK 20/11 Q1020 NOSIG
2026-04-16 08:30:00,METAR LEMG 160830Z 30007KT CAVOK 18/11 Q1020 NOSIG
2026-04-16 08:00:00,METAR LEMG 160800Z 30008KT 280V340 CAVOK 16/11 Q1020 NOSIG
2026-04-16 07:30:00,METAR LEMG 160730Z 30007KT CAVOK 14/10 Q1020 NOSIG
2026-04-16 07:00:00,METAR LEMG 160700Z 29009KT CAVOK 13/09 Q1020 NOSIG
2026-04-16 06:30:00,METAR LEMG 160630Z 29009KT CAVOK 11/09 Q1020 NOSIG
2026-04-16 06:00:00,METAR LEMG 160600Z 30008KT CAVOK 10/09 Q1020 NOSIG
2026-04-16 05:30:00,METAR LEMG 160530Z 29008KT CAVOK 11/09 Q1020 NOSIG
2026-04-16 05:00:00,METAR LEMG 160500Z 29007KT CAVOK 11/09 Q1020 NOSIG
2026-04-16 04:30:00,METAR LEMG 160430Z 29007KT CAVOK 11/08 Q1020 NOSIG
2026-04-16 04:00:00,METAR LEMG 160400Z 29007KT CAVOK 12/09 Q1020 NOSIG
2026-04-16 03:30:00,METAR LEMG 160330Z 28008KT CAVOK 11/09 Q1020 NOSIG
2026-04-16 03:00:00,METAR LEMG 160300Z 29008KT CAVOK 11/09 Q1020 NOSIG
2026-04-16 02:30:00,METAR LEMG 160230Z 29007KT CAVOK 12/09 Q1020 NOSIG
2026-04-16 02:00:00,METAR LEMG 160200Z 30007KT CAVOK 12/10 Q1020 NOSIG
2026-04-16 01:30:00,METAR LEMG 160130Z 30006KT CAVOK 12/10 Q1020 NOSIG
2026-04-16 01:00:00,METAR LEMG 160100Z 30006KT CAVOK 13/10 Q1021 NOSIG
2026-04-16 00:30:00,METAR LEMG 160030Z 30005KT CAVOK 13/11 Q1021 NOSIG
2026-04-16 00:00:00,METAR LEMG 160000Z 29006KT CAVOK 13/11 Q1021 NOSIG
2026-04-15 23:30:00,METAR LEMG 152330Z 29005KT CAVOK 13/11 Q1021 NOSIG
2026-04-15 23:00:00,METAR LEMG 152300Z 30004KT CAVOK 14/12 Q1021 NOSIG
2026-04-15 22:30:00,METAR LEMG 152230Z 29003KT 260V330 9999 FEW010 14/13 Q1021 NOSIG
2026-04-15 22:00:00,METAR LEMG 152200Z 32001KT CAVOK 16/13 Q1021 NOSIG
2026-04-15 21:30:00,METAR LEMG 152130Z VRB01KT CAVOK 15/13 Q1021 NOSIG
2026-04-15 21:00:00,METAR LEMG 152100Z VRB01KT CAVOK 16/13 Q1021 NOSIG
2026-04-15 20:30:00,METAR LEMG 152030Z VRB01KT CAVOK 15/13 Q1021 NOSIG
2026-04-15 20:00:00,METAR LEMG 152000Z VRB01KT CAVOK 16/13 Q1021 NOSIG
2026-04-15 19:30:00,METAR LEMG 151930Z VRB02KT CAVOK 16/13 Q1020 NOSIG
2026-04-15 19:00:00,METAR LEMG 151900Z 10006KT 060V120 CAVOK 17/13 Q1020 NOSIG
2026-04-15 18:30:00,METAR LEMG 151830Z 11007KT 080V140 CAVOK 17/13 Q1020 NOSIG
2026-04-15 18:00:00,METAR LEMG 151800Z 11009KT CAVOK 18/13 Q1020 NOSIG
2026-04-15 17:30:00,METAR LEMG 151730Z 11009KT 070V140 CAVOK 18/13 Q1020 NOSIG
2026-04-15 17:00:00,METAR LEMG 151700Z 11008KT 080V140 CAVOK 19/13 Q1020 NOSIG
2026-04-15 16:30:00,METAR LEMG 151630Z 11009KT CAVOK 19/13 Q1020 NOSIG
2026-04-15 16:00:00,METAR LEMG 151600Z 12010KT CAVOK 20/12 Q1020 NOSIG
2026-04-15 15:30:00,METAR LEMG 151530Z 12010KT CAVOK 21/11 Q1020 NOSIG
2026-04-15 15:00:00,METAR LEMG 151500Z 13008KT 110V170 CAVOK 22/10 Q1020 NOSIG
2026-04-15 14:30:00,METAR LEMG 151430Z 14009KT CAVOK 22/10 Q1020 NOSIG
2026-04-15 14:00:00,METAR LEMG 151400Z 13009KT 100V160 CAVOK 23/10 Q1020 NOSIG
2026-04-15 13:30:00,METAR LEMG 151330Z 14008KT 120V190 9999 FEW050 23/09 Q1020 NOSIG
2026-04-15 13:00:00,METAR LEMG 151300Z 15007KT 110V200 9999 FEW050 23/10 Q1021 NOSIG
2026-04-15 12:30:00,METAR LEMG 151230Z 14009KT 110V170 9999 FEW040 23/11 Q1021 NOSIG
2026-04-15 12:00:00,METAR LEMG 151200Z 14008KT 110V170 9999 FEW040 23/11 Q1021 NOSIG
2026-04-15 11:30:00,METAR LEMG 151130Z 16007KT 120V190 9999 FEW040 22/11 Q1021 NOSIG
2026-04-15 11:00:00,METAR LEMG 151100Z 15007KT 130V190 CAVOK 23/10 Q1021 NOSIG
2026-04-15 10:30:00,METAR LEMG 151030Z 15007KT 120V190 CAVOK 22/10 Q1021 NOSIG
2026-04-15 10:00:00,METAR LEMG 151000Z 14005KT 110V190 CAVOK 22/11 Q1021 NOSIG
2026-04-15 09:30:00,METAR LEMG 150930Z 14003KT 090V170 CAVOK 21/12 Q1021 NOSIG
2026-04-15 09:00:00,METAR LEMG 150900Z 33003KT 270V010 CAVOK 20/10 Q1021 NOSIG
2026-04-15 08:30:00,METAR LEMG 150830Z 32004KT 250V360 CAVOK 19/11 Q1021 NOSIG
2026-04-15 08:00:00,METAR LEMG 150800Z VRB02KT CAVOK 17/10 Q1021 NOSIG
2026-04-15 07:30:00,METAR LEMG 150730Z 30003KT 280V340 CAVOK 16/10 Q1021 NOSIG
2026-04-15 07:00:00,METAR LEMG 150700Z 31005KT CAVOK 14/09 Q1021 NOSIG
2026-04-15 06:30:00,METAR LEMG 150630Z 31006KT CAVOK 13/09 Q1020 NOSIG
2026-04-15 06:00:00,METAR LEMG 150600Z 31007KT CAVOK 12/08 Q1020 NOSIG
2026-04-15 05:30:00,METAR LEMG 150530Z 30009KT CAVOK 13/09 Q1020 NOSIG
2026-04-15 05:00:00,METAR LEMG 150500Z 30009KT CAVOK 12/08 Q1020 NOSIG
2026-04-15 04:30:00,METAR LEMG 150430Z 30011KT CAVOK 14/08 Q1020 NOSIG
2026-04-15 04:00:00,METAR LEMG 150400Z 29009KT CAVOK 15/08 Q1020 NOSIG
2026-04-15 03:30:00,METAR LEMG 150330Z 29010KT CAVOK 16/09 Q1020 NOSIG
2026-04-15 03:00:00,METAR LEMG 150300Z 28010KT 240V310 CAVOK 17/08 Q1019 NOSIG
2026-04-15 02:30:00,METAR LEMG 150230Z 27010KT 240V300 CAVOK 18/08 Q1019 NOSIG
2026-04-15 02:00:00,METAR LEMG 150200Z 27010KT CAVOK 18/08 Q1019 NOSIG
2026-04-15 01:30:00,METAR LEMG 150130Z 29009KT CAVOK 14/08 Q1020 NOSIG
2026-04-15 01:00:00,METAR LEMG 150100Z 28009KT 260V320 CAVOK 17/07 Q1020 NOSIG
2026-04-15 00:30:00,METAR LEMG 150030Z 28010KT CAVOK 17/07 Q1020 NOSIG
2026-04-15 00:00:00,METAR LEMG 150000Z 28011KT CAVOK 17/07 Q1020 NOSIG
2026-04-14 23:30:00,METAR LEMG 142330Z 28011KT CAVOK 17/07 Q1020 NOSIG
2026-04-14 23:00:00,METAR LEMG 142300Z 29011KT CAVOK 17/07 Q1020 NOSIG
2026-04-14 22:30:00,METAR LEMG 142230Z 29010KT CAVOK 17/07 Q1020 NOSIG
2026-04-14 22:00:00,METAR LEMG 142200Z 28010KT CAVOK 18/07 Q1020 NOSIG
2026-04-14 21:30:00,METAR LEMG 142130Z 28010KT CAVOK 19/07 Q1020 NOSIG
2026-04-14 21:00:00,METAR LEMG 142100Z 28009KT CAVOK 18/07 Q1020 NOSIG
2026-04-14 20:30:00,METAR LEMG 142030Z 28009KT CAVOK 18/07 Q1020 NOSIG
2026-04-14 20:00:00,METAR LEMG 142000Z 27008KT CAVOK 19/07 Q1020 NOSIG
2026-04-14 19:30:00,METAR LEMG 141930Z 28009KT CAVOK 19/07 Q1019 NOSIG
2026-04-14 19:00:00,METAR LEMG 141900Z 27007KT 240V300 CAVOK 20/08 Q1019 NOSIG
2026-04-14 18:30:00,METAR LEMG 141830Z 30009KT CAVOK 21/07 Q1019 NOSIG
2026-04-14 18:00:00,METAR LEMG 141800Z 29011KT CAVOK 22/07 Q1018 NOSIG
2026-04-14 17:30:00,METAR LEMG 141730Z 29013KT CAVOK 22/07 Q1018 NOSIG
2026-04-14 17:00:00,METAR LEMG 141700Z 28012KT 240V320 9999 FEW050 22/07 Q1018 NOSIG
2026-04-14 16:30:00,METAR LEMG 141630Z 28011KT 9999 FEW050 23/08 Q1018 NOSIG
2026-04-14 16:00:00,METAR LEMG 141600Z 29009KT 250V320 9999 FEW050 23/08 Q1018 NOSIG
2026-04-14 15:30:00,METAR LEMG 141530Z 29011KT 250V330 9999 FEW050 23/08 Q1018 NOSIG
2026-04-14 15:00:00,METAR LEMG 141500Z 27011KT 240V300 9999 FEW050 23/09 Q1018 NOSIG
2026-04-14 14:30:00,METAR LEMG 141430Z 26012KT 230V300 9999 FEW050 22/08 Q1018 NOSIG
2026-04-14 14:00:00,METAR LEMG 141400Z 29012KT 240V330 9999 FEW050 22/08 Q1019 NOSIG
2026-04-14 13:30:00,METAR LEMG 141330Z 27012KT 230V300 9999 FEW050 22/07 Q1019 NOSIG
2026-04-14 13:00:00,METAR LEMG 141300Z 28012KT 250V320 9999 FEW050 21/07 Q1019 NOSIG
2026-04-14 12:30:00,METAR LEMG 141230Z 26012KT 230V290 9999 FEW050 21/07 Q1020 NOSIG
2026-04-14 12:00:00,METAR LEMG 141200Z 29013KT CAVOK 21/07 Q1020 NOSIG
2026-04-14 11:30:00,METAR LEMG 141130Z 27013KT 240V300 CAVOK 20/07 Q1020 NOSIG
2026-04-14 11:00:00,METAR LEMG 141100Z 27013KT 240V300 CAVOK 20/08 Q1021 NOSIG
2026-04-14 10:30:00,METAR LEMG 141030Z 29014KT 260V320 CAVOK 19/08 Q1021 NOSIG
2026-04-14 10:00:00,METAR LEMG 141000Z 29015KT CAVOK 18/09 Q1021 NOSIG
2026-04-14 09:30:00,METAR LEMG 140930Z 28016KT 250V310 CAVOK 17/08 Q1021 NOSIG
2026-04-14 09:00:00,METAR LEMG 140900Z 29016KT CAVOK 16/07 Q1021 NOSIG
2026-04-14 08:30:00,METAR LEMG 140830Z 29017G28KT 260V320 CAVOK 15/07 Q1021 NOSIG
2026-04-14 08:00:00,METAR LEMG 140800Z 29016KT 260V320 CAVOK 15/07 Q1021 NOSIG
2026-04-14 07:30:00,METAR LEMG 140730Z 29015KT 260V320 CAVOK 14/06 Q1021 NOSIG
2026-04-14 07:00:00,METAR LEMG 140700Z 28014KT CAVOK 13/06 Q1021 NOSIG
2026-04-14 06:30:00,METAR LEMG 140630Z 29012KT 260V320 CAVOK 12/06 Q1020 NOSIG
2026-04-14 06:00:00,METAR LEMG 140600Z 29012KT CAVOK 12/06 Q1020 NOSIG
2026-04-14 05:30:00,METAR LEMG 140530Z 29012KT CAVOK 12/06 Q1020 NOSIG
2026-04-14 05:00:00,METAR LEMG 140500Z 28009KT 240V310 CAVOK 12/06 Q1020 NOSIG
2026-04-14 04:30:00,METAR LEMG 140430Z 28011KT CAVOK 13/06 Q1020 NOSIG
2026-04-14 04:00:00,METAR LEMG 140400Z 29011KT 260V320 CAVOK 13/06 Q1020 NOSIG
2026-04-14 03:30:00,METAR LEMG 140330Z 28013KT CAVOK 13/06 Q1020 NOSIG
2026-04-14 03:00:00,METAR LEMG 140300Z 28010KT CAVOK 13/06 Q1020 NOSIG
2026-04-14 02:30:00,METAR LEMG 140230Z 28005KT 250V320 CAVOK 12/06 Q1020 NOSIG
2026-04-14 02:00:00,METAR LEMG 140200Z 30011KT CAVOK 12/07 Q1020 NOSIG
2026-04-14 01:30:00,METAR LEMG 140130Z 31008KT CAVOK 13/06 Q1020 NOSIG
2026-04-14 01:00:00,METAR LEMG 140100Z 27004KT 230V320 CAVOK 13/06 Q1021 NOSIG
2026-04-14 00:30:00,METAR LEMG 140030Z 31007KT 9999 FEW075 13/06 Q1020 NOSIG
2026-04-14 00:00:00,METAR LEMG 140000Z 31008KT 9999 FEW075 14/05 Q1020 NOSIG
2026-04-13 23:30:00,METAR LEMG 132330Z 32008KT 9999 FEW075 14/05 Q1021 NOSIG
2026-04-13 23:00:00,METAR LEMG 132300Z 31005KT 9999 FEW075 13/05 Q1021 NOSIG
2026-04-13 22:30:00,METAR LEMG 132230Z 29006KT 9999 FEW075 14/05 Q1021 NOSIG
2026-04-13 22:00:00,METAR LEMG 132200Z 28007KT CAVOK 14/05 Q1020 NOSIG
2026-04-13 21:30:00,METAR LEMG 132130Z 29007KT 9999 FEW080 15/05 Q1020 NOSIG
2026-04-13 21:00:00,METAR LEMG 132100Z 30010KT 9999 FEW080 16/04 Q1020 NOSIG
2026-04-13 20:30:00,METAR LEMG 132030Z 30011KT 9999 FEW080 16/04 Q1019 NOSIG
2026-04-13 20:00:00,METAR LEMG 132000Z 30012KT 9999 FEW080 16/04 Q1019 NOSIG
2026-04-13 19:30:00,METAR LEMG 131930Z 30011KT 9999 FEW080 17/04 Q1018 NOSIG
2026-04-13 19:00:00,METAR LEMG 131900Z 30011KT 9999 FEW080 17/04 Q1017 NOSIG
2026-04-13 18:30:00,METAR LEMG 131830Z 30013KT 270V330 9999 FEW080 18/04 Q1017 NOSIG
2026-04-13 18:00:00,METAR LEMG 131800Z 30012KT 9999 FEW075 18/03 Q1016 NOSIG
2026-04-13 17:30:00,METAR LEMG 131730Z 32009G19KT 290V350 9999 FEW075 19/02 Q1016 NOSIG
2026-04-13 17:00:00,METAR LEMG 131700Z 32014G25KT 9999 FEW075 20/02 Q1016 NOSIG
2026-04-13 16:30:00,METAR LEMG 131630Z 31013G25KT 9999 FEW075 20/02 Q1016 NOSIG
2026-04-13 16:00:00,METAR LEMG 131600Z 31016G27KT 270V340 9999 SCT075 20/03 Q1016 NOSIG
2026-04-13 15:30:00,METAR LEMG 131530Z 33016G28KT 300V360 9999 SCT075 20/03 Q1017 NOSIG
2026-04-13 15:00:00,METAR LEMG 131500Z 32018G28KT 9999 SCT075 20/02 Q1017 NOSIG
2026-04-13 14:30:00,METAR LEMG 131430Z 30015G25KT 260V340 9999 FEW075 20/03 Q1017 NOSIG
2026-04-13 14:00:00,METAR LEMG 131400Z 30014G25KT 260V350 9999 FEW070 19/03 Q1017 NOSIG
2026-04-13 13:30:00,METAR LEMG 131330Z 30015KT 260V330 9999 FEW070 19/03 Q1017 NOSIG
2026-04-13 13:00:00,METAR LEMG 131300Z 29014G24KT 260V330 9999 FEW060 18/04 Q1017 NOSIG
2026-04-13 12:30:00,METAR LEMG 131230Z 29015G25KT 260V330 9999 FEW060 18/04 Q1017 NOSIG
2026-04-13 12:00:00,METAR LEMG 131200Z 29014KT 250V310 9999 FEW055 17/04 Q1018 NOSIG
2026-04-13 11:30:00,METAR LEMG 131130Z 29012KT 250V330 9999 FEW050 17/05 Q1018 NOSIG
2026-04-13 11:00:00,METAR LEMG 131100Z 28012KT 240V320 9999 FEW050 16/04 Q1018 NOSIG
2026-04-13 10:30:00,METAR LEMG 131030Z 31012G24KT 270V340 9999 FEW050 17/04 Q1018 NOSIG
2026-04-13 10:00:00,METAR LEMG 131000Z 31013KT 9999 FEW050 16/03 Q1018 NOSIG
2026-04-13 09:30:00,METAR LEMG 130930Z 31016G29KT 9999 FEW050 15/03 Q1017 NOSIG
2026-04-13 09:00:00,METAR LEMG 130900Z 31016G28KT 9999 FEW050 14/04 Q1017 NOSIG
2026-04-13 08:30:00,METAR LEMG 130830Z 32014G25KT 9999 FEW050 14/03 Q1017 NOSIG
2026-04-13 08:00:00,METAR LEMG 130800Z 32015G27KT 9999 FEW050 13/03 Q1017 NOSIG
2026-04-13 07:30:00,METAR LEMG 130730Z 29013KT 9999 FEW050 12/04 Q1017 NOSIG
2026-04-13 07:00:00,METAR LEMG 130700Z 29015G25KT 9999 FEW050 11/03 Q1016 NOSIG
2026-04-13 06:30:00,METAR LEMG 130630Z 29016KT 250V320 9999 FEW050 11/02 Q1016 NOSIG
2026-04-13 06:00:00,METAR LEMG 130600Z 29013KT 9999 FEW050 11/03 Q1016 NOSIG
2026-04-13 05:30:00,METAR LEMG 130530Z 30013G23KT CAVOK 11/03 Q1015 NOSIG
2026-04-13 05:00:00,METAR LEMG 130500Z 30014KT CAVOK 11/03 Q1015 NOSIG
2026-04-13 04:30:00,METAR LEMG 130430Z 30016KT CAVOK 12/02 Q1015 NOSIG
2026-04-13 04:00:00,METAR LEMG 130400Z 29016KT CAVOK 12/02 Q1015 NOSIG
2026-04-13 03:30:00,METAR LEMG 130330Z 29015KT CAVOK 12/03 Q1014 NOSIG
2026-04-13 03:00:00,METAR LEMG 130300Z 29017KT 260V320 CAVOK 13/03 Q1014 NOSIG
2026-04-13 02:30:00,METAR LEMG 130230Z 29018G28KT 260V320 CAVOK 13/03 Q1014 NOSIG
2026-04-13 02:00:00,METAR LEMG 130200Z 29018G28KT CAVOK 13/03 Q1014 NOSIG
2026-04-13 01:30:00,METAR LEMG 130130Z 29018G28KT 260V320 CAVOK 14/03 Q1014 NOSIG
2026-04-13 01:00:00,METAR LEMG 130100Z 30017G30KT 270V330 CAVOK 14/03 Q1014 NOSIG
2026-04-13 00:30:00,METAR LEMG 130030Z 30018G29KT 250V320 CAVOK 15/03 Q1014 NOSIG
2026-04-13 00:00:00,METAR LEMG 130000Z 30015G28KT CAVOK 15/02 Q1014 NOSIG
2026-04-12 23:30:00,METAR LEMG 122330Z 30012KT CAVOK 15/03 Q1014 NOSIG
2026-04-12 23:00:00,METAR LEMG 122300Z 29014KT CAVOK 15/03 Q1013 NOSIG
2026-04-12 22:30:00,METAR LEMG 122230Z 29013KT CAVOK 16/04 Q1013 NOSIG
2026-04-12 22:00:00,METAR LEMG 122200Z 29015KT 260V330 9999 FEW085 17/02 Q1013 NOSIG
2026-04-12 21:30:00,METAR LEMG 122130Z 29010KT 260V330 9999 FEW085 17/02 Q1013 NOSIG
2026-04-12 21:00:00,METAR LEMG 122100Z 30013KT 260V320 9999 SCT080 18/02 Q1013 NOSIG
2026-04-12 20:30:00,METAR LEMG 122030Z 30016G26KT 9999 SCT080 18/03 Q1012 NOSIG
2026-04-12 20:00:00,METAR LEMG 122000Z 30013KT 9999 BKN075 18/02 Q1011 NOSIG
2026-04-12 19:30:00,METAR LEMG 121930Z 30009KT 270V330 9999 BKN070 19/07 Q1011 NOSIG
2026-04-12 19:00:00,METAR LEMG 121900Z 28010KT 250V320 9999 SCT070 19/08 Q1011 NOSIG
2026-04-12 18:30:00,METAR LEMG 121830Z 30011KT 9999 SCT065 19/08 Q1010 NOSIG
2026-04-12 18:00:00,METAR LEMG 121800Z 29013G23KT 260V320 9999 SCT060 20/08 Q1010 NOSIG
2026-04-12 17:30:00,METAR LEMG 121730Z 30012KT 270V330 9999 FEW060 20/08 Q1010 NOSIG
2026-04-12 17:00:00,METAR LEMG 121700Z 29014KT 260V320 9999 FEW070 21/08 Q1010 NOSIG
2026-04-12 16:30:00,METAR LEMG 121630Z 31017G31KT 9999 FEW070 21/09 Q1010 NOSIG
2026-04-12 16:00:00,METAR LEMG 121600Z 30016G26KT 9999 FEW070 21/08 Q1010 NOSIG
2026-04-12 15:00:00,METAR LEMG 121500Z 30014G24KT 270V330 9999 FEW050 22/10 Q1010 NOSIG
2026-04-12 14:30:00,METAR LEMG 121430Z 32010KT 280V350 9999 FEW050 23/10 Q1010 NOSIG
2026-04-12 14:00:00,METAR LEMG 121400Z 33012KT 290V360 9999 SCT055 22/10 Q1010 NOSIG
2026-04-12 13:30:00,METAR LEMG 121330Z 33016KT 300V360 9999 SCT050 21/10 Q1010 NOSIG
2026-04-12 13:00:00,METAR LEMG 121300Z 33012KT 300V010 9999 SCT045 22/11 Q1010 NOSIG
2026-04-12 12:30:00,METAR LEMG 121230Z 32012KT 290V350 9999 SCT045 21/11 Q1010 NOSIG
2026-04-12 12:00:00,METAR LEMG 121200Z 32009KT 290V350 9999 FEW045 22/12 Q1010 NOSIG
2026-04-12 11:30:00,METAR LEMG 121130Z 32010KT 280V350 9999 FEW045 22/11 Q1010 NOSIG
2026-04-12 11:00:00,METAR LEMG 121100Z 31010KT 280V340 9999 FEW040 21/11 Q1011 NOSIG
2026-04-12 10:30:00,METAR LEMG 121030Z 30013KT 270V330 9999 FEW040 20/12 Q1011 NOSIG
2026-04-12 10:00:00,METAR LEMG 121000Z 27013KT 250V310 9999 FEW040 19/12 Q1011 NOSIG
2026-04-12 09:30:00,METAR LEMG 120930Z 29014KT 250V320 9999 FEW040 18/12 Q1010 NOSIG
2026-04-12 09:00:00,METAR LEMG 120900Z 29013KT 260V320 9999 FEW040 18/12 Q1010 NOSIG
2026-04-12 08:30:00,METAR LEMG 120830Z 30011KT 9999 FEW080 18/12 Q1010 NOSIG
2026-04-12 08:00:00,METAR LEMG 120800Z 30011KT 9999 FEW050 17/12 Q1010 NOSIG
2026-04-12 07:30:00,METAR LEMG 120730Z 29013KT 9999 FEW050 17/12 Q1010 NOSIG
2026-04-12 07:00:00,METAR LEMG 120700Z 29014KT 9999 FEW050 17/12 Q1010 NOSIG
2026-04-12 06:30:00,METAR LEMG 120630Z 29013KT 9999 FEW040 17/12 Q1009 NOSIG
2026-04-12 06:00:00,METAR LEMG 120600Z 28014KT 9999 FEW080 17/12 Q1009 NOSIG
2026-04-12 05:30:00,METAR LEMG 120530Z 29010KT 260V320 9999 FEW060 16/12 Q1008 NOSIG
2026-04-12 05:00:00,METAR LEMG 120500Z 29012KT 9999 FEW060 16/12 Q1008 NOSIG
2026-04-12 04:30:00,METAR LEMG 120430Z 29011KT 9999 FEW040 16/12 Q1008 NOSIG
2026-04-12 04:00:00,METAR LEMG 120400Z 29008KT 9999 FEW040 16/12 Q1008 NOSIG
2026-04-12 03:30:00,METAR LEMG 120330Z 29012KT 260V320 9999 SCT040 17/11 Q1008 NOSIG
2026-04-12 03:00:00,METAR LEMG 120300Z 28011KT 9999 FEW060 17/12 Q1008 NOSIG
2026-04-12 02:30:00,METAR LEMG 120230Z 29011KT 9999 SCT030 17/13 Q1008 NOSIG
2026-04-12 02:00:00,METAR LEMG 120200Z 34011KT 9999 SCT030 BKN040 19/13 Q1008 NOSIG
2026-04-12 01:30:00,METAR LEMG 120130Z 33010KT 9999 BKN040 19/12 Q1008 NOSIG
2026-04-12 01:00:00,METAR LEMG 120100Z 33007KT 9999 BKN040 19/12 Q1008 NOSIG
2026-04-12 00:30:00,METAR LEMG 120030Z 29007KT 9999 SCT040 18/13 Q1008 NOSIG
2026-04-12 00:00:00,METAR LEMG 120000Z 36003KT 320V050 9999 FEW045 18/13 Q1009 NOSIG
2026-04-11 23:30:00,METAR LEMG 112330Z 29004KT 9999 FEW050 18/14 Q1008 NOSIG
2026-04-11 23:00:00,METAR LEMG 112300Z 29006KT CAVOK 17/14 Q1008 NOSIG
2026-04-11 22:30:00,METAR LEMG 112230Z 29005KT 9999 FEW080 18/14 Q1009 NOSIG
2026-04-11 22:00:00,METAR LEMG 112200Z 29005KT 9999 FEW060 18/14 Q1009 NOSIG
2026-04-11 21:30:00,METAR LEMG 112130Z 31005KT 9999 FEW060 18/13 Q1009 NOSIG
2026-04-11 21:00:00,METAR LEMG 112100Z 29009KT 9999 FEW080 19/13 Q1009 NOSIG
2026-04-11 20:30:00,METAR LEMG 112030Z 28010KT 9999 FEW080 18/14 Q1008 NOSIG
2026-04-11 20:00:00,METAR LEMG 112000Z 30006KT 9999 FEW080 18/14 Q1008 NOSIG
2026-04-11 19:30:00,METAR LEMG 111930Z 32007KT 9999 FEW080 18/14 Q1008 NOSIG
2026-04-11 19:00:00,METAR LEMG 111900Z 28006KT 9999 -DZ FEW080 17/14 Q1008 NOSIG
2026-04-11 18:30:00,METAR LEMG 111830Z 00000KT 9999 FEW080 18/13 Q1008 NOSIG
2026-04-11 18:00:00,METAR LEMG 111800Z VRB02KT 9999 FEW080 17/14 Q1008 NOSIG
2026-04-11 17:30:00,METAR LEMG 111730Z 08006KT 020V150 9999 FEW080 18/14 Q1009 NOSIG
2026-04-11 17:00:00,METAR LEMG 111700Z VRB02KT 9999 FEW070 18/13 Q1009 NOSIG
2026-04-11 16:30:00,METAR LEMG 111630Z VRB02KT 9999 FEW040 17/15 Q1008 NOSIG
2026-04-11 16:00:00,METAR LEMG 111600Z 09006KT 060V120 9999 SCT050 17/15 Q1009 NOSIG
2026-04-11 15:30:00,METAR LEMG 111530Z 10006KT 050V210 9999 -DZ SCT050 19/14 Q1009 NOSIG
2026-04-11 15:00:00,METAR LEMG 111500Z 14007KT 100V190 9999 FEW035 SCT070 21/13 Q1009 NOSIG
2026-04-11 14:30:00,METAR LEMG 111430Z 14007KT 110V170 9999 SCT035 19/14 Q1009 NOSIG
2026-04-11 14:00:00,METAR LEMG 111400Z 15008G18KT 110V190 9999 SCT030 20/14 Q1009 NOSIG
2026-04-11 13:30:00,METAR LEMG 111330Z 11007KT 050V140 9999 SCT040 21/14 Q1009 NOSIG
2026-04-11 13:00:00,METAR LEMG 111300Z 11009KT 040V140 9999 SCT040 21/14 Q1010 NOSIG
2026-04-11 12:30:00,METAR LEMG 111230Z 01003KT 9999 SCT035 21/14 Q1010 NOSIG
2026-04-11 12:00:00,METAR LEMG 111200Z 36003KT 9999 SCT035 20/13 Q1010 NOSIG
2026-04-11 11:30:00,METAR LEMG 111130Z 12007KT 090V160 9999 FEW035 19/14 Q1011 NOSIG
2026-04-11 11:00:00,METAR LEMG 111100Z 12003KT 070V170 9999 FEW035 18/14 Q1011 NOSIG
2026-04-11 10:30:00,METAR LEMG 111030Z 12003KT 030V190 9999 FEW030 18/14 Q1011 NOSIG
2026-04-11 10:00:00,METAR LEMG 111000Z VRB04KT 9999 FEW040 18/14 Q1011 NOSIG
2026-04-11 09:30:00,METAR LEMG 110930Z 21002KT 9999 FEW050 18/12 Q1011 NOSIG
2026-04-11 09:00:00,METAR LEMG 110900Z VRB01KT 9999 FEW050 17/13 Q1011 NOSIG
2026-04-11 08:30:00,METAR LEMG 110830Z 27003KT 240V300 9999 SCT070 17/13 Q1011 NOSIG
2026-04-11 08:00:00,METAR LEMG 110800Z 29002KT 9999 SCT050 BKN070 17/13 Q1011 NOSIG
2026-04-11 07:30:00,METAR LEMG 110730Z 32004KT 280V030 9999 SCT050 17/12 Q1011 NOSIG
2026-04-11 07:00:00,METAR LEMG 110700Z 33008KT 9999 SCT050 17/12 Q1010 NOSIG
2026-04-11 06:30:00,METAR LEMG 110630Z 30008KT 260V350 9999 FEW055 SCT070 18/11 Q1010 NOSIG
2026-04-11 06:00:00,METAR LEMG 110600Z 28009KT 250V330 9999 SCT077 18/12 Q1009 NOSIG
2026-04-11 05:30:00,METAR LEMG 110530Z 27012KT 9999 FEW070 18/12 Q1009 NOSIG
2026-04-11 05:00:00,METAR LEMG 110500Z 27012KT 9999 FEW075 18/12 Q1009 NOSIG
2026-04-11 04:30:00,METAR LEMG 110430Z 27011KT 9999 FEW060 18/12 Q1010 NOSIG
2026-04-11 04:00:00,METAR LEMG 110400Z 29008KT 250V320 9999 FEW060 18/12 Q1010 NOSIG
2026-04-11 03:30:00,METAR LEMG 110330Z 27010KT 9999 FEW070 19/12 Q1010 NOSIG
2026-04-11 03:00:00,METAR LEMG 110300Z 27010KT CAVOK 18/12 Q1010 NOSIG
2026-04-11 02:30:00,METAR LEMG 110230Z 29010KT 260V320 CAVOK 18/12 Q1010 NOSIG
2026-04-11 02:00:00,METAR LEMG 110200Z 28010KT 260V320 CAVOK 19/13 Q1011 NOSIG
2026-04-11 01:30:00,METAR LEMG 110130Z 28007KT CAVOK 18/13 Q1011 NOSIG
2026-04-11 01:00:00,METAR LEMG 110100Z 26008KT 9999 FEW060 19/12 Q1011 NOSIG
2026-04-11 00:30:00,METAR LEMG 110030Z 27011KT 9999 FEW060 19/13 Q1011 NOSIG
2026-04-11 00:00:00,METAR LEMG 110000Z 27014KT 230V300 9999 FEW060 19/13 Q1011 NOSIG
2026-04-10 23:30:00,METAR LEMG 102330Z 28015KT 9999 FEW080 18/13 Q1011 NOSIG
2026-04-10 23:00:00,METAR LEMG 102300Z 26008KT 220V290 9999 FEW080 19/13 Q1012 RETS NOSIG
2026-04-10 22:30:00,METAR LEMG 102230Z 28012KT 9999 TS FEW050CB 19/13 Q1011 NOSIG
2026-04-10 22:00:00,METAR LEMG 102200Z 28013KT 9999 -TSRA FEW035CB 19/13 Q1011 NOSIG
2026-04-10 21:30:00,METAR LEMG 102130Z 27013KT 9999 TS FEW050CB 20/13 Q1011 NOSIG
2026-04-10 21:00:00,METAR LEMG 102100Z 27011KT 230V300 9999 TS FEW055CB 20/12 Q1010 NOSIG
2026-04-10 20:44:00,SPECI LEMG 102044Z 27010KT 230V320 9999 TS FEW055CB 20/11 Q1010 NOSIG
2026-04-10 20:30:00,METAR LEMG 102030Z 28006KT 230V330 9999 FEW055CB 20/11 Q1010 NOSIG
2026-04-10 20:00:00,METAR LEMG 102000Z 26007KT 210V290 9999 FEW050CB 18/12 Q1010 NOSIG
2026-04-10 19:30:00,METAR LEMG 101930Z 27003KT 9999 FEW055 18/13 Q1010 NOSIG
2026-04-10 19:00:00,METAR LEMG 101900Z 23003KT 200V360 9999 FEW060 17/12 Q1009 NOSIG
2026-04-10 18:30:00,METAR LEMG 101830Z 29001KT 9999 FEW040 18/12 Q1009 NOSIG
2026-04-10 18:00:00,METAR LEMG 101800Z 00000KT 9999 FEW040 20/13 Q1010 NOSIG
2026-04-10 17:30:00,METAR LEMG 101730Z 06004KT 360V120 CAVOK 21/12 Q1010 NOSIG
2026-04-10 17:00:00,METAR LEMG 101700Z VRB02KT 9999 FEW050 21/13 Q1010 NOSIG
2026-04-10 16:30:00,METAR LEMG 101630Z 20003KT 140V240 CAVOK 22/13 Q1010 NOSIG
2026-04-10 16:00:00,METAR LEMG 101600Z 17003KT 130V270 CAVOK 21/13 Q1009 NOSIG
2026-04-10 15:30:00,METAR LEMG 101530Z 18006KT 140V230 CAVOK 21/13 Q1009 NOSIG
2026-04-10 15:00:00,METAR LEMG 101500Z 17007KT 130V200 9999 FEW040 21/13 Q1010 NOSIG
2026-04-10 14:30:00,METAR LEMG 101430Z 13004KT 9999 FEW040 21/12 Q1010 NOSIG
2026-04-10 14:00:00,METAR LEMG 101400Z 18008KT 140V230 9999 FEW030 20/12 Q1011 NOSIG
2026-04-10 13:30:00,METAR LEMG 101330Z 19011G22KT 140V250 9999 FEW040 19/11 Q1011 NOSIG
2026-04-10 13:00:00,METAR LEMG 101300Z 03013KT 360V060 9999 FEW030 19/12 Q1010 NOSIG
2026-04-10 12:30:00,METAR LEMG 101230Z 17009KT 130V220 CAVOK 20/12 Q1012 NOSIG
2026-04-10 12:00:00,METAR LEMG 101200Z 13005KT 090V170 CAVOK 20/12 Q1012 NOSIG
2026-04-10 11:30:00,METAR LEMG 101130Z 16004KT CAVOK 20/11 Q1012 NOSIG
2026-04-10 11:00:00,METAR LEMG 101100Z 12005KT CAVOK 20/11 Q1013 NOSIG
2026-04-10 10:30:00,METAR LEMG 101030Z 30004KT 210V010 CAVOK 20/13 Q1013 NOSIG
2026-04-10 10:00:00,METAR LEMG 101000Z 29006KT 250V320 9999 FEW040 18/14 Q1013 NOSIG
2026-04-10 09:30:00,METAR LEMG 100930Z 27007KT 230V320 9999 FEW040 17/13 Q1014 NOSIG
2026-04-10 09:00:00,METAR LEMG 100900Z 32004KT 240V350 9999 FEW025TCU 16/13 Q1014 NOSIG
2026-04-10 08:30:00,METAR LEMG 100830Z 31004KT 280V360 CAVOK 15/13 Q1013 NOSIG
2026-04-10 08:00:00,METAR LEMG 100800Z 30008KT CAVOK 14/13 Q1013 NOSIG
2026-04-10 07:30:00,METAR LEMG 100730Z 30006KT 9999 FEW008 14/12 Q1013 NOSIG
2026-04-10 07:00:00,METAR LEMG 100700Z 32003KT 290V350 9999 FEW008 14/12 Q1013 NOSIG
2026-04-10 06:30:00,METAR LEMG 100630Z 30007KT 9999 FEW010 14/12 Q1012 NOSIG
2026-04-10 06:00:00,METAR LEMG 100600Z 30006KT 260V320 CAVOK 13/12 Q1012 NOSIG
2026-04-10 05:30:00,METAR LEMG 100530Z 31006KT CAVOK 13/12 Q1012 NOSIG
2026-04-10 05:00:00,METAR LEMG 100500Z 30008KT CAVOK 13/12 Q1012 NOSIG
2026-04-10 04:30:00,METAR LEMG 100430Z 27005KT 230V290 CAVOK 13/12 Q1012 NOSIG
2026-04-10 04:00:00,METAR LEMG 100400Z 29006KT CAVOK 13/12 Q1012 NOSIG
2026-04-10 03:30:00,METAR LEMG 100330Z 29007KT CAVOK 13/12 Q1012 NOSIG
2026-04-10 03:00:00,METAR LEMG 100300Z 30007KT CAVOK 13/12 Q1012 NOSIG
2026-04-10 02:30:00,METAR LEMG 100230Z 29006KT CAVOK 13/12 Q1012 NOSIG
2026-04-10 02:00:00,METAR LEMG 100200Z 30004KT CAVOK 13/12 Q1013 NOSIG
2026-04-10 01:30:00,METAR LEMG 100130Z 29006KT CAVOK 14/11 Q1013 NOSIG
2026-04-10 01:00:00,METAR LEMG 100100Z 28007KT CAVOK 14/11 Q1013 NOSIG
2026-04-10 00:30:00,METAR LEMG 100030Z 28008KT CAVOK 15/12 Q1013 NOSIG
2026-04-10 00:00:00,METAR LEMG 100000Z 30006KT CAVOK 14/12 Q1013 NOSIG
2026-04-09 23:30:00,METAR LEMG 092330Z 29007KT CAVOK 15/12 Q1014 NOSIG
2026-04-09 23:00:00,METAR LEMG 092300Z 30006KT CAVOK 15/12 Q1014 NOSIG
2026-04-09 22:30:00,METAR LEMG 092230Z 29005KT 280V340 CAVOK 16/12 Q1013 NOSIG
2026-04-09 22:00:00,METAR LEMG 092200Z 27004KT CAVOK 17/12 Q1013 NOSIG
2026-04-09 21:30:00,METAR LEMG 092130Z 27004KT CAVOK 17/12 Q1013 NOSIG
2026-04-09 21:00:00,METAR LEMG 092100Z 28004KT 240V300 9999 FEW070 17/12 Q1013 NOSIG
2026-04-09 20:30:00,METAR LEMG 092030Z 28004KT 230V300 9999 FEW050 SCT075 16/12 Q1013 NOSIG
2026-04-09 20:00:00,METAR LEMG 092000Z 34002KT 9999 FEW045 SCT070 17/11 Q1012 NOSIG
2026-04-09 19:30:00,METAR LEMG 091930Z VRB02KT 9999 FEW055 SCT075 17/12 Q1012 NOSIG
2026-04-09 19:00:00,METAR LEMG 091900Z 17004KT 9999 FEW055 SCT075 18/11 Q1012 NOSIG
2026-04-09 18:30:00,METAR LEMG 091830Z 16004KT 120V210 9999 FEW055 SCT080 18/12 Q1012 NOSIG
2026-04-09 18:00:00,METAR LEMG 091800Z 17004KT 130V210 9999 FEW055 SCT075 18/12 Q1011 NOSIG
2026-04-09 17:30:00,METAR LEMG 091730Z 16006KT 130V190 9999 FEW060 19/12 Q1011 NOSIG
2026-04-09 17:00:00,METAR LEMG 091700Z 15007KT 110V200 9999 FEW060 19/12 Q1011 NOSIG
2026-04-09 16:30:00,METAR LEMG 091630Z 15006KT 110V180 9999 FEW060 19/13 Q1011 NOSIG
2026-04-09 16:00:00,METAR LEMG 091600Z 16007KT 110V240 9999 FEW030 19/13 Q1011 NOSIG
2026-04-09 15:30:00,METAR LEMG 091530Z 17009KT 130V200 9999 FEW030 19/13 Q1011 NOSIG
2026-04-09 15:00:00,METAR LEMG 091500Z 16007KT 120V220 9999 FEW030 20/14 Q1012 NOSIG
2026-04-09 14:30:00,METAR LEMG 091430Z VRB05KT 9999 FEW030 20/13 Q1012 NOSIG
2026-04-09 14:00:00,METAR LEMG 091400Z 14006KT 110V200 9999 FEW030 19/12 Q1013 NOSIG
2026-04-09 13:30:00,METAR LEMG 091330Z 15005KT 070V230 9999 FEW030 20/12 Q1013 NOSIG
2026-04-09 13:00:00,METAR LEMG 091300Z 15007KT 100V220 9999 FEW030 20/12 Q1013 NOSIG
2026-04-09 12:30:00,METAR LEMG 091230Z 17007KT 110V240 9999 FEW030 20/13 Q1014 NOSIG
2026-04-09 12:00:00,METAR LEMG 091200Z 16008KT 120V210 9999 FEW030 20/14 Q1014 NOSIG
2026-04-09 11:30:00,METAR LEMG 091130Z 16009KT 110V220 9999 FEW028 19/13 Q1014 NOSIG
2026-04-09 11:00:00,METAR LEMG 091100Z 16008KT 110V200 9999 SCT024 19/13 Q1015 NOSIG
2026-04-09 10:30:00,METAR LEMG 091030Z 15005KT 070V210 9999 BKN024 18/13 Q1015 NOSIG
2026-04-09 10:00:00,METAR LEMG 091000Z 34003KT 9999 BKN024 17/12 Q1015 NOSIG
2026-04-09 09:30:00,METAR LEMG 090930Z 30005KT 270V340 9999 BKN025 16/12 Q1015 NOSIG
2026-04-09 09:00:00,METAR LEMG 090900Z 29008KT 9999 BKN025 15/11 Q1015 NOSIG
2026-04-09 08:30:00,METAR LEMG 090830Z 29009KT 270V330 9999 BKN030 14/10 Q1015 NOSIG
2026-04-09 08:00:00,METAR LEMG 090800Z 30008KT 270V330 9999 BKN030 14/10 Q1015 NOSIG
2026-04-09 07:30:00,METAR LEMG 090730Z 28009KT 250V330 9999 BKN033 13/10 Q1015 NOSIG
2026-04-09 07:00:00,METAR LEMG 090700Z 32008KT 9999 SCT035 12/10 Q1015 NOSIG
2026-04-09 06:30:00,METAR LEMG 090630Z 31009KT 9999 FEW040 12/10 Q1014 NOSIG
2026-04-09 06:00:00,METAR LEMG 090600Z 31006KT 9999 FEW035 12/10 Q1014 NOSIG
2026-04-09 05:30:00,METAR LEMG 090530Z 30009KT 9999 FEW035 12/09 Q1014 NOSIG
2026-04-09 05:00:00,METAR LEMG 090500Z 30009KT 260V330 9999 FEW035 13/09 Q1014 NOSIG
2026-04-09 04:30:00,METAR LEMG 090430Z 30008KT 270V330 9999 FEW035 12/09 Q1014 NOSIG
2026-04-09 04:00:00,METAR LEMG 090400Z 30010KT 9999 FEW035 12/10 Q1014 NOSIG
2026-04-09 03:30:00,METAR LEMG 090330Z 30009KT 9999 FEW035 12/10 Q1014 NOSIG
2026-04-09 03:00:00,METAR LEMG 090300Z 28011KT 250V310 9999 SCT035 14/09 Q1015 NOSIG
2026-04-09 02:30:00,METAR LEMG 090230Z 29010KT 260V320 9999 SCT035 14/09 Q1015 NOSIG
2026-04-09 02:00:00,METAR LEMG 090200Z 27014KT 9999 FEW070 14/09 Q1015 NOSIG
2026-04-09 01:30:00,METAR LEMG 090130Z 27011KT 240V300 9999 FEW065 14/09 Q1016 NOSIG
2026-04-09 01:00:00,METAR LEMG 090100Z 28010KT 250V320 9999 FEW065 14/09 Q1016 NOSIG
2026-04-09 00:30:00,METAR LEMG 090030Z 28012KT 250V320 9999 FEW015 SCT065 14/09 Q1016 NOSIG
2026-04-09 00:00:00,METAR LEMG 090000Z 28014KT 9999 FEW015 SCT060 14/09 Q1017 NOSIG
2026-04-08 23:30:00,METAR LEMG 082330Z 28013KT 240V310 9999 FEW015 SCT060 14/09 Q1017 NOSIG
2026-04-08 23:00:00,METAR LEMG 082300Z 28011KT 9999 FEW015 SCT080 14/09 Q1017 NOSIG
2026-04-08 22:30:00,METAR LEMG 082230Z 29010KT 260V320 9999 FEW015 SCT080 13/09 Q1017 NOSIG
2026-04-08 22:00:00,METAR LEMG 082200Z 28011KT 9999 FEW015 SCT080 13/10 Q1017 NOSIG
2026-04-08 21:30:00,METAR LEMG 082130Z 29007KT 250V320 9999 FEW010 SCT080 13/10 Q1018 NOSIG
2026-04-08 21:00:00,METAR LEMG 082100Z 30007KT 260V330 9999 FEW010 SCT080 13/10 Q1018 NOSIG
2026-04-08 20:30:00,METAR LEMG 082030Z 28006KT 250V310 9999 -RA SCT080 13/09 Q1018 NOSIG
2026-04-08 20:00:00,METAR LEMG 082000Z 26008KT 230V290 9999 -RA SCT070 13/09 Q1017 NOSIG
2026-04-08 19:30:00,METAR LEMG 081930Z 28010KT 250V310 9999 -RA FEW050 SCT080 13/09 Q1017 NOSIG
2026-04-08 19:00:00,METAR LEMG 081900Z 28011KT 9999 -RA FEW050 SCT080 13/09 Q1017 NOSIG
2026-04-08 18:30:00,METAR LEMG 081830Z 27013KT 240V300 9999 -RA FEW040 BKN070 13/09 Q1017 NOSIG
2026-04-08 18:00:00,METAR LEMG 081800Z 28013KT 9999 -RA FEW045 BKN070 14/10 Q1017 NOSIG
2026-04-08 17:30:00,METAR LEMG 081730Z 27010KT 9999 -RA FEW015 BKN070 14/11 Q1018 NOSIG
2026-04-08 17:00:00,METAR LEMG 081700Z 28008KT 240V300 9999 -RA FEW010 BKN075 14/11 Q1018 NOSIG
2026-04-08 16:30:00,METAR LEMG 081630Z 27006KT 240V300 9999 -RA FEW010 BKN070 14/11 Q1018 NOSIG
2026-04-08 16:00:00,METAR LEMG 081600Z 29006KT 9999 FEW010 BKN070 14/12 Q1018 NOSIG
2026-04-08 15:30:00,METAR LEMG 081530Z 28005KT 250V330 9999 FEW010 BKN070 14/11 Q1018 NOSIG
2026-04-08 15:00:00,METAR LEMG 081500Z 28007KT 250V320 9999 FEW010 SCT025 BKN070 14/12 Q1019 NOSIG
2026-04-08 14:30:00,METAR LEMG 081430Z 28004KT 260V320 9999 FEW010 SCT050 BKN070 14/13 Q1019 NOSIG
2026-04-08 14:00:00,METAR LEMG 081400Z 16001KT 8000 -RA FEW010 SCT050 BKN070 13/12 Q1019 NOSIG
2026-04-08 13:30:00,METAR LEMG 081330Z VRB02KT 7000 -RA FEW010 SCT050 BKN075 13/13 Q1019 RERA NOSIG
2026-04-08 13:22:00,SPECI LEMG 081322Z VRB02KT 7000 -RA FEW010 SCT025 BKN075 13/12 Q1019 RERA NOSIG
2026-04-08 13:00:00,METAR LEMG 081300Z VRB02KT 4000 RA SCT012 SCT025 BKN080 13/12 Q1019 BECMG 5000 -RA
2026-04-08 12:30:00,METAR LEMG 081230Z 18003KT 130V240 4000 RA SCT010 SCT025 BKN070 12/12 Q1020 NOSIG
2026-04-08 12:00:00,METAR LEMG 081200Z 16006KT 4000 RA SCT010 BKN018 BKN070 13/12 Q1019 NOSIG
2026-04-08 11:30:00,METAR LEMG 081130Z COR 14007KT 4000 RA SCT007 BKN018 BKN070 13/12 Q1019 NOSIG
2026-04-08 11:00:00,METAR LEMG 081100Z 08006KT 040V140 3500 RA SCT005 BKN020 OVC070 13/13 Q1019 NOSIG
2026-04-08 10:30:00,METAR LEMG 081030Z 34003KT 280V050 3500 RA SCT005 BKN025 OVC070 13/12 Q1019 NOSIG
2026-04-08 10:00:00,METAR LEMG 081000Z 33003KT 290V030 5000 -RA SCT005 BKN025 OVC070 13/12 Q1019 RERA NOSIG
2026-04-08 09:49:00,SPECI LEMG 080949Z 32003KT 290V010 5000 -RA FEW005 BKN030 OVC070 13/12 Q1019 RERA NOSIG
2026-04-08 09:30:00,METAR LEMG 080930Z 27004KT 230V320 3000 +RA FEW008 BKN030 OVC070 13/12 Q1019 NOSIG
2026-04-08 09:00:00,METAR LEMG 080900Z 29007KT 260V320 4000 RA FEW009 BKN030 OVC070 13/12 Q1018 NOSIG
2026-04-08 08:30:00,METAR LEMG 080830Z 26010KT 3500 +RA SCT006 BKN032 OVC070 13/12 Q1018 NOSIG
2026-04-08 08:00:00,METAR LEMG 080800Z COR 30005KT 3500 +RA FEW005 BKN030 OVC075 14/13 Q1017 NOSIG
2026-04-08 07:30:00,METAR LEMG 080730Z 29005KT 3500 +RA FEW010 SCT025 OVC070 14/13 Q1017 NOSIG
2026-04-08 07:00:00,METAR LEMG 080700Z 29004KT 3500 RA FEW010 BKN028 14/13 Q1017 NOSIG
2026-04-08 06:30:00,METAR LEMG 080630Z 31002KT 9000 -RA FEW016 SCT030 BKN075 14/13 Q1016 NOSIG
2026-04-08 06:00:00,METAR LEMG 080600Z VRB02KT 9000 -RA FEW015 SCT032 BKN075 14/13 Q1016 NOSIG
2026-04-08 05:30:00,METAR LEMG 080530Z 27005KT 240V300 9000 -RA FEW015 BKN075 14/14 Q1015 NOSIG
2026-04-08 05:00:00,METAR LEMG 080500Z 26006KT 230V290 9999 FEW015 BKN075 14/13 Q1015 NOSIG
2026-04-08 04:30:00,METAR LEMG 080430Z COR 29005KT 260V350 9999 SCT014 BKN075 14/13 Q1015 NOSIG
2026-04-08 04:00:00,METAR LEMG 080400Z 05001KT 8000 -RA SCT012 SCT030 BKN075 14/13 Q1016 RERA NOSIG
2026-04-08 03:30:00,METAR LEMG 080330Z 05003KT 020V080 6000 RA SCT010 SCT026 BKN070 14/14 Q1016 NOSIG
2026-04-08 03:00:00,METAR LEMG 080300Z 07007KT 4500 RA SCT008 SCT026 BKN070 14/14 Q1016 NOSIG
2026-04-08 02:30:00,METAR LEMG 080230Z 08004KT 3500 RA SCT008 BKN026 14/14 Q1017 NOSIG
2026-04-08 02:00:00,METAR LEMG 080200Z 12003KT 080V150 3500 RA SCT008 BKN026 14/14 Q1017 NOSIG
2026-04-08 01:30:00,METAR LEMG 080130Z 07001KT 4000 RA FEW012 SCT030 BKN070 14/14 Q1017 NOSIG
2026-04-08 01:00:00,METAR LEMG 080100Z VRB01KT 4000 RA FEW012 SCT030 BKN070 14/14 Q1017 NOSIG
2026-04-08 00:30:00,METAR LEMG 080030Z 20001KT 4500 RA FEW010 SCT028 BKN070 14/14 Q1018 NOSIG
2026-04-08 00:00:00,METAR LEMG 080000Z 29003KT 250V330 4500 RA FEW010 SCT028 BKN070 14/14 Q1018 NOSIG
2026-04-07 23:49:00,SPECI LEMG 072349Z VRB02KT 4500 RA FEW010 SCT028 BKN070 14/14 Q1018 NOSIG
2026-04-07 23:30:00,METAR LEMG 072330Z VRB01KT 6000 -RA FEW012 SCT030 BKN052 14/13 Q1018 NOSIG
2026-04-07 23:00:00,METAR LEMG 072300Z 30003KT 270V330 4500 RA FEW020 BKN038 13/13 Q1019 NOSIG
2026-04-07 22:30:00,METAR LEMG 072230Z 28005KT 250V330 8000 -SHRA FEW022 FEW026TCU BKN038 14/13 Q1018 RESHRA NOSIG
2026-04-07 22:00:00,METAR LEMG 072200Z 34008KT 6000 SHRA FEW020 FEW026TCU BKN038 14/12 Q1018 NOSIG
2026-04-07 21:30:00,METAR LEMG 072130Z 20008KT 170V230 4500 SHRA FEW024 FEW026CB BKN038 14/12 Q1019 RETS NOSIG
2026-04-07 21:11:00,SPECI LEMG 072111Z 16011KT 140V200 3500 TSRA FEW024 SCT026CB BKN038 14/11 Q1019 NOSIG
2026-04-07 21:00:00,METAR LEMG 072100Z 30003KT 190V340 8000 -TSRA FEW024 FEW026CB BKN047 16/12 Q1018 RESHRA NOSIG
2026-04-07 20:49:00,SPECI LEMG 072049Z 29005KT 250V320 6000 TSRA FEW024 FEW026CB BKN047 16/12 Q1018 NOSIG
2026-04-07 20:30:00,METAR LEMG 072030Z 28005KT 260V320 9999 VCSH FEW024 FEW026TCU BKN047 16/11 Q1017 NOSIG
2026-04-07 20:00:00,METAR LEMG 072000Z 28005KT 250V340 9999 FEW080 16/11 Q1016 NOSIG
2026-04-07 19:30:00,METAR LEMG 071930Z VRB02KT 9999 FEW080 17/11 Q1016 NOSIG
2026-04-07 19:00:00,METAR LEMG 071900Z 16004KT 120V200 CAVOK 17/11 Q1016 NOSIG
2026-04-07 18:30:00,METAR LEMG 071830Z 15006KT 120V210 CAVOK 17/10 Q1016 NOSIG
2026-04-07 18:00:00,METAR LEMG 071800Z 14007KT 110V170 CAVOK 18/11 Q1016 NOSIG
2026-04-07 17:30:00,METAR LEMG 071730Z 15007KT 110V200 CAVOK 18/11 Q1016 NOSIG
2026-04-07 17:00:00,METAR LEMG 071700Z 14007KT 100V160 CAVOK 19/11 Q1016 NOSIG
2026-04-07 16:30:00,METAR LEMG 071630Z 13008KT CAVOK 19/11 Q1016 NOSIG
2026-04-07 16:00:00,METAR LEMG 071600Z 14009KT CAVOK 19/11 Q1017 NOSIG
2026-04-07 15:30:00,METAR LEMG 071530Z 13008KT CAVOK 19/12 Q1017 NOSIG
2026-04-07 15:00:00,METAR LEMG 071500Z 15007KT 120V190 CAVOK 19/12 Q1017 NOSIG
2026-04-07 14:30:00,METAR LEMG 071430Z 15008KT 110V190 CAVOK 19/12 Q1018 NOSIG
2026-04-07 14:00:00,METAR LEMG 071400Z 15008KT 120V200 9999 FEW055 18/12 Q1018 NOSIG
2026-04-07 13:30:00,METAR LEMG 071330Z 15007KT 120V190 9999 VCSH FEW052 FEW055TCU 18/11 Q1018 NOSIG
2026-04-07 13:00:00,METAR LEMG 071300Z 15007KT 110V190 9999 FEW055 19/11 Q1018 NOSIG
2026-04-07 12:30:00,METAR LEMG 071230Z 17007KT 140V210 9999 -SHRA FEW050 FEW055TCU 19/12 Q1019 NOSIG
2026-04-07 12:00:00,METAR LEMG 071200Z 18008KT 140V220 9999 -SHRA FEW052 FEW055TCU 19/11 Q1019 NOSIG
2026-04-07 11:30:00,METAR LEMG 071130Z 16007KT 120V210 CAVOK 19/11 Q1019 NOSIG
2026-04-07 11:00:00,METAR LEMG 071100Z 16007KT 130V200 CAVOK 19/11 Q1019 NOSIG
2026-04-07 10:30:00,METAR LEMG 071030Z 13007KT 100V160 CAVOK 19/11 Q1019 NOSIG
2026-04-07 10:00:00,METAR LEMG 071000Z 09009KT 070V140 CAVOK 20/12 Q1019 NOSIG
2026-04-07 09:30:00,METAR LEMG 070930Z 08012KT 050V110 CAVOK 18/13 Q1019 NOSIG
2026-04-07 09:00:00,METAR LEMG 070900Z 07008KT 040V100 CAVOK 19/12 Q1020 NOSIG
2026-04-07 08:30:00,METAR LEMG 070830Z 24003KT 9999 FEW018 17/11 Q1021 NOSIG
2026-04-07 08:00:00,METAR LEMG 070800Z 29004KT 240V340 9999 -SHRA FEW016 FEW060TCU SCT070 16/10 Q1021 NOSIG
2026-04-07 07:30:00,METAR LEMG 070730Z 18006KT 140V250 9999 FEW016 17/11 Q1020 NOSIG
2026-04-07 07:00:00,METAR LEMG 070700Z 17005KT 140V210 9999 FEW020 16/11 Q1019 NOSIG
2026-04-07 06:30:00,METAR LEMG 070630Z 16006KT 130V200 CAVOK 16/11 Q1019 NOSIG
2026-04-07 06:00:00,METAR LEMG 070600Z 17004KT 120V220 CAVOK 16/10 Q1018 NOSIG
2026-04-07 05:30:00,METAR LEMG 070530Z VRB02KT CAVOK 15/09 Q1018 NOSIG
2026-04-07 05:00:00,METAR LEMG 070500Z VRB02KT 9999 FEW080 15/09 Q1018 NOSIG
2026-04-07 04:30:00,METAR LEMG 070430Z 33004KT 280V350 9999 FEW080 16/09 Q1018 NOSIG
2026-04-07 04:00:00,METAR LEMG 070400Z 29008KT 9999 FEW080 16/09 Q1018 NOSIG
2026-04-07 03:30:00,METAR LEMG 070330Z 29006KT 250V330 9999 FEW080 15/09 Q1018 NOSIG
2026-04-07 03:00:00,METAR LEMG 070300Z 32005KT 9999 FEW080 15/09 Q1018 NOSIG
2026-04-07 02:30:00,METAR LEMG 070230Z 32004KT 280V350 9999 FEW080 15/09 Q1018 NOSIG
2026-04-07 02:00:00,METAR LEMG 070200Z 28007KT 9999 FEW080 15/09 Q1019 NOSIG
2026-04-07 01:30:00,METAR LEMG 070130Z 28007KT CAVOK 15/09 Q1020 NOSIG
2026-04-07 01:00:00,METAR LEMG 070100Z 30005KT CAVOK 15/10 Q1021 NOSIG
2026-04-07 00:30:00,METAR LEMG 070030Z 00000KT CAVOK 15/10 Q1021 NOSIG
2026-04-07 00:00:00,METAR LEMG 070000Z VRB01KT CAVOK 15/10 Q1021 NOSIG
2026-04-06 23:30:00,METAR LEMG 062330Z VRB01KT CAVOK 16/10 Q1021 NOSIG
2026-04-06 23:00:00,METAR LEMG 062300Z 11003KT CAVOK 16/10 Q1021 NOSIG
2026-04-06 22:30:00,METAR LEMG 062230Z 16002KT CAVOK 16/10 Q1021 NOSIG
2026-04-06 22:00:00,METAR LEMG 062200Z 14003KT CAVOK 16/10 Q1021 NOSIG
2026-04-06 21:30:00,METAR LEMG 062130Z 11004KT 080V140 CAVOK 17/09 Q1021 NOSIG
2026-04-06 21:00:00,METAR LEMG 062100Z 14004KT 110V170 CAVOK 17/09 Q1021 NOSIG
2026-04-06 20:30:00,METAR LEMG 062030Z 16004KT 120V210 CAVOK 17/09 Q1021 NOSIG
2026-04-06 20:00:00,METAR LEMG 062000Z 15004KT CAVOK 17/09 Q1021 NOSIG
2026-04-06 19:30:00,METAR LEMG 061930Z 11003KT 010V160 CAVOK 17/09 Q1020 NOSIG
2026-04-06 19:00:00,METAR LEMG 061900Z VRB02KT CAVOK 17/08 Q1020 NOSIG
2026-04-06 18:30:00,METAR LEMG 061830Z 16003KT 120V210 CAVOK 18/09 Q1020 NOSIG
2026-04-06 18:00:00,METAR LEMG 061800Z 13003KT 080V160 CAVOK 18/09 Q1020 NOSIG
2026-04-06 17:30:00,METAR LEMG 061730Z 15004KT 120V210 CAVOK 18/09 Q1020 NOSIG
2026-04-06 17:00:00,METAR LEMG 061700Z 14004KT CAVOK 18/09 Q1020 NOSIG
2026-04-06 16:30:00,METAR LEMG 061630Z 11007KT 070V160 CAVOK 19/09 Q1020 NOSIG
2026-04-06 16:00:00,METAR LEMG 061600Z 13006KT 080V200 CAVOK 19/09 Q1020 NOSIG
2026-04-06 15:30:00,METAR LEMG 061530Z 14007KT 110V170 CAVOK 20/08 Q1020 NOSIG
2026-04-06 15:00:00,METAR LEMG 061500Z 12007KT 100V160 CAVOK 20/08 Q1020 NOSIG
2026-04-06 14:30:00,METAR LEMG 061430Z 15008KT 090V200 CAVOK 20/07 Q1021 NOSIG
2026-04-06 14:00:00,METAR LEMG 061400Z 15008KT 090V230 CAVOK 21/07 Q1021 NOSIG
2026-04-06 13:30:00,METAR LEMG 061330Z 15008KT 100V200 CAVOK 21/08 Q1021 NOSIG
2026-04-06 13:00:00,METAR LEMG 061300Z 14008KT 110V190 CAVOK 21/07 Q1021 NOSIG
2026-04-06 12:30:00,METAR LEMG 061230Z 13008KT 080V190 CAVOK 21/07 Q1022 NOSIG
2026-04-06 12:00:00,METAR LEMG 061200Z 15006KT 040V210 CAVOK 21/07 Q1022 NOSIG
2026-04-06 11:30:00,METAR LEMG 061130Z 12006KT 070V180 CAVOK 21/07 Q1022 NOSIG
2026-04-06 11:00:00,METAR LEMG 061100Z 13005KT 060V190 CAVOK 21/07 Q1023 NOSIG
2026-04-06 10:30:00,METAR LEMG 061030Z 13005KT 030V200 CAVOK 21/06 Q1023 NOSIG
2026-04-06 10:00:00,METAR LEMG 061000Z VRB04KT CAVOK 21/05 Q1023 NOSIG
2026-04-06 09:30:00,METAR LEMG 060930Z 35003KT 260V070 CAVOK 20/06 Q1023 NOSIG
2026-04-06 09:00:00,METAR LEMG 060900Z 28005KT CAVOK 18/07 Q1023 NOSIG
2026-04-06 08:30:00,METAR LEMG 060830Z 29006KT 260V320 CAVOK 16/06 Q1023 NOSIG
2026-04-06 08:00:00,METAR LEMG 060800Z 28007KT 250V310 CAVOK 15/05 Q1023 NOSIG
2026-04-06 07:30:00,METAR LEMG 060730Z 28008KT CAVOK 13/05 Q1023 NOSIG
2026-04-06 07:00:00,METAR LEMG 060700Z 28009KT CAVOK 12/04 Q1023 NOSIG
2026-04-06 06:30:00,METAR LEMG 060630Z 28008KT CAVOK 11/04 Q1023 NOSIG
2026-04-06 06:00:00,METAR LEMG 060600Z 27009KT CAVOK 10/04 Q1022 NOSIG
2026-04-06 05:30:00,METAR LEMG 060530Z 29008KT CAVOK 10/03 Q1022 NOSIG
2026-04-06 05:00:00,METAR LEMG 060500Z 28009KT CAVOK 11/04 Q1022 NOSIG
2026-04-06 04:30:00,METAR LEMG 060430Z 28008KT CAVOK 10/04 Q1022 NOSIG
2026-04-06 04:00:00,METAR LEMG 060400Z 27008KT CAVOK 10/04 Q1023 NOSIG
2026-04-06 03:30:00,METAR LEMG 060330Z 28008KT CAVOK 10/04 Q1023 NOSIG
2026-04-06 03:00:00,METAR LEMG 060300Z 29010KT CAVOK 10/04 Q1023 NOSIG
2026-04-06 02:30:00,METAR LEMG 060230Z 29009KT CAVOK 10/04 Q1023 NOSIG
2026-04-06 02:00:00,METAR LEMG 060200Z 29008KT CAVOK 10/04 Q1023 NOSIG
2026-04-06 01:30:00,METAR LEMG 060130Z 28009KT CAVOK 10/04 Q1024 NOSIG
2026-04-06 01:00:00,METAR LEMG 060100Z 30008KT CAVOK 10/04 Q1024 NOSIG
2026-04-06 00:30:00,METAR LEMG 060030Z 29008KT CAVOK 12/04 Q1024 NOSIG
2026-04-06 00:00:00,METAR LEMG 060000Z 28008KT CAVOK 12/05 Q1024 NOSIG
2026-04-05 23:30:00,METAR LEMG 052330Z 28008KT CAVOK 13/05 Q1024 NOSIG
2026-04-05 23:00:00,METAR LEMG 052300Z 29008KT CAVOK 13/05 Q1024 NOSIG
2026-04-05 22:30:00,METAR LEMG 052230Z 28006KT CAVOK 13/06 Q1024 NOSIG
2026-04-05 22:00:00,METAR LEMG 052200Z 29005KT 270V330 CAVOK 13/06 Q1024 NOSIG
2026-04-05 21:30:00,METAR LEMG 052130Z 28004KT CAVOK 13/06 Q1024 NOSIG
2026-04-05 21:00:00,METAR LEMG 052100Z 21003KT 160V290 CAVOK 14/06 Q1024 NOSIG
2026-04-05 20:30:00,METAR LEMG 052030Z 19003KT CAVOK 14/06 Q1023 NOSIG
2026-04-05 20:00:00,METAR LEMG 052000Z 18004KT 150V210 CAVOK 15/07 Q1023 NOSIG
2026-04-05 19:30:00,METAR LEMG 051930Z VRB01KT CAVOK 15/07 Q1023 NOSIG
2026-04-05 19:00:00,METAR LEMG 051900Z 13002KT CAVOK 16/07 Q1022 NOSIG
2026-04-05 18:30:00,METAR LEMG 051830Z 13005KT 080V150 CAVOK 17/07 Q1022 NOSIG
2026-04-05 18:00:00,METAR LEMG 051800Z 13006KT CAVOK 18/07 Q1022 NOSIG
2026-04-05 17:30:00,METAR LEMG 051730Z 13005KT 090V190 CAVOK 19/06 Q1022 NOSIG
2026-04-05 17:00:00,METAR LEMG 051700Z 13005KT 080V160 CAVOK 19/06 Q1022 NOSIG
2026-04-05 16:30:00,METAR LEMG 051630Z 13006KT 100V170 CAVOK 19/05 Q1022 NOSIG
2026-04-05 16:00:00,METAR LEMG 051600Z 13007KT 100V160 CAVOK 20/04 Q1022 NOSIG
2026-04-05 15:30:00,METAR LEMG 051530Z 13007KT 100V160 CAVOK 20/05 Q1022 NOSIG
2026-04-05 15:00:00,METAR LEMG 051500Z 12007KT 080V160 CAVOK 20/04 Q1023 NOSIG
2026-04-05 13:00:00,METAR LEMG 051300Z 11009KT 070V150 CAVOK 21/03 Q1024 NOSIG
2026-04-05 12:30:00,METAR LEMG 051230Z 11010KT 070V150 CAVOK 20/04 Q1024 NOSIG
2026-04-05 12:00:00,METAR LEMG 051200Z 11007KT 080V170 CAVOK 20/04 Q1025 NOSIG
2026-04-05 11:30:00,METAR LEMG 051130Z 12006KT 060V160 CAVOK 20/04 Q1025 NOSIG
2026-04-05 11:00:00,METAR LEMG 051100Z 12006KT 070V170 CAVOK 20/05 Q1025 NOSIG
2026-04-05 10:30:00,METAR LEMG 051030Z 12007KT 070V160 CAVOK 19/05 Q1025 NOSIG
2026-04-05 10:00:00,METAR LEMG 051000Z 11005KT 050V190 CAVOK 19/05 Q1025 NOSIG
2026-04-05 09:30:00,METAR LEMG 050930Z 06003KT CAVOK 18/07 Q1025 NOSIG
2026-04-05 09:00:00,METAR LEMG 050900Z 29006KT 260V330 CAVOK 16/05 Q1024 NOSIG
2026-04-05 08:30:00,METAR LEMG 050830Z VRB02KT CAVOK 16/04 Q1024 NOSIG
2026-04-05 08:00:00,METAR LEMG 050800Z 30003KT 270V340 CAVOK 13/02 Q1024 NOSIG
2026-04-05 07:30:00,METAR LEMG 050730Z 30005KT CAVOK 11/02 Q1024 NOSIG
2026-04-05 07:00:00,METAR LEMG 050700Z 29006KT CAVOK 09/02 Q1024 NOSIG
2026-04-05 06:30:00,METAR LEMG 050630Z 29005KT CAVOK 08/02 Q1023 NOSIG
2026-04-05 06:00:00,METAR LEMG 050600Z 28006KT CAVOK 08/01 Q1023 NOSIG
2026-04-05 05:30:00,METAR LEMG 050530Z 28008KT CAVOK 08/02 Q1023 NOSIG
2026-04-05 05:00:00,METAR LEMG 050500Z 29008KT CAVOK 07/02 Q1023 NOSIG
2026-04-05 04:30:00,METAR LEMG 050430Z 29010KT CAVOK 08/02 Q1023 NOSIG
2026-04-05 04:00:00,METAR LEMG 050400Z 29009KT CAVOK 08/02 Q1023 NOSIG
2026-04-05 03:30:00,METAR LEMG 050330Z 29010KT CAVOK 07/03 Q1023 NOSIG
2026-04-05 03:00:00,METAR LEMG 050300Z 30008KT CAVOK 07/03 Q1023 NOSIG
2026-04-05 02:30:00,METAR LEMG 050230Z 30009KT CAVOK 08/02 Q1023 NOSIG
2026-04-05 02:00:00,METAR LEMG 050200Z 28009KT CAVOK 10/03 Q1023 NOSIG
2026-04-05 01:30:00,METAR LEMG 050130Z 28010KT CAVOK 10/04 Q1024 NOSIG
2026-04-05 01:00:00,METAR LEMG 050100Z 28008KT CAVOK 10/04 Q1024 NOSIG
2026-04-05 00:30:00,METAR LEMG 050030Z 29009KT CAVOK 09/04 Q1024 NOSIG
2026-04-05 00:00:00,METAR LEMG 050000Z 29008KT CAVOK 10/05 Q1024 NOSIG
2026-04-04 23:30:00,METAR LEMG 042330Z 29008KT CAVOK 11/05 Q1024 NOSIG
2026-04-04 23:00:00,METAR LEMG 042300Z 28008KT CAVOK 11/06 Q1024 NOSIG
2026-04-04 22:30:00,METAR LEMG 042230Z 30007KT CAVOK 11/07 Q1024 NOSIG
2026-04-04 22:00:00,METAR LEMG 042200Z 30006KT CAVOK 11/07 Q1024 NOSIG
2026-04-04 21:30:00,METAR LEMG 042130Z 28005KT CAVOK 12/09 Q1024 NOSIG
2026-04-04 21:00:00,METAR LEMG 042100Z 28003KT CAVOK 12/09 Q1024 NOSIG
2026-04-04 20:30:00,METAR LEMG 042030Z 00000KT CAVOK 13/10 Q1024 NOSIG
2026-04-04 20:00:00,METAR LEMG 042000Z VRB02KT CAVOK 13/10 Q1024 NOSIG
2026-04-04 19:30:00,METAR LEMG 041930Z VRB02KT CAVOK 15/11 Q1023 NOSIG
2026-04-04 19:00:00,METAR LEMG 041900Z 16004KT 130V190 CAVOK 15/11 Q1023 NOSIG
2026-04-04 18:30:00,METAR LEMG 041830Z 14006KT 110V170 CAVOK 15/10 Q1023 NOSIG
2026-04-04 18:00:00,METAR LEMG 041800Z 13005KT 090V160 CAVOK 16/10 Q1023 NOSIG
2026-04-04 17:30:00,METAR LEMG 041730Z 11006KT 080V160 CAVOK 17/11 Q1023 NOSIG
2026-04-04 17:00:00,METAR LEMG 041700Z 12007KT 080V160 CAVOK 17/10 Q1023 NOSIG
2026-04-04 16:30:00,METAR LEMG 041630Z 13007KT 070V160 CAVOK 17/10 Q1023 NOSIG
2026-04-04 16:00:00,METAR LEMG 041600Z 11008KT 070V170 CAVOK 18/10 Q1023 NOSIG
2026-04-04 15:30:00,METAR LEMG 041530Z 12008KT 080V150 CAVOK 18/10 Q1024 NOSIG
2026-04-04 15:00:00,METAR LEMG 041500Z 12008KT 080V150 CAVOK 17/10 Q1024 NOSIG
2026-04-04 14:30:00,METAR LEMG 041430Z 12008KT 100V160 CAVOK 18/11 Q1024 NOSIG
2026-04-04 14:00:00,METAR LEMG 041400Z 13009KT 090V150 CAVOK 18/10 Q1024 NOSIG
2026-04-04 13:30:00,METAR LEMG 041330Z 12008KT 080V160 CAVOK 18/11 Q1025 NOSIG
2026-04-04 13:00:00,METAR LEMG 041300Z 12007KT 070V160 CAVOK 18/10 Q1025 NOSIG
2026-04-04 12:30:00,METAR LEMG 041230Z 12006KT 060V170 CAVOK 18/10 Q1025 NOSIG
2026-04-04 12:00:00,METAR LEMG 041200Z 11007KT 070V150 CAVOK 18/11 Q1025 NOSIG
2026-04-04 11:30:00,METAR LEMG 041130Z 13007KT 060V160 CAVOK 18/11 Q1026 NOSIG
2026-04-04 11:00:00,METAR LEMG 041100Z 12007KT 060V160 CAVOK 18/10 Q1026 NOSIG
2026-04-04 10:30:00,METAR LEMG 041030Z 12006KT 070V170 CAVOK 18/10 Q1026 NOSIG
2026-04-04 10:00:00,METAR LEMG 041000Z 11005KT 050V190 CAVOK 18/09 Q1026 NOSIG
2026-04-04 09:30:00,METAR LEMG 040930Z 08004KT 010V160 CAVOK 18/07 Q1025 NOSIG
2026-04-04 09:00:00,METAR LEMG 040900Z 32002KT CAVOK 16/06 Q1025 NOSIG
2026-04-04 08:30:00,METAR LEMG 040830Z 30006KT CAVOK 14/06 Q1025 NOSIG
2026-04-04 08:00:00,METAR LEMG 040800Z 29007KT CAVOK 11/06 Q1025 NOSIG
2026-04-04 07:30:00,METAR LEMG 040730Z 32005KT CAVOK 09/05 Q1025 NOSIG
2026-04-04 07:00:00,METAR LEMG 040700Z 30008KT CAVOK 08/05 Q1024 NOSIG
2026-04-04 06:30:00,METAR LEMG 040630Z 29011KT CAVOK 08/05 Q1024 NOSIG
2026-04-04 06:00:00,METAR LEMG 040600Z 29009KT CAVOK 08/04 Q1024 NOSIG
2026-04-04 05:30:00,METAR LEMG 040530Z 29008KT CAVOK 07/05 Q1024 NOSIG
2026-04-04 05:00:00,METAR LEMG 040500Z 30007KT CAVOK 07/05 Q1024 NOSIG
2026-04-04 04:30:00,METAR LEMG 040430Z 30008KT CAVOK 07/05 Q1023 NOSIG
2026-04-04 04:00:00,METAR LEMG 040400Z 29008KT CAVOK 08/05 Q1024 NOSIG
2026-04-04 03:30:00,METAR LEMG 040330Z 30006KT CAVOK 09/05 Q1024 NOSIG
2026-04-04 03:00:00,METAR LEMG 040300Z 28009KT CAVOK 10/06 Q1024 NOSIG
2026-04-04 02:30:00,METAR LEMG 040230Z 28008KT CAVOK 10/05 Q1024 NOSIG
2026-04-04 02:00:00,METAR LEMG 040200Z 28008KT CAVOK 09/06 Q1024 NOSIG
2026-04-04 01:30:00,METAR LEMG 040130Z 28008KT CAVOK 09/06 Q1025 NOSIG
2026-04-04 01:00:00,METAR LEMG 040100Z 29007KT CAVOK 10/07 Q1025 NOSIG
2026-04-04 00:30:00,METAR LEMG 040030Z 28007KT CAVOK 10/07 Q1025 NOSIG
2026-04-04 00:00:00,METAR LEMG 040000Z 30008KT CAVOK 10/07 Q1025 NOSIG
2026-04-03 23:30:00,METAR LEMG 032330Z 30009KT CAVOK 10/06 Q1025 NOSIG
2026-04-03 23:00:00,METAR LEMG 032300Z 29006KT CAVOK 11/06 Q1025 NOSIG
2026-04-03 22:30:00,METAR LEMG 032230Z 28005KT CAVOK 11/08 Q1025 NOSIG
2026-04-03 22:00:00,METAR LEMG 032200Z 29005KT CAVOK 11/07 Q1025 NOSIG
2026-04-03 21:30:00,METAR LEMG 032130Z VRB01KT CAVOK 12/08 Q1024 NOSIG
2026-04-03 21:00:00,METAR LEMG 032100Z VRB02KT CAVOK 13/09 Q1024 NOSIG
2026-04-03 20:30:00,METAR LEMG 032030Z VRB02KT CAVOK 14/09 Q1024 NOSIG
2026-04-03 20:00:00,METAR LEMG 032000Z 09004KT 030V190 CAVOK 15/10 Q1024 NOSIG
2026-04-03 19:30:00,METAR LEMG 031930Z 11004KT 070V140 CAVOK 15/09 Q1023 NOSIG
2026-04-03 19:00:00,METAR LEMG 031900Z 11004KT 080V150 CAVOK 15/09 Q1023 NOSIG
2026-04-03 18:30:00,METAR LEMG 031830Z 12005KT CAVOK 16/10 Q1022 NOSIG
2026-04-03 18:00:00,METAR LEMG 031800Z 12007KT 080V140 CAVOK 16/08 Q1022 NOSIG
2026-04-03 17:30:00,METAR LEMG 031730Z 12007KT 080V150 CAVOK 17/10 Q1022 NOSIG
2026-04-03 17:00:00,METAR LEMG 031700Z 12008KT 080V150 CAVOK 17/10 Q1021 NOSIG
2026-04-03 16:30:00,METAR LEMG 031630Z 12008KT 100V160 CAVOK 18/10 Q1021 NOSIG
2026-04-03 16:00:00,METAR LEMG 031600Z 12009KT 070V140 CAVOK 18/10 Q1021 NOSIG
2026-04-03 15:30:00,METAR LEMG 031530Z 11010KT 080V150 CAVOK 18/11 Q1021 NOSIG
2026-04-03 15:00:00,METAR LEMG 031500Z 12009KT 080V160 CAVOK 18/10 Q1021 NOSIG
2026-04-03 14:30:00,METAR LEMG 031430Z 12010KT 080V150 CAVOK 18/11 Q1021 NOSIG
2026-04-03 14:00:00,METAR LEMG 031400Z 12011KT CAVOK 18/11 Q1021 NOSIG
2026-04-03 13:30:00,METAR LEMG 031330Z 11011KT 070V140 CAVOK 18/11 Q1021 NOSIG
2026-04-03 13:00:00,METAR LEMG 031300Z 11010KT 080V170 CAVOK 18/12 Q1021 NOSIG
2026-04-03 12:30:00,METAR LEMG 031230Z 12009KT 080V150 CAVOK 18/11 Q1021 NOSIG
2026-04-03 12:00:00,METAR LEMG 031200Z 12008KT 070V160 CAVOK 18/13 Q1022 NOSIG
2026-04-03 11:30:00,METAR LEMG 031130Z 13009KT 090V160 CAVOK 18/13 Q1022 NOSIG
2026-04-03 11:00:00,METAR LEMG 031100Z 12008KT 070V160 CAVOK 17/11 Q1021 NOSIG
2026-04-03 10:30:00,METAR LEMG 031030Z 10009KT 060V150 CAVOK 18/12 Q1021 NOSIG
2026-04-03 10:00:00,METAR LEMG 031000Z 09011KT 050V120 CAVOK 18/13 Q1021 NOSIG
2026-04-03 09:30:00,METAR LEMG 030930Z 32006KT 280V050 CAVOK 21/00 Q1020 NOSIG
2026-04-03 09:00:00,METAR LEMG 030900Z 28014KT 260V320 CAVOK 20/01 Q1020 NOSIG
2026-04-03 08:30:00,METAR LEMG 030830Z 28014KT CAVOK 19/02 Q1020 NOSIG
2026-04-03 08:00:00,METAR LEMG 030800Z 27016KT 230V300 CAVOK 18/01 Q1019 NOSIG
2026-04-03 07:30:00,METAR LEMG 030730Z 27014KT 230V290 CAVOK 17/01 Q1019 NOSIG
2026-04-03 07:00:00,METAR LEMG 030700Z 28014KT CAVOK 17/01 Q1019 NOSIG
2026-04-03 06:30:00,METAR LEMG 030630Z 27013KT 240V300 CAVOK 16/02 Q1019 NOSIG
2026-04-03 06:00:00,METAR LEMG 030600Z 28013KT CAVOK 16/03 Q1018 NOSIG
2026-04-03 05:30:00,METAR LEMG 030530Z 28013KT 250V310 CAVOK 15/04 Q1018 NOSIG
2026-04-03 05:00:00,METAR LEMG 030500Z 31007KT CAVOK 11/08 Q1018 NOSIG
2026-04-03 04:30:00,METAR LEMG 030430Z 32007KT 9000 NSC 11/09 Q1018 NOSIG
2026-04-03 04:00:00,METAR LEMG 030400Z 31008KT 7000 NSC 11/11 Q1018 NOSIG
2026-04-03 03:30:00,METAR LEMG 030330Z 29014KT 5000 BR FEW001 12/11 Q1018 NOSIG
2026-04-03 03:00:00,METAR LEMG 030300Z 31010KT 6000 SCT002 12/11 Q1018 NOSIG
2026-04-03 02:50:00,SPECI LEMG 030250Z 31009KT 8000 FEW002 12/12 Q1018 NOSIG
2026-04-03 02:40:00,SPECI LEMG 030240Z 32009KT 6000 2500W BKN002 13/12 Q1018 NOSIG
2026-04-03 02:30:00,METAR LEMG 030230Z 31008KT 9999 4500W SCT003 12/11 Q1019 NOSIG
2026-04-03 02:00:00,METAR LEMG 030200Z 30007KT 9999 FEW006 13/12 Q1019 NOSIG
2026-04-03 01:30:00,METAR LEMG 030130Z 29003KT 260V320 9999 FEW006 12/11 Q1019 NOSIG
2026-04-03 01:00:00,METAR LEMG 030100Z VRB01KT 9999 FEW006 13/11 Q1019 NOSIG
2026-04-03 00:30:00,METAR LEMG 030030Z 00000KT 9999 FEW006 13/12 Q1019 NOSIG
2026-04-03 00:00:00,METAR LEMG 030000Z 12003KT 080V160 9999 FEW007 14/13 Q1019 NOSIG
2026-04-02 23:30:00,METAR LEMG 022330Z 14004KT 110V170 9999 FEW006 14/13 Q1019 NOSIG
2026-04-02 23:00:00,METAR LEMG 022300Z 12005KT 080V150 9999 SCT006 14/13 Q1019 NOSIG
2026-04-02 22:30:00,METAR LEMG 022230Z 15005KT 110V200 9999 BKN005 15/14 Q1019 NOSIG
2026-04-02 22:00:00,METAR LEMG 022200Z 10003KT 050V160 CAVOK 15/14 Q1018 NOSIG
2026-04-02 21:30:00,METAR LEMG 022130Z VRB02KT CAVOK 14/13 Q1017 NOSIG
2026-04-02 21:00:00,METAR LEMG 022100Z VRB02KT CAVOK 15/13 Q1017 NOSIG
2026-04-02 20:30:00,METAR LEMG 022030Z 00000KT CAVOK 15/13 Q1017 NOSIG
2026-04-02 20:00:00,METAR LEMG 022000Z 09003KT 020V180 CAVOK 16/13 Q1017 NOSIG
2026-04-02 19:30:00,METAR LEMG 021930Z 32005KT CAVOK 18/11 Q1017 NOSIG
2026-04-02 19:00:00,METAR LEMG 021900Z 28007KT CAVOK 20/02 Q1016 NOSIG
2026-04-02 18:30:00,METAR LEMG 021830Z 29006KT CAVOK 21/02 Q1016 NOSIG
2026-04-02 18:00:00,METAR LEMG 021800Z 30008KT 270V330 CAVOK 23/02 Q1016 NOSIG
2026-04-02 17:30:00,METAR LEMG 021730Z 31008KT 280V340 CAVOK 24/01 Q1016 NOSIG
2026-04-02 17:00:00,METAR LEMG 021700Z 31011KT 280V350 CAVOK 25/M02 Q1015 NOSIG
2026-04-02 16:30:00,METAR LEMG 021630Z 28011KT 250V310 CAVOK 24/M01 Q1015 NOSIG
2026-04-02 16:00:00,METAR LEMG 021600Z 32010KT 280V360 CAVOK 25/M04 Q1015 NOSIG
2026-04-02 15:30:00,METAR LEMG 021530Z 31011KT CAVOK 26/M02 Q1015 NOSIG
2026-04-02 15:00:00,METAR LEMG 021500Z 30014KT CAVOK 24/M01 Q1015 NOSIG
2026-04-02 14:30:00,METAR LEMG 021430Z 29012KT 260V330 CAVOK 25/01 Q1015 NOSIG
2026-04-02 14:00:00,METAR LEMG 021400Z 33013KT CAVOK 26/M03 Q1016 NOSIG
2026-04-02 13:30:00,METAR LEMG 021330Z 32013KT 270V350 CAVOK 25/M02 Q1016 NOSIG
2026-04-02 13:00:00,METAR LEMG 021300Z 32011G21KT 280V340 CAVOK 26/M02 Q1016 NOSIG
2026-04-02 12:30:00,METAR LEMG 021230Z 31014KT CAVOK 26/M00 Q1016 NOSIG
2026-04-02 12:00:00,METAR LEMG 021200Z 32015G26KT 290V350 CAVOK 25/M03 Q1016 NOSIG
2026-04-02 11:30:00,METAR LEMG 021130Z 32014G24KT 290V350 CAVOK 25/M03 Q1017 NOSIG
2026-04-02 11:00:00,METAR LEMG 021100Z 30013KT 260V330 CAVOK 23/M01 Q1017 NOSIG
2026-04-02 10:30:00,METAR LEMG 021030Z 29015KT CAVOK 23/M01 Q1017 NOSIG
2026-04-02 10:00:00,METAR LEMG 021000Z 28016KT 250V310 CAVOK 21/01 Q1016 NOSIG
2026-04-02 09:30:00,METAR LEMG 020930Z 28015KT 260V320 CAVOK 19/01 Q1016 NOSIG
2026-04-02 09:00:00,METAR LEMG 020900Z 28016KT CAVOK 18/02 Q1017 NOSIG
2026-04-02 08:30:00,METAR LEMG 020830Z 27015KT CAVOK 17/01 Q1017 NOSIG
2026-04-02 08:00:00,METAR LEMG 020800Z 28017KT CAVOK 17/02 Q1017 NOSIG
2026-04-02 07:30:00,METAR LEMG 020730Z 28017KT 250V310 9999 FEW080 16/02 Q1016 NOSIG
2026-04-02 07:00:00,METAR LEMG 020700Z 28015KT 9999 FEW080 15/03 Q1016 NOSIG
2026-04-02 06:30:00,METAR LEMG 020630Z 28015KT 9999 FEW080 15/03 Q1016 NOSIG
2026-04-02 06:00:00,METAR LEMG 020600Z 28013G23KT 9999 FEW080 15/03 Q1016 NOSIG
2026-04-02 05:30:00,METAR LEMG 020530Z 29015KT CAVOK 16/04 Q1016 NOSIG
2026-04-02 05:00:00,METAR LEMG 020500Z 28018KT CAVOK 16/04 Q1015 NOSIG
2026-04-02 04:30:00,METAR LEMG 020430Z 29015G25KT 260V340 CAVOK 17/05 Q1016 NOSIG
2026-04-02 04:00:00,METAR LEMG 020400Z 28015KT 250V330 CAVOK 17/05 Q1016 NOSIG
2026-04-02 03:30:00,METAR LEMG 020330Z 28015KT 250V310 CAVOK 17/05 Q1016 NOSIG
2026-04-02 03:00:00,METAR LEMG 020300Z 28010KT 240V320 CAVOK 17/05 Q1016 NOSIG
2026-04-02 02:30:00,METAR LEMG 020230Z 29009KT 260V320 CAVOK 15/05 Q1016 NOSIG
2026-04-02 02:00:00,METAR LEMG 020200Z 26010KT CAVOK 17/05 Q1017 NOSIG
2026-04-02 01:30:00,METAR LEMG 020130Z 28006KT 250V320 CAVOK 10/07 Q1017 NOSIG
2026-04-02 01:00:00,METAR LEMG 020100Z 31005KT CAVOK 11/08 Q1017 NOSIG
2026-04-02 00:30:00,METAR LEMG 020030Z 30008KT CAVOK 11/08 Q1018 NOSIG
2026-04-02 00:00:00,METAR LEMG 020000Z 30008KT CAVOK 12/08 Q1018 NOSIG
2026-04-01 23:30:00,METAR LEMG 012330Z 30007KT CAVOK 12/08 Q1018 NOSIG
2026-04-01 23:00:00,METAR LEMG 012300Z 30007KT CAVOK 11/08 Q1018 NOSIG
2026-04-01 22:30:00,METAR LEMG 012230Z 29008KT CAVOK 12/08 Q1018 NOSIG
2026-04-01 22:00:00,METAR LEMG 012200Z 29006KT 250V310 CAVOK 12/07 Q1019 NOSIG
2026-04-01 21:30:00,METAR LEMG 012130Z 29003KT 260V330 CAVOK 12/07 Q1019 NOSIG
2026-04-01 21:00:00,METAR LEMG 012100Z 28004KT CAVOK 13/08 Q1019 NOSIG
2026-04-01 20:30:00,METAR LEMG 012030Z 28005KT CAVOK 14/08 Q1019 NOSIG
2026-04-01 20:00:00,METAR LEMG 012000Z 29004KT 260V330 CAVOK 13/08 Q1019 NOSIG
2026-04-01 19:30:00,METAR LEMG 011930Z VRB02KT CAVOK 15/08 Q1019 NOSIG
2026-04-01 19:00:00,METAR LEMG 011900Z 13005KT CAVOK 16/08 Q1018 NOSIG
2026-04-01 18:30:00,METAR LEMG 011830Z 14006KT CAVOK 16/08 Q1018 NOSIG
2026-04-01 18:00:00,METAR LEMG 011800Z 14009KT 110V170 CAVOK 16/08 Q1018 NOSIG
2026-04-01 17:30:00,METAR LEMG 011730Z 14009KT 110V170 CAVOK 17/10 Q1019 NOSIG
2026-04-01 17:00:00,METAR LEMG 011700Z 14010KT CAVOK 17/11 Q1019 NOSIG
2026-04-01 16:30:00,METAR LEMG 011630Z 14009KT 110V190 CAVOK 17/11 Q1019 NOSIG
2026-04-01 16:00:00,METAR LEMG 011600Z 14008KT 110V170 CAVOK 19/11 Q1018 NOSIG
2026-04-01 15:30:00,METAR LEMG 011530Z 15010KT 120V190 CAVOK 19/12 Q1018 NOSIG
2026-04-01 15:00:00,METAR LEMG 011500Z 15008KT 110V190 CAVOK 19/11 Q1019 NOSIG
2026-04-01 14:00:00,METAR LEMG 011400Z 15009KT 120V190 9999 FEW040 19/11 Q1019 NOSIG
2026-04-01 13:30:00,METAR LEMG 011330Z 15008KT 120V190 9999 FEW040 19/11 Q1019 NOSIG
2026-04-01 13:00:00,METAR LEMG 011300Z 14007KT 100V170 9999 FEW040 19/10 Q1020 NOSIG
2026-04-01 12:30:00,METAR LEMG 011230Z 11005KT 060V170 9999 FEW040 19/09 Q1020 NOSIG
2026-04-01 12:00:00,METAR LEMG 011200Z 13007KT 080V180 9999 FEW030 18/09 Q1020 NOSIG
2026-04-01 11:30:00,METAR LEMG 011130Z 12007KT 070V170 9999 FEW026 18/09 Q1020 NOSIG
2026-04-01 11:00:00,METAR LEMG 011100Z 11009KT 080V140 9999 FEW026 19/09 Q1020 NOSIG
2026-04-01 10:30:00,METAR LEMG 011030Z 22002KT 9999 FEW026 18/08 Q1020 NOSIG
2026-04-01 10:00:00,METAR LEMG 011000Z 36005KT 280V080 9999 FEW026 17/07 Q1021 NOSIG
2026-04-01 09:30:00,METAR LEMG 010930Z 29006KT 240V340 9999 FEW026 17/07 Q1020 NOSIG
2026-04-01 09:00:00,METAR LEMG 010900Z 28007KT 240V320 9999 FEW026 16/07 Q1020 NOSIG
2026-04-01 08:30:00,METAR LEMG 010830Z 27005KT 230V300 9999 FEW026 16/06 Q1020 NOSIG
2026-04-01 08:00:00,METAR LEMG 010800Z 28009KT 9999 SCT018 SCT026 14/04 Q1020 NOSIG
2026-04-01 07:30:00,METAR LEMG 010730Z 27009KT 230V300 9999 SCT018 SCT026 14/03 Q1020 NOSIG
2026-04-01 07:00:00,METAR LEMG 010700Z 27007KT 9999 SCT018 SCT026 12/03 Q1019 NOSIG
2026-04-01 06:30:00,METAR LEMG 010630Z 27005KT 240V300 9999 SCT018 SCT026 12/03 Q1019 NOSIG
2026-04-01 06:00:00,METAR LEMG 010600Z 29004KT 240V320 9999 FEW015 SCT032 10/03 Q1018 NOSIG
2026-04-01 05:30:00,METAR LEMG 010530Z 30003KT 9999 FEW010 12/03 Q1018 NOSIG
2026-04-01 05:00:00,METAR LEMG 010500Z 16001KT 9999 FEW010 11/10 Q1018 NOSIG
2026-04-01 04:30:00,METAR LEMG 010430Z VRB01KT 9999 FEW010 12/10 Q1018 NOSIG
2026-04-01 04:00:00,METAR LEMG 010400Z VRB02KT CAVOK 13/10 Q1017 NOSIG
2026-04-01 03:30:00,METAR LEMG 010330Z 05005KT 330V080 CAVOK 14/12 Q1017 NOSIG
2026-04-01 03:00:00,METAR LEMG 010300Z 02007KT CAVOK 15/09 Q1017 NOSIG
2026-04-01 02:30:00,METAR LEMG 010230Z 02005KT 350V060 CAVOK 14/10 Q1018 NOSIG
2026-04-01 02:00:00,METAR LEMG 010200Z 32009KT CAVOK 16/03 Q1018 NOSIG
2026-04-01 01:30:00,METAR LEMG 010130Z 29011KT CAVOK 14/06 Q1017 NOSIG
2026-04-01 01:00:00,METAR LEMG 010100Z 29009KT 260V340 CAVOK 14/07 Q1018 NOSIG
2026-04-01 00:30:00,METAR LEMG 010030Z 29010KT CAVOK 13/09 Q1018 NOSIG
2026-04-01 00:00:00,METAR LEMG 010000Z 31008KT CAVOK 12/10 Q1018 NOSIG
2026-03-31 23:30:00,METAR LEMG 312330Z 30010KT CAVOK 13/10 Q1018 NOSIG
2026-03-31 23:00:00,METAR LEMG 312300Z 30009KT CAVOK 12/10 Q1018 NOSIG
2026-03-31 22:30:00,METAR LEMG 312230Z 30006KT CAVOK 12/10 Q1018 NOSIG
2026-03-31 22:00:00,METAR LEMG 312200Z 28004KT CAVOK 13/10 Q1019 NOSIG
2026-03-31 21:30:00,METAR LEMG 312130Z 34001KT CAVOK 14/12 Q1019 NOSIG
2026-03-31 21:00:00,METAR LEMG 312100Z 00000KT CAVOK 14/11 Q1019 NOSIG
2026-03-31 20:30:00,METAR LEMG 312030Z VRB02KT CAVOK 15/12 Q1019 NOSIG
2026-03-31 20:00:00,METAR LEMG 312000Z 13003KT 080V220 CAVOK 15/12 Q1019 NOSIG
2026-03-31 19:30:00,METAR LEMG 311930Z 11004KT 060V170 CAVOK 15/11 Q1019 NOSIG
2026-03-31 19:00:00,METAR LEMG 311900Z 11003KT 030V190 CAVOK 16/11 Q1018 WS R12 NOSIG
2026-03-31 18:30:00,METAR LEMG 311830Z 09007KT CAVOK 16/11 Q1018 WS R12 NOSIG
2026-03-31 18:00:00,METAR LEMG 311800Z 08008KT 040V100 CAVOK 17/11 Q1018 WS R12 NOSIG
2026-03-31 17:30:00,METAR LEMG 311730Z 07009KT 020V100 CAVOK 18/11 Q1018 WS R12 NOSIG
2026-03-31 17:00:00,METAR LEMG 311700Z 06008KT 040V100 CAVOK 18/11 Q1018 WS R12 NOSIG
2026-03-31 16:30:00,METAR LEMG 311630Z 06007KT 020V080 CAVOK 19/11 Q1018 NOSIG
2026-03-31 16:00:00,METAR LEMG 311600Z 07011KT 040V100 CAVOK 19/11 Q1017 NOSIG
2026-03-31 15:30:00,METAR LEMG 311530Z 07010KT 040V110 CAVOK 19/12 Q1017 NOSIG
2026-03-31 15:00:00,METAR LEMG 311500Z 06012KT 010V110 CAVOK 20/11 Q1017 NOSIG
2026-03-31 14:30:00,METAR LEMG 311430Z 06009KT 030V110 CAVOK 22/10 Q1018 NOSIG
2026-03-31 14:00:00,METAR LEMG 311400Z 30011KT 260V340 CAVOK 26/07 Q1018 NOSIG
2026-03-31 13:30:00,METAR LEMG 311330Z 31011KT 280V010 CAVOK 26/05 Q1018 NOSIG
2026-03-31 13:00:00,METAR LEMG 311300Z 33009G19KT 260V020 CAVOK 26/06 Q1018 NOSIG
2026-03-31 12:30:00,METAR LEMG 311230Z 30009KT 240V330 CAVOK 25/06 Q1019 NOSIG
2026-03-31 12:00:00,METAR LEMG 311200Z 28008KT 240V330 CAVOK 24/06 Q1020 NOSIG
2026-03-31 11:30:00,METAR LEMG 311130Z 29008KT 250V350 CAVOK 23/06 Q1020 NOSIG
2026-03-31 11:00:00,METAR LEMG 311100Z 27009KT 230V300 CAVOK 22/06 Q1021 NOSIG
2026-03-31 10:30:00,METAR LEMG 311030Z 28008KT 210V330 CAVOK 22/07 Q1021 NOSIG
2026-03-31 10:00:00,METAR LEMG 311000Z 28008KT 260V340 CAVOK 21/05 Q1021 NOSIG
2026-03-31 09:30:00,METAR LEMG 310930Z 27012KT 240V300 CAVOK 19/06 Q1021 NOSIG
2026-03-31 09:00:00,METAR LEMG 310900Z 28013KT 240V300 CAVOK 18/05 Q1021 NOSIG
2026-03-31 08:30:00,METAR LEMG 310830Z 30012KT CAVOK 18/06 Q1021 NOSIG
2026-03-31 08:00:00,METAR LEMG 310800Z 30011KT 260V330 CAVOK 17/05 Q1022 NOSIG
2026-03-31 07:30:00,METAR LEMG 310730Z 28014KT 260V320 CAVOK 16/04 Q1022 NOSIG
2026-03-31 07:00:00,METAR LEMG 310700Z 28016KT CAVOK 15/03 Q1022 NOSIG
2026-03-31 06:30:00,METAR LEMG 310630Z 28017KT CAVOK 14/02 Q1021 NOSIG
2026-03-31 06:00:00,METAR LEMG 310600Z 28017KT CAVOK 14/01 Q1021 NOSIG
2026-03-31 05:30:00,METAR LEMG 310530Z 27014KT CAVOK 13/01 Q1021 NOSIG
2026-03-31 05:00:00,METAR LEMG 310500Z 28014KT CAVOK 13/01 Q1021 NOSIG
2026-03-31 04:30:00,METAR LEMG 310430Z 30011KT CAVOK 09/01 Q1022 NOSIG
2026-03-31 04:00:00,METAR LEMG 310400Z 30008KT CAVOK 07/01 Q1022 NOSIG
2026-03-31 03:30:00,METAR LEMG 310330Z 30011KT CAVOK 07/02 Q1022 NOSIG
2026-03-31 03:00:00,METAR LEMG 310300Z 30008KT CAVOK 07/01 Q1022 NOSIG
2026-03-31 02:30:00,METAR LEMG 310230Z 30010KT CAVOK 07/02 Q1023 NOSIG
2026-03-31 02:00:00,METAR LEMG 310200Z 31010KT CAVOK 07/02 Q1023 NOSIG
2026-03-31 01:30:00,METAR LEMG 310130Z 31008KT CAVOK 08/02 Q1024 NOSIG
2026-03-31 01:00:00,METAR LEMG 310100Z 29007KT CAVOK 07/02 Q1024 NOSIG
2026-03-31 00:30:00,METAR LEMG 310030Z 29008KT CAVOK 08/02 Q1025 NOSIG
2026-03-31 00:00:00,METAR LEMG 310000Z 29006KT CAVOK 08/02 Q1025 NOSIG
2026-03-30 23:30:00,METAR LEMG 302330Z 29008KT CAVOK 09/02 Q1026 NOSIG
2026-03-30 23:00:00,METAR LEMG 302300Z 30008KT CAVOK 09/02 Q1026 NOSIG
2026-03-30 22:30:00,METAR LEMG 302230Z 29006KT CAVOK 09/02 Q1026 NOSIG
2026-03-30 22:00:00,METAR LEMG 302200Z 28006KT CAVOK 10/02 Q1026 NOSIG
2026-03-30 21:30:00,METAR LEMG 302130Z 32004KT CAVOK 09/02 Q1026 NOSIG
2026-03-30 21:00:00,METAR LEMG 302100Z 30003KT 240V350 CAVOK 12/00 Q1026 NOSIG
2026-03-30 20:30:00,METAR LEMG 302030Z VRB02KT CAVOK 12/M01 Q1026 NOSIG
2026-03-30 20:00:00,METAR LEMG 302000Z 16004KT 110V190 CAVOK 13/00 Q1026 NOSIG
2026-03-30 19:30:00,METAR LEMG 301930Z 15005KT 120V190 CAVOK 13/00 Q1025 NOSIG
2026-03-30 19:00:00,METAR LEMG 301900Z 15005KT 120V200 CAVOK 13/01 Q1025 NOSIG
2026-03-30 18:30:00,METAR LEMG 301830Z 16006KT 110V200 CAVOK 14/00 Q1025 NOSIG
2026-03-30 18:00:00,METAR LEMG 301800Z 17008KT 130V200 CAVOK 15/M01 Q1025 NOSIG
2026-03-30 17:30:00,METAR LEMG 301730Z 16006KT 120V230 CAVOK 16/00 Q1025 NOSIG
2026-03-30 17:00:00,METAR LEMG 301700Z 16008KT 110V210 CAVOK 16/01 Q1025 NOSIG
2026-03-30 16:30:00,METAR LEMG 301630Z 16008KT 120V200 CAVOK 17/01 Q1025 NOSIG
2026-03-30 16:00:00,METAR LEMG 301600Z 16009KT 100V200 CAVOK 17/M01 Q1025 NOSIG
2026-03-30 15:30:00,METAR LEMG 301530Z 15011KT 120V190 CAVOK 17/M01 Q1026 NOSIG
2026-03-30 15:00:00,METAR LEMG 301500Z 15011KT 110V170 CAVOK 17/M01 Q1026 NOSIG
2026-03-30 14:30:00,METAR LEMG 301430Z 15010KT 110V200 CAVOK 17/M01 Q1026 NOSIG
2026-03-30 14:00:00,METAR LEMG 301400Z 15009KT 120V200 CAVOK 17/M02 Q1026 NOSIG
2026-03-30 13:30:00,METAR LEMG 301330Z 15008KT 110V210 CAVOK 17/M03 Q1027 NOSIG
2026-03-30 13:00:00,METAR LEMG 301300Z 16008KT 110V200 CAVOK 17/M03 Q1027 NOSIG
2026-03-30 12:30:00,METAR LEMG 301230Z 16006KT 100V220 CAVOK 17/M03 Q1027 NOSIG
2026-03-30 12:00:00,METAR LEMG 301200Z 15006KT 080V200 CAVOK 18/M04 Q1027 NOSIG
2026-03-30 11:30:00,METAR LEMG 301130Z 15006KT 080V200 CAVOK 18/M04 Q1028 NOSIG
2026-03-30 11:00:00,METAR LEMG 301100Z 11005KT CAVOK 17/M05 Q1028 NOSIG
2026-03-30 10:30:00,METAR LEMG 301030Z 32003KT CAVOK 16/00 Q1028 NOSIG
2026-03-30 10:00:00,METAR LEMG 301000Z 29005KT 230V350 CAVOK 16/02 Q1028 NOSIG
2026-03-30 09:30:00,METAR LEMG 300930Z 29009KT 260V330 CAVOK 15/03 Q1028 NOSIG
2026-03-30 09:00:00,METAR LEMG 300900Z 28010KT 240V310 CAVOK 14/03 Q1028 NOSIG
2026-03-30 08:30:00,METAR LEMG 300830Z 28011KT CAVOK 13/04 Q1028 NOSIG
2026-03-30 08:00:00,METAR LEMG 300800Z 30007KT CAVOK 11/05 Q1028 NOSIG
2026-03-30 07:30:00,METAR LEMG 300730Z 30008KT CAVOK 09/04 Q1028 NOSIG
2026-03-30 07:00:00,METAR LEMG 300700Z 30010KT CAVOK 07/04 Q1027 NOSIG
2026-03-30 06:30:00,METAR LEMG 300630Z 30008KT CAVOK 06/04 Q1027 NOSIG
2026-03-30 06:00:00,METAR LEMG 300600Z 29007KT CAVOK 06/04 Q1027 NOSIG
2026-03-30 05:30:00,METAR LEMG 300530Z 29008KT CAVOK 07/04 Q1027 NOSIG
2026-03-30 05:00:00,METAR LEMG 300500Z 29007KT CAVOK 07/04 Q1026 NOSIG
2026-03-30 04:30:00,METAR LEMG 300430Z 29008KT CAVOK 08/04 Q1026 NOSIG
2026-03-30 04:00:00,METAR LEMG 300400Z 29009KT 9999 FEW045 09/04 Q1026 NOSIG
2026-03-30 03:30:00,METAR LEMG 300330Z 28007KT 9999 FEW045 09/04 Q1026 NOSIG
2026-03-30 03:00:00,METAR LEMG 300300Z 29005KT 9999 FEW045 09/04 Q1026 NOSIG
2026-03-30 02:30:00,METAR LEMG 300230Z 36003KT 9999 FEW045 12/04 Q1026 NOSIG
2026-03-30 02:00:00,METAR LEMG 300200Z 09004KT 050V120 9999 SCT050 13/04 Q1026 NOSIG
2026-03-30 01:30:00,METAR LEMG 300130Z 12007KT 080V150 9999 SCT050 13/04 Q1026 NOSIG
2026-03-30 01:00:00,METAR LEMG 300100Z 11009KT 9999 FEW045 13/03 Q1026 NOSIG
2026-03-30 00:30:00,METAR LEMG 300030Z 11009KT 9999 FEW045 13/04 Q1027 NOSIG
2026-03-30 00:00:00,METAR LEMG 300000Z 10010KT 9999 FEW045 13/04 Q1027 NOSIG
2026-03-29 23:30:00,METAR LEMG 292330Z 09010KT 9999 FEW040 13/05 Q1027 NOSIG
2026-03-29 23:00:00,METAR LEMG 292300Z 10010KT 060V120 9999 FEW045 13/05 Q1026 NOSIG
2026-03-29 22:30:00,METAR LEMG 292230Z 10012KT 9999 FEW045 SCT085 14/05 Q1026 NOSIG
2026-03-29 22:00:00,METAR LEMG 292200Z 12009KT 9999 FEW045 SCT070 14/05 Q1026 NOSIG
2026-03-29 21:30:00,METAR LEMG 292130Z 13005KT 100V160 9999 FEW045 13/07 Q1025 NOSIG
2026-03-29 21:00:00,METAR LEMG 292100Z 12006KT 9999 FEW060 13/06 Q1025 NOSIG
2026-03-29 20:30:00,METAR LEMG 292030Z 17004KT 110V230 CAVOK 13/06 Q1024 NOSIG
2026-03-29 20:00:00,METAR LEMG 292000Z 15006KT 120V180 CAVOK 14/07 Q1024 NOSIG
2026-03-29 19:30:00,METAR LEMG 291930Z 14008KT 040V180 9999 FEW030 15/07 Q1023 NOSIG
2026-03-29 19:00:00,METAR LEMG 291900Z 34013KT 9999 FEW060 18/M02 Q1022 NOSIG
2026-03-29 18:30:00,METAR LEMG 291830Z 35011G22KT 320V020 9999 FEW060 18/M04 Q1022 NOSIG
2026-03-29 18:00:00,METAR LEMG 291800Z 36014KT 310V030 9999 FEW060 19/M03 Q1022 NOSIG
2026-03-29 17:30:00,METAR LEMG 291730Z 35015KT 320V020 CAVOK 19/M04 Q1021 NOSIG
2026-03-29 17:00:00,METAR LEMG 291700Z 34016KT 300V020 CAVOK 19/M02 Q1021 NOSIG
2026-03-29 16:30:00,METAR LEMG 291630Z 35018G30KT 310V030 CAVOK 20/M04 Q1021 NOSIG
2026-03-29 16:00:00,METAR LEMG 291600Z 34017G29KT CAVOK 20/M03 Q1021 NOSIG
2026-03-29 15:30:00,METAR LEMG 291530Z 34020G30KT CAVOK 20/M05 Q1021 NOSIG
2026-03-29 15:00:00,METAR LEMG 291500Z 34018G31KT 320V040 CAVOK 20/M04 Q1021 NOSIG
2026-03-29 14:30:00,METAR LEMG 291430Z 33023G34KT 300V010 CAVOK 21/M04 Q1021 NOSIG
2026-03-29 14:00:00,METAR LEMG 291400Z 34021G32KT 310V020 CAVOK 22/M05 Q1020 NOSIG
2026-03-29 13:30:00,METAR LEMG 291330Z 32016G27KT 300V010 CAVOK 21/M02 Q1020 NOSIG
2026-03-29 13:00:00,METAR LEMG 291300Z 31019G29KT 280V350 CAVOK 21/M03 Q1021 NOSIG
2026-03-29 12:30:00,METAR LEMG 291230Z 31015G25KT 280V350 CAVOK 22/M04 Q1021 NOSIG
2026-03-29 12:00:00,METAR LEMG 291200Z 31017G27KT CAVOK 20/M03 Q1021 NOSIG
2026-03-29 11:30:00,METAR LEMG 291130Z 33018G28KT CAVOK 21/M02 Q1021 NOSIG
2026-03-29 11:00:00,METAR LEMG 291100Z 33019G31KT 300V360 CAVOK 20/M04 Q1021 NOSIG
2026-03-29 10:30:00,METAR LEMG 291030Z 33019G30KT 290V360 CAVOK 20/M04 Q1021 NOSIG
2026-03-29 10:00:00,METAR LEMG 291000Z 32016KT CAVOK 19/M06 Q1021 NOSIG
2026-03-29 09:30:00,METAR LEMG 290930Z 31013KT CAVOK 18/M04 Q1021 NOSIG
2026-03-29 09:00:00,METAR LEMG 290900Z 32014KT CAVOK 17/M05 Q1021 NOSIG
2026-03-29 08:30:00,METAR LEMG 290830Z 30015G28KT CAVOK 16/M01 Q1022 NOSIG
2026-03-29 08:00:00,METAR LEMG 290800Z 28014KT 240V300 CAVOK 15/01 Q1021 NOSIG
2026-03-29 07:30:00,METAR LEMG 290730Z 28016KT 240V310 CAVOK 14/01 Q1021 NOSIG
2026-03-29 07:00:00,METAR LEMG 290700Z 29015KT 250V320 CAVOK 14/01 Q1021 NOSIG
2026-03-29 06:30:00,METAR LEMG 290630Z 29010G20KT 260V330 CAVOK 13/01 Q1021 NOSIG
2026-03-29 06:00:00,METAR LEMG 290600Z 29013KT 260V340 CAVOK 14/01 Q1021 NOSIG
2026-03-29 05:30:00,METAR LEMG 290530Z 33006KT 230V010 CAVOK 13/02 Q1021 NOSIG
2026-03-29 05:00:00,METAR LEMG 290500Z 28013KT 250V310 CAVOK 14/03 Q1021 NOSIG
2026-03-29 04:30:00,METAR LEMG 290430Z 28014KT 9000 NSC 14/04 Q1021 NOSIG
2026-03-29 04:00:00,METAR LEMG 290400Z 28011KT 9000 NSC 12/05 Q1021 NOSIG
2026-03-29 03:30:00,METAR LEMG 290330Z 30007KT CAVOK 09/08 Q1021 NOSIG
2026-03-29 03:00:00,METAR LEMG 290300Z VRB02KT CAVOK 09/08 Q1021 NOSIG
2026-03-29 02:30:00,METAR LEMG 290230Z 29007KT CAVOK 09/09 Q1021 NOSIG
2026-03-29 02:00:00,METAR LEMG 290200Z 28006KT CAVOK 10/09 Q1021 NOSIG
2026-03-29 01:30:00,METAR LEMG 290130Z 30005KT CAVOK 10/08 Q1021 NOSIG
2026-03-29 01:00:00,METAR LEMG 290100Z 30006KT CAVOK 10/09 Q1022 NOSIG
2026-03-29 00:30:00,METAR LEMG 290030Z 28005KT CAVOK 11/09 Q1021 NOSIG
2026-03-29 00:00:00,METAR LEMG 290000Z 29004KT CAVOK 11/09 Q1021 NOSIG
2026-03-28 23:30:00,METAR LEMG 282330Z 29004KT CAVOK 11/09 Q1021 NOSIG
2026-03-28 23:00:00,METAR LEMG 282300Z 29005KT CAVOK 11/09 Q1021 NOSIG
2026-03-28 22:30:00,METAR LEMG 282230Z 29005KT CAVOK 12/09 Q1021 NOSIG
2026-03-28 22:00:00,METAR LEMG 282200Z 29004KT CAVOK 12/09 Q1021 NOSIG
2026-03-28 21:30:00,METAR LEMG 282130Z 29006KT CAVOK 13/10 Q1021 NOSIG
2026-03-28 21:00:00,METAR LEMG 282100Z VRB02KT CAVOK 13/10 Q1021 NOSIG
2026-03-28 20:30:00,METAR LEMG 282030Z 13005KT CAVOK 14/10 Q1021 NOSIG
2026-03-28 20:00:00,METAR LEMG 282000Z 13005KT 100V160 CAVOK 14/10 Q1021 NOSIG
2026-03-28 19:30:00,METAR LEMG 281930Z 14006KT CAVOK 14/10 Q1020 NOSIG
2026-03-28 19:00:00,METAR LEMG 281900Z 13006KT CAVOK 14/09 Q1020 NOSIG
2026-03-28 18:30:00,METAR LEMG 281830Z 13007KT CAVOK 15/09 Q1020 NOSIG
2026-03-28 18:00:00,METAR LEMG 281800Z 14007KT 110V170 CAVOK 15/10 Q1020 NOSIG
2026-03-28 17:30:00,METAR LEMG 281730Z 14009KT 110V170 CAVOK 16/10 Q1019 NOSIG
2026-03-28 17:00:00,METAR LEMG 281700Z 14007KT 110V200 9999 FEW024 16/10 Q1019 NOSIG
2026-03-28 16:30:00,METAR LEMG 281630Z 15009KT 110V190 9999 FEW024 16/10 Q1019 NOSIG
2026-03-28 16:00:00,METAR LEMG 281600Z 15008KT 110V200 9999 FEW024 17/10 Q1020 NOSIG
2026-03-28 15:30:00,METAR LEMG 281530Z 14007KT 100V200 9999 FEW023 17/10 Q1020 NOSIG
2026-03-28 15:00:00,METAR LEMG 281500Z 17008KT 130V200 9999 FEW023 17/08 Q1020 NOSIG
2026-03-28 14:30:00,METAR LEMG 281430Z 14009KT 110V200 9999 FEW023 17/09 Q1020 NOSIG
2026-03-28 14:00:00,METAR LEMG 281400Z 14008KT 100V190 9999 FEW023 17/10 Q1020 NOSIG
2026-03-28 13:30:00,METAR LEMG 281330Z 15008KT 110V210 9999 FEW023 17/11 Q1021 NOSIG
2026-03-28 13:00:00,METAR LEMG 281300Z 13008KT 090V190 9999 FEW024 17/10 Q1021 NOSIG
2026-03-28 12:30:00,METAR LEMG 281230Z 13007KT 070V210 9999 FEW025 17/10 Q1021 NOSIG
2026-03-28 12:00:00,METAR LEMG 281200Z 12008KT 080V160 9999 FEW023 17/10 Q1021 NOSIG
2026-03-28 11:30:00,METAR LEMG 281130Z 11008KT 020V160 9999 FEW022 17/10 Q1022 NOSIG
2026-03-28 11:00:00,METAR LEMG 281100Z 12007KT 080V170 9999 SCT022 16/09 Q1022 NOSIG
2026-03-28 10:30:00,METAR LEMG 281030Z 11009KT 080V150 9999 SCT022 16/11 Q1022 NOSIG
2026-03-28 10:00:00,METAR LEMG 281000Z 11008KT 070V140 9999 FEW023 16/10 Q1022 NOSIG
2026-03-28 09:30:00,METAR LEMG 280930Z 09004KT 9999 FEW023 16/11 Q1022 NOSIG
2026-03-28 09:00:00,METAR LEMG 280900Z VRB02KT 9999 SCT023 14/09 Q1021 NOSIG
2026-03-28 08:30:00,METAR LEMG 280830Z 30005KT 270V330 9999 SCT022 13/09 Q1021 NOSIG
2026-03-28 08:00:00,METAR LEMG 280800Z 30006KT 9999 FEW020 12/09 Q1021 NOSIG
2026-03-28 07:30:00,METAR LEMG 280730Z 30005KT 9999 SCT020 11/08 Q1021 NOSIG
2026-03-28 07:00:00,METAR LEMG 280700Z 30005KT 9999 FEW020 10/08 Q1020 NOSIG
2026-03-28 06:30:00,METAR LEMG 280630Z 28005KT 9999 FEW030 09/08 Q1020 NOSIG
2026-03-28 06:00:00,METAR LEMG 280600Z 29005KT 9999 FEW018 09/08 Q1020 NOSIG
2026-03-28 05:30:00,METAR LEMG 280530Z 28006KT CAVOK 10/08 Q1019 NOSIG
2026-03-28 05:00:00,METAR LEMG 280500Z 28006KT CAVOK 10/08 Q1019 NOSIG
2026-03-28 04:30:00,METAR LEMG 280430Z 29006KT CAVOK 10/08 Q1019 NOSIG
2026-03-28 04:00:00,METAR LEMG 280400Z 29005KT CAVOK 10/08 Q1018 NOSIG
2026-03-28 03:30:00,METAR LEMG 280330Z 30004KT CAVOK 10/08 Q1018 NOSIG
2026-03-28 03:00:00,METAR LEMG 280300Z 28006KT 9999 FEW006 11/08 Q1018 NOSIG
2026-03-28 02:30:00,METAR LEMG 280230Z 29006KT 9999 FEW006 11/09 Q1018 NOSIG
2026-03-28 02:00:00,METAR LEMG 280200Z 28004KT 9999 FEW020 12/09 Q1018 NOSIG
2026-03-28 01:30:00,METAR LEMG 280130Z 28004KT 9999 SCT020 12/08 Q1018 NOSIG
2026-03-28 01:00:00,METAR LEMG 280100Z VRB01KT 9999 FEW025 BKN050 13/09 Q1019 NOSIG
2026-03-28 00:30:00,METAR LEMG 280030Z VRB01KT 9999 FEW025 BKN050 14/08 Q1019 NOSIG
2026-03-28 00:00:00,METAR LEMG 280000Z VRB02KT 9999 FEW040 OVC050 14/08 Q1019 NOSIG
2026-03-27 23:30:00,METAR LEMG 272330Z VRB02KT 9999 SCT035 OVC050 15/08 Q1019 NOSIG
2026-03-27 23:00:00,METAR LEMG 272300Z 06005KT 020V100 9999 SCT030 OVC045 15/09 Q1019 NOSIG
2026-03-27 22:30:00,METAR LEMG 272230Z 09006KT 9999 SCT030 OVC045 15/09 Q1019 NOSIG
2026-03-27 22:00:00,METAR LEMG 272200Z 10008KT 9999 OVC030 15/09 Q1019 NOSIG
2026-03-27 21:30:00,METAR LEMG 272130Z 11007KT 080V140 9999 OVC030 15/08 Q1018 NOSIG
2026-03-27 21:00:00,METAR LEMG 272100Z 09009KT 9999 SCT025 OVC040 15/09 Q1018 NOSIG
2026-03-27 20:30:00,METAR LEMG 272030Z 11007KT 080V140 9999 FEW025 OVC042 15/10 Q1018 NOSIG
2026-03-27 20:00:00,METAR LEMG 272000Z 12008KT 9999 FEW025 OVC042 15/09 Q1017 NOSIG
2026-03-27 19:30:00,METAR LEMG 271930Z 12008KT 9999 SCT023 BKN040 15/09 Q1017 NOSIG
2026-03-27 19:00:00,METAR LEMG 271900Z 12007KT 080V140 9999 SCT023 BKN050 15/09 Q1016 NOSIG
2026-03-27 18:30:00,METAR LEMG 271830Z 12008KT 9999 SCT023 BKN050 15/10 Q1016 NOSIG
2026-03-27 18:00:00,METAR LEMG 271800Z 13008KT 9999 SCT022 15/10 Q1015 NOSIG
2026-03-27 17:30:00,METAR LEMG 271730Z 13007KT 110V170 9999 SCT022 15/09 Q1015 NOSIG
2026-03-27 17:00:00,METAR LEMG 271700Z 13007KT 100V170 9999 FEW025 16/10 Q1015 NOSIG
2026-03-27 16:30:00,METAR LEMG 271630Z 14008KT 100V160 9999 FEW050 16/10 Q1014 NOSIG
2026-03-27 16:00:00,METAR LEMG 271600Z 12008KT 100V170 9999 FEW025 SCT048 16/10 Q1014 NOSIG
2026-03-25 15:00:00,METAR LEMG 251500Z 13007KT 090V170 CAVOK 17/10 Q1018 NOSIG
2026-03-25 14:30:00,METAR LEMG 251430Z 13006KT CAVOK 17/09 Q1018 NOSIG
2026-03-25 14:00:00,METAR LEMG 251400Z 14007KT 090V200 CAVOK 17/10 Q1018 NOSIG
2026-03-25 13:30:00,METAR LEMG 251330Z 13008KT 110V180 CAVOK 17/10 Q1019 NOSIG
2026-03-25 13:00:00,METAR LEMG 251300Z 15008KT 110V260 CAVOK 17/10 Q1020 NOSIG
2026-03-25 12:30:00,METAR LEMG 251230Z 13009KT 100V170 CAVOK 17/10 Q1020 NOSIG
2026-03-25 12:00:00,METAR LEMG 251200Z 15008KT 100V190 CAVOK 17/11 Q1020 NOSIG
2026-03-25 11:30:00,METAR LEMG 251130Z 14006KT 090V180 9999 FEW025 17/10 Q1021 NOSIG
2026-03-25 11:00:00,METAR LEMG 251100Z 14006KT 100V200 9999 FEW025 17/10 Q1021 NOSIG
2026-03-25 10:30:00,METAR LEMG 251030Z 13007KT 090V180 9999 FEW025 16/10 Q1021 NOSIG
2026-03-25 10:00:00,METAR LEMG 251000Z VRB05KT 9999 FEW020 16/10 Q1021 NOSIG
2026-03-25 09:30:00,METAR LEMG 250930Z 05002KT 9999 FEW020 16/10 Q1021 NOSIG
2026-03-25 09:00:00,METAR LEMG 250900Z 28005KT 250V320 9999 FEW020 15/11 Q1021 NOSIG
2026-03-25 08:30:00,METAR LEMG 250830Z 29006KT 9999 FEW015 13/10 Q1021 NOSIG
2026-03-25 08:00:00,METAR LEMG 250800Z 29006KT 9999 FEW019 12/09 Q1022 NOSIG
2026-03-25 07:30:00,METAR LEMG 250730Z 28006KT 9999 FEW018 10/09 Q1022 NOSIG
2026-03-25 07:00:00,METAR LEMG 250700Z 30007KT 9999 FEW018 SCT076 10/09 Q1022 NOSIG
2026-03-25 06:30:00,METAR LEMG 250630Z 28005KT 9999 BKN018 10/09 Q1022 NOSIG
2026-03-25 06:00:00,METAR LEMG 250600Z 29005KT 9999 SCT018 SCT075 09/08 Q1022 NOSIG
2026-03-25 05:30:00,METAR LEMG 250530Z 30005KT 9999 FEW018 SCT030 09/08 Q1021 NOSIG
2026-03-25 05:00:00,METAR LEMG 250500Z 29006KT 9999 FEW018 SCT025 10/09 Q1021 NOSIG
2026-03-25 04:30:00,METAR LEMG 250430Z 30006KT 9999 SCT018 BKN022 10/09 Q1021 NOSIG
2026-03-25 04:00:00,METAR LEMG 250400Z 29005KT 9999 SCT018 10/09 Q1021 NOSIG
2026-03-25 03:30:00,METAR LEMG 250330Z 29005KT 9999 SCT018 BKN022 11/10 Q1022 NOSIG
2026-03-25 03:00:00,METAR LEMG 250300Z 29004KT 9999 SCT018 11/10 Q1022 NOSIG
2026-03-25 02:30:00,METAR LEMG 250230Z 29004KT 9999 FEW018 SCT025 12/11 Q1022 NOSIG
2026-03-25 02:00:00,METAR LEMG 250200Z 12003KT 9999 BKN020 13/11 Q1022 NOSIG
2026-03-25 01:30:00,METAR LEMG 250130Z 12004KT 9999 SCT020 SCT045 14/11 Q1023 NOSIG
2026-03-25 01:00:00,METAR LEMG 250100Z 11004KT 080V140 9999 SCT020 SCT045 13/11 Q1023 NOSIG
2026-03-25 00:30:00,METAR LEMG 250030Z 10005KT 070V130 9999 FEW020 SCT035 14/11 Q1024 NOSIG
2026-03-25 00:00:00,METAR LEMG 250000Z 10005KT 9999 FEW020 BKN035 14/11 Q1024 NOSIG
2026-03-24 23:30:00,METAR LEMG 242330Z 11005KT 9999 FEW020 BKN035 14/10 Q1024 NOSIG
2026-03-24 23:00:00,METAR LEMG 242300Z 11006KT 9999 FEW020 BKN035 15/10 Q1024 NOSIG
2026-03-24 22:30:00,METAR LEMG 242230Z 10006KT 080V140 9999 FEW030 BKN040 15/10 Q1024 NOSIG
2026-03-24 22:00:00,METAR LEMG 242200Z COR 12004KT 9999 FEW030 BKN040 14/10 Q1024 NOSIG
2026-03-24 21:30:00,METAR LEMG 242130Z 12005KT 9999 FEW025 BKN040 14/10 Q1024 NOSIG
2026-03-24 21:00:00,METAR LEMG 242100Z 11004KT 9999 FEW020 SCT040 14/10 Q1023 NOSIG
2026-03-24 20:30:00,METAR LEMG 242030Z 11006KT 9999 FEW024 14/11 Q1023 NOSIG
2026-03-24 20:00:00,METAR LEMG 242000Z 10005KT 050V130 9999 FEW018 SCT040 15/11 Q1023 NOSIG
2026-03-24 19:30:00,METAR LEMG 241930Z 10006KT 050V140 9999 FEW020 BKN043 15/10 Q1022 NOSIG
2026-03-24 19:00:00,METAR LEMG 241900Z 11007KT 080V150 9999 SCT020 BKN040 15/10 Q1022 NOSIG
2026-03-24 18:30:00,METAR LEMG 241830Z COR 11007KT 070V150 9999 SCT020 BKN040 15/10 Q1022 NOSIG
2026-03-24 18:00:00,METAR LEMG 241800Z 12007KT 9999 SCT020 BKN040 15/10 Q1022 NOSIG
2026-03-24 17:30:00,METAR LEMG 241730Z 12008KT 9999 SCT020 15/10 Q1022 NOSIG
2026-03-24 17:00:00,METAR LEMG 241700Z 10009KT 9999 FEW020 SCT040 16/11 Q1022 NOSIG
2026-03-24 16:30:00,METAR LEMG 241630Z 12009KT 9999 FEW020 BKN042 16/11 Q1022 NOSIG
2026-03-24 16:00:00,METAR LEMG 241600Z 12010KT 080V160 9999 FEW020 BKN042 16/10 Q1022 NOSIG
2026-03-24 15:30:00,METAR LEMG 241530Z 12009KT 090V150 9999 SCT035 17/11 Q1022 NOSIG
2026-03-24 15:00:00,METAR LEMG 241500Z 11010KT 050V150 9999 SCT030 17/11 Q1022 NOSIG
2026-03-24 14:30:00,METAR LEMG 241430Z 11010KT 080V150 9999 SCT024 17/11 Q1023 NOSIG
2026-03-24 14:00:00,METAR LEMG 241400Z 11011KT 080V150 9999 SCT024 16/11 Q1023 NOSIG
2026-03-24 13:30:00,METAR LEMG 241330Z 10011KT 070V150 9999 SCT024 17/11 Q1023 NOSIG
2026-03-24 13:00:00,METAR LEMG 241300Z 11011KT 070V130 9999 BKN024 16/10 Q1023 NOSIG
2026-03-24 12:30:00,METAR LEMG 241230Z 11012KT 080V150 9999 SCT024 17/11 Q1023 NOSIG
2026-03-24 12:00:00,METAR LEMG 241200Z 12013KT 070V150 9999 SCT024 17/11 Q1023 NOSIG
2026-03-24 11:30:00,METAR LEMG 241130Z 12012KT 080V150 9999 FEW035 17/10 Q1023 NOSIG
2026-03-24 11:00:00,METAR LEMG 241100Z 12013KT 080V150 9999 SCT025 17/10 Q1023 NOSIG
2026-03-24 10:30:00,METAR LEMG 241030Z 11012KT 080V140 9999 FEW025 SCT060 17/10 Q1023 NOSIG
2026-03-24 10:00:00,METAR LEMG 241000Z 12012KT 080V150 9999 FEW025 BKN060 17/09 Q1023 NOSIG
2026-03-24 09:30:00,METAR LEMG 240930Z 12013KT 090V150 9999 FEW025 BKN055 16/09 Q1023 NOSIG
2026-03-24 09:00:00,METAR LEMG 240900Z 13011KT 090V160 9999 FEW020 BKN055 15/10 Q1023 NOSIG
2026-03-24 08:30:00,METAR LEMG 240830Z 12012KT 080V150 9999 FEW020 BKN050 16/10 Q1022 NOSIG
2026-03-24 08:00:00,METAR LEMG 240800Z 13009KT 9999 FEW018 SCT055 16/10 Q1022 NOSIG
2026-03-24 07:30:00,METAR LEMG 240730Z 12010KT 9999 FEW018 BKN055 15/11 Q1022 NOSIG
2026-03-24 07:00:00,METAR LEMG 240700Z 13009KT 9999 FEW020 SCT030 BKN055 15/11 Q1021 NOSIG
2026-03-24 06:30:00,METAR LEMG 240630Z 12010KT 090V150 9999 FEW018 SCT030 BKN045 15/11 Q1021 NOSIG
2026-03-24 06:00:00,METAR LEMG 240600Z 12009KT 9999 FEW022 SCT030 OVC045 15/11 Q1021 NOSIG
2026-03-24 05:30:00,METAR LEMG 240530Z 12011KT 9999 FEW022 OVC040 15/10 Q1021 NOSIG
2026-03-24 05:00:00,METAR LEMG 240500Z 13012KT 9999 FEW022 OVC040 15/10 Q1021 NOSIG
2026-03-24 04:30:00,METAR LEMG 240430Z 13010KT 9999 FEW022 BKN040 15/11 Q1020 NOSIG
2026-03-24 04:00:00,METAR LEMG 240400Z 12011KT 9999 FEW022 BKN040 15/11 Q1020 NOSIG
2026-03-24 03:30:00,METAR LEMG 240330Z 12007KT 9999 BKN025 15/11 Q1020 NOSIG
2026-03-24 03:00:00,METAR LEMG 240300Z 11008KT 9999 BKN025 15/12 Q1020 NOSIG
2026-03-24 02:30:00,METAR LEMG 240230Z 13012KT 9999 SCT020 BKN035 15/11 Q1020 NOSIG
2026-03-24 02:00:00,METAR LEMG 240200Z 13006KT 9999 BKN025 15/12 Q1020 NOSIG
2026-03-24 01:30:00,METAR LEMG 240130Z 13005KT 9999 BKN025 15/11 Q1020 NOSIG
2026-03-24 01:00:00,METAR LEMG 240100Z 13005KT 9999 FEW045 SCT085 14/11 Q1020 NOSIG
2026-03-24 00:30:00,METAR LEMG 240030Z 12005KT 9999 FEW018 BKN044 15/12 Q1020 NOSIG
2026-03-24 00:00:00,METAR LEMG 240000Z 12005KT 9999 FEW018 BKN042 15/12 Q1020 NOSIG
2026-03-23 23:30:00,METAR LEMG 232330Z 12004KT 9999 FEW017 OVC040 15/12 Q1020 NOSIG
2026-03-23 23:00:00,METAR LEMG 232300Z 11004KT 9999 FEW017 OVC039 15/12 Q1020 NOSIG
2026-03-23 22:30:00,METAR LEMG 232230Z 12004KT 080V140 9999 SCT016 OVC035 15/12 Q1020 NOSIG
2026-03-23 22:00:00,METAR LEMG 232200Z 11006KT 9999 SCT015 BKN030 15/12 Q1019 NOSIG
2026-03-23 21:30:00,METAR LEMG 232130Z 10005KT 080V140 9999 SCT015 BKN028 15/12 Q1019 NOSIG
2026-03-23 21:00:00,METAR LEMG 232100Z 10005KT 050V130 9999 SCT015 BKN030 15/12 Q1019 NOSIG
2026-03-23 20:30:00,METAR LEMG 232030Z 10005KT 9999 FEW015 BKN030 15/12 Q1018 NOSIG
2026-03-23 20:00:00,METAR LEMG 232000Z 11006KT 070V140 9999 SCT015 BKN025 15/12 Q1018 NOSIG
2026-03-23 19:30:00,METAR LEMG 231930Z 10005KT 060V160 9999 FEW014 SCT025 15/12 Q1017 NOSIG
2026-03-23 19:00:00,METAR LEMG 231900Z 10007KT 9999 FEW016 SCT025 15/12 Q1017 NOSIG
2026-03-23 18:30:00,METAR LEMG 231830Z 11009KT 080V150 9999 SCT017 15/12 Q1016 NOSIG
2026-03-23 18:00:00,METAR LEMG 231800Z 12008KT 9999 FEW016 16/12 Q1016 NOSIG
2026-03-23 17:30:00,METAR LEMG 231730Z 13009KT 9999 FEW040 16/12 Q1015 NOSIG
2026-03-23 17:00:00,METAR LEMG 231700Z 13008KT 100V160 9999 FEW040 16/11 Q1015 NOSIG
2026-03-23 16:30:00,METAR LEMG 231630Z 13010KT 100V160 9999 FEW040 16/12 Q1014 NOSIG
2026-03-23 16:00:00,METAR LEMG 231600Z 13010KT 9999 FEW040 17/10 Q1014 NOSIG
2026-03-23 15:30:00,METAR LEMG 231530Z 14011KT 120V180 9999 FEW040 18/11 Q1014 NOSIG
2026-03-23 15:00:00,METAR LEMG 231500Z 14010KT 110V190 9999 FEW040 18/11 Q1014 NOSIG
2026-03-23 14:30:00,METAR LEMG 231430Z 14009KT 100V190 9999 FEW040 18/10 Q1013 NOSIG
2026-03-23 14:00:00,METAR LEMG 231400Z 15010KT 120V190 9999 FEW040 18/11 Q1013 NOSIG
2026-03-23 13:30:00,METAR LEMG 231330Z 14012KT 110V170 9999 FEW040 18/12 Q1013 NOSIG
2026-03-23 13:00:00,METAR LEMG 231300Z 15012KT 120V190 9999 FEW035 17/12 Q1013 NOSIG
2026-03-23 12:30:00,METAR LEMG 231230Z 15010KT 110V190 9999 FEW035 18/13 Q1013 NOSIG
2026-03-23 12:00:00,METAR LEMG 231200Z 14009KT 110V190 9999 FEW030 18/12 Q1013 NOSIG
2026-03-23 11:30:00,METAR LEMG 231130Z 13008KT 100V160 9999 FEW025 18/11 Q1013 NOSIG
2026-03-23 11:00:00,METAR LEMG 231100Z 13006KT 080V150 9999 FEW020 17/10 Q1013 NOSIG
2026-03-23 10:30:00,METAR LEMG 231030Z 12006KT 060V150 9999 FEW020 17/11 Q1013 NOSIG
2026-03-23 10:00:00,METAR LEMG 231000Z 10001KT 9999 FEW018 17/11 Q1013 NOSIG
2026-03-23 09:30:00,METAR LEMG 230930Z 33003KT 280V020 CAVOK 15/10 Q1013 NOSIG
2026-03-23 09:00:00,METAR LEMG 230900Z 29005KT 270V330 CAVOK 13/10 Q1013 NOSIG
2026-03-23 08:30:00,METAR LEMG 230830Z 30005KT CAVOK 12/10 Q1013 NOSIG
2026-03-23 08:00:00,METAR LEMG 230800Z 31005KT CAVOK 10/09 Q1013 NOSIG
2026-03-23 07:30:00,METAR LEMG 230730Z 30007KT CAVOK 09/09 Q1013 NOSIG
2026-03-23 07:00:00,METAR LEMG 230700Z 30007KT CAVOK 08/08 Q1012 NOSIG
2026-03-23 06:30:00,METAR LEMG 230630Z 29007KT CAVOK 08/07 Q1012 NOSIG
2026-03-23 06:00:00,METAR LEMG 230600Z 31007KT CAVOK 08/07 Q1012 NOSIG
2026-03-23 05:30:00,METAR LEMG 230530Z 31005KT CAVOK 08/08 Q1012 NOSIG
2026-03-23 05:00:00,METAR LEMG 230500Z 30008KT CAVOK 08/07 Q1012 NOSIG
2026-03-23 04:30:00,METAR LEMG 230430Z 27006KT CAVOK 09/08 Q1012 NOSIG
2026-03-23 04:00:00,METAR LEMG 230400Z 29006KT CAVOK 09/08 Q1012 NOSIG
2026-03-23 03:30:00,METAR LEMG 230330Z 29007KT CAVOK 09/08 Q1012 NOSIG
2026-03-23 03:00:00,METAR LEMG 230300Z 28007KT CAVOK 09/09 Q1012 NOSIG
2026-03-23 02:30:00,METAR LEMG 230230Z 30005KT CAVOK 09/08 Q1012 NOSIG
2026-03-23 02:00:00,METAR LEMG 230200Z 30007KT CAVOK 09/08 Q1012 NOSIG
2026-03-23 01:30:00,METAR LEMG 230130Z 28005KT CAVOK 09/08 Q1012 NOSIG
2026-03-23 01:00:00,METAR LEMG 230100Z 31004KT CAVOK 09/08 Q1012 NOSIG
2026-03-23 00:30:00,METAR LEMG 230030Z 30004KT 9999 FEW015 09/08 Q1012 NOSIG
2026-03-23 00:00:00,METAR LEMG 230000Z 29005KT 9999 FEW015 10/09 Q1012 NOSIG
2026-03-22 23:30:00,METAR LEMG 222330Z 30005KT CAVOK 10/08 Q1013 NOSIG
2026-03-22 23:00:00,METAR LEMG 222300Z 28004KT 250V310 9999 FEW020 11/09 Q1013 NOSIG
2026-03-22 22:30:00,METAR LEMG 222230Z 28005KT 9999 SCT016 11/09 Q1013 NOSIG
2026-03-22 22:00:00,METAR LEMG 222200Z VRB01KT 9999 SCT015 12/10 Q1013 NOSIG
2026-03-22 21:30:00,METAR LEMG 222130Z 16001KT 9999 SCT016 13/10 Q1013 NOSIG
2026-03-22 21:00:00,METAR LEMG 222100Z VRB01KT 9999 SCT015 13/10 Q1013 NOSIG
2026-03-22 20:30:00,METAR LEMG 222030Z VRB01KT 9999 FEW014 13/11 Q1013 NOSIG
2026-03-22 20:00:00,METAR LEMG 222000Z 13003KT 9999 FEW014 13/11 Q1012 NOSIG
2026-03-22 19:30:00,METAR LEMG 221930Z 14004KT 9999 FEW014 14/11 Q1012 NOSIG
2026-03-22 19:00:00,METAR LEMG 221900Z 13004KT CAVOK 14/11 Q1011 NOSIG
2026-03-22 18:30:00,METAR LEMG 221830Z 14005KT 120V190 CAVOK 14/11 Q1011 NOSIG
2026-03-22 18:00:00,METAR LEMG 221800Z 15005KT 110V190 CAVOK 15/11 Q1011 NOSIG
2026-03-22 17:30:00,METAR LEMG 221730Z 13006KT 100V160 CAVOK 15/11 Q1011 NOSIG
2026-03-22 17:00:00,METAR LEMG 221700Z 12005KT CAVOK 16/09 Q1011 NOSIG
2026-03-22 16:30:00,METAR LEMG 221630Z 13004KT 090V190 9999 FEW030 16/10 Q1011 NOSIG
2026-03-22 16:00:00,METAR LEMG 221600Z 13006KT 080V170 9999 FEW025 16/10 Q1011 NOSIG
2026-03-22 15:30:00,METAR LEMG 221530Z 15006KT 110V200 9999 FEW023 16/10 Q1011 NOSIG
2026-03-22 15:00:00,METAR LEMG 221500Z 12006KT 070V170 9999 FEW020 16/10 Q1012 NOSIG
2026-03-22 14:30:00,METAR LEMG 221430Z 11007KT 070V140 9999 FEW020 16/11 Q1012 NOSIG
2026-03-22 14:00:00,METAR LEMG 221400Z 12008KT 070V160 9999 FEW023 16/11 Q1012 NOSIG
2026-03-22 13:30:00,METAR LEMG 221330Z 12008KT 090V160 9999 FEW024 17/11 Q1013 NOSIG
2026-03-22 12:30:00,METAR LEMG 221230Z 10008KT 070V150 9999 FEW025 16/11 Q1013 NOSIG
2026-03-22 12:00:00,METAR LEMG 221200Z 12008KT 090V150 9999 FEW025 16/10 Q1013 NOSIG
2026-03-22 11:30:00,METAR LEMG 221130Z 12008KT 080V160 9999 FEW025 16/10 Q1013 NOSIG
2026-03-22 10:30:00,METAR LEMG 221030Z 08006KT 9999 FEW028 16/10 Q1012 NOSIG
2026-03-22 10:00:00,METAR LEMG 221000Z 14006KT 100V190 9999 FEW028 16/09 Q1012 NOSIG
2026-03-22 09:30:00,METAR LEMG 220930Z 09005KT 9999 SCT028 16/10 Q1012 NOSIG
2026-03-22 08:30:00,METAR LEMG 220830Z 31002KT 9999 FEW020 14/09 Q1012 NOSIG
2026-03-22 08:00:00,METAR LEMG 220800Z VRB02KT 9999 FEW025 SCT055 14/09 Q1012 NOSIG
2026-03-22 07:30:00,METAR LEMG 220730Z 29002KT 9999 FEW025 SCT075 13/10 Q1012 NOSIG
2026-03-22 07:00:00,METAR LEMG 220700Z 28003KT 9999 FEW025 BKN075 12/10 Q1012 NOSIG
2026-03-22 06:30:00,METAR LEMG 220630Z 28004KT 9999 FEW025 BKN060 12/10 Q1011 NOSIG
2026-03-22 06:00:00,METAR LEMG 220600Z VRB01KT 9999 FEW025 OVC055 13/10 Q1011 NOSIG
2026-03-22 05:30:00,METAR LEMG 220530Z 00000KT 9999 FEW025 BKN055 13/09 Q1011 NOSIG
2026-03-22 05:00:00,METAR LEMG 220500Z 12001KT 9999 FEW025 BKN055 13/09 Q1011 NOSIG
2026-03-22 04:30:00,METAR LEMG 220430Z VRB02KT 9999 FEW025 BKN055 13/09 Q1011 NOSIG
2026-03-22 03:30:00,METAR LEMG 220330Z 09006KT 9999 FEW025 14/09 Q1010 NOSIG
2026-03-22 03:00:00,METAR LEMG 220300Z 09006KT 060V130 9999 FEW025 BKN045 14/10 Q1011 NOSIG
2026-03-22 02:30:00,METAR LEMG 220230Z 09007KT 060V120 9999 FEW025 BKN040 14/10 Q1011 NOSIG
2026-03-22 02:00:00,METAR LEMG 220200Z 10008KT 9999 R30///// FEW020 BKN040 14/10 Q1011 NOSIG
2026-03-22 01:30:00,METAR LEMG 220130Z 10006KT 9999 FEW020 BKN040 14/10 Q1012 NOSIG
2026-03-22 01:00:00,METAR LEMG 220100Z 10006KT 070V130 9999 FEW020 BKN040 14/09 Q1012 NOSIG
2026-03-22 00:30:00,METAR LEMG 220030Z 11007KT 080V140 9999 FEW025 BKN040 14/10 Q1012 NOSIG
2026-03-22 00:00:00,METAR LEMG 220000Z 11009KT 080V140 9999 FEW025 BKN040 14/09 Q1012 NOSIG
2026-03-21 23:30:00,METAR LEMG 212330Z 11007KT 9999 FEW025 BKN045 14/09 Q1012 NOSIG
2026-03-21 23:00:00,METAR LEMG 212300Z 11006KT 080V140 9999 FEW025 BKN050 14/09 Q1012 NOSIG
2026-03-21 22:30:00,METAR LEMG 212230Z 10006KT 060V120 9999 FEW020 BKN045 14/09 Q1012 NOSIG
2026-03-21 21:30:00,METAR LEMG 212130Z 10007KT 9999 FEW020 BKN045 14/10 Q1012 NOSIG
2026-03-21 21:00:00,METAR LEMG 212100Z 10008KT 9999 FEW020 BKN040 14/10 Q1012 NOSIG
2026-03-21 20:30:00,METAR LEMG 212030Z 10008KT 9999 FEW018 BKN040 15/11 Q1011 NOSIG
2026-03-21 19:30:00,METAR LEMG 211930Z 10009KT 9999 FEW018 BKN045 15/11 Q1011 NOSIG
2026-03-21 19:00:00,METAR LEMG 211900Z 09008KT 060V120 9999 FEW018 BKN045 15/11 Q1011 NOSIG
2026-03-21 18:30:00,METAR LEMG 211830Z 09008KT 060V120 9999 FEW018 BKN040 15/11 Q1011 NOSIG
2026-03-21 18:00:00,METAR LEMG 211800Z 09007KT 060V120 9999 FEW020 BKN035 15/11 Q1011 NOSIG
2026-03-21 17:30:00,METAR LEMG 211730Z 10007KT 070V150 9999 FEW020 BKN035 15/11 Q1011 NOSIG
2026-03-21 17:00:00,METAR LEMG 211700Z 11008KT 070V140 9999 FEW020 BKN045 15/11 Q1011 NOSIG
2026-03-21 16:30:00,METAR LEMG 211630Z 10009KT 060V130 9999 FEW020 BKN045 15/11 Q1010 NOSIG
2026-03-21 16:00:00,METAR LEMG 211600Z 10007KT 9999 FEW020 BKN045 15/11 Q1010 NOSIG
2026-03-21 15:30:00,METAR LEMG 211530Z 11008KT 080V140 9999 FEW020 BKN045 16/11 Q1011 NOSIG
2026-03-21 15:00:00,METAR LEMG 211500Z 11009KT 9999 FEW020 BKN050 16/11 Q1011 NOSIG
2026-03-21 14:30:00,METAR LEMG 211430Z 12009KT 9999 FEW025 OVC050 16/10 Q1011 NOSIG
2026-03-21 14:00:00,METAR LEMG 211400Z 11010KT 090V150 9999 FEW025 OVC045 16/10 Q1011 NOSIG
2026-03-21 13:30:00,METAR LEMG 211330Z 11009KT 080V140 9999 FEW030 BKN045 16/10 Q1011 NOSIG
2026-03-21 13:00:00,METAR LEMG 211300Z 11007KT 080V150 9999 FEW030 BKN040 16/10 Q1011 NOSIG
2026-03-21 12:30:00,METAR LEMG 211230Z 11008KT 060V140 9999 FEW030 BKN040 16/10 Q1011 NOSIG
2026-03-21 12:00:00,METAR LEMG 211200Z 10009KT 060V140 9999 FEW025 BKN040 OVC060 16/10 Q1012 NOSIG
2026-03-21 11:30:00,METAR LEMG 211130Z 11008KT 070V140 9999 FEW025 BKN040 OVC060 16/10 Q1012 NOSIG
2026-03-21 11:00:00,METAR LEMG 211100Z 11008KT 070V150 9999 FEW030 OVC040 16/10 Q1012 NOSIG
2026-03-21 10:30:00,METAR LEMG 211030Z 11006KT 080V140 9999 FEW030 OVC040 15/10 Q1012 NOSIG
2026-03-21 10:00:00,METAR LEMG 211000Z 12005KT 080V160 9999 FEW030 OVC040 15/10 Q1012 NOSIG
2026-03-21 09:30:00,METAR LEMG 210930Z 12005KT 080V150 9999 FEW030 BKN040 15/09 Q1012 NOSIG
2026-03-21 09:00:00,METAR LEMG 210900Z 11004KT 080V140 9999 FEW027 BKN040 15/09 Q1012 NOSIG
2026-03-21 08:30:00,METAR LEMG 210830Z 11003KT 080V160 9999 FEW030 BKN040 15/09 Q1012 NOSIG
2026-03-21 08:00:00,METAR LEMG 210800Z 00000KT 9999 FEW027 BKN040 14/11 Q1012 NOSIG
2026-03-21 07:30:00,METAR LEMG 210730Z 28002KT 9999 SCT027 BKN040 13/11 Q1011 NOSIG
2026-03-21 07:00:00,METAR LEMG 210700Z VRB02KT 9999 FEW027 BKN040 13/11 Q1011 NOSIG
2026-03-21 06:30:00,METAR LEMG 210630Z 28003KT 9999 FEW026 BKN040 13/11 Q1011 NOSIG
2026-03-21 06:00:00,METAR LEMG 210600Z VRB01KT 9999 FEW026 BKN040 13/10 Q1011 NOSIG
2026-03-21 05:30:00,METAR LEMG 210530Z VRB02KT 9999 FEW026 BKN040 BKN052 14/09 Q1011 NOSIG
2026-03-21 05:00:00,METAR LEMG 210500Z VRB02KT 9999 FEW026 SCT040 BKN052 14/10 Q1011 NOSIG
2026-03-21 04:30:00,METAR LEMG 210430Z 00000KT 9999 FEW026 BKN050 14/11 Q1011 NOSIG
2026-03-21 04:00:00,METAR LEMG 210400Z 10003KT 9999 FEW026 BKN050 14/10 Q1011 NOSIG
2026-03-21 03:30:00,METAR LEMG 210330Z 11005KT 9999 FEW026 BKN050 14/10 Q1011 NOSIG
2026-03-21 03:00:00,METAR LEMG 210300Z 10005KT 070V130 9999 SCT026 BKN050 14/10 Q1011 NOSIG
2026-03-21 02:30:00,METAR LEMG 210230Z 11004KT 9999 SCT028 BKN050 14/10 Q1012 NOSIG
2026-03-21 02:00:00,METAR LEMG 210200Z 10004KT 9999 SCT028 BKN050 14/10 Q1012 NOSIG
2026-03-21 01:30:00,METAR LEMG 210130Z 10006KT 9999 SCT028 BKN050 14/10 Q1012 NOSIG
2026-03-21 01:00:00,METAR LEMG 210100Z 10009KT 9999 FEW028 BKN050 15/10 Q1012 NOSIG
2026-03-21 00:30:00,METAR LEMG 210030Z 11008KT 9999 FEW026 BKN050 15/09 Q1012 NOSIG
2026-03-21 00:00:00,METAR LEMG 210000Z 11008KT 9999 SCT026 SCT054 15/09 Q1012 NOSIG
2026-03-20 23:30:00,METAR LEMG 202330Z 10008KT 9999 SCT026 SCT054 15/10 Q1012 NOSIG
2026-03-20 23:00:00,METAR LEMG 202300Z 11009KT 080V140 9999 FEW026 SCT054 15/10 Q1012 NOSIG
2026-03-20 22:30:00,METAR LEMG 202230Z 11008KT 9999 FEW025 SCT050 BKN070 15/10 Q1012 NOSIG
2026-03-20 21:30:00,METAR LEMG 202130Z 12005KT 080V140 9999 SCT024 BKN070 15/11 Q1012 NOSIG
2026-03-20 21:00:00,METAR LEMG 202100Z 13008KT 9999 SCT024 BKN070 14/11 Q1012 NOSIG
2026-03-20 20:30:00,METAR LEMG 202030Z 12007KT 9999 SCT026 BKN070 14/10 Q1012 NOSIG
2026-03-20 20:00:00,METAR LEMG 202000Z 13006KT 100V160 9999 -RA FEW024 SCT050 14/11 Q1012 NOSIG
2026-03-20 19:30:00,METAR LEMG 201930Z 12008KT 9999 -RA FEW022 SCT050 14/11 Q1011 NOSIG
2026-03-20 19:00:00,METAR LEMG 201900Z 12010KT 9999 -RA FEW022 SCT050 15/10 Q1011 NOSIG
2026-03-20 18:30:00,METAR LEMG 201830Z 12008KT 9999 FEW022 BKN048 15/09 Q1011 NOSIG
2026-03-20 18:00:00,METAR LEMG 201800Z 11009KT 080V140 9999 FEW022 BKN048 15/09 Q1011 NOSIG
2026-03-20 17:30:00,METAR LEMG 201730Z 11010KT 9999 FEW021 BKN044 BKN060 16/10 Q1010 NOSIG
2026-03-20 17:00:00,METAR LEMG 201700Z 11010KT 080V140 9999 FEW022 SCT042 BKN060 16/09 Q1010 NOSIG
2026-03-20 16:30:00,METAR LEMG 201630Z 11012KT 9999 FEW022 SCT062 17/10 Q1010 NOSIG
2026-03-20 16:00:00,METAR LEMG 201600Z 11009KT 080V140 9999 FEW022 SCT065 16/10 Q1010 NOSIG
2026-03-20 15:30:00,METAR LEMG 201530Z 11012KT 080V140 9999 FEW022 SCT040 BKN070 16/10 Q1010 NOSIG
2026-03-20 15:00:00,METAR LEMG 201500Z 10013KT 9999 FEW022 BKN040 17/11 Q1010 NOSIG
2026-03-20 14:30:00,METAR LEMG 201430Z 11014KT 9999 FEW022 BKN040 16/11 Q1010 NOSIG
2026-03-20 14:00:00,METAR LEMG 201400Z 11015KT 9999 FEW024 BKN040 16/10 Q1010 NOSIG
2026-03-20 13:30:00,METAR LEMG 201330Z 11015KT 080V140 9999 FEW024 BKN040 16/11 Q1010 NOSIG
2026-03-20 12:30:00,METAR LEMG 201230Z 12014KT 080V140 9999 FEW023 BKN036 17/10 Q1011 NOSIG
2026-03-20 11:30:00,METAR LEMG 201130Z 11015KT 9999 FEW022 BKN032 16/11 Q1011 NOSIG
2026-03-20 10:30:00,METAR LEMG 201030Z 09007KT 9000 BKN022 15/11 Q1012 NOSIG
2026-03-20 10:00:00,METAR LEMG 201000Z VRB01KT 9000 SCT023 BKN065 16/12 Q1012 NOSIG
2026-03-20 09:30:00,METAR LEMG 200930Z VRB02KT 9000 SCT024 BKN065 15/11 Q1011 NOSIG
2026-03-20 09:00:00,METAR LEMG 200900Z 31003KT 270V340 9000 SCT024 BKN065 15/12 Q1011 NOSIG
2026-03-20 08:30:00,METAR LEMG 200830Z 32003KT 9000 BKN023 14/11 Q1011 NOSIG
2026-03-20 08:00:00,METAR LEMG 200800Z 28004KT 9999 SCT025 BKN030 14/12 Q1011 NOSIG
2026-03-20 07:30:00,METAR LEMG 200730Z 27004KT 240V310 9999 FEW020 BKN030 14/12 Q1011 NOSIG
2026-03-20 06:30:00,METAR LEMG 200630Z 34004KT 300V100 9999 FEW025 BKN030 14/12 Q1011 NOSIG
2026-03-20 06:00:00,METAR LEMG 200600Z 12005KT 080V150 9999 FEW025 BKN030 15/11 Q1010 NOSIG
2026-03-20 05:30:00,METAR LEMG 200530Z 15007KT 110V200 4000 -RA FEW025 SCT030 BKN080 14/11 Q1010 RERA NOSIG
2026-03-20 05:12:00,SPECI LEMG 200512Z 12012KT 100V160 4000 RA FEW025 BKN030 14/11 Q1010 NOSIG
2026-03-20 05:00:00,METAR LEMG 200500Z 13012KT 090V160 9999 FEW025 BKN030 15/11 Q1010 NOSIG
2026-03-20 04:30:00,METAR LEMG 200430Z 14013KT 110V170 9999 FEW025 BKN030 15/10 Q1010 NOSIG
2026-03-20 04:00:00,METAR LEMG 200400Z 15010KT 120V190 9999 FEW025 BKN030 15/10 Q1010 NOSIG
2026-03-20 03:30:00,METAR LEMG 200330Z 15010KT 100V190 9999 FEW025 BKN030 15/10 Q1010 NOSIG
2026-03-20 03:00:00,METAR LEMG 200300Z 18006KT 140V230 9999 FEW025 BKN030 15/10 Q1010 NOSIG
2026-03-20 02:30:00,METAR LEMG 200230Z 18006KT 140V220 9999 FEW025 BKN030 15/10 Q1009 NOSIG
2026-03-20 02:00:00,METAR LEMG 200200Z 16006KT 120V220 9999 FEW025 BKN030 15/10 Q1010 NOSIG
2026-03-20 01:30:00,METAR LEMG 200130Z 14009KT 120V190 9999 SCT025 BKN030 15/10 Q1009 NOSIG
2026-03-20 01:00:00,METAR LEMG 200100Z 16009KT 110V210 9999 SCT025 BKN030 15/10 Q1010 NOSIG
2026-03-20 00:30:00,METAR LEMG 200030Z 16010KT 130V200 9999 SCT025 BKN030 15/10 Q1010 NOSIG
2026-03-20 00:00:00,METAR LEMG 200000Z 15010KT 110V200 9999 BKN025 15/10 Q1010 NOSIG
2026-03-19 23:30:00,METAR LEMG 192330Z 16010KT 120V210 9999 BKN025 15/10 Q1010 NOSIG
2026-03-19 23:00:00,METAR LEMG 192300Z 15007KT 120V200 9999 SCT020 BKN030 15/11 Q1010 NOSIG
2026-03-19 22:30:00,METAR LEMG 192230Z 14008KT 110V170 9999 FEW020 BKN030 15/11 Q1010 NOSIG
2026-03-19 22:00:00,METAR LEMG 192200Z 15006KT 9999 FEW020 BKN030 15/11 Q1010 NOSIG
2026-03-19 21:30:00,METAR LEMG 192130Z 16007KT 120V190 9999 FEW020 BKN030 16/11 Q1010 NOSIG
2026-03-19 21:00:00,METAR LEMG 192100Z 17006KT 120V230 9999 FEW020 BKN030 16/11 Q1010 NOSIG
2026-03-19 20:30:00,METAR LEMG 192030Z 17008KT 140V210 9999 FEW020 BKN035 16/11 Q1010 NOSIG
2026-03-19 20:00:00,METAR LEMG 192000Z 20008KT 160V240 9999 FEW020 BKN035 16/11 Q1009 NOSIG
2026-03-19 19:30:00,METAR LEMG 191930Z 19006KT 150V230 9999 FEW020 BKN035 16/10 Q1009 NOSIG
2026-03-19 19:00:00,METAR LEMG 191900Z 17007KT 130V250 9999 FEW020 BKN030 16/11 Q1009 NOSIG
2026-03-19 18:30:00,METAR LEMG 191830Z 16005KT 100V220 9999 FEW020 BKN030 16/11 Q1009 NOSIG
2026-03-19 18:00:00,METAR LEMG 191800Z 15005KT 130V190 9999 FEW020 SCT030 16/11 Q1008 NOSIG
2026-03-19 17:30:00,METAR LEMG 191730Z 14005KT 080V190 9999 FEW020 BKN030 16/11 Q1009 NOSIG
2026-03-19 17:00:00,METAR LEMG 191700Z 14006KT 100V190 9999 FEW020 BKN030 16/11 Q1008 NOSIG
2026-03-19 16:30:00,METAR LEMG 191630Z COR 13008KT 100V160 9999 FEW020 BKN030 17/11 Q1009 NOSIG
2026-03-19 16:00:00,METAR LEMG 191600Z 13009KT 110V170 9999 FEW020 BKN030 17/12 Q1009 NOSIG
2026-03-19 15:30:00,METAR LEMG 191530Z 13009KT 9999 FEW020 BKN030 17/12 Q1009 NOSIG
2026-03-19 15:00:00,METAR LEMG 191500Z 13010KT 110V170 9999 FEW020 SCT030 17/11 Q1009 NOSIG
2026-03-19 14:30:00,METAR LEMG 191430Z 13012KT 9999 FEW020 18/11 Q1009 NOSIG
2026-03-19 14:00:00,METAR LEMG 191400Z 14011KT 110V170 9999 FEW020 17/11 Q1009 NOSIG
2026-03-19 13:30:00,METAR LEMG 191330Z 14011KT 110V170 9999 FEW020 18/12 Q1009 NOSIG
2026-03-19 13:00:00,METAR LEMG 191300Z 15011KT 9999 FEW020 18/11 Q1010 NOSIG
2026-03-19 12:30:00,METAR LEMG 191230Z 15012KT 110V190 9999 FEW020 17/11 Q1010 NOSIG
2026-03-19 12:00:00,METAR LEMG 191200Z 17012KT 120V210 9999 FEW020 18/11 Q1010 NOSIG
2026-03-19 11:30:00,METAR LEMG 191130Z 15008KT 110V200 9999 FEW020 19/11 Q1010 NOSIG
2026-03-19 11:00:00,METAR LEMG 191100Z 13005KT 080V200 9999 FEW020 19/11 Q1010 NOSIG
2026-03-19 10:30:00,METAR LEMG 191030Z 21001KT 9999 FEW020 18/11 Q1010 BECMG 13012KT
2026-03-19 10:00:00,METAR LEMG 191000Z 33003KT 290V040 9999 FEW020 16/12 Q1010 BECMG 13012KT
2026-03-19 09:30:00,METAR LEMG 190930Z 29004KT 260V320 9999 FEW020 15/11 Q1010 BECMG 13012KT
2026-03-19 09:00:00,METAR LEMG 190900Z 29005KT 260V320 9999 FEW020 14/11 Q1010 BECMG 13012KT
2026-03-19 08:30:00,METAR LEMG 190830Z 28005KT 9999 SCT020 13/10 Q1009 NOSIG
2026-03-19 08:00:00,METAR LEMG 190800Z 28005KT 260V320 9999 SCT015 BKN025 12/09 Q1009 NOSIG
2026-03-19 07:30:00,METAR LEMG 190730Z 29004KT 9999 BKN015 11/09 Q1009 NOSIG
2026-03-19 07:00:00,METAR LEMG 190700Z 29003KT 9999 SCT019 10/09 Q1009 NOSIG
2026-03-19 06:30:00,METAR LEMG 190630Z 29005KT 9999 FEW050 09/08 Q1008 NOSIG
2026-03-19 06:00:00,METAR LEMG 190600Z 29005KT 9999 FEW050 09/08 Q1008 NOSIG
2026-03-19 05:30:00,METAR LEMG 190530Z 29007KT CAVOK 09/08 Q1007 NOSIG
2026-03-19 05:00:00,METAR LEMG 190500Z 31004KT CAVOK 10/08 Q1007 NOSIG
2026-03-19 04:30:00,METAR LEMG 190430Z 29008KT CAVOK 10/09 Q1007 NOSIG
2026-03-19 04:00:00,METAR LEMG 190400Z 30007KT CAVOK 09/08 Q1007 NOSIG
2026-03-19 03:30:00,METAR LEMG 190330Z 30004KT 280V340 CAVOK 09/09 Q1007 NOSIG
2026-03-19 03:00:00,METAR LEMG 190300Z 31005KT CAVOK 09/08 Q1007 NOSIG
2026-03-19 02:30:00,METAR LEMG 190230Z 30007KT CAVOK 10/08 Q1008 NOSIG
2026-03-19 02:00:00,METAR LEMG 190200Z 28007KT 9999 FEW014 11/10 Q1008 NOSIG
2026-03-19 01:30:00,METAR LEMG 190130Z 28005KT 9999 FEW014 11/10 Q1008 NOSIG
2026-03-19 01:00:00,METAR LEMG 190100Z 29006KT 9999 FEW014 11/10 Q1008 NOSIG
2026-03-19 00:30:00,METAR LEMG 190030Z 30006KT 9999 FEW014 11/10 Q1008 NOSIG
2026-03-19 00:00:00,METAR LEMG 190000Z 30003KT 9999 FEW015 11/10 Q1008 NOSIG
2026-03-18 23:30:00,METAR LEMG 182330Z 29002KT 9999 FEW015 11/09 Q1008 NOSIG
2026-03-18 23:00:00,METAR LEMG 182300Z VRB02KT 9999 FEW015 12/11 Q1008 NOSIG
2026-03-18 22:30:00,METAR LEMG 182230Z VRB02KT 9999 FEW015 13/11 Q1007 NOSIG
2026-03-18 22:00:00,METAR LEMG 182200Z 11003KT CAVOK 14/11 Q1007 NOSIG
2026-03-18 21:30:00,METAR LEMG 182130Z 15003KT CAVOK 14/11 Q1007 NOSIG
2026-03-18 21:00:00,METAR LEMG 182100Z 13003KT CAVOK 14/11 Q1007 NOSIG
2026-03-18 20:30:00,METAR LEMG 182030Z 15005KT CAVOK 14/11 Q1007 NOSIG
2026-03-18 20:00:00,METAR LEMG 182000Z 15004KT CAVOK 14/11 Q1007 NOSIG
2026-03-18 19:30:00,METAR LEMG 181930Z 14005KT CAVOK 14/11 Q1007 NOSIG
2026-03-18 19:00:00,METAR LEMG 181900Z 14005KT CAVOK 15/11 Q1007 NOSIG
2026-03-18 18:30:00,METAR LEMG 181830Z 13005KT CAVOK 15/10 Q1006 NOSIG
2026-03-18 18:00:00,METAR LEMG 181800Z 14007KT CAVOK 16/11 Q1006 NOSIG
2026-03-18 17:30:00,METAR LEMG 181730Z 14006KT 120V180 CAVOK 17/11 Q1006 NOSIG
2026-03-18 17:00:00,METAR LEMG 181700Z 13006KT CAVOK 18/10 Q1006 NOSIG
2026-03-18 16:30:00,METAR LEMG 181630Z 14005KT CAVOK 19/08 Q1006 NOSIG
2026-03-18 16:00:00,METAR LEMG 181600Z 14002KT CAVOK 20/06 Q1006 NOSIG
2026-03-18 15:30:00,METAR LEMG 181530Z 15004KT 100V200 CAVOK 19/09 Q1006 NOSIG
2026-03-18 15:00:00,METAR LEMG 181500Z 13005KT 100V160 CAVOK 18/10 Q1007 NOSIG
2026-03-18 14:30:00,METAR LEMG 181430Z 12006KT 070V170 9999 FEW080 18/10 Q1007 NOSIG
2026-03-18 14:00:00,METAR LEMG 181400Z 12005KT 070V160 9999 FEW080 18/09 Q1007 NOSIG
2026-03-18 13:30:00,METAR LEMG 181330Z 13007KT 090V160 9999 FEW080 18/09 Q1008 NOSIG
2026-03-18 13:00:00,METAR LEMG 181300Z 14008KT 110V170 CAVOK 18/08 Q1008 NOSIG
2026-03-18 12:30:00,METAR LEMG 181230Z 15009KT 110V170 CAVOK 18/07 Q1009 NOSIG
2026-03-18 12:00:00,METAR LEMG 181200Z 13008KT CAVOK 18/07 Q1009 NOSIG
2026-03-18 11:30:00,METAR LEMG 181130Z 12006KT 090V160 CAVOK 18/07 Q1009 NOSIG
2026-03-18 11:00:00,METAR LEMG 181100Z 08007KT 050V140 CAVOK 18/08 Q1009 NOSIG
2026-03-18 10:30:00,METAR LEMG 181030Z 36002KT CAVOK 17/09 Q1010 NOSIG
2026-03-18 10:00:00,METAR LEMG 181000Z 29004KT 250V330 9999 FEW085 16/08 Q1010 NOSIG
2026-03-18 09:30:00,METAR LEMG 180930Z 30005KT 9999 FEW080 15/08 Q1009 NOSIG
2026-03-18 09:00:00,METAR LEMG 180900Z 30004KT 260V330 9999 FEW080 14/09 Q1009 NOSIG
2026-03-18 08:30:00,METAR LEMG 180830Z 32008KT 9999 FEW080 13/08 Q1009 NOSIG
2026-03-18 08:00:00,METAR LEMG 180800Z 30010KT 9999 FEW080 11/08 Q1009 NOSIG
2026-03-18 07:30:00,METAR LEMG 180730Z 29006KT 250V330 9999 SCT080 12/07 Q1008 NOSIG
2026-03-18 07:00:00,METAR LEMG 180700Z 26012KT 200V300 9999 SCT075 11/07 Q1008 NOSIG
2026-03-18 06:30:00,METAR LEMG 180630Z 02009KT 320V050 9999 -SHRA FEW030TCU SCT080 11/08 Q1007 NOSIG
2026-03-18 06:00:00,METAR LEMG 180600Z 28007KT 9999 -RA FEW025TCU SCT080 11/08 Q1010 NOSIG
2026-03-18 05:30:00,METAR LEMG 180530Z 27007KT 240V310 9999 -SHRA FEW025TCU BKN075 11/07 Q1010 NOSIG
2026-03-18 05:00:00,METAR LEMG 180500Z 29006KT 260V320 9999 -RA BKN080 11/06 Q1009 NOSIG
2026-03-18 04:30:00,METAR LEMG 180430Z 28005KT 250V340 9999 -RA FEW070 11/04 Q1009 NOSIG
2026-03-18 04:00:00,METAR LEMG 180400Z 30006KT 9999 -RA NSC 09/05 Q1009 NOSIG
2026-03-18 03:30:00,METAR LEMG 180330Z 30008KT CAVOK 09/05 Q1009 NOSIG
2026-03-18 03:00:00,METAR LEMG 180300Z 29008KT CAVOK 10/04 Q1009 NOSIG
2026-03-18 02:30:00,METAR LEMG 180230Z 28010KT CAVOK 10/04 Q1009 NOSIG
2026-03-18 02:00:00,METAR LEMG 180200Z 30009KT CAVOK 09/04 Q1009 NOSIG
2026-03-18 01:30:00,METAR LEMG 180130Z 29010KT CAVOK 09/04 Q1009 NOSIG
2026-03-18 01:00:00,METAR LEMG 180100Z 30009KT CAVOK 10/04 Q1009 NOSIG
2026-03-18 00:30:00,METAR LEMG 180030Z 30011KT CAVOK 10/04 Q1009 NOSIG
2026-03-18 00:00:00,METAR LEMG 180000Z 28009KT CAVOK 11/04 Q1010 NOSIG
2026-03-17 23:30:00,METAR LEMG 172330Z 30007KT 250V330 CAVOK 11/04 Q1010 NOSIG
2026-03-17 23:00:00,METAR LEMG 172300Z 30008KT CAVOK 11/05 Q1010 NOSIG
2026-03-17 22:30:00,METAR LEMG 172230Z 29009KT 250V320 CAVOK 11/07 Q1010 NOSIG
2026-03-17 22:00:00,METAR LEMG 172200Z 28008KT CAVOK 12/07 Q1011 NOSIG
2026-03-17 21:30:00,METAR LEMG 172130Z 28005KT CAVOK 11/08 Q1011 NOSIG
2026-03-17 21:00:00,METAR LEMG 172100Z 29005KT CAVOK 11/07 Q1011 NOSIG
2026-03-17 20:30:00,METAR LEMG 172030Z VRB02KT CAVOK 12/08 Q1012 NOSIG
2026-03-17 20:00:00,METAR LEMG 172000Z VRB02KT CAVOK 12/08 Q1011 NOSIG
2026-03-17 19:30:00,METAR LEMG 171930Z 11003KT 070V160 CAVOK 13/08 Q1011 NOSIG
2026-03-17 19:00:00,METAR LEMG 171900Z 10003KT 080V140 CAVOK 14/08 Q1011 NOSIG
2026-03-17 18:30:00,METAR LEMG 171830Z 11004KT 020V190 CAVOK 14/08 Q1011 NOSIG
2026-03-17 18:00:00,METAR LEMG 171800Z 12004KT 080V160 CAVOK 15/07 Q1011 NOSIG
2026-03-17 17:30:00,METAR LEMG 171730Z 12005KT CAVOK 16/08 Q1012 NOSIG
2026-03-17 17:00:00,METAR LEMG 171700Z 11005KT 080V150 CAVOK 16/08 Q1012 NOSIG
2026-03-17 16:30:00,METAR LEMG 171630Z 12006KT 090V160 CAVOK 16/08 Q1012 NOSIG
2026-03-17 16:00:00,METAR LEMG 171600Z 13006KT 080V170 CAVOK 17/08 Q1013 NOSIG
2026-03-17 15:30:00,METAR LEMG 171530Z 13008KT 080V170 CAVOK 17/08 Q1013 NOSIG
2026-03-17 15:00:00,METAR LEMG 171500Z 11007KT 070V160 CAVOK 17/08 Q1014 NOSIG
2026-03-17 14:30:00,METAR LEMG 171430Z 13009KT CAVOK 17/08 Q1014 NOSIG
2026-03-17 14:00:00,METAR LEMG 171400Z 11010KT 080V160 CAVOK 17/08 Q1015 NOSIG
2026-03-17 13:30:00,METAR LEMG 171330Z 12010KT 090V150 CAVOK 17/08 Q1015 NOSIG
2026-03-17 13:00:00,METAR LEMG 171300Z 12010KT 080V150 CAVOK 17/07 Q1016 NOSIG
2026-03-17 12:30:00,METAR LEMG 171230Z 11010KT 080V150 CAVOK 17/08 Q1016 NOSIG
2026-03-17 12:00:00,METAR LEMG 171200Z 10010KT 070V140 CAVOK 17/06 Q1017 NOSIG
2026-03-17 11:30:00,METAR LEMG 171130Z 10009KT 080V140 CAVOK 17/05 Q1017 NOSIG
2026-03-17 11:00:00,METAR LEMG 171100Z 11007KT 050V170 CAVOK 17/04 Q1018 NOSIG
2026-03-17 10:30:00,METAR LEMG 171030Z 07007KT 050V120 CAVOK 17/04 Q1018 NOSIG
2026-03-17 10:00:00,METAR LEMG 171000Z 10002KT CAVOK 16/06 Q1018 NOSIG
2026-03-17 09:30:00,METAR LEMG 170930Z 30003KT 260V340 CAVOK 14/08 Q1018 NOSIG
2026-03-17 09:00:00,METAR LEMG 170900Z 30005KT CAVOK 12/06 Q1018 NOSIG
2026-03-17 08:30:00,METAR LEMG 170830Z 29007KT CAVOK 10/06 Q1018 NOSIG
2026-03-17 08:00:00,METAR LEMG 170800Z 30007KT CAVOK 08/05 Q1018 NOSIG
2026-03-17 07:30:00,METAR LEMG 170730Z 29008KT CAVOK 08/05 Q1018 NOSIG
2026-03-17 07:00:00,METAR LEMG 170700Z 29008KT CAVOK 06/04 Q1018 NOSIG
2026-03-17 06:30:00,METAR LEMG 170630Z 29008KT CAVOK 07/04 Q1018 NOSIG
2026-03-17 06:00:00,METAR LEMG 170600Z 28008KT CAVOK 08/06 Q1018 NOSIG
2026-03-17 05:30:00,METAR LEMG 170530Z 28008KT CAVOK 07/06 Q1018 NOSIG
2026-03-17 05:00:00,METAR LEMG 170500Z 28008KT CAVOK 08/06 Q1018 NOSIG
2026-03-17 04:30:00,METAR LEMG 170430Z 28009KT CAVOK 08/06 Q1018 NOSIG
2026-03-17 04:00:00,METAR LEMG 170400Z 28008KT CAVOK 08/07 Q1018 NOSIG
2026-03-17 03:30:00,METAR LEMG 170330Z 29008KT CAVOK 09/07 Q1019 NOSIG
2026-03-17 03:00:00,METAR LEMG 170300Z 28008KT CAVOK 09/07 Q1019 NOSIG
2026-03-17 02:30:00,METAR LEMG 170230Z 29008KT CAVOK 09/07 Q1019 NOSIG
2026-03-17 02:00:00,METAR LEMG 170200Z 29009KT CAVOK 09/07 Q1020 NOSIG
2026-03-17 01:30:00,METAR LEMG 170130Z 29009KT CAVOK 09/07 Q1020 NOSIG
2026-03-17 01:00:00,METAR LEMG 170100Z 29008KT CAVOK 10/07 Q1020 NOSIG
2026-03-17 00:30:00,METAR LEMG 170030Z 28008KT CAVOK 10/07 Q1020 NOSIG
2026-03-17 00:00:00,METAR LEMG 170000Z 28007KT CAVOK 10/07 Q1021 NOSIG
2026-03-16 23:30:00,METAR LEMG 162330Z 29006KT 9999 FEW015 10/07 Q1021 NOSIG
2026-03-16 23:00:00,METAR LEMG 162300Z 13001KT 9999 FEW015 12/09 Q1021 NOSIG
2026-03-16 22:30:00,METAR LEMG 162230Z 11003KT 070V160 9999 FEW015 13/09 Q1021 NOSIG
2026-03-16 22:00:00,METAR LEMG 162200Z 10005KT 060V130 9999 FEW015 14/11 Q1021 NOSIG
2026-03-16 21:30:00,METAR LEMG 162130Z 10008KT 060V140 9999 FEW016 14/11 Q1022 NOSIG
2026-03-16 21:00:00,METAR LEMG 162100Z 09007KT 9999 FEW016 14/11 Q1022 NOSIG
2026-03-16 20:30:00,METAR LEMG 162030Z 09009KT 060V120 9999 FEW020 14/11 Q1021 NOSIG
2026-03-16 20:00:00,METAR LEMG 162000Z 09008KT 060V130 9999 FEW020 14/10 Q1021 NOSIG
2026-03-16 19:30:00,METAR LEMG 161930Z 09008KT 060V120 9999 FEW020 14/11 Q1021 NOSIG
2026-03-16 19:00:00,METAR LEMG 161900Z 09007KT 060V120 9999 FEW020 15/11 Q1021 NOSIG
2026-03-16 18:30:00,METAR LEMG 161830Z 09008KT 050V130 9999 FEW020 15/10 Q1021 NOSIG
2026-03-16 18:00:00,METAR LEMG 161800Z 10008KT 080V140 9999 FEW020 15/10 Q1020 NOSIG
2026-03-16 17:30:00,METAR LEMG 161730Z 11008KT 080V140 CAVOK 16/11 Q1020 NOSIG
2026-03-16 17:00:00,METAR LEMG 161700Z 11007KT 080V140 CAVOK 16/10 Q1020 NOSIG
2026-03-16 16:30:00,METAR LEMG 161630Z 11007KT 070V150 CAVOK 16/10 Q1020 NOSIG
2026-03-16 16:00:00,METAR LEMG 161600Z 11008KT 070V140 CAVOK 17/09 Q1021 NOSIG
2026-03-16 15:30:00,METAR LEMG 161530Z 12008KT 080V160 CAVOK 17/09 Q1021 NOSIG
2026-03-16 15:00:00,METAR LEMG 161500Z 12010KT CAVOK 17/07 Q1021 NOSIG
2026-03-16 14:30:00,METAR LEMG 161430Z 10009KT 060V150 CAVOK 17/08 Q1021 NOSIG
2026-03-16 14:00:00,METAR LEMG 161400Z 10009KT 080V160 9999 FEW030 18/09 Q1021 NOSIG
2026-03-16 13:30:00,METAR LEMG 161330Z 11010KT 080V150 9999 FEW030 17/09 Q1021 NOSIG
2026-03-16 13:00:00,METAR LEMG 161300Z 12011KT 9999 FEW030 17/09 Q1021 NOSIG
2026-03-16 12:30:00,METAR LEMG 161230Z 11010KT 080V140 9999 FEW016 18/11 Q1022 NOSIG
2026-03-16 12:00:00,METAR LEMG 161200Z 11010KT 080V140 9999 FEW016 17/13 Q1022 NOSIG
2026-03-16 11:30:00,METAR LEMG 161130Z 10011KT 070V140 9999 FEW020 17/12 Q1022 NOSIG
2026-03-16 11:00:00,METAR LEMG 161100Z 12009KT 090V150 CAVOK 17/10 Q1022 NOSIG
2026-03-16 10:30:00,METAR LEMG 161030Z 12010KT 080V150 CAVOK 19/07 Q1021 NOSIG
2026-03-16 10:00:00,METAR LEMG 161000Z 08004KT 020V140 CAVOK 18/07 Q1021 NOSIG
2026-03-16 09:30:00,METAR LEMG 160930Z 30003KT 270V350 CAVOK 16/08 Q1021 NOSIG
2026-03-16 09:00:00,METAR LEMG 160900Z 31004KT 270V350 CAVOK 14/08 Q1020 NOSIG
2026-03-16 08:30:00,METAR LEMG 160830Z 30007KT CAVOK 12/08 Q1020 NOSIG
2026-03-16 08:00:00,METAR LEMG 160800Z 30009KT CAVOK 10/07 Q1020 NOSIG
2026-03-16 07:30:00,METAR LEMG 160730Z 30006KT CAVOK 09/07 Q1020 NOSIG
2026-03-16 07:00:00,METAR LEMG 160700Z 31006KT CAVOK 08/06 Q1020 NOSIG
2026-03-16 06:30:00,METAR LEMG 160630Z 29006KT CAVOK 08/06 Q1019 NOSIG
2026-03-16 06:00:00,METAR LEMG 160600Z 29009KT CAVOK 09/07 Q1019 NOSIG
2026-03-16 05:30:00,METAR LEMG 160530Z 29009KT CAVOK 09/07 Q1018 NOSIG
2026-03-16 05:00:00,METAR LEMG 160500Z 28007KT CAVOK 09/07 Q1018 NOSIG
2026-03-16 04:30:00,METAR LEMG 160430Z 30006KT CAVOK 09/07 Q1018 NOSIG
2026-03-16 04:00:00,METAR LEMG 160400Z 29006KT CAVOK 09/07 Q1018 NOSIG
2026-03-16 03:30:00,METAR LEMG 160330Z 29006KT CAVOK 10/08 Q1018 NOSIG
2026-03-16 03:00:00,METAR LEMG 160300Z 28007KT CAVOK 10/08 Q1018 NOSIG
2026-03-16 02:30:00,METAR LEMG 160230Z 29006KT CAVOK 10/09 Q1018 NOSIG
2026-03-16 02:00:00,METAR LEMG 160200Z 30006KT CAVOK 10/09 Q1018 NOSIG
2026-03-16 01:30:00,METAR LEMG 160130Z 31003KT CAVOK 10/08 Q1018 NOSIG
2026-03-16 01:00:00,METAR LEMG 160100Z 31003KT CAVOK 10/09 Q1018 NOSIG
2026-03-16 00:30:00,METAR LEMG 160030Z VRB01KT CAVOK 12/10 Q1018 NOSIG
2026-03-16 00:00:00,METAR LEMG 160000Z 00000KT CAVOK 12/10 Q1018 NOSIG
2026-03-15 23:30:00,METAR LEMG 152330Z 19002KT CAVOK 13/10 Q1018 NOSIG
2026-03-15 23:00:00,METAR LEMG 152300Z 16001KT CAVOK 13/11 Q1018 NOSIG
2026-03-15 22:30:00,METAR LEMG 152230Z 12001KT CAVOK 14/11 Q1018 NOSIG
2026-03-15 22:00:00,METAR LEMG 152200Z 10004KT 030V160 CAVOK 15/12 Q1017 NOSIG
2026-03-15 21:30:00,METAR LEMG 152130Z 05006KT 340V100 CAVOK 15/10 Q1017 NOSIG
2026-03-15 21:00:00,METAR LEMG 152100Z 02005KT 330V060 CAVOK 15/10 Q1017 NOSIG
2026-03-15 20:30:00,METAR LEMG 152030Z 36005KT 320V030 CAVOK 17/07 Q1016 NOSIG
2026-03-15 20:00:00,METAR LEMG 152000Z 30007KT CAVOK 16/06 Q1016 NOSIG
2026-03-15 19:30:00,METAR LEMG 151930Z 29009KT 250V310 CAVOK 17/05 Q1015 NOSIG
2026-03-15 19:00:00,METAR LEMG 151900Z 30009KT CAVOK 17/05 Q1015 NOSIG
2026-03-15 18:30:00,METAR LEMG 151830Z 30009KT CAVOK 18/05 Q1014 NOSIG
2026-03-15 18:00:00,METAR LEMG 151800Z 32010KT CAVOK 20/05 Q1014 NOSIG
2026-03-15 17:30:00,METAR LEMG 151730Z 31010KT 270V330 CAVOK 21/04 Q1013 NOSIG
2026-03-15 17:00:00,METAR LEMG 151700Z 32010KT 290V360 CAVOK 21/05 Q1013 NOSIG
2026-03-15 16:30:00,METAR LEMG 151630Z 31011KT CAVOK 21/04 Q1013 NOSIG
2026-03-15 16:00:00,METAR LEMG 151600Z 31011G21KT 9999 FEW060 22/06 Q1013 NOSIG
2026-03-15 15:30:00,METAR LEMG 151530Z 30013KT 260V330 9999 FEW050 22/07 Q1013 NOSIG
2026-03-15 15:00:00,METAR LEMG 151500Z 29013KT 240V330 9999 FEW050 21/09 Q1013 NOSIG
2026-03-15 14:30:00,METAR LEMG 151430Z 29014KT 240V330 9999 FEW050 20/08 Q1013 NOSIG
2026-03-15 14:00:00,METAR LEMG 151400Z 29014KT 9999 FEW050 20/09 Q1013 NOSIG
2026-03-15 13:30:00,METAR LEMG 151330Z 29013KT 260V320 9999 FEW040 20/10 Q1014 NOSIG
2026-03-15 13:00:00,METAR LEMG 151300Z 29013KT 260V330 9999 FEW040 20/10 Q1014 NOSIG
2026-03-15 12:30:00,METAR LEMG 151230Z 29012KT 260V320 9999 FEW040 19/10 Q1014 NOSIG
2026-03-15 12:00:00,METAR LEMG 151200Z 30012KT 9999 FEW030 SCT056 19/11 Q1014 NOSIG
2026-03-15 11:30:00,METAR LEMG 151130Z 29013KT 260V320 9999 FEW030 SCT056 19/11 Q1015 NOSIG
2026-03-15 11:00:00,METAR LEMG 151100Z 29012KT 270V330 9999 FEW025 SCT058 18/10 Q1015 NOSIG
2026-03-15 10:30:00,METAR LEMG 151030Z 30010KT 260V330 9999 FEW025 SCT041 18/11 Q1015 NOSIG
2026-03-15 10:00:00,METAR LEMG 151000Z 29013KT 260V320 9999 FEW025 BKN044 17/10 Q1014 NOSIG
2026-03-15 09:30:00,METAR LEMG 150930Z 28010KT 240V300 9999 FEW025 BKN050 16/10 Q1014 NOSIG
2026-03-15 09:00:00,METAR LEMG 150900Z 29010KT 260V320 9999 FEW025 BKN050 16/10 Q1014 NOSIG
2026-03-15 08:30:00,METAR LEMG 150830Z 29011KT 260V320 9999 FEW025 BKN048 16/10 Q1014 NOSIG
2026-03-15 08:00:00,METAR LEMG 150800Z 29008KT 260V320 9999 FEW028 BKN038 16/11 Q1014 NOSIG
