Time_recorded,METAR
2026-05-02 14:53:00,METAR KCRQ 021453Z AUTO 32003KT 9SM OVC012 17/14 A2996 RMK AO2 SLP143 T01670144 53012
2026-05-02 13:53:00,METAR KCRQ 021353Z AUTO VRB03KT 6SM BR OVC010 16/14 A2994 RMK AO2 CIG 009V012 SLP137 T01610144
2026-05-02 13:14:00,SPECI KCRQ 021314Z AUTO 00000KT 7SM OVC009 16/14 A2994 RMK AO2 T01610139
2026-05-02 12:53:00,METAR KCRQ 021253Z AUTO 00000KT 8SM OVC010 17/14 A2993 RMK AO2 SLP135 T01670139
2026-05-02 11:53:00,METAR KCRQ 021153Z AUTO 13004KT 10SM OVC011 17/14 A2992 RMK AO2 SLP131 T01670139 10172 20161 53002
2026-05-02 10:53:00,METAR KCRQ 021053Z AUTO 00000KT 10SM OVC011 17/14 A2992 RMK AO2 SLP130 T01670139
2026-05-02 09:53:00,METAR KCRQ 020953Z AUTO 00000KT 10SM OVC011 17/14 A2991 RMK AO2 SLP128 T01670139
2026-05-02 08:53:00,METAR KCRQ 020853Z AUTO 06003KT 10SM OVC012 17/14 A2992 RMK AO2 SLP128 T01670139 58008
2026-05-02 07:53:00,METAR KCRQ 020753Z AUTO VRB03KT 10SM OVC012 17/14 A2994 RMK AO2 SLP136 T01670139 401940144
2026-05-02 06:53:00,METAR KCRQ 020653Z AUTO VRB03KT 10SM OVC012 17/14 A2994 RMK AO2 SLP137 T01670139
2026-05-02 05:53:00,METAR KCRQ 020553Z AUTO 00000KT 10SM OVC012 17/14 A2994 RMK AO2 SLP137 T01720139 10189 20167 51009
2026-05-02 04:53:00,METAR KCRQ 020453Z AUTO 24004KT 10SM OVC012 17/14 A2994 RMK AO2 SLP136 T01720139
2026-05-02 03:53:00,METAR KCRQ 020353Z AUTO 23003KT 10SM OVC013 17/14 A2993 RMK AO2 SLP133 T01720139
2026-05-02 02:53:00,METAR KCRQ 020253Z AUTO VRB05KT 10SM OVC013 17/14 A2991 RMK AO2 SLP128 T01720139 53010
2026-05-02 02:14:00,SPECI KCRQ 020214Z AUTO 24005KT 10SM BKN014 18/14 A2990 RMK AO2 T01780139
2026-05-02 01:53:00,METAR KCRQ 020153Z AUTO 25008KT 10SM SCT016 18/13 A2990 RMK AO2 SLP123 T01780133
2026-05-02 01:18:00,SPECI KCRQ 020118Z AUTO 25007KT 10SM BKN016 18/13 A2989 RMK AO2 T01780133
2026-05-02 00:53:00,METAR KCRQ 020053Z AUTO 27007KT 10SM SCT016 18/13 A2989 RMK AO2 SLP118 T01830133
2026-05-01 23:53:00,METAR KCRQ 012353Z AUTO 25008KT 10SM CLR 19/13 A2988 RMK AO2 SLP118 T01890128 10194 20172 56012
2026-05-01 22:53:00,METAR KCRQ 012253Z AUTO 24008G18KT 10SM CLR 19/13 A2989 RMK AO2 SLP121 T01890128
2026-05-01 21:53:00,METAR KCRQ 012153Z 25007KT 10SM CLR 19/13 A2991 RMK AO2 SLP126 T01890128
2026-05-01 20:53:00,METAR KCRQ 012053Z 25009G15KT 10SM CLR 19/12 A2992 RMK AO2 SLP130 T01890122 56015
2026-05-01 19:53:00,METAR KCRQ 011953Z 24009KT 10SM CLR 19/12 A2993 RMK AO2 SLP132 T01940122
2026-05-01 18:53:00,METAR KCRQ 011853Z 26008KT 10SM FEW025 18/12 A2995 RMK AO2 SLP139 T01830117
2026-05-01 18:40:00,SPECI KCRQ 011840Z 25007KT 10SM FEW024 18/12 A2995 RMK AO2 T01830122
2026-05-01 17:53:00,METAR KCRQ 011753Z VRB04KT 10SM OVC021 17/12 A2996 RMK AO2 SLP145 T01720117 10172 20156 50000
2026-05-01 16:53:00,METAR KCRQ 011653Z 25003KT 10SM OVC019 17/12 A2997 RMK AO2 SLP148 T01670117
2026-05-01 15:53:00,METAR KCRQ 011553Z VRB03KT 10SM OVC018 16/12 A2997 RMK AO2 SLP146 T01610117
2026-05-01 14:53:00,METAR KCRQ 011453Z 20003KT 10SM OVC018 16/12 A2996 RMK AO2 SLP145 T01560117 53013
2026-05-01 13:53:00,METAR KCRQ 011353Z 10004KT 10SM OVC018 16/12 A2995 RMK AO2 SLP138 T01560117
2026-05-01 12:53:00,METAR KCRQ 011253Z AUTO 16003KT 10SM OVC019 16/12 A2994 RMK AO2 SLP135 T01560117
2026-05-01 11:53:00,METAR KCRQ 011153Z AUTO 13003KT 10SM OVC019 16/12 A2993 RMK AO2 SLP132 T01560117 10156 20144 53001
2026-05-01 10:53:00,METAR KCRQ 011053Z AUTO 00000KT 10SM OVC021 16/12 A2992 RMK AO2 SLP131 T01560117
2026-05-01 09:53:00,METAR KCRQ 010953Z AUTO 00000KT 10SM OVC018 15/12 A2992 RMK AO2 SLP129 T01500117
2026-05-01 08:53:00,METAR KCRQ 010853Z AUTO 08003KT 10SM OVC021 14/12 A2992 RMK AO2 SLP131 T01440117 58005
2026-05-01 07:53:00,METAR KCRQ 010753Z AUTO 00000KT 10SM OVC025 15/12 A2994 RMK AO2 SLP136 T01500117 401890133
2026-05-01 06:53:00,METAR KCRQ 010653Z AUTO 13003KT 10SM FEW015 BKN026 15/12 A2994 RMK AO2 SLP136 T01500117
2026-05-01 05:53:00,METAR KCRQ 010553Z AUTO 15003KT 10SM CLR 16/12 A2993 RMK AO2 SLP134 T01560122 10178 20156 51012
2026-05-01 04:53:00,METAR KCRQ 010453Z AUTO 00000KT 10SM CLR 16/12 A2992 RMK AO2 SLP131 T01610122
2026-05-01 03:53:00,METAR KCRQ 010353Z AUTO 00000KT 10SM CLR 16/12 A2991 RMK AO2 SLP126 T01610122
2026-05-01 02:53:00,METAR KCRQ 010253Z AUTO 23003KT 10SM FEW017 16/12 A2990 RMK AO2 SLP122 T01610122 53007
2026-05-01 02:40:00,SPECI KCRQ 010240Z AUTO 20004KT 10SM SCT017 17/12 A2990 RMK AO2 T01670122
2026-05-01 02:29:00,SPECI KCRQ 010229Z AUTO 20005KT 10SM BKN017 17/12 A2989 RMK AO2 T01670122
2026-05-01 01:53:00,METAR KCRQ 010153Z AUTO 24006KT 10SM SCT018 17/12 A2988 RMK AO2 SLP117 T01670122
2026-05-01 00:53:00,METAR KCRQ 010053Z AUTO 22004KT 10SM BKN019 17/12 A2988 RMK AO2 SLP115 T01720122
2026-04-30 23:53:00,METAR KCRQ 302353Z AUTO 22007KT 10SM BKN019 18/12 A2988 RMK AO2 SLP115 T01780122 10189 20178 58003
2026-04-30 22:53:00,METAR KCRQ 302253Z AUTO 23011KT 10SM BKN018 18/12 A2988 RMK AO2 SLP115 T01830122
2026-04-30 21:53:00,METAR KCRQ 302153Z AUTO 27009G18KT 10SM BKN018 18/12 A2989 RMK AO2 SLP119 T01830122
2026-04-30 20:53:00,METAR KCRQ 302053Z AUTO 24008KT 10SM SCT019 19/12 A2988 RMK AO2 SLP118 T01890122 56006
2026-04-30 19:53:00,METAR KCRQ 301953Z AUTO 26009KT 10SM CLR 18/12 A2989 RMK AO2 SLP119 T01830117
2026-04-30 18:53:00,METAR KCRQ 301853Z AUTO 25009KT 10SM CLR 18/12 A2990 RMK AO2 SLP123 T01830117
2026-04-30 17:53:00,METAR KCRQ 301753Z AUTO 25009KT 10SM CLR 18/11 A2991 RMK AO2 SLP125 T01780111 10183 20133 58005
2026-04-30 16:53:00,METAR KCRQ 301653Z AUTO 24005KT 10SM FEW026 18/11 A2991 RMK AO2 SLP126 T01780106
2026-04-30 14:53:00,METAR KCRQ 301453Z AUTO 00000KT 10SM CLR 15/11 A2992 RMK AO2 SLP130 T01500106 55001
2026-04-30 13:53:00,METAR KCRQ 301353Z AUTO 08003KT 10SM CLR 14/11 A2991 RMK AO2 SLP128 T01390106
2026-04-30 13:33:00,SPECI KCRQ 301333Z AUTO 00000KT 10SM FEW022 14/11 A2992 RMK AO2 T01390106
2026-04-30 12:53:00,METAR KCRQ 301253Z AUTO 00000KT 10SM OVC022 14/11 A2991 RMK AO2 SLP128 T01390106
2026-04-30 12:40:00,SPECI KCRQ 301240Z AUTO 00000KT 10SM BKN021 13/11 A2992 RMK AO2 T01330106
2026-04-30 12:21:00,SPECI KCRQ 301221Z AUTO 07003KT 10SM SCT021 13/11 A2992 RMK AO2 T01330106
2026-04-30 11:53:00,METAR KCRQ 301153Z AUTO 08003KT 10SM OVC020 13/11 A2992 RMK AO2 SLP131 T01330106 10156 20133 58007
2026-04-30 11:34:00,SPECI KCRQ 301134Z AUTO 07003KT 10SM BKN019 13/11 A2993 RMK AO2 T01330106
2026-04-30 11:23:00,SPECI KCRQ 301123Z AUTO 07005KT 10SM FEW019 13/11 A2993 RMK AO2 T01330106
2026-04-30 11:15:00,SPECI KCRQ 301115Z AUTO 06004KT 10SM BKN019 13/11 A2993 RMK AO2 T01330106
2026-04-30 11:03:00,SPECI KCRQ 301103Z AUTO 08003KT 10SM SCT017 13/11 A2993 RMK AO2 T01330111
2026-04-30 10:53:00,METAR KCRQ 301053Z AUTO 00000KT 10SM BKN016 13/11 A2994 RMK AO2 SLP135 T01330111
2026-04-30 10:49:00,SPECI KCRQ 301049Z AUTO 00000KT 10SM BKN016 13/11 A2994 RMK AO2
2026-04-30 09:53:00,METAR KCRQ 300953Z AUTO 00000KT 10SM CLR 13/11 A2994 RMK AO2 SLP137 T01330111
2026-04-30 08:53:00,METAR KCRQ 300853Z AUTO 00000KT 10SM CLR 14/11 A2996 RMK AO2 SLP142 T01390111 58010
2026-04-30 07:53:00,METAR KCRQ 300753Z AUTO 08003KT 10SM CLR 14/12 A2998 RMK AO2 SLP149 T01440117 401940117
2026-04-30 07:19:00,SPECI KCRQ 300719Z AUTO 00000KT 10SM FEW018 15/12 A2998 RMK AO2 T01500117
2026-04-30 06:53:00,METAR KCRQ 300653Z AUTO 00000KT 10SM BKN018 16/12 A2999 RMK AO2 SLP153 T01560117
2026-04-30 06:51:00,SPECI KCRQ 300651Z AUTO 00000KT 10SM BKN018 16/12 A2999 RMK AO2
2026-04-30 05:53:00,METAR KCRQ 300553Z AUTO 00000KT 10SM SCT018 16/12 A2999 RMK AO2 SLP154 T01560122 10183 20156 50001
2026-04-30 05:17:00,SPECI KCRQ 300517Z AUTO 00000KT 10SM BKN016 16/12 A3000 RMK AO2 T01560122
2026-04-30 04:53:00,METAR KCRQ 300453Z 26003KT 10SM SCT015 16/12 A3001 RMK AO2 SLP159 T01610122
2026-04-30 03:53:00,METAR KCRQ 300353Z 26004KT 10SM SCT015 16/13 A2999 RMK AO2 SLP155 T01610128
2026-04-30 03:00:00,SPECI KCRQ 300300Z 24006KT 10SM FEW014 17/12 A2999 RMK AO2 T01670122
2026-04-30 02:53:00,METAR KCRQ 300253Z 25005KT 10SM BKN016 17/12 A2999 RMK AO2 SLP153 T01670122 53006
2026-04-30 02:05:00,SPECI KCRQ 300205Z 25006KT 10SM BKN016 17/12 A2997 RMK AO2 T01670122
2026-04-30 01:53:00,METAR KCRQ 300153Z 25006KT 10SM CLR 17/13 A2997 RMK AO2 SLP147 T01720128
2026-04-30 00:53:00,METAR KCRQ 300053Z 23005KT 10SM CLR 18/12 A2996 RMK AO2 SLP144 T01780122
2026-04-29 23:53:00,METAR KCRQ 292353Z AUTO 26006G16KT 10SM CLR 18/11 A2997 RMK AO2 SLP147 T01830106 10194 20178 57007
2026-04-29 22:53:00,METAR KCRQ 292253Z AUTO 25010KT 10SM CLR 19/11 A2998 RMK AO2 SLP149 T01890111
2026-04-29 21:53:00,METAR KCRQ 292153Z 27009G18KT 10SM CLR 19/12 A2999 RMK AO2 SLP153 T01890122
2026-04-29 20:53:00,METAR KCRQ 292053Z 23009G17KT 10SM CLR 19/10 A2999 RMK AO2 SLP154 T01890100 56009
2026-04-29 19:53:00,METAR KCRQ 291953Z 28007KT 250V310 10SM CLR 19/11 A3000 RMK AO2 SLP157 T01890111
2026-04-29 18:53:00,METAR KCRQ 291853Z 25009KT 10SM CLR 18/11 A3001 RMK AO2 SLP159 T01830111
2026-04-29 17:53:00,METAR KCRQ 291753Z 26007KT 230V300 10SM CLR 18/11 A3002 RMK AO2 SLP163 T01830106 10183 20117 58008
2026-04-29 16:53:00,METAR KCRQ 291653Z 24004KT 10SM CLR 18/10 A3003 RMK AO2 SLP168 T01780100
2026-04-29 15:53:00,METAR KCRQ 291553Z 00000KT 10SM CLR 16/10 A3003 RMK AO2 SLP168 T01610100
2026-04-29 14:53:00,METAR KCRQ 291453Z 00000KT 10SM CLR 15/11 A3004 RMK AO2 SLP171 T01500106 50005
2026-04-29 13:53:00,METAR KCRQ 291353Z 00000KT 10SM CLR 13/09 A3005 RMK AO2 SLP172 T01280094
2026-04-29 12:53:00,METAR KCRQ 291253Z AUTO 00000KT 10SM CLR 12/09 A3003 RMK AO2 SLP167 T01220094
2026-04-29 11:53:00,METAR KCRQ 291153Z AUTO 00000KT 10SM CLR 12/10 A3003 RMK AO2 SLP166 T01220100 10156 20122 55004
2026-04-29 10:53:00,METAR KCRQ 291053Z AUTO 10003KT 10SM CLR 12/09 A3003 RMK AO2 SLP166 T01220094
2026-04-29 09:53:00,METAR KCRQ 290953Z AUTO 09003KT 10SM CLR 13/10 A3002 RMK AO2 SLP163 T01280100
2026-04-29 08:53:00,METAR KCRQ 290853Z AUTO 14004KT 10SM CLR 13/11 A3004 RMK AO2 SLP170 T01330106 58002
2026-04-29 07:53:00,METAR KCRQ 290753Z AUTO 19003KT 10SM CLR 14/11 A3005 RMK AO2 SLP173 T01440106 401890106
2026-04-29 06:53:00,METAR KCRQ 290653Z AUTO 24004KT 10SM CLR 15/11 A3005 RMK AO2 SLP173 T01500111
2026-04-29 05:53:00,METAR KCRQ 290553Z AUTO 00000KT 10SM CLR 16/11 A3004 RMK AO2 SLP172 T01560111 10183 20150 51009
2026-04-29 04:53:00,METAR KCRQ 290453Z AUTO 00000KT 10SM CLR 16/11 A3004 RMK AO2 SLP172 T01610111
2026-04-29 03:53:00,METAR KCRQ 290353Z AUTO 00000KT 10SM CLR 16/12 A3004 RMK AO2 SLP171 T01610117
2026-04-29 02:53:00,METAR KCRQ 290253Z AUTO 29005KT 10SM CLR 17/11 A3002 RMK AO2 SLP163 T01670106 53002
2026-04-29 01:53:00,METAR KCRQ 290153Z AUTO 27006KT 10SM CLR 18/11 A3001 RMK AO2 SLP159 T01780111
2026-04-29 00:53:00,METAR KCRQ 290053Z AUTO 27009G14KT 10SM CLR 18/11 A3001 RMK AO2 SLP159 T01780111
2026-04-28 23:53:00,METAR KCRQ 282353Z AUTO VRB06KT 10SM CLR 18/11 A3001 RMK AO2 SLP161 T01830106 10189 20172 56007
2026-04-28 22:53:00,METAR KCRQ 282253Z AUTO VRB06G15KT 10SM CLR 18/11 A3002 RMK AO2 SLP162 T01830106
2026-04-28 21:53:00,METAR KCRQ 282153Z 30007KT 270V330 10SM CLR 18/11 A3002 RMK AO2 SLP164 T01830111
2026-04-28 20:53:00,METAR KCRQ 282053Z 27009G16KT 10SM CLR 18/09 A3003 RMK AO2 SLP168 T01830094 56004
2026-04-28 19:53:00,METAR KCRQ 281953Z 26009G17KT 10SM CLR 18/09 A3003 RMK AO2 SLP168 T01830094
2026-04-28 18:53:00,METAR KCRQ 281853Z 30007KT 10SM CLR 18/09 A3004 RMK AO2 SLP170 T01830094
2026-04-28 17:53:00,METAR KCRQ 281753Z 26007KT 10SM CLR 18/07 A3005 RMK AO2 SLP172 T01780072 10189 20106 58002
2026-04-28 16:53:00,METAR KCRQ 281653Z VRB03KT 10SM CLR 17/06 A3005 RMK AO2 SLP174 T01720056
2026-04-28 15:53:00,METAR KCRQ 281553Z 00000KT 10SM CLR 16/07 A3005 RMK AO2 SLP175 T01560067
2026-04-28 14:53:00,METAR KCRQ 281453Z 02003KT 10SM CLR 14/07 A3005 RMK AO2 SLP174 T01390072 51007
2026-04-28 13:53:00,METAR KCRQ 281353Z 06005KT 10SM CLR 11/06 A3005 RMK AO2 SLP174 T01110061
2026-04-28 12:53:00,METAR KCRQ 281253Z AUTO 08003KT 10SM CLR 11/07 A3004 RMK AO2 SLP170 T01060067
2026-04-28 11:53:00,METAR KCRQ 281153Z AUTO 08004KT 10SM CLR 11/07 A3003 RMK AO2 SLP167 T01060067 10144 20106 55004
2026-04-28 10:53:00,METAR KCRQ 281053Z AUTO 11003KT 10SM CLR 11/08 A3002 RMK AO2 SLP165 T01110078
2026-04-28 09:53:00,METAR KCRQ 280953Z AUTO 00000KT 10SM CLR 12/08 A3002 RMK AO2 SLP164 T01220078
2026-04-28 08:53:00,METAR KCRQ 280853Z AUTO 00000KT 10SM CLR 13/08 A3004 RMK AO2 SLP172 T01280083 58004
2026-04-28 07:53:00,METAR KCRQ 280753Z AUTO 00000KT 10SM CLR 13/08 A3007 RMK AO2 SLP180 T01330083 401890128
2026-04-28 06:53:00,METAR KCRQ 280653Z AUTO 00000KT 10SM CLR 14/08 A3007 RMK AO2 SLP180 T01390083
2026-04-28 05:53:00,METAR KCRQ 280553Z AUTO 00000KT 10SM CLR 14/08 A3006 RMK AO2 SLP176 T01440083 10183 20144 51012
2026-04-28 04:53:00,METAR KCRQ 280453Z AUTO 00000KT 10SM SCT032 15/08 A3005 RMK AO2 SLP176 T01500083
2026-04-28 03:53:00,METAR KCRQ 280353Z AUTO 29003KT 10SM CLR 16/08 A3004 RMK AO2 SLP170 T01560078
2026-04-28 02:53:00,METAR KCRQ 280253Z AUTO VRB04KT 10SM CLR 16/08 A3002 RMK AO2 SLP164 T01560083 53009
2026-04-28 01:53:00,METAR KCRQ 280153Z 28008KT 10SM CLR 17/08 A3000 RMK AO2 SLP157 T01670078
2026-04-28 00:53:00,METAR KCRQ 280053Z 28008KT 270V330 10SM CLR 17/05 A3000 RMK AO2 SLP156 T01720050
2026-04-27 23:53:00,METAR KCRQ 272353Z 25011G18KT 10SM CLR 18/07 A3000 RMK AO2 SLP155 T01780072 10189 20161 55008
2026-04-27 22:53:00,METAR KCRQ 272253Z 27010G17KT 10SM CLR 18/06 A2999 RMK AO2 SLP154 T01830056
2026-04-27 21:53:00,METAR KCRQ 272153Z 30007G20KT 270V340 10SM CLR 18/04 A3001 RMK AO2 SLP160 T01830044
2026-04-27 20:53:00,METAR KCRQ 272053Z 27011G18KT 10SM CLR 18/06 A3002 RMK AO2 SLP163 T01830056 58001
2026-04-27 19:53:00,METAR KCRQ 271953Z 25011G17KT 10SM FEW035 18/08 A3003 RMK AO2 SLP166 T01780078
2026-04-27 18:53:00,METAR KCRQ 271853Z 24010G14KT 10SM FEW039 BKN065 17/08 A3003 RMK AO2 SLP166 T01720078
2026-04-27 17:53:00,METAR KCRQ 271753Z 24006KT 10SM OVC060 16/09 A3002 RMK AO2 SLP164 60000 T01610089 10167 20128 51008
2026-04-27 16:53:00,METAR KCRQ 271653Z VRB05KT 10SM SCT029 SCT033 OVC060 16/08 A3002 RMK AO2 SLP162 T01610083
2026-04-27 15:53:00,METAR KCRQ 271553Z VRB03KT 10SM BKN050 OVC070 16/09 A3001 RMK AO2 SLP160 T01560089
2026-04-27 14:53:00,METAR KCRQ 271453Z 36004KT 10SM BKN065 15/08 A3000 RMK AO2 SLP157 60000 T01500083 53012
2026-04-27 13:53:00,METAR KCRQ 271353Z 00000KT 10SM FEW034 SCT060 13/09 A2998 RMK AO2 SLP150 T01330094
2026-04-27 12:53:00,METAR KCRQ 271253Z AUTO 17004KT 10SM SCT035 OVC049 14/09 A2997 RMK AO2 RAB31E51 SLP146 P0000 T01390094
2026-04-27 11:53:00,METAR KCRQ 271153Z AUTO 05004KT 10SM OVC070 13/09 A2996 RMK AO2 SLP145 70015 T01330089 10150 20133 58008
2026-04-27 10:53:00,METAR KCRQ 271053Z AUTO 00000KT 10SM OVC070 13/09 A2997 RMK AO2 SLP148 T01330089
2026-04-27 09:53:00,METAR KCRQ 270953Z AUTO 00000KT 10SM BKN065 14/08 A2998 RMK AO2 SLP150 T01390083
2026-04-27 08:53:00,METAR KCRQ 270853Z AUTO 28003KT 10SM FEW033 OVC065 15/08 A2999 RMK AO2 SLP153 T01500078 58005
2026-04-27 07:53:00,METAR KCRQ 270753Z AUTO 00000KT 10SM OVC060 15/08 A3000 RMK AO2 SLP159 T01500078 401780128
2026-04-27 06:53:00,METAR KCRQ 270653Z AUTO 00000KT 10SM BKN050 15/08 A3000 RMK AO2 SLP159 T01500083
2026-04-27 05:53:00,METAR KCRQ 270553Z AUTO 25004KT 10SM FEW033 FEW055 15/08 A3000 RMK AO2 SLP158 T01500078 10172 20150 51008
2026-04-27 04:53:00,METAR KCRQ 270453Z AUTO 26003KT 10SM FEW031 16/08 A3000 RMK AO2 SLP157 T01560083
2026-04-27 03:53:00,METAR KCRQ 270353Z 26003KT 10SM CLR 16/08 A2999 RMK AO2 SLP153 T01560083
2026-04-27 02:53:00,METAR KCRQ 270253Z 25006KT 10SM CLR 16/09 A2998 RMK AO2 SLP150 T01560089 52004
2026-04-27 01:53:00,METAR KCRQ 270153Z 26009KT 10SM FEW029 16/09 A2998 RMK AO2 SLP149 T01610089
2026-04-27 00:53:00,METAR KCRQ 270053Z 23009KT 10SM FEW032 17/08 A2997 RMK AO2 SLP148 T01670078
2026-04-26 23:53:00,METAR KCRQ 262353Z 24009G19KT 10SM BKN031 BKN041 17/09 A2997 RMK AO2 SLP147 T01720089 10178 20161 55004
2026-04-26 22:53:00,METAR KCRQ 262253Z 28007G15KT 10SM SCT030 BKN038 BKN055 17/09 A2997 RMK AO2 SLP146 T01670094
2026-04-26 21:53:00,METAR KCRQ 262153Z 26010G16KT 10SM FEW030 FEW039 BKN055 18/09 A2998 RMK AO2 SLP149 T01780094
2026-04-26 20:53:00,METAR KCRQ 262053Z 26010G16KT 10SM SCT028 SCT034 BKN050 17/09 A2998 RMK AO2 SLP150 T01720094 51004
2026-04-26 19:53:00,METAR KCRQ 261953Z 26007G17KT 10SM FEW033 BKN050 17/08 A2998 RMK AO2 SLP150 T01720083
2026-04-26 18:53:00,METAR KCRQ 261853Z AUTO 30006G16KT 10SM FEW027 17/09 A2997 RMK AO2 SLP147 T01670094
2026-04-26 17:53:00,METAR KCRQ 261753Z AUTO 29008G15KT 260V330 10SM FEW021 SCT037 16/10 A2997 RMK AO2 RAE1654 SLP146 P0000 60015 T01610100 10161 20133 53015
2026-04-26 17:05:00,SPECI KCRQ 261705Z AUTO 29008KT 10SM FEW019 SCT024 BKN050 14/12 A2996 RMK AO2 RAE1654 P0000 T01440117
2026-04-26 16:53:00,METAR KCRQ 261653Z AUTO 28005KT 7SM -RA SCT018 BKN025 OVC050 14/12 A2995 RMK AO2 RAE25B36 SLP140 P0009 T01390122
2026-04-26 16:41:00,SPECI KCRQ 261641Z AUTO 25005KT 1 3/4SM R24/4000VP6000FT +RA BR SCT018 BKN025 BKN060 14/12 A2995 RMK AO2 RAE25B36 P0006 T01390117
2026-04-26 16:34:00,SPECI KCRQ 261634Z AUTO 27003KT 10SM SCT018 BKN025 BKN049 14/12 A2995 RMK AO2 RAE25 P0001 T01390117
2026-04-26 16:24:00,SPECI KCRQ 261624Z AUTO 26003KT 10SM -RA FEW016 BKN049 OVC070 14/12 A2994 RMK AO2 P0001 T01390117
2026-04-26 15:53:00,METAR KCRQ 261553Z AUTO 28003KT 3SM -RA BR FEW012 BKN028 OVC047 13/12 A2994 RMK AO2 RAE14B38 SLP136 P0003 T01330117
2026-04-26 15:50:00,SPECI KCRQ 261550Z AUTO 00000KT 2 1/2SM -RA BR FEW010 BKN026 OVC060 13/12 A2994 RMK AO2 RAE14B38 P0003
2026-04-26 15:16:00,SPECI KCRQ 261516Z AUTO 00000KT 10SM SCT019 BKN055 OVC065 13/12 A2993 RMK AO2 RAE14 P0002 T01330117
2026-04-26 14:58:00,SPECI KCRQ 261458Z AUTO 32006KT 5SM R24/5000VP6000FT -RA BR BKN019 BKN027 13/11 A2993 RMK AO2 P0002 T01330111
2026-04-26 14:50:00,METAR KCRQ 261450Z AUTO 34004KT 2 1/2SM R24/5000VP6000FT RA BR SCT019 BKN023 BKN038 13/11 A2992 RMK AO2 VIS 1 1/2V5 RAB44 SLP131 P0003 60003 T01330111 53015
2026-04-26 14:49:00,SPECI KCRQ 261449Z AUTO 34005KT 2 1/2SM R24/5000VP6000FT RA BR SCT019 BKN023 BKN038 13/11 A2992 RMK AO2 VIS 1 1/2V5 RAB44 P0003
2026-04-26 14:24:00,SPECI KCRQ 261424Z AUTO 28006KT 10SM SCT023 BKN040 OVC080 14/10 A2992 RMK AO2 T01440100
2026-04-26 13:53:00,METAR KCRQ 261353Z AUTO 27005G16KT 10SM BKN020 BKN028 OVC050 14/11 A2991 RMK AO2 SLP126 T01440106
2026-04-26 13:24:00,SPECI KCRQ 261324Z AUTO 26009KT 10SM SCT024 SCT049 OVC055 15/10 A2990 RMK AO2 T01500100
2026-04-26 13:09:00,SPECI KCRQ 261309Z AUTO 26007KT 10SM BKN023 BKN030 OVC060 14/11 A2989 RMK AO2 T01440106
2026-04-26 12:53:00,METAR KCRQ 261253Z AUTO 26008KT 10SM SCT023 BKN030 BKN040 14/11 A2989 RMK AO2 SLP119 T01440106
2026-04-26 11:53:00,METAR KCRQ 261153Z AUTO 25008KT 10SM SCT019 SCT023 BKN032 14/11 A2988 RMK AO2 SLP116 60016 70017 T01440106 10156 20133 53000
2026-04-26 11:39:00,SPECI KCRQ 261139Z AUTO 22007KT 10SM BKN020 BKN029 OVC038 14/11 A2988 RMK AO2 T01440111
2026-04-26 10:53:00,METAR KCRQ 261053Z AUTO 22008KT 10SM FEW022 BKN060 OVC075 14/10 A2988 RMK AO2 RAB04E33 SLP115 P0000 T01440100
2026-04-26 09:53:00,METAR KCRQ 260953Z AUTO 24013KT 10SM FEW018 BKN048 OVC090 14/12 A2988 RMK AO2 RAB35E45 SLP116 P0000 T01390117
2026-04-26 09:49:00,SPECI KCRQ 260949Z AUTO 24015KT 10SM SCT020 BKN050 OVC090 14/12 A2988 RMK AO2 RAB35E45 P0000
2026-04-26 08:53:00,METAR KCRQ 260853Z AUTO 23009KT 10SM BKN022 BKN030 OVC055 15/12 A2988 RMK AO2 RAB27E45 SLP118 P0001 60016 T01500117 58008
2026-04-26 07:53:00,METAR KCRQ 260753Z AUTO 00000KT 10SM SCT034 BKN042 OVC075 14/12 A2990 RMK AO2 RAB0655E41 SLP124 P0015 T01390122 401830133
2026-04-26 07:29:00,SPECI KCRQ 260729Z AUTO 25004KT 5SM RA BR SCT018 BKN037 OVC050 13/12 A2991 RMK AO2 RAB0655 P0015 T01330117
2026-04-26 07:21:00,SPECI KCRQ 260721Z AUTO 24007KT 2 1/2SM RA BR SCT020 BKN031 OVC055 13/12 A2991 RMK AO2 RAB0655 P0014 T01330117
2026-04-26 07:17:00,SPECI KCRQ 260717Z AUTO 24007KT 1 1/2SM R24/5500VP6000FT +RA BR BKN020 BKN035 OVC060 13/12 A2991 RMK AO2 RAB0655 P0013 T01330117
2026-04-26 07:09:00,SPECI KCRQ 260709Z AUTO 24010KT 2 1/2SM +RA BR SCT018 BKN022 OVC065 14/12 A2991 RMK AO2 RAB0655 P0006 T01440122
2026-04-26 06:53:00,METAR KCRQ 260653Z AUTO 22004KT 10SM SCT046 BKN065 OVC080 15/11 A2991 RMK AO2 SLP127 T01500106
2026-04-26 06:16:00,SPECI KCRQ 260616Z AUTO 23004KT 10SM SCT023 BKN044 OVC080 15/11 A2991 RMK AO2 T01500106
2026-04-26 06:07:00,SPECI KCRQ 260607Z AUTO 22007KT 10SM BKN023 BKN030 OVC042 14/11 A2991 RMK AO2 T01440106
2026-04-26 05:53:00,METAR KCRQ 260553Z AUTO 23006KT 10SM SCT023 BKN030 OVC044 16/10 A2991 RMK AO2 SLP126 60001 T01560100 10156 20139 50002
2026-04-26 04:53:00,METAR KCRQ 260453Z 24007KT 10SM FEW021 OVC041 16/11 A2992 RMK AO2 SLP128 T01560106
2026-04-26 03:53:00,METAR KCRQ 260353Z AUTO 25005KT 10SM SCT022 OVC042 16/10 A2991 RMK AO2 SLP128 T01560100
2026-04-26 02:53:00,METAR KCRQ 260253Z AUTO 26006KT 10SM FEW018 BKN100 OVC110 15/11 A2990 RMK AO2 RAB07E18 SLP124 P0000 60001 T01500106 51002
2026-04-26 02:25:00,SPECI KCRQ 260225Z AUTO 21005KT 10SM FEW019 SCT029 OVC037 14/12 A2990 RMK AO2 RAB07E18 P0000 T01440117
2026-04-26 02:17:00,SPECI KCRQ 260217Z AUTO 20003KT 10SM -RA SCT018 BKN029 OVC036 14/12 A2990 RMK AO2 RAB07 P0000 T01440117
2026-04-26 01:53:00,METAR KCRQ 260153Z AUTO 18003KT 10SM FEW026 BKN031 OVC047 14/12 A2990 RMK AO2 RAB16E27 SLP122 P0000 T01440117
2026-04-26 00:53:00,METAR KCRQ 260053Z AUTO 21007KT 9SM BKN032 OVC040 14/12 A2991 RMK AO2 RAE12B34E45 SLP125 P0001 T01440117
2026-04-26 00:22:00,SPECI KCRQ 260022Z AUTO 28006KT 10SM FEW016 BKN040 OVC047 15/11 A2990 RMK AO2 RAE12 P0001 T01500111
2026-04-25 23:53:00,METAR KCRQ 252353Z AUTO 26008KT 7SM -RA SCT021 BKN028 OVC036 16/12 A2990 RMK AO2 RAB31 SLP122 P0000 60000 T01560117 10183 20156 58004
2026-04-25 23:33:00,SPECI KCRQ 252333Z AUTO 26007KT 10SM -RA BKN023 BKN031 OVC040 16/11 A2990 RMK AO2 RAB31 P0000 T01610111
2026-04-25 22:53:00,METAR KCRQ 252253Z AUTO 24008KT 10SM FEW024 SCT035 OVC046 17/09 A2991 RMK AO2 SLP126 T01670094
2026-04-25 21:53:00,METAR KCRQ 252153Z AUTO 25011G16KT 10SM SCT034 BKN110 18/09 A2990 RMK AO2 SLP124 T01780094
2026-04-25 20:53:00,METAR KCRQ 252053Z AUTO 25010KT 210V280 10SM SCT035 OVC042 18/09 A2991 RMK AO2 SLP127 T01780089 58006
2026-04-25 20:17:00,SPECI KCRQ 252017Z AUTO 10SM BKN030 OVC042 17/09 A2991 RMK AO2 T01720089
2026-04-25 20:03:00,SPECI KCRQ 252003Z AUTO VRB05KT 10SM BKN029 OVC045 17/09 A2992 RMK AO2 T01720094
2026-04-25 19:53:00,METAR KCRQ 251953Z AUTO 26010G19KT 10SM SCT027 SCT031 OVC046 17/09 A2992 RMK AO2 SLP130 T01720094
2026-04-25 18:53:00,METAR KCRQ 251853Z AUTO 23012G17KT 10SM FEW024 OVC042 17/09 A2993 RMK AO2 SLP135 T01720094
2026-04-25 17:53:00,METAR KCRQ 251753Z AUTO 26008KT 10SM SCT024 BKN040 17/10 A2993 RMK AO2 SLP133 T01720100 10172 20150 51003
2026-04-25 16:53:00,METAR KCRQ 251653Z AUTO VRB04KT 10SM SCT022 OVC039 16/10 A2992 RMK AO2 SLP130 T01610100
2026-04-25 15:53:00,METAR KCRQ 251553Z AUTO 25008KT 10SM FEW020 OVC039 16/11 A2993 RMK AO2 SLP133 T01610106
2026-04-25 14:53:00,METAR KCRQ 251453Z AUTO 28005KT 10SM BKN032 OVC040 16/11 A2992 RMK AO2 SLP130 T01560111 53013
2026-04-25 14:09:00,SPECI KCRQ 251409Z AUTO 26006KT 10SM FEW019 SCT025 OVC040 16/11 A2992 RMK AO2 T01560111
2026-04-25 13:53:00,METAR KCRQ 251353Z AUTO 26009KT 10SM BKN019 BKN026 OVC031 16/11 A2991 RMK AO2 SLP125 T01560111
2026-04-25 12:53:00,METAR KCRQ 251253Z AUTO 26007KT 10SM SCT017 BKN025 OVC043 16/12 A2989 RMK AO2 SLP120 T01560117
2026-04-25 12:42:00,SPECI KCRQ 251242Z AUTO 26006KT 10SM SCT016 BKN025 OVC043 16/12 A2989 RMK AO2 T01560117
2026-04-25 12:30:00,SPECI KCRQ 251230Z AUTO 27006KT 10SM FEW016 BKN033 OVC041 16/12 A2989 RMK AO2 T01560117
2026-04-25 11:53:00,METAR KCRQ 251153Z AUTO 26007KT 10SM BKN017 BKN026 OVC032 16/12 A2988 RMK AO2 SLP118 60000 T01560122 10167 20156 55003
2026-04-25 10:53:00,METAR KCRQ 251053Z AUTO 23007KT 10SM BKN016 BKN024 OVC033 16/12 A2988 RMK AO2 RAB31E45 SLP116 P0000 T01560122
2026-04-25 09:53:00,METAR KCRQ 250953Z AUTO 17005KT 10SM SCT023 BKN037 OVC045 16/12 A2988 RMK AO2 RAB10E30 SLP117 P0000 T01610122
2026-04-25 09:22:00,SPECI KCRQ 250922Z AUTO 18003KT 10SM -RA BKN017 BKN036 OVC045 16/13 A2989 RMK AO2 RAB10 P0000 T01610128
2026-04-25 08:53:00,METAR KCRQ 250853Z AUTO 18005KT 10SM SCT032 BKN039 OVC047 16/11 A2989 RMK AO2 SLP121 T01610106 56005
2026-04-25 07:53:00,METAR KCRQ 250753Z AUTO 14005KT 10SM FEW027 OVC039 16/11 A2990 RMK AO2 SLP123 T01610106 401940128
2026-04-25 06:53:00,METAR KCRQ 250653Z AUTO 14004KT 10SM BKN036 16/11 A2990 RMK AO2 SLP122 T01610106
2026-04-25 05:53:00,METAR KCRQ 250553Z AUTO 14006KT 10SM OVC035 16/11 A2991 RMK AO2 SLP126 T01610111 10183 20161 50005
2026-04-25 04:53:00,METAR KCRQ 250453Z AUTO 16005KT 10SM FEW023 OVC034 17/11 A2992 RMK AO2 SLP130 T01670111
2026-04-25 04:22:00,SPECI KCRQ 250422Z AUTO 15005KT 10SM OVC030 17/11 A2992 RMK AO2 T01670111
2026-04-25 03:53:00,METAR KCRQ 250353Z AUTO 17007KT 10SM OVC024 17/11 A2991 RMK AO2 SLP126 T01670111
2026-04-25 02:53:00,METAR KCRQ 250253Z AUTO 22006KT 10SM OVC021 17/12 A2989 RMK AO2 SLP120 T01670117 53006
2026-04-25 01:53:00,METAR KCRQ 250153Z AUTO 22010KT 10SM OVC020 17/12 A2989 RMK AO2 SLP119 T01720117
2026-04-25 00:53:00,METAR KCRQ 250053Z AUTO 22009KT 10SM BKN019 18/12 A2988 RMK AO2 SLP115 T01780122
2026-04-25 00:24:00,SPECI KCRQ 250024Z VRB06KT 10SM BKN020 18/12 A2987 RMK AO2 T01830122
2026-04-25 00:10:00,SPECI KCRQ 250010Z 10SM SCT019 18/12 A2987 RMK AO2 T01830122
2026-04-24 23:53:00,METAR KCRQ 242353Z 25005KT 10SM BKN019 18/12 A2987 RMK AO2 SLP114 T01780122 10194 20178 56010
2026-04-24 23:27:00,SPECI KCRQ 242327Z 26007G15KT 220V280 10SM BKN018 18/12 A2988 RMK AO2 T01830122
2026-04-24 22:53:00,METAR KCRQ 242253Z 22008G18KT 10SM SCT018 18/12 A2988 RMK AO2 SLP116 T01830122
2026-04-24 21:53:00,METAR KCRQ 242153Z 25011G18KT 10SM SCT017 19/13 A2990 RMK AO2 SLP122 T01890128
2026-04-24 20:53:00,METAR KCRQ 242053Z 22011KT 10SM CLR 19/12 A2991 RMK AO2 SLP125 T01890117 56014
2026-04-24 19:53:00,METAR KCRQ 241953Z 23012KT 10SM CLR 19/12 A2991 RMK AO2 SLP125 T01890117
2026-04-24 18:53:00,METAR KCRQ 241853Z 21009KT 10SM CLR 19/12 A2992 RMK AO2 SLP131 T01940122
2026-04-24 17:53:00,METAR KCRQ 241753Z 24008KT 10SM CLR 19/11 A2995 RMK AO2 SLP139 T01890111 10189 20128 53004
2026-04-24 16:53:00,METAR KCRQ 241653Z 23007KT 10SM CLR 18/11 A2995 RMK AO2 SLP139 T01830111
2026-04-24 15:53:00,METAR KCRQ 241553Z VRB04KT 10SM CLR 17/12 A2994 RMK AO2 SLP135 T01720117
2026-04-24 14:53:00,METAR KCRQ 241453Z AUTO 13004KT 10SM CLR 16/11 A2994 RMK AO2 SLP136 T01560106 53009
2026-04-24 13:53:00,METAR KCRQ 241353Z AUTO 10003KT 10SM CLR 13/09 A2993 RMK AO2 SLP133 T01330094
2026-04-24 12:53:00,METAR KCRQ 241253Z AUTO 07003KT 10SM CLR 13/09 A2991 RMK AO2 SLP128 T01280094
2026-04-24 11:53:00,METAR KCRQ 241153Z AUTO 08004KT 10SM CLR 13/10 A2991 RMK AO2 SLP127 T01280100 10161 20128 58003
2026-04-24 10:53:00,METAR KCRQ 241053Z AUTO 00000KT 10SM CLR 13/11 A2992 RMK AO2 SLP129 T01330106
2026-04-24 09:53:00,METAR KCRQ 240953Z AUTO 09003KT 10SM CLR 14/11 A2992 RMK AO2 SLP130 T01390106
2026-04-24 08:53:00,METAR KCRQ 240853Z AUTO 09003KT 10SM CLR 14/11 A2992 RMK AO2 SLP130 T01390106 56013
2026-04-24 07:53:00,METAR KCRQ 240753Z AUTO 08004KT 10SM CLR 14/11 A2993 RMK AO2 SLP134 T01440111 402000122
2026-04-24 06:53:00,METAR KCRQ 240653Z AUTO 00000KT 10SM CLR 15/12 A2994 RMK AO2 SLP137 T01500122
2026-04-24 05:53:00,METAR KCRQ 240553Z AUTO 00000KT 10SM CLR 16/12 A2996 RMK AO2 SLP143 T01610122 10194 20161 50012
2026-04-24 04:53:00,METAR KCRQ 240453Z AUTO 19003KT 10SM CLR 17/13 A2996 RMK AO2 SLP144 T01670128
2026-04-24 03:53:00,METAR KCRQ 240353Z AUTO 20004KT 10SM CLR 17/13 A2994 RMK AO2 SLP136 T01670128
2026-04-24 02:53:00,METAR KCRQ 240253Z AUTO 26004KT 10SM CLR 17/12 A2992 RMK AO2 SLP131 T01720122 53003
2026-04-24 01:53:00,METAR KCRQ 240153Z AUTO 26008KT 10SM CLR 18/12 A2991 RMK AO2 SLP127 T01780122
2026-04-24 00:53:00,METAR KCRQ 240053Z AUTO VRB05KT 10SM CLR 18/12 A2990 RMK AO2 SLP124 T01830117
2026-04-23 23:53:00,METAR KCRQ 232353Z AUTO 27007KT 10SM CLR 19/09 A2991 RMK AO2 SLP127 T01940094 10200 20172 55013
2026-04-23 22:53:00,METAR KCRQ 232253Z 25010KT 10SM CLR 19/11 A2991 RMK AO2 SLP127 T01940106
2026-04-23 21:53:00,METAR KCRQ 232153Z 24010KT 10SM CLR 19/10 A2994 RMK AO2 SLP136 T01940100
2026-04-23 20:53:00,METAR KCRQ 232053Z 26009G16KT 10SM CLR 18/10 A2995 RMK AO2 SLP141 T01830100 58017
2026-04-23 19:53:00,METAR KCRQ 231953Z 26007KT 220V290 10SM CLR 19/11 A2997 RMK AO2 SLP146 T01890106
2026-04-23 18:53:00,METAR KCRQ 231853Z 25007KT 10SM CLR 18/11 A2999 RMK AO2 SLP155 T01780106
2026-04-23 17:53:00,METAR KCRQ 231753Z 26007KT 10SM CLR 18/11 A3000 RMK AO2 SLP158 T01780106 10189 20122 56006
2026-04-23 16:53:00,METAR KCRQ 231653Z 00000KT 10SM CLR 18/09 A3001 RMK AO2 SLP159 T01780094
2026-04-23 15:53:00,METAR KCRQ 231553Z 22005KT 10SM FEW023 16/09 A3001 RMK AO2 SLP161 T01610094
2026-04-23 15:33:00,SPECI KCRQ 231533Z VRB04KT 10SM SCT024 16/09 A3002 RMK AO2 T01610094
2026-04-23 14:53:00,METAR KCRQ 231453Z 07005KT 10SM OVC023 15/08 A3002 RMK AO2 SLP163 T01500078 52008
2026-04-23 14:18:00,SPECI KCRQ 231418Z 06006KT 10SM BKN022 13/08 A3002 RMK AO2 T01330078
2026-04-23 13:53:00,METAR KCRQ 231353Z AUTO 10004KT 10SM CLR 13/08 A3001 RMK AO2 SLP161 T01280078
2026-04-23 12:53:00,METAR KCRQ 231253Z AUTO 09003KT 10SM FEW024 13/08 A3000 RMK AO2 SLP158 T01280078
2026-04-23 12:43:00,SPECI KCRQ 231243Z AUTO 06003KT 10SM SCT024 13/08 A3000 RMK AO2 T01280078
2026-04-23 12:08:00,SPECI KCRQ 231208Z AUTO 07005KT 10SM BKN023 13/08 A3000 RMK AO2 T01280083
2026-04-23 11:53:00,METAR KCRQ 231153Z AUTO 08003KT 10SM FEW023 13/09 A3000 RMK AO2 SLP155 T01280089 10156 20122 56008
2026-04-23 10:53:00,METAR KCRQ 231053Z AUTO 14003KT 10SM FEW025 13/09 A3000 RMK AO2 SLP156 T01330089
2026-04-23 10:43:00,SPECI KCRQ 231043Z AUTO 14004KT 10SM SCT024 13/09 A3000 RMK AO2 T01330089
2026-04-23 10:32:00,SPECI KCRQ 231032Z AUTO 10003KT 10SM BKN024 13/09 A3000 RMK AO2 T01330089
2026-04-23 10:24:00,SPECI KCRQ 231024Z AUTO 00000KT 10SM SCT024 13/09 A3000 RMK AO2 T01330089
2026-04-23 10:12:00,SPECI KCRQ 231012Z AUTO 09003KT 10SM BKN024 13/09 A3000 RMK AO2 T01330089
2026-04-23 09:53:00,METAR KCRQ 230953Z AUTO 08003KT 10SM FEW025 13/09 A3000 RMK AO2 SLP156 T01330089
2026-04-23 08:53:00,METAR KCRQ 230853Z AUTO 08003KT 10SM CLR 14/09 A3002 RMK AO2 SLP164 T01390089 58012
2026-04-23 08:19:00,SPECI KCRQ 230819Z AUTO 08003KT 10SM SCT026 14/09 A3003 RMK AO2 T01390089
2026-04-23 07:53:00,METAR KCRQ 230753Z AUTO 00000KT 10SM BKN028 14/09 A3004 RMK AO2 SLP171 T01440094 401940122
2026-04-23 07:43:00,SPECI KCRQ 230743Z AUTO 00000KT 10SM BKN030 14/09 A3005 RMK AO2 T01440094
2026-04-23 06:53:00,METAR KCRQ 230653Z AUTO 13003KT 10SM BKN029 15/09 A3005 RMK AO2 SLP174 T01500094
2026-04-23 05:53:00,METAR KCRQ 230553Z AUTO 00000KT 10SM CLR 15/09 A3005 RMK AO2 SLP175 T01500094 10183 20150 50007
2026-04-23 04:53:00,METAR KCRQ 230453Z 00000KT 10SM CLR 16/09 A3006 RMK AO2 SLP177 T01560094
2026-04-23 03:53:00,METAR KCRQ 230353Z 32003KT 10SM CLR 16/08 A3005 RMK AO2 SLP173 T01610083
2026-04-23 02:53:00,METAR KCRQ 230253Z 30004KT 10SM CLR 16/09 A3003 RMK AO2 SLP168 T01610089 55005
2026-04-23 01:53:00,METAR KCRQ 230153Z AUTO 29008KT 10SM CLR 17/09 A3003 RMK AO2 SLP168 T01670089
2026-04-23 00:53:00,METAR KCRQ 230053Z AUTO 27007G17KT 10SM CLR 18/09 A3003 RMK AO2 SLP169 T01780089
2026-04-22 23:53:00,METAR KCRQ 222353Z AUTO VRB06G16KT 10SM CLR 18/09 A3005 RMK AO2 SLP173 T01780094 10194 20178 56018
2026-04-22 22:53:00,METAR KCRQ 222253Z AUTO 27012G19KT 10SM CLR 18/11 A3006 RMK AO2 SLP178 T01830106
2026-04-22 21:53:00,METAR KCRQ 222153Z AUTO 26012G17KT 10SM CLR 19/11 A3009 RMK AO2 SLP186 T01890106
2026-04-22 20:53:00,METAR KCRQ 222053Z AUTO 27013G18KT 10SM CLR 18/11 A3010 RMK AO2 SLP191 T01830106 56016
2026-04-22 19:53:00,METAR KCRQ 221953Z AUTO 30007G16KT 270V330 10SM CLR 18/10 A3012 RMK AO2 SLP196 T01830100
2026-04-22 18:53:00,METAR KCRQ 221853Z AUTO 27007KT 240V310 10SM CLR 18/09 A3013 RMK AO2 SLP202 T01830089
2026-04-22 17:53:00,METAR KCRQ 221753Z AUTO 27006KT 10SM CLR 19/09 A3015 RMK AO2 SLP207 T01890094 10189 20122 53006
2026-04-22 16:53:00,METAR KCRQ 221653Z AUTO VRB04KT 10SM BKN035 18/09 A3014 RMK AO2 SLP204 T01830089
2026-04-22 15:53:00,METAR KCRQ 221553Z AUTO VRB03KT 10SM BKN050 17/09 A3014 RMK AO2 SLP203 T01720094
2026-04-22 14:53:00,METAR KCRQ 221453Z AUTO 12003KT 10SM OVC050 16/11 A3013 RMK AO2 SLP201 T01560106 51011
2026-04-22 13:53:00,METAR KCRQ 221353Z AUTO 08004KT 10SM CLR 13/10 A3012 RMK AO2 SLP199 T01280100
2026-04-22 12:53:00,METAR KCRQ 221253Z AUTO 08004KT 10SM CLR 12/10 A3010 RMK AO2 SLP192 T01220100
2026-04-22 11:53:00,METAR KCRQ 221153Z AUTO 00000KT 10SM CLR 13/11 A3010 RMK AO2 SLP190 70001 T01330106 10161 20128 55002
2026-04-22 10:53:00,METAR KCRQ 221053Z AUTO 00000KT 10SM CLR 14/11 A3009 RMK AO2 SLP189 T01390111
2026-04-22 09:53:00,METAR KCRQ 220953Z AUTO 00000KT 10SM CLR 14/11 A3009 RMK AO2 SLP189 T01390111
2026-04-22 08:53:00,METAR KCRQ 220853Z AUTO 00000KT 10SM CLR 14/11 A3010 RMK AO2 SLP192 T01440111 50004
2026-04-22 07:53:00,METAR KCRQ 220753Z AUTO 00000KT 10SM CLR 15/11 A3011 RMK AO2 SLP193 T01500111 402000133
2026-04-22 06:53:00,METAR KCRQ 220653Z AUTO 34003KT 10SM CLR 16/12 A3010 RMK AO2 SLP190 T01560117
2026-04-22 06:04:00,SPECI KCRQ 220604Z AUTO 00000KT 10SM FEW022 16/13 A3009 RMK AO2 T01610128
2026-04-22 05:53:00,METAR KCRQ 220553Z AUTO 33004KT 10SM BKN022 16/13 A3009 RMK AO2 SLP188 60001 T01610128 10194 20161 51014
2026-04-22 04:53:00,METAR KCRQ 220453Z AUTO VRB04KT 10SM CLR 17/13 A3009 RMK AO2 SLP188 T01670133
2026-04-22 04:21:00,SPECI KCRQ 220421Z AUTO 29006KT 10SM FEW016 SCT029 SCT038 17/14 A3008 RMK AO2 T01720144
2026-04-22 04:00:00,SPECI KCRQ 220400Z AUTO 27005KT 10SM BKN016 BKN021 17/14 A3007 RMK AO2 T01720139
2026-04-22 03:53:00,METAR KCRQ 220353Z AUTO VRB04KT 10SM SCT014 17/14 A3007 RMK AO2 SLP180 T01720139
2026-04-22 03:41:00,SPECI KCRQ 220341Z AUTO 28003KT 10SM SCT012 17/14 A3007 RMK AO2 T01720139
2026-04-22 03:19:00,SPECI KCRQ 220319Z AUTO 27005KT 10SM BKN012 BKN020 17/14 A3006 RMK AO2 T01720144
2026-04-22 02:53:00,METAR KCRQ 220253Z AUTO 26006KT 10SM FEW012 SCT019 BKN060 17/15 A3005 RMK AO2 RAB0159E11 SLP174 P0001 60001 T01720150 51002
2026-04-22 02:45:00,SPECI KCRQ 220245Z AUTO 26009KT 10SM FEW012 SCT019 BKN065 17/15 A3005 RMK AO2 RAB0159E11 P0001 T01720150
2026-04-22 02:25:00,SPECI KCRQ 220225Z AUTO 26008KT 10SM SCT010 SCT014 BKN019 17/15 A3005 RMK AO2 RAB0159E11 P0001 T01720150
2026-04-22 02:14:00,SPECI KCRQ 220214Z AUTO 26007KT 10SM BKN010 BKN019 OVC050 17/16 A3005 RMK AO2 RAB0159E11 P0001 T01720156
2026-04-22 01:53:00,METAR KCRQ 220153Z AUTO 28004KT 10SM SCT014 BKN019 OVC042 18/14 A3005 RMK AO2 SLP174 T01780139
2026-04-22 00:53:00,METAR KCRQ 220053Z AUTO 27006KT 10SM BKN023 OVC031 19/12 A3005 RMK AO2 SLP175 T01890122
2026-04-21 23:53:00,METAR KCRQ 212353Z VRB06KT 10SM FEW030 BKN050 OVC070 19/12 A3004 RMK AO2 SLP172 T01890117 10200 20183 58003
2026-04-21 22:53:00,METAR KCRQ 212253Z 26007KT 10SM BKN045 OVC065 19/11 A3005 RMK AO2 SLP173 T01890111
2026-04-21 21:53:00,METAR KCRQ 212153Z 25011G18KT 10SM BKN050 OVC075 18/11 A3006 RMK AO2 SLP177 T01830111
2026-04-21 20:53:00,METAR KCRQ 212053Z 25010KT 10SM BKN070 19/11 A3005 RMK AO2 SLP175 T01940106 58002
2026-04-21 19:53:00,METAR KCRQ 211953Z 22007G16KT 10SM CLR 19/11 A3006 RMK AO2 SLP176 T01940106
2026-04-21 18:53:00,METAR KCRQ 211853Z 24010KT 200V270 10SM CLR 19/11 A3006 RMK AO2 SLP178 T01890106
2026-04-21 17:53:00,METAR KCRQ 211753Z 24009KT 10SM CLR 19/11 A3006 RMK AO2 SLP177 T01890111 10189 20133 51009
2026-04-21 17:21:00,SPECI KCRQ 211721Z VRB05KT 10SM FEW027 18/11 A3006 RMK AO2 T01830111
2026-04-21 16:53:00,METAR KCRQ 211653Z VRB06KT 10SM BKN027 18/11 A3005 RMK AO2 SLP175 T01830111
2026-04-21 16:33:00,SPECI KCRQ 211633Z 14005KT 10SM BKN026 18/11 A3006 RMK AO2 T01830111
2026-04-21 15:53:00,METAR KCRQ 211553Z 14006KT 10SM FEW021 SCT025 17/11 A3004 RMK AO2 SLP171 T01720111
2026-04-21 15:30:00,SPECI KCRQ 211530Z AUTO 17004KT 10SM SCT021 BKN027 17/11 A3004 RMK AO2 T01670111
2026-04-21 14:53:00,METAR KCRQ 211453Z AUTO VRB04KT 10SM FEW019 16/11 A3003 RMK AO2 SLP168 T01610111 53010
2026-04-21 14:38:00,SPECI KCRQ 211438Z AUTO 11006KT 10SM SCT021 16/11 A3003 RMK AO2 T01610111
2026-04-21 14:03:00,SPECI KCRQ 211403Z AUTO 07004KT 10SM SCT023 BKN027 14/11 A3002 RMK AO2 T01440111
2026-04-21 13:53:00,METAR KCRQ 211353Z AUTO 07004KT 10SM SCT021 14/11 A3002 RMK AO2 SLP164 T01390111
2026-04-21 12:53:00,METAR KCRQ 211253Z AUTO 08003KT 10SM CLR 13/11 A3001 RMK AO2 SLP160 T01330111
2026-04-21 12:16:00,SPECI KCRQ 211216Z AUTO 00000KT 10SM SCT021 14/11 A3000 RMK AO2 T01390111
2026-04-21 11:53:00,METAR KCRQ 211153Z AUTO 08003KT 10SM BKN020 13/11 A3000 RMK AO2 SLP158 T01330111 10167 20133 56003
2026-04-21 11:43:00,SPECI KCRQ 211143Z AUTO 09003KT 10SM BKN019 14/11 A3000 RMK AO2 T01390111
2026-04-21 11:35:00,SPECI KCRQ 211135Z AUTO 00000KT 10SM SCT019 14/11 A3000 RMK AO2 T01390111
2026-04-21 11:26:00,SPECI KCRQ 211126Z AUTO 00000KT 10SM BKN019 14/11 A3000 RMK AO2 T01390111
2026-04-21 10:53:00,METAR KCRQ 211053Z AUTO 08003KT 10SM CLR 14/11 A3000 RMK AO2 SLP158 T01390111
2026-04-21 09:53:00,METAR KCRQ 210953Z AUTO 07003KT 10SM CLR 14/12 A3000 RMK AO2 SLP158 T01440117
2026-04-21 08:53:00,METAR KCRQ 210853Z AUTO 14003KT 10SM CLR 15/12 A3001 RMK AO2 SLP161 T01500122 58005
2026-04-21 07:53:00,METAR KCRQ 210753Z AUTO 00000KT 10SM CLR 16/12 A3002 RMK AO2 SLP164 T01610122 402000139
2026-04-21 06:53:00,METAR KCRQ 210653Z AUTO 13003KT 10SM FEW019 16/12 A3002 RMK AO2 SLP163 T01610122
2026-04-21 06:35:00,SPECI KCRQ 210635Z AUTO 00000KT 10SM SCT019 17/12 A3002 RMK AO2 T01670117
2026-04-21 05:53:00,METAR KCRQ 210553Z AUTO 00000KT 10SM BKN018 17/12 A3003 RMK AO2 SLP165 T01670122 10189 20167 51018
2026-04-21 04:53:00,METAR KCRQ 210453Z AUTO 26005KT 10SM OVC018 17/13 A3002 RMK AO2 SLP164 T01670128
2026-04-21 04:39:00,SPECI KCRQ 210439Z AUTO 26005KT 10SM BKN018 17/13 A3002 RMK AO2 T01720128
2026-04-21 04:12:00,SPECI KCRQ 210412Z AUTO 23003KT 10SM SCT018 17/13 A3000 RMK AO2 T01670128
2026-04-21 03:53:00,METAR KCRQ 210353Z AUTO 25003KT 10SM BKN017 17/13 A2999 RMK AO2 SLP155 T01670128
2026-04-21 03:32:00,SPECI KCRQ 210332Z AUTO 24005KT 10SM SCT015 17/13 A2999 RMK AO2 T01670133
2026-04-21 02:53:00,METAR KCRQ 210253Z 23005KT 10SM BKN017 17/13 A2997 RMK AO2 SLP148 T01720133 53001
2026-04-21 01:53:00,METAR KCRQ 210153Z 26007KT 10SM FEW016 17/13 A2997 RMK AO2 SLP146 T01720128
2026-04-21 00:53:00,METAR KCRQ 210053Z 26007KT 10SM CLR 18/12 A2996 RMK AO2 SLP145 T01830117
2026-04-20 23:53:00,METAR KCRQ 202353Z 24007KT 10SM CLR 19/12 A2997 RMK AO2 SLP147 T01890122 10200 20183 56009
2026-04-20 22:53:00,METAR KCRQ 202253Z 26008KT 10SM CLR 19/13 A2998 RMK AO2 SLP151 T01890128
2026-04-20 21:53:00,METAR KCRQ 202153Z 24008KT 10SM CLR 19/13 A2999 RMK AO2 SLP152 T01940133
2026-04-20 20:53:00,METAR KCRQ 202053Z 27009G16KT 10SM CLR 19/12 A3000 RMK AO2 SLP157 T01940117 50001
2026-04-20 19:53:00,METAR KCRQ 201953Z 25011KT 10SM CLR 19/12 A3000 RMK AO2 SLP158 T01940117
2026-04-20 18:53:00,METAR KCRQ 201853Z 23010KT 10SM CLR 19/12 A3000 RMK AO2 SLP155 T01940117
2026-04-20 17:53:00,METAR KCRQ 201753Z 26006KT 10SM CLR 19/12 A3000 RMK AO2 SLP154 T01940117 10200 20139 58001
2026-04-20 16:53:00,METAR KCRQ 201653Z 21004KT 10SM CLR 18/11 A3000 RMK AO2 SLP157 T01830111
2026-04-20 15:53:00,METAR KCRQ 201553Z 00000KT 10SM FEW019 17/12 A3000 RMK AO2 SLP158 T01720117
2026-04-20 14:53:00,METAR KCRQ 201453Z 15004KT 10SM CLR 16/12 A3000 RMK AO2 SLP156 T01610117 53013
2026-04-20 13:53:00,METAR KCRQ 201353Z AUTO 11003KT 10SM CLR 15/12 A2998 RMK AO2 SLP149 T01500117
2026-04-20 12:53:00,METAR KCRQ 201253Z AUTO 13003KT 10SM FEW019 15/12 A2996 RMK AO2 SLP144 T01500117
2026-04-20 12:40:00,SPECI KCRQ 201240Z AUTO 12004KT 10SM SCT019 15/12 A2996 RMK AO2 T01500117
2026-04-20 11:53:00,METAR KCRQ 201153Z AUTO 08003KT 10SM OVC018 15/12 A2996 RMK AO2 SLP143 T01500122 10167 20144 55001
2026-04-20 10:53:00,METAR KCRQ 201053Z AUTO 08003KT 10SM BKN016 14/12 A2996 RMK AO2 SLP143 T01440122
2026-04-20 10:42:00,SPECI KCRQ 201042Z AUTO 09004KT 10SM BKN016 14/12 A2996 RMK AO2 T01440122
2026-04-20 10:03:00,SPECI KCRQ 201003Z AUTO 00000KT 10SM BKN014 15/13 A2996 RMK AO2 T01500128
2026-04-20 09:53:00,METAR KCRQ 200953Z AUTO 00000KT 10SM SCT014 15/13 A2996 RMK AO2 SLP142 T01500128
2026-04-20 08:53:00,METAR KCRQ 200853Z AUTO 00000KT 10SM CLR 16/13 A2996 RMK AO2 SLP142 T01560133 50002
2026-04-20 07:53:00,METAR KCRQ 200753Z AUTO 00000KT 10SM CLR 16/13 A2996 RMK AO2 SLP145 T01560133 402170139
2026-04-20 06:53:00,METAR KCRQ 200653Z AUTO 22003KT 10SM FEW014 17/13 A2995 RMK AO2 SLP141 T01670133
2026-04-20 06:50:00,SPECI KCRQ 200650Z AUTO 23003KT 10SM SCT012 17/13 A2995 RMK AO2
2026-04-20 06:24:00,SPECI KCRQ 200624Z AUTO 00000KT 10SM BKN011 17/14 A2995 RMK AO2 T01670139
2026-04-20 05:53:00,METAR KCRQ 200553Z AUTO 22003KT 10SM FEW012 17/14 A2995 RMK AO2 SLP138 T01670139 10194 20167 51013
2026-04-20 04:53:00,METAR KCRQ 200453Z AUTO 23003KT 10SM CLR 17/14 A2994 RMK AO2 SLP136 T01670139
2026-04-20 03:53:00,METAR KCRQ 200353Z AUTO 23003KT 10SM CLR 17/14 A2992 RMK AO2 SLP131 T01720139
2026-04-20 02:53:00,METAR KCRQ 200253Z AUTO 26005KT 10SM CLR 18/13 A2991 RMK AO2 SLP125 T01780133 53007
2026-04-20 01:53:00,METAR KCRQ 200153Z AUTO 26005KT 10SM CLR 18/13 A2989 RMK AO2 SLP121 T01830128
2026-04-20 00:53:00,METAR KCRQ 200053Z AUTO 24007KT 10SM CLR 19/13 A2989 RMK AO2 SLP120 T01890133
2026-04-19 23:53:00,METAR KCRQ 192353Z AUTO 26008KT 10SM CLR 19/14 A2989 RMK AO2 SLP118 T01940139 10217 20194 56009
2026-04-19 22:53:00,METAR KCRQ 192253Z AUTO 26009KT 230V300 10SM CLR 20/13 A2989 RMK AO2 SLP118 T02000128
2026-04-19 21:53:00,METAR KCRQ 192153Z AUTO 27009KT 10SM CLR 21/13 A2990 RMK AO2 SLP121 T02060128
2026-04-19 20:53:00,METAR KCRQ 192053Z AUTO 22008KT 10SM CLR 21/12 A2991 RMK AO2 SLP126 T02060122 58008
2026-04-19 19:53:00,METAR KCRQ 191953Z AUTO 26009KT 10SM CLR 20/13 A2993 RMK AO2 SLP131 T02000128
2026-04-19 18:53:00,METAR KCRQ 191853Z AUTO 26005KT 10SM CLR 22/12 A2993 RMK AO2 SLP133 T02170122
2026-04-19 17:53:00,METAR KCRQ 191753Z AUTO 00000KT 10SM CLR 20/11 A2994 RMK AO2 SLP134 T02000111 10211 20139 52004
2026-04-19 16:53:00,METAR KCRQ 191653Z AUTO VRB03KT 10SM CLR 19/13 A2994 RMK AO2 SLP134 T01890133
2026-04-19 15:53:00,METAR KCRQ 191553Z AUTO 00000KT 10SM SCT010 17/14 A2992 RMK AO2 SLP131 T01720139
2026-04-19 15:45:00,SPECI KCRQ 191545Z AUTO 21004KT 10SM BKN010 17/14 A2992 RMK AO2 T01720139
2026-04-19 15:38:00,SPECI KCRQ 191538Z AUTO 00000KT 10SM BKN009 17/14 A2992 RMK AO2 T01720139
2026-04-19 15:09:00,SPECI KCRQ 191509Z AUTO 00000KT 10SM SCT009 16/14 A2991 RMK AO2 T01610139
2026-04-19 14:53:00,METAR KCRQ 191453Z AUTO 00000KT 10SM BKN008 16/14 A2990 RMK AO2 SLP123 T01610139 53014
2026-04-19 14:08:00,SPECI KCRQ 191408Z AUTO 00000KT 10SM BKN009 15/12 A2988 RMK AO2 T01500122
2026-04-19 14:00:00,SPECI KCRQ 191400Z AUTO 00000KT 10SM SCT009 14/12 A2988 RMK AO2 T01440122
2026-04-19 13:53:00,METAR KCRQ 191353Z AUTO 09003KT 10SM CLR 14/12 A2987 RMK AO2 SLP113 T01440122
2026-04-19 12:53:00,METAR KCRQ 191253Z AUTO 08003KT 10SM CLR 14/12 A2985 RMK AO2 SLP107 T01390122
2026-04-19 11:53:00,METAR KCRQ 191153Z AUTO 00000KT 10SM CLR 14/13 A2986 RMK AO2 SLP109 T01440128 10167 20144 56015
2026-04-19 10:53:00,METAR KCRQ 191053Z AUTO 00000KT 10SM CLR 15/13 A2987 RMK AO2 SLP111 T01500128
2026-04-19 09:53:00,METAR KCRQ 190953Z AUTO 00000KT 10SM CLR 16/13 A2989 RMK AO2 SLP118 T01560128
2026-04-19 08:53:00,METAR KCRQ 190853Z AUTO 00000KT 10SM CLR 16/13 A2990 RMK AO2 SLP123 T01560133 58013
2026-04-19 07:53:00,METAR KCRQ 190753Z AUTO 00000KT 10SM CLR 16/13 A2992 RMK AO2 SLP129 T01610133 402110128
2026-04-19 06:53:00,METAR KCRQ 190653Z AUTO 07003KT 10SM CLR 16/13 A2993 RMK AO2 SLP133 T01610133
2026-04-19 05:53:00,METAR KCRQ 190553Z AUTO 00000KT 10SM CLR 17/14 A2994 RMK AO2 SLP137 T01670139 10206 20167 50003
2026-04-19 04:53:00,METAR KCRQ 190453Z AUTO 16004KT 10SM CLR 17/14 A2996 RMK AO2 SLP141 T01720139
2026-04-19 03:53:00,METAR KCRQ 190353Z AUTO 00000KT 10SM CLR 17/14 A2995 RMK AO2 SLP140 T01720139
2026-04-19 02:53:00,METAR KCRQ 190253Z AUTO 20005KT 10SM CLR 18/14 A2993 RMK AO2 SLP134 T01780139 53007
2026-04-19 01:53:00,METAR KCRQ 190153Z AUTO 21006KT 10SM CLR 18/14 A2992 RMK AO2 SLP129 T01830139
2026-04-19 00:53:00,METAR KCRQ 190053Z AUTO 23007KT 10SM CLR 20/12 A2992 RMK AO2 SLP128 T02000122
2026-04-18 23:53:00,METAR KCRQ 182353Z AUTO 25004KT 10SM CLR 20/13 A2991 RMK AO2 SLP127 T02000128 10211 20189 56008
2026-04-18 22:53:00,METAR KCRQ 182253Z AUTO 26008KT 10SM CLR 21/13 A2991 RMK AO2 SLP127 T02060133
2026-04-18 21:53:00,METAR KCRQ 182153Z AUTO 26006G15KT 10SM CLR 21/13 A2993 RMK AO2 SLP132 T02060133
2026-04-18 20:53:00,METAR KCRQ 182053Z AUTO 31005KT 10SM CLR 21/12 A2994 RMK AO2 SLP134 T02110122 58009
2026-04-18 19:53:00,METAR KCRQ 181953Z AUTO 30008KT 10SM CLR 21/12 A2995 RMK AO2 SLP139 T02060122
2026-04-18 18:53:00,METAR KCRQ 181853Z AUTO 26006KT 10SM CLR 19/13 A2997 RMK AO2 SLP147 T01940128
2026-04-18 17:53:00,METAR KCRQ 181753Z AUTO 25007KT 10SM CLR 19/13 A2996 RMK AO2 SLP145 T01940133 10206 20128 53004
2026-04-18 16:53:00,METAR KCRQ 181653Z AUTO VRB03KT 10SM CLR 20/11 A2996 RMK AO2 SLP142 T02000111
2026-04-18 15:53:00,METAR KCRQ 181553Z AUTO 00000KT 10SM CLR 17/12 A2995 RMK AO2 SLP141 T01720117
2026-04-18 14:53:00,METAR KCRQ 181453Z AUTO 00000KT 10SM CLR 16/12 A2995 RMK AO2 SLP141 T01560117 53009
2026-04-18 13:53:00,METAR KCRQ 181353Z AUTO 09003KT 10SM CLR 13/11 A2994 RMK AO2 SLP136 T01330111
2026-04-18 12:53:00,METAR KCRQ 181253Z AUTO 00000KT 10SM CLR 13/11 A2993 RMK AO2 SLP132 T01330111
2026-04-18 11:53:00,METAR KCRQ 181153Z AUTO 00000KT 10SM CLR 14/12 A2993 RMK AO2 SLP132 T01390117 10161 20139 56015
2026-04-18 10:53:00,METAR KCRQ 181053Z AUTO 05004KT 10SM CLR 14/12 A2994 RMK AO2 SLP136 T01390117
2026-04-18 09:53:00,METAR KCRQ 180953Z AUTO 06004KT 10SM CLR 14/12 A2995 RMK AO2 SLP140 T01440117
2026-04-18 08:53:00,METAR KCRQ 180853Z AUTO 06005KT 10SM CLR 15/12 A2997 RMK AO2 SLP147 T01500117 58006
2026-04-18 07:53:00,METAR KCRQ 180753Z AUTO 00000KT 10SM SCT015 16/13 A2998 RMK AO2 SLP151 T01560128 402000128
2026-04-18 07:38:00,SPECI KCRQ 180738Z AUTO 00000KT 10SM BKN015 16/13 A2999 RMK AO2 T01560128
2026-04-18 06:53:00,METAR KCRQ 180653Z AUTO 00000KT 10SM CLR 16/13 A2999 RMK AO2 SLP152 T01560128
2026-04-18 05:53:00,METAR KCRQ 180553Z AUTO 00000KT 10SM CLR 16/13 A2999 RMK AO2 SLP153 T01610133 10189 20161 51016
2026-04-18 04:53:00,METAR KCRQ 180453Z AUTO 00000KT 10SM CLR 17/13 A2998 RMK AO2 SLP151 T01670133
2026-04-18 03:53:00,METAR KCRQ 180353Z AUTO 20004KT 10SM CLR 17/13 A2996 RMK AO2 SLP145 T01670133
2026-04-18 02:53:00,METAR KCRQ 180253Z AUTO 23005KT 10SM CLR 17/13 A2994 RMK AO2 SLP137 T01720133 53003
2026-04-18 01:53:00,METAR KCRQ 180153Z AUTO 26006KT 10SM CLR 18/13 A2994 RMK AO2 SLP135 T01780133
2026-04-18 00:53:00,METAR KCRQ 180053Z AUTO 26007KT 10SM CLR 18/13 A2993 RMK AO2 SLP133 T01830128
2026-04-17 23:53:00,METAR KCRQ 172353Z AUTO 28007KT 10SM CLR 19/12 A2993 RMK AO2 SLP134 T01890122 10200 20189 56011
2026-04-17 22:53:00,METAR KCRQ 172253Z AUTO 29007G17KT 10SM CLR 19/12 A2994 RMK AO2 SLP135 T01890122
2026-04-17 21:53:00,METAR KCRQ 172153Z AUTO 29008KT 10SM CLR 19/13 A2995 RMK AO2 SLP140 T01940128
2026-04-17 20:53:00,METAR KCRQ 172053Z AUTO 25009G16KT 10SM CLR 19/11 A2997 RMK AO2 SLP145 T01940111 56010
2026-04-17 19:53:00,METAR KCRQ 171953Z AUTO 24008KT 10SM CLR 19/11 A2997 RMK AO2 SLP147 T01940106
2026-04-17 18:53:00,METAR KCRQ 171853Z AUTO 26009KT 10SM CLR 19/11 A2999 RMK AO2 SLP153 T01940106
2026-04-17 17:53:00,METAR KCRQ 171753Z AUTO 18003KT 10SM FEW035 19/09 A3000 RMK AO2 SLP155 T01890089 10200 20128 51006
2026-04-17 16:53:00,METAR KCRQ 171653Z AUTO 22003KT 10SM BKN030 17/09 A2999 RMK AO2 SLP155 T01720094
2026-04-17 16:27:00,SPECI KCRQ 171627Z AUTO 13003KT 10SM SCT028 17/09 A2999 RMK AO2 T01720094
2026-04-17 15:53:00,METAR KCRQ 171553Z AUTO VRB05KT 10SM OVC027 17/09 A2999 RMK AO2 SLP154 T01670094
2026-04-17 14:53:00,METAR KCRQ 171453Z AUTO 08005KT 10SM BKN026 16/09 A2998 RMK AO2 SLP149 T01560094 53015
2026-04-17 13:53:00,METAR KCRQ 171353Z AUTO 08004KT 10SM CLR 13/09 A2995 RMK AO2 SLP141 T01330089
2026-04-17 12:53:00,METAR KCRQ 171253Z AUTO 14003KT 10SM FEW026 13/09 A2993 RMK AO2 SLP134 T01330089
2026-04-17 12:49:00,SPECI KCRQ 171249Z AUTO 12003KT 10SM SCT026 13/09 A2993 RMK AO2
2026-04-17 12:02:00,SPECI KCRQ 171202Z AUTO 08004KT 10SM BKN026 13/09 A2993 RMK AO2 T01330089
2026-04-17 11:53:00,METAR KCRQ 171153Z AUTO 08004KT 10SM SCT026 13/09 A2993 RMK AO2 SLP132 T01330089 10150 20128 53000
2026-04-17 10:53:00,METAR KCRQ 171053Z AUTO 10005KT 10SM CLR 14/09 A2992 RMK AO2 SLP129 T01390094
2026-04-17 10:17:00,SPECI KCRQ 171017Z AUTO 10004KT 10SM FEW025 14/10 A2992 RMK AO2 T01440100
2026-04-17 09:53:00,METAR KCRQ 170953Z AUTO 10004KT 10SM BKN025 15/11 A2992 RMK AO2 SLP130 T01500106
2026-04-17 08:53:00,METAR KCRQ 170853Z AUTO 14004KT 10SM BKN024 15/11 A2992 RMK AO2 SLP131 T01500106 50004
2026-04-17 08:29:00,SPECI KCRQ 170829Z AUTO 10003KT 10SM BKN022 15/11 A2993 RMK AO2 T01500106
2026-04-17 08:02:00,SPECI KCRQ 170802Z AUTO 11003KT 10SM SCT021 15/11 A2993 RMK AO2 T01500111
2026-04-17 07:53:00,METAR KCRQ 170753Z AUTO 12004KT 10SM BKN021 14/11 A2993 RMK AO2 SLP132 T01440111 402000133
2026-04-17 06:53:00,METAR KCRQ 170653Z AUTO 10003KT 10SM BKN020 15/12 A2992 RMK AO2 SLP131 T01500117
2026-04-17 06:32:00,SPECI KCRQ 170632Z AUTO 14005KT 10SM BKN020 15/12 A2992 RMK AO2 T01500117
2026-04-17 05:53:00,METAR KCRQ 170553Z AUTO 14003KT 10SM SCT018 15/12 A2991 RMK AO2 SLP127 T01500117 10183 20150 51007
2026-04-17 04:53:00,METAR KCRQ 170453Z 18004KT 10SM CLR 16/12 A2991 RMK AO2 SLP127 T01560122
2026-04-17 04:24:00,SPECI KCRQ 170424Z 21004KT 10SM SCT017 16/12 A2991 RMK AO2 T01610122
2026-04-17 04:08:00,SPECI KCRQ 170408Z 20004KT 10SM BKN017 16/13 A2990 RMK AO2 T01610128
2026-04-17 03:53:00,METAR KCRQ 170353Z 19005KT 10SM FEW016 17/12 A2990 RMK AO2 SLP123 T01670122
2026-04-17 02:53:00,METAR KCRQ 170253Z 25005KT 10SM CLR 17/13 A2989 RMK AO2 SLP120 T01670128 53001
2026-04-17 01:53:00,METAR KCRQ 170153Z AUTO 21005KT 10SM CLR 17/12 A2988 RMK AO2 SLP115 T01720122
2026-04-17 00:53:00,METAR KCRQ 170053Z AUTO 20005KT 10SM CLR 18/12 A2988 RMK AO2 SLP117 T01830122
2026-04-16 23:53:00,METAR KCRQ 162353Z 23006KT 10SM CLR 18/12 A2989 RMK AO2 SLP118 T01780117 10200 20178 56010
2026-04-16 22:53:00,METAR KCRQ 162253Z 25009KT 10SM CLR 19/12 A2989 RMK AO2 SLP120 T01890117
2026-04-16 21:53:00,METAR KCRQ 162153Z 22009KT 10SM CLR 18/13 A2991 RMK AO2 SLP126 T01830128
2026-04-16 20:53:00,METAR KCRQ 162053Z 24008KT 10SM CLR 19/13 A2992 RMK AO2 SLP129 T01940128 56013
2026-04-16 19:53:00,METAR KCRQ 161953Z 23010KT 10SM CLR 19/12 A2993 RMK AO2 SLP133 T01890122
2026-04-16 18:53:00,METAR KCRQ 161853Z 26008KT 10SM CLR 19/12 A2994 RMK AO2 SLP136 T01890122
2026-04-16 17:53:00,METAR KCRQ 161753Z 18003KT 10SM FEW020 18/12 A2996 RMK AO2 SLP142 T01830122 10183 20133 50003
2026-04-16 17:44:00,SPECI KCRQ 161744Z 00000KT 10SM SCT020 18/12 A2996 RMK AO2 T01780117
2026-04-16 16:53:00,METAR KCRQ 161653Z 17003KT 10SM OVC017 17/12 A2996 RMK AO2 SLP145 T01720122
2026-04-16 15:53:00,METAR KCRQ 161553Z 00000KT 10SM BKN015 16/12 A2995 RMK AO2 SLP142 T01560122
2026-04-16 15:00:00,SPECI KCRQ 161500Z AUTO 14003KT 10SM SCT014 15/12 A2995 RMK AO2 T01500122
2026-04-16 14:53:00,METAR KCRQ 161453Z AUTO 00000KT 10SM BKN014 14/12 A2995 RMK AO2 SLP139 T01440117 53015
2026-04-16 14:34:00,SPECI KCRQ 161434Z AUTO 13004KT 10SM BKN014 14/12 A2994 RMK AO2 T01440117
2026-04-16 13:53:00,METAR KCRQ 161353Z AUTO 07003KT 10SM SCT014 14/11 A2992 RMK AO2 SLP129 T01390111
2026-04-16 12:53:00,METAR KCRQ 161253Z AUTO 00000KT 10SM BKN013 14/11 A2990 RMK AO2 SLP124 T01390111
2026-04-16 11:53:00,METAR KCRQ 161153Z AUTO 00000KT 10SM CLR 14/11 A2990 RMK AO2 SLP122 T01390106 10156 20133 56014
2026-04-16 10:53:00,METAR KCRQ 161053Z AUTO 08003KT 10SM CLR 13/11 A2990 RMK AO2 SLP124 T01330111
2026-04-16 09:53:00,METAR KCRQ 160953Z AUTO 00000KT 10SM CLR 14/11 A2992 RMK AO2 SLP129 T01390111
2026-04-16 08:53:00,METAR KCRQ 160853Z AUTO 07003KT 10SM CLR 14/12 A2994 RMK AO2 SLP136 T01440117 58017
2026-04-16 07:53:00,METAR KCRQ 160753Z AUTO 09003KT 10SM FEW016 14/12 A2996 RMK AO2 SLP145 T01440117 402000122
2026-04-16 07:43:00,SPECI KCRQ 160743Z AUTO 08004KT 10SM FEW016 14/12 A2997 RMK AO2 T01440122
2026-04-16 07:05:00,SPECI KCRQ 160705Z AUTO 00000KT 10SM BKN016 15/13 A2998 RMK AO2 T01500128
2026-04-16 06:53:00,METAR KCRQ 160653Z AUTO 13003KT 10SM SCT015 15/13 A2998 RMK AO2 SLP151 T01500128
2026-04-16 05:53:00,METAR KCRQ 160553Z AUTO 13003KT 10SM CLR 16/13 A2999 RMK AO2 SLP153 T01560128 10189 20156 50006
2026-04-16 05:20:00,SPECI KCRQ 160520Z AUTO 00000KT 10SM FEW014 16/13 A3000 RMK AO2 T01610133
2026-04-16 04:53:00,METAR KCRQ 160453Z AUTO 15004KT 10SM BKN014 16/13 A3000 RMK AO2 SLP156 T01610133
2026-04-16 04:45:00,SPECI KCRQ 160445Z AUTO 00000KT 10SM BKN012 BKN017 17/14 A3000 RMK AO2 T01670139
2026-04-16 04:36:00,SPECI KCRQ 160436Z AUTO 00000KT 10SM SCT012 17/13 A3000 RMK AO2 T01670133
2026-04-16 04:13:00,SPECI KCRQ 160413Z AUTO 00000KT 10SM BKN013 17/14 A2999 RMK AO2 T01670139
2026-04-16 03:53:00,METAR KCRQ 160353Z AUTO 00000KT 10SM FEW011 17/14 A2999 RMK AO2 SLP152 T01670139
2026-04-16 02:53:00,METAR KCRQ 160253Z AUTO 25003KT 10SM CLR 17/13 A2997 RMK AO2 SLP147 T01720133 55001
2026-04-16 01:53:00,METAR KCRQ 160153Z AUTO 28004KT 10SM CLR 18/12 A2996 RMK AO2 SLP144 T01780117
2026-04-16 00:53:00,METAR KCRQ 160053Z AUTO VRB06KT 10SM CLR 18/12 A2997 RMK AO2 SLP145 T01830122
2026-04-15 23:53:00,METAR KCRQ 152353Z 27006KT 10SM CLR 18/11 A2997 RMK AO2 SLP147 T01830111 10200 20183 58014
2026-04-15 22:53:00,METAR KCRQ 152253Z 29008G16KT 10SM CLR 18/12 A2999 RMK AO2 SLP152 T01830122
2026-04-15 21:53:00,METAR KCRQ 152153Z 27008KT 10SM CLR 19/13 A3001 RMK AO2 SLP159 T01890128
2026-04-15 20:53:00,METAR KCRQ 152053Z 26010G18KT 10SM CLR 19/13 A3001 RMK AO2 SLP162 T01890128 58010
2026-04-15 19:53:00,METAR KCRQ 151953Z 26009KT 10SM CLR 19/12 A3002 RMK AO2 SLP165 T01890122
2026-04-15 18:53:00,METAR KCRQ 151853Z 25007KT 10SM CLR 19/12 A3003 RMK AO2 SLP169 T01940122
2026-04-15 17:53:00,METAR KCRQ 151753Z 10SM FEW024 18/13 A3004 RMK AO2 SLP172 T01830128 10194 20122 50001
2026-04-15 16:53:00,METAR KCRQ 151653Z 26004KT 10SM FEW019 18/12 A3005 RMK AO2 SLP173 T01780117
2026-04-15 16:48:00,SPECI KCRQ 151648Z 28003KT 10SM SCT019 18/12 A3005 RMK AO2
2026-04-15 16:08:00,SPECI KCRQ 151608Z VRB03KT 10SM BKN015 17/12 A3004 RMK AO2 T01670122
2026-04-15 15:53:00,METAR KCRQ 151553Z 00000KT 10SM BKN014 17/12 A3004 RMK AO2 SLP171 T01670117
2026-04-15 14:53:00,METAR KCRQ 151453Z AUTO 00000KT 10SM OVC011 15/12 A3004 RMK AO2 SLP169 T01500117 53013
2026-04-15 14:18:00,SPECI KCRQ 151418Z AUTO 08003KT 10SM BKN010 13/10 A3003 RMK AO2 T01330100
2026-04-15 13:53:00,METAR KCRQ 151353Z AUTO 08004KT 10SM CLR 12/10 A3002 RMK AO2 SLP164 T01220100
2026-04-15 12:53:00,METAR KCRQ 151253Z AUTO 00000KT 10SM CLR 12/09 A3000 RMK AO2 SLP157 T01220094
2026-04-15 11:53:00,METAR KCRQ 151153Z AUTO 08003KT 10SM CLR 13/10 A3000 RMK AO2 SLP156 T01280100 10161 20128 56008
2026-04-15 10:53:00,METAR KCRQ 151053Z AUTO 08005KT 10SM CLR 13/11 A3000 RMK AO2 SLP156 T01330106
2026-04-15 09:53:00,METAR KCRQ 150953Z AUTO 07003KT 10SM CLR 14/11 A3001 RMK AO2 SLP160 T01390111
2026-04-15 08:53:00,METAR KCRQ 150853Z AUTO 10003KT 10SM CLR 14/11 A3002 RMK AO2 SLP164 T01390111 58008
2026-04-15 07:53:00,METAR KCRQ 150753Z AUTO 13003KT 10SM CLR 14/12 A3003 RMK AO2 SLP168 T01440117 401890111
2026-04-15 06:53:00,METAR KCRQ 150653Z AUTO 14003KT 10SM CLR 15/12 A3004 RMK AO2 SLP170 T01500117
2026-04-15 05:53:00,METAR KCRQ 150553Z AUTO 00000KT 10SM CLR 16/12 A3005 RMK AO2 SLP173 T01610117 10189 20161 50010
2026-04-15 04:53:00,METAR KCRQ 150453Z AUTO 28003KT 10SM FEW015 16/13 A3005 RMK AO2 SLP174 T01610128
2026-04-15 03:53:00,METAR KCRQ 150353Z AUTO 00000KT 10SM CLR 17/12 A3003 RMK AO2 SLP167 T01670122
2026-04-15 02:53:00,METAR KCRQ 150253Z AUTO 27004KT 10SM CLR 17/11 A3002 RMK AO2 SLP163 T01670111 56002
2026-04-15 01:53:00,METAR KCRQ 150153Z AUTO 27006KT 10SM CLR 17/12 A3002 RMK AO2 SLP163 T01720117
2026-04-15 00:53:00,METAR KCRQ 150053Z AUTO 26010G16KT 10SM CLR 18/10 A3002 RMK AO2 SLP163 T01830100
2026-04-14 23:53:00,METAR KCRQ 142353Z AUTO 27008KT 10SM CLR 18/10 A3002 RMK AO2 SLP165 T01830100 10189 20172 56018
2026-04-14 22:53:00,METAR KCRQ 142253Z AUTO 27008KT 10SM CLR 18/11 A3003 RMK AO2 SLP168 T01830106
2026-04-14 21:53:00,METAR KCRQ 142153Z 24009G18KT 10SM CLR 18/11 A3005 RMK AO2 SLP175 T01830106
2026-04-14 20:53:00,METAR KCRQ 142053Z 26009KT 240V300 10SM CLR 18/11 A3008 RMK AO2 SLP183 T01830106 58013
2026-04-14 19:53:00,METAR KCRQ 141953Z 24009KT 10SM CLR 18/11 A3009 RMK AO2 SLP188 T01830106
2026-04-14 18:53:00,METAR KCRQ 141853Z 26008KT 10SM CLR 18/10 A3011 RMK AO2 SLP193 T01780100
2026-04-14 17:53:00,METAR KCRQ 141753Z 10SM FEW028 SCT033 18/09 A3012 RMK AO2 SLP196 T01780094 10178 20111 53006
2026-04-14 16:53:00,METAR KCRQ 141653Z 00000KT 10SM SCT032 17/09 A3011 RMK AO2 SLP195 T01670094
2026-04-14 15:53:00,METAR KCRQ 141553Z 15005KT 10SM FEW027 16/10 A3010 RMK AO2 SLP191 T01560100
2026-04-14 14:53:00,METAR KCRQ 141453Z 08004KT 10SM CLR 14/10 A3010 RMK AO2 SLP190 T01390100 53010
2026-04-14 13:53:00,METAR KCRQ 141353Z 07005KT 10SM CLR 12/09 A3009 RMK AO2 SLP186 T01170094
2026-04-14 12:53:00,METAR KCRQ 141253Z AUTO 08003KT 10SM BKN030 12/09 A3008 RMK AO2 SLP183 T01220094
2026-04-14 11:53:00,METAR KCRQ 141153Z AUTO 10004KT 10SM CLR 12/09 A3007 RMK AO2 SLP180 70007 T01170094 10144 20117 55005
2026-04-14 10:53:00,METAR KCRQ 141053Z AUTO 08003KT 10SM CLR 12/10 A3007 RMK AO2 SLP180 T01170100
2026-04-14 09:53:00,METAR KCRQ 140953Z AUTO 10003KT 10SM CLR 13/11 A3007 RMK AO2 SLP182 T01280106
2026-04-14 08:53:00,METAR KCRQ 140853Z AUTO 08003KT 10SM CLR 13/11 A3008 RMK AO2 SLP185 T01280106 50000
2026-04-14 07:53:00,METAR KCRQ 140753Z AUTO 06005KT 10SM SCT028 14/11 A3009 RMK AO2 SLP187 T01390106 401720128
2026-04-14 07:50:00,SPECI KCRQ 140750Z AUTO 05003KT 10SM BKN028 14/11 A3009 RMK AO2
2026-04-14 06:53:00,METAR KCRQ 140653Z AUTO 08003KT 10SM SCT028 BKN036 14/11 A3008 RMK AO2 SLP185 T01440111
2026-04-14 05:53:00,METAR KCRQ 140553Z AUTO 00000KT 10SM FEW029 SCT034 BKN060 14/11 A3008 RMK AO2 RAB06E28 SLP184 P0002 60002 T01440111 10172 20144 50013
2026-04-14 04:53:00,METAR KCRQ 140453Z 26004KT 10SM FEW031 16/09 A3008 RMK AO2 SLP185 T01560089
2026-04-14 03:53:00,METAR KCRQ 140353Z 27004KT 10SM BKN034 BKN044 16/09 A3007 RMK AO2 SLP179 T01560089
2026-04-14 02:53:00,METAR KCRQ 140253Z 26007KT 10SM SCT031 SCT039 BKN047 16/09 A3004 RMK AO2 SLP172 T01610089 53005
2026-04-14 01:53:00,METAR KCRQ 140153Z 28008KT 10SM FEW033 SCT046 16/08 A3004 RMK AO2 SLP170 T01610083
2026-04-14 00:53:00,METAR KCRQ 140053Z 26009KT 10SM SCT033 SCT040 17/08 A3003 RMK AO2 SLP167 T01670078
2026-04-13 23:53:00,METAR KCRQ 132353Z 25011KT 10SM CLR 17/08 A3003 RMK AO2 SLP167 60001 T01720083 10172 20150 56012
2026-04-13 22:53:00,METAR KCRQ 132253Z AUTO 26008KT 10SM FEW022 17/09 A3003 RMK AO2 RAB11E35 SLP168 P0000 T01670089
2026-04-13 21:53:00,METAR KCRQ 132153Z VRB06G17KT 10SM SCT029 SCT065 17/09 A3005 RMK AO2 SLP174 T01670089
2026-04-13 20:53:00,METAR KCRQ 132053Z 26009G16KT 10SM SCT031 17/08 A3006 RMK AO2 SLP178 60001 T01670078 58003
2026-04-13 19:53:00,METAR KCRQ 131953Z 27007KT 10SM SCT090 16/09 A3007 RMK AO2 RAB1857E29 SLP181 P0001 T01610089
2026-04-13 18:53:00,METAR KCRQ 131853Z VRB05KT 10SM SCT045 BKN055 16/07 A3008 RMK AO2 SLP184 T01610072
2026-04-13 17:53:00,METAR KCRQ 131753Z VRB05KT 10SM FEW024 SCT029 BKN050 16/09 A3007 RMK AO2 SLP182 60004 T01610089 10161 20128 51016
2026-04-13 16:53:00,METAR KCRQ 131653Z 32004KT 10SM SCT065 15/12 A3006 RMK AO2 RAE13 SLP178 P0001 T01500117
2026-04-13 15:53:00,METAR KCRQ 131553Z 25006KT 5SM RA FEW026 BKN047 OVC065 13/10 A3005 RMK AO2 RAB36 SLP173 P0003 T01330100
2026-04-13 14:53:00,METAR KCRQ 131453Z 15003KT 10SM SCT060 15/10 A3003 RMK AO2 SLP166 T01500100 53008
2026-04-13 13:53:00,METAR KCRQ 131353Z 16003KT 10SM BKN060 BKN075 14/11 A3002 RMK AO2 SLP162 T01390106
2026-04-13 12:53:00,METAR KCRQ 131253Z AUTO 00000KT 10SM OVC065 13/11 A3001 RMK AO2 SLP159 T01330111
2026-04-13 11:53:00,METAR KCRQ 131153Z AUTO 00000KT 10SM BKN070 13/11 A3000 RMK AO2 SLP158 60000 70002 T01330106 10161 20133 56007
2026-04-13 10:53:00,METAR KCRQ 131053Z AUTO 00000KT 10SM BKN070 14/11 A3001 RMK AO2 SLP159 T01390106
2026-04-13 09:53:00,METAR KCRQ 130953Z AUTO 35003KT 10SM FEW025 BKN043 BKN055 14/11 A3001 RMK AO2 RAB24E46 SLP161 P0000 T01440111
2026-04-13 09:06:00,SPECI KCRQ 130906Z AUTO 00000KT 10SM FEW023 BKN042 OVC080 15/11 A3002 RMK AO2 T01500111
2026-04-13 08:53:00,METAR KCRQ 130853Z AUTO 00000KT 10SM BKN024 BKN033 OVC042 15/11 A3002 RMK AO2 SLP165 60000 T01500111 58001
2026-04-13 08:07:00,SPECI KCRQ 130807Z AUTO 35003KT 10SM BKN023 OVC034 15/12 A3003 RMK AO2 T01500117
2026-04-13 07:53:00,METAR KCRQ 130753Z AUTO 36003KT 10SM SCT025 OVC034 15/13 A3003 RMK AO2 SLP168 T01500128 402000144
2026-04-13 06:53:00,METAR KCRQ 130653Z AUTO 25003KT 10SM FEW027 BKN041 OVC050 16/12 A3004 RMK AO2 RAB39E48 SLP169 P0000 T01560122
2026-04-13 05:53:00,METAR KCRQ 130553Z AUTO 21003KT 10SM BKN065 BKN080 16/13 A3003 RMK AO2 SLP167 60001 T01610128 10172 20156 50009
2026-04-13 05:33:00,SPECI KCRQ 130533Z AUTO 22003KT 10SM SCT017 SCT070 16/13 A3003 RMK AO2 T01610128
2026-04-13 05:20:00,SPECI KCRQ 130520Z AUTO 20003KT 10SM BKN017 BKN023 BKN034 16/13 A3003 RMK AO2 T01610128
2026-04-13 04:53:00,METAR KCRQ 130453Z 00000KT 10SM FEW024 BKN034 OVC055 16/13 A3003 RMK AO2 SLP167 T01610128
2026-04-13 03:53:00,METAR KCRQ 130353Z 00000KT 10SM BKN048 16/13 A3002 RMK AO2 SLP164 T01610133
2026-04-13 02:53:00,METAR KCRQ 130253Z 00000KT 10SM FEW016 BKN040 OVC049 16/13 A3000 RMK AO2 SLP158 60001 T01610128 51002
2026-04-13 02:27:00,SPECI KCRQ 130227Z 19005KT 10SM FEW017 BKN037 OVC044 16/13 A3000 RMK AO2 T01610133
2026-04-13 02:01:00,SPECI KCRQ 130201Z 29003KT 10SM SCT015 BKN019 OVC050 16/13 A3000 RMK AO2 T01610128
2026-04-13 01:53:00,METAR KCRQ 130153Z 24005KT 10SM SCT013 BKN042 OVC055 16/13 A3000 RMK AO2 SLP157 T01610133
2026-04-13 00:53:00,METAR KCRQ 130053Z 24005KT 10SM SCT055 OVC070 16/13 A3000 RMK AO2 RAE52 SLP157 P0001 T01610133
2026-04-12 23:53:00,METAR KCRQ 122353Z AUTO 24005KT 10SM -RA SCT016 SCT038 OVC070 17/13 A3000 RMK AO2 RAB53 SLP156 P0000 60001 T01720133 10200 20156 58003
2026-04-12 23:32:00,SPECI KCRQ 122332Z AUTO 25008KT 10SM FEW018 SCT036 OVC075 18/13 A3000 RMK AO2 T01780128
2026-04-12 22:53:00,METAR KCRQ 122253Z AUTO 24008KT 10SM FEW019 BKN024 OVC090 18/12 A3000 RMK AO2 RAB2154E03 SLP158 P0000 T01780122
2026-04-12 21:53:00,METAR KCRQ 122153Z AUTO 25012KT 9SM SCT018 SCT025 OVC047 18/13 A3001 RMK AO2 SLP160 T01780133
2026-04-12 20:53:00,METAR KCRQ 122053Z AUTO 24006G18KT 10SM SCT021 BKN044 OVC075 18/12 A3001 RMK AO2 SLP159 60001 T01830117 50001
2026-04-12 20:08:00,SPECI KCRQ 122008Z AUTO 27007KT 10SM SCT016 BKN024 BKN028 17/12 A3001 RMK AO2 T01720122
2026-04-12 19:53:00,METAR KCRQ 121953Z AUTO 25011KT 10SM SCT015 BKN038 BKN046 17/13 A3001 RMK AO2 RAB1859E46 SLP159 P0000 T01720133
2026-04-12 19:11:00,SPECI KCRQ 121911Z AUTO 26007KT 5SM -RA BR FEW023 BKN034 OVC055 16/14 A3001 RMK AO2 RAB1859 P0000 T01560144
2026-04-12 18:53:00,METAR KCRQ 121853Z AUTO 24014G22KT 10SM FEW020 BKN029 OVC034 16/14 A3002 RMK AO2 PK WND 22028/1834 RAB27E48 SLP163 P0001 T01610139
2026-04-12 17:53:00,METAR KCRQ 121753Z AUTO 22012G21KT 10SM FEW022 BKN050 OVC065 19/12 A3000 RMK AO2 SLP157 T01890122 10189 20144 53006
2026-04-12 16:53:00,METAR KCRQ 121653Z AUTO 20010G17KT 10SM FEW025 OVC060 18/12 A2999 RMK AO2 SLP153 T01830117
2026-04-12 15:53:00,METAR KCRQ 121553Z AUTO 17008KT 10SM BKN075 18/12 A2998 RMK AO2 SLP151 T01780117
2026-04-12 14:53:00,METAR KCRQ 121453Z AUTO 14008KT 10SM OVC060 16/12 A2998 RMK AO2 SLP151 T01610122 53013
2026-04-12 13:53:00,METAR KCRQ 121353Z AUTO 14004KT 10SM OVC065 15/12 A2997 RMK AO2 SLP146 T01500122
2026-04-12 12:53:00,METAR KCRQ 121253Z AUTO 12005KT 10SM OVC060 15/12 A2995 RMK AO2 SLP141 T01500122
2026-04-12 11:53:00,METAR KCRQ 121153Z AUTO 15003KT 10SM OVC060 14/12 A2994 RMK AO2 SLP138 70002 T01440117 10167 20144 56010
2026-04-12 10:53:00,METAR KCRQ 121053Z AUTO 17003KT 10SM FEW050 15/12 A2995 RMK AO2 SLP138 T01500122
2026-04-12 09:53:00,METAR KCRQ 120953Z AUTO 00000KT 10SM CLR 15/12 A2996 RMK AO2 SLP142 T01500122
2026-04-12 09:28:00,SPECI KCRQ 120928Z AUTO 14004KT 10SM SCT024 16/12 A2996 RMK AO2 T01560122
2026-04-12 08:53:00,METAR KCRQ 120853Z AUTO 17005KT 10SM BKN023 BKN031 OVC049 16/12 A2997 RMK AO2 SLP148 T01610122 58008
2026-04-12 07:53:00,METAR KCRQ 120753Z AUTO 15004KT 10SM FEW025 BKN045 16/12 A2998 RMK AO2 SLP152 T01610117 402000150
2026-04-12 06:53:00,METAR KCRQ 120653Z AUTO 26003KT 10SM CLR 17/12 A2999 RMK AO2 SLP153 T01670117
2026-04-12 05:53:00,METAR KCRQ 120553Z AUTO 00000KT 10SM FEW022 SCT036 BKN047 17/12 A3000 RMK AO2 SLP156 T01670122 10183 20167 51013
2026-04-12 05:05:00,SPECI KCRQ 120505Z AUTO 00000KT 10SM SCT020 SCT025 BKN037 17/13 A3000 RMK AO2 T01670128
2026-04-12 04:53:00,METAR KCRQ 120453Z AUTO 26003KT 10SM BKN020 17/13 A2999 RMK AO2 SLP155 T01720128
2026-04-12 03:53:00,METAR KCRQ 120353Z AUTO 28003KT 10SM FEW020 FEW028 FEW034 17/13 A2998 RMK AO2 SLP150 T01670128
2026-04-12 02:53:00,METAR KCRQ 120253Z VRB03KT 10SM FEW018 17/13 A2996 RMK AO2 SLP143 T01720128 53002
2026-04-12 01:53:00,METAR KCRQ 120153Z 26006KT 10SM CLR 18/13 A2995 RMK AO2 SLP140 T01780128
2026-04-12 00:53:00,METAR KCRQ 120053Z 26006KT 10SM CLR 18/11 A2994 RMK AO2 SLP138 T01830111
2026-04-11 23:53:00,METAR KCRQ 112353Z 26008KT 10SM CLR 19/12 A2995 RMK AO2 SLP141 T01890122 10200 20189 56014
2026-04-11 22:53:00,METAR KCRQ 112253Z 24010KT 10SM CLR 19/11 A2997 RMK AO2 SLP145 T01940106
2026-04-11 21:53:00,METAR KCRQ 112153Z 24011KT 10SM CLR 19/11 A2998 RMK AO2 SLP149 T01940111
2026-04-11 20:53:00,METAR KCRQ 112053Z 25010G15KT 10SM CLR 19/12 A2999 RMK AO2 SLP154 T01940117 58012
2026-04-11 19:53:00,METAR KCRQ 111953Z 23008G14KT 10SM CLR 19/12 A3001 RMK AO2 SLP159 T01940122
2026-04-11 18:53:00,METAR KCRQ 111853Z 25010KT 10SM CLR 19/12 A3002 RMK AO2 SLP162 T01890117
2026-04-11 17:53:00,METAR KCRQ 111753Z 25008KT 10SM CLR 19/13 A3003 RMK AO2 SLP166 60002 T01890128 10189 20150 51005
2026-04-11 16:53:00,METAR KCRQ 111653Z 20004KT 10SM FEW020 18/13 A3002 RMK AO2 SLP165 T01830128
2026-04-11 15:53:00,METAR KCRQ 111553Z 00000KT 10SM BKN050 17/13 A3003 RMK AO2 SLP167 T01670128
2026-04-11 14:53:00,METAR KCRQ 111453Z 10004KT 10SM OVC046 16/14 A3001 RMK AO2 RAE05 SLP162 P0000 60002 T01560139 51015
2026-04-11 13:53:00,METAR KCRQ 111353Z AUTO 25005KT 6SM -RA BR FEW009 SCT020 OVC048 15/14 A2999 RMK AO2 RAB31 SLP155 P0002 T01500139
2026-04-11 13:48:00,SPECI KCRQ 111348Z AUTO 25005KT 5SM -RA BR FEW009 SCT020 OVC048 15/14 A2999 RMK AO2 RAB31 P0001
2026-04-11 13:31:00,SPECI KCRQ 111331Z AUTO 26008KT 10SM -RA FEW007 BKN020 OVC048 16/14 A2999 RMK AO2 RAB31 P0000 T01560139
2026-04-11 12:53:00,METAR KCRQ 111253Z AUTO 00000KT 10SM OVC050 16/14 A2997 RMK AO2 SLP147 T01610144
2026-04-11 11:53:00,METAR KCRQ 111153Z AUTO 18003KT 10SM OVC060 16/14 A2996 RMK AO2 SLP143 60002 70002 T01560144 10172 20156 56003
2026-04-11 10:53:00,METAR KCRQ 111053Z AUTO 00000KT 10SM SCT033 OVC060 16/14 A2996 RMK AO2 RAE27 SLP143 P0001 T01610139
2026-04-11 09:53:00,METAR KCRQ 110953Z AUTO 00000KT 8SM -RA FEW027 BKN038 OVC048 16/14 A2996 RMK AO2 RAB05 SLP144 P0001 T01610139
2026-04-11 09:21:00,SPECI KCRQ 110921Z AUTO 00000KT 10SM -RA FEW025 BKN030 OVC037 17/13 A2996 RMK AO2 RAB05 P0000 T01670133
2026-04-11 08:53:00,METAR KCRQ 110853Z AUTO 00000KT 10SM BKN024 BKN036 OVC044 17/13 A2997 RMK AO2 SLP145 60000 T01670133 58004
2026-04-11 08:40:00,SPECI KCRQ 110840Z AUTO 00000KT 10SM SCT024 BKN044 BKN050 17/13 A2997 RMK AO2 T01670133
2026-04-11 07:53:00,METAR KCRQ 110753Z AUTO 00000KT 10SM SCT015 OVC025 17/14 A2997 RMK AO2 RAB26E44 SLP147 P0000 T01670144 402060161
2026-04-11 07:40:00,SPECI KCRQ 110740Z AUTO VRB03KT 10SM -RA FEW016 BKN020 OVC043 17/14 A2998 RMK AO2 RAB26 P0000 T01670139
2026-04-11 06:53:00,METAR KCRQ 110653Z AUTO 21004KT 10SM FEW018 OVC036 17/13 A2998 RMK AO2 SLP148 T01720128
2026-04-11 05:53:00,METAR KCRQ 110553Z AUTO 25005KT 10SM OVC030 17/13 A2998 RMK AO2 SLP149 T01720128 10183 20161 51013
2026-04-11 05:42:00,SPECI KCRQ 110542Z AUTO 23004KT 10SM FEW018 OVC030 17/13 A2998 RMK AO2 T01720128
2026-04-11 04:53:00,METAR KCRQ 110453Z AUTO 21003KT 10SM BKN020 OVC025 17/13 A2998 RMK AO2 SLP147 T01670133
2026-04-11 04:01:00,SPECI KCRQ 110401Z AUTO 26005KT 10SM OVC015 17/13 A2996 RMK AO2 T01670133
2026-04-11 03:53:00,METAR KCRQ 110353Z AUTO 25004KT 10SM OVC014 17/13 A2996 RMK AO2 SLP143 T01670133
2026-04-11 02:53:00,METAR KCRQ 110253Z AUTO 24004KT 10SM OVC012 17/13 A2994 RMK AO2 SLP137 T01670133 53004
2026-04-11 01:53:00,METAR KCRQ 110153Z AUTO 23004KT 10SM OVC012 17/13 A2993 RMK AO2 SLP134 T01670133
2026-04-11 00:53:00,METAR KCRQ 110053Z AUTO 26006KT 10SM BKN012 17/14 A2992 RMK AO2 SLP131 T01720139
2026-04-10 23:53:00,METAR KCRQ 102353Z AUTO 22008KT 10SM BKN012 18/14 A2993 RMK AO2 SLP132 T01830144 10206 20183 56008
2026-04-10 23:49:00,SPECI KCRQ 102349Z AUTO 22008KT 10SM BKN012 18/14 A2993 RMK AO2
2026-04-10 23:27:00,SPECI KCRQ 102327Z AUTO 23010KT 10SM SCT013 19/14 A2993 RMK AO2 T01890144
2026-04-10 22:53:00,METAR KCRQ 102253Z AUTO 25008KT 10SM BKN012 19/15 A2993 RMK AO2 SLP133 T01940150
2026-04-10 22:44:00,SPECI KCRQ 102244Z AUTO 27008KT 10SM BKN012 19/15 A2993 RMK AO2 T01940150
2026-04-10 22:33:00,SPECI KCRQ 102233Z 28006KT 10SM SCT012 19/15 A2994 RMK AO2 T01940150
2026-04-10 21:53:00,METAR KCRQ 102153Z 25010KT 10SM BKN012 19/15 A2995 RMK AO2 SLP139 T01940150
2026-04-10 21:44:00,SPECI KCRQ 102144Z 25008KT 10SM BKN013 19/14 A2995 RMK AO2 T01940144
2026-04-10 20:53:00,METAR KCRQ 102053Z 27007KT 240V300 10SM SCT110 20/14 A2996 RMK AO2 SLP144 T02000144 58006
2026-04-10 19:53:00,METAR KCRQ 101953Z 25007G15KT 10SM CLR 20/14 A2997 RMK AO2 SLP146 T02000139
2026-04-10 18:53:00,METAR KCRQ 101853Z 23007KT 10SM CLR 19/14 A2998 RMK AO2 SLP150 T01940144
2026-04-10 17:53:00,METAR KCRQ 101753Z 23006KT 10SM CLR 19/14 A2998 RMK AO2 SLP149 T01940144 10200 20161 53006
2026-04-10 16:53:00,METAR KCRQ 101653Z VRB03KT 10SM FEW015 19/14 A2997 RMK AO2 SLP145 T01940139
2026-04-10 16:51:00,SPECI KCRQ 101651Z 00000KT 10SM SCT015 19/14 A2997 RMK AO2
2026-04-10 16:37:00,SPECI KCRQ 101637Z 27003KT 10SM BKN015 19/14 A2997 RMK AO2 T01890139
2026-04-10 15:53:00,METAR KCRQ 101553Z 00000KT 10SM OVC012 18/14 A2996 RMK AO2 SLP144 T01780139
2026-04-10 14:53:00,METAR KCRQ 101453Z 00000KT 10SM OVC012 17/14 A2996 RMK AO2 SLP143 T01670139 53014
2026-04-10 13:53:00,METAR KCRQ 101353Z 00000KT 10SM OVC010 17/14 A2994 RMK AO2 SLP137 T01670139
2026-04-10 13:21:00,SPECI KCRQ 101321Z AUTO 24004KT 10SM OVC010 17/14 A2993 RMK AO2 T01670139
2026-04-10 12:53:00,METAR KCRQ 101253Z AUTO 24003KT 10SM OVC009 17/14 A2992 RMK AO2 SLP131 T01670139
2026-04-10 12:28:00,SPECI KCRQ 101228Z AUTO 00000KT 10SM OVC009 17/14 A2992 RMK AO2 T01670144
2026-04-10 11:53:00,METAR KCRQ 101153Z AUTO 00000KT 10SM OVC010 17/14 A2992 RMK AO2 SLP128 T01670144 10178 20167 56011
2026-04-10 10:53:00,METAR KCRQ 101053Z AUTO 00000KT 10SM OVC010 17/14 A2992 RMK AO2 SLP130 T01670144
2026-04-10 09:53:00,METAR KCRQ 100953Z AUTO 00000KT 10SM OVC011 17/14 A2993 RMK AO2 SLP132 T01720144
2026-04-10 08:53:00,METAR KCRQ 100853Z AUTO 00000KT 10SM OVC012 17/14 A2995 RMK AO2 SLP139 T01720144 58006
2026-04-10 07:53:00,METAR KCRQ 100753Z AUTO 00000KT 10SM OVC012 18/14 A2996 RMK AO2 SLP142 T01780144 402110156
2026-04-10 06:53:00,METAR KCRQ 100653Z AUTO 00000KT 10SM OVC012 18/15 A2996 RMK AO2 SLP143 T01780150
2026-04-10 05:53:00,METAR KCRQ 100553Z AUTO 00000KT 10SM OVC011 18/15 A2997 RMK AO2 SLP145 T01780150 10183 20178 50011
2026-04-10 04:53:00,METAR KCRQ 100453Z 22004KT 10SM OVC011 18/15 A2997 RMK AO2 SLP147 T01830150
2026-04-10 03:53:00,METAR KCRQ 100353Z 00000KT 10SM OVC010 18/16 A2995 RMK AO2 SLP141 T01780156
2026-04-10 03:02:00,SPECI KCRQ 100302Z 29003KT 10SM BKN010 18/16 A2994 RMK AO2 T01830156
2026-04-10 02:53:00,METAR KCRQ 100253Z 23003KT 10SM BKN009 18/16 A2993 RMK AO2 SLP135 T01780156 53003
2026-04-10 01:53:00,METAR KCRQ 100153Z 22005KT 10SM BKN009 18/16 A2993 RMK AO2 SLP133 T01830156
2026-04-10 00:53:00,METAR KCRQ 100053Z AUTO 25006KT 10SM CLR 19/15 A2993 RMK AO2 SLP133 T01890150
2026-04-09 23:53:00,METAR KCRQ 092353Z AUTO 24003KT 10SM CLR 19/14 A2993 RMK AO2 SLP131 T01940144 10211 20189 56010
2026-04-09 22:53:00,METAR KCRQ 092253Z AUTO 23007KT 10SM CLR 19/15 A2994 RMK AO2 SLP134 T01940150
2026-04-09 21:53:00,METAR KCRQ 092153Z 21007KT 10SM CLR 19/15 A2994 RMK AO2 SLP137 T01940150
2026-04-09 20:53:00,METAR KCRQ 092053Z 24008KT 10SM CLR 20/15 A2996 RMK AO2 SLP142 T02000150 55004
2026-04-09 19:53:00,METAR KCRQ 091953Z 24008KT 10SM CLR 21/15 A2995 RMK AO2 SLP141 T02110150
2026-04-09 18:53:00,METAR KCRQ 091853Z 26007KT 210V290 10SM CLR 21/14 A2997 RMK AO2 SLP144 T02060144
2026-04-09 17:53:00,METAR KCRQ 091753Z 24006KT 10SM CLR 19/14 A2997 RMK AO2 SLP145 T01940144 10194 20156 51008
2026-04-09 17:34:00,SPECI KCRQ 091734Z VRB05KT 10SM SCT016 18/14 A2997 RMK AO2 T01830144
2026-04-09 17:20:00,SPECI KCRQ 091720Z 25006KT 10SM BKN015 19/14 A2997 RMK AO2 T01890144
2026-04-09 16:53:00,METAR KCRQ 091653Z VRB04KT 10SM BKN013 18/14 A2996 RMK AO2 SLP145 T01830144
2026-04-09 16:20:00,SPECI KCRQ 091620Z 21003KT 9SM BKN012 18/14 A2996 RMK AO2 T01780144
2026-04-09 16:05:00,SPECI KCRQ 091605Z 21004KT 9SM SCT010 18/14 A2996 RMK AO2 T01780144
2026-04-09 15:53:00,METAR KCRQ 091553Z 18004KT 9SM BKN010 17/14 A2996 RMK AO2 CIG 009V012 SLP142 T01720139
2026-04-09 15:37:00,SPECI KCRQ 091537Z 22004KT 8SM BKN010 17/14 A2995 RMK AO2 T01720139
2026-04-09 15:21:00,SPECI KCRQ 091521Z 00000KT 8SM SCT010 17/14 A2995 RMK AO2 T01670139
2026-04-09 14:53:00,METAR KCRQ 091453Z 00000KT 6SM BR BKN007 16/14 A2994 RMK AO2 CIG 006V010 SLP138 T01610139 53011
2026-04-09 13:53:00,METAR KCRQ 091353Z 13003KT 6SM BR OVC007 16/14 A2992 RMK AO2 SLP131 T01610139
2026-04-09 12:53:00,METAR KCRQ 091253Z AUTO 13005KT 10SM OVC007 16/14 A2991 RMK AO2 SLP128 T01610144
2026-04-09 11:53:00,METAR KCRQ 091153Z AUTO 12004KT 10SM OVC009 17/14 A2991 RMK AO2 SLP126 T01670144 10172 20156 57001
2026-04-09 11:49:00,SPECI KCRQ 091149Z AUTO 14005KT 10SM OVC009 17/14 A2991 RMK AO2
2026-04-09 10:53:00,METAR KCRQ 091053Z AUTO 12005KT 10SM OVC010 17/14 A2992 RMK AO2 SLP127 T01670144
2026-04-09 10:51:00,SPECI KCRQ 091051Z AUTO 14005KT 10SM OVC010 17/14 A2992 RMK AO2
2026-04-09 09:53:00,METAR KCRQ 090953Z AUTO 09003KT 10SM OVC009 17/14 A2992 RMK AO2 SLP128 T01670144
2026-04-09 09:17:00,SPECI KCRQ 090917Z AUTO 00000KT 10SM BKN009 16/14 A2993 RMK AO2 T01610144
2026-04-09 09:09:00,SPECI KCRQ 090909Z AUTO 00000KT 10SM SCT009 16/14 A2992 RMK AO2 T01610139
2026-04-09 09:02:00,SPECI KCRQ 090902Z AUTO 09003KT 10SM BKN009 16/14 A2992 RMK AO2 T01560139
2026-04-09 08:53:00,METAR KCRQ 090853Z AUTO 09003KT 10SM SCT009 16/14 A2992 RMK AO2 SLP130 T01560139 58002
2026-04-09 07:53:00,METAR KCRQ 090753Z AUTO 11003KT 10SM CLR 16/14 A2994 RMK AO2 SLP135 T01610139 402170144
2026-04-09 06:53:00,METAR KCRQ 090653Z AUTO 22003KT 10SM CLR 17/15 A2993 RMK AO2 SLP132 T01670150
2026-04-09 05:53:00,METAR KCRQ 090553Z AUTO 00000KT 10SM CLR 17/13 A2992 RMK AO2 SLP128 T01720133 10194 20167 51008
2026-04-09 04:53:00,METAR KCRQ 090453Z 10004KT 10SM CLR 17/14 A2992 RMK AO2 SLP129 T01720144
2026-04-09 03:53:00,METAR KCRQ 090353Z 12004KT 10SM CLR 18/14 A2991 RMK AO2 SLP126 T01780144
2026-04-09 02:53:00,METAR KCRQ 090253Z AUTO 00000KT 10SM FEW011 18/14 A2989 RMK AO2 SLP121 T01780144 53003
2026-04-09 02:45:00,SPECI KCRQ 090245Z AUTO 25004KT 10SM SCT011 18/15 A2989 RMK AO2 T01780150
2026-04-09 02:16:00,SPECI KCRQ 090216Z AUTO 24003KT 10SM BKN010 18/15 A2989 RMK AO2 T01830150
2026-04-09 01:53:00,METAR KCRQ 090153Z AUTO 24006KT 10SM CLR 18/15 A2989 RMK AO2 SLP120 T01830150
2026-04-09 00:53:00,METAR KCRQ 090053Z AUTO VRB06KT 10SM CLR 19/14 A2988 RMK AO2 SLP117 T01940144
2026-04-08 23:53:00,METAR KCRQ 082353Z AUTO 27006KT 10SM CLR 19/14 A2988 RMK AO2 SLP117 T01940144 10217 20194 56006
2026-04-08 22:53:00,METAR KCRQ 082253Z AUTO 23007KT 10SM CLR 21/13 A2989 RMK AO2 SLP118 T02060133
2026-04-08 21:53:00,METAR KCRQ 082153Z 27007KT 250V310 10SM CLR 20/14 A2989 RMK AO2 SLP121 T02000139
2026-04-08 20:53:00,METAR KCRQ 082053Z 25011KT 10SM CLR 21/13 A2990 RMK AO2 SLP122 T02060133 56013
2026-04-08 19:53:00,METAR KCRQ 081953Z 27004KT 10SM CLR 21/13 A2990 RMK AO2 SLP123 T02110133
2026-04-08 18:53:00,METAR KCRQ 081853Z 24005KT 10SM CLR 19/13 A2993 RMK AO2 SLP132 T01940133
2026-04-08 17:53:00,METAR KCRQ 081753Z 10SM CLR 20/13 A2994 RMK AO2 SLP136 T02000133 10200 20150 58001
2026-04-08 16:53:00,METAR KCRQ 081653Z 00000KT 10SM CLR 18/13 A2995 RMK AO2 SLP139 T01780128
2026-04-08 16:13:00,SPECI KCRQ 081613Z 00000KT 10SM SCT010 17/13 A2995 RMK AO2 T01670128
2026-04-08 15:53:00,METAR KCRQ 081553Z 00000KT 10SM OVC010 16/13 A2995 RMK AO2 SLP139 T01610128
2026-04-08 15:51:00,SPECI KCRQ 081551Z 00000KT 10SM OVC010 16/13 A2995 RMK AO2
2026-04-08 15:13:00,SPECI KCRQ 081513Z 00000KT 10SM OVC009 16/13 A2994 RMK AO2 T01560128
2026-04-08 14:53:00,METAR KCRQ 081453Z 09003KT 9SM OVC010 16/13 A2994 RMK AO2 SLP136 T01560133 53014
2026-04-08 13:53:00,METAR KCRQ 081353Z 10004KT 10SM OVC010 15/13 A2992 RMK AO2 SLP129 T01500128
2026-04-08 13:11:00,SPECI KCRQ 081311Z AUTO 11005KT 10SM OVC010 15/13 A2990 RMK AO2 T01500128
2026-04-08 12:53:00,METAR KCRQ 081253Z AUTO 11004KT 10SM OVC009 15/13 A2990 RMK AO2 SLP125 T01500133
2026-04-08 11:53:00,METAR KCRQ 081153Z AUTO 12004KT 10SM SCT003 OVC008 15/13 A2990 RMK AO2 SLP122 T01500133 10167 20144 56007
2026-04-08 11:15:00,SPECI KCRQ 081115Z AUTO VRB05KT 3SM BR OVC002 14/14 A2991 RMK AO2 T01440139
2026-04-08 10:53:00,METAR KCRQ 081053Z AUTO 17004KT 2 1/2SM R24/6000VP6000FT BR OVC002 14/14 A2991 RMK AO2 VIS 1 3/4V4 SLP126 T01440139
2026-04-08 09:53:00,METAR KCRQ 080953Z AUTO 13003KT 7SM OVC004 15/14 A2991 RMK AO2 SLP126 T01500144
2026-04-08 08:53:00,METAR KCRQ 080853Z AUTO 14003KT 10SM OVC005 16/14 A2992 RMK AO2 SLP130 T01560144 58003
2026-04-08 08:08:00,SPECI KCRQ 080808Z AUTO 13004KT 10SM BKN007 15/13 A2992 RMK AO2 T01500133
2026-04-08 07:53:00,METAR KCRQ 080753Z AUTO 13003KT 10SM FEW007 16/14 A2993 RMK AO2 SLP132 T01560139 401940144
2026-04-08 06:53:00,METAR KCRQ 080653Z AUTO 00000KT 10SM CLR 16/14 A2992 RMK AO2 SLP131 T01610139
2026-04-08 05:53:00,METAR KCRQ 080553Z AUTO 00000KT 10SM SCT007 17/14 A2993 RMK AO2 SLP133 T01670144 10194 20161 51003
2026-04-08 05:49:00,SPECI KCRQ 080549Z AUTO 00000KT 10SM SCT007 16/14 A2993 RMK AO2
2026-04-08 05:42:00,SPECI KCRQ 080542Z AUTO 00000KT 10SM BKN007 16/14 A2993 RMK AO2 T01610144
2026-04-08 05:33:00,SPECI KCRQ 080533Z AUTO 00000KT 10SM SCT007 16/14 A2993 RMK AO2 T01610144
2026-04-08 04:53:00,METAR KCRQ 080453Z AUTO 00000KT 10SM CLR 17/14 A2993 RMK AO2 SLP133 T01670144
2026-04-08 03:53:00,METAR KCRQ 080353Z AUTO 00000KT 10SM CLR 17/14 A2992 RMK AO2 SLP130 T01670144
2026-04-08 02:53:00,METAR KCRQ 080253Z AUTO 00000KT 10SM CLR 17/14 A2991 RMK AO2 SLP127 T01670139 58002
2026-04-08 01:53:00,METAR KCRQ 080153Z AUTO 00000KT 10SM CLR 17/14 A2991 RMK AO2 SLP128 T01720139
2026-04-08 00:53:00,METAR KCRQ 080053Z AUTO 24006KT 10SM CLR 18/14 A2992 RMK AO2 SLP129 T01780139
2026-04-07 23:53:00,METAR KCRQ 072353Z AUTO 25006KT 10SM CLR 19/13 A2992 RMK AO2 SLP129 T01890133 10194 20183 56016
2026-04-07 22:53:00,METAR KCRQ 072253Z AUTO 23005KT 10SM CLR 19/13 A2993 RMK AO2 SLP132 T01940128
2026-04-07 21:53:00,METAR KCRQ 072153Z AUTO 27007KT 10SM CLR 19/13 A2994 RMK AO2 SLP138 T01890128
2026-04-07 20:53:00,METAR KCRQ 072053Z AUTO 25009KT 220V280 10SM CLR 19/13 A2997 RMK AO2 SLP145 T01890128 56013
2026-04-07 19:53:00,METAR KCRQ 071953Z AUTO 25008KT 10SM CLR 19/13 A2997 RMK AO2 SLP148 T01890128
2026-04-07 18:53:00,METAR KCRQ 071853Z AUTO 23007KT 10SM CLR 19/13 A2999 RMK AO2 SLP154 T01890128
2026-04-07 17:53:00,METAR KCRQ 071753Z AUTO 24007KT 10SM CLR 18/13 A3000 RMK AO2 SLP158 T01830128 10189 20156 53002
2026-04-07 16:53:00,METAR KCRQ 071653Z AUTO 23004KT 10SM CLR 19/12 A3000 RMK AO2 SLP157 T01890122
2026-04-07 15:53:00,METAR KCRQ 071553Z AUTO 00000KT 10SM CLR 16/12 A3000 RMK AO2 SLP155 T01610122
2026-04-07 15:30:00,SPECI KCRQ 071530Z AUTO 00000KT 10SM SCT012 16/12 A3000 RMK AO2 T01610122
2026-04-07 14:53:00,METAR KCRQ 071453Z AUTO 09004KT 10SM R24/4000VP6000FT OVC013 16/12 A3000 RMK AO2 SLP156 T01560122 53003
2026-04-07 13:53:00,METAR KCRQ 071353Z AUTO 00000KT 10SM OVC013 16/12 A2999 RMK AO2 SLP154 T01560122
2026-04-07 12:53:00,METAR KCRQ 071253Z AUTO 18003KT 10SM OVC014 16/12 A2999 RMK AO2 SLP154 T01560122
2026-04-07 06:53:00,METAR KCRQ 070653Z AUTO 00000KT 10SM FEW010 16/14 A3003 RMK AO2 SLP165 T01610139
2026-04-07 05:53:00,METAR KCRQ 070553Z AUTO 15003KT 10SM CLR 16/14 A3003 RMK AO2 SLP167 T01610139 10200 20161 51011
2026-04-07 04:53:00,METAR KCRQ 070453Z AUTO 16003KT 10SM CLR 17/14 A3003 RMK AO2 SLP166 T01670139
2026-04-07 04:13:00,SPECI KCRQ 070413Z AUTO 00000KT 10SM SCT011 17/14 A3002 RMK AO2 T01720139
2026-04-07 04:04:00,SPECI KCRQ 070404Z AUTO 15003KT 10SM BKN011 17/14 A3002 RMK AO2 T01720139
2026-04-07 03:53:00,METAR KCRQ 070353Z AUTO 20003KT 10SM FEW012 17/14 A3002 RMK AO2 SLP163 T01720144
2026-04-07 03:19:00,SPECI KCRQ 070319Z AUTO 27003KT 10SM SCT013 17/14 A3000 RMK AO2 T01720139
2026-04-07 02:53:00,METAR KCRQ 070253Z AUTO 22004KT 10SM BKN013 18/14 A3000 RMK AO2 SLP156 T01780144 53003
2026-04-07 02:23:00,SPECI KCRQ 070223Z AUTO 25004KT 10SM BKN010 17/14 A2999 RMK AO2 T01720144
2026-04-07 01:53:00,METAR KCRQ 070153Z AUTO 24006KT 10SM CLR 18/14 A2999 RMK AO2 SLP152 T01780144
2026-04-07 00:53:00,METAR KCRQ 070053Z AUTO VRB03KT 10SM CLR 19/14 A2998 RMK AO2 SLP150 T01890144
2026-04-06 23:53:00,METAR KCRQ 062353Z AUTO 25008KT 10SM CLR 20/14 A2999 RMK AO2 SLP152 60000 T02000144 10233 20189 57005
2026-04-06 22:53:00,METAR KCRQ 062253Z AUTO 25008KT 10SM SCT011 20/14 A2999 RMK AO2 SLP154 T02000139
2026-04-06 21:53:00,METAR KCRQ 062153Z AUTO 25010KT 10SM CLR 21/14 A3000 RMK AO2 SLP155 T02060139
2026-04-06 20:53:00,METAR KCRQ 062053Z AUTO 24009G18KT 10SM CLR 22/11 A3000 RMK AO2 SLP157 60000 T02170106 58012
2026-04-06 19:53:00,METAR KCRQ 061953Z AUTO 00000KT 10SM CLR 23/11 A3001 RMK AO2 SLP161 T02280111
2026-04-06 18:53:00,METAR KCRQ 061853Z AUTO 27006KT 10SM CLR 21/14 A3004 RMK AO2 RAB19E33 SLP170 P0000 T02060139
2026-04-06 17:53:00,METAR KCRQ 061753Z AUTO 20004KT 10SM SCT120 19/13 A3004 RMK AO2 SLP169 T01940133 10194 20161 51007
2026-04-06 16:53:00,METAR KCRQ 061653Z AUTO 12005KT 10SM BKN120 18/13 A3004 RMK AO2 SLP169 T01830133
2026-04-06 15:53:00,METAR KCRQ 061553Z AUTO 17004KT 10SM BKN110 18/13 A3004 RMK AO2 SLP168 T01780128
2026-04-06 14:53:00,METAR KCRQ 061453Z AUTO 08003KT 10SM CLR 17/11 A3002 RMK AO2 SLP162 T01720111 53014
2026-04-06 13:53:00,METAR KCRQ 061353Z AUTO 12003KT 10SM FEW120 17/12 A3000 RMK AO2 SLP158 T01720122
2026-04-06 12:53:00,METAR KCRQ 061253Z AUTO 10003KT 10SM SCT085 BKN110 17/11 A2999 RMK AO2 SLP151 T01670111
2026-04-06 11:53:00,METAR KCRQ 061153Z AUTO 11003KT 10SM CLR 17/09 A2998 RMK AO2 SLP148 T01670094 10178 20161 55003
2026-04-06 10:53:00,METAR KCRQ 061053Z AUTO 00000KT 10SM CLR 17/10 A2997 RMK AO2 SLP144 T01720100
2026-04-06 09:53:00,METAR KCRQ 060953Z AUTO 00000KT 10SM CLR 17/11 A2998 RMK AO2 SLP148 T01670106
2026-04-06 08:53:00,METAR KCRQ 060853Z AUTO 00000KT 10SM CLR 17/12 A2998 RMK AO2 SLP151 T01670117 58002
2026-04-06 07:53:00,METAR KCRQ 060753Z AUTO 00000KT 10SM CLR 17/11 A3000 RMK AO2 SLP155 T01720111 402330133
2026-04-06 06:53:00,METAR KCRQ 060653Z AUTO 00000KT 10SM CLR 18/11 A2998 RMK AO2 SLP151 T01780106
2026-04-06 05:53:00,METAR KCRQ 060553Z AUTO 00000KT 10SM CLR 18/11 A2999 RMK AO2 SLP153 T01780111 10217 20178 50007
2026-04-06 04:53:00,METAR KCRQ 060453Z 00000KT 10SM CLR 18/11 A3000 RMK AO2 SLP155 T01830111
2026-04-06 03:53:00,METAR KCRQ 060353Z 21004KT 10SM CLR 19/12 A2999 RMK AO2 SLP152 T01890117
2026-04-06 02:53:00,METAR KCRQ 060253Z 00000KT 10SM CLR 19/11 A2997 RMK AO2 SLP147 T01890111 53001
2026-04-06 01:53:00,METAR KCRQ 060153Z 19006KT 10SM CLR 19/12 A2997 RMK AO2 SLP146 T01940117
2026-04-06 00:53:00,METAR KCRQ 060053Z 26004KT 10SM CLR 22/10 A2996 RMK AO2 SLP144 T02170100
2026-04-05 23:53:00,METAR KCRQ 052353Z 25006KT 10SM CLR 21/08 A2997 RMK AO2 SLP145 T02110083 10233 20211 56008
2026-04-05 22:53:00,METAR KCRQ 052253Z 27007KT 10SM CLR 22/06 A2997 RMK AO2 SLP146 T02220056
2026-04-05 21:53:00,METAR KCRQ 052153Z 28005KT 10SM CLR 22/11 A2998 RMK AO2 SLP149 T02170111
2026-04-05 20:53:00,METAR KCRQ 052053Z AUTO 28006KT 10SM CLR 22/09 A2999 RMK AO2 SLP153 T02170089 58004
2026-04-05 19:53:00,METAR KCRQ 051953Z AUTO VRB05KT 10SM CLR 23/08 A2999 RMK AO2 SLP153 T02330083
2026-04-05 18:53:00,METAR KCRQ 051853Z AUTO 26005KT 10SM CLR 23/06 A3000 RMK AO2 SLP157 T02330061
2026-04-05 17:53:00,METAR KCRQ 051753Z AUTO VRB04KT 10SM CLR 22/02 A3000 RMK AO2 SLP157 T02220022 10222 20133 53008
2026-04-05 16:53:00,METAR KCRQ 051653Z AUTO 26003KT 10SM CLR 21/09 A2999 RMK AO2 SLP154 T02060089
2026-04-05 15:53:00,METAR KCRQ 051553Z AUTO 00000KT 10SM CLR 19/01 A2999 RMK AO2 SLP152 T01940011
2026-04-05 14:53:00,METAR KCRQ 051453Z AUTO 00000KT 10SM CLR 16/01 A2998 RMK AO2 SLP149 T01610011 53009
2026-04-05 12:53:00,METAR KCRQ 051253Z AUTO 08004KT 10SM CLR 14/01 A2996 RMK AO2 SLP141 T01440011
2026-04-05 11:53:00,METAR KCRQ 051153Z AUTO 06006KT 10SM CLR 16/02 A2995 RMK AO2 SLP141 T01560017 10178 20139 58016
2026-04-05 10:53:00,METAR KCRQ 051053Z AUTO 07004KT 10SM CLR 14/04 A2997 RMK AO2 SLP146 T01440039
2026-04-05 09:53:00,METAR KCRQ 050953Z AUTO 00000KT 10SM CLR 14/05 A2999 RMK AO2 SLP152 T01440050
2026-04-05 08:53:00,METAR KCRQ 050853Z AUTO 00000KT 10SM CLR 16/07 A3000 RMK AO2 SLP156 T01560067 58005
2026-04-05 07:53:00,METAR KCRQ 050753Z AUTO 00000KT 10SM CLR 16/08 A3001 RMK AO2 SLP160 T01610083 402720117
2026-04-05 06:53:00,METAR KCRQ 050653Z AUTO 00000KT 10SM CLR 16/10 A3001 RMK AO2 SLP160 T01610100
2026-04-05 05:53:00,METAR KCRQ 050553Z AUTO 00000KT 10SM CLR 18/13 A3002 RMK AO2 SLP162 T01780128 10244 20178 51014
2026-04-05 04:53:00,METAR KCRQ 050453Z AUTO 00000KT 10SM CLR 19/11 A3002 RMK AO2 SLP161 T01890106
2026-04-05 03:53:00,METAR KCRQ 050353Z 14005KT 10SM CLR 19/11 A3000 RMK AO2 SLP155 T01940111
2026-04-05 02:53:00,METAR KCRQ 050253Z 18004KT 10SM CLR 20/12 A2998 RMK AO2 SLP148 T02000117 53012
2026-04-05 01:53:00,METAR KCRQ 050153Z 28003KT 10SM CLR 22/08 A2996 RMK AO2 SLP143 T02220078
2026-04-05 00:53:00,METAR KCRQ 050053Z 00000KT 10SM CLR 22/10 A2995 RMK AO2 SLP140 T02220100
2026-04-04 23:53:00,METAR KCRQ 042353Z 30004KT 10SM CLR 24/06 A2994 RMK AO2 SLP136 T02440061 10272 20222 56009
2026-04-04 22:53:00,METAR KCRQ 042253Z 26008KT 10SM CLR 23/10 A2994 RMK AO2 SLP137 T02330100
2026-04-04 21:53:00,METAR KCRQ 042153Z 29006KT 10SM CLR 23/11 A2996 RMK AO2 SLP141 T02330111
2026-04-04 20:53:00,METAR KCRQ 042053Z 27009KT 10SM CLR 23/09 A2997 RMK AO2 SLP145 T02280089 58015
2026-04-04 19:53:00,METAR KCRQ 041953Z 27007KT 10SM CLR 23/11 A2998 RMK AO2 SLP149 T02330111
2026-04-04 18:53:00,METAR KCRQ 041853Z AUTO 26011KT 10SM CLR 22/13 A3000 RMK AO2 SLP156 T02220133
2026-04-04 17:53:00,METAR KCRQ 041753Z AUTO 33007KT 10SM CLR 27/M08 A3001 RMK AO2 SLP160 T02671078 10267 20117 50000
2026-04-04 16:53:00,METAR KCRQ 041653Z AUTO VRB04KT 10SM CLR 24/M04 A3002 RMK AO2 SLP162 T02391044
2026-04-04 15:53:00,METAR KCRQ 041553Z AUTO 00000KT 10SM CLR 21/M03 A3002 RMK AO2 SLP162 T02111033
2026-04-04 14:53:00,METAR KCRQ 041453Z AUTO 00000KT 10SM CLR 17/00 A3001 RMK AO2 SLP160 T01670000 53016
2026-04-04 13:53:00,METAR KCRQ 041353Z AUTO 00000KT 10SM CLR 12/01 A2999 RMK AO2 SLP154 T01220011
2026-04-04 12:53:00,METAR KCRQ 041253Z AUTO 09004KT 10SM CLR 13/01 A2997 RMK AO2 SLP147 T01280011
2026-04-04 11:53:00,METAR KCRQ 041153Z AUTO 00000KT 10SM CLR 14/02 A2996 RMK AO2 SLP144 T01390017 10167 20133 58015
2026-04-04 10:53:00,METAR KCRQ 041053Z AUTO 05003KT 10SM CLR 14/04 A2998 RMK AO2 SLP150 T01440039
2026-04-04 09:53:00,METAR KCRQ 040953Z AUTO 00000KT 10SM CLR 14/09 A3000 RMK AO2 SLP156 T01390094
2026-04-04 08:53:00,METAR KCRQ 040853Z AUTO 04004KT 10SM CLR 16/11 A3001 RMK AO2 SLP159 T01560106 58010
2026-04-04 07:53:00,METAR KCRQ 040753Z AUTO 00000KT 10SM CLR 14/13 A3002 RMK AO2 SLP163 T01440133 402170122
2026-04-04 06:53:00,METAR KCRQ 040653Z AUTO 00000KT 10SM CLR 16/14 A3003 RMK AO2 SLP167 T01560139
2026-04-04 05:53:00,METAR KCRQ 040553Z AUTO 00000KT 10SM CLR 16/14 A3004 RMK AO2 SLP170 T01610139 10194 20156 50010
2026-04-04 04:53:00,METAR KCRQ 040453Z AUTO 00000KT 10SM CLR 17/14 A3004 RMK AO2 SLP170 T01670144
2026-04-04 03:53:00,METAR KCRQ 040353Z AUTO 00000KT 10SM CLR 17/15 A3002 RMK AO2 SLP164 T01720150
2026-04-04 02:53:00,METAR KCRQ 040253Z AUTO 19006KT 10SM CLR 18/14 A3001 RMK AO2 SLP159 T01780144 53023
2026-04-04 01:53:00,METAR KCRQ 040153Z AUTO 22007KT 10SM CLR 18/14 A2998 RMK AO2 SLP152 T01830144
2026-04-04 00:53:00,METAR KCRQ 040053Z AUTO 27006KT 10SM CLR 19/14 A2995 RMK AO2 SLP141 T01890144
2026-04-03 23:53:00,METAR KCRQ 032353Z AUTO 27007KT 10SM CLR 19/14 A2994 RMK AO2 SLP136 T01940144 10217 20183 58012
2026-04-03 22:53:00,METAR KCRQ 032253Z AUTO 25007KT 10SM CLR 21/14 A2995 RMK AO2 SLP140 T02060144 $
2026-04-03 21:53:00,METAR KCRQ 032153Z AUTO 10SM CLR 20/13 A2997 RMK AO2 SLP145 T02000133 $
2026-04-03 20:53:00,METAR KCRQ 032053Z AUTO 28008KT 10SM CLR 20/13 A2997 RMK AO2 SLP147 T02000128 58003 $
2026-04-03 19:53:00,METAR KCRQ 031953Z AUTO 29006KT 10SM CLR 20/12 A2998 RMK AO2 SLP151 T02000122 $
2026-04-03 18:53:00,METAR KCRQ 031853Z AUTO 24009KT 10SM CLR 18/11 A2999 RMK AO2 SLP153 T01830111 $
2026-04-03 17:53:00,METAR KCRQ 031753Z AUTO 25006KT 10SM CLR 18/11 A2998 RMK AO2 SLP151 T01830106 10194 20122 50001 $
2026-04-03 16:53:00,METAR KCRQ 031653Z AUTO 20004KT 10SM CLR 18/10 A2999 RMK AO2 SLP155 T01780100 $
2026-04-03 15:53:00,METAR KCRQ 031553Z AUTO 00000KT 10SM CLR 17/10 A2999 RMK AO2 SLP152 T01670100 $
2026-04-03 14:53:00,METAR KCRQ 031453Z AUTO 07004KT 10SM CLR 14/10 A2998 RMK AO2 SLP150 T01440100 53015 $
2026-04-03 13:53:00,METAR KCRQ 031353Z AUTO 07004KT 10SM CLR 13/09 A2996 RMK AO2 SLP142 T01280094 $
2026-04-03 12:53:00,METAR KCRQ 031253Z AUTO 10003KT 10SM CLR 12/09 A2994 RMK AO2 SLP137 T01220094 $
2026-04-03 11:53:00,METAR KCRQ 031153Z AUTO 07003KT 10SM CLR 13/10 A2994 RMK AO2 SLP135 T01280100 10161 20128 56008
2026-04-03 08:53:00,METAR KCRQ 030853Z AUTO 08003KT 10SM CLR 14/10 A2996 RMK AO2 SLP143 T01440100 58001
2026-04-03 05:53:00,METAR KCRQ 030553Z AUTO 09004KT 10SM OVC028 16/11 A2996 RMK AO2 SLP144 T01610106 10172 20161 50008
2026-04-03 04:53:00,METAR KCRQ 030453Z AUTO 15003KT 10SM OVC026 17/11 A2997 RMK AO2 SLP146 T01670111
2026-04-03 03:53:00,METAR KCRQ 030353Z AUTO 23003KT 10SM BKN026 17/11 A2995 RMK AO2 SLP141 T01670111
2026-04-03 03:36:00,SPECI KCRQ 030336Z AUTO 25003KT 10SM SCT023 17/11 A2995 RMK AO2 T01670111
2026-04-03 02:53:00,METAR KCRQ 030253Z AUTO 00000KT 10SM OVC022 17/12 A2994 RMK AO2 SLP135 T01670117 53003
2026-04-03 01:53:00,METAR KCRQ 030153Z AUTO 26005KT 10SM OVC021 17/12 A2993 RMK AO2 SLP133 T01670117
2026-04-03 01:21:00,SPECI KCRQ 030121Z AUTO 23007KT 10SM BKN021 17/12 A2994 RMK AO2 T01720117
2026-04-03 00:53:00,METAR KCRQ 030053Z AUTO 26008KT 10SM SCT022 17/11 A2993 RMK AO2 SLP134 T01720111
2026-04-02 23:53:00,METAR KCRQ 022353Z AUTO 25009KT 10SM BKN023 18/11 A2993 RMK AO2 SLP133 T01780111 10183 20167 56013
2026-04-02 22:53:00,METAR KCRQ 022253Z AUTO 23008KT 10SM BKN023 OVC028 18/12 A2994 RMK AO2 SLP135 T01780117
2026-04-02 22:30:00,SPECI KCRQ 022230Z AUTO 26008G16KT 10SM BKN024 18/11 A2995 RMK AO2 T01780111
2026-04-02 21:53:00,METAR KCRQ 022153Z AUTO 27003KT 10SM SCT024 18/11 A2995 RMK AO2 SLP140 T01780111
2026-04-02 21:32:00,SPECI KCRQ 022132Z AUTO 23007G16KT 10SM BKN023 18/11 A2995 RMK AO2 T01780111
2026-04-02 20:53:00,METAR KCRQ 022053Z AUTO 24009KT 10SM SCT023 18/11 A2997 RMK AO2 SLP146 T01780111 58015
2026-04-02 19:53:00,METAR KCRQ 021953Z AUTO 25007G15KT 10SM FEW023 17/11 A2998 RMK AO2 SLP151 T01720111
2026-04-02 18:53:00,METAR KCRQ 021853Z AUTO 27006KT 10SM CLR 17/12 A3000 RMK AO2 SLP158 T01670122
2026-04-02 18:35:00,SPECI KCRQ 021835Z AUTO 28007KT 10SM SCT021 17/12 A3001 RMK AO2 T01720122
2026-04-02 18:19:00,SPECI KCRQ 021819Z AUTO VRB05KT 10SM BKN020 17/12 A3001 RMK AO2 T01720122
2026-04-02 17:53:00,METAR KCRQ 021753Z AUTO 27004KT 10SM FEW020 17/12 A3001 RMK AO2 SLP160 T01720117 10178 20144 53009
2026-04-02 17:22:00,SPECI KCRQ 021722Z AUTO VRB05KT 10SM SCT018 SCT025 BKN041 17/12 A3001 RMK AO2 T01720122
2026-04-02 16:53:00,METAR KCRQ 021653Z AUTO VRB04KT 10SM BKN019 OVC043 17/12 A3001 RMK AO2 SLP159 T01720122
2026-04-02 16:25:00,SPECI KCRQ 021625Z AUTO 00000KT 10SM SCT015 BKN023 17/12 A2999 RMK AO2 T01670122
2026-04-02 15:53:00,METAR KCRQ 021553Z AUTO 00000KT 10SM FEW018 OVC041 16/12 A2999 RMK AO2 SLP152 T01610122
2026-04-02 15:50:00,SPECI KCRQ 021550Z AUTO 15003KT 10SM SCT018 OVC039 16/12 A2998 RMK AO2
2026-04-02 15:13:00,SPECI KCRQ 021513Z AUTO 00000KT 10SM BKN015 OVC046 16/12 A2999 RMK AO2 T01560117
2026-04-02 14:53:00,METAR KCRQ 021453Z AUTO 11003KT 10SM BKN047 16/11 A2998 RMK AO2 SLP149 T01560111 53007
2026-04-02 14:38:00,SPECI KCRQ 021438Z AUTO 11003KT 10SM SCT014 OVC045 15/11 A2998 RMK AO2 T01500111
2026-04-02 14:31:00,SPECI KCRQ 021431Z AUTO 00000KT 10SM BKN014 BKN038 OVC046 15/11 A2998 RMK AO2 T01500111
2026-04-02 14:17:00,SPECI KCRQ 021417Z AUTO 13003KT 10SM BKN015 OVC040 15/11 A2997 RMK AO2 T01500111
2026-04-02 14:05:00,SPECI KCRQ 021405Z AUTO 00000KT 10SM BKN014 BKN021 BKN042 15/11 A2997 RMK AO2 T01500111
2026-04-02 13:53:00,METAR KCRQ 021353Z AUTO 00000KT 10SM SCT016 BKN025 OVC042 15/11 A2996 RMK AO2 SLP144 T01500111
2026-04-02 13:21:00,SPECI KCRQ 021321Z AUTO 11003KT 10SM BKN018 OVC043 14/11 A2995 RMK AO2 T01440111
2026-04-02 12:53:00,METAR KCRQ 021253Z AUTO 00000KT 10SM FEW022 OVC045 14/11 A2996 RMK AO2 SLP142 T01440111
2026-04-02 12:29:00,SPECI KCRQ 021229Z AUTO 08003KT 10SM FEW016 SCT023 BKN045 14/11 A2995 RMK AO2 T01440111
2026-04-02 11:53:00,METAR KCRQ 021153Z AUTO 06003KT 10SM BKN018 BKN024 OVC040 14/11 A2995 RMK AO2 SLP142 T01440111 10156 20139 56013
2026-04-02 10:53:00,METAR KCRQ 021053Z AUTO 09003KT 10SM OVC017 14/11 A2996 RMK AO2 SLP144 T01440111
2026-04-02 10:33:00,SPECI KCRQ 021033Z AUTO 07003KT 10SM BKN019 14/11 A2996 RMK AO2 T01440111
2026-04-02 09:53:00,METAR KCRQ 020953Z AUTO 00000KT 10SM CLR 14/11 A2997 RMK AO2 SLP148 T01440111
2026-04-02 08:53:00,METAR KCRQ 020853Z AUTO 00000KT 10SM FEW014 15/12 A2999 RMK AO2 SLP155 T01500117 58003
2026-04-02 07:53:00,METAR KCRQ 020753Z AUTO 00000KT 10SM FEW018 FEW024 BKN035 16/12 A3001 RMK AO2 SLP159 T01560122 402060156
2026-04-02 07:51:00,SPECI KCRQ 020751Z AUTO 00000KT 10SM FEW018 SCT024 BKN035 16/12 A3001 RMK AO2
2026-04-02 07:29:00,SPECI KCRQ 020729Z AUTO 00000KT 10SM BKN018 BKN023 16/12 A3001 RMK AO2 T01560117
2026-04-02 06:53:00,METAR KCRQ 020653Z AUTO 00000KT 10SM FEW034 16/12 A3000 RMK AO2 SLP158 T01560117
2026-04-02 05:53:00,METAR KCRQ 020553Z AUTO 00000KT 10SM CLR 16/12 A3001 RMK AO2 SLP159 T01560117 10194 20156 51004
2026-04-02 05:01:00,SPECI KCRQ 020501Z AUTO 33004KT 10SM SCT026 SCT030 16/12 A3001 RMK AO2 T01610117
2026-04-02 04:53:00,METAR KCRQ 020453Z AUTO 33004KT 10SM SCT024 BKN029 17/12 A3001 RMK AO2 SLP159 T01670122
2026-04-02 03:53:00,METAR KCRQ 020353Z AUTO 00000KT 10SM CLR 17/12 A2999 RMK AO2 SLP155 T01670122
2026-04-02 03:04:00,SPECI KCRQ 020304Z AUTO 00000KT 10SM SCT022 17/12 A2998 RMK AO2 T01720117
2026-04-02 02:53:00,METAR KCRQ 020253Z AUTO 00000KT 10SM BKN020 17/12 A2998 RMK AO2 SLP151 T01720122 53010
2026-04-02 02:18:00,SPECI KCRQ 020218Z AUTO 26005KT 10SM BKN018 17/13 A2997 RMK AO2 T01720128
2026-04-02 01:53:00,METAR KCRQ 020153Z AUTO 26007KT 10SM SCT018 18/13 A2997 RMK AO2 SLP146 T01780128
2026-04-02 01:33:00,SPECI KCRQ 020133Z AUTO 29006KT 10SM SCT018 18/13 A2996 RMK AO2 T01780133
2026-04-02 01:16:00,SPECI KCRQ 020116Z AUTO 29007KT 10SM BKN020 BKN024 18/13 A2996 RMK AO2 T01830128
2026-04-02 00:53:00,METAR KCRQ 020053Z AUTO 27008G16KT 10SM SCT020 18/13 A2996 RMK AO2 SLP144 T01830128
2026-04-01 23:53:00,METAR KCRQ 012353Z AUTO 28005KT 10SM CLR 19/11 A2995 RMK AO2 SLP140 T01940106 10206 20194 58011
2026-04-01 22:53:00,METAR KCRQ 012253Z AUTO 25008KT 10SM CLR 19/11 A2997 RMK AO2 SLP144 T01940106
2026-04-01 21:53:00,METAR KCRQ 012153Z AUTO 26010KT 10SM CLR 19/12 A2998 RMK AO2 SLP149 T01940117
2026-04-01 20:53:00,METAR KCRQ 012053Z AUTO 27007G15KT 230V340 10SM CLR 20/13 A2998 RMK AO2 SLP151 T02000128 58006
2026-04-01 19:53:00,METAR KCRQ 011953Z AUTO 26010KT 10SM CLR 20/13 A3000 RMK AO2 SLP155 T02000128
2026-04-01 18:53:00,METAR KCRQ 011853Z AUTO 28007KT 250V320 10SM FEW023 20/13 A3000 RMK AO2 SLP155 T02000128
2026-04-01 17:53:00,METAR KCRQ 011753Z AUTO 25010KT 10SM FEW022 FEW027 19/13 A3000 RMK AO2 SLP157 T01940133 10194 20167 51016
2026-04-01 16:53:00,METAR KCRQ 011653Z AUTO 27006KT 10SM FEW019 SCT031 BKN065 19/14 A2999 RMK AO2 SLP153 T01890139
2026-04-01 16:30:00,SPECI KCRQ 011630Z AUTO 00000KT 10SM SCT014 SCT018 BKN045 18/14 A2999 RMK AO2 T01830139
2026-04-01 16:22:00,SPECI KCRQ 011622Z AUTO 27005KT 10SM BKN014 OVC045 18/14 A2998 RMK AO2 T01780144
2026-04-01 15:53:00,METAR KCRQ 011553Z AUTO 33004KT 10SM FEW016 BKN037 OVC065 18/14 A2998 RMK AO2 SLP148 T01780144
2026-04-01 15:39:00,SPECI KCRQ 011539Z AUTO 10SM BKN030 BKN037 BKN060 17/15 A2997 RMK AO2 T01720150
2026-04-01 14:53:00,METAR KCRQ 011453Z AUTO 00000KT 10SM BKN015 BKN019 OVC028 17/15 A2996 RMK AO2 SLP142 T01670150 51016
2026-04-01 13:53:00,METAR KCRQ 011353Z AUTO 00000KT 10SM FEW015 SCT021 BKN070 17/15 A2995 RMK AO2 SLP140 T01670150
2026-04-01 13:01:00,SPECI KCRQ 011301Z AUTO 00000KT 10SM FEW006 SCT012 BKN020 17/16 A2993 RMK AO2 T01720161
2026-04-01 12:53:00,METAR KCRQ 011253Z AUTO 00000KT 10SM SCT005 SCT018 BKN075 17/16 A2993 RMK AO2 SLP132 T01720161
2026-04-01 12:21:00,SPECI KCRQ 011221Z AUTO 19003KT 10SM SCT005 BKN038 OVC045 17/16 A2991 RMK AO2 T01720161
2026-04-01 11:59:00,SPECI KCRQ 011159Z AUTO 00000KT 10SM BKN007 BKN026 BKN100 17/16 A2991 RMK AO2 CIG 004V010 T01720161
2026-04-01 11:53:00,METAR KCRQ 011153Z AUTO 00000KT 10SM FEW007 SCT026 BKN049 17/16 A2991 RMK AO2 SLP126 60000 T01720161 10178 20172 56007
2026-04-01 10:53:00,METAR KCRQ 011053Z AUTO 24003KT 10SM SCT055 OVC100 17/16 A2991 RMK AO2 SLP127 T01720161
2026-04-01 10:12:00,SPECI KCRQ 011012Z AUTO 26003KT 10SM FEW006 SCT050 OVC110 17/16 A2992 RMK AO2 T01720161
2026-04-01 09:53:00,METAR KCRQ 010953Z AUTO 28004KT 10SM SCT006 BKN015 OVC100 17/16 A2992 RMK AO2 RAE0857B10E33 SLP130 P0000 T01720161
2026-04-01 09:40:00,SPECI KCRQ 010940Z AUTO VRB03KT 10SM SCT006 BKN011 OVC018 17/16 A2992 RMK AO2 RAE0857B10E33 P0000 T01720161
2026-04-01 09:28:00,SPECI KCRQ 010928Z AUTO 24003KT 10SM -RA BKN011 OVC021 17/16 A2992 RMK AO2 RAE0857B10 P0000 T01720156
2026-04-01 09:03:00,SPECI KCRQ 010903Z AUTO 00000KT 10SM BKN023 BKN037 BKN110 17/16 A2992 RMK AO2 RAE0857 P0000 T01720156
2026-04-01 08:53:00,METAR KCRQ 010853Z AUTO 00000KT 10SM -RA SCT023 BKN036 OVC100 17/16 A2993 RMK AO2 RAB00E10B26 SLP132 P0000 60000 T01720156 50000
2026-04-01 07:53:00,METAR KCRQ 010753Z AUTO 23003KT 10SM SCT100 18/15 A2993 RMK AO2 RAE14 SLP133 P0000 T01780150 402060172
2026-04-01 06:53:00,METAR KCRQ 010653Z AUTO 13004KT 10SM -RA OVC100 18/16 A2993 RMK AO2 RAB23 SLP133 P0000 T01780156
2026-04-01 05:53:00,METAR KCRQ 010553Z AUTO 00000KT 10SM BKN100 18/15 A2993 RMK AO2 SLP132 T01780150 10189 20178 50002
2026-04-01 04:53:00,METAR KCRQ 010453Z 00000KT 10SM SCT110 18/15 A2994 RMK AO2 SLP137 T01780150
2026-04-01 03:53:00,METAR KCRQ 010353Z 00000KT 10SM FEW031 SCT041 18/15 A2995 RMK AO2 SLP139 T01830150
2026-04-01 02:53:00,METAR KCRQ 010253Z 00000KT 10SM FEW013 18/16 A2992 RMK AO2 SLP130 T01830156 58006
2026-04-01 01:53:00,METAR KCRQ 010153Z 26005KT 10SM FEW007 SCT012 BKN048 18/17 A2994 RMK AO2 SLP135 T01830167
2026-04-01 01:49:00,SPECI KCRQ 010149Z 25007KT 10SM FEW007 BKN048 18/16 A2995 RMK AO2
2026-04-01 01:30:00,SPECI KCRQ 010130Z 22006KT 10SM SCT026 BKN050 19/16 A2994 RMK AO2 T01890156
2026-04-01 01:06:00,SPECI KCRQ 010106Z 22007KT 10SM FEW014 OVC026 19/16 A2995 RMK AO2 T01890156
2026-04-01 00:53:00,METAR KCRQ 010053Z 21006KT 10SM BKN014 OVC026 19/16 A2994 RMK AO2 SLP137 T01890156
2026-04-01 00:45:00,SPECI KCRQ 010045Z 21006KT 10SM BKN014 BKN018 OVC026 19/16 A2994 RMK AO2 T01890156
2026-03-31 23:53:00,METAR KCRQ 312353Z 23004KT 10SM FEW012 BKN028 OVC039 19/16 A2994 RMK AO2 SLP135 T01890161 10206 20189 56002
2026-03-31 23:33:00,SPECI KCRQ 312333Z 22006KT 10SM SCT011 BKN024 OVC039 19/16 A2994 RMK AO2 T01890156
2026-03-31 23:20:00,SPECI KCRQ 312320Z 22008KT 10SM BKN011 BKN022 OVC029 19/16 A2994 RMK AO2 T01890156
2026-03-31 23:01:00,SPECI KCRQ 312301Z 23007KT 10SM BKN009 OVC026 19/17 A2994 RMK AO2 CIG 008V013 T01890167
2026-03-31 22:53:00,METAR KCRQ 312253Z 23010KT 10SM FEW011 OVC026 19/16 A2994 RMK AO2 SLP136 T01890161
2026-03-31 21:53:00,METAR KCRQ 312153Z 20010KT 10SM SCT012 OVC026 19/15 A2993 RMK AO2 SLP134 T01940150
2026-03-31 21:38:00,SPECI KCRQ 312138Z AUTO 23010KT 10SM BKN026 19/14 A2995 RMK AO2 T01940144
2026-03-31 20:53:00,METAR KCRQ 312053Z AUTO 19009G16KT 10SM FEW024 SCT033 21/15 A2995 RMK AO2 SLP138 T02060150 58017
2026-03-31 20:40:00,SPECI KCRQ 312040Z AUTO 20008KT 10SM FEW021 FEW027 BKN033 20/15 A2996 RMK AO2 T02000150
2026-03-31 19:53:00,METAR KCRQ 311953Z AUTO 21004KT 10SM BKN017 OVC023 20/15 A2998 RMK AO2 SLP148 T02000150
2026-03-31 19:20:00,SPECI KCRQ 311920Z AUTO 21004KT 10SM SCT018 OVC027 19/16 A2998 RMK AO2 T01940156
2026-03-31 18:53:00,METAR KCRQ 311853Z AUTO VRB05KT 10SM BKN012 BKN018 OVC030 19/16 A2999 RMK AO2 SLP154 T01940156
2026-03-31 18:36:00,SPECI KCRQ 311836Z AUTO 22009KT 10SM BKN012 OVC019 19/16 A3001 RMK AO2 T01890161
2026-03-31 17:53:00,METAR KCRQ 311753Z AUTO 22006KT 10SM FEW015 OVC029 19/16 A3000 RMK AO2 SLP155 T01940156 10200 20178 51020
2026-03-31 16:53:00,METAR KCRQ 311653Z AUTO 24009KT 10SM FEW015 OVC022 19/16 A3000 RMK AO2 SLP155 T01940156
2026-03-31 15:53:00,METAR KCRQ 311553Z AUTO 08003KT 10SM BKN022 19/15 A2996 RMK AO2 SLP142 T01940150
2026-03-31 15:07:00,SPECI KCRQ 311507Z AUTO 15004KT 10SM OVC020 19/15 A2996 RMK AO2 T01890150
2026-03-31 14:53:00,METAR KCRQ 311453Z AUTO 10006KT 10SM BKN014 OVC020 18/16 A2994 RMK AO2 PRESFR SLP135 T01830156 58001
2026-03-31 14:51:00,SPECI KCRQ 311451Z AUTO 10006KT 10SM BKN014 OVC020 18/16 A2994 RMK AO2
2026-03-31 13:53:00,METAR KCRQ 311353Z AUTO 00000KT 10SM BKN017 OVC025 18/16 A2997 RMK AO2 SLP144 T01780156
2026-03-31 12:53:00,METAR KCRQ 311253Z AUTO 13003KT 10SM BKN018 OVC024 18/16 A2994 RMK AO2 SLP136 T01830156
2026-03-31 12:45:00,SPECI KCRQ 311245Z AUTO 00000KT 10SM BKN018 OVC024 18/16 A2994 RMK AO2 T01830156
2026-03-31 12:04:00,SPECI KCRQ 311204Z AUTO 00000KT 9SM BKN010 OVC018 18/16 A2993 RMK AO2 T01780156
2026-03-31 11:53:00,METAR KCRQ 311153Z AUTO 00000KT 10SM SCT012 OVC020 18/16 A2994 RMK AO2 SLP136 T01780156 10183 20178 56005
2026-03-31 11:48:00,SPECI KCRQ 311148Z AUTO 00000KT 10SM SCT012 OVC020 18/16 A2994 RMK AO2
2026-03-31 11:05:00,SPECI KCRQ 311105Z AUTO 16003KT 10SM OVC013 18/16 A2994 RMK AO2 T01830156
2026-03-31 10:53:00,METAR KCRQ 311053Z AUTO 16003KT 10SM OVC015 18/16 A2994 RMK AO2 SLP136 T01830156
2026-03-31 10:36:00,SPECI KCRQ 311036Z AUTO 12004KT 10SM OVC016 18/16 A2995 RMK AO2 T01830156
2026-03-31 09:53:00,METAR KCRQ 310953Z AUTO 00000KT 10SM OVC012 18/16 A2996 RMK AO2 SLP142 T01830156
2026-03-31 08:53:00,METAR KCRQ 310853Z AUTO 22006KT 10SM OVC013 18/15 A2996 RMK AO2 SLP144 T01830150 55006
2026-03-31 07:53:00,METAR KCRQ 310753Z AUTO 13005KT 10SM OVC014 18/15 A2993 RMK AO2 SLP133 T01830150 402110128
2026-03-31 07:15:00,SPECI KCRQ 310715Z AUTO 06004KT 10SM OVC014 18/15 A2994 RMK AO2 T01830150
2026-03-31 06:53:00,METAR KCRQ 310653Z AUTO 08003KT 10SM OVC015 18/15 A2996 RMK AO2 SLP141 T01830150
2026-03-31 05:53:00,METAR KCRQ 310553Z AUTO 00000KT 10SM OVC015 18/15 A2998 RMK AO2 SLP150 T01830150 10194 20178 51005
2026-03-31 04:53:00,METAR KCRQ 310453Z AUTO 00000KT 10SM OVC015 18/15 A2997 RMK AO2 SLP148 T01780150
2026-03-31 04:14:00,SPECI KCRQ 310414Z AUTO 23004KT 10SM BKN017 18/15 A2999 RMK AO2 T01830150
2026-03-31 03:53:00,METAR KCRQ 310353Z AUTO 00000KT 10SM SCT017 18/15 A2998 RMK AO2 SLP151 T01830150
2026-03-31 03:03:00,SPECI KCRQ 310303Z AUTO 00000KT 10SM SCT015 18/15 A2997 RMK AO2 T01830150
2026-03-31 02:53:00,METAR KCRQ 310253Z AUTO 18004KT 10SM BKN015 18/15 A2997 RMK AO2 SLP146 T01830150 58002
2026-03-31 01:53:00,METAR KCRQ 310153Z AUTO 18006KT 10SM OVC016 19/14 A2997 RMK AO2 SLP148 T01890144
2026-03-31 00:53:00,METAR KCRQ 310053Z 21006KT 10SM OVC015 19/15 A2997 RMK AO2 SLP147 T01890150
2026-03-31 00:00:00,SPECI KCRQ 310000Z 23007KT 10SM BKN017 19/16 A2997 RMK AO2 T01940156
2026-03-30 23:53:00,METAR KCRQ 302353Z 20007KT 10SM SCT017 19/15 A2997 RMK AO2 SLP148 T01940150 10211 20194 56012
2026-03-30 23:11:00,SPECI KCRQ 302311Z 22007KT 10SM SCT017 20/15 A2998 RMK AO2 T02000150
2026-03-30 22:53:00,METAR KCRQ 302253Z 24009KT 10SM BKN016 20/15 A2998 RMK AO2 SLP149 T02000150
2026-03-30 22:18:00,SPECI KCRQ 302218Z 23010KT 10SM BKN016 20/15 A2998 RMK AO2 T02000150
2026-03-30 21:53:00,METAR KCRQ 302153Z 23009KT 10SM SCT016 20/15 A2999 RMK AO2 SLP154 T02000150
2026-03-30 21:13:00,SPECI KCRQ 302113Z 22008KT 10SM SCT017 21/16 A3000 RMK AO2 T02060156
2026-03-30 20:53:00,METAR KCRQ 302053Z 22010KT 10SM OVC016 20/15 A3001 RMK AO2 SLP160 T02000150 58006
2026-03-30 20:17:00,SPECI KCRQ 302017Z 22009KT 10SM BKN016 20/14 A3002 RMK AO2 T02000144
2026-03-30 19:53:00,METAR KCRQ 301953Z 24008KT 10SM SCT017 20/15 A3003 RMK AO2 SLP167 T02000150
2026-03-30 19:24:00,SPECI KCRQ 301924Z 21007KT 10SM SCT016 20/14 A3003 RMK AO2 T02000144
2026-03-30 19:16:00,SPECI KCRQ 301916Z 20009KT 10SM BKN016 20/14 A3004 RMK AO2 T02000144
2026-03-30 18:53:00,METAR KCRQ 301853Z 24008KT 10SM SCT016 20/15 A3004 RMK AO2 SLP170 T02000150
2026-03-30 17:53:00,METAR KCRQ 301753Z 28004KT 10SM SCT015 19/14 A3003 RMK AO2 SLP166 T01940144 10194 20128 53010
2026-03-30 17:43:00,SPECI KCRQ 301743Z 24004KT 10SM SCT014 19/14 A3003 RMK AO2 T01890144
2026-03-30 17:12:00,SPECI KCRQ 301712Z 17003KT 8SM BKN011 18/14 A3003 RMK AO2 T01780144
2026-03-30 16:53:00,METAR KCRQ 301653Z 20004KT 7SM BKN008 17/14 A3002 RMK AO2 CIG 007V012 SLP165 T01720144
2026-03-30 16:02:00,SPECI KCRQ 301602Z AUTO 14006KT 5SM BR OVC006 16/14 A3000 RMK AO2 CIG 002V009 T01610144
2026-03-30 15:53:00,METAR KCRQ 301553Z AUTO 13006KT 3SM BR OVC004 16/15 A2999 RMK AO2 CIG 002V009 SLP155 T01610150
2026-03-30 15:49:00,SPECI KCRQ 301549Z AUTO 13007KT 2 1/2SM BR BKN004 OVC007 16/15 A3000 RMK AO2 CIG 002V006
2026-03-30 14:53:00,METAR KCRQ 301453Z AUTO VRB04KT 1 1/4SM R24/5000VP6000FT BR OVC002 15/14 A2998 RMK AO2 SLP151 T01500144 53018
2026-03-30 14:44:00,SPECI KCRQ 301444Z AUTO 13003KT 1 1/2SM R24/6000VP6000FT BR OVC002 14/14 A2998 RMK AO2 T01440144
2026-03-30 14:37:00,SPECI KCRQ 301437Z AUTO 13003KT 2SM BR OVC002 14/14 A2998 RMK AO2 T01440144
2026-03-30 14:18:00,SPECI KCRQ 301418Z AUTO 12004KT 4SM BR OVC002 14/14 A2997 RMK AO2 T01440139
2026-03-30 14:10:00,SPECI KCRQ 301410Z AUTO 13005KT 2SM R24/3500VP6000FT BR OVC002 14/14 A2997 RMK AO2 T01390139
2026-03-30 14:04:00,SPECI KCRQ 301404Z AUTO 13004KT 1/2SM R24/1600VP6000FT FG VV002 14/14 A2997 RMK AO2 T01390139
2026-03-30 13:53:00,METAR KCRQ 301353Z AUTO 13004KT 1/4SM R24/1400V2200FT FG VV001 13/13 A2996 RMK AO2 SLP144 T01330133
2026-03-30 12:53:00,METAR KCRQ 301253Z AUTO 15004KT 1/4SM R24/0800V1200FT FG VV001 13/13 A2995 RMK AO2 SLP139 T01280128
2026-03-30 11:53:00,METAR KCRQ 301153Z AUTO 00000KT 1/4SM R24/1200V1400FT FG VV001 13/13 A2993 RMK AO2 SLP132 T01330133 10167 20133 55005
2026-03-30 11:05:00,SPECI KCRQ 301105Z AUTO 00000KT 1/4SM R24/1000V2000FT FG VV001 14/14 A2992 RMK AO2 T01390139
2026-03-30 10:53:00,METAR KCRQ 301053Z AUTO 00000KT 1/2SM R24/2000VP6000FT FG VV001 13/13 A2992 RMK AO2 SLP129 T01330133
2026-03-30 10:41:00,SPECI KCRQ 301041Z AUTO 00000KT 1/2SM R24/2000V4000FT FG VV001 14/13 A2992 RMK AO2 T01390133
2026-03-30 10:32:00,SPECI KCRQ 301032Z AUTO 03003KT 1/4SM R24/1400V5500FT FG VV001 14/14 A2992 RMK AO2 T01390139
2026-03-30 10:16:00,SPECI KCRQ 301016Z AUTO 00000KT 1/2SM R24/1400V3500FT FG VV001 14/14 A2992 RMK AO2 T01390139
2026-03-30 09:53:00,METAR KCRQ 300953Z AUTO 00000KT 1/4SM R24/1200V2400FT FG VV001 14/14 A2992 RMK AO2 SLP130 T01440139
2026-03-30 09:34:00,SPECI KCRQ 300934Z AUTO 00000KT 1/4SM R24/1400V2600FT FG VV001 14/14 A2993 RMK AO2 T01440144
2026-03-30 08:53:00,METAR KCRQ 300853Z AUTO 00000KT 3/4SM R24/2400VP6000FT BR VV002 15/14 A2994 RMK AO2 SLP136 T01500144 52000
2026-03-30 08:12:00,SPECI KCRQ 300812Z AUTO 18003KT 1/2SM R24/1600V5500FT FG VV002 16/15 A2994 RMK AO2 T01560150
2026-03-30 08:03:00,SPECI KCRQ 300803Z AUTO 20003KT 1SM R24/2200VP6000FT BR VV002 16/15 A2994 RMK AO2 T01560150
2026-03-30 07:53:00,METAR KCRQ 300753Z AUTO 20005KT 1/2SM R24/1800VP6000FT FG VV001 16/15 A2994 RMK AO2 SLP136 T01560150 402330139
2026-03-30 07:32:00,SPECI KCRQ 300732Z AUTO 15004KT 1/4SM R24/1000V1800FT FG VV001 16/15 A2993 RMK AO2 T01560150
2026-03-30 07:17:00,SPECI KCRQ 300717Z AUTO 00000KT 1/2SM R24/1400VP6000FT FG VV001 15/15 A2993 RMK AO2 T01500150
2026-03-30 06:53:00,METAR KCRQ 300653Z AUTO 00000KT 1/4SM R24/1400V2600FT FG VV003 15/15 A2994 RMK AO2 SLP137 T01500150
2026-03-30 06:46:00,SPECI KCRQ 300646Z AUTO 00000KT 1/4SM R24/1400VP6000FT FG VV003 15/15 A2995 RMK AO2 T01500150
2026-03-30 06:36:00,SPECI KCRQ 300636Z AUTO 00000KT 1 1/2SM BR BKN004 16/15 A2995 RMK AO2 T01560150
2026-03-30 05:53:00,METAR KCRQ 300553Z AUTO 00000KT 4SM BR FEW004 16/16 A2995 RMK AO2 SLP139 T01610156 10211 20161 50014
2026-03-30 05:40:00,SPECI KCRQ 300540Z AUTO 00000KT 5SM BR FEW004 17/16 A2995 RMK AO2 T01670156
2026-03-30 04:53:00,METAR KCRQ 300453Z AUTO 00000KT 4SM BR OVC004 17/16 A2995 RMK AO2 SLP140 T01670156
2026-03-30 04:42:00,SPECI KCRQ 300442Z AUTO 27004KT 6SM BR BKN005 17/16 A2995 RMK AO2 T01720156
2026-03-30 04:34:00,SPECI KCRQ 300434Z AUTO 26004KT 6SM BR SCT005 17/16 A2995 RMK AO2 T01720156
2026-03-30 03:53:00,METAR KCRQ 300353Z AUTO 32003KT 5SM BR CLR 17/16 A2993 RMK AO2 SLP132 T01720156
2026-03-30 02:53:00,METAR KCRQ 300253Z 00000KT 6SM BR CLR 18/16 A2990 RMK AO2 SLP124 T01780161 53001
2026-03-30 01:53:00,METAR KCRQ 300153Z VRB03KT 10SM CLR 19/16 A2989 RMK AO2 SLP121 T01890161
2026-03-30 00:53:00,METAR KCRQ 300053Z 27003KT 10SM CLR 21/16 A2989 RMK AO2 SLP119 T02060156
2026-03-29 23:53:00,METAR KCRQ 292353Z 25007KT 10SM CLR 21/16 A2990 RMK AO2 SLP123 T02110156 10233 20189 58015
2026-03-29 22:53:00,METAR KCRQ 292253Z 25007KT 10SM CLR 23/14 A2991 RMK AO2 SLP126 T02330139
2026-03-29 21:53:00,METAR KCRQ 292153Z 20006KT 10SM CLR 23/13 A2994 RMK AO2 SLP134 T02330128
2026-03-29 20:53:00,METAR KCRQ 292053Z 25005KT 10SM CLR 23/13 A2994 RMK AO2 SLP137 T02280128 58003
2026-03-29 19:53:00,METAR KCRQ 291953Z 25006KT 10SM CLR 21/13 A2996 RMK AO2 SLP142 T02110133
2026-03-29 18:53:00,METAR KCRQ 291853Z 25007KT 10SM CLR 21/14 A2996 RMK AO2 SLP142 T02060144
2026-03-29 17:53:00,METAR KCRQ 291753Z AUTO 25005KT 10SM CLR 19/14 A2995 RMK AO2 SLP141 T01890144 10211 20139 51023
2026-03-29 16:53:00,METAR KCRQ 291653Z AUTO 24006KT 10SM CLR 20/09 A2993 RMK AO2 SLP133 T02000089
2026-03-29 14:53:00,METAR KCRQ 291453Z AUTO 00000KT 10SM CLR 16/07 A2988 RMK AO2 SLP118 T01610072 53009
2026-03-29 13:53:00,METAR KCRQ 291353Z AUTO 00000KT 10SM CLR 14/09 A2987 RMK AO2 SLP113 T01390094
2026-03-29 12:53:00,METAR KCRQ 291253Z AUTO 00000KT 10SM CLR 14/09 A2986 RMK AO2 SLP110 T01390094
2026-03-29 11:53:00,METAR KCRQ 291153Z AUTO 00000KT 10SM CLR 15/10 A2986 RMK AO2 SLP108 T01500100 10167 20139 56018
2026-03-29 10:53:00,METAR KCRQ 291053Z AUTO 08004KT 10SM CLR 14/11 A2987 RMK AO2 SLP113 T01440111
2026-03-29 09:53:00,METAR KCRQ 290953Z AUTO 00000KT 7SM CLR 15/13 A2989 RMK AO2 SLP119 T01500133
2026-03-29 08:53:00,METAR KCRQ 290853Z AUTO 13003KT 10SM CLR 16/13 A2991 RMK AO2 SLP125 T01560133 58010
2026-03-29 07:53:00,METAR KCRQ 290753Z AUTO 10003KT 8SM CLR 16/14 A2993 RMK AO2 SLP133 T01560139 402170122
2026-03-29 06:53:00,METAR KCRQ 290653Z AUTO 00000KT 7SM CLR 16/15 A2994 RMK AO2 SLP136 T01610150
2026-03-29 05:53:00,METAR KCRQ 290553Z AUTO 00000KT 9SM CLR 17/15 A2994 RMK AO2 SLP136 T01670150 10206 20167 50000
2026-03-29 04:53:00,METAR KCRQ 290453Z AUTO 32004KT 10SM CLR 17/15 A2995 RMK AO2 SLP140 T01720150
2026-03-29 03:53:00,METAR KCRQ 290353Z AUTO 36003KT 9SM CLR 17/15 A2995 RMK AO2 SLP140 T01720150
2026-03-29 02:53:00,METAR KCRQ 290253Z AUTO 00000KT 9SM CLR 18/16 A2994 RMK AO2 SLP137 T01780156 53008
2026-03-29 01:53:00,METAR KCRQ 290153Z AUTO 27005KT 8SM CLR 18/16 A2992 RMK AO2 SLP130 T01830156
2026-03-29 00:53:00,METAR KCRQ 290053Z AUTO 28005KT 8SM CLR 19/16 A2991 RMK AO2 SLP127 T01940156
2026-03-28 23:53:00,METAR KCRQ 282353Z AUTO VRB04KT 10SM CLR 21/15 A2991 RMK AO2 SLP128 T02060150 10217 20194 56012
2026-03-28 22:53:00,METAR KCRQ 282253Z AUTO 28006KT 10SM CLR 21/15 A2993 RMK AO2 SLP132 T02110150
2026-03-28 21:53:00,METAR KCRQ 282153Z AUTO 26005KT 10SM CLR 21/14 A2993 RMK AO2 SLP132 T02110139
2026-03-28 20:53:00,METAR KCRQ 282053Z AUTO VRB06KT 10SM CLR 21/14 A2995 RMK AO2 SLP139 T02110139 58015
2026-03-28 19:53:00,METAR KCRQ 281953Z AUTO VRB04KT 10SM CLR 21/14 A2997 RMK AO2 SLP145 T02060139
2026-03-28 18:53:00,METAR KCRQ 281853Z AUTO 28006KT 10SM CLR 20/14 A2998 RMK AO2 SLP149 T02000139
2026-03-28 17:53:00,METAR KCRQ 281753Z AUTO VRB03KT 10SM CLR 20/13 A2999 RMK AO2 SLP154 T02000133 10200 20122 50000
2026-03-28 16:53:00,METAR KCRQ 281653Z AUTO 27004KT 10SM CLR 16/14 A3000 RMK AO2 SLP156 T01560139
2026-03-28 16:10:00,SPECI KCRQ 281610Z AUTO 28003KT 10SM SCT002 14/13 A3000 RMK AO2 T01390133
2026-03-28 16:00:00,SPECI KCRQ 281600Z AUTO VRB03KT 8SM BKN002 14/13 A3000 RMK AO2 T01390133
2026-03-28 15:53:00,METAR KCRQ 281553Z AUTO 32003KT 2 1/2SM R24/6000VP6000FT BR OVC002 14/13 A3000 RMK AO2 VIS 1 1/2V5 SLP156 T01390133
2026-03-28 15:44:00,SPECI KCRQ 281544Z AUTO 00000KT 3/4SM R24/1800VP6000FT BR OVC002 13/13 A3000 RMK AO2 T01330128
2026-03-28 15:24:00,SPECI KCRQ 281524Z AUTO 00000KT 1/4SM R24/1800V2800FT FG VV002 13/13 A3000 RMK AO2 T01280128
2026-03-28 15:07:00,SPECI KCRQ 281507Z AUTO 33003KT 1/4SM R24/1000V2000FT FG VV001 13/13 A3000 RMK AO2 T01280128
2026-03-28 14:53:00,METAR KCRQ 281453Z AUTO 00000KT M1/4SM R24/0800V1400FT FG VV001 13/13 A2999 RMK AO2 SLP155 T01280128 53014
2026-03-28 14:11:00,SPECI KCRQ 281411Z AUTO 33003KT 1/4SM R24/1400VP6000FT FG VV001 13/12 A2998 RMK AO2 T01280122
2026-03-28 14:03:00,SPECI KCRQ 281403Z AUTO 00000KT 3/4SM R24/2400VP6000FT BR OVC002 12/12 A2998 RMK AO2 T01220122
2026-03-28 13:59:00,SPECI KCRQ 281359Z AUTO 00000KT 1 1/4SM R24/2400VP6000FT BR OVC001 12/12 A2998 RMK AO2 T01220122
2026-03-28 13:53:00,METAR KCRQ 281353Z AUTO 00000KT 4SM BR OVC001 13/12 A2998 RMK AO2 SLP149 T01280122
2026-03-28 13:47:00,SPECI KCRQ 281347Z AUTO 00000KT 3SM R24/5000VP6000FT BR OVC001 13/12 A2997 RMK AO2
2026-03-28 13:39:00,SPECI KCRQ 281339Z AUTO 00000KT 1 1/4SM R24/3500VP6000FT BR OVC001 13/13 A2997 RMK AO2 T01280128
2026-03-28 13:31:00,SPECI KCRQ 281331Z AUTO 00000KT 3/4SM R24/2600V5500FT BR VV001 13/13 A2997 RMK AO2 T01280128
2026-03-28 12:53:00,METAR KCRQ 281253Z AUTO 00000KT 1/4SM R24/0800V1200FT FG VV001 13/13 A2995 RMK AO2 SLP141 T01330133
2026-03-28 12:20:00,SPECI KCRQ 281220Z AUTO 00000KT 1/4SM R24/1200V4000FT FG VV001 14/13 A2995 RMK AO2 T01390133
2026-03-28 12:14:00,SPECI KCRQ 281214Z AUTO 33003KT 1/2SM R24/2800V4000FT FG VV002 14/14 A2995 RMK AO2 T01390139
2026-03-28 11:53:00,METAR KCRQ 281153Z AUTO 00000KT 1/4SM R24/1600V4000FT FG VV001 14/14 A2995 RMK AO2 SLP141 T01440144 10167 20144 56004
2026-03-28 11:47:00,SPECI KCRQ 281147Z AUTO 00000KT 1/2SM R24/1800VP6000FT FG OVC001 14/14 A2995 RMK AO2
2026-03-28 11:38:00,SPECI KCRQ 281138Z AUTO 00000KT 1 3/4SM R24/3500VP6000FT BR OVC002 14/14 A2995 RMK AO2 VIS 3/4V5 T01440139
2026-03-28 11:16:00,SPECI KCRQ 281116Z AUTO 00000KT 7SM BKN004 15/14 A2996 RMK AO2 T01500139
2026-03-28 11:07:00,SPECI KCRQ 281107Z AUTO 00000KT 8SM SCT004 14/13 A2995 RMK AO2 T01440133
2026-03-28 10:53:00,METAR KCRQ 281053Z AUTO 00000KT 9SM CLR 14/13 A2995 RMK AO2 SLP142 T01440133
2026-03-28 09:53:00,METAR KCRQ 280953Z AUTO 00000KT 8SM CLR 15/14 A2996 RMK AO2 SLP144 T01500139
2026-03-28 08:53:00,METAR KCRQ 280853Z AUTO 00000KT 9SM CLR 16/14 A2996 RMK AO2 SLP144 T01560144 58007
2026-03-28 07:53:00,METAR KCRQ 280753Z AUTO 00000KT 10SM CLR 16/14 A2997 RMK AO2 SLP147 T01610144 402170128
2026-03-28 06:53:00,METAR KCRQ 280653Z AUTO 00000KT 10SM CLR 16/14 A2998 RMK AO2 SLP151 T01610144
2026-03-28 05:53:00,METAR KCRQ 280553Z AUTO 00000KT 10SM CLR 17/14 A2999 RMK AO2 SLP152 T01670144 10200 20167 51012
2026-03-28 04:53:00,METAR KCRQ 280453Z 00000KT 10SM CLR 17/14 A2998 RMK AO2 SLP151 T01670144
2026-03-28 03:53:00,METAR KCRQ 280353Z AUTO 00000KT 10SM CLR 17/14 A2997 RMK AO2 SLP145 T01720144
2026-03-28 02:53:00,METAR KCRQ 280253Z AUTO 26003KT 10SM CLR 17/14 A2995 RMK AO2 SLP140 T01720144 53010
2026-03-28 01:53:00,METAR KCRQ 280153Z AUTO 25005KT 10SM CLR 18/15 A2993 RMK AO2 SLP134 T01780150
2026-03-28 00:53:00,METAR KCRQ 280053Z AUTO 26006KT 10SM CLR 19/15 A2992 RMK AO2 SLP131 T01940150
2026-03-27 23:53:00,METAR KCRQ 272353Z 22003KT 10SM CLR 19/14 A2992 RMK AO2 SLP131 T01940144 10217 20183 57002
2026-03-27 22:53:00,METAR KCRQ 272253Z 25006KT 10SM CLR 20/14 A2992 RMK AO2 SLP131 T02000144
2026-03-27 21:53:00,METAR KCRQ 272153Z 25009KT 10SM CLR 20/15 A2993 RMK AO2 SLP133 T02000150
2026-03-27 20:53:00,METAR KCRQ 272053Z VRB06KT 10SM CLR 21/15 A2993 RMK AO2 SLP132 T02110150 58012
2026-03-27 19:53:00,METAR KCRQ 271953Z 26005KT 10SM CLR 20/14 A2995 RMK AO2 SLP138 T02000144
2026-03-27 18:53:00,METAR KCRQ 271853Z 25006KT 10SM CLR 19/14 A2996 RMK AO2 SLP142 T01890144
2026-03-27 17:53:00,METAR KCRQ 271753Z 26004KT 10SM CLR 19/14 A2997 RMK AO2 SLP145 T01890139 10189 20128 50001
2026-03-27 17:24:00,SPECI KCRQ 271724Z 00000KT 10SM SCT006 17/14 A2997 RMK AO2 T01720139
2026-03-27 17:09:00,SPECI KCRQ 271709Z 00000KT 9SM BKN006 16/14 A2997 RMK AO2 T01560139
2026-03-27 16:53:00,METAR KCRQ 271653Z 00000KT 7SM OVC004 15/14 A2997 RMK AO2 SLP147 T01500139
2026-03-27 16:13:00,SPECI KCRQ 271613Z 00000KT 5SM BR OVC002 14/14 A2997 RMK AO2 T01440139
2026-03-25 14:17:00,SPECI KCRQ 251417Z AUTO 00000KT 2 1/2SM BR OVC002 14/14 A2998 RMK AO2 T01440139
2026-03-25 10:53:00,METAR KCRQ 251053Z AUTO 00000KT 8SM OVC006 16/14 A2997 RMK AO2 SLP147 T01610144
2026-03-25 09:53:00,METAR KCRQ 250953Z AUTO 00000KT 8SM OVC006 16/14 A2999 RMK AO2 SLP153 T01610144
2026-03-25 08:53:00,METAR KCRQ 250853Z AUTO 00000KT 10SM OVC008 16/14 A3000 RMK AO2 SLP157 T01610144 58001
2026-03-25 07:53:00,METAR KCRQ 250753Z AUTO 00000KT 10SM OVC008 17/14 A3001 RMK AO2 SLP159 T01670144 402060161
2026-03-25 06:53:00,METAR KCRQ 250653Z AUTO 00000KT 10SM OVC009 17/14 A3001 RMK AO2 SLP160 T01670144
2026-03-25 05:53:00,METAR KCRQ 250553Z AUTO 00000KT 10SM OVC009 17/14 A3001 RMK AO2 SLP160 T01670144 10194 20167 51008
2026-03-25 04:53:00,METAR KCRQ 250453Z AUTO 00000KT 10SM OVC009 17/14 A3001 RMK AO2 SLP159 T01670144
2026-03-25 04:11:00,SPECI KCRQ 250411Z AUTO 00000KT 10SM BKN009 17/14 A2999 RMK AO2 T01670144
2026-03-25 04:02:00,SPECI KCRQ 250402Z AUTO 00000KT 10SM SCT009 17/14 A2999 RMK AO2 T01670144
2026-03-25 03:53:00,METAR KCRQ 250353Z AUTO 00000KT 10SM CLR 17/14 A2999 RMK AO2 SLP154 T01670144
2026-03-25 02:53:00,METAR KCRQ 250253Z AUTO 27003KT 10SM CLR 17/14 A2998 RMK AO2 SLP151 T01720144 53006
2026-03-25 01:53:00,METAR KCRQ 250153Z AUTO 25003KT 10SM CLR 18/14 A2997 RMK AO2 SLP148 T01780144
2026-03-25 00:53:00,METAR KCRQ 250053Z AUTO 24005KT 10SM CLR 18/14 A2997 RMK AO2 SLP146 T01830144
2026-03-24 23:53:00,METAR KCRQ 242353Z 26008KT 10SM CLR 19/15 A2996 RMK AO2 SLP145 T01940150 10206 20183 56007
2026-03-24 22:53:00,METAR KCRQ 242253Z 26006KT 10SM CLR 20/14 A2997 RMK AO2 SLP144 T02000144
2026-03-24 21:53:00,METAR KCRQ 242153Z 24006KT 10SM CLR 19/14 A2997 RMK AO2 SLP147 T01940144
2026-03-24 20:53:00,METAR KCRQ 242053Z 25008KT 220V290 10SM CLR 20/15 A2999 RMK AO2 SLP151 T02000150 58010
2026-03-24 19:53:00,METAR KCRQ 241953Z 29005KT 10SM CLR 20/15 A3000 RMK AO2 SLP156 T02000150
2026-03-24 18:53:00,METAR KCRQ 241853Z 25005KT 9SM CLR 19/15 A3001 RMK AO2 SLP159 T01940150
2026-03-24 18:25:00,SPECI KCRQ 241825Z 23005KT 8SM SCT011 19/15 A3001 RMK AO2 T01890150
2026-03-24 17:53:00,METAR KCRQ 241753Z 22004KT 7SM OVC010 18/15 A3001 RMK AO2 SLP162 T01830150 10189 20161 52010
2026-03-24 17:26:00,SPECI KCRQ 241726Z VRB03KT 7SM OVC010 18/15 A3001 RMK AO2 T01780150
2026-03-24 16:53:00,METAR KCRQ 241653Z 00000KT 6SM BR OVC008 17/15 A3001 RMK AO2 SLP159 T01720150
2026-03-24 15:53:00,METAR KCRQ 241553Z 00000KT 5SM BR OVC006 17/15 A2999 RMK AO2 SLP155 T01670150
2026-03-24 14:53:00,METAR KCRQ 241453Z AUTO 00000KT 4SM BR OVC006 16/14 A2998 RMK AO2 SLP151 T01610144 53012
2026-03-24 13:53:00,METAR KCRQ 241353Z AUTO 14003KT 6SM BR OVC006 16/14 A2997 RMK AO2 SLP148 T01610144
2026-03-24 12:53:00,METAR KCRQ 241253Z AUTO 00000KT 6SM BR OVC006 16/14 A2996 RMK AO2 SLP143 T01610144
2026-03-24 11:53:00,METAR KCRQ 241153Z AUTO 00000KT 7SM OVC006 16/14 A2995 RMK AO2 SLP139 T01610144 10172 20161 55005
2026-03-24 10:53:00,METAR KCRQ 241053Z AUTO 03003KT 8SM OVC007 16/14 A2994 RMK AO2 SLP138 T01610144
2026-03-24 09:53:00,METAR KCRQ 240953Z AUTO 00000KT 8SM OVC007 16/14 A2995 RMK AO2 SLP141 T01610144
2026-03-24 08:53:00,METAR KCRQ 240853Z AUTO 00000KT 9SM OVC008 16/14 A2996 RMK AO2 SLP144 T01610144 58002
2026-03-24 07:53:00,METAR KCRQ 240753Z AUTO 00000KT 9SM BKN009 17/14 A2997 RMK AO2 SLP145 T01670144 402060150
2026-03-24 07:46:00,SPECI KCRQ 240746Z AUTO 00000KT 9SM BKN009 17/14 A2997 RMK AO2 T01670144
2026-03-24 06:53:00,METAR KCRQ 240653Z AUTO 14003KT 9SM FEW008 17/14 A2997 RMK AO2 SLP145 T01670144
2026-03-24 06:49:00,SPECI KCRQ 240649Z AUTO 12003KT 10SM FEW008 17/14 A2997 RMK AO2
2026-03-24 05:53:00,METAR KCRQ 240553Z AUTO 12004KT 10SM OVC009 17/14 A2997 RMK AO2 SLP148 T01720144 10200 20167 53003
2026-03-24 05:21:00,SPECI KCRQ 240521Z AUTO VRB03KT 9SM OVC009 17/15 A2997 RMK AO2 T01720150
2026-03-24 04:53:00,METAR KCRQ 240453Z 16003KT 10SM OVC010 17/15 A2997 RMK AO2 SLP147 T01720150
2026-03-24 03:53:00,METAR KCRQ 240353Z 22004KT 10SM BKN011 17/15 A2996 RMK AO2 SLP144 T01720150
2026-03-24 02:53:00,METAR KCRQ 240253Z 20004KT 10SM CLR 17/15 A2994 RMK AO2 SLP135 T01720150 53006
2026-03-24 01:53:00,METAR KCRQ 240153Z 23005KT 10SM CLR 18/14 A2993 RMK AO2 SLP132 T01830144
2026-03-24 00:53:00,METAR KCRQ 240053Z 22005KT 10SM CLR 19/14 A2992 RMK AO2 SLP130 T01940144
2026-03-23 23:53:00,METAR KCRQ 232353Z 24005KT 10SM CLR 19/14 A2992 RMK AO2 SLP129 T01890144 10206 20183 53001
2026-03-23 22:53:00,METAR KCRQ 232253Z 26008KT 220V280 10SM CLR 19/14 A2992 RMK AO2 SLP129 T01940144
2026-03-23 21:53:00,METAR KCRQ 232153Z 26008KT 220V290 10SM CLR 19/14 A2991 RMK AO2 SLP127 T01940144
2026-03-23 20:53:00,METAR KCRQ 232053Z 27008KT 10SM CLR 19/14 A2991 RMK AO2 SLP128 T01890144 56013
2026-03-23 19:53:00,METAR KCRQ 231953Z 26008KT 10SM CLR 20/14 A2992 RMK AO2 SLP128 T02000144
2026-03-23 18:53:00,METAR KCRQ 231853Z 25005KT 10SM CLR 21/14 A2993 RMK AO2 SLP134 T02060144
2026-03-23 17:53:00,METAR KCRQ 231753Z AUTO VRB03KT 10SM FEW012 18/14 A2995 RMK AO2 SLP142 T01830139 10183 20156 50012
2026-03-23 17:43:00,SPECI KCRQ 231743Z AUTO 00000KT 9SM FEW010 18/14 A2996 RMK AO2 T01780139
2026-03-23 16:53:00,METAR KCRQ 231653Z AUTO 25004KT 7SM OVC008 17/14 A2996 RMK AO2 SLP144 T01670139
2026-03-23 15:53:00,METAR KCRQ 231553Z AUTO VRB03KT 7SM OVC007 16/14 A2995 RMK AO2 SLP138 T01610139
2026-03-23 14:53:00,METAR KCRQ 231453Z AUTO 00000KT 6SM BR OVC007 16/14 A2992 RMK AO2 SLP129 T01560139 53010
2026-03-23 13:53:00,METAR KCRQ 231353Z AUTO 00000KT 7SM OVC005 16/14 A2991 RMK AO2 SLP125 T01560139
2026-03-23 13:03:00,SPECI KCRQ 231303Z AUTO 08004KT 6SM BR OVC005 16/14 A2990 RMK AO2 T01560144
2026-03-23 12:53:00,METAR KCRQ 231253Z AUTO 07003KT 6SM BR OVC004 16/14 A2990 RMK AO2 SLP122 T01560144
2026-03-23 11:53:00,METAR KCRQ 231153Z AUTO 25004KT 7SM OVC004 16/14 A2989 RMK AO2 SLP119 T01560144 10161 20150 56000
2026-03-23 10:53:00,METAR KCRQ 231053Z AUTO 33003KT 6SM BR OVC003 16/14 A2989 RMK AO2 SLP120 T01560144
2026-03-23 09:53:00,METAR KCRQ 230953Z AUTO 15003KT 6SM BR OVC003 16/14 A2988 RMK AO2 SLP116 T01560144
2026-03-23 08:53:00,METAR KCRQ 230853Z AUTO 14005KT 7SM OVC004 16/14 A2989 RMK AO2 SLP118 T01560144 58006
2026-03-23 08:44:00,SPECI KCRQ 230844Z AUTO VRB03KT 6SM BR OVC004 16/14 A2989 RMK AO2 T01560144
2026-03-23 07:53:00,METAR KCRQ 230753Z AUTO 16003KT 7SM OVC005 16/14 A2989 RMK AO2 SLP120 T01560144 402220144
2026-03-23 06:53:00,METAR KCRQ 230653Z AUTO 00000KT 8SM OVC005 16/14 A2991 RMK AO2 SLP125 T01560144
2026-03-23 05:53:00,METAR KCRQ 230553Z AUTO 27003KT 9SM OVC006 16/14 A2991 RMK AO2 SLP126 T01610144 10194 20161 51013
2026-03-23 04:53:00,METAR KCRQ 230453Z 28004KT 9SM BKN006 17/15 A2990 RMK AO2 SLP124 T01670150
2026-03-23 04:46:00,SPECI KCRQ 230446Z 29004KT 8SM BKN006 16/14 A2990 RMK AO2 T01610144
2026-03-23 04:37:00,SPECI KCRQ 230437Z 25004KT 9SM SCT006 17/14 A2990 RMK AO2 T01670144
2026-03-23 03:53:00,METAR KCRQ 230353Z 26003KT 10SM CLR 17/14 A2988 RMK AO2 SLP117 T01670144
2026-03-23 02:53:00,METAR KCRQ 230253Z 00000KT 10SM CLR 17/14 A2987 RMK AO2 SLP113 T01720144 50001
2026-03-23 01:53:00,METAR KCRQ 230153Z 24004KT 10SM CLR 17/14 A2987 RMK AO2 SLP114 T01720144
2026-03-23 00:53:00,METAR KCRQ 230053Z 27005KT 10SM CLR 19/14 A2987 RMK AO2 SLP112 T01890144
2026-03-22 23:53:00,METAR KCRQ 222353Z 26005KT 10SM CLR 19/14 A2987 RMK AO2 SLP112 T01940139 10222 20183 58006
2026-03-22 22:53:00,METAR KCRQ 222253Z 24006KT 10SM CLR 18/14 A2988 RMK AO2 SLP117 T01830139 $
2026-03-22 21:53:00,METAR KCRQ 222153Z 26009KT 10SM CLR 19/14 A2989 RMK AO2 SLP118 T01890144 $
2026-03-22 20:53:00,METAR KCRQ 222053Z 26008KT 10SM CLR 21/14 A2988 RMK AO2 SLP117 T02060144 58019 $
2026-03-22 19:53:00,METAR KCRQ 221953Z AUTO 25007KT 10SM CLR 21/14 A2991 RMK AO2 SLP124 T02060144 $
2026-03-22 18:53:00,METAR KCRQ 221853Z AUTO VRB03KT 10SM CLR 19/14 A2992 RMK AO2 SLP131 T01890144 $
2026-03-22 17:53:00,METAR KCRQ 221753Z AUTO VRB03KT 10SM CLR 19/14 A2994 RMK AO2 SLP137 T01890144 10189 20144 51010 $
2026-03-22 17:12:00,SPECI KCRQ 221712Z AUTO 13004KT 9SM FEW009 18/14 A2994 RMK AO2 T01830139 $
2026-03-22 16:53:00,METAR KCRQ 221653Z AUTO 00000KT 8SM BKN007 17/14 A2993 RMK AO2 CIG 006V010 SLP135 T01720139 $
2026-03-22 16:32:00,SPECI KCRQ 221632Z AUTO 00000KT 6SM BR OVC005 16/14 A2993 RMK AO2 T01610144 $
2026-03-22 15:53:00,METAR KCRQ 221553Z AUTO 00000KT 5SM BR OVC004 16/14 A2993 RMK AO2 SLP133 T01560139 $
2026-03-22 14:53:00,METAR KCRQ 221453Z AUTO 00000KT 3SM BR OVC002 14/14 A2991 RMK AO2 SLP126 T01440139 53012 $
2026-03-22 14:30:00,SPECI KCRQ 221430Z AUTO 09003KT 5SM BR OVC002 14/13 A2990 RMK AO2 T01440133 $
2026-03-22 14:20:00,SPECI KCRQ 221420Z AUTO 08003KT 2SM R24/6000VP6000FT BR OVC002 14/14 A2989 RMK AO2 VIS 1 1/4V4 T01440139 $
2026-03-22 13:53:00,METAR KCRQ 221353Z AUTO 12005KT 4SM BR OVC002 15/14 A2989 RMK AO2 SLP120 T01500139 $
2026-03-22 12:53:00,METAR KCRQ 221253Z AUTO 14004KT 5SM BR OVC003 15/14 A2988 RMK AO2 SLP116 T01500144 $
2026-03-22 12:31:00,SPECI KCRQ 221231Z AUTO 00000KT 3SM BR OVC002 15/14 A2988 RMK AO2 T01500144 $
2026-03-22 12:20:00,SPECI KCRQ 221220Z AUTO 00000KT 1 3/4SM R24/4500VP6000FT BR OVC002 15/14 A2988 RMK AO2 T01500144 $
2026-03-22 12:15:00,SPECI KCRQ 221215Z AUTO 00000KT 3SM R24/5000VP6000FT BR OVC002 15/14 A2988 RMK AO2 T01500144 $
2026-03-22 12:05:00,SPECI KCRQ 221205Z AUTO 00000KT 2SM BR OVC002 15/14 A2988 RMK AO2 T01500144 $
2026-03-22 11:53:00,METAR KCRQ 221153Z AUTO 00000KT 4SM BR OVC003 16/14 A2987 RMK AO2 SLP114 T01560144 10167 20150 56009 $
2026-03-22 10:53:00,METAR KCRQ 221053Z AUTO 06003KT 6SM BR OVC003 16/15 A2988 RMK AO2 SLP115 T01610150 $
2026-03-22 09:53:00,METAR KCRQ 220953Z AUTO 00000KT 6SM BR OVC003 16/15 A2989 RMK AO2 SLP118 T01610150 $
2026-03-22 08:53:00,METAR KCRQ 220853Z AUTO 00000KT 6SM BR OVC003 16/15 A2990 RMK AO2 SLP123 T01610150 58005 $
2026-03-22 07:53:00,METAR KCRQ 220753Z AUTO 00000KT 5SM BR OVC003 16/16 A2991 RMK AO2 SLP127 T01610156 402500156 $
2026-03-22 07:13:00,SPECI KCRQ 220713Z AUTO 00000KT 3SM BR OVC002 16/16 A2991 RMK AO2 T01610156 $
2026-03-22 06:53:00,METAR KCRQ 220653Z AUTO 23003KT 2SM R24/4500VP6000FT BR OVC002 16/16 A2991 RMK AO2 VIS 1 1/4V3 SLP127 T01610156 $
2026-03-22 06:33:00,SPECI KCRQ 220633Z AUTO 26003KT 1 3/4SM R24/3500VP6000FT BR OVC002 16/16 A2991 RMK AO2 VIS 3/4V3 T01610156 $
2026-03-22 06:27:00,SPECI KCRQ 220627Z AUTO 00000KT 3SM BR OVC002 16/16 A2992 RMK AO2 T01610156 $
2026-03-22 05:53:00,METAR KCRQ 220553Z AUTO 00000KT 2 1/2SM BR OVC002 16/16 A2992 RMK AO2 SLP128 T01610156 10206 20161 53000 $
2026-03-22 05:34:00,SPECI KCRQ 220534Z AUTO VRB03KT 1 3/4SM R24/4500VP6000FT BR OVC002 16/16 A2991 RMK AO2 T01610156 $
2026-03-22 05:02:00,SPECI KCRQ 220502Z AUTO 00000KT 3SM BR OVC002 16/16 A2991 RMK AO2 T01610156 $
2026-03-22 04:53:00,METAR KCRQ 220453Z AUTO 00000KT 1 1/2SM R24/5000VP6000FT BR OVC002 16/16 A2992 RMK AO2 SLP127 T01610156 $
2026-03-22 04:41:00,SPECI KCRQ 220441Z AUTO 00000KT 1 3/4SM R24/3000VP6000FT BR OVC002 16/16 A2991 RMK AO2 T01610156 $
2026-03-22 04:35:00,SPECI KCRQ 220435Z AUTO 00000KT 3SM BR OVC002 17/16 A2992 RMK AO2 T01670156 $
2026-03-22 04:17:00,SPECI KCRQ 220417Z AUTO 00000KT 1 3/4SM R24/2600VP6000FT BR OVC002 17/16 A2992 RMK AO2 VIS 3/4V3 T01670156 $
2026-03-22 04:09:00,SPECI KCRQ 220409Z AUTO 28004KT 2SM R24/4000VP6000FT BR OVC002 17/16 A2992 RMK AO2 T01670156 $
2026-03-22 03:53:00,METAR KCRQ 220353Z AUTO 29003KT 4SM BR BKN003 17/16 A2991 RMK AO2 SLP127 T01670156 $
2026-03-22 03:36:00,SPECI KCRQ 220336Z AUTO 00000KT 9SM FEW003 17/16 A2991 RMK AO2 T01720156 $
2026-03-22 02:53:00,METAR KCRQ 220253Z 27003KT 10SM CLR 18/16 A2990 RMK AO2 SLP123 T01780156 55000 $
2026-03-22 01:53:00,METAR KCRQ 220153Z 25004KT 10SM CLR 19/16 A2989 RMK AO2 SLP120 T01890156 $
2026-03-22 00:53:00,METAR KCRQ 220053Z 00000KT 10SM CLR 20/15 A2989 RMK AO2 SLP119 T02000150 $
2026-03-22 00:19:00,SPECI KCRQ 220019Z 00000KT 10SM SCT005 19/16 A2989 RMK AO2 T01890156 $
2026-03-21 23:53:00,METAR KCRQ 212353Z 28005KT 10SM OVC005 18/16 A2990 RMK AO2 SLP124 T01830161 10250 20183 56006 $
2026-03-21 23:00:00,SPECI KCRQ 212300Z VRB04KT 10SM BKN007 19/17 A2990 RMK AO2 T01940167 $
2026-03-21 22:53:00,METAR KCRQ 212253Z 27006KT 10SM SCT007 19/17 A2990 RMK AO2 SLP124 T01940167 $
2026-03-21 22:37:00,SPECI KCRQ 212237Z 28006KT 10SM SCT009 22/17 A2990 RMK AO2 T02170172 $
2026-03-21 21:53:00,METAR KCRQ 212153Z 24007KT 10SM CLR 22/15 A2990 RMK AO2 SLP123 T02220150 $
2026-03-21 20:53:00,METAR KCRQ 212053Z 25008KT 10SM CLR 23/17 A2992 RMK AO2 SLP129 T02280167 58010 $
2026-03-21 19:53:00,METAR KCRQ 211953Z 26007KT 10SM CLR 23/16 A2993 RMK AO2 SLP133 T02280156 $
2026-03-21 18:53:00,METAR KCRQ 211853Z 26009KT 10SM CLR 23/16 A2995 RMK AO2 SLP137 T02330161 $
2026-03-21 17:53:00,METAR KCRQ 211753Z AUTO 27003KT 10SM CLR 23/14 A2995 RMK AO2 SLP139 T02330144 10239 20156 51005 $
2026-03-21 16:53:00,METAR KCRQ 211653Z AUTO VRB03KT 10SM CLR 22/14 A2995 RMK AO2 SLP138 T02170144 $
2026-03-21 15:53:00,METAR KCRQ 211553Z AUTO 00000KT 10SM CLR 20/14 A2994 RMK AO2 SLP137 T02000144 $
2026-03-21 14:53:00,METAR KCRQ 211453Z AUTO 00000KT 10SM CLR 18/13 A2993 RMK AO2 SLP134 T01780128 53014 $
2026-03-21 13:53:00,METAR KCRQ 211353Z AUTO 00000KT 10SM CLR 16/12 A2992 RMK AO2 SLP129 T01610117 $
2026-03-21 12:53:00,METAR KCRQ 211253Z AUTO 00000KT 10SM CLR 17/12 A2990 RMK AO2 SLP122 T01670122 $
2026-03-21 11:53:00,METAR KCRQ 211153Z AUTO 08004KT 10SM CLR 17/12 A2989 RMK AO2 SLP120 T01670122 10189 20167 57010 $
2026-03-21 10:53:00,METAR KCRQ 211053Z AUTO 00000KT 10SM CLR 17/13 A2990 RMK AO2 SLP123 T01670128 $
2026-03-21 09:53:00,METAR KCRQ 210953Z AUTO 00000KT 10SM CLR 18/14 A2992 RMK AO2 SLP127 T01780139 $
2026-03-21 08:53:00,METAR KCRQ 210853Z AUTO 00000KT 10SM CLR 18/14 A2992 RMK AO2 SLP129 T01780144 58008 $
2026-03-21 07:53:00,METAR KCRQ 210753Z AUTO 00000KT 10SM CLR 18/15 A2993 RMK AO2 SLP132 T01780150 402890167 $
2026-03-21 06:53:00,METAR KCRQ 210653Z AUTO 00000KT 10SM CLR 19/16 A2994 RMK AO2 SLP135 T01890161 $
2026-03-21 05:53:00,METAR KCRQ 210553Z AUTO 15003KT 10SM CLR 19/17 A2995 RMK AO2 SLP137 T01890167 10244 20189 51014 $
2026-03-21 04:53:00,METAR KCRQ 210453Z 19004KT 10SM CLR 19/17 A2994 RMK AO2 SLP135 T01940172 $
2026-03-21 03:53:00,METAR KCRQ 210353Z 26004KT 10SM CLR 20/17 A2993 RMK AO2 SLP131 T02000167 $
2026-03-21 02:53:00,METAR KCRQ 210253Z 27004KT 10SM CLR 21/14 A2991 RMK AO2 SLP124 T02110144 50003 $
2026-03-21 01:53:00,METAR KCRQ 210153Z 21004KT 10SM CLR 23/13 A2991 RMK AO2 SLP125 T02280128 $
2026-03-21 00:53:00,METAR KCRQ 210053Z 26004KT 10SM CLR 24/14 A2990 RMK AO2 SLP123 T02390139 $
2026-03-20 23:53:00,METAR KCRQ 202353Z 25005KT 10SM CLR 24/15 A2990 RMK AO2 SLP121 T02390150 10289 20239 58010
2026-03-20 22:53:00,METAR KCRQ 202253Z VRB05KT 10SM CLR 26/16 A2991 RMK AO2 SLP126 T02560156
2026-03-20 21:53:00,METAR KCRQ 202153Z 28006KT 10SM CLR 26/12 A2992 RMK AO2 SLP128 T02610122
2026-03-20 20:53:00,METAR KCRQ 202053Z 28007KT 10SM CLR 27/12 A2993 RMK AO2 SLP130 T02720117 58013
2026-03-20 19:53:00,METAR KCRQ 201953Z 29005KT 10SM CLR 27/13 A2994 RMK AO2 SLP135 T02720128
2026-03-20 18:53:00,METAR KCRQ 201853Z 27005KT 10SM CLR 28/14 A2995 RMK AO2 SLP139 T02830139
2026-03-20 17:53:00,METAR KCRQ 201753Z 26004KT 10SM CLR 28/14 A2997 RMK AO2 SLP144 T02780139 10283 20167 50002
2026-03-20 16:53:00,METAR KCRQ 201653Z 00000KT 10SM CLR 26/12 A2997 RMK AO2 SLP146 T02610122
2026-03-20 15:53:00,METAR KCRQ 201553Z 16003KT 10SM CLR 22/11 A2998 RMK AO2 SLP148 T02220106
2026-03-20 14:53:00,METAR KCRQ 201453Z 00000KT 10SM CLR 18/12 A2996 RMK AO2 SLP143 T01830117 53005
2026-03-20 13:53:00,METAR KCRQ 201353Z 00000KT 10SM CLR 17/11 A2994 RMK AO2 SLP137 T01720106
2026-03-20 12:53:00,METAR KCRQ 201253Z AUTO 00000KT 10SM CLR 17/11 A2994 RMK AO2 SLP136 T01720111
2026-03-20 11:53:00,METAR KCRQ 201153Z AUTO 00000KT 10SM CLR 17/11 A2995 RMK AO2 SLP138 T01720111 10194 20167 56011
2026-03-20 10:53:00,METAR KCRQ 201053Z AUTO 00000KT 10SM CLR 17/12 A2995 RMK AO2 SLP138 T01720122
2026-03-20 06:53:00,METAR KCRQ 200653Z AUTO 00000KT 10SM CLR 19/15 A2999 RMK AO2 SLP151 T01940150
2026-03-20 05:53:00,METAR KCRQ 200553Z AUTO 00000KT 10SM CLR 19/16 A2999 RMK AO2 SLP151 T01940156 10256 20194 51007
2026-03-20 04:53:00,METAR KCRQ 200453Z AUTO 00000KT 10SM CLR 20/16 A2998 RMK AO2 SLP150 T02000161
2026-03-20 03:53:00,METAR KCRQ 200353Z AUTO 19004KT 10SM CLR 20/16 A2998 RMK AO2 SLP149 T02000161
2026-03-20 02:53:00,METAR KCRQ 200253Z AUTO 00000KT 10SM CLR 21/16 A2997 RMK AO2 SLP145 T02060161 53010
2026-03-20 01:53:00,METAR KCRQ 200153Z AUTO 22005KT 10SM CLR 21/15 A2995 RMK AO2 SLP140 T02110150
2026-03-20 00:53:00,METAR KCRQ 200053Z AUTO 28005KT 10SM CLR 24/09 A2994 RMK AO2 SLP135 T02440094
2026-03-19 23:53:00,METAR KCRQ 192353Z AUTO 27004KT 10SM CLR 25/12 A2994 RMK AO2 SLP135 T02500117 10278 20250 56018
2026-03-19 22:53:00,METAR KCRQ 192253Z AUTO 26005KT 10SM CLR 26/10 A2995 RMK AO2 SLP138 T02560100
2026-03-19 21:53:00,METAR KCRQ 192153Z AUTO VRB04KT 10SM CLR 28/11 A2996 RMK AO2 SLP142 T02780111
2026-03-19 20:53:00,METAR KCRQ 192053Z AUTO 29004KT 10SM CLR 27/13 A2999 RMK AO2 SLP153 T02670133 58021
2026-03-19 19:53:00,METAR KCRQ 191953Z AUTO 26007KT 10SM CLR 27/14 A3002 RMK AO2 SLP161 T02670144
2026-03-19 18:53:00,METAR KCRQ 191853Z AUTO 27005KT 10SM CLR 28/12 A3004 RMK AO2 SLP167 T02780122
2026-03-19 17:53:00,METAR KCRQ 191753Z AUTO 00000KT 4SM HZ CLR 26/11 A3006 RMK AO2 SLP174 T02610106 10261 20156 50003
2026-03-19 16:53:00,METAR KCRQ 191653Z AUTO 00000KT 10SM CLR 24/11 A3006 RMK AO2 SLP177 T02390106
2026-03-19 15:53:00,METAR KCRQ 191553Z AUTO 00000KT 10SM CLR 21/11 A3006 RMK AO2 SLP176 T02060106
2026-03-19 14:53:00,METAR KCRQ 191453Z AUTO 08003KT 10SM CLR 18/09 A3005 RMK AO2 SLP172 T01780094 53014
2026-03-19 13:53:00,METAR KCRQ 191353Z AUTO 00000KT 10SM CLR 16/09 A3003 RMK AO2 SLP165 T01560089
2026-03-19 12:53:00,METAR KCRQ 191253Z AUTO 00000KT 10SM CLR 16/10 A3001 RMK AO2 SLP161 T01560100
2026-03-19 11:53:00,METAR KCRQ 191153Z AUTO 00000KT 10SM CLR 16/09 A3001 RMK AO2 SLP158 T01610094 10194 20161 55010
2026-03-19 10:53:00,METAR KCRQ 191053Z AUTO 00000KT 10SM CLR 17/10 A3000 RMK AO2 SLP157 T01670100
2026-03-19 09:53:00,METAR KCRQ 190953Z AUTO 00000KT 10SM CLR 17/12 A3002 RMK AO2 SLP164 T01670117
2026-03-19 08:53:00,METAR KCRQ 190853Z AUTO 00000KT 10SM CLR 18/13 A3003 RMK AO2 SLP168 T01780133 58010
2026-03-19 07:53:00,METAR KCRQ 190753Z AUTO 00000KT 10SM CLR 18/14 A3005 RMK AO2 SLP170 T01830144 402890167
2026-03-19 06:53:00,METAR KCRQ 190653Z AUTO 00000KT 10SM CLR 18/16 A3006 RMK AO2 SLP174 T01830161
2026-03-19 05:53:00,METAR KCRQ 190553Z AUTO 00000KT 10SM CLR 19/16 A3006 RMK AO2 SLP177 T01940156 10256 20194 51018
2026-03-19 04:53:00,METAR KCRQ 190453Z 00000KT 10SM CLR 19/16 A3005 RMK AO2 SLP172 T01940161
2026-03-19 03:53:00,METAR KCRQ 190353Z 00000KT 10SM CLR 22/14 A3004 RMK AO2 SLP167 T02170144
2026-03-19 02:53:00,METAR KCRQ 190253Z 20004KT 10SM CLR 23/11 A3001 RMK AO2 SLP160 T02280111 53011
2026-03-19 01:53:00,METAR KCRQ 190153Z 21003KT 10SM CLR 25/08 A2999 RMK AO2 SLP152 T02500083
2026-03-19 00:53:00,METAR KCRQ 190053Z 27004KT 10SM CLR 26/08 A2998 RMK AO2 SLP149 T02560083
2026-03-18 23:53:00,METAR KCRQ 182353Z 25005KT 10SM CLR 26/08 A2998 RMK AO2 SLP149 T02560083 10289 20244 56006
2026-03-18 22:53:00,METAR KCRQ 182253Z 24004KT 10SM CLR 26/09 A2998 RMK AO2 SLP149 T02610094
2026-03-18 21:53:00,METAR KCRQ 182153Z 24005KT 10SM CLR 26/11 A2999 RMK AO2 SLP152 T02560106
2026-03-18 20:53:00,METAR KCRQ 182053Z 24005KT 10SM CLR 27/09 A3000 RMK AO2 SLP154 T02670089 58007
2026-03-18 19:53:00,METAR KCRQ 181953Z 26007KT 10SM CLR 27/09 A3002 RMK AO2 SLP161 T02720089
2026-03-18 18:53:00,METAR KCRQ 181853Z VRB03KT 10SM CLR 28/09 A3002 RMK AO2 SLP161 T02830094
2026-03-18 17:53:00,METAR KCRQ 181753Z 00000KT 10SM CLR 26/09 A3002 RMK AO2 SLP162 T02560094 10256 20167 51013
2026-03-18 16:53:00,METAR KCRQ 181653Z 24006KT 10SM CLR 23/09 A3002 RMK AO2 SLP161 T02280094
2026-03-18 15:53:00,METAR KCRQ 181553Z 00000KT 10SM CLR 24/08 A3000 RMK AO2 SLP155 T02390078
2026-03-18 14:53:00,METAR KCRQ 181453Z 08006KT 10SM CLR 21/07 A2998 RMK AO2 SLP150 T02110072 51009
2026-03-18 13:53:00,METAR KCRQ 181353Z 00000KT 10SM CLR 18/08 A2997 RMK AO2 SLP147 T01780078
2026-03-18 12:53:00,METAR KCRQ 181253Z AUTO 08003KT 10SM CLR 17/08 A2997 RMK AO2 SLP144 T01720078
2026-03-18 11:53:00,METAR KCRQ 181153Z AUTO 00000KT 10SM CLR 19/07 A2996 RMK AO2 SLP140 T01890072 10206 20178 55005
2026-03-18 10:53:00,METAR KCRQ 181053Z AUTO 07003KT 10SM CLR 18/08 A2996 RMK AO2 SLP140 T01830083
2026-03-18 09:53:00,METAR KCRQ 180953Z AUTO 00000KT 10SM CLR 18/09 A2997 RMK AO2 SLP143 T01830094
2026-03-18 08:53:00,METAR KCRQ 180853Z AUTO 00000KT 10SM CLR 19/11 A2997 RMK AO2 SLP145 T01890111 57002
2026-03-18 07:53:00,METAR KCRQ 180753Z AUTO 00000KT 10SM CLR 19/12 A2997 RMK AO2 SLP146 T01940122 403000161
2026-03-18 06:53:00,METAR KCRQ 180653Z AUTO 00000KT 10SM CLR 19/13 A2998 RMK AO2 SLP147 T01940133
2026-03-18 05:53:00,METAR KCRQ 180553Z AUTO 00000KT 10SM CLR 20/14 A2998 RMK AO2 SLP147 T02000139 10294 20194 51021
2026-03-18 04:53:00,METAR KCRQ 180453Z 00000KT 10SM CLR 20/14 A2996 RMK AO2 SLP142 T02000144
2026-03-18 03:53:00,METAR KCRQ 180353Z 16005KT 10SM CLR 21/13 A2994 RMK AO2 SLP135 T02110133
2026-03-18 02:53:00,METAR KCRQ 180253Z 20005KT 10SM CLR 22/13 A2992 RMK AO2 SLP127 T02170133 53012
2026-03-18 01:53:00,METAR KCRQ 180153Z 26003KT 10SM CLR 25/10 A2989 RMK AO2 SLP119 T02500100
2026-03-18 00:53:00,METAR KCRQ 180053Z VRB03KT 10SM CLR 29/06 A2988 RMK AO2 SLP113 T02940056
2026-03-17 23:53:00,METAR KCRQ 172353Z 28006KT 10SM CLR 29/07 A2988 RMK AO2 SLP114 T02890067 10300 20256 56010
2026-03-17 22:53:00,METAR KCRQ 172253Z VRB06KT 10SM CLR 29/07 A2989 RMK AO2 SLP118 T02890072
2026-03-17 21:53:00,METAR KCRQ 172153Z 27007KT 10SM CLR 28/11 A2990 RMK AO2 SLP120 T02830106
2026-03-17 20:53:00,METAR KCRQ 172053Z 26004KT 10SM CLR 28/09 A2991 RMK AO2 SLP125 T02780094 58007
2026-03-17 19:53:00,METAR KCRQ 171953Z 25008KT 10SM CLR 26/12 A2993 RMK AO2 SLP132 T02610117
2026-03-17 18:53:00,METAR KCRQ 171853Z 23004KT 10SM CLR 27/11 A2993 RMK AO2 SLP133 T02670106
2026-03-17 17:53:00,METAR KCRQ 171753Z AUTO VRB04KT 10SM CLR 29/10 A2993 RMK AO2 SLP132 T02890100 10289 20161 51008
2026-03-17 16:53:00,METAR KCRQ 171653Z AUTO 00000KT 10SM CLR 26/08 A2992 RMK AO2 SLP130 T02610078
2026-03-17 15:53:00,METAR KCRQ 171553Z AUTO 00000KT 10SM CLR 22/08 A2992 RMK AO2 SLP129 T02220083
2026-03-17 14:53:00,METAR KCRQ 171453Z AUTO 06004KT 10SM CLR 21/06 A2991 RMK AO2 SLP124 T02060056 53007
2026-03-17 13:53:00,METAR KCRQ 171353Z AUTO 00000KT 10SM CLR 18/07 A2989 RMK AO2 SLP118 T01830067
2026-03-17 12:53:00,METAR KCRQ 171253Z AUTO 00000KT 10SM CLR 20/06 A2988 RMK AO2 SLP115 T02000061
2026-03-17 11:53:00,METAR KCRQ 171153Z AUTO 00000KT 10SM CLR 16/09 A2988 RMK AO2 SLP117 T01610094 10194 20161 56012
2026-03-17 10:53:00,METAR KCRQ 171053Z AUTO 00000KT 10SM CLR 17/13 A2989 RMK AO2 SLP119 T01670128
2026-03-17 09:53:00,METAR KCRQ 170953Z AUTO 00000KT 10SM CLR 18/09 A2990 RMK AO2 SLP124 T01830094
2026-03-17 08:53:00,METAR KCRQ 170853Z AUTO 08004KT 10SM CLR 17/13 A2992 RMK AO2 SLP128 T01670128 56008
2026-03-17 07:53:00,METAR KCRQ 170753Z AUTO 00000KT 10SM CLR 17/13 A2992 RMK AO2 SLP129 T01670133 402220128
2026-03-17 06:53:00,METAR KCRQ 170653Z AUTO 00000KT 10SM CLR 17/14 A2993 RMK AO2 SLP132 T01720139
2026-03-17 05:53:00,METAR KCRQ 170553Z AUTO 00000KT 10SM CLR 18/14 A2994 RMK AO2 SLP136 T01780139 10200 20172 51013
2026-03-17 04:53:00,METAR KCRQ 170453Z AUTO 12003KT 10SM CLR 18/14 A2994 RMK AO2 SLP135 T01780139
2026-03-17 03:53:00,METAR KCRQ 170353Z 00000KT 10SM CLR 18/13 A2992 RMK AO2 SLP130 T01830133
2026-03-17 02:53:00,METAR KCRQ 170253Z 00000KT 10SM CLR 20/13 A2990 RMK AO2 SLP124 T02000128 53002
2026-03-17 01:53:00,METAR KCRQ 170153Z 05003KT 10SM CLR 19/14 A2990 RMK AO2 SLP122 T01890139
2026-03-17 00:53:00,METAR KCRQ 170053Z 31003KT 10SM CLR 19/15 A2989 RMK AO2 SLP121 T01890150
2026-03-16 23:53:00,METAR KCRQ 162353Z 26006KT 9SM CLR 19/14 A2990 RMK AO2 SLP122 T01940144 10222 20194 55009
2026-03-16 22:53:00,METAR KCRQ 162253Z VRB05KT 10SM CLR 21/14 A2990 RMK AO2 SLP121 T02060144
2026-03-16 21:53:00,METAR KCRQ 162153Z 26005KT 10SM CLR 22/13 A2991 RMK AO2 SLP124 T02170133
2026-03-16 20:53:00,METAR KCRQ 162053Z 25006KT 10SM CLR 22/13 A2992 RMK AO2 SLP130 T02220133 58019
2026-03-16 19:53:00,METAR KCRQ 161953Z 26007KT 10SM CLR 22/13 A2996 RMK AO2 SLP141 T02220128
2026-03-16 18:53:00,METAR KCRQ 161853Z 28006KT 10SM CLR 21/15 A2997 RMK AO2 SLP146 T02110150
2026-03-16 17:53:00,METAR KCRQ 161753Z VRB03KT 10SM CLR 22/13 A2998 RMK AO2 SLP149 T02170128 10217 20128 50001
2026-03-16 16:53:00,METAR KCRQ 161653Z 00000KT 10SM CLR 19/13 A2998 RMK AO2 SLP151 T01890128
2026-03-16 15:53:00,METAR KCRQ 161553Z 00000KT 10SM CLR 17/12 A2999 RMK AO2 SLP152 T01720122
2026-03-16 14:53:00,METAR KCRQ 161453Z AUTO 00000KT 10SM CLR 14/12 A2998 RMK AO2 SLP149 T01440117 53005
2026-03-16 13:53:00,METAR KCRQ 161353Z AUTO 08003KT 10SM CLR 13/12 A2996 RMK AO2 SLP144 T01330117
2026-03-16 12:53:00,METAR KCRQ 161253Z AUTO 00000KT 10SM CLR 13/12 A2996 RMK AO2 SLP144 T01330122
2026-03-16 11:53:00,METAR KCRQ 161153Z AUTO 08003KT 10SM CLR 14/12 A2996 RMK AO2 SLP144 T01390122 10161 20139 56011
2026-03-16 10:53:00,METAR KCRQ 161053Z AUTO 03003KT 10SM CLR 14/13 A2997 RMK AO2 SLP146 T01440128
2026-03-16 09:53:00,METAR KCRQ 160953Z AUTO 00000KT 10SM CLR 14/13 A2998 RMK AO2 SLP152 T01440128
2026-03-16 08:53:00,METAR KCRQ 160853Z AUTO 00000KT 10SM CLR 15/13 A3000 RMK AO2 SLP155 T01500133 50002
2026-03-16 07:53:00,METAR KCRQ 160753Z AUTO 00000KT 10SM CLR 15/14 A3000 RMK AO2 SLP156 T01500139 402000133
2026-03-16 06:53:00,METAR KCRQ 160653Z AUTO 00000KT 10SM CLR 16/14 A2999 RMK AO2 SLP154 T01560139
2026-03-16 05:53:00,METAR KCRQ 160553Z AUTO 00000KT 10SM CLR 16/14 A2999 RMK AO2 SLP153 T01610139 10183 20156 51009
2026-03-16 04:53:00,METAR KCRQ 160453Z 00000KT 10SM CLR 16/14 A2999 RMK AO2 SLP153 T01610139
2026-03-16 03:53:00,METAR KCRQ 160353Z 25003KT 10SM CLR 17/14 A2997 RMK AO2 SLP146 T01670139
2026-03-16 02:53:00,METAR KCRQ 160253Z 28003KT 10SM CLR 17/14 A2996 RMK AO2 SLP144 T01670139 53006
2026-03-16 01:53:00,METAR KCRQ 160153Z 21003KT 10SM CLR 17/14 A2995 RMK AO2 SLP140 T01720139
2026-03-16 00:53:00,METAR KCRQ 160053Z 23006KT 10SM CLR 18/13 A2994 RMK AO2 SLP137 T01780133
2026-03-15 23:53:00,METAR KCRQ 152353Z 22005KT 10SM CLR 18/13 A2994 RMK AO2 SLP138 T01780133 10200 20178 58005
2026-03-15 22:53:00,METAR KCRQ 152253Z VRB05KT 10SM CLR 19/13 A2996 RMK AO2 SLP142 T01890133
2026-03-15 21:53:00,METAR KCRQ 152153Z AUTO 26008KT 10SM CLR 19/13 A2995 RMK AO2 SLP141 T01940128
2026-03-15 20:53:00,METAR KCRQ 152053Z AUTO 28005KT 10SM CLR 19/13 A2996 RMK AO2 SLP144 T01940128 58016
2026-03-15 19:53:00,METAR KCRQ 151953Z AUTO 27005KT 10SM CLR 19/13 A2998 RMK AO2 SLP149 T01890128
2026-03-15 18:53:00,METAR KCRQ 151853Z AUTO VRB06KT 10SM CLR 18/13 A3000 RMK AO2 SLP159 T01830128
2026-03-15 17:53:00,METAR KCRQ 151753Z AUTO VRB04KT 10SM CLR 18/12 A3001 RMK AO2 SLP160 T01780122 10178 20133 51009
2026-03-15 16:53:00,METAR KCRQ 151653Z AUTO 00000KT 10SM CLR 16/12 A3000 RMK AO2 SLP158 T01560117
2026-03-15 16:16:00,SPECI KCRQ 151616Z AUTO 00000KT 10SM SCT008 14/12 A3000 RMK AO2 T01440117
2026-03-15 15:53:00,METAR KCRQ 151553Z AUTO 00000KT 10SM OVC008 14/12 A2999 RMK AO2 SLP155 T01440117
2026-03-15 14:53:00,METAR KCRQ 151453Z AUTO 13003KT 6SM BR OVC006 13/12 A2998 RMK AO2 SLP151 T01330122 53012
2026-03-15 13:53:00,METAR KCRQ 151353Z AUTO 11003KT 7SM OVC005 13/12 A2996 RMK AO2 SLP144 T01330122
2026-03-15 13:48:00,SPECI KCRQ 151348Z AUTO VRB03KT 7SM OVC005 13/12 A2996 RMK AO2
2026-03-15 12:53:00,METAR KCRQ 151253Z AUTO 00000KT 5SM BR OVC003 13/13 A2994 RMK AO2 SLP138 T01330128
2026-03-15 12:34:00,SPECI KCRQ 151234Z AUTO 12003KT 5SM BR OVC004 14/13 A2993 RMK AO2 T01390128
2026-03-15 11:53:00,METAR KCRQ 151153Z AUTO VRB03KT 7SM OVC005 14/13 A2994 RMK AO2 SLP135 T01440128 10156 20139 56008
2026-03-15 10:53:00,METAR KCRQ 151053Z AUTO 15003KT 9SM OVC007 14/13 A2994 RMK AO2 SLP134 T01440128
2026-03-15 09:53:00,METAR KCRQ 150953Z AUTO 00000KT 9SM OVC006 14/13 A2995 RMK AO2 SLP140 T01440128
2026-03-15 08:53:00,METAR KCRQ 150853Z AUTO 08005KT 8SM OVC006 15/13 A2996 RMK AO2 SLP142 T01500133 50001
