Time_recorded,METAR
2026-05-02 15:30:00,METAR LFPB 021530Z AUTO 22010KT 190V260 CAVOK 25/10 Q1014 NOSIG
2026-05-02 15:00:00,METAR LFPB 021500Z AUTO 18012KT 140V210 CAVOK 26/07 Q1014 TEMPO 20015G25KT
2026-05-02 14:30:00,METAR LFPB 021430Z AUTO 19012KT 160V220 CAVOK 26/08 Q1014 TEMPO 20015G25KT
2026-05-02 14:00:00,METAR LFPB 021400Z AUTO 16012KT 110V200 CAVOK 25/09 Q1015 TEMPO 20015G25KT 3000 SHRA FEW050CB
2026-05-02 13:30:00,METAR LFPB 021330Z AUTO 15011KT 110V180 CAVOK 25/12 Q1015 TEMPO 20015G25KT 3000 SHRA FEW050CB
2026-05-02 13:00:00,METAR LFPB 021300Z AUTO 16009KT 130V190 9999 FEW043 BKN052 BKN064 25/14 Q1015 TEMPO 3000 SHRA FEW050CB
2026-05-02 12:30:00,METAR LFPB 021230Z AUTO 16012KT 9999 SCT044 BKN050 BKN060 25/14 Q1016 TEMPO 3000 SHRA FEW050CB
2026-05-02 12:00:00,METAR LFPB 021200Z AUTO 15009KT 120V190 9999 BKN042 BKN064 24/14 Q1016 TEMPO 3000 SHRA FEW050CB
2026-05-02 11:30:00,METAR LFPB 021130Z AUTO 15010KT 120V190 9999 SCT040 BKN062 24/14 Q1017 TEMPO 4000 -SHRA FEW030TCU
2026-05-02 11:00:00,METAR LFPB 021100Z AUTO 16010KT 130V200 9999 SCT039 SCT047 BKN062 24/14 Q1017 TEMPO 4000 -SHRA FEW030TCU
2026-05-02 10:30:00,METAR LFPB 021030Z AUTO 14008KT 110V190 9999 FEW035 23/13 Q1017 TEMPO 4000 -SHRA FEW030TCU
2026-05-02 10:00:00,METAR LFPB 021000Z AUTO 15005KT 090V200 CAVOK 22/15 Q1018 TEMPO 3000 SHRA FEW025CB
2026-05-02 09:30:00,METAR LFPB 020930Z AUTO 14006KT 070V190 CAVOK 22/14 Q1018 TEMPO 3000 SHRA FEW025CB
2026-05-02 09:00:00,METAR LFPB 020900Z AUTO 16005KT 110V210 CAVOK 21/14 Q1018 TEMPO 3000 SHRA FEW025CB
2026-05-02 08:30:00,METAR LFPB 020830Z AUTO 13003KT 090V180 CAVOK 20/14 Q1019 TEMPO 3000 SHRA FEW025CB
2026-05-02 08:00:00,METAR LFPB 020800Z AUTO VRB02KT CAVOK 18/15 Q1019 TEMPO 3000 SHRA FEW025CB
2026-05-02 07:30:00,METAR LFPB 020730Z AUTO VRB02KT CAVOK 17/15 Q1019 TEMPO 3000 SHRA FEW025CB
2026-05-02 07:00:00,METAR LFPB 020700Z AUTO 13003KT 090V160 9000 NSC 17/15 Q1019 TEMPO 3000 SHRA FEW025CB
2026-05-02 06:30:00,METAR LFPB 020630Z AUTO VRB02KT 8000 FEW004 SCT120 16/15 Q1019 TEMPO 3000 SHRA FEW025CB
2026-05-02 06:00:00,METAR LFPB 020600Z AUTO 07002KT 6000 NSC 15/15 Q1019 TEMPO 1200 BR BKN003
2026-05-02 05:30:00,METAR LFPB 020530Z AUTO 06002KT 5000 BR NSC 14/14 Q1019
2026-05-02 05:00:00,METAR LFPB 020500Z AUTO VRB03KT 3500 BR NSC 14/13 Q1019
2026-05-02 04:30:00,METAR LFPB 020430Z AUTO 36002KT 5000 1600 BR NSC 13/13 Q1019
2026-05-02 04:00:00,METAR LFPB 020400Z AUTO 00000KT 4500 1200 R27/P2000 R09/1200U R07/1500U BR FEW003 BKN130 14/13 Q1019
2026-05-02 03:30:00,METAR LFPB 020330Z AUTO 11003KT 6000 NSC 14/13 Q1019
2026-05-02 03:00:00,METAR LFPB 020300Z AUTO 11002KT CAVOK 15/14 Q1019
2026-05-02 02:30:00,METAR LFPB 020230Z AUTO VRB02KT CAVOK 15/14 Q1019
2026-05-02 02:00:00,METAR LFPB 020200Z AUTO 14002KT CAVOK 15/14 Q1020
2026-05-02 01:30:00,METAR LFPB 020130Z AUTO 17004KT CAVOK 15/14 Q1020
2026-05-02 01:00:00,METAR LFPB 020100Z AUTO 17001KT CAVOK 16/14 Q1020
2026-05-02 00:30:00,METAR LFPB 020030Z AUTO 15004KT CAVOK 16/14 Q1020
2026-05-02 00:00:00,METAR LFPB 020000Z AUTO 13006KT CAVOK 16/15 Q1020
2026-05-01 23:30:00,METAR LFPB 012330Z AUTO VRB03KT 9999 FEW048 BKN140 16/15 Q1020
2026-05-01 23:00:00,METAR LFPB 012300Z AUTO 31002KT 9999 SCT049 BKN110 BKN140 16/15 Q1021
2026-05-01 22:30:00,METAR LFPB 012230Z AUTO 00000KT CAVOK 17/15 Q1020
2026-05-01 22:00:00,METAR LFPB 012200Z AUTO 00000KT 9999 ///CB 17/16 Q1020
2026-05-01 21:30:00,METAR LFPB 012130Z AUTO VRB02KT 9999 ///CB 17/15 Q1020
2026-05-01 21:00:00,METAR LFPB 012100Z AUTO VRB02KT 9999 VCTS ///CB 17/16 Q1021
2026-05-01 20:30:00,METAR LFPB 012030Z AUTO VRB01KT 9999 ///CB 17/15 Q1020
2026-05-01 20:00:00,METAR LFPB 012000Z AUTO 14005KT 6000 RA FEW036/// SCT066/// OVC098/// ///CB 18/15 Q1020
2026-05-01 19:30:00,METAR LFPB 011930Z AUTO 11004KT 9999 ///CB 18/15 Q1020
2026-05-01 19:00:00,METAR LFPB 011900Z AUTO 14003KT 9999 ///CB 18/15 Q1020
2026-05-01 18:30:00,METAR LFPB 011830Z AUTO 15005KT 110V190 9999 TS FEW019/// BKN049/// BKN060/// ///CB 20/15 Q1020
2026-05-01 18:00:00,METAR LFPB 011800Z AUTO 23004KT 9999 TSRA ///CB 19/14 Q1020
2026-05-01 17:30:00,METAR LFPB 011730Z AUTO 26006KT 240V310 9999 VCTS ///CB 20/13 Q1019 TEMPO VRB15G25KT 2500 -TSRAGR
2026-05-01 17:00:00,METAR LFPB 011700Z AUTO 21011KT 170V260 9999 TS ///CB 22/13 Q1019 TEMPO VRB15G25KT 2500 -TSRAGR
2026-05-01 16:30:00,METAR LFPB 011630Z AUTO 15007KT 9999 VCTS ///CB 23/13 Q1019 TEMPO VRB15G25KT 2500 -TSRAGR
2026-05-01 16:00:00,METAR LFPB 011600Z AUTO 20008KT 170V250 9999 FEW035/// BKN054/// BKN068/// ///CB 25/13 Q1019 TEMPO VRB15G25KT 2500 -TSRAGR
2026-05-01 15:30:00,METAR LFPB 011530Z AUTO 20006KT 160V240 9999 ///CB 24/12 Q1020 TEMPO VRB15G25KT 2500 -TSRAGR
2026-05-01 15:00:00,METAR LFPB 011500Z AUTO 21007KT 140V240 9999 ///CB 26/12 Q1020 TEMPO VRB15G25KT 2500 -TSRAGR
2026-05-01 14:30:00,METAR LFPB 011430Z AUTO 17008KT 120V190 CAVOK 26/12 Q1020 TEMPO VRB15G25KT 2500 -TSRAGR SCT040CB
2026-05-01 14:00:00,METAR LFPB 011400Z AUTO 16003KT 130V220 CAVOK 25/11 Q1020 TEMPO VRB15G25KT 2500 -TSRAGR SCT040CB
2026-05-01 13:30:00,METAR LFPB 011330Z AUTO 14006KT 080V230 CAVOK 25/11 Q1021 TEMPO VRB15G25KT 2500 -TSRAGR SCT040CB
2026-05-01 13:00:00,METAR LFPB 011300Z AUTO 17005KT 100V230 CAVOK 24/11 Q1021 NOSIG
2026-05-01 12:30:00,METAR LFPB 011230Z AUTO VRB03KT CAVOK 25/10 Q1021 NOSIG
2026-05-01 12:00:00,METAR LFPB 011200Z AUTO 17004KT 100V230 CAVOK 24/09 Q1021 NOSIG
2026-05-01 11:30:00,METAR LFPB 011130Z AUTO 08004KT 320V130 CAVOK 23/08 Q1022 NOSIG
2026-05-01 11:00:00,METAR LFPB 011100Z AUTO 16004KT 090V250 CAVOK 22/07 Q1022 NOSIG
2026-05-01 10:30:00,METAR LFPB 011030Z AUTO VRB03KT CAVOK 22/07 Q1022 NOSIG
2026-05-01 10:00:00,METAR LFPB 011000Z AUTO VRB03KT CAVOK 21/06 Q1022 NOSIG
2026-05-01 09:30:00,METAR LFPB 010930Z AUTO VRB02KT CAVOK 20/05 Q1022 NOSIG
2026-05-01 09:00:00,METAR LFPB 010900Z AUTO VRB03KT CAVOK 19/03 Q1022 NOSIG
2026-05-01 08:30:00,METAR LFPB 010830Z AUTO VRB02KT CAVOK 18/03 Q1022 NOSIG
2026-05-01 08:00:00,METAR LFPB 010800Z AUTO 16006KT 120V190 CAVOK 16/02 Q1022 NOSIG
2026-05-01 07:30:00,METAR LFPB 010730Z AUTO 13006KT 110V170 CAVOK 16/02 Q1022 NOSIG
2026-05-01 07:00:00,METAR LFPB 010700Z AUTO 11006KT 080V140 CAVOK 15/01 Q1022 NOSIG
2026-05-01 06:30:00,METAR LFPB 010630Z AUTO 11005KT 070V140 CAVOK 14/00 Q1022 NOSIG
2026-05-01 06:00:00,METAR LFPB 010600Z AUTO 05004KT CAVOK 12/02 Q1021
2026-05-01 05:30:00,METAR LFPB 010530Z AUTO 06004KT CAVOK 11/01 Q1021
2026-05-01 05:00:00,METAR LFPB 010500Z AUTO 06004KT CAVOK 10/01 Q1021
2026-05-01 04:30:00,METAR LFPB 010430Z AUTO 06005KT CAVOK 10/00 Q1021
2026-05-01 04:00:00,METAR LFPB 010400Z AUTO 06005KT CAVOK 10/00 Q1021
2026-05-01 03:30:00,METAR LFPB 010330Z AUTO 07006KT CAVOK 11/M00 Q1021
2026-05-01 03:00:00,METAR LFPB 010300Z AUTO 07004KT CAVOK 11/M00 Q1021
2026-05-01 02:30:00,METAR LFPB 010230Z AUTO 06005KT CAVOK 11/00 Q1021
2026-05-01 02:00:00,METAR LFPB 010200Z AUTO 06005KT CAVOK 11/00 Q1021
2026-05-01 01:30:00,METAR LFPB 010130Z AUTO 06006KT CAVOK 11/00 Q1021
2026-05-01 01:00:00,METAR LFPB 010100Z AUTO 07006KT CAVOK 12/M00 Q1021
2026-05-01 00:30:00,METAR LFPB 010030Z AUTO 05005KT CAVOK 13/01 Q1021
2026-05-01 00:00:00,METAR LFPB 010000Z AUTO 03004KT CAVOK 13/00 Q1021
2026-04-30 23:30:00,METAR LFPB 302330Z AUTO 05005KT CAVOK 13/01 Q1021
2026-04-30 23:00:00,METAR LFPB 302300Z AUTO 04004KT CAVOK 13/01 Q1021
2026-04-30 22:30:00,METAR LFPB 302230Z AUTO 06004KT CAVOK 13/01 Q1021
2026-04-30 22:00:00,METAR LFPB 302200Z AUTO 06005KT CAVOK 14/01 Q1021
2026-04-30 21:30:00,METAR LFPB 302130Z AUTO 06005KT CAVOK 14/01 Q1021
2026-04-30 21:00:00,METAR LFPB 302100Z AUTO 06004KT CAVOK 15/01 Q1021
2026-04-30 20:30:00,METAR LFPB 302030Z AUTO 05006KT CAVOK 15/01 Q1020
2026-04-30 20:00:00,METAR LFPB 302000Z AUTO 07007KT CAVOK 16/01 Q1020
2026-04-30 19:30:00,METAR LFPB 301930Z AUTO 07009KT CAVOK 17/01 Q1020
2026-04-30 19:00:00,METAR LFPB 301900Z AUTO 08010KT CAVOK 19/01 Q1019
2026-04-30 18:30:00,METAR LFPB 301830Z AUTO 08011KT CAVOK 20/01 Q1019
2026-04-30 18:00:00,METAR LFPB 301800Z AUTO 09011KT CAVOK 21/02 Q1019
2026-04-30 17:30:00,METAR LFPB 301730Z AUTO 09014KT CAVOK 22/02 Q1019 NOSIG
2026-04-30 17:00:00,METAR LFPB 301700Z AUTO 09014KT CAVOK 22/02 Q1019 NOSIG
2026-04-30 16:30:00,METAR LFPB 301630Z AUTO 09014KT CAVOK 23/02 Q1019 NOSIG
2026-04-30 16:00:00,METAR LFPB 301600Z AUTO 08013KT CAVOK 23/02 Q1018 NOSIG
2026-04-30 15:00:00,METAR LFPB 301500Z AUTO 11017KT CAVOK 23/01 Q1019 NOSIG
2026-04-30 14:30:00,METAR LFPB 301430Z AUTO 10015KT 070V130 CAVOK 23/01 Q1019 NOSIG
2026-04-30 14:00:00,METAR LFPB 301400Z AUTO 10016KT 060V120 CAVOK 23/02 Q1019 TEMPO 09015G25KT
2026-04-30 13:30:00,METAR LFPB 301330Z AUTO 10015KT 050V130 CAVOK 23/02 Q1019 TEMPO 09015G25KT
2026-04-30 13:00:00,METAR LFPB 301300Z AUTO 08014KT CAVOK 23/02 Q1019 TEMPO 09015G25KT
2026-04-30 12:30:00,METAR LFPB 301230Z AUTO 08014KT 060V120 CAVOK 22/02 Q1019 TEMPO 09015G25KT
2026-04-30 12:00:00,METAR LFPB 301200Z AUTO 08017KT CAVOK 21/01 Q1019 TEMPO 09015G25KT
2026-04-30 11:30:00,METAR LFPB 301130Z AUTO 10015KT CAVOK 21/01 Q1020 TEMPO 09015G25KT
2026-04-30 11:00:00,METAR LFPB 301100Z AUTO 08015KT CAVOK 20/01 Q1020 TEMPO 09015G25KT
2026-04-30 10:30:00,METAR LFPB 301030Z AUTO 07015KT CAVOK 19/01 Q1020 TEMPO 09015G25KT
2026-04-30 10:00:00,METAR LFPB 301000Z AUTO 09014KT CAVOK 19/00 Q1020 TEMPO 09015G25KT
2026-04-30 09:30:00,METAR LFPB 300930Z AUTO 08014KT 050V110 CAVOK 18/01 Q1020 TEMPO 09015G25KT
2026-04-30 09:00:00,METAR LFPB 300900Z AUTO 07014KT 050V110 CAVOK 17/00 Q1020 TEMPO 09015G25KT
2026-04-30 08:30:00,METAR LFPB 300830Z AUTO 08013KT CAVOK 16/01 Q1020 TEMPO 09015G25KT
2026-04-30 08:00:00,METAR LFPB 300800Z AUTO 08012KT 050V110 CAVOK 15/00 Q1020 TEMPO 09015G25KT
2026-04-30 07:30:00,METAR LFPB 300730Z AUTO 08012KT CAVOK 14/00 Q1020 TEMPO 09015G25KT
2026-04-30 07:00:00,METAR LFPB 300700Z AUTO 08011KT CAVOK 14/M00 Q1020 NOSIG
2026-04-30 06:30:00,METAR LFPB 300630Z AUTO 08010KT CAVOK 13/M00 Q1020 NOSIG
2026-04-30 06:00:00,METAR LFPB 300600Z AUTO 08011KT CAVOK 12/M00 Q1020 NOSIG
2026-04-30 05:30:00,METAR LFPB 300530Z AUTO 08008KT CAVOK 11/M00 Q1020 NOSIG
2026-04-30 05:00:00,METAR LFPB 300500Z AUTO 08010KT CAVOK 11/M00 Q1020 BECMG 09015G25KT
2026-04-30 04:30:00,METAR LFPB 300430Z AUTO 08010KT CAVOK 10/M01 Q1020 BECMG 09015G25KT
2026-04-30 04:00:00,METAR LFPB 300400Z AUTO 07011KT CAVOK 11/M01 Q1020 NOSIG
2026-04-30 03:30:00,METAR LFPB 300330Z AUTO 08010KT CAVOK 11/M01 Q1020 NOSIG
2026-04-30 03:00:00,METAR LFPB 300300Z AUTO 08009KT CAVOK 12/M01 Q1020 NOSIG
2026-04-30 02:30:00,METAR LFPB 300230Z AUTO 08010KT CAVOK 12/M01 Q1019 NOSIG
2026-04-30 02:00:00,METAR LFPB 300200Z AUTO 08011KT CAVOK 13/M01 Q1019 NOSIG
2026-04-30 01:30:00,METAR LFPB 300130Z AUTO 08011KT CAVOK 13/M01 Q1019 NOSIG
2026-04-30 01:00:00,METAR LFPB 300100Z AUTO 08012KT CAVOK 14/M01 Q1019 NOSIG
2026-04-30 00:30:00,METAR LFPB 300030Z AUTO 08012KT CAVOK 14/M01 Q1019 NOSIG
2026-04-30 00:00:00,METAR LFPB 300000Z AUTO 08010KT CAVOK 13/M01 Q1019 NOSIG
2026-04-29 23:30:00,METAR LFPB 292330Z AUTO 07011KT CAVOK 13/M01 Q1019 NOSIG
2026-04-29 23:00:00,METAR LFPB 292300Z AUTO 07011KT CAVOK 14/M00 Q1019 NOSIG
2026-04-29 22:30:00,METAR LFPB 292230Z AUTO 07012KT CAVOK 15/00 Q1019 NOSIG
2026-04-29 22:00:00,METAR LFPB 292200Z AUTO 06012KT CAVOK 15/01 Q1019 NOSIG
2026-04-29 21:30:00,METAR LFPB 292130Z AUTO 05009KT CAVOK 15/01 Q1019 NOSIG
2026-04-29 21:00:00,METAR LFPB 292100Z AUTO 05009KT CAVOK 16/02 Q1019 NOSIG
2026-04-29 20:30:00,METAR LFPB 292030Z AUTO 06010KT CAVOK 16/03 Q1018 NOSIG
2026-04-29 20:00:00,METAR LFPB 292000Z AUTO 06010KT CAVOK 16/03 Q1018 NOSIG
2026-04-29 19:30:00,METAR LFPB 291930Z AUTO 07012KT CAVOK 18/03 Q1018 NOSIG
2026-04-29 19:00:00,METAR LFPB 291900Z AUTO 07011KT CAVOK 19/04 Q1017 NOSIG
2026-04-29 18:30:00,METAR LFPB 291830Z AUTO 07013KT CAVOK 20/04 Q1017 NOSIG
2026-04-29 18:00:00,METAR LFPB 291800Z AUTO 08015KT CAVOK 21/03 Q1016 BECMG 09010G20KT
2026-04-29 17:30:00,METAR LFPB 291730Z AUTO 08016KT CAVOK 22/03 Q1016 BECMG 09010G20KT
2026-04-29 17:00:00,METAR LFPB 291700Z AUTO 07018KT CAVOK 22/03 Q1016 TEMPO 08015G25KT
2026-04-29 16:30:00,METAR LFPB 291630Z AUTO 09017KT CAVOK 23/03 Q1016 TEMPO 08015G25KT
2026-04-29 16:00:00,METAR LFPB 291600Z AUTO 08017KT CAVOK 23/04 Q1016 TEMPO 08015G25KT
2026-04-29 15:30:00,METAR LFPB 291530Z AUTO 07019KT CAVOK 23/04 Q1016 TEMPO 08015G25KT
2026-04-29 15:00:00,METAR LFPB 291500Z AUTO 08018KT CAVOK 23/04 Q1016 TEMPO 08015G25KT
2026-04-29 14:30:00,METAR LFPB 291430Z AUTO 09017KT CAVOK 24/05 Q1017 TEMPO 08015G25KT
2026-04-29 14:00:00,METAR LFPB 291400Z AUTO 07017KT CAVOK 23/06 Q1017 TEMPO 08015G25KT
2026-04-29 13:30:00,METAR LFPB 291330Z AUTO 07015KT 040V100 CAVOK 23/06 Q1017 TEMPO 08015G25KT
2026-04-29 13:00:00,METAR LFPB 291300Z AUTO 07016KT 040V100 CAVOK 22/06 Q1017 TEMPO 08015G25KT
2026-04-29 12:30:00,METAR LFPB 291230Z AUTO 06016KT 030V090 CAVOK 22/07 Q1017 TEMPO 08015G25KT
2026-04-29 12:00:00,METAR LFPB 291200Z AUTO 07015KT CAVOK 22/06 Q1017 TEMPO 08015G25KT
2026-04-29 11:30:00,METAR LFPB 291130Z AUTO 06014KT CAVOK 21/06 Q1017 TEMPO 08015G25KT
2026-04-29 11:00:00,METAR LFPB 291100Z AUTO 06014KT 9999 FEW039 20/06 Q1018 TEMPO 08015G25KT
2026-04-29 10:30:00,METAR LFPB 291030Z AUTO 06014KT 040V100 CAVOK 19/06 Q1018 TEMPO 08015G25KT
2026-04-29 10:00:00,METAR LFPB 291000Z AUTO 07011KT CAVOK 19/06 Q1018 TEMPO 08015G25KT
2026-04-29 09:30:00,METAR LFPB 290930Z AUTO 08012KT CAVOK 17/05 Q1018 TEMPO 08015G25KT
2026-04-29 09:00:00,METAR LFPB 290900Z AUTO 06012KT CAVOK 16/05 Q1018 NOSIG
2026-04-29 08:30:00,METAR LFPB 290830Z AUTO 06011KT CAVOK 15/05 Q1018 NOSIG
2026-04-29 08:00:00,METAR LFPB 290800Z AUTO 06012KT CAVOK 14/04 Q1018 NOSIG
2026-04-29 07:30:00,METAR LFPB 290730Z AUTO 05012KT CAVOK 14/04 Q1018 NOSIG
2026-04-29 07:00:00,METAR LFPB 290700Z AUTO 06010KT CAVOK 13/04 Q1018 NOSIG
2026-04-29 06:30:00,METAR LFPB 290630Z AUTO 05011KT CAVOK 13/04 Q1017 NOSIG
2026-04-29 06:00:00,METAR LFPB 290600Z AUTO 05010KT CAVOK 13/04 Q1017 NOSIG
2026-04-29 05:30:00,METAR LFPB 290530Z AUTO 05011KT CAVOK 13/04 Q1017 NOSIG
2026-04-29 05:00:00,METAR LFPB 290500Z AUTO 05010KT CAVOK 13/03 Q1016 NOSIG
2026-04-29 04:30:00,METAR LFPB 290430Z AUTO 04009KT CAVOK 14/04 Q1016 NOSIG
2026-04-29 04:00:00,METAR LFPB 290400Z AUTO 04010KT CAVOK 14/04 Q1016 NOSIG
2026-04-29 03:30:00,METAR LFPB 290330Z AUTO 04009KT CAVOK 14/04 Q1016 NOSIG
2026-04-29 03:00:00,METAR LFPB 290300Z AUTO 05011KT CAVOK 14/04 Q1016 NOSIG
2026-04-29 02:30:00,METAR LFPB 290230Z AUTO 05010KT CAVOK 14/04 Q1016 NOSIG
2026-04-29 02:00:00,METAR LFPB 290200Z AUTO 05012KT CAVOK 14/04 Q1016 NOSIG
2026-04-29 01:30:00,METAR LFPB 290130Z AUTO 05011KT CAVOK 14/04 Q1016 NOSIG
2026-04-29 01:00:00,METAR LFPB 290100Z AUTO 05013KT CAVOK 15/05 Q1016 NOSIG
2026-04-29 00:30:00,METAR LFPB 290030Z AUTO 05014KT CAVOK 15/05 Q1016 NOSIG
2026-04-29 00:00:00,METAR LFPB 290000Z AUTO 06016KT CAVOK 16/05 Q1016 TEMPO 07015G25KT
2026-04-28 23:30:00,METAR LFPB 282330Z AUTO 06015KT CAVOK 16/05 Q1016 TEMPO 07015G25KT
2026-04-28 23:00:00,METAR LFPB 282300Z AUTO 04013KT CAVOK 16/05 Q1016 TEMPO 07015G25KT
2026-04-28 22:30:00,METAR LFPB 282230Z AUTO 03011KT CAVOK 16/05 Q1016 TEMPO 07015G25KT
2026-04-28 22:00:00,METAR LFPB 282200Z AUTO 02011KT CAVOK 16/06 Q1015 NOSIG
2026-04-28 21:30:00,METAR LFPB 282130Z AUTO 02011KT CAVOK 17/06 Q1015 NOSIG
2026-04-28 21:00:00,METAR LFPB 282100Z AUTO 02009KT CAVOK 17/06 Q1015 NOSIG
2026-04-28 20:30:00,METAR LFPB 282030Z AUTO 02009KT CAVOK 17/06 Q1015 NOSIG
2026-04-28 20:00:00,METAR LFPB 282000Z AUTO 36006KT CAVOK 17/06 Q1015 NOSIG
2026-04-28 19:30:00,METAR LFPB 281930Z AUTO 36005KT CAVOK 18/06 Q1015 NOSIG
2026-04-28 19:00:00,METAR LFPB 281900Z AUTO 01006KT 320V040 CAVOK 19/06 Q1015 NOSIG
2026-04-28 18:30:00,METAR LFPB 281830Z AUTO 36005KT CAVOK 19/06 Q1015 NOSIG
2026-04-28 18:00:00,METAR LFPB 281800Z AUTO 01008KT 330V040 CAVOK 20/07 Q1015 NOSIG
2026-04-28 17:30:00,METAR LFPB 281730Z AUTO 03010KT CAVOK 20/06 Q1015 NOSIG
2026-04-28 17:00:00,METAR LFPB 281700Z AUTO 02010KT 350V050 CAVOK 20/07 Q1015 NOSIG
2026-04-28 16:30:00,METAR LFPB 281630Z AUTO 02010KT 340V050 CAVOK 20/07 Q1015 NOSIG
2026-04-28 16:00:00,METAR LFPB 281600Z AUTO 03012KT 350V060 CAVOK 20/07 Q1015 NOSIG
2026-04-28 15:30:00,METAR LFPB 281530Z AUTO 04012KT CAVOK 20/07 Q1015 NOSIG
2026-04-28 15:00:00,METAR LFPB 281500Z AUTO 02011KT 340V050 CAVOK 20/07 Q1015 NOSIG
2026-04-28 14:30:00,METAR LFPB 281430Z AUTO 04012KT 010V070 CAVOK 20/07 Q1016 NOSIG
2026-04-28 14:00:00,METAR LFPB 281400Z AUTO 02012KT CAVOK 20/06 Q1016 NOSIG
2026-04-28 13:30:00,METAR LFPB 281330Z AUTO 04011KT CAVOK 20/06 Q1016 NOSIG
2026-04-28 13:00:00,METAR LFPB 281300Z AUTO 03011KT 350V060 CAVOK 20/06 Q1016 NOSIG
2026-04-28 12:30:00,METAR LFPB 281230Z AUTO 03010KT 350V060 CAVOK 19/05 Q1016 NOSIG
2026-04-28 12:00:00,METAR LFPB 281200Z AUTO 36008KT 300V050 CAVOK 19/07 Q1017 NOSIG
2026-04-28 11:30:00,METAR LFPB 281130Z AUTO 35010KT 320V020 CAVOK 18/06 Q1017 NOSIG
2026-04-28 11:00:00,METAR LFPB 281100Z AUTO 36010KT 310V040 CAVOK 17/06 Q1017 NOSIG
2026-04-28 10:30:00,METAR LFPB 281030Z AUTO 01010KT 330V050 CAVOK 16/05 Q1017 NOSIG
2026-04-28 10:00:00,METAR LFPB 281000Z AUTO 01010KT 320V030 CAVOK 16/05 Q1017 NOSIG
2026-04-28 09:30:00,METAR LFPB 280930Z AUTO 01008KT 310V050 CAVOK 16/05 Q1017 NOSIG
2026-04-28 09:00:00,METAR LFPB 280900Z AUTO 36009KT 320V030 CAVOK 15/05 Q1017 NOSIG
2026-04-28 08:30:00,METAR LFPB 280830Z AUTO 02009KT 330V050 CAVOK 14/05 Q1017 NOSIG
2026-04-28 08:00:00,METAR LFPB 280800Z AUTO 01009KT 330V030 CAVOK 13/04 Q1017 NOSIG
2026-04-28 07:30:00,METAR LFPB 280730Z AUTO 36007KT 330V040 CAVOK 12/04 Q1017 NOSIG
2026-04-28 07:00:00,METAR LFPB 280700Z AUTO 36007KT 330V040 CAVOK 12/05 Q1017 NOSIG
2026-04-28 06:30:00,METAR LFPB 280630Z AUTO 36008KT 320V030 CAVOK 11/05 Q1017 NOSIG
2026-04-28 06:00:00,METAR LFPB 280600Z AUTO 35006KT 310V020 CAVOK 10/05 Q1017 NOSIG
2026-04-28 05:30:00,METAR LFPB 280530Z AUTO 35005KT 310V040 CAVOK 10/05 Q1017 NOSIG
2026-04-28 05:00:00,METAR LFPB 280500Z AUTO 35006KT CAVOK 10/05 Q1017 NOSIG
2026-04-28 04:30:00,METAR LFPB 280430Z AUTO 36007KT CAVOK 10/05 Q1017 NOSIG
2026-04-28 04:00:00,METAR LFPB 280400Z AUTO 36006KT 320V030 CAVOK 10/05 Q1017 NOSIG
2026-04-28 03:30:00,METAR LFPB 280330Z AUTO 36007KT CAVOK 11/04 Q1018 NOSIG
2026-04-28 03:00:00,METAR LFPB 280300Z AUTO 36007KT 320V040 CAVOK 11/05 Q1018 NOSIG
2026-04-28 02:30:00,METAR LFPB 280230Z AUTO 35007KT CAVOK 10/05 Q1018 NOSIG
2026-04-28 02:00:00,METAR LFPB 280200Z AUTO 35007KT CAVOK 11/05 Q1018 NOSIG
2026-04-28 01:30:00,METAR LFPB 280130Z AUTO 35007KT 320V020 CAVOK 11/05 Q1018 NOSIG
2026-04-28 01:00:00,METAR LFPB 280100Z AUTO 35008KT CAVOK 12/05 Q1018 NOSIG
2026-04-28 00:30:00,METAR LFPB 280030Z AUTO 36008KT CAVOK 12/05 Q1018 NOSIG
2026-04-28 00:00:00,METAR LFPB 280000Z AUTO 36008KT CAVOK 13/05 Q1018 NOSIG
2026-04-27 23:30:00,METAR LFPB 272330Z AUTO 36007KT CAVOK 14/05 Q1018 NOSIG
2026-04-27 23:00:00,METAR LFPB 272300Z AUTO 35005KT 320V020 9999 NCD 14/05 Q1019
2026-04-27 22:00:00,METAR LFPB 272200Z AUTO 36005KT 330V040 CAVOK 15/04 Q1019 NOSIG
2026-04-27 21:30:00,METAR LFPB 272130Z AUTO 36005KT 310V030 CAVOK 15/03 Q1019 NOSIG
2026-04-27 21:00:00,METAR LFPB 272100Z AUTO 35004KT CAVOK 15/03 Q1019 NOSIG
2026-04-27 20:30:00,METAR LFPB 272030Z AUTO 35004KT CAVOK 16/04 Q1019 NOSIG
2026-04-27 20:00:00,METAR LFPB 272000Z AUTO 35004KT CAVOK 16/04 Q1019 NOSIG
2026-04-27 19:30:00,METAR LFPB 271930Z AUTO 35005KT 330V030 CAVOK 17/05 Q1019 NOSIG
2026-04-27 19:00:00,METAR LFPB 271900Z AUTO 35005KT 330V030 CAVOK 18/05 Q1019 NOSIG
2026-04-27 18:30:00,METAR LFPB 271830Z AUTO 36005KT 320V030 CAVOK 19/05 Q1019 NOSIG
2026-04-27 18:00:00,METAR LFPB 271800Z AUTO 36007KT 320V030 CAVOK 20/05 Q1018 NOSIG
2026-04-27 17:30:00,METAR LFPB 271730Z AUTO 34008KT CAVOK 21/05 Q1019 NOSIG
2026-04-27 17:00:00,METAR LFPB 271700Z AUTO 34006KT 300V020 CAVOK 21/04 Q1019 NOSIG
2026-04-27 16:30:00,METAR LFPB 271630Z AUTO 36006KT 320V040 CAVOK 21/05 Q1019 NOSIG
2026-04-27 16:00:00,METAR LFPB 271600Z AUTO 36006KT 330V040 CAVOK 22/04 Q1019 NOSIG
2026-04-27 15:30:00,METAR LFPB 271530Z AUTO 33006KT 290V040 CAVOK 22/04 Q1019 NOSIG
2026-04-27 15:00:00,METAR LFPB 271500Z AUTO 02006KT 330V060 CAVOK 22/04 Q1019 NOSIG
2026-04-27 14:30:00,METAR LFPB 271430Z AUTO 32004KT 230V020 CAVOK 22/04 Q1020 NOSIG
2026-04-27 14:00:00,METAR LFPB 271400Z AUTO 30004KT 230V360 CAVOK 22/04 Q1020 NOSIG
2026-04-27 13:30:00,METAR LFPB 271330Z AUTO VRB03KT CAVOK 21/04 Q1020 NOSIG
2026-04-27 13:00:00,METAR LFPB 271300Z AUTO VRB05KT CAVOK 21/06 Q1020 NOSIG
2026-04-27 12:30:00,METAR LFPB 271230Z AUTO VRB04KT CAVOK 20/06 Q1021 NOSIG
2026-04-27 12:00:00,METAR LFPB 271200Z AUTO 31004KT 230V020 CAVOK 20/05 Q1021 NOSIG
2026-04-27 11:30:00,METAR LFPB 271130Z AUTO 03004KT 330V080 CAVOK 19/06 Q1021 NOSIG
2026-04-27 11:00:00,METAR LFPB 271100Z AUTO 35003KT 250V050 CAVOK 18/06 Q1021 NOSIG
2026-04-27 10:30:00,METAR LFPB 271030Z AUTO 02005KT 320V060 CAVOK 17/06 Q1022 NOSIG
2026-04-27 10:00:00,METAR LFPB 271000Z AUTO 35004KT 270V040 CAVOK 16/07 Q1022 NOSIG
2026-04-27 09:30:00,METAR LFPB 270930Z AUTO 35005KT 310V030 CAVOK 16/06 Q1022 NOSIG
2026-04-27 09:00:00,METAR LFPB 270900Z AUTO 35005KT 310V040 CAVOK 15/06 Q1022 NOSIG
2026-04-27 08:30:00,METAR LFPB 270830Z AUTO 34005KT 280V030 CAVOK 13/06 Q1022 NOSIG
2026-04-27 08:00:00,METAR LFPB 270800Z AUTO 36004KT 310V040 CAVOK 14/06 Q1022 NOSIG
2026-04-27 07:30:00,METAR LFPB 270730Z AUTO 36005KT 330V030 CAVOK 12/05 Q1022 NOSIG
2026-04-27 07:00:00,METAR LFPB 270700Z AUTO VRB03KT CAVOK 11/06 Q1022 NOSIG
2026-04-27 06:30:00,METAR LFPB 270630Z AUTO VRB03KT CAVOK 10/06 Q1022 NOSIG
2026-04-27 06:00:00,METAR LFPB 270600Z AUTO VRB02KT CAVOK 09/06 Q1022 NOSIG
2026-04-27 05:30:00,METAR LFPB 270530Z AUTO VRB03KT CAVOK 09/05 Q1022
2026-04-27 05:00:00,METAR LFPB 270500Z AUTO 36003KT CAVOK 08/05 Q1022
2026-04-27 04:30:00,METAR LFPB 270430Z AUTO 36003KT CAVOK 08/05 Q1022
2026-04-27 04:00:00,METAR LFPB 270400Z AUTO 36004KT CAVOK 09/05 Q1022
2026-04-27 03:30:00,METAR LFPB 270330Z AUTO 36005KT CAVOK 09/05 Q1022
2026-04-27 03:00:00,METAR LFPB 270300Z AUTO 36004KT CAVOK 10/05 Q1022
2026-04-27 02:30:00,METAR LFPB 270230Z AUTO 35004KT 320V020 CAVOK 10/05 Q1022
2026-04-27 02:00:00,METAR LFPB 270200Z AUTO 35006KT CAVOK 10/05 Q1022
2026-04-27 01:30:00,METAR LFPB 270130Z AUTO 35006KT CAVOK 11/05 Q1022
2026-04-27 01:00:00,METAR LFPB 270100Z AUTO 35006KT CAVOK 11/05 Q1022
2026-04-27 00:30:00,METAR LFPB 270030Z AUTO 35004KT CAVOK 11/05 Q1022
2026-04-27 00:00:00,METAR LFPB 270000Z AUTO 34004KT CAVOK 12/05 Q1022
2026-04-26 23:30:00,METAR LFPB 262330Z AUTO 35003KT CAVOK 12/05 Q1022
2026-04-26 23:00:00,METAR LFPB 262300Z AUTO VRB03KT CAVOK 13/05 Q1022
2026-04-26 22:30:00,METAR LFPB 262230Z AUTO 34003KT CAVOK 14/05 Q1022
2026-04-26 22:00:00,METAR LFPB 262200Z AUTO 01004KT CAVOK 14/05 Q1022
2026-04-26 21:30:00,METAR LFPB 262130Z AUTO 02004KT CAVOK 15/05 Q1022
2026-04-26 21:00:00,METAR LFPB 262100Z AUTO 02005KT 340V040 CAVOK 16/04 Q1022
2026-04-26 20:30:00,METAR LFPB 262030Z AUTO 03007KT CAVOK 16/04 Q1022
2026-04-26 20:00:00,METAR LFPB 262000Z AUTO 01004KT CAVOK 17/04 Q1022
2026-04-26 19:30:00,METAR LFPB 261930Z AUTO 02005KT CAVOK 18/03 Q1021
2026-04-26 19:00:00,METAR LFPB 261900Z AUTO 04006KT 360V060 CAVOK 18/01 Q1021
2026-04-26 18:30:00,METAR LFPB 261830Z AUTO 03005KT CAVOK 18/01 Q1021
2026-04-26 18:00:00,METAR LFPB 261800Z AUTO 05005KT CAVOK 19/00 Q1021
2026-04-26 17:30:00,METAR LFPB 261730Z AUTO 06008KT CAVOK 19/02 Q1021
2026-04-26 17:00:00,METAR LFPB 261700Z AUTO 06005KT CAVOK 20/02 Q1021
2026-04-26 16:30:00,METAR LFPB 261630Z AUTO 06006KT CAVOK 21/01 Q1021
2026-04-26 16:00:00,METAR LFPB 261600Z AUTO 08007KT 040V120 CAVOK 21/M00 Q1021
2026-04-26 15:30:00,METAR LFPB 261530Z AUTO 05006KT 360V110 CAVOK 22/M01 Q1021
2026-04-26 15:00:00,METAR LFPB 261500Z AUTO 09007KT 050V150 CAVOK 22/M00 Q1021
2026-04-26 14:30:00,METAR LFPB 261430Z AUTO 05005KT 340V130 CAVOK 22/M03 Q1022
2026-04-26 14:00:00,METAR LFPB 261400Z AUTO 05006KT 350V110 CAVOK 22/M02 Q1022
2026-04-26 13:30:00,METAR LFPB 261330Z AUTO 03006KT 330V120 CAVOK 21/M02 Q1022
2026-04-26 13:00:00,METAR LFPB 261300Z AUTO VRB03KT CAVOK 21/M01 Q1022
2026-04-26 12:30:00,METAR LFPB 261230Z AUTO 05006KT 010V110 CAVOK 21/M02 Q1023
2026-04-26 12:00:00,METAR LFPB 261200Z AUTO 08006KT 030V130 CAVOK 20/00 Q1023
2026-04-26 11:30:00,METAR LFPB 261130Z AUTO 06007KT 360V110 CAVOK 20/M01 Q1023
2026-04-26 11:00:00,METAR LFPB 261100Z AUTO 06007KT 020V140 CAVOK 19/M01 Q1023
2026-04-26 10:30:00,METAR LFPB 261030Z AUTO 07007KT 360V120 CAVOK 19/01 Q1023
2026-04-26 10:00:00,METAR LFPB 261000Z AUTO 04008KT 360V130 CAVOK 18/00 Q1023
2026-04-26 09:30:00,METAR LFPB 260930Z AUTO 06009KT 040V100 CAVOK 18/00 Q1023
2026-04-26 09:00:00,METAR LFPB 260900Z AUTO 07009KT 040V110 CAVOK 17/01 Q1023
2026-04-26 08:30:00,METAR LFPB 260830Z AUTO 06006KT 030V090 CAVOK 16/01 Q1023
2026-04-26 08:00:00,METAR LFPB 260800Z AUTO 04005KT 010V080 CAVOK 15/02 Q1023
2026-04-26 07:30:00,METAR LFPB 260730Z AUTO 04005KT 010V090 CAVOK 13/02 Q1023
2026-04-26 07:00:00,METAR LFPB 260700Z AUTO 02005KT 350V050 CAVOK 12/02 Q1023
2026-04-26 06:30:00,METAR LFPB 260630Z AUTO 02003KT 350V050 CAVOK 10/02 Q1023
2026-04-26 06:00:00,METAR LFPB 260600Z AUTO 02004KT CAVOK 09/02 Q1023
2026-04-26 05:30:00,METAR LFPB 260530Z AUTO 02002KT CAVOK 08/02 Q1023
2026-04-26 05:00:00,METAR LFPB 260500Z AUTO 36003KT CAVOK 06/01 Q1023
2026-04-26 04:30:00,METAR LFPB 260430Z AUTO 35003KT CAVOK 06/01 Q1022
2026-04-26 04:00:00,METAR LFPB 260400Z AUTO 01003KT CAVOK 07/01 Q1022
2026-04-26 03:30:00,METAR LFPB 260330Z AUTO 01002KT CAVOK 07/01 Q1022
2026-04-26 03:00:00,METAR LFPB 260300Z AUTO 02004KT CAVOK 08/01 Q1022
2026-04-26 02:30:00,METAR LFPB 260230Z AUTO 02004KT CAVOK 08/01 Q1022
2026-04-26 02:00:00,METAR LFPB 260200Z AUTO 01005KT CAVOK 09/01 Q1022
2026-04-26 01:30:00,METAR LFPB 260130Z AUTO 01005KT CAVOK 09/01 Q1021
2026-04-26 01:00:00,METAR LFPB 260100Z AUTO 36003KT CAVOK 09/01 Q1021
2026-04-26 00:30:00,METAR LFPB 260030Z AUTO 02003KT CAVOK 09/01 Q1021
2026-04-26 00:00:00,METAR LFPB 260000Z AUTO 02003KT CAVOK 10/02 Q1021
2026-04-25 23:30:00,METAR LFPB 252330Z AUTO 01003KT CAVOK 11/02 Q1021
2026-04-25 23:00:00,METAR LFPB 252300Z AUTO 36003KT CAVOK 11/02 Q1021
2026-04-25 22:30:00,METAR LFPB 252230Z AUTO 35004KT CAVOK 12/02 Q1021
2026-04-25 22:00:00,METAR LFPB 252200Z AUTO 36003KT CAVOK 13/02 Q1021
2026-04-25 21:30:00,METAR LFPB 252130Z AUTO 03003KT CAVOK 14/01 Q1021
2026-04-25 21:00:00,METAR LFPB 252100Z AUTO 03004KT CAVOK 15/01 Q1021
2026-04-25 20:30:00,METAR LFPB 252030Z AUTO 02004KT 340V050 CAVOK 16/02 Q1021
2026-04-25 20:00:00,METAR LFPB 252000Z AUTO 02006KT 330V050 CAVOK 17/02 Q1020
2026-04-25 19:30:00,METAR LFPB 251930Z AUTO 01007KT CAVOK 17/02 Q1020
2026-04-25 19:00:00,METAR LFPB 251900Z AUTO 01008KT CAVOK 18/02 Q1019
2026-04-25 18:30:00,METAR LFPB 251830Z AUTO 01008KT CAVOK 19/03 Q1019
2026-04-25 18:00:00,METAR LFPB 251800Z AUTO 01008KT 340V040 CAVOK 19/03 Q1019
2026-04-25 17:30:00,METAR LFPB 251730Z AUTO 01010KT CAVOK 20/04 Q1019
2026-04-25 17:00:00,METAR LFPB 251700Z AUTO 36007KT 330V030 CAVOK 22/04 Q1019 NOSIG
2026-04-25 16:30:00,METAR LFPB 251630Z AUTO 35005KT 290V030 CAVOK 22/02 Q1018 NOSIG
2026-04-25 16:00:00,METAR LFPB 251600Z AUTO 35006KT 300V020 CAVOK 23/02 Q1018 NOSIG
2026-04-25 15:30:00,METAR LFPB 251530Z AUTO 01004KT 290V070 CAVOK 23/01 Q1018 NOSIG
2026-04-25 15:00:00,METAR LFPB 251500Z AUTO 35006KT 300V070 CAVOK 23/M00 Q1018 NOSIG
2026-04-25 14:30:00,METAR LFPB 251430Z AUTO VRB03KT CAVOK 23/01 Q1018 NOSIG
2026-04-25 14:00:00,METAR LFPB 251400Z AUTO 03004KT 320V060 CAVOK 22/M01 Q1019 NOSIG
2026-04-25 13:30:00,METAR LFPB 251330Z AUTO 18003KT 110V250 CAVOK 23/M01 Q1019 BECMG 05010KT
2026-04-25 13:00:00,METAR LFPB 251300Z AUTO VRB02KT CAVOK 23/00 Q1019 NOSIG
2026-04-25 12:30:00,METAR LFPB 251230Z AUTO VRB02KT CAVOK 22/02 Q1019 NOSIG
2026-04-25 12:00:00,METAR LFPB 251200Z AUTO 02003KT 320V070 CAVOK 21/01 Q1019 NOSIG
2026-04-25 11:30:00,METAR LFPB 251130Z AUTO 03003KT 270V080 CAVOK 20/02 Q1020 NOSIG
2026-04-25 11:00:00,METAR LFPB 251100Z AUTO 06005KT 020V130 CAVOK 20/04 Q1020 NOSIG
2026-04-25 10:30:00,METAR LFPB 251030Z AUTO 07007KT 350V110 CAVOK 19/04 Q1020 NOSIG
2026-04-25 10:00:00,METAR LFPB 251000Z AUTO 04005KT 340V100 CAVOK 18/05 Q1020 NOSIG
2026-04-25 09:30:00,METAR LFPB 250930Z AUTO 05005KT 330V100 CAVOK 17/05 Q1020 NOSIG
2026-04-25 09:00:00,METAR LFPB 250900Z AUTO 04006KT 360V090 CAVOK 16/05 Q1020 NOSIG
2026-04-25 08:30:00,METAR LFPB 250830Z AUTO 05005KT 360V070 CAVOK 15/05 Q1020 NOSIG
2026-04-25 08:00:00,METAR LFPB 250800Z AUTO 03004KT 340V080 CAVOK 13/05 Q1020 NOSIG
2026-04-25 07:30:00,METAR LFPB 250730Z AUTO 36003KT 320V040 CAVOK 11/06 Q1020 NOSIG
2026-04-25 07:00:00,METAR LFPB 250700Z AUTO 02005KT 350V050 CAVOK 10/05 Q1020 NOSIG
2026-04-25 06:30:00,METAR LFPB 250630Z AUTO 01004KT 330V040 CAVOK 09/05 Q1020 NOSIG
2026-04-25 06:00:00,METAR LFPB 250600Z AUTO VRB03KT CAVOK 08/04 Q1020 NOSIG
2026-04-25 05:30:00,METAR LFPB 250530Z AUTO 36002KT CAVOK 07/04 Q1020 NOSIG
2026-04-25 05:00:00,METAR LFPB 250500Z AUTO 01002KT CAVOK 05/03 Q1019 NOSIG
2026-04-25 04:30:00,METAR LFPB 250430Z AUTO 02002KT CAVOK 06/03 Q1019 NOSIG
2026-04-25 04:00:00,METAR LFPB 250400Z AUTO 02002KT CAVOK 06/03 Q1019 NOSIG
2026-04-25 03:30:00,METAR LFPB 250330Z AUTO 02002KT CAVOK 07/03 Q1019 NOSIG
2026-04-25 03:00:00,METAR LFPB 250300Z AUTO VRB03KT CAVOK 07/03 Q1019 NOSIG
2026-04-25 02:30:00,METAR LFPB 250230Z AUTO 01004KT CAVOK 09/03 Q1019 NOSIG
2026-04-25 02:00:00,METAR LFPB 250200Z AUTO 36004KT 320V040 CAVOK 09/03 Q1019 NOSIG
2026-04-25 01:30:00,METAR LFPB 250130Z AUTO 35003KT 310V020 CAVOK 09/03 Q1019 NOSIG
2026-04-25 01:00:00,METAR LFPB 250100Z AUTO 36007KT CAVOK 10/03 Q1020 NOSIG
2026-04-25 00:30:00,METAR LFPB 250030Z AUTO 35006KT CAVOK 10/03 Q1020 BECMG 05010KT
2026-04-25 00:00:00,METAR LFPB 250000Z AUTO 35004KT CAVOK 10/02 Q1020 BECMG 05010KT
2026-04-24 23:30:00,METAR LFPB 242330Z AUTO 36004KT CAVOK 11/02 Q1020 NOSIG
2026-04-24 23:00:00,METAR LFPB 242300Z AUTO 01003KT CAVOK 11/02 Q1020 NOSIG
2026-04-24 22:30:00,METAR LFPB 242230Z AUTO 01004KT CAVOK 12/02 Q1020 NOSIG
2026-04-24 22:00:00,METAR LFPB 242200Z AUTO 02003KT CAVOK 12/02 Q1020 NOSIG
2026-04-24 21:30:00,METAR LFPB 242130Z AUTO VRB02KT CAVOK 12/01 Q1020 NOSIG
2026-04-24 21:00:00,METAR LFPB 242100Z AUTO 01006KT CAVOK 14/01 Q1020 NOSIG
2026-04-24 20:30:00,METAR LFPB 242030Z AUTO 01005KT CAVOK 15/01 Q1020 NOSIG
2026-04-24 20:00:00,METAR LFPB 242000Z AUTO 02006KT CAVOK 16/00 Q1020 NOSIG
2026-04-24 19:30:00,METAR LFPB 241930Z AUTO 02007KT CAVOK 17/00 Q1019 NOSIG
2026-04-24 19:00:00,METAR LFPB 241900Z AUTO 04008KT CAVOK 18/01 Q1019 NOSIG
2026-04-24 18:30:00,METAR LFPB 241830Z AUTO 04007KT CAVOK 19/01 Q1019 NOSIG
2026-04-24 18:00:00,METAR LFPB 241800Z AUTO 06009KT CAVOK 20/M02 Q1019 NOSIG
2026-04-24 17:30:00,METAR LFPB 241730Z AUTO 06009KT CAVOK 21/M01 Q1019 NOSIG
2026-04-24 17:00:00,METAR LFPB 241700Z AUTO 05011KT CAVOK 21/M01 Q1019 NOSIG
2026-04-24 16:30:00,METAR LFPB 241630Z AUTO 06011KT CAVOK 22/M00 Q1020 NOSIG
2026-04-24 16:00:00,METAR LFPB 241600Z AUTO 05012KT CAVOK 22/M01 Q1020 NOSIG
2026-04-24 15:30:00,METAR LFPB 241530Z AUTO 06010KT 030V090 CAVOK 23/00 Q1020 NOSIG
2026-04-24 15:00:00,METAR LFPB 241500Z AUTO 06011KT 020V100 CAVOK 22/00 Q1020 NOSIG
2026-04-24 14:30:00,METAR LFPB 241430Z AUTO 06010KT 030V090 CAVOK 22/02 Q1020 NOSIG
2026-04-24 14:00:00,METAR LFPB 241400Z AUTO 07011KT 030V100 CAVOK 22/M01 Q1021 NOSIG
2026-04-24 13:30:00,METAR LFPB 241330Z AUTO 06010KT 010V110 CAVOK 22/M01 Q1021 NOSIG
2026-04-24 13:00:00,METAR LFPB 241300Z AUTO 04010KT 360V090 CAVOK 22/02 Q1021 NOSIG
2026-04-24 12:30:00,METAR LFPB 241230Z AUTO 03009KT 360V070 CAVOK 21/02 Q1021 NOSIG
2026-04-24 12:00:00,METAR LFPB 241200Z AUTO 05010KT CAVOK 20/02 Q1022 NOSIG
2026-04-24 11:30:00,METAR LFPB 241130Z AUTO 04010KT CAVOK 20/00 Q1022 NOSIG
2026-04-24 11:00:00,METAR LFPB 241100Z AUTO 05008KT 010V110 CAVOK 20/02 Q1022 NOSIG
2026-04-24 10:30:00,METAR LFPB 241030Z AUTO 04009KT 340V070 CAVOK 18/03 Q1023 NOSIG
2026-04-24 10:00:00,METAR LFPB 241000Z AUTO 01007KT 330V050 CAVOK 18/04 Q1023 NOSIG
2026-04-24 09:30:00,METAR LFPB 240930Z AUTO 04007KT 350V070 CAVOK 17/03 Q1023 NOSIG
2026-04-24 09:00:00,METAR LFPB 240900Z AUTO 04007KT CAVOK 16/03 Q1023 NOSIG
2026-04-24 08:30:00,METAR LFPB 240830Z AUTO 04008KT CAVOK 14/02 Q1023 NOSIG
2026-04-24 08:00:00,METAR LFPB 240800Z AUTO 04009KT CAVOK 14/02 Q1023 NOSIG
2026-04-24 07:30:00,METAR LFPB 240730Z AUTO 04006KT 360V070 CAVOK 13/02 Q1023 NOSIG
2026-04-24 07:00:00,METAR LFPB 240700Z AUTO 02005KT 340V040 CAVOK 11/02 Q1023 NOSIG
2026-04-24 06:30:00,METAR LFPB 240630Z AUTO 01007KT CAVOK 10/02 Q1023 NOSIG
2026-04-24 06:00:00,METAR LFPB 240600Z AUTO 36006KT CAVOK 09/02 Q1023 NOSIG
2026-04-24 05:30:00,METAR LFPB 240530Z AUTO 36004KT 330V030 CAVOK 08/02 Q1023 NOSIG
2026-04-24 05:00:00,METAR LFPB 240500Z AUTO 01003KT 330V040 CAVOK 07/02 Q1023 NOSIG
2026-04-24 04:30:00,METAR LFPB 240430Z AUTO VRB03KT CAVOK 07/01 Q1023 NOSIG
2026-04-24 04:00:00,METAR LFPB 240400Z AUTO 36003KT 330V040 CAVOK 07/02 Q1023 NOSIG
2026-04-24 03:30:00,METAR LFPB 240330Z AUTO 36006KT CAVOK 08/01 Q1023 NOSIG
2026-04-24 03:00:00,METAR LFPB 240300Z AUTO 36003KT CAVOK 08/01 Q1023 NOSIG
2026-04-24 02:30:00,METAR LFPB 240230Z AUTO 35003KT CAVOK 08/01 Q1023 NOSIG
2026-04-24 02:00:00,METAR LFPB 240200Z AUTO 36003KT CAVOK 09/01 Q1023 NOSIG
2026-04-24 01:30:00,METAR LFPB 240130Z AUTO 36004KT 330V030 CAVOK 09/01 Q1023 NOSIG
2026-04-24 01:00:00,METAR LFPB 240100Z AUTO VRB03KT CAVOK 10/01 Q1023 NOSIG
2026-04-24 00:30:00,METAR LFPB 240030Z AUTO 36003KT CAVOK 10/01 Q1023 NOSIG
2026-04-24 00:00:00,METAR LFPB 240000Z AUTO 36003KT CAVOK 11/01 Q1023 NOSIG
2026-04-23 23:30:00,METAR LFPB 232330Z AUTO 01004KT CAVOK 12/01 Q1024 NOSIG
2026-04-23 23:00:00,METAR LFPB 232300Z AUTO 02004KT CAVOK 13/01 Q1024 NOSIG
2026-04-23 22:30:00,METAR LFPB 232230Z AUTO 01004KT 340V050 CAVOK 13/01 Q1024 NOSIG
2026-04-23 22:00:00,METAR LFPB 232200Z AUTO 03005KT CAVOK 13/01 Q1024 NOSIG
2026-04-23 21:30:00,METAR LFPB 232130Z AUTO 02007KT CAVOK 14/02 Q1024 NOSIG
2026-04-23 21:00:00,METAR LFPB 232100Z AUTO 02007KT CAVOK 15/02 Q1024 NOSIG
2026-04-23 20:30:00,METAR LFPB 232030Z AUTO 02006KT CAVOK 15/03 Q1024 NOSIG
2026-04-23 20:00:00,METAR LFPB 232000Z AUTO 01006KT CAVOK 16/02 Q1024 NOSIG
2026-04-23 19:30:00,METAR LFPB 231930Z AUTO 02006KT CAVOK 17/01 Q1023 NOSIG
2026-04-23 19:00:00,METAR LFPB 231900Z AUTO 05007KT CAVOK 17/00 Q1023 NOSIG
2026-04-23 18:30:00,METAR LFPB 231830Z AUTO 06008KT CAVOK 17/01 Q1023 NOSIG
2026-04-23 18:00:00,METAR LFPB 231800Z AUTO 06010KT CAVOK 19/01 Q1023 NOSIG
2026-04-23 17:30:00,METAR LFPB 231730Z AUTO 05012KT CAVOK 21/M00 Q1023 NOSIG
2026-04-23 17:00:00,METAR LFPB 231700Z AUTO 06013KT CAVOK 21/00 Q1024 NOSIG
2026-04-23 16:30:00,METAR LFPB 231630Z AUTO 05013KT CAVOK 21/01 Q1024 NOSIG
2026-04-23 16:00:00,METAR LFPB 231600Z AUTO 06013KT CAVOK 21/01 Q1024 NOSIG
2026-04-23 15:30:00,METAR LFPB 231530Z AUTO 07013KT CAVOK 22/01 Q1024 NOSIG
2026-04-23 15:00:00,METAR LFPB 231500Z AUTO 04012KT 010V070 CAVOK 22/02 Q1024 NOSIG
2026-04-23 14:30:00,METAR LFPB 231430Z AUTO 05013KT 030V090 CAVOK 21/02 Q1025 NOSIG
2026-04-23 14:00:00,METAR LFPB 231400Z AUTO 05014KT CAVOK 21/02 Q1025 NOSIG
2026-04-23 13:30:00,METAR LFPB 231330Z AUTO 06014KT CAVOK 21/02 Q1025 NOSIG
2026-04-23 13:00:00,METAR LFPB 231300Z AUTO 04014KT 010V070 CAVOK 21/02 Q1025 NOSIG
2026-04-23 12:30:00,METAR LFPB 231230Z AUTO 05013KT 010V080 CAVOK 21/02 Q1026 NOSIG
2026-04-23 12:00:00,METAR LFPB 231200Z AUTO 06013KT 020V090 CAVOK 21/01 Q1026 NOSIG
2026-04-23 11:30:00,METAR LFPB 231130Z AUTO 07015KT CAVOK 20/01 Q1026 NOSIG
2026-04-23 11:00:00,METAR LFPB 231100Z AUTO 07013KT 040V100 CAVOK 19/03 Q1026 NOSIG
2026-04-23 10:30:00,METAR LFPB 231030Z AUTO 06013KT 040V100 CAVOK 19/03 Q1026 NOSIG
2026-04-23 10:00:00,METAR LFPB 231000Z AUTO 07013KT CAVOK 18/02 Q1026 NOSIG
2026-04-23 09:30:00,METAR LFPB 230930Z AUTO 07015KT CAVOK 17/02 Q1027 NOSIG
2026-04-23 09:00:00,METAR LFPB 230900Z AUTO 07011KT CAVOK 17/03 Q1027 NOSIG
2026-04-23 08:30:00,METAR LFPB 230830Z AUTO 07010KT CAVOK 16/02 Q1027 NOSIG
2026-04-23 08:00:00,METAR LFPB 230800Z AUTO 06010KT CAVOK 14/02 Q1027 NOSIG
2026-04-23 07:30:00,METAR LFPB 230730Z AUTO 06010KT CAVOK 13/02 Q1027 NOSIG
2026-04-23 07:00:00,METAR LFPB 230700Z AUTO 04007KT CAVOK 12/02 Q1027 NOSIG
2026-04-23 06:30:00,METAR LFPB 230630Z AUTO 03007KT CAVOK 10/01 Q1027 NOSIG
2026-04-23 06:00:00,METAR LFPB 230600Z AUTO 03006KT CAVOK 09/01 Q1026 NOSIG
2026-04-23 05:30:00,METAR LFPB 230530Z AUTO VRB01KT CAVOK 06/00 Q1026 NOSIG
2026-04-23 05:00:00,METAR LFPB 230500Z AUTO 03003KT 350V070 CAVOK 06/00 Q1026 NOSIG
2026-04-23 04:30:00,METAR LFPB 230430Z AUTO VRB02KT CAVOK 06/00 Q1025 NOSIG
2026-04-23 04:00:00,METAR LFPB 230400Z AUTO 36004KT CAVOK 06/00 Q1025 NOSIG
2026-04-23 03:30:00,METAR LFPB 230330Z AUTO 35004KT CAVOK 06/00 Q1025 NOSIG
2026-04-23 03:00:00,METAR LFPB 230300Z AUTO VRB03KT CAVOK 07/M00 Q1025 NOSIG
2026-04-23 02:30:00,METAR LFPB 230230Z AUTO 01004KT CAVOK 07/00 Q1025 NOSIG
2026-04-23 02:00:00,METAR LFPB 230200Z AUTO 02003KT CAVOK 08/00 Q1025 NOSIG
2026-04-23 01:30:00,METAR LFPB 230130Z AUTO 36003KT CAVOK 08/00 Q1025 NOSIG
2026-04-23 01:00:00,METAR LFPB 230100Z AUTO 03007KT CAVOK 09/00 Q1024 NOSIG
2026-04-23 00:30:00,METAR LFPB 230030Z AUTO 05007KT CAVOK 09/M00 Q1024 NOSIG
2026-04-23 00:00:00,METAR LFPB 230000Z AUTO 04007KT CAVOK 09/00 Q1024 NOSIG
2026-04-22 23:30:00,METAR LFPB 222330Z AUTO 05007KT CAVOK 09/00 Q1024 NOSIG
2026-04-22 23:00:00,METAR LFPB 222300Z AUTO 03004KT CAVOK 10/01 Q1024 BECMG 05015KT
2026-04-22 22:30:00,METAR LFPB 222230Z AUTO 03006KT CAVOK 10/01 Q1024 NOSIG
2026-04-22 22:00:00,METAR LFPB 222200Z AUTO 04006KT CAVOK 10/01 Q1024 NOSIG
2026-04-22 21:30:00,METAR LFPB 222130Z AUTO 04006KT CAVOK 11/01 Q1024 NOSIG
2026-04-22 21:00:00,METAR LFPB 222100Z AUTO 04006KT CAVOK 11/01 Q1023 NOSIG
2026-04-22 20:30:00,METAR LFPB 222030Z AUTO 05006KT CAVOK 11/01 Q1023 NOSIG
2026-04-22 20:00:00,METAR LFPB 222000Z AUTO 05008KT CAVOK 13/01 Q1023 NOSIG
2026-04-22 19:30:00,METAR LFPB 221930Z AUTO 04008KT CAVOK 14/01 Q1022 NOSIG
2026-04-22 19:00:00,METAR LFPB 221900Z AUTO 04008KT CAVOK 15/01 Q1022 NOSIG
2026-04-22 18:30:00,METAR LFPB 221830Z AUTO 04012KT CAVOK 16/01 Q1022 NOSIG
2026-04-22 18:00:00,METAR LFPB 221800Z AUTO 05011KT CAVOK 17/01 Q1021 NOSIG
2026-04-22 17:30:00,METAR LFPB 221730Z AUTO 05015KT CAVOK 18/M00 Q1021 NOSIG
2026-04-22 17:00:00,METAR LFPB 221700Z AUTO 05015KT CAVOK 18/01 Q1021 TEMPO 06015G25KT
2026-04-22 16:30:00,METAR LFPB 221630Z AUTO 05016KT CAVOK 18/01 Q1021 TEMPO 06015G25KT
2026-04-22 16:00:00,METAR LFPB 221600Z AUTO 06017KT CAVOK 19/01 Q1021 TEMPO 06015G25KT
2026-04-22 15:30:00,METAR LFPB 221530Z AUTO 05016KT CAVOK 19/01 Q1021 TEMPO 06015G25KT
2026-04-22 15:00:00,METAR LFPB 221500Z AUTO 05015KT CAVOK 19/02 Q1021 TEMPO 06015G25KT
2026-04-22 14:30:00,METAR LFPB 221430Z AUTO 05014KT 020V090 CAVOK 19/02 Q1021 TEMPO 06015G25KT
2026-04-22 14:00:00,METAR LFPB 221400Z AUTO 07015KT CAVOK 19/01 Q1021 TEMPO 06015G25KT
2026-04-22 13:30:00,METAR LFPB 221330Z AUTO 06015G27KT 030V110 CAVOK 18/02 Q1021 NOSIG
2026-04-22 13:00:00,METAR LFPB 221300Z AUTO 06015G26KT 020V090 CAVOK 18/02 Q1021 NOSIG
2026-04-22 12:30:00,METAR LFPB 221230Z AUTO 06017KT 030V090 CAVOK 17/02 Q1021 TEMPO 06015G25KT
2026-04-22 12:00:00,METAR LFPB 221200Z AUTO 07016KT 040V120 CAVOK 17/01 Q1021 TEMPO 06015G25KT
2026-04-22 11:30:00,METAR LFPB 221130Z AUTO 07018KT CAVOK 17/M01 Q1021 TEMPO 06015G25KT
2026-04-22 11:00:00,METAR LFPB 221100Z AUTO 07017KT 030V110 CAVOK 17/M01 Q1021 TEMPO 06015G25KT
2026-04-22 10:30:00,METAR LFPB 221030Z AUTO 08018KT 040V100 CAVOK 16/M01 Q1021 TEMPO 06015G25KT
2026-04-22 10:00:00,METAR LFPB 221000Z AUTO 06019KT CAVOK 15/02 Q1021 TEMPO 06015G25KT
2026-04-22 09:30:00,METAR LFPB 220930Z AUTO 06018KT CAVOK 14/01 Q1021 TEMPO 06015G25KT
2026-04-22 09:00:00,METAR LFPB 220900Z AUTO 06017KT CAVOK 14/01 Q1021 TEMPO 06015G25KT
2026-04-22 08:30:00,METAR LFPB 220830Z AUTO 06016KT CAVOK 13/02 Q1021 TEMPO 06015G25KT
2026-04-22 08:00:00,METAR LFPB 220800Z AUTO 06014KT CAVOK 12/02 Q1021 TEMPO 06015G25KT
2026-04-22 07:30:00,METAR LFPB 220730Z AUTO 05014KT CAVOK 10/01 Q1021 TEMPO 06015G25KT
2026-04-22 07:00:00,METAR LFPB 220700Z AUTO 05012KT CAVOK 09/01 Q1021 NOSIG
2026-04-22 06:30:00,METAR LFPB 220630Z AUTO 05009KT CAVOK 09/02 Q1021 NOSIG
2026-04-22 06:00:00,METAR LFPB 220600Z AUTO 04011KT CAVOK 08/01 Q1021 NOSIG
2026-04-22 05:30:00,METAR LFPB 220530Z AUTO 04010KT CAVOK 07/01 Q1021 NOSIG
2026-04-22 05:00:00,METAR LFPB 220500Z AUTO 04009KT CAVOK 06/01 Q1021 NOSIG
2026-04-22 04:30:00,METAR LFPB 220430Z AUTO 04010KT CAVOK 07/01 Q1020 NOSIG
2026-04-22 04:00:00,METAR LFPB 220400Z AUTO 05009KT CAVOK 07/01 Q1020 NOSIG
2026-04-22 03:30:00,METAR LFPB 220330Z AUTO 05009KT CAVOK 07/01 Q1020 NOSIG
2026-04-22 03:00:00,METAR LFPB 220300Z AUTO 05008KT CAVOK 07/02 Q1020 NOSIG
2026-04-22 02:30:00,METAR LFPB 220230Z AUTO 05011KT CAVOK 08/02 Q1020 NOSIG
2026-04-22 02:00:00,METAR LFPB 220200Z AUTO 06010KT CAVOK 07/02 Q1020 NOSIG
2026-04-22 01:30:00,METAR LFPB 220130Z AUTO 06011KT CAVOK 08/02 Q1020 NOSIG
2026-04-22 01:00:00,METAR LFPB 220100Z AUTO 05011KT CAVOK 09/03 Q1020 NOSIG
2026-04-22 00:30:00,METAR LFPB 220030Z AUTO 05011KT CAVOK 09/03 Q1020 NOSIG
2026-04-22 00:00:00,METAR LFPB 220000Z AUTO 05010KT CAVOK 09/03 Q1020 NOSIG
2026-04-21 23:30:00,METAR LFPB 212330Z AUTO 05009KT CAVOK 09/03 Q1021 NOSIG
2026-04-21 23:00:00,METAR LFPB 212300Z AUTO 05010KT CAVOK 10/02 Q1021 NOSIG
2026-04-21 22:30:00,METAR LFPB 212230Z AUTO 03008KT CAVOK 10/02 Q1021 NOSIG
2026-04-21 22:00:00,METAR LFPB 212200Z AUTO 03009KT CAVOK 11/02 Q1020 NOSIG
2026-04-21 21:30:00,METAR LFPB 212130Z AUTO 04008KT CAVOK 10/02 Q1020 NOSIG
2026-04-21 21:00:00,METAR LFPB 212100Z AUTO 04009KT CAVOK 11/02 Q1020 NOSIG
2026-04-21 20:30:00,METAR LFPB 212030Z AUTO 05008KT CAVOK 11/02 Q1020 NOSIG
2026-04-21 20:00:00,METAR LFPB 212000Z AUTO 05010KT CAVOK 12/02 Q1020 NOSIG
2026-04-21 19:30:00,METAR LFPB 211930Z AUTO 05010KT CAVOK 12/02 Q1020 NOSIG
2026-04-21 19:00:00,METAR LFPB 211900Z AUTO 04010KT CAVOK 13/02 Q1019 NOSIG
2026-04-21 18:30:00,METAR LFPB 211830Z AUTO 06009KT CAVOK 13/03 Q1019 NOSIG
2026-04-21 18:00:00,METAR LFPB 211800Z AUTO 07011KT CAVOK 14/03 Q1019 NOSIG
2026-04-21 17:30:00,METAR LFPB 211730Z AUTO 06016KT CAVOK 15/02 Q1019 NOSIG
2026-04-21 17:00:00,METAR LFPB 211700Z AUTO 06018KT CAVOK 15/02 Q1019 TEMPO 06015G25KT
2026-04-21 16:30:00,METAR LFPB 211630Z AUTO 07017KT CAVOK 15/03 Q1019 TEMPO 06015G25KT
2026-04-21 16:00:00,METAR LFPB 211600Z AUTO 06017KT CAVOK 15/03 Q1019 TEMPO 06015G25KT
2026-04-21 15:30:00,METAR LFPB 211530Z AUTO 06014KT 030V090 CAVOK 15/03 Q1019 TEMPO 06015G25KT
2026-04-21 15:00:00,METAR LFPB 211500Z AUTO 04014KT 9999 FEW048 BKN058 14/03 Q1019 TEMPO 06015G25KT
2026-04-21 14:30:00,METAR LFPB 211430Z AUTO 03014KT 9999 FEW046 OVC062 14/04 Q1020 TEMPO 06015G25KT
2026-04-21 14:00:00,METAR LFPB 211400Z AUTO 04014KT 9999 FEW002 OVC060 14/03 Q1020 TEMPO 06015G25KT
2026-04-21 13:30:00,METAR LFPB 211330Z AUTO 04012KT CAVOK 15/03 Q1020 TEMPO 06015G25KT
2026-04-21 13:00:00,METAR LFPB 211300Z AUTO 05012KT 010V080 CAVOK 15/02 Q1020 TEMPO 06015G25KT
2026-04-21 12:30:00,METAR LFPB 211230Z AUTO 04014KT 9999 FEW002 BKN062 14/02 Q1020 TEMPO 06015G25KT
2026-04-21 12:00:00,METAR LFPB 211200Z AUTO 04014KT 010V070 CAVOK 15/01 Q1020 TEMPO 06015G25KT
2026-04-21 11:30:00,METAR LFPB 211130Z AUTO 06014KT 040V100 CAVOK 15/01 Q1020 TEMPO 06015G25KT
2026-04-21 11:00:00,METAR LFPB 211100Z AUTO 04013KT 010V070 CAVOK 14/01 Q1020 TEMPO 06015G25KT
2026-04-21 10:30:00,METAR LFPB 211030Z AUTO 03012KT 350V070 CAVOK 14/01 Q1020 TEMPO 06015G25KT
2026-04-21 10:00:00,METAR LFPB 211000Z AUTO 05014KT 010V080 CAVOK 14/00 Q1021 NOSIG
2026-04-21 09:30:00,METAR LFPB 210930Z AUTO 05011KT 020V080 CAVOK 14/01 Q1021 NOSIG
2026-04-21 09:00:00,METAR LFPB 210900Z AUTO 04011KT CAVOK 13/02 Q1021 NOSIG
2026-04-21 08:30:00,METAR LFPB 210830Z AUTO 03009KT 350V060 CAVOK 12/03 Q1021 NOSIG
2026-04-21 08:00:00,METAR LFPB 210800Z AUTO 04006KT 010V090 CAVOK 11/04 Q1021 NOSIG
2026-04-21 07:30:00,METAR LFPB 210730Z AUTO 03009KT CAVOK 10/04 Q1021 NOSIG
2026-04-21 07:00:00,METAR LFPB 210700Z AUTO 02006KT 350V050 CAVOK 09/04 Q1021 NOSIG
2026-04-21 06:30:00,METAR LFPB 210630Z AUTO 02006KT 340V050 CAVOK 07/04 Q1021 NOSIG
2026-04-21 06:00:00,METAR LFPB 210600Z AUTO 02005KT 350V050 CAVOK 06/04 Q1021 NOSIG
2026-04-21 05:30:00,METAR LFPB 210530Z AUTO 36005KT 330V030 CAVOK 05/04 Q1021 NOSIG
2026-04-21 05:00:00,METAR LFPB 210500Z AUTO 36006KT CAVOK 05/03 Q1020 NOSIG
2026-04-21 04:30:00,METAR LFPB 210430Z AUTO 35005KT CAVOK 05/03 Q1020 NOSIG
2026-04-21 04:00:00,METAR LFPB 210400Z AUTO 35005KT CAVOK 05/03 Q1020 NOSIG
2026-04-21 03:30:00,METAR LFPB 210330Z AUTO 36007KT 330V030 CAVOK 06/04 Q1020 NOSIG
2026-04-21 03:00:00,METAR LFPB 210300Z AUTO 36007KT CAVOK 06/04 Q1020 NOSIG
2026-04-21 02:30:00,METAR LFPB 210230Z AUTO 36008KT CAVOK 06/04 Q1020 NOSIG
2026-04-21 02:00:00,METAR LFPB 210200Z AUTO 36007KT CAVOK 06/04 Q1021 NOSIG
2026-04-21 01:30:00,METAR LFPB 210130Z AUTO 36008KT CAVOK 07/04 Q1021 NOSIG
2026-04-21 01:00:00,METAR LFPB 210100Z AUTO 36006KT CAVOK 07/04 Q1021 NOSIG
2026-04-21 00:30:00,METAR LFPB 210030Z AUTO 36007KT CAVOK 07/04 Q1021 NOSIG
2026-04-21 00:00:00,METAR LFPB 210000Z AUTO 36007KT CAVOK 07/03 Q1021 NOSIG
2026-04-20 23:30:00,METAR LFPB 202330Z AUTO 01007KT CAVOK 08/03 Q1021 NOSIG
2026-04-20 23:00:00,METAR LFPB 202300Z AUTO 01007KT CAVOK 08/03 Q1021 NOSIG
2026-04-20 22:30:00,METAR LFPB 202230Z AUTO 01008KT CAVOK 09/03 Q1020 NOSIG
2026-04-20 22:00:00,METAR LFPB 202200Z AUTO 36007KT CAVOK 09/02 Q1020 NOSIG
2026-04-20 21:30:00,METAR LFPB 202130Z AUTO 01007KT 340V040 CAVOK 09/02 Q1020 NOSIG
2026-04-20 21:00:00,METAR LFPB 202100Z AUTO 02008KT CAVOK 10/02 Q1020 NOSIG
2026-04-20 20:30:00,METAR LFPB 202030Z AUTO 01006KT CAVOK 10/02 Q1020 NOSIG
2026-04-20 20:00:00,METAR LFPB 202000Z AUTO 01005KT CAVOK 11/01 Q1020 NOSIG
2026-04-20 19:30:00,METAR LFPB 201930Z AUTO 02006KT CAVOK 11/01 Q1020 NOSIG
2026-04-20 19:00:00,METAR LFPB 201900Z AUTO 02006KT CAVOK 12/01 Q1019 NOSIG
2026-04-20 18:30:00,METAR LFPB 201830Z AUTO 02008KT CAVOK 13/01 Q1019 NOSIG
2026-04-20 18:00:00,METAR LFPB 201800Z AUTO 03009KT CAVOK 13/01 Q1019 NOSIG
2026-04-20 17:30:00,METAR LFPB 201730Z AUTO 05011KT CAVOK 14/01 Q1019 NOSIG
2026-04-20 17:00:00,METAR LFPB 201700Z AUTO 04011KT CAVOK 14/01 Q1019 NOSIG
2026-04-20 16:30:00,METAR LFPB 201630Z AUTO 02010KT 340V070 CAVOK 15/01 Q1019 NOSIG
2026-04-20 16:00:00,METAR LFPB 201600Z AUTO 05009KT CAVOK 15/01 Q1019 NOSIG
2026-04-20 15:30:00,METAR LFPB 201530Z AUTO 03009KT 350V070 9999 FEW001 15/01 Q1019 NOSIG
2026-04-20 15:00:00,METAR LFPB 201500Z AUTO 07010KT 020V120 CAVOK 15/02 Q1019 TEMPO 04015G25KT
2026-04-20 14:30:00,METAR LFPB 201430Z AUTO 04010KT 360V070 CAVOK 15/02 Q1019 TEMPO 04015G25KT
2026-04-20 14:00:00,METAR LFPB 201400Z AUTO 05010KT 010V080 CAVOK 15/01 Q1019 TEMPO 04015G25KT
2026-04-20 13:30:00,METAR LFPB 201330Z AUTO 04010KT 350V090 CAVOK 15/02 Q1020 TEMPO 04015G25KT
2026-04-20 13:00:00,METAR LFPB 201300Z AUTO 01009KT 320V060 CAVOK 15/02 Q1020 TEMPO 04015G25KT
2026-04-20 12:30:00,METAR LFPB 201230Z AUTO 03009KT 350V060 CAVOK 15/03 Q1020 TEMPO 04015G25KT
2026-04-20 12:00:00,METAR LFPB 201200Z AUTO 02010KT 330V040 9999 SCT047 14/02 Q1020 TEMPO 04015G25KT
2026-04-20 11:30:00,METAR LFPB 201130Z AUTO 01008KT 300V060 9999 SCT046 14/02 Q1020 TEMPO 04015G25KT
2026-04-20 11:00:00,METAR LFPB 201100Z AUTO 01011KT 330V050 9999 BKN044 13/02 Q1020 NOSIG
2026-04-20 10:30:00,METAR LFPB 201030Z AUTO 03010KT 350V070 9999 BKN042 13/03 Q1020 NOSIG
2026-04-20 10:00:00,METAR LFPB 201000Z AUTO 04011KT 9999 BKN039 13/03 Q1020 NOSIG
2026-04-20 09:30:00,METAR LFPB 200930Z AUTO 02011KT 350V050 9999 FEW030 12/03 Q1021 NOSIG
2026-04-20 09:00:00,METAR LFPB 200900Z AUTO 02011KT 9999 FEW027 12/04 Q1021 NOSIG
2026-04-20 08:30:00,METAR LFPB 200830Z AUTO 02010KT 350V050 CAVOK 11/05 Q1021 NOSIG
2026-04-20 08:00:00,METAR LFPB 200800Z AUTO 02008KT 340V050 CAVOK 10/06 Q1021 NOSIG
2026-04-20 07:30:00,METAR LFPB 200730Z AUTO 01008KT 320V040 CAVOK 09/05 Q1021 NOSIG
2026-04-20 07:00:00,METAR LFPB 200700Z AUTO 36008KT CAVOK 08/06 Q1021 NOSIG
2026-04-20 06:30:00,METAR LFPB 200630Z AUTO 35006KT CAVOK 08/05 Q1021 NOSIG
2026-04-20 06:00:00,METAR LFPB 200600Z AUTO 35005KT 9000 NSC 07/06 Q1021 NOSIG
2026-04-20 05:30:00,METAR LFPB 200530Z AUTO 36006KT 330V030 CAVOK 07/05 Q1021 NOSIG
2026-04-20 05:00:00,METAR LFPB 200500Z AUTO 36005KT CAVOK 06/05 Q1021 NOSIG
2026-04-20 04:30:00,METAR LFPB 200430Z AUTO 35005KT 320V020 CAVOK 06/05 Q1021 NOSIG
2026-04-20 04:00:00,METAR LFPB 200400Z AUTO 35005KT 310V010 CAVOK 07/05 Q1021 NOSIG
2026-04-20 03:30:00,METAR LFPB 200330Z AUTO 36006KT 320V020 CAVOK 07/05 Q1021 NOSIG
2026-04-20 03:00:00,METAR LFPB 200300Z AUTO 36007KT 330V030 CAVOK 08/05 Q1021 NOSIG
2026-04-20 02:30:00,METAR LFPB 200230Z AUTO 36006KT 320V020 CAVOK 08/05 Q1021 NOSIG
2026-04-20 02:00:00,METAR LFPB 200200Z AUTO 36006KT 340V040 CAVOK 08/05 Q1021 NOSIG
2026-04-20 01:30:00,METAR LFPB 200130Z AUTO 35004KT 320V020 CAVOK 09/05 Q1022 NOSIG
2026-04-20 01:00:00,METAR LFPB 200100Z AUTO 36005KT 330V030 CAVOK 09/05 Q1022 NOSIG
2026-04-20 00:30:00,METAR LFPB 200030Z AUTO 01006KT 340V040 CAVOK 09/05 Q1022 NOSIG
2026-04-20 00:00:00,METAR LFPB 200000Z AUTO 36006KT CAVOK 10/05 Q1022 NOSIG
2026-04-19 23:30:00,METAR LFPB 192330Z AUTO 36008KT 330V030 CAVOK 10/05 Q1022 NOSIG
2026-04-19 23:00:00,METAR LFPB 192300Z AUTO 36007KT 330V030 CAVOK 10/05 Q1022 NOSIG
2026-04-19 22:30:00,METAR LFPB 192230Z AUTO 01008KT CAVOK 11/05 Q1022 NOSIG
2026-04-19 22:00:00,METAR LFPB 192200Z AUTO 36007KT CAVOK 11/05 Q1022 NOSIG
2026-04-19 21:30:00,METAR LFPB 192130Z AUTO 36008KT CAVOK 12/05 Q1022 NOSIG
2026-04-19 21:00:00,METAR LFPB 192100Z AUTO 36009KT CAVOK 12/05 Q1022 NOSIG
2026-04-19 20:30:00,METAR LFPB 192030Z AUTO 36009KT 330V030 CAVOK 12/05 Q1022 NOSIG
2026-04-19 20:00:00,METAR LFPB 192000Z AUTO 36009KT CAVOK 13/05 Q1022 NOSIG
2026-04-19 19:30:00,METAR LFPB 191930Z AUTO 36006KT CAVOK 14/05 Q1022 NOSIG
2026-04-19 19:00:00,METAR LFPB 191900Z AUTO 36004KT CAVOK 14/05 Q1021 NOSIG
2026-04-19 18:30:00,METAR LFPB 191830Z AUTO 01005KT CAVOK 15/05 Q1021 NOSIG
2026-04-19 18:00:00,METAR LFPB 191800Z AUTO 01008KT 330V050 CAVOK 16/04 Q1021 NOSIG
2026-04-19 17:30:00,METAR LFPB 191730Z AUTO 36005KT 320V040 CAVOK 17/05 Q1021 NOSIG
2026-04-19 17:00:00,METAR LFPB 191700Z AUTO 02004KT CAVOK 16/04 Q1021 NOSIG
2026-04-19 16:30:00,METAR LFPB 191630Z AUTO 01008KT 310V050 CAVOK 17/04 Q1022 NOSIG
2026-04-19 16:00:00,METAR LFPB 191600Z AUTO 02006KT 330V060 CAVOK 17/04 Q1022 NOSIG
2026-04-19 15:30:00,METAR LFPB 191530Z AUTO 33007KT 270V020 CAVOK 17/05 Q1022 NOSIG
2026-04-19 15:00:00,METAR LFPB 191500Z AUTO 02007KT 320V070 CAVOK 17/04 Q1022 NOSIG
2026-04-19 14:30:00,METAR LFPB 191430Z AUTO 02006KT 310V080 CAVOK 18/02 Q1022 NOSIG
2026-04-19 14:00:00,METAR LFPB 191400Z AUTO 36006KT 320V040 CAVOK 17/03 Q1023 NOSIG
2026-04-19 13:30:00,METAR LFPB 191330Z AUTO 04008KT 360V080 CAVOK 17/04 Q1023 NOSIG
2026-04-19 13:00:00,METAR LFPB 191300Z AUTO 36008KT 320V020 CAVOK 16/04 Q1023 NOSIG
2026-04-19 12:30:00,METAR LFPB 191230Z AUTO 35008KT 260V030 CAVOK 16/04 Q1023 NOSIG
2026-04-19 12:00:00,METAR LFPB 191200Z AUTO 36007KT 310V070 9999 SCT049 BKN056 16/06 Q1023 NOSIG
2026-04-19 11:30:00,METAR LFPB 191130Z AUTO 34006KT 290V020 9999 SCT045 BKN056 16/06 Q1024 NOSIG
2026-04-19 11:00:00,METAR LFPB 191100Z AUTO 35008KT 310V050 9999 FEW040 16/05 Q1024 NOSIG
2026-04-19 10:30:00,METAR LFPB 191030Z AUTO 35005KT 310V060 9999 FEW028 15/08 Q1024 NOSIG
2026-04-19 10:00:00,METAR LFPB 191000Z AUTO 33006KT 270V030 9999 FEW021 14/08 Q1024 NOSIG
2026-04-19 09:30:00,METAR LFPB 190930Z AUTO 35004KT 310V040 CAVOK 14/09 Q1024 NOSIG
2026-04-19 09:00:00,METAR LFPB 190900Z AUTO VRB03KT 9999 FEW014 13/08 Q1024 NOSIG
2026-04-19 08:30:00,METAR LFPB 190830Z AUTO VRB03KT 9999 FEW009 11/08 Q1024 NOSIG
2026-04-19 08:00:00,METAR LFPB 190800Z AUTO VRB02KT 9999 BKN007 09/08 Q1024 BECMG NSC
2026-04-19 07:30:00,METAR LFPB 190730Z AUTO 31003KT 240V350 9999 OVC004 08/07 Q1024 BECMG NSC
2026-04-19 07:00:00,METAR LFPB 190700Z AUTO 31003KT 250V010 8000 OVC003 07/07 Q1024 BECMG NSC
2026-04-19 06:30:00,METAR LFPB 190630Z AUTO 32004KT 270V360 4500 BR OVC003 07/06 Q1024 BECMG CAVOK
2026-04-19 06:00:00,METAR LFPB 190600Z AUTO 33004KT 280V010 7000 OVC003 07/07 Q1023 BECMG NSC
2026-04-19 05:30:00,METAR LFPB 190530Z AUTO VRB03KT 6000 OVC003 07/07 Q1023 TEMPO 0800 FG BECMG NSC
2026-04-19 05:00:00,METAR LFPB 190500Z AUTO VRB02KT 6000 OVC003 07/07 Q1023 TEMPO 0800 FG
2026-04-19 04:30:00,METAR LFPB 190430Z AUTO VRB02KT 9999 OVC004 07/07 Q1023 TEMPO 0800 FG
2026-04-19 04:00:00,METAR LFPB 190400Z AUTO 35004KT 310V030 9999 BKN005 07/06 Q1023 TEMPO 0800 FG
2026-04-19 03:30:00,METAR LFPB 190330Z AUTO 00000KT CAVOK 06/05 Q1023 TEMPO 0800 FG BKN003
2026-04-19 03:00:00,METAR LFPB 190300Z AUTO 33002KT CAVOK 07/05 Q1023 BECMG 4000 BR
2026-04-19 02:30:00,METAR LFPB 190230Z AUTO 31002KT CAVOK 07/06 Q1023 BECMG 4000 BR
2026-04-19 02:00:00,METAR LFPB 190200Z AUTO VRB01KT 9999 FEW044 07/05 Q1022 BECMG 4000 BR
2026-04-19 01:30:00,METAR LFPB 190130Z AUTO 35002KT CAVOK 07/05 Q1022 BECMG 4000 BR
2026-04-19 01:00:00,METAR LFPB 190100Z AUTO 32003KT 290V350 CAVOK 08/06 Q1022 BECMG 4000 BR
2026-04-19 00:30:00,METAR LFPB 190030Z AUTO 32004KT CAVOK 08/06 Q1022 BECMG 4000 BR
2026-04-19 00:00:00,METAR LFPB 190000Z AUTO 32004KT 300V360 CAVOK 09/06 Q1023 NOSIG
2026-04-18 23:30:00,METAR LFPB 182330Z AUTO 31005KT 260V340 CAVOK 09/06 Q1023 NOSIG
2026-04-18 23:00:00,METAR LFPB 182300Z AUTO 32006KT 280V340 CAVOK 10/05 Q1023 NOSIG
2026-04-18 22:30:00,METAR LFPB 182230Z AUTO 32007KT 270V340 9999 SCT045 11/05 Q1023 NOSIG
2026-04-18 22:00:00,METAR LFPB 182200Z AUTO 33011KT 300V360 9999 OVC045 11/06 Q1022 NOSIG
2026-04-18 21:30:00,METAR LFPB 182130Z AUTO 33007KT 280V360 9999 OVC045 12/05 Q1022 NOSIG
2026-04-18 21:00:00,METAR LFPB 182100Z AUTO 33006KT 9999 BKN045 BKN058 13/06 Q1022 NOSIG
2026-04-18 20:30:00,METAR LFPB 182030Z AUTO 33007KT 9999 SCT046 SCT060 BKN076 13/07 Q1022 NOSIG
2026-04-18 20:00:00,METAR LFPB 182000Z AUTO 33006KT 250V360 9999 SCT045 BKN056 13/08 Q1022 TEMPO 4000 -SHRA BKN025TCU
2026-04-18 19:30:00,METAR LFPB 181930Z AUTO 33010KT 9999 OVC041 14/08 Q1022 TEMPO 4000 -SHRA BKN025TCU
2026-04-18 19:00:00,METAR LFPB 181900Z AUTO 33010KT 9999 FEW024 OVC039 15/09 Q1021 TEMPO 4000 -SHRA BKN025TCU
2026-04-18 18:30:00,METAR LFPB 181830Z AUTO 32008KT 9999 FEW022 OVC037 15/10 Q1021 TEMPO 4000 -SHRA BKN025TCU
2026-04-18 18:00:00,METAR LFPB 181800Z AUTO 33009KT 280V360 9999 BKN036 BKN068 BKN078 15/11 Q1021 TEMPO 4000 -SHRA BKN025TCU
2026-04-18 17:30:00,METAR LFPB 181730Z AUTO 33012KT 300V360 9999 FEW020 BKN039 15/11 Q1021
2026-04-18 17:00:00,METAR LFPB 181700Z AUTO 33012KT 9999 BKN039 BKN049 16/11 Q1020
2026-04-18 16:30:00,METAR LFPB 181630Z AUTO 33010KT 280V350 9999 BKN040 BKN074 18/11 Q1020
2026-04-18 16:00:00,METAR LFPB 181600Z AUTO 32012KT 9999 FEW034 BKN041 19/11 Q1020
2026-04-18 15:00:00,METAR LFPB 181500Z AUTO 32012KT 290V350 CAVOK 20/12 Q1020
2026-04-18 14:30:00,METAR LFPB 181430Z AUTO 34010KT 310V010 9999 FEW044 BKN050 BKN062 21/11 Q1020
2026-04-18 14:00:00,METAR LFPB 181400Z AUTO 29006KT 220V360 CAVOK 22/10 Q1020
2026-04-18 13:30:00,METAR LFPB 181330Z AUTO 31006KT 230V360 CAVOK 22/10 Q1020
2026-04-18 13:00:00,METAR LFPB 181300Z AUTO 33005KT 290V030 CAVOK 22/09 Q1020
2026-04-18 12:30:00,METAR LFPB 181230Z AUTO 25006KT 200V300 CAVOK 21/08 Q1020
2026-04-18 12:00:00,METAR LFPB 181200Z AUTO 30005KT 210V010 CAVOK 22/09 Q1020
2026-04-18 11:30:00,METAR LFPB 181130Z AUTO 29005KT 240V320 CAVOK 21/09 Q1020
2026-04-18 11:00:00,METAR LFPB 181100Z AUTO 30005KT 260V340 CAVOK 21/09 Q1021
2026-04-18 10:30:00,METAR LFPB 181030Z AUTO VRB04KT CAVOK 21/09 Q1021
2026-04-18 10:00:00,METAR LFPB 181000Z AUTO 33004KT 260V010 CAVOK 20/09 Q1021
2026-04-18 09:30:00,METAR LFPB 180930Z AUTO 19004KT 130V240 CAVOK 20/09 Q1021
2026-04-18 09:00:00,METAR LFPB 180900Z AUTO 20005KT CAVOK 18/08 Q1021
2026-04-18 08:30:00,METAR LFPB 180830Z AUTO 18006KT CAVOK 18/08 Q1021
2026-04-18 08:00:00,METAR LFPB 180800Z AUTO VRB02KT CAVOK 17/09 Q1021
2026-04-18 07:30:00,METAR LFPB 180730Z AUTO VRB03KT 9999 2800 NSC 15/09 Q1021
2026-04-18 07:00:00,METAR LFPB 180700Z AUTO 11004KT CAVOK 14/09 Q1021
2026-04-18 06:30:00,METAR LFPB 180630Z AUTO 09004KT CAVOK 13/09 Q1021
2026-04-18 06:00:00,METAR LFPB 180600Z AUTO 07002KT CAVOK 11/08 Q1021
2026-04-18 05:30:00,METAR LFPB 180530Z AUTO 03002KT CAVOK 10/08 Q1021
2026-04-18 05:00:00,METAR LFPB 180500Z AUTO 04003KT CAVOK 11/08 Q1020
2026-04-18 04:30:00,METAR LFPB 180430Z AUTO VRB02KT CAVOK 11/08 Q1021
2026-04-18 04:00:00,METAR LFPB 180400Z AUTO VRB03KT CAVOK 11/08 Q1021
2026-04-18 03:30:00,METAR LFPB 180330Z AUTO 05004KT CAVOK 11/08 Q1020
2026-04-18 03:00:00,METAR LFPB 180300Z AUTO 03004KT CAVOK 11/08 Q1020
2026-04-18 02:30:00,METAR LFPB 180230Z AUTO 05004KT CAVOK 11/08 Q1021
2026-04-18 02:00:00,METAR LFPB 180200Z AUTO 03003KT CAVOK 12/08 Q1021
2026-04-18 01:30:00,METAR LFPB 180130Z AUTO VRB01KT CAVOK 12/08 Q1021
2026-04-18 01:00:00,METAR LFPB 180100Z AUTO 08002KT CAVOK 12/09 Q1021
2026-04-18 00:30:00,METAR LFPB 180030Z AUTO 08004KT CAVOK 14/09 Q1021
2026-04-18 00:00:00,METAR LFPB 180000Z AUTO 08003KT CAVOK 14/09 Q1021
2026-04-17 23:30:00,METAR LFPB 172330Z AUTO 06003KT CAVOK 15/10 Q1021
2026-04-17 23:00:00,METAR LFPB 172300Z AUTO 02002KT CAVOK 14/10 Q1021
2026-04-17 22:30:00,METAR LFPB 172230Z AUTO 35002KT CAVOK 14/10 Q1021
2026-04-17 22:00:00,METAR LFPB 172200Z AUTO 35003KT CAVOK 14/10 Q1021
2026-04-17 21:30:00,METAR LFPB 172130Z AUTO 35002KT CAVOK 14/10 Q1021
2026-04-17 21:00:00,METAR LFPB 172100Z AUTO 00000KT CAVOK 14/09 Q1021
2026-04-17 20:30:00,METAR LFPB 172030Z AUTO 02002KT CAVOK 15/09 Q1021
2026-04-17 20:00:00,METAR LFPB 172000Z AUTO 36003KT CAVOK 16/10 Q1021
2026-04-17 19:30:00,METAR LFPB 171930Z AUTO 36003KT CAVOK 17/10 Q1021
2026-04-17 19:00:00,METAR LFPB 171900Z AUTO 36003KT CAVOK 18/10 Q1021
2026-04-17 18:30:00,METAR LFPB 171830Z AUTO 01004KT CAVOK 19/10 Q1021
2026-04-17 18:00:00,METAR LFPB 171800Z AUTO 35004KT 320V020 CAVOK 19/09 Q1020
2026-04-17 17:30:00,METAR LFPB 171730Z AUTO 33003KT 280V350 CAVOK 20/09 Q1020
2026-04-17 17:00:00,METAR LFPB 171700Z AUTO 02003KT 340V050 CAVOK 20/08 Q1020
2026-04-17 16:30:00,METAR LFPB 171630Z AUTO 36004KT 310V040 CAVOK 20/08 Q1020
2026-04-17 16:00:00,METAR LFPB 171600Z AUTO VRB03KT CAVOK 20/07 Q1020
2026-04-17 15:30:00,METAR LFPB 171530Z AUTO 34004KT 280V050 CAVOK 20/08 Q1020
2026-04-17 15:00:00,METAR LFPB 171500Z AUTO VRB02KT CAVOK 21/07 Q1021
2026-04-17 14:30:00,METAR LFPB 171430Z AUTO 32003KT 260V030 CAVOK 21/07 Q1021
2026-04-17 14:00:00,METAR LFPB 171400Z AUTO 28004KT 250V310 CAVOK 20/06 Q1021
2026-04-17 13:30:00,METAR LFPB 171330Z AUTO 25005KT 190V310 CAVOK 21/07 Q1021
2026-04-17 13:00:00,METAR LFPB 171300Z AUTO 13004KT 050V190 CAVOK 21/07 Q1021
2026-04-17 12:30:00,METAR LFPB 171230Z AUTO 15005KT 090V230 CAVOK 21/08 Q1021
2026-04-17 12:00:00,METAR LFPB 171200Z AUTO VRB03KT CAVOK 21/07 Q1021
2026-04-17 11:30:00,METAR LFPB 171130Z AUTO VRB03KT CAVOK 20/07 Q1022
2026-04-17 11:00:00,METAR LFPB 171100Z AUTO VRB03KT CAVOK 20/07 Q1022
2026-04-17 10:30:00,METAR LFPB 171030Z AUTO VRB03KT CAVOK 20/08 Q1022
2026-04-17 10:00:00,METAR LFPB 171000Z AUTO 25004KT 190V290 CAVOK 18/07 Q1022
2026-04-17 09:30:00,METAR LFPB 170930Z AUTO VRB03KT CAVOK 18/07 Q1022
2026-04-17 09:00:00,METAR LFPB 170900Z AUTO VRB02KT CAVOK 18/07 Q1022
2026-04-17 08:30:00,METAR LFPB 170830Z AUTO VRB03KT CAVOK 17/08 Q1022
2026-04-17 08:00:00,METAR LFPB 170800Z AUTO VRB02KT CAVOK 16/08 Q1022
2026-04-17 07:30:00,METAR LFPB 170730Z AUTO VRB02KT CAVOK 15/08 Q1022
2026-04-17 07:00:00,METAR LFPB 170700Z AUTO VRB01KT CAVOK 13/08 Q1022
2026-04-17 06:30:00,METAR LFPB 170630Z AUTO 06003KT CAVOK 11/08 Q1022
2026-04-17 06:00:00,METAR LFPB 170600Z AUTO 05003KT CAVOK 09/07 Q1022
2026-04-17 05:30:00,METAR LFPB 170530Z AUTO 06003KT CAVOK 08/06 Q1022 NOSIG
2026-04-17 05:00:00,METAR LFPB 170500Z AUTO 04003KT CAVOK 08/06 Q1022 NOSIG
2026-04-17 04:30:00,METAR LFPB 170430Z AUTO 36003KT CAVOK 08/06 Q1022 NOSIG
2026-04-17 04:00:00,METAR LFPB 170400Z AUTO 02003KT CAVOK 08/06 Q1022 NOSIG
2026-04-17 03:30:00,METAR LFPB 170330Z AUTO 01002KT CAVOK 09/06 Q1022 NOSIG
2026-04-17 03:00:00,METAR LFPB 170300Z AUTO 03003KT CAVOK 09/06 Q1022 NOSIG
2026-04-17 02:30:00,METAR LFPB 170230Z AUTO 04003KT CAVOK 09/06 Q1022 NOSIG
2026-04-17 02:00:00,METAR LFPB 170200Z AUTO 04004KT CAVOK 10/07 Q1022 NOSIG
2026-04-17 01:30:00,METAR LFPB 170130Z AUTO 04004KT CAVOK 09/07 Q1022 NOSIG
2026-04-17 01:00:00,METAR LFPB 170100Z AUTO 03003KT CAVOK 10/07 Q1022 NOSIG
2026-04-17 00:30:00,METAR LFPB 170030Z AUTO 03003KT CAVOK 10/07 Q1022 NOSIG
2026-04-17 00:00:00,METAR LFPB 170000Z AUTO 01003KT CAVOK 10/07 Q1022 NOSIG
2026-04-16 23:30:00,METAR LFPB 162330Z AUTO 01002KT CAVOK 11/07 Q1022 NOSIG
2026-04-16 23:00:00,METAR LFPB 162300Z AUTO VRB03KT CAVOK 11/07 Q1022 NOSIG
2026-04-16 22:30:00,METAR LFPB 162230Z AUTO 04003KT CAVOK 11/07 Q1022 NOSIG
2026-04-16 22:00:00,METAR LFPB 162200Z AUTO 00000KT CAVOK 12/07 Q1022 NOSIG
2026-04-16 21:30:00,METAR LFPB 162130Z AUTO 32002KT CAVOK 12/07 Q1022 NOSIG
2026-04-16 21:00:00,METAR LFPB 162100Z AUTO VRB01KT CAVOK 13/07 Q1022 NOSIG
2026-04-16 20:30:00,METAR LFPB 162030Z AUTO VRB03KT CAVOK 14/06 Q1022 NOSIG
2026-04-16 20:00:00,METAR LFPB 162000Z AUTO 04005KT CAVOK 15/06 Q1022 NOSIG
2026-04-16 19:30:00,METAR LFPB 161930Z AUTO 05005KT CAVOK 15/06 Q1022 NOSIG
2026-04-16 19:00:00,METAR LFPB 161900Z AUTO 02004KT CAVOK 16/07 Q1022 NOSIG
2026-04-16 18:30:00,METAR LFPB 161830Z AUTO 02003KT CAVOK 17/05 Q1021 NOSIG
2026-04-16 18:00:00,METAR LFPB 161800Z AUTO 29004KT 240V330 CAVOK 18/06 Q1021
2026-04-16 17:30:00,METAR LFPB 161730Z AUTO 23004KT 140V270 CAVOK 19/06 Q1021
2026-04-16 17:00:00,METAR LFPB 161700Z AUTO VRB02KT CAVOK 19/05 Q1022
2026-04-16 16:30:00,METAR LFPB 161630Z AUTO 21004KT 170V270 CAVOK 19/05 Q1022
2026-04-16 16:00:00,METAR LFPB 161600Z AUTO VRB05KT CAVOK 19/06 Q1022
2026-04-16 15:30:00,METAR LFPB 161530Z AUTO VRB03KT CAVOK 18/05 Q1022
2026-04-16 15:00:00,METAR LFPB 161500Z AUTO 26004KT 220V340 CAVOK 18/05 Q1022
2026-04-16 14:30:00,METAR LFPB 161430Z AUTO VRB04KT CAVOK 19/05 Q1022
2026-04-16 14:00:00,METAR LFPB 161400Z AUTO 30006KT 260V340 CAVOK 19/06 Q1022
2026-04-16 13:30:00,METAR LFPB 161330Z AUTO VRB04KT CAVOK 18/06 Q1023
2026-04-16 13:00:00,METAR LFPB 161300Z AUTO 26005KT 180V320 CAVOK 18/06 Q1023
2026-04-16 12:30:00,METAR LFPB 161230Z AUTO 21007KT 170V260 9999 BKN049 BKN058 18/06 Q1023
2026-04-16 12:00:00,METAR LFPB 161200Z AUTO 23006KT 140V290 9999 BKN045 17/06 Q1023
2026-04-16 11:30:00,METAR LFPB 161130Z AUTO 21007KT 150V290 9999 BKN041 17/08 Q1023
2026-04-16 11:00:00,METAR LFPB 161100Z AUTO 24004KT 170V330 9999 BKN038 16/07 Q1023
2026-04-16 10:30:00,METAR LFPB 161030Z AUTO 26005KT 200V310 9999 SCT035 SCT041 16/08 Q1023
2026-04-16 10:00:00,METAR LFPB 161000Z AUTO VRB05KT 9999 SCT030 15/07 Q1023
2026-04-16 09:30:00,METAR LFPB 160930Z AUTO 24005KT 180V290 9999 SCT027 14/07 Q1023
2026-04-16 09:00:00,METAR LFPB 160900Z AUTO 24006KT 200V310 9999 BKN022 BKN240 14/08 Q1023
2026-04-16 08:30:00,METAR LFPB 160830Z AUTO 25006KT 220V290 9999 BKN017 BKN240 13/09 Q1023
2026-04-16 08:00:00,METAR LFPB 160800Z AUTO 24008KT 210V290 9999 OVC016 13/09 Q1023
2026-04-16 07:30:00,METAR LFPB 160730Z AUTO 24007KT 220V280 9999 SCT015 12/09 Q1023
2026-04-16 07:00:00,METAR LFPB 160700Z AUTO 23005KT 200V270 CAVOK 12/09 Q1023
2026-04-16 06:30:00,METAR LFPB 160630Z AUTO VRB03KT CAVOK 11/09 Q1023
2026-04-16 06:00:00,METAR LFPB 160600Z AUTO 24003KT CAVOK 10/09 Q1022
2026-04-16 05:30:00,METAR LFPB 160530Z AUTO 24004KT CAVOK 10/09 Q1022
2026-04-16 05:00:00,METAR LFPB 160500Z AUTO 23003KT CAVOK 10/09 Q1022
2026-04-16 04:30:00,METAR LFPB 160430Z AUTO 23004KT CAVOK 10/09 Q1022
2026-04-16 04:00:00,METAR LFPB 160400Z AUTO 23004KT CAVOK 10/09 Q1022
2026-04-16 03:30:00,METAR LFPB 160330Z AUTO 24006KT CAVOK 10/09 Q1022
2026-04-16 03:00:00,METAR LFPB 160300Z AUTO 24005KT 9999 FEW013 10/09 Q1022
2026-04-16 02:30:00,METAR LFPB 160230Z AUTO 25005KT CAVOK 11/09 Q1022
2026-04-16 02:00:00,METAR LFPB 160200Z AUTO 23006KT CAVOK 11/10 Q1021
2026-04-16 01:30:00,METAR LFPB 160130Z AUTO 24006KT CAVOK 12/10 Q1021
2026-04-16 01:00:00,METAR LFPB 160100Z AUTO 25007KT CAVOK 13/10 Q1021
2026-04-16 00:30:00,METAR LFPB 160030Z AUTO 23008KT 9999 FEW036 BKN076 13/10 Q1021
2026-04-16 00:00:00,METAR LFPB 160000Z AUTO 24006KT CAVOK 13/10 Q1021
2026-04-15 23:30:00,METAR LFPB 152330Z AUTO 23006KT CAVOK 14/10 Q1021
2026-04-15 23:00:00,METAR LFPB 152300Z AUTO 25006KT CAVOK 14/10 Q1021
2026-04-15 22:30:00,METAR LFPB 152230Z AUTO 25009KT 220V280 CAVOK 16/10 Q1021
2026-04-15 22:00:00,METAR LFPB 152200Z AUTO 25009KT 220V280 CAVOK 16/11 Q1020
2026-04-15 21:30:00,METAR LFPB 152130Z AUTO 23009KT CAVOK 16/11 Q1020
2026-04-15 21:00:00,METAR LFPB 152100Z AUTO 21008KT 9999 FEW038 OVC082 17/12 Q1020
2026-04-15 20:30:00,METAR LFPB 152030Z AUTO 20008KT 9999 FEW040 OVC080 17/12 Q1020
2026-04-15 20:00:00,METAR LFPB 152000Z AUTO 19007KT CAVOK 16/12 Q1020
2026-04-15 19:30:00,METAR LFPB 151930Z AUTO 19006KT CAVOK 16/11 Q1020
2026-04-15 19:00:00,METAR LFPB 151900Z AUTO 19007KT 9999 FEW034 SCT078 16/11 Q1019
2026-04-15 18:30:00,METAR LFPB 151830Z AUTO 21007KT CAVOK 17/11 Q1019
2026-04-15 18:00:00,METAR LFPB 151800Z AUTO 20009KT 9999 FEW035 SCT080 17/11 Q1019
2026-04-15 17:30:00,METAR LFPB 151730Z AUTO 19007KT 9999 FEW036 BKN078 18/11 Q1019
2026-04-15 17:00:00,METAR LFPB 151700Z AUTO 21007KT 9999 BKN036 BKN042 BKN078 18/11 Q1019
2026-04-15 16:30:00,METAR LFPB 151630Z AUTO 20008KT 160V230 9999 SCT034 BKN078 19/11 Q1019
2026-04-15 16:00:00,METAR LFPB 151600Z AUTO 20009KT 9999 FEW033 SCT084 18/11 Q1019
2026-04-15 15:30:00,METAR LFPB 151530Z AUTO 18009KT 150V210 9999 SCT034 BKN086 18/11 Q1019
2026-04-15 15:00:00,METAR LFPB 151500Z AUTO 21010KT 180V250 9999 BKN039 OVC078 18/10 Q1020
2026-04-15 14:30:00,METAR LFPB 151430Z AUTO 19011KT 9999 BKN042 BKN074 OVC086 18/08 Q1019
2026-04-15 14:00:00,METAR LFPB 151400Z AUTO 21013KT 9999 OVC045 18/08 Q1020
2026-04-15 13:30:00,METAR LFPB 151330Z AUTO 19012KT 9999 BKN044 OVC050 19/08 Q1020
2026-04-15 13:00:00,METAR LFPB 151300Z AUTO 16012KT 9999 BKN046 OVC052 18/06 Q1019
2026-04-15 12:30:00,METAR LFPB 151230Z AUTO 20012KT 9999 OVC046 18/06 Q1020
2026-04-15 12:00:00,METAR LFPB 151200Z AUTO 20012KT 9999 OVC045 17/05 Q1020
2026-04-15 11:30:00,METAR LFPB 151130Z AUTO 18014KT 140V220 9999 BKN046 OVC052 17/05 Q1020
2026-04-15 11:00:00,METAR LFPB 151100Z AUTO 17012KT CAVOK 18/05 Q1020
2026-04-15 10:30:00,METAR LFPB 151030Z AUTO 20013KT CAVOK 18/04 Q1020
2026-04-15 10:00:00,METAR LFPB 151000Z AUTO 17012KT CAVOK 17/04 Q1020
2026-04-15 09:30:00,METAR LFPB 150930Z AUTO 17013KT CAVOK 17/04 Q1021
2026-04-15 09:00:00,METAR LFPB 150900Z AUTO 17011KT CAVOK 16/05 Q1021
2026-04-15 08:30:00,METAR LFPB 150830Z AUTO 18008KT 140V210 CAVOK 15/05 Q1021
2026-04-15 08:00:00,METAR LFPB 150800Z AUTO 16008KT CAVOK 14/05 Q1021
2026-04-15 07:30:00,METAR LFPB 150730Z AUTO 13006KT CAVOK 13/06 Q1021
2026-04-15 07:00:00,METAR LFPB 150700Z AUTO 13005KT CAVOK 12/05 Q1021
2026-04-15 06:30:00,METAR LFPB 150630Z AUTO 12005KT CAVOK 10/05 Q1021
2026-04-15 06:00:00,METAR LFPB 150600Z AUTO 11005KT CAVOK 09/05 Q1021
2026-04-15 05:30:00,METAR LFPB 150530Z AUTO 10004KT CAVOK 07/04 Q1021 NOSIG
2026-04-15 05:00:00,METAR LFPB 150500Z AUTO 08004KT CAVOK 07/04 Q1021 NOSIG
2026-04-15 04:30:00,METAR LFPB 150430Z AUTO 08005KT CAVOK 06/03 Q1021 NOSIG
2026-04-15 04:00:00,METAR LFPB 150400Z AUTO 08004KT CAVOK 06/03 Q1021 NOSIG
2026-04-15 03:30:00,METAR LFPB 150330Z AUTO 08004KT CAVOK 06/03 Q1021 NOSIG
2026-04-15 03:00:00,METAR LFPB 150300Z AUTO VRB03KT CAVOK 07/03 Q1021 NOSIG
2026-04-15 02:30:00,METAR LFPB 150230Z AUTO 07005KT CAVOK 07/03 Q1021 NOSIG
2026-04-15 02:00:00,METAR LFPB 150200Z AUTO 03003KT CAVOK 07/03 Q1021 NOSIG
2026-04-15 01:30:00,METAR LFPB 150130Z AUTO 02003KT CAVOK 07/03 Q1021 NOSIG
2026-04-15 01:00:00,METAR LFPB 150100Z AUTO 05003KT CAVOK 08/03 Q1021 NOSIG
2026-04-15 00:30:00,METAR LFPB 150030Z AUTO VRB03KT CAVOK 09/03 Q1021 NOSIG
2026-04-15 00:00:00,METAR LFPB 150000Z AUTO 08003KT CAVOK 09/03 Q1021 NOSIG
2026-04-14 23:30:00,METAR LFPB 142330Z AUTO 10003KT CAVOK 10/03 Q1021 NOSIG
2026-04-14 23:00:00,METAR LFPB 142300Z AUTO 07002KT CAVOK 10/03 Q1022 NOSIG
2026-04-14 22:30:00,METAR LFPB 142230Z AUTO VRB02KT CAVOK 10/03 Q1022 NOSIG
2026-04-14 22:00:00,METAR LFPB 142200Z AUTO VRB02KT CAVOK 11/03 Q1022 NOSIG
2026-04-14 21:30:00,METAR LFPB 142130Z AUTO 12004KT CAVOK 11/03 Q1021 NOSIG
2026-04-14 21:00:00,METAR LFPB 142100Z AUTO 12005KT CAVOK 11/03 Q1022 NOSIG
2026-04-14 20:30:00,METAR LFPB 142030Z AUTO 13005KT CAVOK 13/02 Q1022 NOSIG
2026-04-14 20:00:00,METAR LFPB 142000Z AUTO VRB03KT CAVOK 13/01 Q1021 NOSIG
2026-04-14 19:30:00,METAR LFPB 141930Z AUTO 19004KT CAVOK 14/01 Q1021 NOSIG
2026-04-14 19:00:00,METAR LFPB 141900Z AUTO 19005KT CAVOK 14/01 Q1021 NOSIG
2026-04-14 18:30:00,METAR LFPB 141830Z AUTO 18006KT CAVOK 15/01 Q1020 NOSIG
2026-04-14 18:00:00,METAR LFPB 141800Z AUTO 18008KT CAVOK 16/00 Q1020 NOSIG
2026-04-14 17:30:00,METAR LFPB 141730Z AUTO 20006KT 160V240 CAVOK 17/01 Q1020 NOSIG
2026-04-14 17:00:00,METAR LFPB 141700Z AUTO 16007KT 130V230 CAVOK 17/01 Q1020 NOSIG
2026-04-14 16:30:00,METAR LFPB 141630Z AUTO 15006KT 110V180 CAVOK 17/02 Q1020 NOSIG
2026-04-14 16:00:00,METAR LFPB 141600Z AUTO 14006KT CAVOK 17/01 Q1020 NOSIG
2026-04-14 15:30:00,METAR LFPB 141530Z AUTO 13005KT 130V220 CAVOK 17/00 Q1020 NOSIG
2026-04-14 15:00:00,METAR LFPB 141500Z AUTO 21003KT 100V260 CAVOK 18/01 Q1020 NOSIG
2026-04-14 14:30:00,METAR LFPB 141430Z AUTO 18007KT 150V220 CAVOK 18/01 Q1020 NOSIG
2026-04-14 14:00:00,METAR LFPB 141400Z AUTO 13006KT 050V160 CAVOK 17/02 Q1020 NOSIG
2026-04-14 13:30:00,METAR LFPB 141330Z AUTO 11005KT 030V160 9999 FEW001 17/03 Q1020 NOSIG
2026-04-14 13:00:00,METAR LFPB 141300Z AUTO 15007KT 100V180 CAVOK 17/02 Q1021 NOSIG
2026-04-14 12:30:00,METAR LFPB 141230Z AUTO VRB04KT CAVOK 17/04 Q1021 NOSIG
2026-04-14 12:00:00,METAR LFPB 141200Z AUTO 14005KT 090V190 CAVOK 16/02 Q1021 NOSIG
2026-04-14 11:30:00,METAR LFPB 141130Z AUTO 12004KT 030V170 CAVOK 16/04 Q1021 NOSIG
2026-04-14 11:00:00,METAR LFPB 141100Z AUTO 15008KT 090V200 9999 FEW046 15/04 Q1021 NOSIG
2026-04-14 10:30:00,METAR LFPB 141030Z AUTO VRB03KT 9999 FEW038 15/05 Q1021 NOSIG
2026-04-14 10:00:00,METAR LFPB 141000Z AUTO 16005KT 100V220 9999 FEW033 14/05 Q1021 NOSIG
2026-04-14 09:30:00,METAR LFPB 140930Z AUTO 14004KT 100V180 CAVOK 14/06 Q1021 NOSIG
2026-04-14 09:00:00,METAR LFPB 140900Z AUTO 14004KT 100V180 CAVOK 13/07 Q1021 NOSIG
2026-04-14 08:30:00,METAR LFPB 140830Z AUTO VRB02KT CAVOK 12/07 Q1021 NOSIG
2026-04-14 08:00:00,METAR LFPB 140800Z AUTO VRB02KT CAVOK 11/07 Q1021 NOSIG
2026-04-14 07:30:00,METAR LFPB 140730Z AUTO VRB01KT CAVOK 09/07 Q1020 NOSIG
2026-04-14 07:00:00,METAR LFPB 140700Z AUTO VRB02KT CAVOK 07/06 Q1020 TEMPO 0600 FG
2026-04-14 06:30:00,METAR LFPB 140630Z AUTO 01002KT CAVOK 06/05 Q1020 TEMPO 0600 FG
2026-04-14 06:00:00,METAR LFPB 140600Z AUTO 35002KT CAVOK 04/03 Q1020 TEMPO 0600 FG
2026-04-14 05:30:00,METAR LFPB 140530Z AUTO 35003KT CAVOK 03/02 Q1019
2026-04-14 05:00:00,METAR LFPB 140500Z AUTO 36003KT CAVOK 03/02 Q1019
2026-04-14 04:30:00,METAR LFPB 140430Z AUTO 35003KT 8000 NSC 02/02 Q1019
2026-04-14 04:00:00,METAR LFPB 140400Z AUTO 00000KT CAVOK 03/03 Q1019
2026-04-14 03:30:00,METAR LFPB 140330Z AUTO VRB02KT CAVOK 03/02 Q1019
2026-04-14 03:00:00,METAR LFPB 140300Z AUTO 36002KT CAVOK 03/03 Q1018
2026-04-14 02:30:00,METAR LFPB 140230Z AUTO 35002KT CAVOK 03/03 Q1018
2026-04-14 02:00:00,METAR LFPB 140200Z AUTO 36002KT 8000 NSC 04/03 Q1018
2026-04-14 01:30:00,METAR LFPB 140130Z AUTO 32002KT 5000 BR NSC 04/04 Q1018
2026-04-14 01:00:00,METAR LFPB 140100Z AUTO 34002KT 9999 4800 NSC 04/03 Q1018
2026-04-14 00:30:00,METAR LFPB 140030Z AUTO 36002KT CAVOK 05/04 Q1018
2026-04-14 00:00:00,METAR LFPB 140000Z AUTO 35002KT 5000 BR NSC 05/04 Q1018
2026-04-13 23:30:00,METAR LFPB 132330Z AUTO 34002KT 7000 NSC 06/05 Q1017
2026-04-13 23:00:00,METAR LFPB 132300Z AUTO 00000KT CAVOK 06/05 Q1017
2026-04-13 22:30:00,METAR LFPB 132230Z AUTO 00000KT CAVOK 07/06 Q1017
2026-04-13 22:00:00,METAR LFPB 132200Z AUTO 32003KT CAVOK 07/06 Q1017
2026-04-13 21:30:00,METAR LFPB 132130Z AUTO 03002KT CAVOK 07/06 Q1016
2026-04-13 21:00:00,METAR LFPB 132100Z AUTO VRB02KT CAVOK 08/06 Q1016
2026-04-13 20:30:00,METAR LFPB 132030Z AUTO 26003KT CAVOK 08/06 Q1016
2026-04-13 20:00:00,METAR LFPB 132000Z AUTO 25003KT CAVOK 08/06 Q1016
2026-04-13 19:30:00,METAR LFPB 131930Z AUTO 27002KT CAVOK 09/06 Q1016
2026-04-13 19:00:00,METAR LFPB 131900Z AUTO 32003KT CAVOK 09/06 Q1015
2026-04-13 18:30:00,METAR LFPB 131830Z AUTO VRB03KT CAVOK 10/06 Q1015
2026-04-13 18:00:00,METAR LFPB 131800Z AUTO 30004KT 260V330 CAVOK 11/06 Q1015
2026-04-13 17:30:00,METAR LFPB 131730Z AUTO VRB03KT 9999 FEW047 BKN054 BKN064 11/06 Q1014
2026-04-13 17:00:00,METAR LFPB 131700Z AUTO 34005KT 310V010 9999 -RADZ NSC 11/06 Q1014
2026-04-13 16:30:00,METAR LFPB 131630Z AUTO 30005KT 260V340 9999 ///TCU 11/05 Q1014
2026-04-13 16:00:00,METAR LFPB 131600Z AUTO 27010KT 240V300 9999 ///TCU 11/05 Q1014
2026-04-13 15:30:00,METAR LFPB 131530Z AUTO 28010KT 240V330 9999 ///TCU 11/05 Q1014
2026-04-13 15:00:00,METAR LFPB 131500Z AUTO 25010KT 210V300 9999 FEW043/// BKN064/// BKN120/// ///TCU 13/05 Q1013
2026-04-13 14:30:00,METAR LFPB 131430Z AUTO 24009KT 190V280 9999 BKN042/// BKN054/// OVC064/// ///TCU 14/05 Q1013
2026-04-13 14:00:00,METAR LFPB 131400Z AUTO VRB02KT 9999 BKN040 BKN047 BKN054 14/06 Q1013
2026-04-13 13:30:00,METAR LFPB 131330Z AUTO VRB03KT 9999 FEW036 BKN050 OVC076 13/05 Q1013
2026-04-13 13:00:00,METAR LFPB 131300Z AUTO 25004KT 200V290 9999 FEW035 SCT042 OVC054 13/05 Q1013
2026-04-13 12:30:00,METAR LFPB 131230Z AUTO 25007KT 220V300 9999 BKN033 BKN042 OVC052 12/05 Q1013
2026-04-13 12:00:00,METAR LFPB 131200Z AUTO 26007KT 220V300 9999 SCT042 BKN058 OVC094 13/05 Q1013
2026-04-13 11:30:00,METAR LFPB 131130Z AUTO 25004KT 170V310 9999 FEW042 BKN098 BKN160 14/03 Q1013
2026-04-13 11:00:00,METAR LFPB 131100Z AUTO 16004KT 110V230 9999 SCT037/// SCT046/// BKN094/// ///TCU 14/04 Q1013
2026-04-13 10:30:00,METAR LFPB 131030Z AUTO VRB03KT CAVOK 14/05 Q1013
2026-04-13 10:00:00,METAR LFPB 131000Z AUTO VRB02KT CAVOK 13/06 Q1013
2026-04-13 09:30:00,METAR LFPB 130930Z AUTO VRB02KT CAVOK 11/06 Q1013
2026-04-13 09:00:00,METAR LFPB 130900Z AUTO 00000KT CAVOK 11/05 Q1013 NOSIG
2026-04-13 08:30:00,METAR LFPB 130830Z AUTO VRB02KT CAVOK 11/06 Q1013 NOSIG
2026-04-13 08:00:00,METAR LFPB 130800Z AUTO VRB01KT CAVOK 10/06 Q1013 NOSIG
2026-04-13 07:30:00,METAR LFPB 130730Z AUTO 00000KT CAVOK 09/05 Q1013 NOSIG
2026-04-13 07:00:00,METAR LFPB 130700Z AUTO VRB02KT CAVOK 08/05 Q1013 NOSIG
2026-04-13 06:30:00,METAR LFPB 130630Z AUTO VRB02KT CAVOK 07/05 Q1013 NOSIG
2026-04-13 06:00:00,METAR LFPB 130600Z AUTO 05002KT CAVOK 07/05 Q1013 NOSIG
2026-04-13 05:30:00,METAR LFPB 130530Z AUTO 01002KT CAVOK 07/05 Q1013 NOSIG
2026-04-13 05:00:00,METAR LFPB 130500Z AUTO 35003KT CAVOK 07/05 Q1013 NOSIG
2026-04-13 04:30:00,METAR LFPB 130430Z AUTO 36003KT CAVOK 07/05 Q1013 NOSIG
2026-04-13 04:00:00,METAR LFPB 130400Z AUTO 33003KT CAVOK 07/05 Q1013 NOSIG
2026-04-13 03:30:00,METAR LFPB 130330Z AUTO VRB02KT CAVOK 07/05 Q1013 NOSIG
2026-04-13 03:00:00,METAR LFPB 130300Z AUTO 03002KT CAVOK 07/05 Q1013 NOSIG
2026-04-13 02:30:00,METAR LFPB 130230Z AUTO 04004KT CAVOK 07/04 Q1013 NOSIG
2026-04-13 02:00:00,METAR LFPB 130200Z AUTO 01003KT CAVOK 07/05 Q1013 NOSIG
2026-04-13 01:30:00,METAR LFPB 130130Z AUTO 01003KT CAVOK 07/05 Q1013 NOSIG
2026-04-13 01:00:00,METAR LFPB 130100Z AUTO 03003KT CAVOK 07/05 Q1013 NOSIG
2026-04-13 00:30:00,METAR LFPB 130030Z AUTO 05003KT CAVOK 07/05 Q1013 NOSIG
2026-04-13 00:00:00,METAR LFPB 130000Z AUTO VRB02KT CAVOK 07/05 Q1014 NOSIG
2026-04-12 23:30:00,METAR LFPB 122330Z AUTO 05002KT CAVOK 07/05 Q1014 NOSIG
2026-04-12 23:00:00,METAR LFPB 122300Z AUTO VRB03KT CAVOK 08/05 Q1014 NOSIG
2026-04-12 22:30:00,METAR LFPB 122230Z AUTO 36002KT CAVOK 08/05 Q1014 NOSIG
2026-04-12 22:00:00,METAR LFPB 122200Z AUTO 27001KT 9999 FEW045 BKN210 09/05 Q1014 NOSIG
2026-04-12 21:30:00,METAR LFPB 122130Z AUTO 32001KT CAVOK 10/05 Q1014 NOSIG
2026-04-12 21:00:00,METAR LFPB 122100Z AUTO 10003KT CAVOK 09/05 Q1014 NOSIG
2026-04-12 20:30:00,METAR LFPB 122030Z AUTO 25004KT CAVOK 10/05 Q1014 NOSIG
2026-04-12 20:00:00,METAR LFPB 122000Z AUTO 25006KT CAVOK 11/05 Q1014 NOSIG
2026-04-12 19:30:00,METAR LFPB 121930Z AUTO 25006KT 220V280 CAVOK 12/06 Q1014 NOSIG
2026-04-12 19:00:00,METAR LFPB 121900Z AUTO 17007KT CAVOK 12/03 Q1014 NOSIG
2026-04-12 18:30:00,METAR LFPB 121830Z AUTO 18008KT CAVOK 12/04 Q1014 NOSIG
2026-04-12 18:00:00,METAR LFPB 121800Z AUTO 16009KT CAVOK 13/04 Q1014 NOSIG
2026-04-12 17:30:00,METAR LFPB 121730Z AUTO 16009KT CAVOK 13/03 Q1014
2026-04-12 17:00:00,METAR LFPB 121700Z AUTO 16009KT 9999 FEW049 BKN056 BKN066 13/03 Q1014
2026-04-12 16:30:00,METAR LFPB 121630Z AUTO 15009KT 120V180 CAVOK 14/03 Q1014
2026-04-12 16:00:00,METAR LFPB 121600Z AUTO 17009KT CAVOK 14/04 Q1014
2026-04-12 15:00:00,METAR LFPB 121500Z AUTO 18007KT 150V220 9999 FEW047 BKN058 BKN230 14/04 Q1014
2026-04-12 14:30:00,METAR LFPB 121430Z AUTO 17008KT 120V240 9999 FEW001 SCT047 BKN058 14/04 Q1014
2026-04-12 14:00:00,METAR LFPB 121400Z AUTO 17005KT 120V220 9999 SCT045 BKN056 BKN210 14/04 Q1015
2026-04-12 13:30:00,METAR LFPB 121330Z AUTO 20007KT 140V240 9999 BKN043 BKN054 BKN066 14/05 Q1015
2026-04-12 13:00:00,METAR LFPB 121300Z AUTO 22005KT 180V250 9999 SCT041 BKN050 BKN230 13/04 Q1015
2026-04-12 12:30:00,METAR LFPB 121230Z AUTO 17006KT 130V230 9999 SCT041 BKN230 13/05 Q1015
2026-04-12 12:00:00,METAR LFPB 121200Z AUTO 18009KT 150V220 9999 SCT039 BKN240 13/05 Q1016
2026-04-12 11:30:00,METAR LFPB 121130Z AUTO 20008KT 170V270 9999 BKN037 BKN230 13/05 Q1016
2026-04-12 11:00:00,METAR LFPB 121100Z AUTO 20008KT 160V260 9999 BKN035 BKN230 12/05 Q1016
2026-04-12 10:30:00,METAR LFPB 121030Z AUTO 20008KT 160V240 9999 SCT033 BKN039 BKN240 12/04 Q1016
2026-04-12 10:00:00,METAR LFPB 121000Z AUTO 21009KT 9999 FEW031 SCT230 11/05 Q1017
2026-04-12 09:30:00,METAR LFPB 120930Z AUTO 19008KT CAVOK 11/05 Q1017
2026-04-12 09:00:00,METAR LFPB 120900Z AUTO 22004KT 180V240 CAVOK 10/05 Q1017
2026-04-12 08:30:00,METAR LFPB 120830Z AUTO VRB03KT CAVOK 10/05 Q1017
2026-04-12 08:00:00,METAR LFPB 120800Z AUTO VRB01KT CAVOK 09/05 Q1017
2026-04-12 07:30:00,METAR LFPB 120730Z AUTO 16004KT CAVOK 08/05 Q1017
2026-04-12 07:00:00,METAR LFPB 120700Z AUTO 15006KT CAVOK 07/05 Q1017
2026-04-12 06:30:00,METAR LFPB 120630Z AUTO 15005KT CAVOK 06/04 Q1017
2026-04-12 06:00:00,METAR LFPB 120600Z AUTO 16003KT CAVOK 05/03 Q1017 NOSIG
2026-04-12 05:30:00,METAR LFPB 120530Z AUTO 16002KT CAVOK 05/03 Q1016 NOSIG
2026-04-12 05:00:00,METAR LFPB 120500Z AUTO 20003KT CAVOK 06/04 Q1016 NOSIG
2026-04-12 04:30:00,METAR LFPB 120430Z AUTO 20004KT CAVOK 06/04 Q1016 NOSIG
2026-04-12 04:00:00,METAR LFPB 120400Z AUTO 20002KT CAVOK 06/04 Q1016 NOSIG
2026-04-12 03:30:00,METAR LFPB 120330Z AUTO 17002KT CAVOK 06/05 Q1016 NOSIG
2026-04-12 03:00:00,METAR LFPB 120300Z AUTO 16004KT CAVOK 07/05 Q1016 NOSIG
2026-04-12 02:30:00,METAR LFPB 120230Z AUTO 18003KT CAVOK 07/06 Q1016 NOSIG
2026-04-12 02:00:00,METAR LFPB 120200Z AUTO VRB02KT CAVOK 07/06 Q1016 NOSIG
2026-04-12 01:30:00,METAR LFPB 120130Z AUTO VRB02KT CAVOK 07/06 Q1016 NOSIG
2026-04-12 01:00:00,METAR LFPB 120100Z AUTO 11003KT CAVOK 07/06 Q1016 NOSIG
2026-04-12 00:30:00,METAR LFPB 120030Z AUTO 13002KT CAVOK 08/06 Q1016 NOSIG
2026-04-12 00:00:00,METAR LFPB 120000Z AUTO VRB01KT CAVOK 08/06 Q1016 NOSIG
2026-04-11 23:30:00,METAR LFPB 112330Z AUTO 22003KT CAVOK 08/06 Q1016 NOSIG
2026-04-11 23:00:00,METAR LFPB 112300Z AUTO 00000KT CAVOK 08/05 Q1016 NOSIG
2026-04-11 22:30:00,METAR LFPB 112230Z AUTO 20004KT CAVOK 08/06 Q1016 NOSIG
2026-04-11 22:00:00,METAR LFPB 112200Z AUTO 18005KT 150V210 CAVOK 08/06 Q1016 NOSIG
2026-04-11 21:30:00,METAR LFPB 112130Z AUTO 16006KT CAVOK 08/06 Q1016 NOSIG
2026-04-11 21:00:00,METAR LFPB 112100Z AUTO 19004KT CAVOK 08/06 Q1016 NOSIG
2026-04-11 20:30:00,METAR LFPB 112030Z AUTO 21005KT CAVOK 08/05 Q1016 NOSIG
2026-04-11 20:00:00,METAR LFPB 112000Z AUTO 22004KT CAVOK 08/05 Q1015 NOSIG
2026-04-11 19:30:00,METAR LFPB 111930Z AUTO 22004KT CAVOK 08/06 Q1015 NOSIG
2026-04-11 19:00:00,METAR LFPB 111900Z AUTO 20003KT CAVOK 09/06 Q1015 NOSIG
2026-04-11 18:30:00,METAR LFPB 111830Z AUTO 17003KT CAVOK 09/06 Q1014 NOSIG
2026-04-11 18:00:00,METAR LFPB 111800Z AUTO 21003KT CAVOK 09/06 Q1014 NOSIG
2026-04-11 17:30:00,METAR LFPB 111730Z AUTO VRB02KT CAVOK 09/06 Q1014
2026-04-11 17:00:00,METAR LFPB 111700Z AUTO 31005KT 240V350 9999 FEW017/// SCT041/// OVC050/// ///TCU 08/06 Q1013
2026-04-11 16:30:00,METAR LFPB 111630Z AUTO 30007KT 260V340 8000 DZ BKN016/// BKN023/// BKN031/// ///TCU 08/07 Q1013
2026-04-11 16:00:00,METAR LFPB 111600Z AUTO 29009KT 260V330 9999 -RA BKN017 BKN027 OVC042 09/07 Q1013
2026-04-11 15:30:00,METAR LFPB 111530Z AUTO 28011KT 9999 -RA BKN020/// OVC034/// ///TCU 09/06 Q1012
2026-04-11 15:00:00,METAR LFPB 111500Z AUTO 29009KT 250V330 9999 BKN017 BKN023 OVC029 10/07 Q1012
2026-04-11 14:30:00,METAR LFPB 111430Z AUTO 28012KT 250V310 9999 BKN016 BKN021 OVC026 11/07 Q1011
2026-04-11 14:00:00,METAR LFPB 111400Z AUTO 29013KT 270V330 9999 BKN018 BKN028 OVC036 12/08 Q1010
2026-04-11 13:30:00,METAR LFPB 111330Z AUTO 27009KT 9999 BKN026 OVC036 15/11 Q1009
2026-04-11 13:00:00,METAR LFPB 111300Z AUTO 26012KT 230V300 9999 BKN021 BKN033 BKN062 15/10 Q1009
2026-04-11 12:30:00,METAR LFPB 111230Z AUTO 24011KT 9999 -RA SCT019 BKN028 BKN034 15/11 Q1009
2026-04-11 12:00:00,METAR LFPB 111200Z AUTO 25007KT 220V290 9999 SCT020 BKN035 OVC100 16/12 Q1008
2026-04-11 11:30:00,METAR LFPB 111130Z AUTO 23011KT 200V270 9999 -RADZ BKN022 BKN028 OVC033 15/12 Q1009
2026-04-11 11:00:00,METAR LFPB 111100Z AUTO 21012KT 9999 -RA BKN023/// OVC031/// ///TCU 15/12 Q1008
2026-04-11 10:30:00,METAR LFPB 111030Z AUTO 20006KT 9999 -RA BKN022/// OVC028/// ///TCU 16/11 Q1007
2026-04-11 10:00:00,METAR LFPB 111000Z AUTO 23008KT 200V280 9999 BKN022/// BKN120/// ///TCU 16/11 Q1007
2026-04-11 09:30:00,METAR LFPB 110930Z AUTO 15008KT 9999 FEW019 BKN130 16/10 Q1006
2026-04-11 09:00:00,METAR LFPB 110900Z AUTO 17008KT 150V210 CAVOK 15/10 Q1007
2026-04-11 08:30:00,METAR LFPB 110830Z AUTO 18009KT CAVOK 15/09 Q1007
2026-04-11 08:00:00,METAR LFPB 110800Z AUTO 16010KT CAVOK 14/09 Q1007
2026-04-11 07:30:00,METAR LFPB 110730Z AUTO 16008KT CAVOK 14/09 Q1007
2026-04-11 07:00:00,METAR LFPB 110700Z AUTO 13006KT 090V160 CAVOK 14/09 Q1007
2026-04-11 06:30:00,METAR LFPB 110630Z AUTO 12006KT CAVOK 12/08 Q1007
2026-04-11 06:00:00,METAR LFPB 110600Z AUTO 12005KT CAVOK 10/07 Q1007
2026-04-11 05:30:00,METAR LFPB 110530Z AUTO 06004KT CAVOK 10/06 Q1007 NOSIG
2026-04-11 05:00:00,METAR LFPB 110500Z AUTO 08004KT CAVOK 10/06 Q1008 NOSIG
2026-04-11 04:30:00,METAR LFPB 110430Z AUTO 11005KT CAVOK 11/06 Q1008 NOSIG
2026-04-11 04:00:00,METAR LFPB 110400Z AUTO 11005KT CAVOK 11/06 Q1009 NOSIG
2026-04-11 03:30:00,METAR LFPB 110330Z AUTO 10004KT CAVOK 10/06 Q1009 NOSIG
2026-04-11 03:00:00,METAR LFPB 110300Z AUTO 10003KT CAVOK 09/05 Q1010 NOSIG
2026-04-11 02:30:00,METAR LFPB 110230Z AUTO 10004KT CAVOK 10/05 Q1010 NOSIG
2026-04-11 02:00:00,METAR LFPB 110200Z AUTO 10003KT 060V140 CAVOK 10/05 Q1010 NOSIG
2026-04-11 01:30:00,METAR LFPB 110130Z AUTO 09004KT CAVOK 10/05 Q1010 NOSIG
2026-04-11 01:00:00,METAR LFPB 110100Z AUTO 11005KT CAVOK 11/05 Q1011 NOSIG
2026-04-11 00:30:00,METAR LFPB 110030Z AUTO 10004KT 070V140 CAVOK 10/04 Q1012 NOSIG
2026-04-11 00:00:00,METAR LFPB 110000Z AUTO 11006KT CAVOK 11/04 Q1012 NOSIG
2026-04-10 23:30:00,METAR LFPB 102330Z AUTO 12007KT CAVOK 11/04 Q1012 NOSIG
2026-04-10 23:00:00,METAR LFPB 102300Z AUTO 12008KT CAVOK 12/04 Q1013 NOSIG
2026-04-10 22:30:00,METAR LFPB 102230Z AUTO 11007KT CAVOK 12/03 Q1013 NOSIG
2026-04-10 22:00:00,METAR LFPB 102200Z AUTO 10006KT 070V130 CAVOK 11/03 Q1014 NOSIG
2026-04-10 21:30:00,METAR LFPB 102130Z AUTO 08005KT CAVOK 11/04 Q1014 NOSIG
2026-04-10 21:00:00,METAR LFPB 102100Z AUTO 08007KT CAVOK 11/04 Q1014 NOSIG
2026-04-10 20:30:00,METAR LFPB 102030Z AUTO 08008KT CAVOK 11/03 Q1015 NOSIG
2026-04-10 20:00:00,METAR LFPB 102000Z AUTO 07007KT CAVOK 12/03 Q1015 NOSIG
2026-04-10 19:30:00,METAR LFPB 101930Z AUTO 08007KT CAVOK 12/03 Q1015 NOSIG
2026-04-10 19:00:00,METAR LFPB 101900Z AUTO 07006KT CAVOK 11/02 Q1015 NOSIG
2026-04-10 18:30:00,METAR LFPB 101830Z AUTO 08008KT CAVOK 13/02 Q1015
2026-04-10 18:00:00,METAR LFPB 101800Z AUTO 07007KT CAVOK 14/03 Q1016
2026-04-10 17:30:00,METAR LFPB 101730Z AUTO 07008KT CAVOK 14/03 Q1016
2026-04-10 17:00:00,METAR LFPB 101700Z AUTO 06007KT CAVOK 15/02 Q1016
2026-04-10 16:30:00,METAR LFPB 101630Z AUTO 05009KT CAVOK 15/02 Q1016
2026-04-10 16:00:00,METAR LFPB 101600Z AUTO 06008KT CAVOK 15/02 Q1017
2026-04-10 15:30:00,METAR LFPB 101530Z AUTO 06007KT CAVOK 15/02 Q1017
2026-04-10 15:00:00,METAR LFPB 101500Z AUTO 06005KT CAVOK 15/02 Q1018
2026-04-10 14:30:00,METAR LFPB 101430Z AUTO VRB02KT CAVOK 16/M00 Q1018
2026-04-10 14:00:00,METAR LFPB 101400Z AUTO VRB03KT CAVOK 16/01 Q1018
2026-04-10 13:30:00,METAR LFPB 101330Z AUTO 09005KT 050V150 CAVOK 16/02 Q1019
2026-04-10 13:00:00,METAR LFPB 101300Z AUTO VRB03KT CAVOK 15/00 Q1019
2026-04-10 12:30:00,METAR LFPB 101230Z AUTO VRB03KT CAVOK 15/01 Q1019
2026-04-10 12:00:00,METAR LFPB 101200Z AUTO VRB02KT CAVOK 15/02 Q1020
2026-04-10 11:30:00,METAR LFPB 101130Z AUTO VRB03KT CAVOK 14/02 Q1020
2026-04-10 11:00:00,METAR LFPB 101100Z AUTO VRB03KT CAVOK 13/02 Q1020
2026-04-10 10:30:00,METAR LFPB 101030Z AUTO 07004KT 360V170 CAVOK 13/03 Q1021
2026-04-10 10:00:00,METAR LFPB 101000Z AUTO VRB03KT CAVOK 13/03 Q1021
2026-04-10 09:30:00,METAR LFPB 100930Z AUTO 09005KT 050V130 9999 FEW031 12/04 Q1021
2026-04-10 09:00:00,METAR LFPB 100900Z AUTO 07006KT 030V140 CAVOK 12/04 Q1021
2026-04-10 08:30:00,METAR LFPB 100830Z AUTO 06008KT CAVOK 11/04 Q1021
2026-04-10 08:00:00,METAR LFPB 100800Z AUTO 04006KT CAVOK 10/04 Q1021
2026-04-10 07:30:00,METAR LFPB 100730Z AUTO 03006KT 350V060 CAVOK 09/03 Q1021
2026-04-10 07:00:00,METAR LFPB 100700Z AUTO 36005KT 330V030 CAVOK 09/04 Q1022
2026-04-10 06:30:00,METAR LFPB 100630Z AUTO 36004KT 310V020 CAVOK 08/04 Q1022
2026-04-10 06:00:00,METAR LFPB 100600Z AUTO 35004KT 320V030 CAVOK 08/04 Q1022
2026-04-10 05:30:00,METAR LFPB 100530Z AUTO 34004KT CAVOK 08/04 Q1022
2026-04-10 05:00:00,METAR LFPB 100500Z AUTO 33006KT 300V360 CAVOK 08/04 Q1021
2026-04-10 04:30:00,METAR LFPB 100430Z AUTO 32007KT CAVOK 08/05 Q1021
2026-04-10 04:00:00,METAR LFPB 100400Z AUTO 32006KT CAVOK 09/05 Q1021
2026-04-10 03:30:00,METAR LFPB 100330Z AUTO 31006KT 270V350 CAVOK 09/05 Q1021
2026-04-10 03:00:00,METAR LFPB 100300Z AUTO 32007KT 280V350 CAVOK 09/05 Q1021
2026-04-10 02:30:00,METAR LFPB 100230Z AUTO 32007KT 280V350 CAVOK 09/05 Q1021
2026-04-10 02:00:00,METAR LFPB 100200Z AUTO 31007KT 270V340 CAVOK 10/06 Q1021
2026-04-10 01:30:00,METAR LFPB 100130Z AUTO 30008KT 270V330 CAVOK 10/06 Q1021
2026-04-10 01:00:00,METAR LFPB 100100Z AUTO 30007KT 270V330 CAVOK 11/06 Q1021
2026-04-10 00:30:00,METAR LFPB 100030Z AUTO 30008KT 270V330 CAVOK 11/06 Q1021
2026-04-10 00:00:00,METAR LFPB 100000Z AUTO 31006KT 260V330 CAVOK 11/06 Q1021
2026-04-09 23:30:00,METAR LFPB 092330Z AUTO 32007KT 290V360 CAVOK 12/06 Q1020
2026-04-09 23:00:00,METAR LFPB 092300Z AUTO 30011KT 270V330 CAVOK 13/06 Q1021
2026-04-09 22:30:00,METAR LFPB 092230Z AUTO 30010KT 260V350 CAVOK 13/07 Q1020
2026-04-09 22:00:00,METAR LFPB 092200Z AUTO 30010KT 260V330 9999 FEW027 BKN160 13/07 Q1020
2026-04-09 21:30:00,METAR LFPB 092130Z AUTO 30010KT 260V340 CAVOK 14/07 Q1020
2026-04-09 21:00:00,METAR LFPB 092100Z AUTO 27012G24KT CAVOK 15/06 Q1019
2026-04-09 20:30:00,METAR LFPB 092030Z AUTO 27012KT 250V310 CAVOK 17/08 Q1019
2026-04-09 20:00:00,METAR LFPB 092000Z AUTO 28009KT 250V310 9999 SCT046 BKN130 OVC190 17/11 Q1019
2026-04-09 19:30:00,METAR LFPB 091930Z AUTO 29010KT 250V330 CAVOK 18/12 Q1018
2026-04-09 19:00:00,METAR LFPB 091900Z AUTO 27011KT 250V310 CAVOK 20/12 Q1018
2026-04-09 18:30:00,METAR LFPB 091830Z AUTO 29009KT 240V330 9999 ///CB 21/10 Q1017
2026-04-09 18:00:00,METAR LFPB 091800Z AUTO 30011KT 9999 ///CB 22/10 Q1016
2026-04-09 17:30:00,METAR LFPB 091730Z AUTO 30006KT 270V330 9999 VCTS ///CB 24/12 Q1016
2026-04-09 17:00:00,METAR LFPB 091700Z AUTO 29006KT 230V330 CAVOK 25/12 Q1016
2026-04-09 16:30:00,METAR LFPB 091630Z AUTO 25005KT 210V300 CAVOK 25/12 Q1016
2026-04-09 16:00:00,METAR LFPB 091600Z AUTO 24007KT 210V280 CAVOK 25/11 Q1016
2026-04-09 15:30:00,METAR LFPB 091530Z AUTO 24010KT 210V280 CAVOK 25/11 Q1016
2026-04-09 15:00:00,METAR LFPB 091500Z AUTO 27010KT 240V320 CAVOK 26/10 Q1017
2026-04-09 14:30:00,METAR LFPB 091430Z AUTO 26007KT 210V330 CAVOK 26/10 Q1017
2026-04-09 14:00:00,METAR LFPB 091400Z AUTO 27009KT 190V330 CAVOK 26/09 Q1017
2026-04-09 13:30:00,METAR LFPB 091330Z AUTO 22007KT 190V250 CAVOK 26/10 Q1017
2026-04-09 13:00:00,METAR LFPB 091300Z AUTO 25006KT 210V290 CAVOK 26/09 Q1017
2026-04-09 12:30:00,METAR LFPB 091230Z AUTO 22007KT 180V260 CAVOK 26/08 Q1018
2026-04-09 12:00:00,METAR LFPB 091200Z AUTO 20006KT 110V250 CAVOK 25/07 Q1018
2026-04-09 11:30:00,METAR LFPB 091130Z AUTO 21004KT 140V250 CAVOK 24/08 Q1018
2026-04-09 11:00:00,METAR LFPB 091100Z AUTO 20004KT 140V280 CAVOK 24/09 Q1019
2026-04-09 10:30:00,METAR LFPB 091030Z AUTO VRB03KT CAVOK 23/09 Q1019
2026-04-09 10:00:00,METAR LFPB 091000Z AUTO 18003KT 120V220 CAVOK 22/11 Q1019
2026-04-09 09:30:00,METAR LFPB 090930Z AUTO VRB03KT CAVOK 21/09 Q1019
2026-04-09 09:00:00,METAR LFPB 090900Z AUTO VRB03KT CAVOK 20/10 Q1020
2026-04-09 08:30:00,METAR LFPB 090830Z AUTO VRB02KT CAVOK 18/10 Q1020
2026-04-09 08:00:00,METAR LFPB 090800Z AUTO 00000KT CAVOK 16/10 Q1020
2026-04-09 07:30:00,METAR LFPB 090730Z AUTO VRB01KT CAVOK 14/10 Q1020
2026-04-09 07:00:00,METAR LFPB 090700Z AUTO 00000KT CAVOK 13/09 Q1020
2026-04-09 06:30:00,METAR LFPB 090630Z AUTO VRB02KT CAVOK 10/08 Q1020
2026-04-09 06:00:00,METAR LFPB 090600Z AUTO 01003KT CAVOK 09/07 Q1020
2026-04-09 05:30:00,METAR LFPB 090530Z AUTO 34003KT CAVOK 08/07 Q1019
2026-04-09 05:00:00,METAR LFPB 090500Z AUTO 36001KT CAVOK 08/06 Q1019
2026-04-09 04:30:00,METAR LFPB 090430Z AUTO 01003KT CAVOK 08/07 Q1020
2026-04-09 04:00:00,METAR LFPB 090400Z AUTO 01002KT CAVOK 08/07 Q1020
2026-04-09 03:30:00,METAR LFPB 090330Z AUTO 35003KT CAVOK 08/07 Q1020
2026-04-09 03:00:00,METAR LFPB 090300Z AUTO 00000KT CAVOK 08/06 Q1020
2026-04-09 02:30:00,METAR LFPB 090230Z AUTO 36003KT CAVOK 09/07 Q1020
2026-04-09 02:00:00,METAR LFPB 090200Z AUTO VRB02KT CAVOK 09/07 Q1020
2026-04-09 01:30:00,METAR LFPB 090130Z AUTO VRB01KT CAVOK 10/07 Q1020
2026-04-09 01:00:00,METAR LFPB 090100Z AUTO 35003KT CAVOK 10/08 Q1021
2026-04-09 00:30:00,METAR LFPB 090030Z AUTO 35005KT CAVOK 10/08 Q1021
2026-04-09 00:00:00,METAR LFPB 090000Z AUTO 36003KT CAVOK 11/08 Q1021
2026-04-08 23:30:00,METAR LFPB 082330Z AUTO 35003KT CAVOK 11/08 Q1021
2026-04-08 23:00:00,METAR LFPB 082300Z AUTO 32003KT CAVOK 12/08 Q1021
2026-04-08 22:30:00,METAR LFPB 082230Z AUTO VRB02KT CAVOK 13/08 Q1021
2026-04-08 22:00:00,METAR LFPB 082200Z AUTO 35005KT CAVOK 14/08 Q1021
2026-04-08 21:30:00,METAR LFPB 082130Z AUTO 35005KT CAVOK 14/08 Q1021
2026-04-08 21:00:00,METAR LFPB 082100Z AUTO 35003KT CAVOK 14/08 Q1021
2026-04-08 20:30:00,METAR LFPB 082030Z AUTO 36003KT CAVOK 16/08 Q1021
2026-04-08 20:00:00,METAR LFPB 082000Z AUTO 35004KT CAVOK 17/07 Q1021
2026-04-08 19:30:00,METAR LFPB 081930Z AUTO 35004KT CAVOK 18/06 Q1021
2026-04-08 19:00:00,METAR LFPB 081900Z AUTO VRB03KT CAVOK 19/05 Q1021
2026-04-08 18:30:00,METAR LFPB 081830Z AUTO 05005KT CAVOK 20/06 Q1020
2026-04-08 18:00:00,METAR LFPB 081800Z AUTO 05005KT CAVOK 22/04 Q1020
2026-04-08 17:30:00,METAR LFPB 081730Z AUTO 05005KT CAVOK 23/06 Q1021
2026-04-08 17:00:00,METAR LFPB 081700Z AUTO 06006KT CAVOK 24/07 Q1020
2026-04-08 16:30:00,METAR LFPB 081630Z AUTO 06005KT CAVOK 24/07 Q1021
2026-04-08 16:00:00,METAR LFPB 081600Z AUTO 07005KT 050V120 CAVOK 25/06 Q1021
2026-04-08 15:30:00,METAR LFPB 081530Z AUTO 06005KT 030V090 CAVOK 25/06 Q1021
2026-04-08 15:00:00,METAR LFPB 081500Z AUTO 06005KT 030V100 CAVOK 25/06 Q1021
2026-04-08 14:30:00,METAR LFPB 081430Z AUTO 08006KT 050V140 CAVOK 25/05 Q1021
2026-04-08 14:00:00,METAR LFPB 081400Z AUTO 08006KT 040V110 CAVOK 24/05 Q1021
2026-04-08 13:30:00,METAR LFPB 081330Z AUTO 08005KT 040V140 CAVOK 24/07 Q1022
2026-04-08 13:00:00,METAR LFPB 081300Z AUTO 07006KT 040V100 CAVOK 24/06 Q1022
2026-04-08 12:30:00,METAR LFPB 081230Z AUTO 04004KT 360V130 CAVOK 23/07 Q1022
2026-04-08 12:00:00,METAR LFPB 081200Z AUTO 06005KT 010V090 CAVOK 23/07 Q1022
2026-04-08 11:30:00,METAR LFPB 081130Z AUTO 07006KT 040V100 CAVOK 22/09 Q1023
2026-04-08 11:00:00,METAR LFPB 081100Z AUTO 06005KT 030V100 CAVOK 21/08 Q1023
2026-04-08 10:30:00,METAR LFPB 081030Z AUTO 02004KT 330V080 CAVOK 20/08 Q1023
2026-04-08 10:00:00,METAR LFPB 081000Z AUTO VRB03KT CAVOK 20/09 Q1023
2026-04-08 09:30:00,METAR LFPB 080930Z AUTO 04003KT 340V140 CAVOK 18/08 Q1023
2026-04-08 09:00:00,METAR LFPB 080900Z AUTO 07005KT 030V100 CAVOK 17/07 Q1023
2026-04-08 08:30:00,METAR LFPB 080830Z AUTO 06004KT 020V080 CAVOK 16/07 Q1023
2026-04-08 08:00:00,METAR LFPB 080800Z AUTO VRB03KT CAVOK 15/07 Q1023
2026-04-08 07:30:00,METAR LFPB 080730Z AUTO 34003KT CAVOK 13/06 Q1023
2026-04-08 07:00:00,METAR LFPB 080700Z AUTO 35004KT CAVOK 12/05 Q1023
2026-04-08 06:30:00,METAR LFPB 080630Z AUTO 36005KT CAVOK 11/05 Q1023
2026-04-08 06:00:00,METAR LFPB 080600Z AUTO 36005KT CAVOK 10/05 Q1023
2026-04-08 05:30:00,METAR LFPB 080530Z AUTO 35005KT CAVOK 08/04 Q1022
2026-04-08 05:00:00,METAR LFPB 080500Z AUTO 35005KT CAVOK 09/04 Q1022
2026-04-08 04:30:00,METAR LFPB 080430Z AUTO 36005KT CAVOK 09/05 Q1022
2026-04-08 04:00:00,METAR LFPB 080400Z AUTO 36005KT CAVOK 09/05 Q1022
2026-04-08 03:30:00,METAR LFPB 080330Z AUTO 36005KT CAVOK 09/05 Q1022
2026-04-08 03:00:00,METAR LFPB 080300Z AUTO 35005KT CAVOK 09/05 Q1022
2026-04-08 02:30:00,METAR LFPB 080230Z AUTO 35004KT CAVOK 09/05 Q1022
2026-04-08 02:00:00,METAR LFPB 080200Z AUTO 35005KT CAVOK 10/05 Q1022
2026-04-08 01:30:00,METAR LFPB 080130Z AUTO 35005KT CAVOK 10/06 Q1022
2026-04-08 01:00:00,METAR LFPB 080100Z AUTO 36005KT CAVOK 11/06 Q1022
2026-04-08 00:30:00,METAR LFPB 080030Z AUTO 33004KT CAVOK 11/06 Q1022
2026-04-08 00:00:00,METAR LFPB 080000Z AUTO 36005KT CAVOK 11/06 Q1022
2026-04-07 23:30:00,METAR LFPB 072330Z AUTO 34005KT CAVOK 11/07 Q1022
2026-04-07 23:00:00,METAR LFPB 072300Z AUTO 35004KT CAVOK 12/07 Q1022
2026-04-07 22:30:00,METAR LFPB 072230Z AUTO 34004KT CAVOK 12/07 Q1022
2026-04-07 22:00:00,METAR LFPB 072200Z AUTO 01004KT CAVOK 13/08 Q1021
2026-04-07 21:30:00,METAR LFPB 072130Z AUTO 36003KT CAVOK 13/08 Q1022
2026-04-07 21:00:00,METAR LFPB 072100Z AUTO 01004KT CAVOK 14/09 Q1022
2026-04-07 20:30:00,METAR LFPB 072030Z AUTO 01004KT CAVOK 15/09 Q1022
2026-04-07 20:00:00,METAR LFPB 072000Z AUTO 03005KT CAVOK 16/09 Q1021
2026-04-07 19:30:00,METAR LFPB 071930Z AUTO 05005KT CAVOK 16/09 Q1021
2026-04-07 19:00:00,METAR LFPB 071900Z AUTO 08005KT CAVOK 17/09 Q1021
2026-04-07 18:30:00,METAR LFPB 071830Z AUTO 09006KT CAVOK 18/09 Q1021
2026-04-07 18:00:00,METAR LFPB 071800Z AUTO 07007KT CAVOK 19/10 Q1020
2026-04-07 17:30:00,METAR LFPB 071730Z AUTO 07009KT CAVOK 21/10 Q1020
2026-04-07 17:00:00,METAR LFPB 071700Z AUTO 06010KT CAVOK 22/11 Q1020 NOSIG
2026-04-07 16:30:00,METAR LFPB 071630Z AUTO 06011KT CAVOK 23/10 Q1020 NOSIG
2026-04-07 16:00:00,METAR LFPB 071600Z AUTO 06012KT CAVOK 23/10 Q1020 NOSIG
2026-04-07 15:30:00,METAR LFPB 071530Z AUTO 06011KT CAVOK 23/10 Q1020 NOSIG
2026-04-07 15:00:00,METAR LFPB 071500Z AUTO 06011KT CAVOK 23/10 Q1021 NOSIG
2026-04-07 14:30:00,METAR LFPB 071430Z AUTO 07011KT 030V100 CAVOK 24/11 Q1020 NOSIG
2026-04-07 14:00:00,METAR LFPB 071400Z AUTO 08009KT 050V110 CAVOK 24/10 Q1021 NOSIG
2026-04-07 13:30:00,METAR LFPB 071330Z AUTO 10009KT 060V130 CAVOK 24/10 Q1021 NOSIG
2026-04-07 13:00:00,METAR LFPB 071300Z AUTO 09009KT 060V140 CAVOK 23/09 Q1021 NOSIG
2026-04-07 12:30:00,METAR LFPB 071230Z AUTO 09008KT 030V120 CAVOK 23/10 Q1021 NOSIG
2026-04-07 12:00:00,METAR LFPB 071200Z AUTO 08009KT CAVOK 22/10 Q1021 NOSIG
2026-04-07 11:30:00,METAR LFPB 071130Z AUTO 09009KT 050V120 CAVOK 22/10 Q1021 NOSIG
2026-04-07 11:00:00,METAR LFPB 071100Z AUTO 08008KT 050V120 CAVOK 21/10 Q1022 NOSIG
2026-04-07 10:30:00,METAR LFPB 071030Z AUTO 07008KT CAVOK 19/09 Q1022 NOSIG
2026-04-07 10:00:00,METAR LFPB 071000Z AUTO 07009KT CAVOK 18/08 Q1022 NOSIG
2026-04-07 09:30:00,METAR LFPB 070930Z AUTO 07008KT 040V100 CAVOK 16/08 Q1022 NOSIG
2026-04-07 09:00:00,METAR LFPB 070900Z AUTO 06007KT CAVOK 15/07 Q1022 NOSIG
2026-04-07 08:30:00,METAR LFPB 070830Z AUTO 06008KT CAVOK 14/06 Q1022 NOSIG
2026-04-07 08:00:00,METAR LFPB 070800Z AUTO 06006KT CAVOK 13/06 Q1022 NOSIG
2026-04-07 07:30:00,METAR LFPB 070730Z AUTO 07006KT CAVOK 12/06 Q1022 NOSIG
2026-04-07 07:00:00,METAR LFPB 070700Z AUTO VRB03KT CAVOK 10/05 Q1023 NOSIG
2026-04-07 06:30:00,METAR LFPB 070630Z AUTO 35004KT CAVOK 08/04 Q1023 NOSIG
2026-04-07 06:00:00,METAR LFPB 070600Z AUTO 36003KT CAVOK 07/03 Q1022 NOSIG
2026-04-07 05:30:00,METAR LFPB 070530Z AUTO 36005KT CAVOK 06/03 Q1022 NOSIG
2026-04-07 05:00:00,METAR LFPB 070500Z AUTO 35005KT CAVOK 06/03 Q1022 NOSIG
2026-04-07 04:30:00,METAR LFPB 070430Z AUTO 01006KT CAVOK 07/03 Q1022 NOSIG
2026-04-07 04:00:00,METAR LFPB 070400Z AUTO 34004KT CAVOK 07/03 Q1022 NOSIG
2026-04-07 03:30:00,METAR LFPB 070330Z AUTO 35005KT CAVOK 06/03 Q1022 NOSIG
2026-04-07 03:00:00,METAR LFPB 070300Z AUTO 36005KT CAVOK 07/03 Q1022 NOSIG
2026-04-07 02:30:00,METAR LFPB 070230Z AUTO 35005KT CAVOK 07/03 Q1023 NOSIG
2026-04-07 02:00:00,METAR LFPB 070200Z AUTO 34004KT CAVOK 07/03 Q1023 NOSIG
2026-04-07 01:30:00,METAR LFPB 070130Z AUTO 35004KT CAVOK 07/03 Q1023 NOSIG
2026-04-07 01:00:00,METAR LFPB 070100Z AUTO 35005KT CAVOK 07/03 Q1023 NOSIG
2026-04-07 00:30:00,METAR LFPB 070030Z AUTO 33003KT CAVOK 08/04 Q1023 NOSIG
2026-04-07 00:00:00,METAR LFPB 070000Z AUTO 01002KT CAVOK 08/04 Q1023 NOSIG
2026-04-06 23:30:00,METAR LFPB 062330Z AUTO 03003KT CAVOK 09/04 Q1023 NOSIG
2026-04-06 23:00:00,METAR LFPB 062300Z AUTO 03003KT CAVOK 09/04 Q1024 NOSIG
2026-04-06 22:30:00,METAR LFPB 062230Z AUTO 04004KT CAVOK 09/04 Q1024 NOSIG
2026-04-06 22:00:00,METAR LFPB 062200Z AUTO 05005KT CAVOK 10/05 Q1024 NOSIG
2026-04-06 21:30:00,METAR LFPB 062130Z AUTO 05004KT CAVOK 09/05 Q1024 NOSIG
2026-04-06 21:00:00,METAR LFPB 062100Z AUTO 05006KT CAVOK 10/05 Q1024 NOSIG
2026-04-06 20:30:00,METAR LFPB 062030Z AUTO 05006KT CAVOK 11/05 Q1024 NOSIG
2026-04-06 20:00:00,METAR LFPB 062000Z AUTO 05007KT CAVOK 12/06 Q1024 NOSIG
2026-04-06 19:30:00,METAR LFPB 061930Z AUTO 04006KT CAVOK 12/06 Q1024 NOSIG
2026-04-06 19:00:00,METAR LFPB 061900Z AUTO 05007KT CAVOK 13/06 Q1024 NOSIG
2026-04-06 18:30:00,METAR LFPB 061830Z AUTO 06007KT CAVOK 14/06 Q1024 NOSIG
2026-04-06 18:00:00,METAR LFPB 061800Z AUTO 05008KT CAVOK 15/06 Q1024 NOSIG
2026-04-06 17:30:00,METAR LFPB 061730Z AUTO 05008KT CAVOK 16/06 Q1024 NOSIG
2026-04-06 17:00:00,METAR LFPB 061700Z AUTO 05008KT CAVOK 17/06 Q1024 NOSIG
2026-04-06 16:30:00,METAR LFPB 061630Z AUTO 05008KT CAVOK 17/06 Q1024 NOSIG
2026-04-06 16:00:00,METAR LFPB 061600Z AUTO 05009KT CAVOK 17/06 Q1025 NOSIG
2026-04-06 15:30:00,METAR LFPB 061530Z AUTO 06007KT 020V080 CAVOK 18/06 Q1025 NOSIG
2026-04-06 15:00:00,METAR LFPB 061500Z AUTO 05007KT 020V080 CAVOK 17/06 Q1025 NOSIG
2026-04-06 14:30:00,METAR LFPB 061430Z AUTO 05008KT 020V080 CAVOK 17/06 Q1025 NOSIG
2026-04-06 14:00:00,METAR LFPB 061400Z AUTO 04008KT 010V080 CAVOK 17/06 Q1025 NOSIG
2026-04-06 13:30:00,METAR LFPB 061330Z AUTO 06007KT 030V120 CAVOK 17/06 Q1026 NOSIG
2026-04-06 13:00:00,METAR LFPB 061300Z AUTO 05006KT 340V120 CAVOK 16/05 Q1026 NOSIG
2026-04-06 12:30:00,METAR LFPB 061230Z AUTO 07006KT 010V110 CAVOK 16/06 Q1026 NOSIG
2026-04-06 12:00:00,METAR LFPB 061200Z AUTO 06006KT 360V100 CAVOK 15/05 Q1027 NOSIG
2026-04-06 11:30:00,METAR LFPB 061130Z AUTO 07006KT 020V110 CAVOK 15/04 Q1027 NOSIG
2026-04-06 11:00:00,METAR LFPB 061100Z AUTO 05006KT 030V090 CAVOK 14/04 Q1027 NOSIG
2026-04-06 10:30:00,METAR LFPB 061030Z AUTO 06007KT 010V090 CAVOK 13/04 Q1028 NOSIG
2026-04-06 10:00:00,METAR LFPB 061000Z AUTO 06007KT CAVOK 13/04 Q1028 NOSIG
2026-04-06 09:30:00,METAR LFPB 060930Z AUTO 06007KT 030V090 CAVOK 12/04 Q1028 NOSIG
2026-04-06 09:00:00,METAR LFPB 060900Z AUTO 07009KT CAVOK 11/04 Q1028 NOSIG
2026-04-06 08:30:00,METAR LFPB 060830Z AUTO 07008KT CAVOK 10/05 Q1028 NOSIG
2026-04-06 08:00:00,METAR LFPB 060800Z AUTO 06005KT CAVOK 09/06 Q1028 NOSIG
2026-04-06 07:30:00,METAR LFPB 060730Z AUTO VRB03KT CAVOK 08/05 Q1028 NOSIG
2026-04-06 07:00:00,METAR LFPB 060700Z AUTO VRB02KT CAVOK 05/04 Q1028 NOSIG
2026-04-06 06:30:00,METAR LFPB 060630Z AUTO 36001KT CAVOK 04/03 Q1028 NOSIG
2026-04-06 06:00:00,METAR LFPB 060600Z AUTO 36002KT CAVOK 03/02 Q1028
2026-04-06 05:30:00,METAR LFPB 060530Z AUTO 35003KT CAVOK 03/02 Q1028
2026-04-06 05:00:00,METAR LFPB 060500Z AUTO 35004KT CAVOK 03/02 Q1028
2026-04-06 04:30:00,METAR LFPB 060430Z AUTO 35004KT CAVOK 03/02 Q1027
2026-04-06 04:00:00,METAR LFPB 060400Z AUTO 01003KT CAVOK 03/02 Q1027
2026-04-06 03:30:00,METAR LFPB 060330Z AUTO 01003KT CAVOK 03/02 Q1027
2026-04-06 03:00:00,METAR LFPB 060300Z AUTO VRB02KT CAVOK 03/02 Q1028
2026-04-06 02:30:00,METAR LFPB 060230Z AUTO 36004KT CAVOK 04/03 Q1028
2026-04-06 02:00:00,METAR LFPB 060200Z AUTO 01002KT CAVOK 04/03 Q1027
2026-04-06 01:30:00,METAR LFPB 060130Z AUTO 01002KT CAVOK 04/03 Q1027
2026-04-06 01:00:00,METAR LFPB 060100Z AUTO 00000KT CAVOK 05/03 Q1027
2026-04-06 00:30:00,METAR LFPB 060030Z AUTO 00000KT CAVOK 05/04 Q1028
2026-04-06 00:00:00,METAR LFPB 060000Z AUTO 02001KT CAVOK 05/04 Q1027
2026-04-05 23:30:00,METAR LFPB 052330Z AUTO 35002KT CAVOK 06/04 Q1027
2026-04-05 23:00:00,METAR LFPB 052300Z AUTO 35003KT CAVOK 07/04 Q1027
2026-04-05 22:30:00,METAR LFPB 052230Z AUTO 35003KT CAVOK 07/04 Q1027
2026-04-05 22:00:00,METAR LFPB 052200Z AUTO 35003KT CAVOK 08/04 Q1027
2026-04-05 21:30:00,METAR LFPB 052130Z AUTO 34003KT CAVOK 09/04 Q1026
2026-04-05 21:00:00,METAR LFPB 052100Z AUTO 30003KT 260V330 CAVOK 10/05 Q1026
2026-04-05 20:30:00,METAR LFPB 052030Z AUTO VRB02KT CAVOK 10/04 Q1026
2026-04-05 20:00:00,METAR LFPB 052000Z AUTO 32003KT CAVOK 10/04 Q1026
2026-04-05 19:30:00,METAR LFPB 051930Z AUTO 33004KT CAVOK 11/04 Q1025
2026-04-05 19:00:00,METAR LFPB 051900Z AUTO 31005KT 9999 FEW049 12/04 Q1025
2026-04-05 18:30:00,METAR LFPB 051830Z AUTO 32007KT 270V340 9999 SCT048 BKN062 13/05 Q1024
2026-04-05 18:00:00,METAR LFPB 051800Z AUTO 31007KT 270V340 9999 FEW045 OVC054 14/05 Q1024 NOSIG
2026-04-05 17:30:00,METAR LFPB 051730Z AUTO 28009KT 240V310 CAVOK 14/04 Q1024 NOSIG
2026-04-05 17:00:00,METAR LFPB 051700Z AUTO 29006KT 250V320 CAVOK 14/05 Q1024 NOSIG
2026-04-05 16:30:00,METAR LFPB 051630Z AUTO 28008KT 250V320 CAVOK 14/06 Q1023 NOSIG
2026-04-05 16:00:00,METAR LFPB 051600Z AUTO 28008KT 240V330 CAVOK 14/06 Q1023 TEMPO 4000 -SHRA
2026-04-05 15:00:00,METAR LFPB 051500Z AUTO 26011KT 230V290 9999 FEW047 BKN056 OVC140 15/05 Q1023 TEMPO 4000 -SHRA
2026-04-05 13:00:00,METAR LFPB 051300Z AUTO 24011KT 9999 OVC048 15/07 Q1022 TEMPO 4000 -SHRA
2026-04-05 12:30:00,METAR LFPB 051230Z AUTO 27010KT 240V300 9999 BKN046 16/05 Q1022 TEMPO 4000 -SHRA
2026-04-05 12:00:00,METAR LFPB 051200Z AUTO 23010KT 210V270 9999 BKN048 BKN180 15/05 Q1022 NOSIG
2026-04-05 11:30:00,METAR LFPB 051130Z AUTO 26011KT 210V310 9999 SCT042 SCT130 BKN170 15/05 Q1022 NOSIG
2026-04-05 11:00:00,METAR LFPB 051100Z AUTO 24012KT 200V270 9999 BKN039 BKN190 BKN210 16/07 Q1022 NOSIG
2026-04-05 10:30:00,METAR LFPB 051030Z AUTO 25010KT 210V290 9999 SCT034 OVC041 14/07 Q1022 NOSIG
2026-04-05 10:00:00,METAR LFPB 051000Z AUTO 24010KT 9999 BKN030 OVC035 13/07 Q1021 NOSIG
2026-04-05 09:30:00,METAR LFPB 050930Z AUTO 25009KT 230V290 9999 OVC033 13/07 Q1021 NOSIG
2026-04-05 09:00:00,METAR LFPB 050900Z AUTO 27010KT 240V300 9999 FEW024 BKN029 BKN039 12/07 Q1021 TEMPO 4000 -RA
2026-04-05 08:30:00,METAR LFPB 050830Z AUTO 25013KT 220V280 9999 BKN022 BKN027 BKN034 13/09 Q1020 TEMPO 4000 -RA
2026-04-05 08:00:00,METAR LFPB 050800Z AUTO 24013KT 9999 BKN023 BKN031 OVC043 13/08 Q1020 TEMPO 4000 -RA
2026-04-05 07:30:00,METAR LFPB 050730Z AUTO 23011KT 190V250 9999 BKN024 OVC029 13/08 Q1019 TEMPO 4000 -RA
2026-04-05 07:00:00,METAR LFPB 050700Z AUTO 21011KT 9999 SCT026 OVC034 12/08 Q1019 TEMPO 4000 -RA
2026-04-05 06:30:00,METAR LFPB 050630Z AUTO 21010KT 9999 BKN029 OVC035 12/07 Q1018 TEMPO 4000 -RA
2026-04-05 06:00:00,METAR LFPB 050600Z AUTO 21010KT 9999 OVC029 12/07 Q1018
2026-04-05 05:30:00,METAR LFPB 050530Z AUTO 20009KT 9999 OVC031 12/07 Q1018
2026-04-05 05:00:00,METAR LFPB 050500Z AUTO 21008KT 180V250 9999 OVC032 12/07 Q1017
2026-04-05 04:30:00,METAR LFPB 050430Z AUTO 22008KT 9999 OVC028 12/07 Q1017
2026-04-05 04:00:00,METAR LFPB 050400Z AUTO 24012KT 210V270 9999 OVC027 12/07 Q1017
2026-04-05 03:30:00,METAR LFPB 050330Z AUTO 25016G26KT 9999 BKN028 12/06 Q1017
2026-04-05 03:00:00,METAR LFPB 050300Z AUTO 25014KT CAVOK 12/07 Q1016
2026-04-05 02:30:00,METAR LFPB 050230Z AUTO 24013KT 210V270 CAVOK 13/07 Q1016
2026-04-05 02:00:00,METAR LFPB 050200Z AUTO 23012KT 200V270 CAVOK 14/07 Q1015
2026-04-05 01:30:00,METAR LFPB 050130Z AUTO 21012KT CAVOK 15/07 Q1015
2026-04-05 01:00:00,METAR LFPB 050100Z AUTO 20011KT 170V230 CAVOK 15/07 Q1015
2026-04-05 00:30:00,METAR LFPB 050030Z AUTO 19006KT 160V230 CAVOK 14/08 Q1015
2026-04-05 00:00:00,METAR LFPB 050000Z AUTO 16010KT CAVOK 14/08 Q1015
2026-04-04 23:30:00,METAR LFPB 042330Z AUTO 16008KT CAVOK 13/08 Q1015
2026-04-04 23:00:00,METAR LFPB 042300Z AUTO 15007KT CAVOK 13/07 Q1016
2026-04-04 22:30:00,METAR LFPB 042230Z AUTO 17008KT CAVOK 14/07 Q1016
2026-04-04 22:00:00,METAR LFPB 042200Z AUTO 17008KT CAVOK 14/08 Q1016
2026-04-04 21:30:00,METAR LFPB 042130Z AUTO 16011KT CAVOK 15/08 Q1016
2026-04-04 21:00:00,METAR LFPB 042100Z AUTO 17011KT CAVOK 15/08 Q1016
2026-04-04 20:30:00,METAR LFPB 042030Z AUTO 15008KT CAVOK 14/08 Q1016
2026-04-04 20:00:00,METAR LFPB 042000Z AUTO 17007KT CAVOK 15/08 Q1017
2026-04-04 19:30:00,METAR LFPB 041930Z AUTO 17009KT CAVOK 16/08 Q1017
2026-04-04 19:00:00,METAR LFPB 041900Z AUTO 18008KT CAVOK 16/08 Q1017
2026-04-04 18:30:00,METAR LFPB 041830Z AUTO 18008KT CAVOK 17/08 Q1017
2026-04-04 18:00:00,METAR LFPB 041800Z AUTO 19011KT CAVOK 17/08 Q1018
2026-04-04 17:30:00,METAR LFPB 041730Z AUTO 18012KT CAVOK 18/08 Q1018
2026-04-04 17:00:00,METAR LFPB 041700Z AUTO 19014KT CAVOK 18/09 Q1018
2026-04-04 16:30:00,METAR LFPB 041630Z AUTO 18012KT CAVOK 19/09 Q1019
2026-04-04 16:00:00,METAR LFPB 041600Z AUTO 19011KT 160V220 CAVOK 19/10 Q1019
2026-04-04 15:30:00,METAR LFPB 041530Z AUTO 19014KT CAVOK 19/09 Q1019
2026-04-04 15:00:00,METAR LFPB 041500Z AUTO 18014KT CAVOK 19/10 Q1020
2026-04-04 14:30:00,METAR LFPB 041430Z AUTO 18014KT CAVOK 18/10 Q1020
2026-04-04 14:00:00,METAR LFPB 041400Z AUTO 18013KT 150V210 CAVOK 18/10 Q1021
2026-04-04 13:30:00,METAR LFPB 041330Z AUTO 18012KT 9999 FEW031 17/10 Q1021
2026-04-04 13:00:00,METAR LFPB 041300Z AUTO 18012KT 9999 FEW025 BKN180 BKN220 15/09 Q1022
2026-04-04 12:30:00,METAR LFPB 041230Z AUTO 19012KT 9999 BKN020 BKN200 BKN230 15/10 Q1022
2026-04-04 12:00:00,METAR LFPB 041200Z AUTO 18013KT 9999 OVC018 14/10 Q1022
2026-04-04 11:30:00,METAR LFPB 041130Z AUTO 18013KT 9999 OVC018 14/11 Q1022
2026-04-04 11:00:00,METAR LFPB 041100Z AUTO 19011KT 9999 OVC018 14/11 Q1022
2026-04-04 10:30:00,METAR LFPB 041030Z AUTO 19010KT 9999 OVC018 14/10 Q1023
2026-04-04 10:00:00,METAR LFPB 041000Z AUTO 21009KT 180V260 9999 OVC021 14/11 Q1023
2026-04-04 09:30:00,METAR LFPB 040930Z AUTO 21010KT 9999 BKN017 OVC023 14/11 Q1023
2026-04-04 09:00:00,METAR LFPB 040900Z AUTO 21008KT 9999 BKN016 BKN024 OVC032 14/12 Q1023
2026-04-04 08:30:00,METAR LFPB 040830Z AUTO 20008KT 9999 BKN013 OVC023 13/11 Q1023
2026-04-04 08:00:00,METAR LFPB 040800Z AUTO 21006KT 9999 BKN015 BKN020 OVC031 13/11 Q1022
2026-04-04 07:30:00,METAR LFPB 040730Z AUTO 21006KT 9999 BKN010 BKN014 BKN022 12/12 Q1022
2026-04-04 07:00:00,METAR LFPB 040700Z AUTO 20005KT 6000 OVC008 12/12 Q1022
2026-04-04 06:30:00,METAR LFPB 040630Z AUTO 22006KT 4700 -RA BR BKN008 BKN012 OVC019 12/12 Q1022
2026-04-04 06:00:00,METAR LFPB 040600Z AUTO 22005KT 9999 SCT012 OVC020 12/11 Q1022
2026-04-04 05:30:00,METAR LFPB 040530Z AUTO 22003KT 9999 FEW010 BKN025 OVC031 12/11 Q1022 TEMPO BKN008
2026-04-04 05:00:00,METAR LFPB 040500Z AUTO 24004KT 9999 BKN011 OVC033 12/11 Q1021 TEMPO 4000 -DZ BKN004
2026-04-04 04:30:00,METAR LFPB 040430Z AUTO 23004KT 9999 BKN010 OVC035 12/11 Q1021 TEMPO 4000 -DZ BKN004
2026-04-04 04:00:00,METAR LFPB 040400Z AUTO 23004KT 9999 BKN011 BKN017 OVC034 12/11 Q1021 TEMPO 4000 -DZ BKN004
2026-04-04 03:30:00,METAR LFPB 040330Z AUTO 22004KT 9999 SCT013 BKN018 OVC032 12/11 Q1021 TEMPO 4000 -DZ BKN004
2026-04-04 03:00:00,METAR LFPB 040300Z AUTO 23004KT 9999 BKN011 OVC018 12/11 Q1021 TEMPO 4000 -DZ BKN004
2026-04-04 02:30:00,METAR LFPB 040230Z AUTO 25006KT 9999 BKN014 BKN022 OVC032 12/11 Q1021 TEMPO 4000 -DZ BKN004
2026-04-04 02:00:00,METAR LFPB 040200Z AUTO 25005KT 220V280 9999 BKN014 OVC024 12/12 Q1021 TEMPO 4000 -DZ BKN004
2026-04-04 01:30:00,METAR LFPB 040130Z AUTO 25007KT 9999 FEW007 BKN016 OVC023 12/12 Q1021 TEMPO 4000 -DZ BKN004
2026-04-04 01:00:00,METAR LFPB 040100Z AUTO 24005KT 4900 -RADZ BR BKN007 BKN014 OVC030 12/12 Q1021 NOSIG
2026-04-04 00:30:00,METAR LFPB 040030Z AUTO 25005KT 4100 -DZ BR OVC004 12/12 Q1021 TEMPO BKN007
2026-04-04 00:00:00,METAR LFPB 040000Z AUTO 24004KT 3800 -DZ BR OVC004 12/12 Q1020 TEMPO BKN007
2026-04-03 23:30:00,METAR LFPB 032330Z AUTO 26003KT 220V280 3900 -DZ BR BKN004 OVC008 12/12 Q1020 TEMPO BKN007
2026-04-03 23:00:00,METAR LFPB 032300Z AUTO 24005KT 4500 DZ BR OVC008 12/12 Q1020 TEMPO NSW
2026-04-03 22:30:00,METAR LFPB 032230Z AUTO 23006KT 9999 OVC011 13/11 Q1020 TEMPO 3000 -DZ BKN007
2026-04-03 22:00:00,METAR LFPB 032200Z AUTO 22008KT 9999 OVC011 13/11 Q1020 NOSIG
2026-04-03 21:30:00,METAR LFPB 032130Z AUTO 22007KT 9999 OVC010 12/11 Q1019 NOSIG
2026-04-03 21:00:00,METAR LFPB 032100Z AUTO 21008KT 9999 OVC011 12/11 Q1019 NOSIG
2026-04-03 20:30:00,METAR LFPB 032030Z AUTO 21009KT 9999 OVC011 12/10 Q1019 NOSIG
2026-04-03 20:00:00,METAR LFPB 032000Z AUTO 21010KT 180V240 9999 OVC012 12/10 Q1019 NOSIG
2026-04-03 19:30:00,METAR LFPB 031930Z AUTO 20009KT 9999 BKN012 OVC019 12/10 Q1019 NOSIG
2026-04-03 19:00:00,METAR LFPB 031900Z AUTO 20010KT 9999 OVC013 12/10 Q1019 NOSIG
2026-04-03 18:30:00,METAR LFPB 031830Z AUTO 21010KT 170V240 9999 OVC013 12/10 Q1018 NOSIG
2026-04-03 18:00:00,METAR LFPB 031800Z AUTO 20009KT 9999 OVC013 12/10 Q1018 NOSIG
2026-04-03 17:30:00,METAR LFPB 031730Z AUTO 20009KT 170V230 9999 OVC014 12/10 Q1018 NOSIG
2026-04-03 17:00:00,METAR LFPB 031700Z AUTO 20010KT 9999 OVC012 11/10 Q1018 TEMPO 4000 -RA BECMG BKN009
2026-04-03 16:30:00,METAR LFPB 031630Z AUTO 20009KT 9999 BKN011 OVC016 11/10 Q1018 TEMPO 4000 -RA BECMG BKN009
2026-04-03 16:00:00,METAR LFPB 031600Z AUTO 21013KT 5000 -RA BR OVC013 11/09 Q1018 TEMPO BKN015
2026-04-03 15:30:00,METAR LFPB 031530Z AUTO 21014KT 9999 -RA OVC017 11/09 Q1018 TEMPO 4000 -RA BECMG BKN012
2026-04-03 15:00:00,METAR LFPB 031500Z AUTO 22014KT 9999 OVC019 12/08 Q1018 TEMPO 4000 -RA BECMG BKN012
2026-04-03 14:30:00,METAR LFPB 031430Z AUTO 22012G23KT 9999 BKN020 OVC025 12/08 Q1018 TEMPO 4000 -RA BECMG BKN012
2026-04-03 14:00:00,METAR LFPB 031400Z AUTO 23013KT 210V270 9999 OVC025 12/08 Q1018 TEMPO 4000 -RA
2026-04-03 13:30:00,METAR LFPB 031330Z AUTO 21015KT 9999 OVC029 13/07 Q1018 TEMPO 4000 -RA
2026-04-03 13:00:00,METAR LFPB 031300Z AUTO 21013KT 9999 BKN029 BKN044 OVC052 13/07 Q1018 TEMPO 4000 -RA
2026-04-03 12:30:00,METAR LFPB 031230Z AUTO 21012KT 180V240 9999 OVC029 13/07 Q1019 TEMPO 4000 -RA
2026-04-03 12:00:00,METAR LFPB 031200Z AUTO 21012G23KT 180V240 9999 BKN029 OVC034 13/07 Q1019 NOSIG
2026-04-03 11:30:00,METAR LFPB 031130Z AUTO 21012KT 9999 BKN029 BKN042 OVC060 12/06 Q1019 NOSIG
2026-04-03 11:00:00,METAR LFPB 031100Z AUTO 21010KT 180V240 9999 FEW030 OVC038 12/05 Q1019 NOSIG
2026-04-03 10:30:00,METAR LFPB 031030Z AUTO 22009KT 9999 FEW030 OVC046 11/05 Q1019 NOSIG
2026-04-03 10:00:00,METAR LFPB 031000Z AUTO 21010KT 190V250 CAVOK 11/05 Q1019 NOSIG
2026-04-03 09:30:00,METAR LFPB 030930Z AUTO 21010KT CAVOK 11/05 Q1020 NOSIG
2026-04-03 09:00:00,METAR LFPB 030900Z AUTO 20007KT CAVOK 10/05 Q1019 NOSIG
2026-04-03 08:30:00,METAR LFPB 030830Z AUTO 21007KT CAVOK 08/04 Q1020 NOSIG
2026-04-03 08:00:00,METAR LFPB 030800Z AUTO 22008KT 190V250 CAVOK 08/04 Q1019 NOSIG
2026-04-03 07:30:00,METAR LFPB 030730Z AUTO VRB02KT CAVOK 06/04 Q1020 NOSIG
2026-04-03 07:00:00,METAR LFPB 030700Z AUTO 13002KT CAVOK 05/04 Q1020 BECMG 22010KT
2026-04-03 06:30:00,METAR LFPB 030630Z AUTO 00000KT CAVOK 04/03 Q1020 BECMG 22010KT
2026-04-03 06:00:00,METAR LFPB 030600Z AUTO 00000KT CAVOK 03/02 Q1020
2026-04-03 05:30:00,METAR LFPB 030530Z AUTO 00000KT CAVOK 02/02 Q1020
2026-04-03 05:00:00,METAR LFPB 030500Z AUTO 00000KT CAVOK 02/01 Q1020
2026-04-03 04:30:00,METAR LFPB 030430Z AUTO 02003KT CAVOK 02/01 Q1020
2026-04-03 04:00:00,METAR LFPB 030400Z AUTO 00000KT CAVOK 02/01 Q1020
2026-04-03 03:30:00,METAR LFPB 030330Z AUTO 27002KT CAVOK 02/01 Q1020
2026-04-03 03:00:00,METAR LFPB 030300Z AUTO 23001KT CAVOK 02/01 Q1020
2026-04-03 02:30:00,METAR LFPB 030230Z AUTO VRB01KT CAVOK 02/01 Q1020
2026-04-03 02:00:00,METAR LFPB 030200Z AUTO 00000KT CAVOK 03/02 Q1020
2026-04-03 01:30:00,METAR LFPB 030130Z AUTO VRB01KT CAVOK 03/02 Q1020
2026-04-03 01:00:00,METAR LFPB 030100Z AUTO 27002KT CAVOK 04/02 Q1020
2026-04-03 00:30:00,METAR LFPB 030030Z AUTO VRB01KT CAVOK 04/02 Q1020
2026-04-03 00:00:00,METAR LFPB 030000Z AUTO 23002KT CAVOK 05/02 Q1020
2026-04-02 23:30:00,METAR LFPB 022330Z AUTO 27001KT CAVOK 06/02 Q1020
2026-04-02 23:00:00,METAR LFPB 022300Z AUTO VRB02KT CAVOK 06/02 Q1021
2026-04-02 22:30:00,METAR LFPB 022230Z AUTO VRB03KT 9999 BKN035 06/03 Q1021
2026-04-02 22:00:00,METAR LFPB 022200Z AUTO 34003KT 9999 FEW034 06/03 Q1021
2026-04-02 21:30:00,METAR LFPB 022130Z AUTO 01003KT CAVOK 07/03 Q1021
2026-04-02 21:00:00,METAR LFPB 022100Z AUTO 34004KT 320V020 CAVOK 08/04 Q1021
2026-04-02 20:30:00,METAR LFPB 022030Z AUTO 33009KT 290V350 9999 FEW037 09/04 Q1021
2026-04-02 20:00:00,METAR LFPB 022000Z AUTO 33005KT 9999 BKN036 09/06 Q1021
2026-04-02 19:30:00,METAR LFPB 021930Z AUTO VRB03KT 9999 BKN036 BKN043 BKN052 10/06 Q1020
2026-04-02 19:00:00,METAR LFPB 021900Z AUTO 33005KT 300V360 9999 FEW029 OVC043 11/07 Q1020
2026-04-02 18:30:00,METAR LFPB 021830Z AUTO 36007KT 9999 BKN020 BKN026 BKN034 11/07 Q1020
2026-04-02 18:00:00,METAR LFPB 021800Z AUTO 35007KT 310V030 9999 SCT024 BKN033 BKN041 12/08 Q1020
2026-04-02 17:30:00,METAR LFPB 021730Z AUTO 33008KT 300V360 9999 FEW027 BKN033 BKN040 12/07 Q1019
2026-04-02 17:00:00,METAR LFPB 021700Z AUTO 33007KT 9999 FEW030 BKN039 BKN047 13/07 Q1019
2026-04-02 16:30:00,METAR LFPB 021630Z AUTO 01007KT 340V040 9999 FEW024 BKN036 BKN044 13/08 Q1019
2026-04-02 16:00:00,METAR LFPB 021600Z AUTO 32005KT 280V340 9999 OVC034 12/08 Q1019
2026-04-02 15:30:00,METAR LFPB 021530Z AUTO 31004KT 260V350 9999 FEW037 SCT048 BKN058 14/07 Q1019
2026-04-02 15:00:00,METAR LFPB 021500Z AUTO 32006KT 270V010 9999 FEW048 BKN062 14/07 Q1019
2026-04-02 14:30:00,METAR LFPB 021430Z AUTO 32007KT 9999 FEW031 OVC056 14/07 Q1019
2026-04-02 14:00:00,METAR LFPB 021400Z AUTO 32005KT 280V010 9999 FEW032 OVC052 14/07 Q1019
2026-04-02 13:30:00,METAR LFPB 021330Z AUTO 32005KT 260V360 9999 FEW029 SCT037 OVC047 13/07 Q1019
2026-04-02 13:00:00,METAR LFPB 021300Z AUTO 29006KT 250V330 9999 FEW028 BKN037 OVC043 13/08 Q1019
2026-04-02 12:30:00,METAR LFPB 021230Z AUTO 32004KT 260V010 9999 SCT025 BKN035 OVC045 13/07 Q1019
2026-04-02 12:00:00,METAR LFPB 021200Z AUTO 29004KT 220V330 9999 SCT022 BKN028 BKN058 13/08 Q1020
2026-04-02 11:30:00,METAR LFPB 021130Z AUTO 32004KT 250V010 9999 FEW016 SCT021 BKN072 12/08 Q1020
2026-04-02 11:00:00,METAR LFPB 021100Z AUTO 29003KT 230V350 9999 FEW012 BKN074 OVC086 12/08 Q1020
2026-04-02 10:30:00,METAR LFPB 021030Z AUTO VRB03KT 9000 BKN011 BKN034 BKN064 11/08 Q1020
2026-04-02 10:00:00,METAR LFPB 021000Z AUTO VRB03KT 9000 BKN011 OVC080 11/08 Q1020
2026-04-02 09:30:00,METAR LFPB 020930Z AUTO VRB02KT 8000 BKN010 BKN054 OVC084 10/09 Q1020
2026-04-02 09:00:00,METAR LFPB 020900Z AUTO 29004KT 260V330 8000 OVC010 10/08 Q1019
2026-04-02 08:30:00,METAR LFPB 020830Z AUTO VRB02KT 8000 OVC010 10/08 Q1019
2026-04-02 08:00:00,METAR LFPB 020800Z AUTO VRB02KT 9000 OVC010 09/08 Q1019
2026-04-02 07:30:00,METAR LFPB 020730Z AUTO VRB02KT 9999 BKN010 OVC016 09/07 Q1019
2026-04-02 07:00:00,METAR LFPB 020700Z AUTO VRB02KT 9999 OVC010 09/07 Q1019
2026-04-02 06:30:00,METAR LFPB 020630Z AUTO VRB01KT 9999 BKN010 BKN043 OVC070 08/07 Q1019
2026-04-02 06:00:00,METAR LFPB 020600Z AUTO VRB02KT 9999 BKN044 BKN054 OVC070 08/07 Q1019 TEMPO 4500 -RADZ
2026-04-02 05:30:00,METAR LFPB 020530Z AUTO VRB02KT 9000 -RA BKN045 OVC056 08/07 Q1019 TEMPO 4500 -RADZ
2026-04-02 05:00:00,METAR LFPB 020500Z AUTO VRB03KT 9999 FEW043 BKN049 OVC058 08/07 Q1019 TEMPO 1200 -DZ BR BKN005
2026-04-02 04:30:00,METAR LFPB 020430Z AUTO VRB03KT 9999 FEW047 BKN054 OVC078 08/08 Q1018 TEMPO 1200 -DZ BR BKN005
2026-04-02 04:00:00,METAR LFPB 020400Z AUTO VRB02KT 7000 FEW048 OVC078 08/08 Q1018 TEMPO 1200 -DZ BR BKN005
2026-04-02 03:30:00,METAR LFPB 020330Z AUTO 20002KT 6000 NSC 09/08 Q1018 TEMPO 1200 -DZ BR BKN005
2026-04-02 03:00:00,METAR LFPB 020300Z AUTO 23001KT 6000 NSC 09/08 Q1019 TEMPO 1200 -DZ BR BKN005
2026-04-02 02:30:00,METAR LFPB 020230Z AUTO VRB01KT 6000 NSC 09/08 Q1019 TEMPO 1200 -DZ BR BKN005
2026-04-02 02:00:00,METAR LFPB 020200Z AUTO 32002KT 6000 NSC 09/08 Q1019 TEMPO 2500 -RADZ BR BKN008
2026-04-02 01:30:00,METAR LFPB 020130Z AUTO VRB02KT 4800 BR FEW018 OVC050 09/08 Q1019 TEMPO 2500 -RADZ BR BKN008
2026-04-02 01:00:00,METAR LFPB 020100Z AUTO 22001KT 4600 BR FEW015 BKN050 BKN060 09/08 Q1020 BECMG 5000 -RADZ BR
2026-04-02 00:30:00,METAR LFPB 020030Z AUTO 00000KT 4900 BR FEW047 OVC054 09/08 Q1020 BECMG 5000 -RADZ BR
2026-04-02 00:00:00,METAR LFPB 020000Z AUTO 27002KT 4700 BR FEW010 SCT048 OVC056 09/09 Q1020 BECMG 5000 -RADZ BR
2026-04-01 23:30:00,METAR LFPB 012330Z AUTO 00000KT 4500 BR BKN006 BKN044 OVC052 09/09 Q1020 BECMG 5000 -RADZ BR BKN030
2026-04-01 23:00:00,METAR LFPB 012300Z AUTO 12001KT 4700 -DZ BR FEW006 BKN038 BKN048 09/09 Q1020 BECMG 9999 NSW
2026-04-01 22:30:00,METAR LFPB 012230Z AUTO 00000KT 4600 -RADZ BR SCT037 BKN050 OVC062 09/09 Q1020 BECMG 9999 NSW
2026-04-01 22:00:00,METAR LFPB 012200Z AUTO 28002KT 5000 BR NSC 10/09 Q1021 NOSIG
2026-04-01 21:30:00,METAR LFPB 012130Z AUTO 31001KT 5000 BR FEW040 BKN048 OVC056 10/09 Q1021 NOSIG
2026-04-01 21:00:00,METAR LFPB 012100Z AUTO VRB02KT 6000 -DZ BKN040 BKN048 OVC060 10/09 Q1021 NOSIG
2026-04-01 20:30:00,METAR LFPB 012030Z AUTO 11003KT 8000 -RADZ OVC037 10/09 Q1021 NOSIG
2026-04-01 20:00:00,METAR LFPB 012000Z AUTO 00000KT 7000 FEW009 SCT016 BKN035 10/09 Q1021 NOSIG
2026-04-01 19:30:00,METAR LFPB 011930Z AUTO 09001KT 6000 FEW017 SCT023 OVC032 10/09 Q1021 NOSIG
2026-04-01 19:00:00,METAR LFPB 011900Z AUTO 00000KT 6000 FEW015 SCT023 OVC029 10/09 Q1021 NOSIG
2026-04-01 18:30:00,METAR LFPB 011830Z AUTO 20001KT 6000 OVC029 10/09 Q1021 NOSIG
2026-04-01 18:00:00,METAR LFPB 011800Z AUTO 28002KT 6000 OVC027 10/09 Q1021 NOSIG
2026-04-01 17:30:00,METAR LFPB 011730Z AUTO VRB01KT 6000 OVC025/// ///TCU 10/09 Q1021 BECMG BKN025
2026-04-01 17:00:00,METAR LFPB 011700Z AUTO VRB02KT 5000 BR OVC022/// ///TCU 11/09 Q1021 BECMG BKN016
2026-04-01 16:30:00,METAR LFPB 011630Z AUTO VRB02KT 5000 BR FEW005/// BKN018/// OVC024/// ///TCU 11/09 Q1021 BECMG BKN016
2026-04-01 16:00:00,METAR LFPB 011600Z AUTO VRB01KT 2400 -RA BR BKN013/// OVC018/// ///TCU 11/09 Q1022 BECMG 6000 NSW BKN016
2026-04-01 15:30:00,METAR LFPB 011530Z AUTO VRB02KT 6000 OVC014 11/09 Q1022 BECMG BKN016
2026-04-01 15:00:00,METAR LFPB 011500Z AUTO 00000KT 6000 BKN014 OVC019 11/09 Q1022 BECMG BKN016
2026-04-01 14:00:00,METAR LFPB 011400Z AUTO VRB01KT 4500 BR FEW006 SCT010 OVC016 11/09 Q1023 BECMG 6000 NSW
2026-04-01 13:30:00,METAR LFPB 011330Z AUTO 00000KT 4100 BR OVC015 11/09 Q1023 BECMG 6000 NSW
2026-04-01 13:00:00,METAR LFPB 011300Z AUTO VRB02KT 3100 BR OVC012 10/09 Q1023 BECMG 6000 NSW BKN016
2026-04-01 12:30:00,METAR LFPB 011230Z AUTO VRB02KT 4000 BR OVC009 10/09 Q1024 BECMG 6000 NSW BKN016
2026-04-01 12:00:00,METAR LFPB 011200Z AUTO 06003KT 020V090 3900 BR OVC007 10/09 Q1024 BECMG 6000 NSW BKN016
2026-04-01 11:30:00,METAR LFPB 011130Z AUTO 07004KT 4600 BR OVC007 10/09 Q1024 BECMG 9999 NSW BKN020
2026-04-01 11:00:00,METAR LFPB 011100Z AUTO 08003KT 4800 BR OVC008 10/09 Q1024 BECMG 9999 NSW BKN020
2026-04-01 10:30:00,METAR LFPB 011030Z AUTO 09004KT 4600 BR OVC008 10/09 Q1025 BECMG 9999 NSW BKN020
2026-04-01 10:00:00,METAR LFPB 011000Z AUTO 03003KT 7000 OVC009 10/09 Q1025 TEMPO 4000 BR BKN012
2026-04-01 09:30:00,METAR LFPB 010930Z AUTO VRB02KT 8000 BKN008 OVC012 10/09 Q1025 TEMPO 4000 BR BKN012
2026-04-01 09:00:00,METAR LFPB 010900Z AUTO VRB02KT 8000 BKN008 OVC012 10/09 Q1025 TEMPO 4000 BR BKN012
2026-04-01 08:30:00,METAR LFPB 010830Z AUTO VRB02KT 9999 OVC009 10/09 Q1025 BECMG BKN020
2026-04-01 08:00:00,METAR LFPB 010800Z AUTO VRB02KT 9999 OVC011 10/09 Q1025 TEMPO 4000 BR BECMG BKN020
2026-04-01 07:30:00,METAR LFPB 010730Z AUTO VRB01KT 9000 OVC010 10/09 Q1025 TEMPO 4000 BR
2026-04-01 07:00:00,METAR LFPB 010700Z AUTO 33001KT 9000 BKN010 BKN014 OVC022 09/09 Q1026 TEMPO 4000 BR
2026-04-01 06:30:00,METAR LFPB 010630Z AUTO 02002KT 8000 BKN011 OVC023 09/09 Q1026 TEMPO 4000 BR
2026-04-01 06:00:00,METAR LFPB 010600Z AUTO 07003KT 7000 FEW010 BKN024 OVC029 09/08 Q1026 TEMPO 4000 BR BKN012
2026-04-01 05:30:00,METAR LFPB 010530Z AUTO 07003KT 7000 BKN025 OVC031 09/08 Q1026
2026-04-01 05:00:00,METAR LFPB 010500Z AUTO 10002KT 6000 OVC027 09/08 Q1026
2026-04-01 04:30:00,METAR LFPB 010430Z AUTO 00000KT 6000 SCT020 OVC027 09/08 Q1026
2026-04-01 04:00:00,METAR LFPB 010400Z AUTO 00000KT 7000 BKN020 OVC027 09/08 Q1026
2026-04-01 03:30:00,METAR LFPB 010330Z AUTO 30001KT 6000 OVC018 09/08 Q1026
2026-04-01 03:00:00,METAR LFPB 010300Z AUTO 04002KT 6000 SCT019 OVC034 09/08 Q1027
2026-04-01 02:30:00,METAR LFPB 010230Z AUTO 07002KT 5000 BR OVC035 09/08 Q1027
2026-04-01 02:00:00,METAR LFPB 010200Z AUTO 00000KT 4500 BR FEW025 BKN033 OVC039 08/08 Q1027
2026-04-01 01:30:00,METAR LFPB 010130Z AUTO 00000KT 6000 FEW026 OVC037 09/08 Q1028
2026-04-01 01:00:00,METAR LFPB 010100Z AUTO VRB02KT 7000 OVC038 09/08 Q1028
2026-04-01 00:30:00,METAR LFPB 010030Z AUTO VRB02KT 7000 FEW013 OVC038 09/08 Q1028
2026-04-01 00:00:00,METAR LFPB 010000Z AUTO 00000KT 9000 FEW012 BKN038 OVC078 09/08 Q1029
2026-03-31 23:30:00,METAR LFPB 312330Z AUTO VRB02KT 9000 OVC037 09/08 Q1029
2026-03-31 23:00:00,METAR LFPB 312300Z AUTO 23001KT 8000 OVC040 09/08 Q1029
2026-03-31 22:30:00,METAR LFPB 312230Z AUTO 00000KT 9000 -RADZ BKN044 BKN050 OVC070 09/08 Q1029
2026-03-31 22:00:00,METAR LFPB 312200Z AUTO 00000KT 9999 FEW034 OVC076 09/08 Q1029
2026-03-31 21:30:00,METAR LFPB 312130Z AUTO 23002KT 9000 SCT023 BKN030 BKN035 09/08 Q1029
2026-03-31 21:00:00,METAR LFPB 312100Z AUTO 26001KT 9999 OVC021 09/08 Q1030
2026-03-31 20:30:00,METAR LFPB 312030Z AUTO 13001KT 9999 BKN018 OVC024 09/08 Q1030
2026-03-31 20:00:00,METAR LFPB 312000Z AUTO 10002KT 9999 -DZ OVC018 09/08 Q1030
2026-03-31 19:30:00,METAR LFPB 311930Z AUTO 34001KT 8000 -DZ OVC019 09/08 Q1030
2026-03-31 19:00:00,METAR LFPB 311900Z AUTO VRB02KT 9999 OVC021 10/08 Q1030
2026-03-31 18:30:00,METAR LFPB 311830Z AUTO 34003KT 5000 -DZ BR BKN021 OVC030 10/08 Q1030
2026-03-31 18:00:00,METAR LFPB 311800Z AUTO 01003KT 9999 BKN028 OVC034 10/07 Q1029
2026-03-31 17:30:00,METAR LFPB 311730Z AUTO 01003KT 9999 BKN021 BKN029 OVC035 10/07 Q1029 NOSIG
2026-03-31 17:00:00,METAR LFPB 311700Z AUTO 33006KT 300V010 9999 SCT023 OVC031 10/07 Q1029 NOSIG
2026-03-31 16:30:00,METAR LFPB 311630Z AUTO 32005KT 9999 SCT016 BKN023 OVC033 10/08 Q1029 NOSIG
2026-03-31 16:00:00,METAR LFPB 311600Z AUTO 33005KT 280V020 9999 FEW020 BKN025 OVC031 11/07 Q1029 NOSIG
2026-03-31 15:30:00,METAR LFPB 311530Z AUTO 33006KT 270V010 9999 BKN030 OVC036 11/07 Q1029 NOSIG
2026-03-31 15:00:00,METAR LFPB 311500Z AUTO 31006KT 270V340 9999 SCT029 BKN036 OVC042 11/06 Q1029 NOSIG
2026-03-31 14:30:00,METAR LFPB 311430Z AUTO 31007KT 280V340 9999 FEW023 BKN038 OVC045 11/06 Q1029 NOSIG
2026-03-31 14:00:00,METAR LFPB 311400Z AUTO 30005KT 240V330 9999 SCT025 SCT035 BKN047 11/06 Q1030 NOSIG
2026-03-31 13:30:00,METAR LFPB 311330Z AUTO 32006KT 270V350 9999 FEW025 BKN039 OVC050 11/06 Q1030 NOSIG
2026-03-31 13:00:00,METAR LFPB 311300Z AUTO 33007KT 280V020 9999 SCT034 OVC041 11/05 Q1030 NOSIG
2026-03-31 12:30:00,METAR LFPB 311230Z AUTO 32007KT 280V360 9999 BKN034 BKN042 OVC048 11/05 Q1030 NOSIG
2026-03-31 12:00:00,METAR LFPB 311200Z AUTO 30006KT 270V340 9999 SCT029 BKN036 OVC049 11/04 Q1030 NOSIG
2026-03-31 11:30:00,METAR LFPB 311130Z AUTO 27005KT 230V300 9999 SCT031 BKN043 BKN050 11/05 Q1031 NOSIG
2026-03-31 11:00:00,METAR LFPB 311100Z AUTO 33007KT 270V010 9999 FEW033 SCT046 BKN058 11/04 Q1031 NOSIG
2026-03-31 10:30:00,METAR LFPB 311030Z AUTO 33006KT 280V020 9999 FEW032 OVC092 11/04 Q1030 NOSIG
2026-03-31 10:00:00,METAR LFPB 311000Z AUTO 33007KT 290V020 9999 FEW026 OVC090 11/05 Q1031 NOSIG
2026-03-31 09:30:00,METAR LFPB 310930Z AUTO 33005KT 300V020 9999 FEW025 OVC090 10/05 Q1031 NOSIG
2026-03-31 09:00:00,METAR LFPB 310900Z AUTO 34005KT 300V020 CAVOK 10/05 Q1031 NOSIG
2026-03-31 08:30:00,METAR LFPB 310830Z AUTO 32004KT 240V350 CAVOK 10/05 Q1031 NOSIG
2026-03-31 08:00:00,METAR LFPB 310800Z AUTO 31004KT 240V360 CAVOK 09/05 Q1030 NOSIG
2026-03-31 07:30:00,METAR LFPB 310730Z AUTO VRB03KT CAVOK 08/05 Q1030 NOSIG
2026-03-31 07:00:00,METAR LFPB 310700Z AUTO 24003KT 9999 FEW038 BKN092 OVC130 07/05 Q1030 NOSIG
2026-03-31 06:30:00,METAR LFPB 310630Z AUTO VRB02KT 9999 FEW040 SCT100 OVC130 06/04 Q1030 NOSIG
2026-03-31 06:00:00,METAR LFPB 310600Z AUTO VRB02KT CAVOK 07/04 Q1030 NOSIG
2026-03-31 05:30:00,METAR LFPB 310530Z AUTO VRB03KT CAVOK 07/04 Q1030
2026-03-31 05:00:00,METAR LFPB 310500Z AUTO VRB02KT CAVOK 07/04 Q1029
2026-03-31 04:30:00,METAR LFPB 310430Z AUTO VRB01KT CAVOK 06/04 Q1029
2026-03-31 04:00:00,METAR LFPB 310400Z AUTO VRB01KT CAVOK 06/04 Q1029
2026-03-31 03:30:00,METAR LFPB 310330Z AUTO 30003KT 260V320 CAVOK 06/04 Q1029
2026-03-31 03:00:00,METAR LFPB 310300Z AUTO 29003KT 9999 FEW046 SCT070 07/04 Q1029
2026-03-31 02:30:00,METAR LFPB 310230Z AUTO VRB02KT CAVOK 07/04 Q1029
2026-03-31 02:00:00,METAR LFPB 310200Z AUTO VRB02KT CAVOK 07/04 Q1029
2026-03-31 01:30:00,METAR LFPB 310130Z AUTO VRB02KT CAVOK 07/04 Q1029
2026-03-31 01:00:00,METAR LFPB 310100Z AUTO 32003KT CAVOK 07/04 Q1029
2026-03-31 00:30:00,METAR LFPB 310030Z AUTO VRB03KT CAVOK 07/04 Q1028
2026-03-31 00:00:00,METAR LFPB 310000Z AUTO 32003KT CAVOK 07/04 Q1028
2026-03-30 23:30:00,METAR LFPB 302330Z AUTO 32004KT CAVOK 07/04 Q1028
2026-03-30 23:00:00,METAR LFPB 302300Z AUTO 35003KT CAVOK 08/04 Q1028
2026-03-30 22:30:00,METAR LFPB 302230Z AUTO 34005KT 310V010 9999 FEW035 SCT044 BKN080 09/04 Q1028
2026-03-30 22:00:00,METAR LFPB 302200Z AUTO 31004KT 280V340 9999 SCT036 SCT042 BKN060 09/04 Q1027
2026-03-30 21:30:00,METAR LFPB 302130Z AUTO 30005KT 270V330 9999 BKN045 BKN058 OVC072 09/05 Q1027
2026-03-30 21:00:00,METAR LFPB 302100Z AUTO 30004KT 260V330 CAVOK 09/04 Q1027
2026-03-30 20:30:00,METAR LFPB 302030Z AUTO 31004KT 270V340 CAVOK 09/04 Q1026
2026-03-30 20:00:00,METAR LFPB 302000Z AUTO 31006KT 280V340 9999 FEW047 BKN084 10/04 Q1026
2026-03-30 19:30:00,METAR LFPB 301930Z AUTO 31005KT 270V340 9999 FEW045 BKN080 09/04 Q1026
2026-03-30 19:00:00,METAR LFPB 301900Z AUTO 33006KT 9999 FEW013 SCT050 BKN060 08/05 Q1026
2026-03-30 18:30:00,METAR LFPB 301830Z AUTO 35015KT 320V020 9999 4300 -RA FEW014 BKN041 BKN049 09/05 Q1026
2026-03-30 18:00:00,METAR LFPB 301800Z AUTO 31013KT 280V350 9999 BKN044 BKN054 BKN066 11/02 Q1024
2026-03-30 17:30:00,METAR LFPB 301730Z AUTO 31010KT 270V350 9999 SCT047 BKN058 BKN068 12/02 Q1024 BECMG 32015G25KT
2026-03-30 17:00:00,METAR LFPB 301700Z AUTO 32011KT 280V360 CAVOK 12/02 Q1024 BECMG 32015G25KT
2026-03-30 16:30:00,METAR LFPB 301630Z AUTO 32013KT 280V340 9999 FEW044 SCT060 OVC082 12/02 Q1024 BECMG 32015G25KT
2026-03-30 16:00:00,METAR LFPB 301600Z AUTO 31015KT 280V350 9999 FEW046 BKN078 12/02 Q1023 BECMG 32015G25KT
2026-03-30 15:30:00,METAR LFPB 301530Z AUTO 32012KT 280V350 9999 FEW048 BKN066 BKN076 12/02 Q1023 BECMG 32015G25KT
2026-03-30 15:00:00,METAR LFPB 301500Z AUTO 32010KT 280V010 CAVOK 12/02 Q1023 BECMG 32015G25KT
2026-03-30 14:30:00,METAR LFPB 301430Z AUTO 31013G23KT 270V330 CAVOK 13/02 Q1023 NOSIG
2026-03-30 14:00:00,METAR LFPB 301400Z AUTO 30011KT 260V340 CAVOK 12/00 Q1023 BECMG 32015G25KT
2026-03-30 13:30:00,METAR LFPB 301330Z AUTO 32010KT 270V350 CAVOK 13/02 Q1023 BECMG 32015G25KT
2026-03-30 13:00:00,METAR LFPB 301300Z AUTO 32012KT 280V010 CAVOK 13/01 Q1023 BECMG 32015G25KT
2026-03-30 12:30:00,METAR LFPB 301230Z AUTO 30013KT 260V330 CAVOK 13/01 Q1023 BECMG 32015G25KT
2026-03-30 12:00:00,METAR LFPB 301200Z AUTO 30012KT 260V350 9999 BKN048 BKN064 13/03 Q1023 BECMG 32015G25KT
2026-03-30 11:30:00,METAR LFPB 301130Z AUTO 29013KT 260V320 9999 FEW047 BKN062 BKN074 13/02 Q1023 TEMPO 32015G25KT
2026-03-30 11:00:00,METAR LFPB 301100Z AUTO 31011KT 260V340 9999 BKN046 BKN058 12/02 Q1023 TEMPO 32015G25KT
2026-03-30 10:30:00,METAR LFPB 301030Z AUTO 31014G26KT 270V340 9999 SCT038 BKN044 BKN050 12/02 Q1023 NOSIG
2026-03-30 10:00:00,METAR LFPB 301000Z AUTO 31010KT 260V340 9999 BKN037 BKN044 BKN054 12/04 Q1023 TEMPO 32015G25KT
2026-03-30 09:30:00,METAR LFPB 300930Z AUTO 32011KT 280V350 9999 FEW037 SCT043 BKN052 12/03 Q1023 TEMPO 32015G25KT
2026-03-30 09:00:00,METAR LFPB 300900Z AUTO 31010KT 270V340 9999 FEW028 BKN036 BKN048 12/04 Q1023 TEMPO 32015G25KT
2026-03-30 08:30:00,METAR LFPB 300830Z AUTO 29009KT 250V340 9999 SCT021 BKN026 BKN032 11/06 Q1023 TEMPO 32015G25KT
2026-03-30 08:00:00,METAR LFPB 300800Z AUTO 27008KT 240V340 9999 BKN020 BKN028 11/07 Q1023 TEMPO 32015G25KT
2026-03-30 07:30:00,METAR LFPB 300730Z AUTO 25009KT 220V290 9999 FEW014 10/07 Q1023 TEMPO 32015G25KT
2026-03-30 07:00:00,METAR LFPB 300700Z AUTO 25008KT 9999 FEW042 09/08 Q1023 TEMPO 32015G25KT
2026-03-30 06:30:00,METAR LFPB 300630Z AUTO 24006KT 9999 FEW036 08/07 Q1023 TEMPO 32015G25KT
2026-03-30 06:00:00,METAR LFPB 300600Z AUTO 24005KT 9999 SCT041 08/06 Q1023 NOSIG
2026-03-30 05:30:00,METAR LFPB 300530Z AUTO 25006KT 9999 SCT014 SCT032 08/06 Q1023 NOSIG
2026-03-30 05:00:00,METAR LFPB 300500Z AUTO 25006KT 9999 BKN013 BKN036 08/06 Q1023 TEMPO 4000 -RA BKN007
2026-03-30 04:30:00,METAR LFPB 300430Z AUTO 25007KT 230V290 9999 OVC013 09/07 Q1023 TEMPO 4000 -RA BKN007
2026-03-30 04:00:00,METAR LFPB 300400Z AUTO 25008KT 9999 BKN014 OVC019 08/07 Q1023 TEMPO 4000 -RA BKN007
2026-03-30 03:30:00,METAR LFPB 300330Z AUTO 24007KT 210V270 9999 BKN014 OVC019 08/07 Q1023 TEMPO 4000 -RA BKN007
2026-03-30 03:00:00,METAR LFPB 300300Z AUTO 24011KT 7000 -DZ BKN016 OVC022 08/07 Q1023 TEMPO 25015G25KT 4000 -RA BKN010
2026-03-30 02:30:00,METAR LFPB 300230Z AUTO 25012KT 9999 OVC017 09/06 Q1023 TEMPO 25015G25KT 4000 -RA BKN010
2026-03-30 02:00:00,METAR LFPB 300200Z AUTO 25013KT 9999 OVC019 09/05 Q1023 TEMPO 25015G25KT 4000 -RA BKN010
2026-03-30 01:30:00,METAR LFPB 300130Z AUTO 25015KT 9999 BKN021 BKN036 BKN052 09/05 Q1024 TEMPO 25015G25KT 4000 -RA BKN010
2026-03-30 01:00:00,METAR LFPB 300100Z AUTO 24016KT 9999 BKN024 BKN030 BKN047 09/05 Q1024 TEMPO 25015G25KT BKN014
2026-03-30 00:30:00,METAR LFPB 300030Z AUTO 24014KT 9999 BKN026 BKN045 BKN060 09/04 Q1025 TEMPO 25015G25KT BKN014
2026-03-30 00:00:00,METAR LFPB 300000Z AUTO 24015KT 9999 BKN028 BKN041 BKN052 09/04 Q1025 TEMPO 25015G25KT
2026-03-29 23:30:00,METAR LFPB 292330Z AUTO 23014KT 9999 BKN029 BKN038 BKN047 09/03 Q1026 TEMPO 25015G25KT
2026-03-29 23:00:00,METAR LFPB 292300Z AUTO 23014KT 9999 BKN032 OVC058 09/03 Q1026 TEMPO 25015G25KT
2026-03-29 22:30:00,METAR LFPB 292230Z AUTO 24013KT 210V280 9999 BKN033 BKN044 OVC056 09/03 Q1027 TEMPO 25015G25KT
2026-03-29 22:00:00,METAR LFPB 292200Z AUTO 25011KT 9999 BKN038 BKN045 BKN056 10/03 Q1027 NOSIG
2026-03-29 21:30:00,METAR LFPB 292130Z AUTO 24012KT 210V270 9999 FEW038 BKN054 OVC076 10/02 Q1027 NOSIG
2026-03-29 21:00:00,METAR LFPB 292100Z AUTO 25011KT 220V280 9999 SCT040 BKN049 OVC078 10/02 Q1028 NOSIG
2026-03-29 20:30:00,METAR LFPB 292030Z AUTO 24012KT CAVOK 10/02 Q1028 NOSIG
2026-03-29 20:00:00,METAR LFPB 292000Z AUTO 24009KT CAVOK 10/02 Q1028 NOSIG
2026-03-29 19:30:00,METAR LFPB 291930Z AUTO 24008KT CAVOK 10/02 Q1028 NOSIG
2026-03-29 19:00:00,METAR LFPB 291900Z AUTO 23008KT CAVOK 10/00 Q1028 NOSIG
2026-03-29 18:30:00,METAR LFPB 291830Z AUTO 24007KT CAVOK 10/00 Q1028 NOSIG
2026-03-29 18:00:00,METAR LFPB 291800Z AUTO 25007KT CAVOK 11/M01 Q1028 NOSIG
2026-03-29 17:30:00,METAR LFPB 291730Z AUTO 27006KT 240V310 CAVOK 11/M00 Q1029
2026-03-29 17:00:00,METAR LFPB 291700Z AUTO 27008KT 240V320 CAVOK 11/M00 Q1029
2026-03-29 16:30:00,METAR LFPB 291630Z AUTO 29007KT 230V340 CAVOK 11/M00 Q1029
2026-03-29 16:00:00,METAR LFPB 291600Z AUTO 28007KT 250V330 CAVOK 12/M01 Q1030
2026-03-29 15:30:00,METAR LFPB 291530Z AUTO 28005KT 250V330 CAVOK 11/M00 Q1030
2026-03-29 15:00:00,METAR LFPB 291500Z AUTO 27009KT 240V320 CAVOK 12/M00 Q1030
2026-03-29 14:30:00,METAR LFPB 291430Z AUTO 25010KT CAVOK 12/M00 Q1030
2026-03-29 14:00:00,METAR LFPB 291400Z AUTO 31007KT 250V340 CAVOK 12/M00 Q1031
2026-03-29 13:30:00,METAR LFPB 291330Z AUTO 31009KT 270V340 CAVOK 12/M01 Q1031
2026-03-29 13:00:00,METAR LFPB 291300Z AUTO 28006KT 220V350 CAVOK 11/M01 Q1031
2026-03-29 12:30:00,METAR LFPB 291230Z AUTO 27006KT 200V330 9999 BKN049 BKN058 12/M00 Q1032
2026-03-29 12:00:00,METAR LFPB 291200Z AUTO 23005KT 160V310 9999 BKN047 11/00 Q1032
2026-03-29 11:30:00,METAR LFPB 291130Z AUTO VRB02KT 9999 SCT040 BKN046 10/00 Q1032
2026-03-29 11:00:00,METAR LFPB 291100Z AUTO VRB04KT 9999 SCT040 11/01 Q1032
2026-03-29 10:30:00,METAR LFPB 291030Z AUTO 30004KT 240V020 9999 SCT033 10/02 Q1032
2026-03-29 10:00:00,METAR LFPB 291000Z AUTO 35004KT 230V040 9999 FEW027 09/02 Q1032
2026-03-29 09:30:00,METAR LFPB 290930Z AUTO 01004KT 320V070 9999 SCT024 09/03 Q1033
2026-03-29 09:00:00,METAR LFPB 290900Z AUTO 34007KT 280V020 9999 FEW022 08/03 Q1033
2026-03-29 08:30:00,METAR LFPB 290830Z AUTO 33006KT 280V020 CAVOK 08/03 Q1032
2026-03-29 08:00:00,METAR LFPB 290800Z AUTO 36004KT 280V060 CAVOK 07/03 Q1032
2026-03-29 07:30:00,METAR LFPB 290730Z AUTO 33004KT 280V010 CAVOK 06/02 Q1032
2026-03-29 07:00:00,METAR LFPB 290700Z AUTO VRB02KT CAVOK 05/02 Q1032
2026-03-29 06:30:00,METAR LFPB 290630Z AUTO VRB03KT CAVOK 03/01 Q1032
2026-03-29 06:00:00,METAR LFPB 290600Z AUTO VRB02KT CAVOK 03/01 Q1032
2026-03-29 05:30:00,METAR LFPB 290530Z AUTO 33004KT CAVOK 03/00 Q1031 NOSIG
2026-03-29 05:00:00,METAR LFPB 290500Z AUTO 33005KT CAVOK 03/01 Q1031 NOSIG
2026-03-29 04:30:00,METAR LFPB 290430Z AUTO 32005KT CAVOK 03/01 Q1031 NOSIG
2026-03-29 04:00:00,METAR LFPB 290400Z AUTO 32005KT CAVOK 04/01 Q1030 NOSIG
2026-03-29 03:30:00,METAR LFPB 290330Z AUTO 32006KT CAVOK 04/01 Q1030 NOSIG
2026-03-29 03:00:00,METAR LFPB 290300Z AUTO 32006KT 9999 FEW033 SCT043 04/01 Q1030 NOSIG
2026-03-29 02:30:00,METAR LFPB 290230Z AUTO 32005KT 9999 SCT042 04/00 Q1030 NOSIG
2026-03-29 02:00:00,METAR LFPB 290200Z AUTO 30004KT 260V330 CAVOK 04/00 Q1030 NOSIG
2026-03-29 01:30:00,METAR LFPB 290130Z AUTO 30005KT 270V330 CAVOK 04/01 Q1030 NOSIG
2026-03-29 01:00:00,METAR LFPB 290100Z AUTO 30006KT 270V330 CAVOK 05/01 Q1030 NOSIG
2026-03-29 00:30:00,METAR LFPB 290030Z AUTO 30004KT 9999 SCT044 BKN064 BKN076 04/01 Q1030 NOSIG
2026-03-29 00:00:00,METAR LFPB 290000Z AUTO 27003KT 9999 FEW041 04/01 Q1029 NOSIG
2026-03-28 23:30:00,METAR LFPB 282330Z AUTO VRB03KT CAVOK 04/01 Q1029 NOSIG
2026-03-28 23:00:00,METAR LFPB 282300Z AUTO 27004KT CAVOK 04/01 Q1029 BECMG 33010KT
2026-03-28 22:30:00,METAR LFPB 282230Z AUTO 32003KT CAVOK 04/01 Q1029 NOSIG
2026-03-28 22:00:00,METAR LFPB 282200Z AUTO 30005KT 260V330 9999 FEW024 SCT064 BKN078 05/02 Q1029 NOSIG
2026-03-28 21:30:00,METAR LFPB 282130Z AUTO VRB03KT 9999 FEW046 SCT056 04/02 Q1029 NOSIG
2026-03-28 21:00:00,METAR LFPB 282100Z AUTO 23002KT 9999 FEW043 BKN060 BKN072 04/01 Q1029 TEMPO SCT025TCU BECMG 33010KT
2026-03-28 20:30:00,METAR LFPB 282030Z AUTO 03008KT 350V060 9999 FEW026/// BKN054/// BKN074/// ///CB 05/02 Q1028 BECMG NSC
2026-03-28 20:00:00,METAR LFPB 282000Z AUTO 36013KT 310V040 9999 FEW030/// BKN043/// BKN058/// ///TCU 07/01 Q1029 NOSIG
2026-03-28 19:30:00,METAR LFPB 281930Z AUTO 32007KT 280V340 9999 ///TCU 08/M01 Q1028 NOSIG
2026-03-28 19:00:00,METAR LFPB 281900Z AUTO 32007KT CAVOK 08/M01 Q1027 TEMPO 4000 SHRA SCT025TCU
2026-03-28 18:30:00,METAR LFPB 281830Z AUTO 32006KT 9999 FEW048 08/00 Q1026 TEMPO 4000 SHRA SCT025TCU
2026-03-28 18:00:00,METAR LFPB 281800Z AUTO 33005KT CAVOK 08/M00 Q1026 TEMPO 4000 SHRA SCT030CB
2026-03-28 17:30:00,METAR LFPB 281730Z AUTO 33007KT 300V360 CAVOK 09/M02 Q1026 TEMPO 4000 SHRA SCT030CB
2026-03-28 17:00:00,METAR LFPB 281700Z AUTO 34011KT 310V020 CAVOK 09/M04 Q1025 TEMPO 32015G25KT 4000 -SHRA SCT025TCU
2026-03-28 16:30:00,METAR LFPB 281630Z AUTO 35011KT 310V020 9999 FEW047/// SCT056/// BKN086/// ///TCU 10/00 Q1025 TEMPO 32015G25KT 4000 -SHRA
2026-03-28 16:00:00,METAR LFPB 281600Z AUTO 34010KT 320V020 CAVOK 10/M01 Q1025 TEMPO 4000 -SHRA SCT025TCU BECMG 32015G25KT
2026-03-28 15:30:00,METAR LFPB 281530Z AUTO 31012KT 250V340 9999 ///TCU 11/M02 Q1024 TEMPO 4000 -SHRA BECMG 32015G25KT
2026-03-28 15:00:00,METAR LFPB 281500Z AUTO 32009KT 280V360 CAVOK 10/M02 Q1024 BECMG 34015G25KT
2026-03-28 14:30:00,METAR LFPB 281430Z AUTO 33010KT 290V010 9999 ///TCU 10/M02 Q1024 BECMG 34015G25KT FEW036
2026-03-28 14:00:00,METAR LFPB 281400Z AUTO 32012KT 280V350 CAVOK 12/M01 Q1024 BECMG 34015G25KT
2026-03-28 13:30:00,METAR LFPB 281330Z AUTO 32011KT 280V350 CAVOK 11/M03 Q1024 BECMG 34015G25KT
2026-03-28 13:00:00,METAR LFPB 281300Z AUTO 34012KT CAVOK 11/M01 Q1024 BECMG 34015G25KT
2026-03-28 12:30:00,METAR LFPB 281230Z AUTO 33013KT 290V360 CAVOK 11/M01 Q1024 BECMG 34015G25KT
2026-03-28 12:00:00,METAR LFPB 281200Z AUTO 32013KT 290V350 9999 FEW042/// SCT049/// ///TCU 11/M00 Q1024 BECMG 34015G25KT FEW036
2026-03-28 11:30:00,METAR LFPB 281130Z AUTO 31012KT 260V340 9999 FEW041 SCT047 BKN062 11/01 Q1024 BECMG 34015G25KT
2026-03-28 11:00:00,METAR LFPB 281100Z AUTO 32012KT 280V360 9999 FEW039 BKN045 BKN052 10/01 Q1024 BECMG 34015G25KT
2026-03-28 10:30:00,METAR LFPB 281030Z AUTO 34015KT 9999 FEW036 SCT068 10/02 Q1024 BECMG 34015G25KT
2026-03-28 10:00:00,METAR LFPB 281000Z AUTO 34012KT 300V010 9999 FEW031 SCT060 10/02 Q1024 BECMG 34015G25KT
2026-03-28 09:30:00,METAR LFPB 280930Z AUTO 33012KT 290V010 9999 SCT025 BKN033 BKN054 10/04 Q1023 BECMG 34015G25KT
2026-03-28 09:00:00,METAR LFPB 280900Z AUTO 33011KT 300V360 9999 BKN022 BKN031 BKN076 09/05 Q1023 BECMG 34015G25KT
2026-03-28 08:30:00,METAR LFPB 280830Z AUTO 32012KT 280V350 9999 BKN017 OVC033 08/05 Q1023 BECMG 34015G25KT
2026-03-28 08:00:00,METAR LFPB 280800Z AUTO 30008KT 260V340 9999 FEW012 BKN030 OVC052 08/06 Q1022 BECMG 34015G25KT
2026-03-28 07:30:00,METAR LFPB 280730Z AUTO 29005KT 260V330 9999 FEW025 SCT066 07/05 Q1022 BECMG 34015G25KT
2026-03-28 07:00:00,METAR LFPB 280700Z AUTO 31005KT 270V330 9999 FEW023 BKN140 BKN170 07/05 Q1022 NOSIG
2026-03-28 06:30:00,METAR LFPB 280630Z AUTO 31006KT 280V340 CAVOK 07/05 Q1021 NOSIG
2026-03-28 06:00:00,METAR LFPB 280600Z AUTO 33007KT 310V010 9999 FEW041 BKN052 BKN072 07/05 Q1021 NOSIG
2026-03-28 05:30:00,METAR LFPB 280530Z AUTO 32009KT 290V360 9999 -RA FEW026 BKN041 OVC054 07/06 Q1020 NOSIG
2026-03-28 05:00:00,METAR LFPB 280500Z AUTO 33012KT 8000 -RA FEW009/// SCT018/// OVC054/// ///TCU 08/07 Q1020 TEMPO 4000 -RA BECMG BKN030
2026-03-28 04:30:00,METAR LFPB 280430Z AUTO 30009KT 260V330 9000 -RA FEW006/// BKN010/// OVC017/// ///TCU 09/08 Q1019 TEMPO 4000 -RA BECMG BKN030
2026-03-28 04:00:00,METAR LFPB 280400Z AUTO 25007KT 7000 -RA OVC008/// ///TCU 09/08 Q1019 TEMPO 4000 -RA BKN009 BECMG 32012KT
2026-03-28 03:30:00,METAR LFPB 280330Z AUTO 23006KT 6000 -RA OVC008/// ///TCU 09/08 Q1019 TEMPO 4000 -RA BKN009 BECMG 32012KT
2026-03-28 03:00:00,METAR LFPB 280300Z AUTO 22006KT 7000 -RA OVC009 09/08 Q1019 TEMPO 4000 -RA BKN004
2026-03-28 02:30:00,METAR LFPB 280230Z AUTO 20006KT 7000 -RA BKN008 OVC012 09/08 Q1019 TEMPO 4000 -RA BKN004
2026-03-28 02:00:00,METAR LFPB 280200Z AUTO 20006KT 6000 -RA BKN008 OVC012 08/08 Q1020 TEMPO 2000 RA BKN004
2026-03-28 01:30:00,METAR LFPB 280130Z AUTO 20006KT 4400 -RA BR OVC008 08/08 Q1020 TEMPO 2000 RA BKN004
2026-03-28 01:00:00,METAR LFPB 280100Z AUTO 21006KT 4900 -RA BR BKN009 OVC013 08/07 Q1020 TEMPO 2000 RA BKN004
2026-03-28 00:30:00,METAR LFPB 280030Z AUTO 20007KT 9999 -RA BKN017 OVC034 09/07 Q1021 TEMPO 2000 RA BKN004
2026-03-28 00:00:00,METAR LFPB 280000Z AUTO 20007KT 9999 -RA SCT020 BKN025 BKN038 09/07 Q1021 BECMG BKN014
2026-03-27 23:30:00,METAR LFPB 272330Z AUTO 20006KT 9999 -RA BKN022 BKN031 OVC040 09/06 Q1021 BECMG BKN014
2026-03-27 23:00:00,METAR LFPB 272300Z AUTO 18005KT 9999 -RA OVC021 09/05 Q1021 BECMG BKN012
2026-03-27 22:30:00,METAR LFPB 272230Z AUTO 18006KT 9999 -RA OVC024 09/04 Q1022 BECMG BKN012
2026-03-27 22:00:00,METAR LFPB 272200Z AUTO 19006KT 9999 -RA OVC027 10/04 Q1022 NOSIG
2026-03-27 21:30:00,METAR LFPB 272130Z AUTO 18007KT 9999 -RA BKN031 OVC038 10/04 Q1022 NOSIG
2026-03-27 21:00:00,METAR LFPB 272100Z AUTO 18007KT 9999 -RA OVC034 10/03 Q1022 NOSIG
2026-03-27 20:30:00,METAR LFPB 272030Z AUTO 18007KT 9999 OVC037 10/02 Q1022 NOSIG
2026-03-27 20:00:00,METAR LFPB 272000Z AUTO 17008KT 9999 -RA OVC040 10/03 Q1022 NOSIG
2026-03-27 19:30:00,METAR LFPB 271930Z AUTO 17010KT 9999 OVC042 10/02 Q1022 NOSIG
2026-03-27 19:00:00,METAR LFPB 271900Z AUTO 17008KT 9999 OVC043 10/03 Q1022 NOSIG
2026-03-27 18:30:00,METAR LFPB 271830Z AUTO 18008KT 9999 OVC044 10/02 Q1022 NOSIG
2026-03-27 18:00:00,METAR LFPB 271800Z AUTO 18008KT CAVOK 10/02 Q1022 NOSIG
2026-03-27 17:30:00,METAR LFPB 271730Z AUTO 20007KT 170V280 9999 OVC049 11/02 Q1022 NOSIG
2026-03-27 17:00:00,METAR LFPB 271700Z AUTO 19006KT 9999 BKN048 OVC062 11/03 Q1022 NOSIG
2026-03-27 16:30:00,METAR LFPB 271630Z AUTO 20006KT 9999 BKN049 OVC088 11/02 Q1022 NOSIG
2026-03-27 16:00:00,METAR LFPB 271600Z AUTO 19006KT 9999 BKN048 BKN064 OVC092 11/02 Q1023 NOSIG
2026-03-25 15:00:00,METAR LFPB 251500Z AUTO 29012KT 250V330 9999 FEW025/// SCT035/// BKN045/// ///CB 08/03 Q1012 TEMPO 30025G45KT 2500 -TSRAGS
2026-03-25 14:30:00,METAR LFPB 251430Z AUTO 31012G22KT 270V360 9999 FEW020/// BKN028/// BKN038/// //////TCU 07/03 Q1012 TEMPO 30025G45KT 2500 -TSRAGS SCT025CB
2026-03-25 14:00:00,METAR LFPB 251400Z AUTO 28015G29KT 250V320 9999 1900 -RA BKN022/// BKN028/// BKN037/// ///CB 07/04 Q1012 TEMPO 30025G45KT 2500 -TSRAGS
2026-03-25 13:30:00,METAR LFPB 251330Z AUTO 29014G28KT 260V330 9999 OVC018/// //////TCU 07/04 Q1011 TEMPO 30025G45KT 2500 -TSRAGS SCT025CB
2026-03-25 13:00:00,METAR LFPB 251300Z AUTO 28012KT 250V310 9999 -DZ BKN020/// BKN027/// BKN035/// //////CB 06/04 Q1011 TEMPO 28020G35KT 2000 -TSRAGS BECMG SCT040
2026-03-25 12:30:00,METAR LFPB 251230Z AUTO 27017KT 230V310 9999 3900 -RA BKN024/// BKN033/// BKN039/// ///CB 07/04 Q1010 TEMPO 28020G35KT 2000 -TSRAGS BECMG SCT040
2026-03-25 12:00:00,METAR LFPB 251200Z AUTO 28014KT 260V320 9999 -RA SCT025/// BKN036/// BKN044/// ///CB 07/04 Q1010 TEMPO 28025G45KT 2000 -TSRAGS
2026-03-25 11:30:00,METAR LFPB 251130Z AUTO 29012KT 250V320 9999 -RA FEW020/// BKN028/// BKN034/// ///TCU 06/04 Q1010 TEMPO 28025G45KT 2000 -TSRAGS SCT020CB BKN025
2026-03-25 11:00:00,METAR LFPB 251100Z AUTO 27011KT 210V300 9000 -RA BKN017/// BKN023/// BKN029/// ///CB 07/05 Q1010 TEMPO 28025G45KT 2000 -TSRAGS
2026-03-25 10:30:00,METAR LFPB 251030Z AUTO 26012KT 230V290 6000 BKN018/// BKN024/// OVC030/// ///CB 08/05 Q1010 TEMPO 28025G45KT 2000 -TSRAGS
2026-03-25 10:00:00,METAR LFPB 251000Z AUTO 26014KT 230V310 9999 -RADZ BKN019/// BKN026/// BKN039/// ///CB 07/05 Q1010 TEMPO 28025G45KT 2000 -TSRAGS
2026-03-25 09:30:00,METAR LFPB 250930Z AUTO 25016KT 230V290 9999 -RA SCT019/// BKN025/// BKN032/// //////TCU 07/04 Q1010 TEMPO 28025G45KT 2000 -TSRAGS SCT020CB BKN025
2026-03-25 09:00:00,METAR LFPB 250900Z AUTO 25012KT 210V290 9999 -RA FEW023/// BKN031/// BKN037/// ///CB 07/04 Q1010 TEMPO 28020G35KT 4000 -SHRA
2026-03-25 08:30:00,METAR LFPB 250830Z AUTO 28015G26KT 250V310 5000 RA BR FEW020/// BKN029/// OVC035/// //////CB 06/03 Q1010 TEMPO NSW
2026-03-25 08:00:00,METAR LFPB 250800Z AUTO 26014KT 230V290 9999 BKN028/// BKN037/// BKN049/// ///CB 09/04 Q1009 TEMPO 28020G35KT 4000 -SHRA
2026-03-25 07:30:00,METAR LFPB 250730Z AUTO 26014KT 230V290 9999 FEW029 SCT035 BKN086 08/04 Q1009 TEMPO 28020G35KT 4000 -SHRA SCT020TCU BKN025
2026-03-25 07:00:00,METAR LFPB 250700Z AUTO 26014KT 9999 FEW024/// SCT029/// BKN076/// //////TCU 08/04 Q1009
2026-03-25 06:30:00,METAR LFPB 250630Z AUTO 25013KT 9999 BKN028/// BKN036/// BKN046/// ///TCU 08/04 Q1009
2026-03-25 06:00:00,METAR LFPB 250600Z AUTO 25014KT 9999 FEW045/// SCT056/// BKN066/// //////TCU 08/04 Q1009
2026-03-25 05:30:00,METAR LFPB 250530Z AUTO 26015G26KT 220V290 9999 -RA SCT027/// BKN035/// BKN044/// ///TCU 09/05 Q1009
2026-03-25 05:00:00,METAR LFPB 250500Z AUTO 24009KT 9999 FEW025 09/06 Q1008
2026-03-25 04:30:00,METAR LFPB 250430Z AUTO 24010KT 220V280 9999 FEW029 SCT038 BKN070 09/07 Q1008
2026-03-25 04:00:00,METAR LFPB 250400Z AUTO 26012KT 9999 SCT015/// BKN022/// OVC027/// ///TCU 09/07 Q1009
2026-03-25 03:30:00,METAR LFPB 250330Z AUTO 23015KT 200V260 9999 -RA BKN020/// BKN030/// OVC043/// ///TCU 11/07 Q1009
2026-03-25 03:00:00,METAR LFPB 250300Z AUTO 22014G26KT 180V250 9999 BKN023/// OVC032/// ///TCU 11/07 Q1009
2026-03-25 02:30:00,METAR LFPB 250230Z AUTO 22013G24KT 190V270 9999 BKN023 OVC031 11/07 Q1009
2026-03-25 02:00:00,METAR LFPB 250200Z AUTO 22012KT 190V250 9999 OVC024 11/06 Q1009
2026-03-25 01:30:00,METAR LFPB 250130Z AUTO 22015KT 9999 OVC025 11/06 Q1010
2026-03-25 01:00:00,METAR LFPB 250100Z AUTO 23014KT 200V260 9999 OVC027 11/05 Q1011
2026-03-25 00:30:00,METAR LFPB 250030Z AUTO 23017G28KT 9999 BKN029 BKN034 11/04 Q1011
2026-03-25 00:00:00,METAR LFPB 250000Z AUTO 23017KT CAVOK 12/02 Q1011
2026-03-24 23:30:00,METAR LFPB 242330Z AUTO 22016KT CAVOK 12/01 Q1011
2026-03-24 23:00:00,METAR LFPB 242300Z AUTO 22015KT CAVOK 13/01 Q1011
2026-03-24 22:30:00,METAR LFPB 242230Z AUTO 21014KT 180V240 CAVOK 13/02 Q1011
2026-03-24 22:00:00,METAR LFPB 242200Z AUTO 21012KT 180V240 CAVOK 13/04 Q1012
2026-03-24 21:30:00,METAR LFPB 242130Z AUTO 21014KT CAVOK 14/05 Q1012
2026-03-24 21:00:00,METAR LFPB 242100Z AUTO 20011KT CAVOK 14/05 Q1013
2026-03-24 20:30:00,METAR LFPB 242030Z AUTO 22013KT CAVOK 15/05 Q1014
2026-03-24 20:00:00,METAR LFPB 242000Z AUTO 21010KT CAVOK 14/05 Q1014
2026-03-24 19:30:00,METAR LFPB 241930Z AUTO 20010KT CAVOK 15/05 Q1015
2026-03-24 19:00:00,METAR LFPB 241900Z AUTO 20014KT CAVOK 15/05 Q1015 BECMG 24015G25KT
2026-03-24 18:30:00,METAR LFPB 241830Z AUTO 21012KT CAVOK 16/05 Q1016 BECMG 24015G25KT
2026-03-24 18:00:00,METAR LFPB 241800Z AUTO 20012KT CAVOK 16/05 Q1015 BECMG 24015G25KT
2026-03-24 17:30:00,METAR LFPB 241730Z AUTO 20013KT CAVOK 16/05 Q1016 BECMG 24015G25KT
2026-03-24 17:00:00,METAR LFPB 241700Z AUTO 21010KT 180V240 CAVOK 17/05 Q1016 NOSIG
2026-03-24 16:30:00,METAR LFPB 241630Z AUTO 21011KT 170V230 CAVOK 17/06 Q1016 NOSIG
2026-03-24 16:00:00,METAR LFPB 241600Z AUTO 19012KT 170V230 CAVOK 18/05 Q1016 NOSIG
2026-03-24 15:30:00,METAR LFPB 241530Z AUTO 21012KT CAVOK 18/05 Q1017 NOSIG
2026-03-24 15:00:00,METAR LFPB 241500Z AUTO 20012KT CAVOK 18/03 Q1018 NOSIG
2026-03-24 14:30:00,METAR LFPB 241430Z AUTO 19013KT CAVOK 18/05 Q1018 NOSIG
2026-03-24 14:00:00,METAR LFPB 241400Z AUTO 21010KT 160V260 CAVOK 18/04 Q1018 NOSIG
2026-03-24 13:30:00,METAR LFPB 241330Z AUTO 20012KT CAVOK 19/03 Q1019 NOSIG
2026-03-24 13:00:00,METAR LFPB 241300Z AUTO 22010KT 180V250 CAVOK 18/03 Q1019 NOSIG
2026-03-24 12:30:00,METAR LFPB 241230Z AUTO 22010KT 180V260 CAVOK 18/03 Q1020 NOSIG
2026-03-24 12:00:00,METAR LFPB 241200Z AUTO 22010KT 180V260 CAVOK 17/03 Q1020 NOSIG
2026-03-24 11:30:00,METAR LFPB 241130Z AUTO 22009KT 180V260 CAVOK 17/04 Q1021 NOSIG
2026-03-24 11:00:00,METAR LFPB 241100Z AUTO 23009KT 190V270 9000 NSC 16/04 Q1021 NOSIG
2026-03-24 10:30:00,METAR LFPB 241030Z AUTO 23011KT 180V260 9000 NSC 16/04 Q1021 NOSIG
2026-03-24 10:00:00,METAR LFPB 241000Z AUTO 25010KT 9000 NSC 15/05 Q1022 NOSIG
2026-03-24 09:30:00,METAR LFPB 240930Z AUTO 22008KT 190V260 8000 NSC 14/06 Q1022 NOSIG
2026-03-24 09:00:00,METAR LFPB 240900Z AUTO 20002KT 4600 BR NSC 12/07 Q1022 BECMG 9999 NSW
2026-03-24 08:30:00,METAR LFPB 240830Z AUTO VRB01KT 4500 BR NSC 10/07 Q1022 BECMG 9999 NSW
2026-03-24 08:00:00,METAR LFPB 240800Z AUTO VRB01KT 4300 BR NSC 09/07 Q1022 BECMG 9999 NSW
2026-03-24 07:30:00,METAR LFPB 240730Z AUTO VRB01KT 4000 BR NSC 09/06 Q1022 BECMG 9999 NSW
2026-03-24 07:00:00,METAR LFPB 240700Z AUTO 00000KT 3600 BR NSC 07/06 Q1022 BECMG 9999 NSW
2026-03-24 06:30:00,METAR LFPB 240630Z AUTO 34003KT 4400 BR NSC 06/04 Q1022 BECMG 9999 NSW
2026-03-24 06:00:00,METAR LFPB 240600Z AUTO VRB02KT 3800 BR NSC 06/04 Q1022 BECMG 9999 NSW
2026-03-24 05:30:00,METAR LFPB 240530Z AUTO 07002KT 5000 BR NSC 06/04 Q1021 NOSIG
2026-03-24 05:00:00,METAR LFPB 240500Z AUTO 03001KT 5000 BR NSC 06/04 Q1021 NOSIG
2026-03-24 04:30:00,METAR LFPB 240430Z AUTO 00000KT 5000 BR NSC 06/04 Q1022 NOSIG
2026-03-24 04:00:00,METAR LFPB 240400Z AUTO 00000KT 6000 NSC 06/04 Q1022 NOSIG
2026-03-24 03:30:00,METAR LFPB 240330Z AUTO 00000KT 6000 NSC 06/04 Q1022 NOSIG
2026-03-24 03:00:00,METAR LFPB 240300Z AUTO 00000KT 7000 NSC 06/04 Q1022 NOSIG
2026-03-24 02:30:00,METAR LFPB 240230Z AUTO 34003KT 7000 NSC 06/04 Q1022 NOSIG
2026-03-24 02:00:00,METAR LFPB 240200Z AUTO 00000KT 7000 NSC 06/04 Q1022 NOSIG
2026-03-24 01:30:00,METAR LFPB 240130Z AUTO 31001KT 7000 NSC 06/04 Q1022 NOSIG
2026-03-24 01:00:00,METAR LFPB 240100Z AUTO 00000KT 7000 NSC 06/04 Q1022 NOSIG
2026-03-24 00:30:00,METAR LFPB 240030Z AUTO VRB01KT 7000 NSC 06/03 Q1022 NOSIG
2026-03-24 00:00:00,METAR LFPB 240000Z AUTO 34001KT 7000 NSC 06/04 Q1022 NOSIG
2026-03-23 23:30:00,METAR LFPB 232330Z AUTO 33003KT 7000 NSC 07/04 Q1022 NOSIG
2026-03-23 23:00:00,METAR LFPB 232300Z AUTO 35003KT 7000 NSC 06/03 Q1022 NOSIG
2026-03-23 22:30:00,METAR LFPB 232230Z AUTO 36003KT 7000 NSC 07/04 Q1022 NOSIG
2026-03-23 22:00:00,METAR LFPB 232200Z AUTO 02002KT 8000 NSC 08/04 Q1022 NOSIG
2026-03-23 21:30:00,METAR LFPB 232130Z AUTO 08002KT 8000 NSC 08/03 Q1022 NOSIG
2026-03-23 21:00:00,METAR LFPB 232100Z AUTO 00000KT 9000 NSC 09/03 Q1022 NOSIG
2026-03-23 20:30:00,METAR LFPB 232030Z AUTO 32002KT 9000 NSC 10/04 Q1022 NOSIG
2026-03-23 20:00:00,METAR LFPB 232000Z AUTO VRB02KT CAVOK 10/03 Q1022 NOSIG
2026-03-23 19:30:00,METAR LFPB 231930Z AUTO 02003KT CAVOK 11/04 Q1022 NOSIG
2026-03-23 19:00:00,METAR LFPB 231900Z AUTO 34003KT CAVOK 13/03 Q1022 NOSIG
2026-03-23 18:30:00,METAR LFPB 231830Z AUTO 33004KT CAVOK 13/03 Q1021 NOSIG
2026-03-23 18:00:00,METAR LFPB 231800Z AUTO 33005KT CAVOK 14/03 Q1021 NOSIG
2026-03-23 17:30:00,METAR LFPB 231730Z AUTO 33005KT CAVOK 15/02 Q1021 NOSIG
2026-03-23 17:00:00,METAR LFPB 231700Z AUTO 34005KT CAVOK 16/03 Q1020 NOSIG
2026-03-23 16:30:00,METAR LFPB 231630Z AUTO 33004KT 310V010 CAVOK 16/03 Q1020 NOSIG
2026-03-23 16:00:00,METAR LFPB 231600Z AUTO VRB03KT CAVOK 17/04 Q1020 NOSIG
2026-03-23 15:30:00,METAR LFPB 231530Z AUTO 32005KT 260V020 CAVOK 17/03 Q1020 NOSIG
2026-03-23 15:00:00,METAR LFPB 231500Z AUTO 05004KT 330V110 CAVOK 16/03 Q1020 NOSIG
2026-03-23 14:30:00,METAR LFPB 231430Z AUTO 34003KT 240V030 CAVOK 16/02 Q1020 NOSIG
2026-03-23 14:00:00,METAR LFPB 231400Z AUTO 04007KT 350V070 CAVOK 16/01 Q1020 NOSIG
2026-03-23 13:30:00,METAR LFPB 231330Z AUTO 01003KT 300V110 CAVOK 16/02 Q1020 NOSIG
2026-03-23 13:00:00,METAR LFPB 231300Z AUTO VRB05KT CAVOK 16/02 Q1020 NOSIG
2026-03-23 12:30:00,METAR LFPB 231230Z AUTO VRB04KT CAVOK 16/04 Q1020 NOSIG
2026-03-23 12:00:00,METAR LFPB 231200Z AUTO VRB04KT 8000 NSC 16/04 Q1020 NOSIG
2026-03-23 11:30:00,METAR LFPB 231130Z AUTO 36006KT 310V080 9000 NSC 15/05 Q1021 NOSIG
2026-03-23 11:00:00,METAR LFPB 231100Z AUTO 03004KT 340V070 9000 NSC 14/06 Q1021 NOSIG
2026-03-23 10:30:00,METAR LFPB 231030Z AUTO 34003KT 270V040 8000 NSC 13/05 Q1021 NOSIG
2026-03-23 10:00:00,METAR LFPB 231000Z AUTO 03004KT 340V070 6000 NSC 12/06 Q1021 NOSIG
2026-03-23 09:30:00,METAR LFPB 230930Z AUTO 36004KT 310V030 4900 BR NSC 11/06 Q1020 BECMG 9999 NSW
2026-03-23 09:00:00,METAR LFPB 230900Z AUTO 31004KT 260V030 4400 BR NSC 10/06 Q1020 BECMG 9999 NSW
2026-03-23 08:30:00,METAR LFPB 230830Z AUTO 31004KT 260V340 4100 BR NSC 08/05 Q1020 BECMG 9999 NSW
2026-03-23 08:00:00,METAR LFPB 230800Z AUTO VRB01KT 3800 R09/1400U BR NSC 07/06 Q1019 BECMG 9999 NSW
2026-03-23 07:30:00,METAR LFPB 230730Z AUTO VRB02KT 3900 BR NSC 06/04 Q1019 BECMG 9999 NSW
2026-03-23 07:00:00,METAR LFPB 230700Z AUTO 13001KT 3700 BR NSC 05/03 Q1019 BECMG 9999 NSW
2026-03-23 06:30:00,METAR LFPB 230630Z AUTO 00000KT 3700 BR NSC 04/03 Q1019 BECMG 9999 NSW
2026-03-23 06:00:00,METAR LFPB 230600Z AUTO 31002KT 4000 BR NSC 04/03 Q1019 BECMG 9999 NSW
2026-03-23 05:30:00,METAR LFPB 230530Z AUTO VRB02KT 5000 BR NSC 04/03 Q1018 NOSIG
2026-03-23 05:00:00,METAR LFPB 230500Z AUTO VRB01KT 5000 BR NSC 04/03 Q1018 NOSIG
2026-03-23 04:30:00,METAR LFPB 230430Z AUTO VRB02KT 5000 BR NSC 05/03 Q1017 NOSIG
2026-03-23 04:00:00,METAR LFPB 230400Z AUTO 25002KT 5000 BR NSC 05/04 Q1017 NOSIG
2026-03-23 03:30:00,METAR LFPB 230330Z AUTO 33002KT 5000 BR NSC 06/04 Q1017 NOSIG
2026-03-23 03:00:00,METAR LFPB 230300Z AUTO VRB02KT 5000 BR NSC 06/04 Q1017 NOSIG
2026-03-23 02:30:00,METAR LFPB 230230Z AUTO 33003KT 5000 BR NSC 06/04 Q1017 NOSIG
2026-03-23 02:00:00,METAR LFPB 230200Z AUTO VRB02KT 6000 NSC 07/04 Q1017 NOSIG
2026-03-23 01:30:00,METAR LFPB 230130Z AUTO VRB02KT 6000 NSC 07/04 Q1016 NOSIG
2026-03-23 01:00:00,METAR LFPB 230100Z AUTO 33004KT 300V020 6000 NSC 07/04 Q1016 NOSIG
2026-03-23 00:30:00,METAR LFPB 230030Z AUTO 31004KT 250V340 7000 NSC 08/04 Q1016 NOSIG
2026-03-23 00:00:00,METAR LFPB 230000Z AUTO 33004KT 7000 NSC 08/04 Q1016 NOSIG
2026-03-22 23:30:00,METAR LFPB 222330Z AUTO 33005KT 7000 NSC 08/04 Q1016 NOSIG
2026-03-22 23:00:00,METAR LFPB 222300Z AUTO 33003KT 310V010 7000 NSC 08/04 Q1016 NOSIG
2026-03-22 22:30:00,METAR LFPB 222230Z AUTO 34004KT 310V010 7000 NSC 09/04 Q1016 NOSIG
2026-03-22 22:00:00,METAR LFPB 222200Z AUTO 34005KT 8000 NSC 09/04 Q1016 NOSIG
2026-03-22 21:30:00,METAR LFPB 222130Z AUTO 34003KT 310V010 8000 NSC 09/04 Q1015 NOSIG
2026-03-22 21:00:00,METAR LFPB 222100Z AUTO 33005KT 9000 NSC 09/04 Q1015 NOSIG
2026-03-22 20:30:00,METAR LFPB 222030Z AUTO 34004KT 300V010 9000 NSC 10/04 Q1015 NOSIG
2026-03-22 20:00:00,METAR LFPB 222000Z AUTO 34004KT CAVOK 10/04 Q1015 NOSIG
2026-03-22 19:30:00,METAR LFPB 221930Z AUTO 35004KT CAVOK 11/04 Q1015 NOSIG
2026-03-22 19:00:00,METAR LFPB 221900Z AUTO 35004KT 310V020 CAVOK 11/04 Q1014 NOSIG
2026-03-22 18:30:00,METAR LFPB 221830Z AUTO 35005KT 320V020 CAVOK 12/04 Q1014 NOSIG
2026-03-22 18:00:00,METAR LFPB 221800Z AUTO 36006KT CAVOK 13/05 Q1014 NOSIG
2026-03-22 17:30:00,METAR LFPB 221730Z AUTO 36006KT 330V030 CAVOK 14/05 Q1013 NOSIG
2026-03-22 17:00:00,METAR LFPB 221700Z AUTO 02008KT 350V050 9999 FEW049 14/04 Q1013 NOSIG
2026-03-22 16:30:00,METAR LFPB 221630Z AUTO 01005KT 340V040 9999 FEW048 SCT054 15/04 Q1013 NOSIG
2026-03-22 16:00:00,METAR LFPB 221600Z AUTO 02005KT 340V040 CAVOK 14/03 Q1013 NOSIG
2026-03-22 15:30:00,METAR LFPB 221530Z AUTO 03006KT 350V070 CAVOK 15/04 Q1013 NOSIG
2026-03-22 15:00:00,METAR LFPB 221500Z AUTO 02006KT 350V050 CAVOK 15/04 Q1012 NOSIG
2026-03-22 14:30:00,METAR LFPB 221430Z AUTO 04009KT 9999 FEW048 15/04 Q1013 NOSIG
2026-03-22 14:00:00,METAR LFPB 221400Z AUTO 03010KT CAVOK 15/04 Q1013 NOSIG
2026-03-22 13:30:00,METAR LFPB 221330Z AUTO 03009KT 350V070 9999 FEW046 15/04 Q1013 NOSIG
2026-03-22 12:30:00,METAR LFPB 221230Z AUTO 03010KT 360V060 CAVOK 15/04 Q1013 NOSIG
2026-03-22 12:00:00,METAR LFPB 221200Z AUTO 01009KT 340V060 9999 FEW043 14/04 Q1013 NOSIG
2026-03-22 11:30:00,METAR LFPB 221130Z AUTO 03010KT 360V060 9999 FEW037 13/04 Q1013 NOSIG
2026-03-22 10:30:00,METAR LFPB 221030Z AUTO 03009KT 360V060 9000 NSC 12/05 Q1014 NOSIG
2026-03-22 09:30:00,METAR LFPB 220930Z AUTO VRB04KT CAVOK 11/05 Q1014 NOSIG
2026-03-22 09:00:00,METAR LFPB 220900Z AUTO 02006KT 340V050 8000 NSC 09/04 Q1014 NOSIG
2026-03-22 08:30:00,METAR LFPB 220830Z AUTO 36005KT 330V030 9000 NSC 08/05 Q1014 NOSIG
2026-03-22 08:00:00,METAR LFPB 220800Z AUTO 36006KT 8000 NSC 07/04 Q1014 NOSIG
2026-03-22 07:30:00,METAR LFPB 220730Z AUTO 35004KT 7000 NSC 07/04 Q1014 NOSIG
2026-03-22 07:00:00,METAR LFPB 220700Z AUTO 36005KT 320V020 6000 NSC 06/04 Q1014 NOSIG
2026-03-22 06:30:00,METAR LFPB 220630Z AUTO 34005KT 5000 BR NSC 05/04 Q1013 NOSIG
2026-03-22 06:00:00,METAR LFPB 220600Z AUTO 35004KT 320V050 5000 BR NSC 04/03 Q1013 NOSIG
2026-03-22 05:30:00,METAR LFPB 220530Z AUTO 36004KT 5000 BR NSC 05/03 Q1013 NOSIG
2026-03-22 05:00:00,METAR LFPB 220500Z AUTO VRB02KT 6000 NSC 05/03 Q1012 TEMPO 4000 BR
2026-03-22 04:30:00,METAR LFPB 220430Z AUTO 36003KT 320V050 6000 NSC 05/03 Q1013 TEMPO 4000 BR
2026-03-22 04:00:00,METAR LFPB 220400Z AUTO 34003KT 310V020 6000 NSC 06/04 Q1013 TEMPO 4000 BR
2026-03-22 03:30:00,METAR LFPB 220330Z AUTO VRB03KT 6000 NSC 06/04 Q1013 TEMPO 4000 BR
2026-03-22 03:00:00,METAR LFPB 220300Z AUTO 35004KT 310V020 6000 NSC 06/04 Q1013 TEMPO 4000 BR
2026-03-22 02:30:00,METAR LFPB 220230Z AUTO 34005KT 310V050 6000 NSC 07/04 Q1013 TEMPO 4000 BR
2026-03-22 02:00:00,METAR LFPB 220200Z AUTO 35006KT 320V020 6000 NSC 07/04 Q1013 TEMPO 4000 BR
2026-03-22 01:30:00,METAR LFPB 220130Z AUTO 35007KT 5000 BR NSC 07/04 Q1013 NOSIG
2026-03-22 01:00:00,METAR LFPB 220100Z AUTO 35007KT 310V010 5000 BR NSC 07/04 Q1013 NOSIG
2026-03-22 00:30:00,METAR LFPB 220030Z AUTO 34008KT 5000 BR NSC 07/04 Q1013 NOSIG
2026-03-22 00:00:00,METAR LFPB 220000Z AUTO 35007KT 320V020 6000 NSC 08/04 Q1013 NOSIG
2026-03-21 23:30:00,METAR LFPB 212330Z AUTO 35008KT 320V020 6000 NSC 08/04 Q1013 NOSIG
2026-03-21 23:00:00,METAR LFPB 212300Z AUTO 35006KT 320V020 7000 NSC 09/04 Q1013 NOSIG
2026-03-21 22:30:00,METAR LFPB 212230Z AUTO 35007KT 7000 NSC 09/04 Q1014 NOSIG
2026-03-21 22:00:00,METAR LFPB 212200Z AUTO 35006KT 7000 NSC 09/04 Q1014 NOSIG
2026-03-21 21:30:00,METAR LFPB 212130Z AUTO 35006KT 8000 NSC 10/04 Q1014 NOSIG
2026-03-21 21:00:00,METAR LFPB 212100Z AUTO 34005KT 9000 NSC 10/04 Q1014 NOSIG
2026-03-21 20:30:00,METAR LFPB 212030Z AUTO 35006KT 9000 NSC 10/04 Q1014 NOSIG
2026-03-21 20:00:00,METAR LFPB 212000Z AUTO 36006KT CAVOK 11/04 Q1014 NOSIG
2026-03-21 19:30:00,METAR LFPB 211930Z AUTO 34004KT 290V020 CAVOK 11/04 Q1014 NOSIG
2026-03-21 19:00:00,METAR LFPB 211900Z AUTO 35004KT CAVOK 12/04 Q1014 NOSIG
2026-03-21 18:30:00,METAR LFPB 211830Z AUTO 34005KT 310V010 CAVOK 12/05 Q1014 NOSIG
2026-03-21 18:00:00,METAR LFPB 211800Z AUTO 35006KT 320V020 9000 NSC 13/05 Q1014 NOSIG
2026-03-21 17:30:00,METAR LFPB 211730Z AUTO 35005KT 310V020 9000 FEW010 14/04 Q1013 NOSIG
2026-03-21 17:00:00,METAR LFPB 211700Z AUTO 35007KT 310V010 CAVOK 15/04 Q1013 NOSIG
2026-03-21 16:30:00,METAR LFPB 211630Z AUTO 35008KT 320V030 CAVOK 16/05 Q1013 NOSIG
2026-03-21 16:00:00,METAR LFPB 211600Z AUTO 34010KT 310V010 CAVOK 16/05 Q1013 NOSIG
2026-03-21 15:30:00,METAR LFPB 211530Z AUTO 35006KT 290V030 8000 NSC 17/05 Q1013 NOSIG
2026-03-21 15:00:00,METAR LFPB 211500Z AUTO 02007KT 350V050 CAVOK 17/04 Q1014 NOSIG
2026-03-21 14:30:00,METAR LFPB 211430Z AUTO 01005KT 330V040 CAVOK 17/04 Q1014 NOSIG
2026-03-21 14:00:00,METAR LFPB 211400Z AUTO 02006KT 310V060 CAVOK 16/05 Q1014 NOSIG
2026-03-21 13:30:00,METAR LFPB 211330Z AUTO 02005KT 320V070 CAVOK 16/04 Q1014 NOSIG
2026-03-21 13:00:00,METAR LFPB 211300Z AUTO 02005KT 310V060 CAVOK 16/04 Q1015 NOSIG
2026-03-21 12:30:00,METAR LFPB 211230Z AUTO 36007KT 320V020 CAVOK 15/04 Q1015 NOSIG
2026-03-21 12:00:00,METAR LFPB 211200Z AUTO 01005KT 300V070 CAVOK 15/04 Q1015 NOSIG
2026-03-21 11:30:00,METAR LFPB 211130Z AUTO 04007KT 330V100 5000 HZ NSC 14/05 Q1015 NOSIG
2026-03-21 11:00:00,METAR LFPB 211100Z AUTO 01005KT 310V050 7000 NSC 13/05 Q1016 NOSIG
2026-03-21 10:30:00,METAR LFPB 211030Z AUTO 01005KT 320V060 7000 NSC 13/06 Q1016 NOSIG
2026-03-21 10:00:00,METAR LFPB 211000Z AUTO 03005KT 330V090 8000 NSC 12/06 Q1016 NOSIG
2026-03-21 09:30:00,METAR LFPB 210930Z AUTO 02005KT 320V060 8000 NSC 11/05 Q1016 NOSIG
2026-03-21 09:00:00,METAR LFPB 210900Z AUTO 02006KT 350V060 8000 NSC 10/05 Q1016 NOSIG
2026-03-21 08:30:00,METAR LFPB 210830Z AUTO 36006KT 340V040 8000 NSC 09/05 Q1016 NOSIG
2026-03-21 08:00:00,METAR LFPB 210800Z AUTO 36006KT 320V020 8000 NSC 08/05 Q1016 NOSIG
2026-03-21 07:30:00,METAR LFPB 210730Z AUTO 35005KT 320V020 7000 NSC 07/04 Q1016 NOSIG
2026-03-21 07:00:00,METAR LFPB 210700Z AUTO 36005KT 320V040 5000 BR NSC 06/04 Q1016 NOSIG
2026-03-21 06:30:00,METAR LFPB 210630Z AUTO 35004KT 320V020 5000 BR NSC 06/04 Q1016 NOSIG
2026-03-21 06:00:00,METAR LFPB 210600Z AUTO 35004KT 320V030 4800 BR NSC 06/04 Q1016 BECMG 9999 NSW
2026-03-21 05:30:00,METAR LFPB 210530Z AUTO 35004KT 320V020 5000 BR NSC 06/04 Q1016 NOSIG
2026-03-21 05:00:00,METAR LFPB 210500Z AUTO 35004KT 320V020 5000 BR NSC 06/04 Q1016 NOSIG
2026-03-21 04:30:00,METAR LFPB 210430Z AUTO VRB03KT 5000 BR NSC 06/04 Q1016 NOSIG
2026-03-21 04:00:00,METAR LFPB 210400Z AUTO 35004KT 5000 BR NSC 07/04 Q1016 NOSIG
2026-03-21 03:30:00,METAR LFPB 210330Z AUTO 35004KT 310V010 5000 BR NSC 07/04 Q1016 NOSIG
2026-03-21 03:00:00,METAR LFPB 210300Z AUTO 35005KT 5000 BR NSC 07/04 Q1016 NOSIG
2026-03-21 02:30:00,METAR LFPB 210230Z AUTO 34005KT 5000 BR NSC 07/04 Q1016 NOSIG
2026-03-21 02:00:00,METAR LFPB 210200Z AUTO 34005KT 5000 BR NSC 08/04 Q1016 NOSIG
2026-03-21 01:30:00,METAR LFPB 210130Z AUTO 35006KT 5000 BR NSC 08/04 Q1016 NOSIG
2026-03-21 01:00:00,METAR LFPB 210100Z AUTO 35005KT 6000 NSC 08/04 Q1016 TEMPO 4000 BR
2026-03-21 00:30:00,METAR LFPB 210030Z AUTO 34004KT 7000 NSC 08/04 Q1016 TEMPO 4000 BR
2026-03-21 00:00:00,METAR LFPB 210000Z AUTO VRB02KT 7000 NSC 08/04 Q1016 TEMPO 4000 BR
2026-03-20 23:30:00,METAR LFPB 202330Z AUTO VRB03KT 7000 NSC 09/04 Q1016 NOSIG
2026-03-20 23:00:00,METAR LFPB 202300Z AUTO 36004KT 7000 NSC 09/04 Q1017 NOSIG
2026-03-20 22:30:00,METAR LFPB 202230Z AUTO 35005KT 7000 NSC 09/04 Q1017 NOSIG
2026-03-20 22:00:00,METAR LFPB 202200Z AUTO 35004KT 8000 NSC 09/04 Q1017 NOSIG
2026-03-20 21:30:00,METAR LFPB 202130Z AUTO 36006KT 9000 NSC 10/04 Q1017 NOSIG
2026-03-20 21:00:00,METAR LFPB 202100Z AUTO 35005KT CAVOK 10/03 Q1017 NOSIG
2026-03-20 20:30:00,METAR LFPB 202030Z AUTO 36004KT CAVOK 11/03 Q1017 NOSIG
2026-03-20 20:00:00,METAR LFPB 202000Z AUTO 01005KT CAVOK 11/03 Q1017 NOSIG
2026-03-20 19:30:00,METAR LFPB 201930Z AUTO 36005KT CAVOK 11/02 Q1017 NOSIG
2026-03-20 19:00:00,METAR LFPB 201900Z AUTO 04004KT CAVOK 12/02 Q1017 NOSIG
2026-03-20 18:30:00,METAR LFPB 201830Z AUTO 06007KT CAVOK 12/01 Q1017
2026-03-20 18:00:00,METAR LFPB 201800Z AUTO 05006KT CAVOK 13/02 Q1017
2026-03-20 17:30:00,METAR LFPB 201730Z AUTO 05006KT CAVOK 15/02 Q1017
2026-03-20 17:00:00,METAR LFPB 201700Z AUTO 05007KT CAVOK 16/03 Q1016
2026-03-20 16:30:00,METAR LFPB 201630Z AUTO 04009KT CAVOK 17/03 Q1017
2026-03-20 16:00:00,METAR LFPB 201600Z AUTO 04009KT CAVOK 17/00 Q1017
2026-03-20 15:30:00,METAR LFPB 201530Z AUTO 05009KT 020V090 CAVOK 17/02 Q1017
2026-03-20 15:00:00,METAR LFPB 201500Z AUTO 05009KT CAVOK 17/02 Q1017
2026-03-20 14:30:00,METAR LFPB 201430Z AUTO 06007KT 030V120 CAVOK 17/01 Q1018
2026-03-20 14:00:00,METAR LFPB 201400Z AUTO 04008KT 010V100 CAVOK 17/03 Q1018
2026-03-20 13:30:00,METAR LFPB 201330Z AUTO 02007KT 350V050 CAVOK 17/02 Q1018
2026-03-20 12:30:00,METAR LFPB 201230Z AUTO 06008KT 010V150 CAVOK 17/02 Q1019
2026-03-20 12:00:00,METAR LFPB 201200Z AUTO 04007KT 360V100 CAVOK 16/02 Q1019
2026-03-20 11:30:00,METAR LFPB 201130Z AUTO 06006KT 030V120 CAVOK 16/04 Q1020
2026-03-20 11:00:00,METAR LFPB 201100Z AUTO 05003KT 360V130 CAVOK 15/04 Q1020
2026-03-20 10:30:00,METAR LFPB 201030Z AUTO VRB02KT CAVOK 15/04 Q1020
2026-03-20 10:00:00,METAR LFPB 201000Z AUTO 01004KT 340V050 CAVOK 13/04 Q1020
2026-03-20 09:30:00,METAR LFPB 200930Z AUTO 36005KT 340V040 CAVOK 12/04 Q1020
2026-03-20 09:00:00,METAR LFPB 200900Z AUTO 34004KT 310V020 9000 NSC 10/04 Q1021
2026-03-20 08:30:00,METAR LFPB 200830Z AUTO 01004KT 330V040 7000 NSC 09/03 Q1021
2026-03-20 08:00:00,METAR LFPB 200800Z AUTO 36004KT 330V040 7000 NSC 08/03 Q1021
2026-03-20 07:30:00,METAR LFPB 200730Z AUTO 35003KT 6000 NSC 07/03 Q1020
2026-03-20 07:00:00,METAR LFPB 200700Z AUTO VRB02KT 7000 NSC 05/02 Q1020
2026-03-20 06:30:00,METAR LFPB 200630Z AUTO 36002KT 7000 NSC 04/02 Q1020 NOSIG
2026-03-20 06:00:00,METAR LFPB 200600Z AUTO VRB02KT 7000 NSC 04/01 Q1020 NOSIG
2026-03-20 05:30:00,METAR LFPB 200530Z AUTO 35001KT 8000 NSC 04/01 Q1020 BECMG 05010KT
2026-03-20 05:00:00,METAR LFPB 200500Z AUTO 01002KT 8000 NSC 04/02 Q1020 NOSIG
2026-03-20 04:30:00,METAR LFPB 200430Z AUTO 01002KT 9000 NSC 04/02 Q1020 NOSIG
2026-03-20 04:00:00,METAR LFPB 200400Z AUTO VRB01KT 9000 NSC 04/01 Q1020 NOSIG
2026-03-20 03:30:00,METAR LFPB 200330Z AUTO 35003KT CAVOK 04/01 Q1020 BECMG 05010KT
2026-03-20 03:00:00,METAR LFPB 200300Z AUTO 35003KT CAVOK 05/02 Q1020 BECMG 05010KT
2026-03-20 02:30:00,METAR LFPB 200230Z AUTO 36002KT CAVOK 06/02 Q1020 NOSIG
2026-03-20 02:00:00,METAR LFPB 200200Z AUTO 35003KT CAVOK 06/02 Q1020 BECMG 05010KT
2026-03-20 01:30:00,METAR LFPB 200130Z AUTO 35003KT CAVOK 06/02 Q1020 BECMG 05010KT
2026-03-20 01:00:00,METAR LFPB 200100Z AUTO 35004KT CAVOK 06/02 Q1021 BECMG 05010KT
2026-03-20 00:30:00,METAR LFPB 200030Z AUTO 33004KT CAVOK 07/02 Q1021 BECMG 05010KT
2026-03-20 00:00:00,METAR LFPB 200000Z AUTO 01003KT CAVOK 07/02 Q1021 NOSIG
2026-03-19 23:30:00,METAR LFPB 192330Z AUTO 34003KT 9000 NSC 08/02 Q1021 BECMG 05010KT
2026-03-19 23:00:00,METAR LFPB 192300Z AUTO 01004KT CAVOK 09/02 Q1021 NOSIG
2026-03-19 22:30:00,METAR LFPB 192230Z AUTO VRB03KT CAVOK 09/02 Q1021 NOSIG
2026-03-19 22:00:00,METAR LFPB 192200Z AUTO 06003KT 020V110 CAVOK 08/02 Q1021 NOSIG
2026-03-19 21:30:00,METAR LFPB 192130Z AUTO 36007KT CAVOK 10/02 Q1021 NOSIG
2026-03-19 21:00:00,METAR LFPB 192100Z AUTO 36007KT CAVOK 11/02 Q1021 NOSIG
2026-03-19 20:30:00,METAR LFPB 192030Z AUTO 36005KT CAVOK 11/02 Q1021 NOSIG
2026-03-19 20:00:00,METAR LFPB 192000Z AUTO 36005KT CAVOK 11/02 Q1021 NOSIG
2026-03-19 19:30:00,METAR LFPB 191930Z AUTO 01004KT CAVOK 12/02 Q1021 NOSIG
2026-03-19 19:00:00,METAR LFPB 191900Z AUTO 01004KT CAVOK 13/01 Q1021 NOSIG
2026-03-19 18:30:00,METAR LFPB 191830Z AUTO 04007KT CAVOK 12/01 Q1021 NOSIG
2026-03-19 18:00:00,METAR LFPB 191800Z AUTO 04007KT CAVOK 13/01 Q1021 NOSIG
2026-03-19 17:30:00,METAR LFPB 191730Z AUTO 05009KT CAVOK 15/02 Q1021 NOSIG
2026-03-19 17:00:00,METAR LFPB 191700Z AUTO 05010KT CAVOK 16/02 Q1020 NOSIG
2026-03-19 16:30:00,METAR LFPB 191630Z AUTO 05011KT CAVOK 17/01 Q1020 NOSIG
2026-03-19 16:00:00,METAR LFPB 191600Z AUTO 05012KT CAVOK 17/02 Q1021 NOSIG
2026-03-19 15:30:00,METAR LFPB 191530Z AUTO 05013KT CAVOK 17/02 Q1021 NOSIG
2026-03-19 15:00:00,METAR LFPB 191500Z AUTO 04014KT CAVOK 17/01 Q1021 NOSIG
2026-03-19 14:30:00,METAR LFPB 191430Z AUTO 04013KT CAVOK 17/02 Q1021 NOSIG
2026-03-19 14:00:00,METAR LFPB 191400Z AUTO 04013KT 020V080 CAVOK 17/03 Q1021 NOSIG
2026-03-19 13:30:00,METAR LFPB 191330Z AUTO 05012KT 020V090 CAVOK 16/03 Q1022 NOSIG
2026-03-19 13:00:00,METAR LFPB 191300Z AUTO 06011KT 030V090 CAVOK 16/03 Q1022 NOSIG
2026-03-19 12:30:00,METAR LFPB 191230Z AUTO 05011KT 020V080 CAVOK 16/05 Q1022 NOSIG
2026-03-19 12:00:00,METAR LFPB 191200Z AUTO 06012KT 030V090 CAVOK 15/04 Q1023 NOSIG
2026-03-19 11:30:00,METAR LFPB 191130Z AUTO 05011KT 030V090 CAVOK 15/04 Q1023 NOSIG
2026-03-19 11:00:00,METAR LFPB 191100Z AUTO 07011KT 040V100 CAVOK 14/04 Q1023 NOSIG
2026-03-19 10:30:00,METAR LFPB 191030Z AUTO 06011KT 020V090 CAVOK 13/04 Q1023 NOSIG
2026-03-19 10:00:00,METAR LFPB 191000Z AUTO 05011KT CAVOK 13/05 Q1024 NOSIG
2026-03-19 09:30:00,METAR LFPB 190930Z AUTO 06011KT CAVOK 12/04 Q1024 NOSIG
2026-03-19 09:00:00,METAR LFPB 190900Z AUTO 05010KT CAVOK 11/04 Q1024 NOSIG
2026-03-19 08:30:00,METAR LFPB 190830Z AUTO 03009KT CAVOK 10/03 Q1024 NOSIG
2026-03-19 08:00:00,METAR LFPB 190800Z AUTO 04010KT CAVOK 10/03 Q1023 NOSIG
2026-03-19 07:30:00,METAR LFPB 190730Z AUTO 06008KT CAVOK 09/03 Q1023 NOSIG
2026-03-19 07:00:00,METAR LFPB 190700Z AUTO 06007KT CAVOK 07/03 Q1022 NOSIG
2026-03-19 06:30:00,METAR LFPB 190630Z AUTO 05008KT CAVOK 06/02 Q1022 NOSIG
2026-03-19 06:00:00,METAR LFPB 190600Z AUTO 05008KT CAVOK 06/02 Q1022 NOSIG
2026-03-19 05:30:00,METAR LFPB 190530Z AUTO 05008KT CAVOK 06/02 Q1022 NOSIG
2026-03-19 05:00:00,METAR LFPB 190500Z AUTO 04008KT CAVOK 06/02 Q1022 NOSIG
2026-03-19 04:30:00,METAR LFPB 190430Z AUTO 03008KT CAVOK 07/02 Q1022 NOSIG
2026-03-19 04:00:00,METAR LFPB 190400Z AUTO 04007KT CAVOK 07/02 Q1022 NOSIG
2026-03-19 03:30:00,METAR LFPB 190330Z AUTO 03008KT CAVOK 07/02 Q1022 NOSIG
2026-03-19 03:00:00,METAR LFPB 190300Z AUTO 04008KT CAVOK 07/02 Q1022 NOSIG
2026-03-19 02:30:00,METAR LFPB 190230Z AUTO 03009KT CAVOK 08/02 Q1022 NOSIG
2026-03-19 02:00:00,METAR LFPB 190200Z AUTO 03009KT CAVOK 08/02 Q1022 NOSIG
2026-03-19 01:30:00,METAR LFPB 190130Z AUTO 04009KT CAVOK 08/02 Q1022 NOSIG
2026-03-19 01:00:00,METAR LFPB 190100Z AUTO 03010KT CAVOK 08/02 Q1022 NOSIG
2026-03-19 00:30:00,METAR LFPB 190030Z AUTO 03009KT CAVOK 08/02 Q1022 NOSIG
2026-03-19 00:00:00,METAR LFPB 190000Z AUTO 04010KT CAVOK 08/02 Q1021 NOSIG
2026-03-18 23:30:00,METAR LFPB 182330Z AUTO 04008KT CAVOK 08/02 Q1021 NOSIG
2026-03-18 23:00:00,METAR LFPB 182300Z AUTO 04009KT CAVOK 09/02 Q1021 NOSIG
2026-03-18 22:30:00,METAR LFPB 182230Z AUTO 04009KT CAVOK 09/02 Q1021 NOSIG
2026-03-18 22:00:00,METAR LFPB 182200Z AUTO 04010KT CAVOK 09/02 Q1021 NOSIG
2026-03-18 21:30:00,METAR LFPB 182130Z AUTO 03007KT CAVOK 09/02 Q1021 NOSIG
2026-03-18 21:00:00,METAR LFPB 182100Z AUTO 04007KT CAVOK 09/02 Q1021 NOSIG
2026-03-18 20:30:00,METAR LFPB 182030Z AUTO 04008KT CAVOK 10/02 Q1020 NOSIG
2026-03-18 20:00:00,METAR LFPB 182000Z AUTO 04007KT CAVOK 10/02 Q1020 NOSIG
2026-03-18 19:30:00,METAR LFPB 181930Z AUTO 05009KT CAVOK 11/02 Q1020 NOSIG
2026-03-18 19:00:00,METAR LFPB 181900Z AUTO 06010KT CAVOK 11/01 Q1020 NOSIG
2026-03-18 18:30:00,METAR LFPB 181830Z AUTO 06010KT CAVOK 11/01 Q1019 NOSIG
2026-03-18 18:00:00,METAR LFPB 181800Z AUTO 05009KT CAVOK 12/01 Q1019 NOSIG
2026-03-18 17:30:00,METAR LFPB 181730Z AUTO 05012KT CAVOK 14/01 Q1018 NOSIG
2026-03-18 17:00:00,METAR LFPB 181700Z AUTO 06014KT CAVOK 14/01 Q1018 TEMPO 08015G25KT
2026-03-18 16:30:00,METAR LFPB 181630Z AUTO 05016KT CAVOK 15/00 Q1018 TEMPO 08015G25KT
2026-03-18 16:00:00,METAR LFPB 181600Z AUTO 06019KT CAVOK 15/M00 Q1018 TEMPO 08015G25KT
2026-03-18 15:30:00,METAR LFPB 181530Z AUTO 06018KT CAVOK 16/01 Q1018 TEMPO 08015G25KT
2026-03-18 15:00:00,METAR LFPB 181500Z AUTO 05017KT CAVOK 16/01 Q1018 TEMPO 08015G25KT
2026-03-18 14:30:00,METAR LFPB 181430Z AUTO 05017KT CAVOK 15/00 Q1018 TEMPO 08015G25KT
2026-03-18 14:00:00,METAR LFPB 181400Z AUTO 06017KT CAVOK 16/M00 Q1018 TEMPO 08015G25KT
2026-03-18 13:30:00,METAR LFPB 181330Z AUTO 06019KT CAVOK 16/M01 Q1018 TEMPO 08015G25KT
2026-03-18 13:00:00,METAR LFPB 181300Z AUTO 06017KT CAVOK 15/M02 Q1019 TEMPO 08015G25KT
2026-03-18 12:30:00,METAR LFPB 181230Z AUTO 07017KT CAVOK 15/M02 Q1019 TEMPO 08015G25KT
2026-03-18 12:00:00,METAR LFPB 181200Z AUTO 07017KT CAVOK 15/M02 Q1019 TEMPO 08015G25KT
2026-03-18 11:30:00,METAR LFPB 181130Z AUTO 07016KT CAVOK 14/M01 Q1020 TEMPO 08015G25KT
2026-03-18 11:00:00,METAR LFPB 181100Z AUTO 06015KT CAVOK 14/M01 Q1020 TEMPO 08015G25KT
2026-03-18 10:30:00,METAR LFPB 181030Z AUTO 06016KT CAVOK 13/M00 Q1020 TEMPO 08015G25KT
2026-03-18 10:00:00,METAR LFPB 181000Z AUTO 07014KT CAVOK 13/00 Q1020 NOSIG
2026-03-18 09:30:00,METAR LFPB 180930Z AUTO 07015KT CAVOK 13/02 Q1020 BECMG 03004KT
2026-03-18 09:00:00,METAR LFPB 180900Z AUTO 07015KT CAVOK 12/03 Q1020 BECMG 03004KT
2026-03-18 08:30:00,METAR LFPB 180830Z AUTO 07013KT CAVOK 11/05 Q1020 NOSIG
2026-03-18 08:00:00,METAR LFPB 180800Z AUTO 07010KT CAVOK 10/06 Q1020 NOSIG
2026-03-18 07:30:00,METAR LFPB 180730Z AUTO 07008KT CAVOK 09/06 Q1020 NOSIG
2026-03-18 07:00:00,METAR LFPB 180700Z AUTO 07006KT CAVOK 08/05 Q1019 NOSIG
2026-03-18 06:30:00,METAR LFPB 180630Z AUTO 06007KT CAVOK 07/05 Q1019 NOSIG
2026-03-18 06:00:00,METAR LFPB 180600Z AUTO 06007KT CAVOK 06/04 Q1019 NOSIG
2026-03-18 05:30:00,METAR LFPB 180530Z AUTO 05007KT CAVOK 06/04 Q1018 NOSIG
2026-03-18 05:00:00,METAR LFPB 180500Z AUTO 03004KT CAVOK 06/04 Q1018 NOSIG
2026-03-18 04:30:00,METAR LFPB 180430Z AUTO 05004KT CAVOK 06/05 Q1018 NOSIG
2026-03-18 04:00:00,METAR LFPB 180400Z AUTO 05005KT CAVOK 06/05 Q1018 NOSIG
2026-03-18 03:30:00,METAR LFPB 180330Z AUTO 05004KT CAVOK 07/05 Q1018 NOSIG
2026-03-18 03:00:00,METAR LFPB 180300Z AUTO 05006KT CAVOK 07/05 Q1018 NOSIG
2026-03-18 02:30:00,METAR LFPB 180230Z AUTO 05008KT CAVOK 08/05 Q1017 NOSIG
2026-03-18 02:00:00,METAR LFPB 180200Z AUTO 06006KT CAVOK 07/05 Q1017 NOSIG
2026-03-18 01:30:00,METAR LFPB 180130Z AUTO 05005KT CAVOK 07/05 Q1018 NOSIG
2026-03-18 01:00:00,METAR LFPB 180100Z AUTO 03004KT CAVOK 07/05 Q1018 NOSIG
2026-03-18 00:30:00,METAR LFPB 180030Z AUTO 07007KT CAVOK 07/05 Q1018 NOSIG
2026-03-18 00:00:00,METAR LFPB 180000Z AUTO 05005KT CAVOK 08/06 Q1018 NOSIG
2026-03-17 23:30:00,METAR LFPB 172330Z AUTO 05005KT CAVOK 08/06 Q1018 BECMG 14010KT
2026-03-17 23:00:00,METAR LFPB 172300Z AUTO 05005KT CAVOK 08/06 Q1018 BECMG 14010KT
2026-03-17 22:30:00,METAR LFPB 172230Z AUTO 04005KT CAVOK 09/06 Q1018 BECMG 14010KT
2026-03-17 22:00:00,METAR LFPB 172200Z AUTO 05004KT CAVOK 09/06 Q1017 BECMG 14010KT
2026-03-17 21:30:00,METAR LFPB 172130Z AUTO 05005KT CAVOK 09/06 Q1018 BECMG 14010KT
2026-03-17 21:00:00,METAR LFPB 172100Z AUTO 05005KT CAVOK 09/07 Q1017 BECMG 14010KT
2026-03-17 20:30:00,METAR LFPB 172030Z AUTO 05006KT CAVOK 10/07 Q1018 BECMG 14010KT
2026-03-17 20:00:00,METAR LFPB 172000Z AUTO 07006KT CAVOK 11/06 Q1017 BECMG 14010KT
2026-03-17 19:30:00,METAR LFPB 171930Z AUTO 09006KT CAVOK 11/06 Q1017 NOSIG
2026-03-17 19:00:00,METAR LFPB 171900Z AUTO 09007KT CAVOK 12/07 Q1017 NOSIG
2026-03-17 18:30:00,METAR LFPB 171830Z AUTO 10007KT CAVOK 14/06 Q1017 NOSIG
2026-03-17 18:00:00,METAR LFPB 171800Z AUTO 11009KT CAVOK 15/06 Q1017 NOSIG
2026-03-17 17:30:00,METAR LFPB 171730Z AUTO 11009KT CAVOK 16/06 Q1017 NOSIG
2026-03-17 17:00:00,METAR LFPB 171700Z AUTO 13008KT CAVOK 16/06 Q1017 NOSIG
2026-03-17 16:30:00,METAR LFPB 171630Z AUTO 13009KT CAVOK 17/07 Q1017 NOSIG
2026-03-17 16:00:00,METAR LFPB 171600Z AUTO 13008KT 090V180 CAVOK 17/06 Q1017 NOSIG
2026-03-17 15:30:00,METAR LFPB 171530Z AUTO 15008KT 120V180 CAVOK 17/06 Q1017 NOSIG
2026-03-17 15:00:00,METAR LFPB 171500Z AUTO 15010KT CAVOK 17/06 Q1017 NOSIG
2026-03-17 14:30:00,METAR LFPB 171430Z AUTO 15010KT 120V180 CAVOK 17/06 Q1018 NOSIG
2026-03-17 14:00:00,METAR LFPB 171400Z AUTO 15011KT CAVOK 17/06 Q1018 NOSIG
2026-03-17 13:30:00,METAR LFPB 171330Z AUTO 16011KT CAVOK 17/05 Q1018 NOSIG
2026-03-17 13:00:00,METAR LFPB 171300Z AUTO 13011KT CAVOK 16/05 Q1019 NOSIG
2026-03-17 12:30:00,METAR LFPB 171230Z AUTO 14013KT CAVOK 16/05 Q1019 NOSIG
2026-03-17 12:00:00,METAR LFPB 171200Z AUTO 16011KT 120V180 CAVOK 15/05 Q1020 NOSIG
2026-03-17 11:30:00,METAR LFPB 171130Z AUTO 14009KT CAVOK 15/05 Q1020 NOSIG
2026-03-17 11:00:00,METAR LFPB 171100Z AUTO 17011KT CAVOK 14/05 Q1020 NOSIG
2026-03-17 10:30:00,METAR LFPB 171030Z AUTO 15009KT CAVOK 14/05 Q1020 NOSIG
2026-03-17 10:00:00,METAR LFPB 171000Z AUTO 15010KT 110V170 CAVOK 13/05 Q1021 NOSIG
2026-03-17 09:30:00,METAR LFPB 170930Z AUTO 15008KT CAVOK 12/05 Q1021 NOSIG
2026-03-17 09:00:00,METAR LFPB 170900Z AUTO 13004KT 090V170 CAVOK 12/06 Q1021 NOSIG
2026-03-17 08:30:00,METAR LFPB 170830Z AUTO VRB03KT CAVOK 11/06 Q1021 NOSIG
2026-03-17 08:00:00,METAR LFPB 170800Z AUTO VRB03KT CAVOK 09/05 Q1021 NOSIG
2026-03-17 07:30:00,METAR LFPB 170730Z AUTO 11003KT CAVOK 08/05 Q1021 NOSIG
2026-03-17 07:00:00,METAR LFPB 170700Z AUTO 11003KT CAVOK 06/05 Q1021 NOSIG
2026-03-17 06:30:00,METAR LFPB 170630Z AUTO 10004KT CAVOK 04/03 Q1021 NOSIG
2026-03-17 06:00:00,METAR LFPB 170600Z AUTO 09004KT CAVOK 04/03 Q1020 TEMPO 4000 BR
2026-03-17 05:30:00,METAR LFPB 170530Z AUTO 10003KT CAVOK 05/04 Q1020 TEMPO 4000 BR
2026-03-17 05:00:00,METAR LFPB 170500Z AUTO 13004KT CAVOK 06/04 Q1020 TEMPO 4000 BR
2026-03-17 04:30:00,METAR LFPB 170430Z AUTO 13004KT CAVOK 06/04 Q1020 TEMPO 4000 BR
2026-03-17 04:00:00,METAR LFPB 170400Z AUTO 12003KT CAVOK 06/04 Q1020 TEMPO 4000 BR
2026-03-17 03:30:00,METAR LFPB 170330Z AUTO 13004KT CAVOK 06/04 Q1020 TEMPO 4000 BR
2026-03-17 03:00:00,METAR LFPB 170300Z AUTO 12003KT CAVOK 07/04 Q1021 NOSIG
2026-03-17 02:30:00,METAR LFPB 170230Z AUTO 13004KT CAVOK 07/05 Q1021 NOSIG
2026-03-17 02:00:00,METAR LFPB 170200Z AUTO 14005KT CAVOK 08/05 Q1021 NOSIG
2026-03-17 01:30:00,METAR LFPB 170130Z AUTO 15003KT CAVOK 08/04 Q1022 NOSIG
2026-03-17 01:00:00,METAR LFPB 170100Z AUTO 19003KT 9999 FEW040 09/05 Q1021 NOSIG
2026-03-17 00:30:00,METAR LFPB 170030Z AUTO 20003KT 9999 OVC040 10/05 Q1022 NOSIG
2026-03-17 00:00:00,METAR LFPB 170000Z AUTO 19003KT 9999 OVC043 10/05 Q1022 NOSIG
2026-03-16 23:30:00,METAR LFPB 162330Z AUTO 21005KT 9999 OVC045 10/05 Q1022 NOSIG
2026-03-16 23:00:00,METAR LFPB 162300Z AUTO 20005KT 9999 OVC046 11/06 Q1022 NOSIG
2026-03-16 22:30:00,METAR LFPB 162230Z AUTO 22004KT 9999 OVC047 11/06 Q1022 NOSIG
2026-03-16 22:00:00,METAR LFPB 162200Z AUTO 22005KT 9999 FEW037 OVC049 11/06 Q1022 NOSIG
2026-03-16 21:30:00,METAR LFPB 162130Z AUTO 22004KT 9999 OVC049 11/06 Q1022 NOSIG
2026-03-16 21:00:00,METAR LFPB 162100Z AUTO 21003KT 9999 OVC049 11/06 Q1022 NOSIG
2026-03-16 20:30:00,METAR LFPB 162030Z AUTO 20002KT 9999 OVC048 11/06 Q1022 NOSIG
2026-03-16 20:00:00,METAR LFPB 162000Z AUTO 23003KT 9999 FEW038 OVC046 11/05 Q1022 NOSIG
2026-03-16 19:30:00,METAR LFPB 161930Z AUTO 20003KT 9999 BKN038 OVC046 11/06 Q1022 NOSIG
2026-03-16 19:00:00,METAR LFPB 161900Z AUTO 22005KT 9999 FEW042 OVC050 11/05 Q1022 NOSIG
2026-03-16 18:30:00,METAR LFPB 161830Z AUTO 23006KT 9999 SCT043 OVC052 11/05 Q1022 NOSIG
2026-03-16 18:00:00,METAR LFPB 161800Z AUTO 25004KT 220V290 9999 SCT035 BKN047 OVC054 11/05 Q1021 NOSIG
2026-03-16 17:30:00,METAR LFPB 161730Z AUTO 27006KT 9999 OVC037 12/05 Q1021 NOSIG
2026-03-16 17:00:00,METAR LFPB 161700Z AUTO 24007KT 9999 OVC038 12/05 Q1021 NOSIG
2026-03-16 16:30:00,METAR LFPB 161630Z AUTO 25009KT 9999 BKN041 BKN047 OVC054 12/04 Q1021 NOSIG
2026-03-16 16:00:00,METAR LFPB 161600Z AUTO 26007KT 230V290 9999 FEW040 OVC054 12/04 Q1021 NOSIG
2026-03-16 15:30:00,METAR LFPB 161530Z AUTO 24010KT 9999 SCT039 BKN054 OVC066 12/04 Q1021 NOSIG
2026-03-16 15:00:00,METAR LFPB 161500Z AUTO 25009KT 220V280 9999 FEW045 BKN070 BKN100 12/05 Q1021 TEMPO SCT030TCU
2026-03-16 14:30:00,METAR LFPB 161430Z AUTO 27010KT 230V300 9999 BKN040 BKN049 OVC056 12/04 Q1021 TEMPO SCT030TCU
2026-03-16 14:00:00,METAR LFPB 161400Z AUTO 25009KT 9999 OVC043 12/04 Q1021 TEMPO SCT030TCU
2026-03-16 13:30:00,METAR LFPB 161330Z AUTO 25012KT 9999 BKN045 OVC052 12/04 Q1020 TEMPO SCT030TCU
2026-03-16 13:00:00,METAR LFPB 161300Z AUTO 26008KT 220V320 9999 BKN042 BKN056 OVC094 12/03 Q1020 TEMPO SCT030TCU
2026-03-16 12:30:00,METAR LFPB 161230Z AUTO 24006KT 200V290 9999 BKN034 BKN043 BKN058 12/05 Q1020 TEMPO SCT030TCU
2026-03-16 12:00:00,METAR LFPB 161200Z AUTO 24008KT 200V290 9999 BKN031 BKN037 BKN060 12/05 Q1020 TEMPO SCT030TCU
2026-03-16 11:30:00,METAR LFPB 161130Z AUTO 24007KT 210V270 9999 FEW028 SCT048 BKN058 11/06 Q1020 TEMPO SCT030TCU
2026-03-16 11:00:00,METAR LFPB 161100Z AUTO 25009KT 220V300 9999 FEW025 SCT049 OVC056 11/05 Q1020 TEMPO SCT030TCU
2026-03-16 10:30:00,METAR LFPB 161030Z AUTO 25012KT 9999 FEW026 OVC052 10/05 Q1020 TEMPO SCT030TCU
2026-03-16 10:00:00,METAR LFPB 161000Z AUTO 24010KT CAVOK 10/05 Q1020 TEMPO SCT030TCU
2026-03-16 09:30:00,METAR LFPB 160930Z AUTO 25011KT 9999 FEW024 BKN058 BKN130 10/05 Q1020 TEMPO SCT030TCU
2026-03-16 09:00:00,METAR LFPB 160900Z AUTO 24011KT 9999 4600 FEW025 BKN060 BKN130 10/05 Q1020 NOSIG
2026-03-16 08:30:00,METAR LFPB 160830Z AUTO 24009KT CAVOK 09/05 Q1019 NOSIG
2026-03-16 08:00:00,METAR LFPB 160800Z AUTO 25008KT 210V280 CAVOK 09/05 Q1019 NOSIG
2026-03-16 07:30:00,METAR LFPB 160730Z AUTO 24007KT 9999 FEW030 SCT054 OVC130 08/05 Q1019 NOSIG
2026-03-16 07:00:00,METAR LFPB 160700Z AUTO 24007KT CAVOK 08/04 Q1019 NOSIG
2026-03-16 06:30:00,METAR LFPB 160630Z AUTO 24008KT 210V270 CAVOK 08/05 Q1018
2026-03-16 06:00:00,METAR LFPB 160600Z AUTO 23007KT CAVOK 08/05 Q1018
2026-03-16 05:30:00,METAR LFPB 160530Z AUTO 24008KT CAVOK 08/05 Q1018
2026-03-16 05:00:00,METAR LFPB 160500Z AUTO 24007KT 200V260 CAVOK 08/05 Q1017
2026-03-16 04:30:00,METAR LFPB 160430Z AUTO 25007KT 9999 BKN026 BKN032 BKN130 08/05 Q1017
2026-03-16 04:00:00,METAR LFPB 160400Z AUTO 24007KT 9999 FEW020 BKN027 BKN046 08/06 Q1017
2026-03-16 03:30:00,METAR LFPB 160330Z AUTO 23007KT 9999 FEW023 BKN028 OVC049 08/06 Q1016
2026-03-16 03:00:00,METAR LFPB 160300Z AUTO 24006KT 9999 FEW028 SCT050 08/05 Q1016
2026-03-16 02:30:00,METAR LFPB 160230Z AUTO 25007KT 9999 FEW029 08/05 Q1016
2026-03-16 02:00:00,METAR LFPB 160200Z AUTO 25010KT 220V280 9999 FEW025 09/05 Q1017
2026-03-16 01:30:00,METAR LFPB 160130Z AUTO 24011KT 9999 FEW028 SCT052 09/06 Q1017
2026-03-16 01:00:00,METAR LFPB 160100Z AUTO 23012KT 9999 SCT024 SCT030 OVC052 09/05 Q1016
2026-03-16 00:30:00,METAR LFPB 160030Z AUTO 23014KT 210V270 9999 BKN026 BKN032 OVC052 10/05 Q1016
2026-03-16 00:00:00,METAR LFPB 160000Z AUTO 23014KT 200V260 9999 BKN024 OVC052 10/05 Q1016
2026-03-15 23:30:00,METAR LFPB 152330Z AUTO 23010KT 9999 OVC027 10/04 Q1016
2026-03-15 23:00:00,METAR LFPB 152300Z AUTO 23009KT 9999 OVC030 10/03 Q1016
2026-03-15 22:30:00,METAR LFPB 152230Z AUTO 22011KT 180V240 9999 OVC033 10/03 Q1015
2026-03-15 22:00:00,METAR LFPB 152200Z AUTO 21015KT 180V240 9999 BKN033 OVC039 10/03 Q1016
2026-03-15 21:30:00,METAR LFPB 152130Z AUTO 21011KT 9999 BKN040 OVC047 10/02 Q1016
2026-03-15 21:00:00,METAR LFPB 152100Z AUTO 21010KT CAVOK 10/02 Q1016
2026-03-15 20:30:00,METAR LFPB 152030Z AUTO 20012KT CAVOK 11/01 Q1016
2026-03-15 20:00:00,METAR LFPB 152000Z AUTO 21012KT CAVOK 10/01 Q1017
2026-03-15 19:30:00,METAR LFPB 151930Z AUTO 20014KT CAVOK 11/01 Q1016
2026-03-15 19:00:00,METAR LFPB 151900Z AUTO 19011KT CAVOK 10/01 Q1016
2026-03-15 18:30:00,METAR LFPB 151830Z AUTO 19010KT CAVOK 11/01 Q1016
2026-03-15 18:00:00,METAR LFPB 151800Z AUTO 19013KT CAVOK 11/01 Q1016
2026-03-15 17:30:00,METAR LFPB 151730Z AUTO 20011KT CAVOK 11/01 Q1016
2026-03-15 17:00:00,METAR LFPB 151700Z AUTO 19012KT CAVOK 12/00 Q1016
2026-03-15 16:30:00,METAR LFPB 151630Z AUTO 20010KT CAVOK 13/00 Q1016
2026-03-15 16:00:00,METAR LFPB 151600Z AUTO 22009KT 200V260 CAVOK 13/M01 Q1016
2026-03-15 15:30:00,METAR LFPB 151530Z AUTO 24008KT 210V270 CAVOK 13/01 Q1016
2026-03-15 15:00:00,METAR LFPB 151500Z AUTO 21008KT 160V240 CAVOK 13/00 Q1016
2026-03-15 14:30:00,METAR LFPB 151430Z AUTO 23006KT 180V250 CAVOK 13/M02 Q1016
2026-03-15 14:00:00,METAR LFPB 151400Z AUTO 22008KT 180V250 CAVOK 13/M02 Q1016
2026-03-15 13:30:00,METAR LFPB 151330Z AUTO 24007KT 190V290 CAVOK 12/M01 Q1017
2026-03-15 13:00:00,METAR LFPB 151300Z AUTO 23008KT 190V250 CAVOK 12/M02 Q1017
2026-03-15 12:30:00,METAR LFPB 151230Z AUTO 25006KT 190V320 CAVOK 12/M01 Q1017
2026-03-15 12:00:00,METAR LFPB 151200Z AUTO 23007KT 190V280 CAVOK 11/M01 Q1017
2026-03-15 11:30:00,METAR LFPB 151130Z AUTO 25004KT 190V290 CAVOK 11/M01 Q1017
2026-03-15 11:00:00,METAR LFPB 151100Z AUTO 20004KT 120V260 CAVOK 10/00 Q1017
2026-03-15 10:30:00,METAR LFPB 151030Z AUTO 13004KT 090V190 CAVOK 10/03 Q1018
2026-03-15 10:00:00,METAR LFPB 151000Z AUTO VRB03KT CAVOK 10/04 Q1018
2026-03-15 09:30:00,METAR LFPB 150930Z AUTO VRB01KT CAVOK 08/04 Q1018
2026-03-15 09:00:00,METAR LFPB 150900Z AUTO VRB02KT CAVOK 07/03 Q1018
2026-03-15 08:30:00,METAR LFPB 150830Z AUTO 21003KT 180V250 CAVOK 05/03 Q1018
2026-03-15 08:00:00,METAR LFPB 150800Z AUTO 00000KT CAVOK 03/02 Q1017
