Time_recorded,METAR
2026-05-02 15:20:00,METAR LIMC 021520Z 24006KT 200V280 CAVOK 23/04 Q1021 NOSIG
2026-05-02 14:50:00,METAR LIMC 021450Z VRB03KT CAVOK 24/04 Q1021 NOSIG
2026-05-02 14:20:00,METAR LIMC 021420Z VRB04KT CAVOK 23/04 Q1022 NOSIG
2026-05-02 13:50:00,METAR LIMC 021350Z VRB04KT CAVOK 23/03 Q1022 NOSIG
2026-05-02 13:20:00,METAR LIMC 021320Z 24004KT 170V330 CAVOK 23/04 Q1023 NOSIG
2026-05-02 12:50:00,METAR LIMC 021250Z VRB04KT CAVOK 22/03 Q1023 NOSIG
2026-05-02 12:20:00,METAR LIMC 021220Z 25008KT 220V280 CAVOK 22/04 Q1024 NOSIG
2026-05-02 11:50:00,METAR LIMC 021150Z VRB04KT CAVOK 21/04 Q1024 NOSIG
2026-05-02 11:20:00,METAR LIMC 021120Z 21006KT 130V300 CAVOK 21/04 Q1025 NOSIG
2026-05-02 10:50:00,METAR LIMC 021050Z VRB03KT CAVOK 21/04 Q1025 NOSIG
2026-05-02 10:20:00,METAR LIMC 021020Z VRB05KT CAVOK 21/05 Q1025 NOSIG
2026-05-02 09:50:00,METAR LIMC 020950Z 17003KT 080V220 CAVOK 20/05 Q1026 NOSIG
2026-05-02 09:20:00,METAR LIMC 020920Z 17004KT 130V240 CAVOK 19/06 Q1026 NOSIG
2026-05-02 08:50:00,METAR LIMC 020850Z VRB03KT CAVOK 19/06 Q1026 NOSIG
2026-05-02 08:20:00,METAR LIMC 020820Z VRB02KT CAVOK 18/05 Q1026 NOSIG
2026-05-02 07:50:00,METAR LIMC 020750Z VRB02KT CAVOK 17/06 Q1027 NOSIG
2026-05-02 07:20:00,METAR LIMC 020720Z VRB01KT CAVOK 17/08 Q1027 NOSIG
2026-05-02 06:50:00,METAR LIMC 020650Z 33003KT CAVOK 15/08 Q1027 NOSIG
2026-05-02 06:20:00,METAR LIMC 020620Z 35003KT 310V050 CAVOK 14/09 Q1027 NOSIG
2026-05-02 05:50:00,METAR LIMC 020550Z VRB01KT CAVOK 12/09 Q1027 NOSIG
2026-05-02 04:50:00,METAR LIMC 020450Z VRB01KT CAVOK 06/05 Q1026 NOSIG
2026-05-02 04:20:00,METAR LIMC 020420Z VRB02KT CAVOK 05/05 Q1026 NOSIG
2026-05-02 03:50:00,METAR LIMC 020350Z VRB02KT CAVOK 06/05 Q1026 NOSIG
2026-05-02 03:20:00,METAR LIMC 020320Z VRB01KT CAVOK 07/05 Q1026 NOSIG
2026-05-02 02:50:00,METAR LIMC 020250Z VRB02KT CAVOK 06/05 Q1026 NOSIG
2026-05-02 02:20:00,METAR LIMC 020220Z VRB01KT CAVOK 06/05 Q1026 NOSIG
2026-05-02 01:50:00,METAR LIMC 020150Z 34002KT CAVOK 07/06 Q1026 NOSIG
2026-05-02 01:20:00,METAR LIMC 020120Z VRB01KT CAVOK 07/06 Q1026 NOSIG
2026-05-02 00:50:00,METAR LIMC 020050Z VRB01KT CAVOK 07/06 Q1026 NOSIG
2026-05-02 00:20:00,METAR LIMC 020020Z VRB02KT CAVOK 08/06 Q1026 NOSIG
2026-05-01 23:50:00,METAR LIMC 012350Z VRB02KT CAVOK 07/06 Q1026 NOSIG
2026-05-01 23:20:00,METAR LIMC 012320Z VRB01KT CAVOK 08/06 Q1026 NOSIG
2026-05-01 22:50:00,METAR LIMC 012250Z VRB01KT CAVOK 08/05 Q1026 NOSIG
2026-05-01 22:20:00,METAR LIMC 012220Z VRB02KT CAVOK 09/05 Q1026 NOSIG
2026-05-01 21:50:00,METAR LIMC 012150Z 09002KT CAVOK 08/05 Q1026 NOSIG
2026-05-01 21:20:00,METAR LIMC 012120Z VRB01KT CAVOK 09/05 Q1026 NOSIG
2026-05-01 20:50:00,METAR LIMC 012050Z 05002KT CAVOK 11/06 Q1026 NOSIG
2026-05-01 20:20:00,METAR LIMC 012020Z VRB01KT CAVOK 10/05 Q1026 NOSIG
2026-05-01 19:50:00,METAR LIMC 011950Z VRB01KT CAVOK 12/06 Q1025 NOSIG
2026-05-01 19:20:00,METAR LIMC 011920Z VRB02KT CAVOK 14/06 Q1025 NOSIG
2026-05-01 18:50:00,METAR LIMC 011850Z VRB02KT CAVOK 15/06 Q1025 NOSIG
2026-05-01 18:20:00,METAR LIMC 011820Z 15003KT CAVOK 16/05 Q1025 NOSIG
2026-05-01 17:50:00,METAR LIMC 011750Z 19003KT CAVOK 19/03 Q1024 NOSIG
2026-05-01 17:20:00,METAR LIMC 011720Z 15003KT 130V190 CAVOK 20/03 Q1024 NOSIG
2026-05-01 16:50:00,METAR LIMC 011650Z 15004KT CAVOK 20/04 Q1025 NOSIG
2026-05-01 16:20:00,METAR LIMC 011620Z 20003KT 130V260 CAVOK 21/02 Q1025 NOSIG
2026-05-01 15:50:00,METAR LIMC 011550Z 20004KT 150V260 CAVOK 20/04 Q1025 NOSIG
2026-05-01 15:20:00,METAR LIMC 011520Z VRB03KT CAVOK 21/02 Q1025 NOSIG
2026-05-01 14:50:00,METAR LIMC 011450Z VRB03KT CAVOK 21/02 Q1026 NOSIG
2026-05-01 14:20:00,METAR LIMC 011420Z VRB03KT CAVOK 21/03 Q1026 NOSIG
2026-05-01 13:50:00,METAR LIMC 011350Z VRB04KT CAVOK 20/02 Q1026 NOSIG
2026-05-01 13:20:00,METAR LIMC 011320Z 20003KT 110V270 CAVOK 20/02 Q1027 NOSIG
2026-05-01 12:50:00,METAR LIMC 011250Z VRB04KT CAVOK 19/02 Q1027 NOSIG
2026-05-01 12:20:00,METAR LIMC 011220Z VRB04KT CAVOK 19/01 Q1027 NOSIG
2026-05-01 11:50:00,METAR LIMC 011150Z VRB03KT CAVOK 19/01 Q1027 NOSIG
2026-05-01 11:20:00,METAR LIMC 011120Z VRB03KT CAVOK 18/00 Q1028 NOSIG
2026-05-01 10:50:00,METAR LIMC 011050Z VRB03KT CAVOK 18/M00 Q1028 NOSIG
2026-05-01 10:20:00,METAR LIMC 011020Z VRB06KT CAVOK 17/M00 Q1028 NOSIG
2026-05-01 09:50:00,METAR LIMC 010950Z 13006KT 100V190 9999 FEW065 17/M00 Q1028 NOSIG
2026-05-01 09:20:00,METAR LIMC 010920Z VRB04KT 9999 SCT065 17/M00 Q1028 NOSIG
2026-05-01 08:50:00,METAR LIMC 010850Z 09006KT 030V140 9999 SCT065 16/01 Q1028 NOSIG
2026-05-01 08:20:00,METAR LIMC 010820Z 11006KT 9999 SCT065 15/00 Q1028 NOSIG
2026-05-01 07:50:00,METAR LIMC 010750Z 09005KT 050V140 9999 BKN065 14/01 Q1028 NOSIG
2026-05-01 07:20:00,METAR LIMC 010720Z 10005KT 050V140 9999 BKN065 14/02 Q1028 NOSIG
2026-05-01 06:50:00,METAR LIMC 010650Z 04003KT 350V070 9999 BKN065 13/03 Q1028 NOSIG
2026-05-01 04:50:00,METAR LIMC 010450Z 05003KT 020V080 9999 BKN070 12/02 Q1027 NOSIG
2026-05-01 04:20:00,METAR LIMC 010420Z 04003KT 360V070 9999 BKN070 11/03 Q1026 NOSIG
2026-05-01 03:50:00,METAR LIMC 010350Z VRB02KT 9999 BKN070 10/03 Q1026 NOSIG
2026-05-01 03:20:00,METAR LIMC 010320Z 03003KT 350V060 9999 BKN070 11/02 Q1026 NOSIG
2026-05-01 02:50:00,METAR LIMC 010250Z 04004KT 010V070 9999 BKN060 10/02 Q1026 NOSIG
2026-05-01 02:20:00,METAR LIMC 010220Z 04004KT 010V070 9999 BKN060 11/02 Q1026 NOSIG
2026-05-01 01:50:00,METAR LIMC 010150Z 04003KT 010V070 9999 BKN060 11/03 Q1026 NOSIG
2026-05-01 01:20:00,METAR LIMC 010120Z 05003KT 020V100 9999 BKN060 12/03 Q1026 NOSIG
2026-05-01 00:50:00,METAR LIMC 010050Z 07004KT 030V100 9999 BKN060 12/04 Q1026 NOSIG
2026-05-01 00:20:00,METAR LIMC 010020Z 06003KT 010V100 9999 BKN060 11/04 Q1026 NOSIG
2026-04-30 23:50:00,METAR LIMC 302350Z 04003KT CAVOK 10/04 Q1026 NOSIG
2026-04-30 23:20:00,METAR LIMC 302320Z 07003KT 030V110 CAVOK 10/06 Q1025 NOSIG
2026-04-30 22:50:00,METAR LIMC 302250Z VRB02KT CAVOK 10/06 Q1025 NOSIG
2026-04-30 22:20:00,METAR LIMC 302220Z 06002KT CAVOK 10/07 Q1025 NOSIG
2026-04-30 21:50:00,METAR LIMC 302150Z VRB01KT CAVOK 11/07 Q1025 NOSIG
2026-04-30 21:20:00,METAR LIMC 302120Z 08003KT CAVOK 11/07 Q1024 NOSIG
2026-04-30 20:50:00,METAR LIMC 302050Z 08002KT CAVOK 11/07 Q1024 NOSIG
2026-04-30 20:20:00,METAR LIMC 302020Z 07002KT 9999 FEW060 11/07 Q1024 NOSIG
2026-04-30 19:50:00,METAR LIMC 301950Z 08002KT CAVOK 12/07 Q1024 NOSIG
2026-04-30 19:20:00,METAR LIMC 301920Z VRB01KT CAVOK 12/07 Q1024 NOSIG
2026-04-30 18:50:00,METAR LIMC 301850Z VRB02KT CAVOK 13/07 Q1023 NOSIG
2026-04-30 18:20:00,METAR LIMC 301820Z VRB02KT CAVOK 16/08 Q1023 NOSIG
2026-04-30 17:50:00,METAR LIMC 301750Z 17003KT CAVOK 17/05 Q1022 NOSIG
2026-04-30 17:20:00,METAR LIMC 301720Z 15003KT 080V220 CAVOK 18/04 Q1022 NOSIG
2026-04-30 16:50:00,METAR LIMC 301650Z 13005KT 090V210 CAVOK 19/04 Q1022 NOSIG
2026-04-30 16:20:00,METAR LIMC 301620Z VRB02KT CAVOK 19/04 Q1022 NOSIG
2026-04-30 14:50:00,METAR LIMC 301450Z VRB04KT CAVOK 19/04 Q1023 NOSIG
2026-04-30 14:20:00,METAR LIMC 301420Z VRB03KT 9999 FEW075 19/03 Q1023 NOSIG
2026-04-30 13:50:00,METAR LIMC 301350Z VRB04KT CAVOK 19/05 Q1023 NOSIG
2026-04-30 13:20:00,METAR LIMC 301320Z VRB03KT 9999 SCT070 19/05 Q1024 NOSIG
2026-04-30 12:50:00,METAR LIMC 301250Z VRB05KT 9999 SCT070 19/04 Q1024 NOSIG
2026-04-30 12:20:00,METAR LIMC 301220Z 13006KT 080V200 9999 SCT070 18/04 Q1024 NOSIG
2026-04-30 11:50:00,METAR LIMC 301150Z VRB05KT 9999 BKN070 17/03 Q1024 NOSIG
2026-04-30 11:20:00,METAR LIMC 301120Z VRB04KT 9999 BKN070 18/04 Q1024 NOSIG
2026-04-30 10:50:00,METAR LIMC 301050Z 07006KT 350V120 9999 BKN070 17/02 Q1025 NOSIG
2026-04-30 10:20:00,METAR LIMC 301020Z 05006KT 350V100 9999 BKN070 16/03 Q1025 NOSIG
2026-04-30 09:50:00,METAR LIMC 300950Z 09007KT 040V140 9999 SCT050 SCT070 16/03 Q1025 NOSIG
2026-04-30 09:20:00,METAR LIMC 300920Z 06007KT 010V100 9999 SCT050 SCT070 15/03 Q1025 NOSIG
2026-04-30 08:50:00,METAR LIMC 300850Z 04005KT 340V080 9999 BKN060 15/05 Q1025 NOSIG
2026-04-30 08:20:00,METAR LIMC 300820Z 08007KT 020V120 9999 BKN065 15/04 Q1024 NOSIG
2026-04-30 07:50:00,METAR LIMC 300750Z VRB02KT 9999 BKN065 14/06 Q1024 NOSIG
2026-04-30 07:20:00,METAR LIMC 300720Z 10005KT 050V140 9999 BKN060 13/05 Q1024 NOSIG
2026-04-30 06:50:00,METAR LIMC 300650Z VRB02KT 9999 BKN060 13/06 Q1024 NOSIG
2026-04-30 06:20:00,METAR LIMC 300620Z 09005KT 030V130 9999 BKN060 13/05 Q1024 NOSIG
2026-04-30 05:50:00,METAR LIMC 300550Z 09004KT 040V130 9999 BKN065 13/07 Q1023 NOSIG
2026-04-30 05:20:00,METAR LIMC 300520Z 05003KT 020V090 9999 BKN065 13/09 Q1023 NOSIG
2026-04-30 04:50:00,METAR LIMC 300450Z 08005KT 360V140 9999 BKN070 13/08 Q1022 NOSIG
2026-04-30 04:20:00,METAR LIMC 300420Z 03003KT 300V080 9999 BKN065 13/09 Q1022 NOSIG
2026-04-30 03:50:00,METAR LIMC 300350Z 05005KT 340V100 8000 SCT035 BKN050 13/10 Q1022 NOSIG
2026-04-30 03:20:00,METAR LIMC 300320Z 05004KT 360V110 9999 BKN030 13/11 Q1022 NOSIG
2026-04-30 02:50:00,METAR LIMC 300250Z 08003KT 340V140 9999 SCT025 SCT050 13/11 Q1021 NOSIG
2026-04-30 02:20:00,METAR LIMC 300220Z 08004KT 010V150 9999 SCT025 SCT050 13/11 Q1021 NOSIG
2026-04-30 01:50:00,METAR LIMC 300150Z 11010KT 080V140 9999 SCT020 SCT040 14/11 Q1021 NOSIG
2026-04-30 01:20:00,METAR LIMC 300120Z 07005KT 030V110 9999 SCT020 SCT040 14/12 Q1021 NOSIG
2026-04-30 00:50:00,METAR LIMC 300050Z 03004KT 340V070 9999 BKN040 14/12 Q1021 NOSIG
2026-04-30 00:20:00,METAR LIMC 300020Z 05005KT 010V080 9999 SCT030 SCT050 14/12 Q1021 NOSIG
2026-04-29 23:50:00,METAR LIMC 292350Z VRB02KT 9999 BKN050 15/12 Q1020 NOSIG
2026-04-29 23:20:00,METAR LIMC 292320Z 10004KT 050V160 9999 BKN045 15/12 Q1020 NOSIG
2026-04-29 22:50:00,METAR LIMC 292250Z 06005KT 020V110 9999 BKN050 15/12 Q1020 NOSIG
2026-04-29 22:20:00,METAR LIMC 292220Z 06003KT 030V120 9999 BKN045 15/13 Q1019 NOSIG
2026-04-29 21:50:00,METAR LIMC 292150Z 04003KT 010V070 9999 -RA BKN040 15/13 Q1019 TEMPO SHRA
2026-04-29 21:20:00,METAR LIMC 292120Z 06003KT 350V110 9999 -RA SCT025 BKN050 15/13 Q1018 TEMPO SHRA
2026-04-29 20:50:00,METAR LIMC 292050Z 07003KT 010V120 9999 -RA FEW025TCU BKN050 15/13 Q1018 TEMPO SHRA
2026-04-29 20:20:00,METAR LIMC 292020Z 09006KT 040V140 9999 SCT050 SCT070 18/12 Q1018 NOSIG
2026-04-29 19:50:00,METAR LIMC 291950Z 09004KT 030V130 9999 SCT050 SCT070 19/12 Q1017 NOSIG
2026-04-29 19:20:00,METAR LIMC 291920Z 09006KT 060V130 9999 SCT040 SCT070 19/12 Q1017 NOSIG
2026-04-29 18:50:00,METAR LIMC 291850Z 09005KT 050V130 9999 SCT040 BKN080 20/12 Q1016 NOSIG
2026-04-29 18:20:00,METAR LIMC 291820Z 04004KT 350V080 9999 BKN045 20/11 Q1016 NOSIG
2026-04-29 17:50:00,METAR LIMC 291750Z 35004KT 9999 SCT055 20/11 Q1015 NOSIG
2026-04-29 17:20:00,METAR LIMC 291720Z 34006KT 9999 FEW050 21/11 Q1015 NOSIG
2026-04-29 16:50:00,METAR LIMC 291650Z 32007KT 290V350 9999 SCT050 22/11 Q1015 NOSIG
2026-04-29 16:20:00,METAR LIMC 291620Z VRB02KT 9999 SCT050 23/09 Q1015 NOSIG
2026-04-29 15:50:00,METAR LIMC 291550Z 27003KT 210V360 9999 SCT050 23/08 Q1015 NOSIG
2026-04-29 15:20:00,METAR LIMC 291520Z VRB05KT 9999 SCT050 23/09 Q1015 NOSIG
2026-04-29 14:50:00,METAR LIMC 291450Z 04003KT 360V080 9999 FEW050 22/09 Q1015 NOSIG
2026-04-29 14:20:00,METAR LIMC 291420Z VRB03KT 9999 FEW050 23/10 Q1016 NOSIG
2026-04-29 13:50:00,METAR LIMC 291350Z VRB03KT 9999 FEW050 23/11 Q1016 NOSIG
2026-04-29 13:20:00,METAR LIMC 291320Z VRB04KT 9999 SCT050 23/11 Q1016 NOSIG
2026-04-29 12:50:00,METAR LIMC 291250Z VRB03KT 9999 SCT045 22/11 Q1016 NOSIG
2026-04-29 12:20:00,METAR LIMC 291220Z VRB05KT 9999 SCT045 22/10 Q1017 NOSIG
2026-04-29 11:50:00,METAR LIMC 291150Z 06004KT 360V120 9999 SCT040 22/10 Q1017 NOSIG
2026-04-29 11:20:00,METAR LIMC 291120Z VRB05KT 9999 SCT040 22/11 Q1017 NOSIG
2026-04-29 10:50:00,METAR LIMC 291050Z VRB03KT 9999 SCT040 20/11 Q1017 NOSIG
2026-04-29 10:20:00,METAR LIMC 291020Z VRB04KT 9999 SCT040 20/11 Q1017 NOSIG
2026-04-29 09:50:00,METAR LIMC 290950Z VRB03KT 9999 SCT040 20/11 Q1017 NOSIG
2026-04-29 09:20:00,METAR LIMC 290920Z 08004KT 350V140 9999 SCT040 19/11 Q1017 NOSIG
2026-04-29 08:50:00,METAR LIMC 290850Z 35004KT 320V040 9999 BKN090 19/12 Q1017 NOSIG
2026-04-29 08:20:00,METAR LIMC 290820Z VRB05KT 9999 BKN090 18/13 Q1017 NOSIG
2026-04-29 07:50:00,METAR LIMC 290750Z 03005KT 320V080 9999 BKN090 17/13 Q1017 NOSIG
2026-04-29 07:20:00,METAR LIMC 290720Z 35004KT 320V030 9999 BKN070 17/13 Q1017 NOSIG
2026-04-29 06:50:00,METAR LIMC 290650Z 35003KT 320V030 9999 BKN060 16/13 Q1017 NOSIG
2026-04-29 06:20:00,METAR LIMC 290620Z VRB02KT 9999 BKN040 16/13 Q1017 NOSIG
2026-04-29 05:50:00,METAR LIMC 290550Z 34003KT 320V020 9999 BKN040 15/13 Q1017 NOSIG
2026-04-29 05:20:00,METAR LIMC 290520Z 36003KT 330V040 9999 BKN040 15/13 Q1017 NOSIG
2026-04-29 04:50:00,METAR LIMC 290450Z 34006KT 9999 BKN050 15/13 Q1016 NOSIG
2026-04-29 04:20:00,METAR LIMC 290420Z 35005KT 320V020 9999 BKN050 15/13 Q1016 NOSIG
2026-04-29 03:50:00,METAR LIMC 290350Z 35004KT 310V080 9999 SCT050 15/13 Q1016 NOSIG
2026-04-29 03:20:00,METAR LIMC 290320Z 34006KT 9999 -RA SCT050 15/13 Q1016 NOSIG
2026-04-29 02:50:00,METAR LIMC 290250Z 35005KT 9999 SCT050 15/13 Q1016 NOSIG
2026-04-29 02:20:00,METAR LIMC 290220Z 34005KT 9999 SCT050 15/13 Q1016 NOSIG
2026-04-29 01:50:00,METAR LIMC 290150Z 33005KT 9999 SCT050 15/13 Q1016 NOSIG
2026-04-29 01:20:00,METAR LIMC 290120Z 34005KT 9999 SCT050 16/12 Q1016 NOSIG
2026-04-29 00:50:00,METAR LIMC 290050Z 36004KT 330V040 9999 BKN040 16/12 Q1016 NOSIG
2026-04-29 00:20:00,METAR LIMC 290020Z 02005KT 340V060 9999 BKN040 16/13 Q1016 NOSIG
2026-04-28 23:50:00,METAR LIMC 282350Z 35005KT 320V050 9999 BKN050 16/13 Q1016 NOSIG
2026-04-28 23:20:00,METAR LIMC 282320Z 01004KT 330V060 9999 -RA BKN060 17/13 Q1016 NOSIG
2026-04-28 22:50:00,METAR LIMC 282250Z 36005KT 320V040 9999 SCT060 16/13 Q1016 NOSIG
2026-04-28 22:20:00,METAR LIMC 282220Z 35007KT 300V050 9999 SCT060 16/13 Q1016 NOSIG
2026-04-28 21:50:00,METAR LIMC 282150Z 34009KT 9999 SCT060 16/13 Q1015 NOSIG
2026-04-28 21:20:00,METAR LIMC 282120Z 34009KT 9999 -DZ BKN060 16/13 Q1015 NOSIG
2026-04-28 20:50:00,METAR LIMC 282050Z 33007KT 9999 -DZ BKN060 17/13 Q1015 NOSIG
2026-04-28 20:20:00,METAR LIMC 282020Z 34005KT 9999 BKN070 17/13 Q1015 TEMPO RA
2026-04-28 19:50:00,METAR LIMC 281950Z 34005KT 9999 SCT070 18/13 Q1015 TEMPO RA
2026-04-28 19:20:00,METAR LIMC 281920Z 35003KT 310V040 9999 SCT080 18/13 Q1014 TEMPO SHRA
2026-04-28 18:50:00,METAR LIMC 281850Z 34004KT 9999 BKN070 18/13 Q1014 TEMPO SHRA
2026-04-28 18:20:00,METAR LIMC 281820Z 35004KT 320V020 9999 BKN070 19/13 Q1014 NOSIG
2026-04-28 17:50:00,METAR LIMC 281750Z 34004KT 9999 BKN080 19/13 Q1014 NOSIG
2026-04-28 17:20:00,METAR LIMC 281720Z 34007KT 9999 SCT070 19/13 Q1014 NOSIG
2026-04-28 16:50:00,METAR LIMC 281650Z 35006KT 320V020 9999 SCT070 20/13 Q1014 NOSIG
2026-04-28 16:20:00,METAR LIMC 281620Z 34007KT 320V030 9999 SCT060 20/12 Q1014 NOSIG
2026-04-28 15:50:00,METAR LIMC 281550Z 34008KT 9999 SCT040 21/13 Q1014 NOSIG
2026-04-28 15:20:00,METAR LIMC 281520Z 34007KT 320V020 9999 SCT040 21/14 Q1014 NOSIG
2026-04-28 14:50:00,METAR LIMC 281450Z 34008KT 300V020 9999 SCT040 22/13 Q1014 NOSIG
2026-04-28 14:20:00,METAR LIMC 281420Z 34007KT 9999 SCT070 22/13 Q1015 NOSIG
2026-04-28 13:50:00,METAR LIMC 281350Z 34007KT 320V020 9999 SCT065 21/13 Q1015 NOSIG
2026-04-28 13:20:00,METAR LIMC 281320Z 34007KT 300V010 9999 BKN090 21/14 Q1015 NOSIG
2026-04-28 12:50:00,METAR LIMC 281250Z 33007KT 9999 SCT070 SCT090 20/14 Q1015 NOSIG
2026-04-28 12:20:00,METAR LIMC 281220Z 36004KT 320V080 9999 SCT070 BKN090 21/14 Q1016 NOSIG
2026-04-28 11:50:00,METAR LIMC 281150Z 36004KT 320V070 9999 BKN060 21/13 Q1016 NOSIG
2026-04-28 11:20:00,METAR LIMC 281120Z 03004KT 310V080 9999 SCT070 21/13 Q1016 NOSIG
2026-04-28 10:50:00,METAR LIMC 281050Z 03006KT 350V080 9999 BKN060 20/12 Q1016 NOSIG
2026-04-28 10:20:00,METAR LIMC 281020Z 02004KT 310V080 9999 BKN060 20/14 Q1016 NOSIG
2026-04-28 09:50:00,METAR LIMC 280950Z 02004KT 320V080 9999 BKN060 20/13 Q1016 NOSIG
2026-04-28 09:20:00,METAR LIMC 280920Z 06005KT 010V090 9999 BKN060 19/12 Q1016 NOSIG
2026-04-28 08:50:00,METAR LIMC 280850Z 05005KT 010V110 9999 SCT060 20/13 Q1016 NOSIG
2026-04-28 08:20:00,METAR LIMC 280820Z 04005KT 320V100 9999 SCT060 18/13 Q1016 NOSIG
2026-04-28 07:50:00,METAR LIMC 280750Z 02004KT 310V060 9999 SCT070 18/12 Q1016 NOSIG
2026-04-28 07:20:00,METAR LIMC 280720Z 03003KT 330V090 9999 SCT080 18/13 Q1016 NOSIG
2026-04-28 06:50:00,METAR LIMC 280650Z 05004KT 360V080 9999 SCT070 16/12 Q1016 NOSIG
2026-04-28 06:20:00,METAR LIMC 280620Z 35004KT 9999 -DZ BKN050 15/12 Q1016 NOSIG
2026-04-28 05:50:00,METAR LIMC 280550Z 34005KT 9999 BKN060 16/11 Q1016 NOSIG
2026-04-28 05:20:00,METAR LIMC 280520Z 35004KT 9999 BKN050 15/11 Q1016 TEMPO RA
2026-04-28 04:50:00,METAR LIMC 280450Z 34003KT 9999 VCSH SCT050 BKN080 14/11 Q1015 TEMPO RA
2026-04-28 04:20:00,METAR LIMC 280420Z VRB01KT 9999 BKN080 13/11 Q1015 NOSIG
2026-04-28 03:50:00,METAR LIMC 280350Z 35004KT 9999 SCT080 14/11 Q1015 NOSIG
2026-04-28 03:20:00,METAR LIMC 280320Z VRB01KT 9999 SCT080 13/10 Q1015 NOSIG
2026-04-28 02:50:00,METAR LIMC 280250Z 07004KT 040V100 9999 SCT080 13/10 Q1015 NOSIG
2026-04-28 02:20:00,METAR LIMC 280220Z VRB01KT 9999 SCT070 13/11 Q1015 NOSIG
2026-04-28 01:50:00,METAR LIMC 280150Z 07003KT 9999 FEW060 SCT075 13/11 Q1015 NOSIG
2026-04-28 01:20:00,METAR LIMC 280120Z VRB01KT 9999 SCT070 12/10 Q1015 NOSIG
2026-04-28 00:50:00,METAR LIMC 280050Z 07002KT 9999 SCT070 13/11 Q1015 NOSIG
2026-04-28 00:20:00,METAR LIMC 280020Z 04003KT 9999 SCT070 14/11 Q1016 NOSIG
2026-04-27 23:50:00,METAR LIMC 272350Z 05002KT 9999 FEW065 14/11 Q1016 NOSIG
2026-04-27 23:20:00,METAR LIMC 272320Z 07003KT 9999 FEW065 15/11 Q1016 NOSIG
2026-04-27 22:50:00,METAR LIMC 272250Z VRB02KT 9999 FEW065 15/11 Q1016 NOSIG
2026-04-27 22:20:00,METAR LIMC 272220Z 12002KT 9999 FEW065 15/11 Q1015 NOSIG
2026-04-27 21:50:00,METAR LIMC 272150Z 07002KT 9999 FEW060 16/11 Q1015 NOSIG
2026-04-27 21:20:00,METAR LIMC 272120Z VRB02KT 9999 FEW060 17/11 Q1015 NOSIG
2026-04-27 20:50:00,METAR LIMC 272050Z VRB02KT 9999 FEW065 18/11 Q1015 NOSIG
2026-04-27 20:20:00,METAR LIMC 272020Z 15004KT 080V190 9999 FEW065 18/11 Q1015 NOSIG
2026-04-27 19:50:00,METAR LIMC 271950Z VRB02KT CAVOK 16/11 Q1015 NOSIG
2026-04-27 19:20:00,METAR LIMC 271920Z 06002KT CAVOK 17/12 Q1015 NOSIG
2026-04-27 18:50:00,METAR LIMC 271850Z 06002KT CAVOK 18/12 Q1015 NOSIG
2026-04-27 18:20:00,METAR LIMC 271820Z 07002KT CAVOK 20/13 Q1014 NOSIG
2026-04-27 17:50:00,METAR LIMC 271750Z VRB01KT CAVOK 22/13 Q1014 NOSIG
2026-04-27 17:20:00,METAR LIMC 271720Z 16002KT CAVOK 24/10 Q1014 NOSIG
2026-04-27 16:50:00,METAR LIMC 271650Z VRB02KT CAVOK 25/09 Q1015 NOSIG
2026-04-27 16:20:00,METAR LIMC 271620Z VRB03KT CAVOK 25/09 Q1015 NOSIG
2026-04-27 15:50:00,METAR LIMC 271550Z VRB02KT CAVOK 25/08 Q1015 NOSIG
2026-04-27 15:20:00,METAR LIMC 271520Z 22004KT 110V270 CAVOK 25/09 Q1015 NOSIG
2026-04-27 14:50:00,METAR LIMC 271450Z 22004KT 120V270 CAVOK 26/09 Q1015 NOSIG
2026-04-27 14:20:00,METAR LIMC 271420Z VRB03KT CAVOK 26/09 Q1015 NOSIG
2026-04-27 13:50:00,METAR LIMC 271350Z VRB03KT CAVOK 25/10 Q1016 NOSIG
2026-04-27 13:20:00,METAR LIMC 271320Z VRB04KT CAVOK 25/11 Q1016 NOSIG
2026-04-27 12:50:00,METAR LIMC 271250Z 16003KT 060V230 CAVOK 25/12 Q1017 NOSIG
2026-04-27 12:20:00,METAR LIMC 271220Z VRB04KT CAVOK 24/12 Q1017 NOSIG
2026-04-27 11:50:00,METAR LIMC 271150Z VRB04KT CAVOK 24/11 Q1018 NOSIG
2026-04-27 11:20:00,METAR LIMC 271120Z 19005KT 130V260 CAVOK 23/11 Q1018 NOSIG
2026-04-27 10:50:00,METAR LIMC 271050Z VRB03KT CAVOK 23/11 Q1018 NOSIG
2026-04-27 10:20:00,METAR LIMC 271020Z 19004KT 130V290 CAVOK 22/10 Q1019 NOSIG
2026-04-27 09:50:00,METAR LIMC 270950Z VRB03KT CAVOK 22/11 Q1019 NOSIG
2026-04-27 09:20:00,METAR LIMC 270920Z 14003KT 080V200 CAVOK 21/12 Q1019 NOSIG
2026-04-27 08:50:00,METAR LIMC 270850Z 14004KT 090V220 CAVOK 20/11 Q1019 NOSIG
2026-04-27 08:20:00,METAR LIMC 270820Z 12004KT 050V160 CAVOK 19/12 Q1019 NOSIG
2026-04-27 07:50:00,METAR LIMC 270750Z 11005KT 060V160 CAVOK 18/11 Q1019 NOSIG
2026-04-27 07:20:00,METAR LIMC 270720Z VRB03KT CAVOK 18/12 Q1019 NOSIG
2026-04-27 06:50:00,METAR LIMC 270650Z 06004KT 030V100 CAVOK 17/11 Q1019 NOSIG
2026-04-27 06:20:00,METAR LIMC 270620Z 06003KT 010V120 CAVOK 16/12 Q1019 NOSIG
2026-04-27 05:50:00,METAR LIMC 270550Z VRB02KT CAVOK 14/12 Q1019 NOSIG
2026-04-27 05:20:00,METAR LIMC 270520Z VRB02KT CAVOK 12/11 Q1018 NOSIG
2026-04-27 04:50:00,METAR LIMC 270450Z VRB01KT CAVOK 10/10 Q1018 NOSIG
2026-04-27 04:20:00,METAR LIMC 270420Z 07002KT CAVOK 10/10 Q1018 NOSIG
2026-04-27 03:50:00,METAR LIMC 270350Z VRB01KT CAVOK 11/11 Q1018 NOSIG
2026-04-27 03:20:00,METAR LIMC 270320Z VRB02KT CAVOK 10/10 Q1018 NOSIG
2026-04-27 02:50:00,METAR LIMC 270250Z VRB01KT CAVOK 11/11 Q1018 NOSIG
2026-04-27 02:20:00,METAR LIMC 270220Z VRB01KT CAVOK 10/10 Q1017 NOSIG
2026-04-27 01:50:00,METAR LIMC 270150Z 06002KT CAVOK 10/09 Q1018 NOSIG
2026-04-27 01:20:00,METAR LIMC 270120Z 05001KT CAVOK 10/10 Q1018 NOSIG
2026-04-27 00:50:00,METAR LIMC 270050Z 05001KT CAVOK 11/11 Q1018 NOSIG
2026-04-27 00:20:00,METAR LIMC 270020Z VRB02KT CAVOK 12/10 Q1018 NOSIG
2026-04-26 23:50:00,METAR LIMC 262350Z VRB01KT CAVOK 13/12 Q1018 NOSIG
2026-04-26 23:20:00,METAR LIMC 262320Z 08002KT CAVOK 13/13 Q1018 NOSIG
2026-04-26 22:50:00,METAR LIMC 262250Z VRB02KT CAVOK 14/13 Q1018 NOSIG
2026-04-26 22:20:00,METAR LIMC 262220Z VRB01KT CAVOK 14/12 Q1018 NOSIG
2026-04-26 21:50:00,METAR LIMC 262150Z VRB01KT CAVOK 14/12 Q1018 NOSIG
2026-04-26 21:20:00,METAR LIMC 262120Z VRB01KT CAVOK 16/13 Q1018 NOSIG
2026-04-26 20:50:00,METAR LIMC 262050Z VRB02KT CAVOK 18/13 Q1018 NOSIG
2026-04-26 20:20:00,METAR LIMC 262020Z VRB02KT CAVOK 18/13 Q1017 NOSIG
2026-04-26 19:50:00,METAR LIMC 261950Z 18004KT 150V220 CAVOK 20/13 Q1017 NOSIG
2026-04-26 19:20:00,METAR LIMC 261920Z VRB01KT CAVOK 17/11 Q1017 NOSIG
2026-04-26 18:50:00,METAR LIMC 261850Z VRB01KT CAVOK 18/11 Q1016 NOSIG
2026-04-26 18:20:00,METAR LIMC 261820Z 09002KT CAVOK 19/11 Q1016 NOSIG
2026-04-26 17:50:00,METAR LIMC 261750Z 16002KT CAVOK 23/08 Q1016 NOSIG
2026-04-26 17:20:00,METAR LIMC 261720Z 16002KT CAVOK 24/08 Q1016 NOSIG
2026-04-26 16:50:00,METAR LIMC 261650Z 15003KT 100V180 CAVOK 24/07 Q1016 NOSIG
2026-04-26 16:20:00,METAR LIMC 261620Z 12003KT 080V160 CAVOK 25/07 Q1016 NOSIG
2026-04-26 15:50:00,METAR LIMC 261550Z 12003KT 060V190 CAVOK 25/09 Q1016 NOSIG
2026-04-26 15:20:00,METAR LIMC 261520Z 13005KT 100V180 CAVOK 25/10 Q1016 NOSIG
2026-04-26 14:50:00,METAR LIMC 261450Z 10005KT 060V130 CAVOK 25/10 Q1016 NOSIG
2026-04-26 14:20:00,METAR LIMC 261420Z 11005KT 070V140 CAVOK 25/07 Q1016 NOSIG
2026-04-26 13:50:00,METAR LIMC 261350Z 12005KT 080V160 CAVOK 25/09 Q1017 NOSIG
2026-04-26 13:20:00,METAR LIMC 261320Z 10004KT 040V160 CAVOK 25/11 Q1017 NOSIG
2026-04-26 12:50:00,METAR LIMC 261250Z 10005KT 050V150 CAVOK 25/09 Q1017 NOSIG
2026-04-26 12:20:00,METAR LIMC 261220Z VRB03KT CAVOK 24/12 Q1017 NOSIG
2026-04-26 11:50:00,METAR LIMC 261150Z VRB04KT CAVOK 24/11 Q1017 NOSIG
2026-04-26 11:20:00,METAR LIMC 261120Z 11003KT 030V160 CAVOK 24/10 Q1017 NOSIG
2026-04-26 10:50:00,METAR LIMC 261050Z VRB03KT CAVOK 23/10 Q1017 NOSIG
2026-04-26 10:20:00,METAR LIMC 261020Z VRB03KT CAVOK 23/11 Q1017 NOSIG
2026-04-26 09:50:00,METAR LIMC 260950Z VRB03KT CAVOK 22/11 Q1018 NOSIG
2026-04-26 09:20:00,METAR LIMC 260920Z VRB03KT CAVOK 21/11 Q1018 NOSIG
2026-04-26 08:50:00,METAR LIMC 260850Z 12003KT 030V200 CAVOK 20/11 Q1018 NOSIG
2026-04-26 08:20:00,METAR LIMC 260820Z VRB02KT CAVOK 19/11 Q1017 NOSIG
2026-04-26 07:50:00,METAR LIMC 260750Z VRB01KT CAVOK 18/11 Q1017 NOSIG
2026-04-26 07:20:00,METAR LIMC 260720Z VRB02KT CAVOK 17/11 Q1017 NOSIG
2026-04-26 06:50:00,METAR LIMC 260650Z VRB01KT CAVOK 17/12 Q1017 NOSIG
2026-04-26 06:20:00,METAR LIMC 260620Z VRB02KT CAVOK 13/11 Q1017 NOSIG
2026-04-26 05:50:00,METAR LIMC 260550Z 34002KT CAVOK 11/10 Q1017 NOSIG
2026-04-26 05:20:00,METAR LIMC 260520Z VRB01KT CAVOK 08/08 Q1016 NOSIG
2026-04-26 04:50:00,METAR LIMC 260450Z VRB01KT 9999 MIFG NSC 08/08 Q1016 NOSIG
2026-04-26 04:20:00,METAR LIMC 260420Z VRB02KT 9999 MIFG NSC 08/07 Q1015 NOSIG
2026-04-26 03:50:00,METAR LIMC 260350Z VRB01KT 9999 MIFG NSC 07/07 Q1015 NOSIG
2026-04-26 03:20:00,METAR LIMC 260320Z VRB01KT CAVOK 09/09 Q1015 NOSIG
2026-04-26 02:50:00,METAR LIMC 260250Z VRB01KT CAVOK 09/09 Q1015 NOSIG
2026-04-26 02:20:00,METAR LIMC 260220Z 05001KT CAVOK 10/09 Q1015 NOSIG
2026-04-26 01:50:00,METAR LIMC 260150Z VRB01KT CAVOK 09/08 Q1015 NOSIG
2026-04-26 01:20:00,METAR LIMC 260120Z 07003KT 040V100 CAVOK 11/10 Q1015 NOSIG
2026-04-26 00:50:00,METAR LIMC 260050Z 10002KT CAVOK 11/10 Q1016 NOSIG
2026-04-26 00:20:00,METAR LIMC 260020Z VRB02KT CAVOK 12/10 Q1016 NOSIG
2026-04-25 23:50:00,METAR LIMC 252350Z VRB02KT CAVOK 11/10 Q1016 NOSIG
2026-04-25 23:20:00,METAR LIMC 252320Z VRB01KT CAVOK 11/10 Q1015 NOSIG
2026-04-25 22:50:00,METAR LIMC 252250Z VRB01KT CAVOK 12/10 Q1015 NOSIG
2026-04-25 22:20:00,METAR LIMC 252220Z VRB02KT CAVOK 13/10 Q1016 NOSIG
2026-04-25 21:50:00,METAR LIMC 252150Z VRB02KT CAVOK 14/11 Q1015 NOSIG
2026-04-25 21:20:00,METAR LIMC 252120Z VRB03KT CAVOK 15/11 Q1015 NOSIG
2026-04-25 20:50:00,METAR LIMC 252050Z 18004KT CAVOK 16/11 Q1015 NOSIG
2026-04-25 20:20:00,METAR LIMC 252020Z 19005KT CAVOK 17/11 Q1015 NOSIG
2026-04-25 19:50:00,METAR LIMC 251950Z 19005KT 150V220 CAVOK 18/11 Q1015 NOSIG
2026-04-25 19:20:00,METAR LIMC 251920Z 19004KT 150V220 CAVOK 18/12 Q1014 NOSIG
2026-04-25 18:50:00,METAR LIMC 251850Z 17005KT 140V200 CAVOK 20/12 Q1013 NOSIG
2026-04-25 18:20:00,METAR LIMC 251820Z 13003KT 100V170 CAVOK 20/08 Q1013 NOSIG
2026-04-25 17:50:00,METAR LIMC 251750Z 15003KT CAVOK 23/07 Q1013 NOSIG
2026-04-25 17:20:00,METAR LIMC 251720Z 16003KT CAVOK 23/05 Q1013 NOSIG
2026-04-25 16:50:00,METAR LIMC 251650Z 18004KT 130V220 CAVOK 24/04 Q1013 NOSIG
2026-04-25 16:20:00,METAR LIMC 251620Z 18004KT CAVOK 25/05 Q1013 NOSIG
2026-04-25 15:50:00,METAR LIMC 251550Z 16003KT 120V200 CAVOK 25/05 Q1013 NOSIG
2026-04-25 15:20:00,METAR LIMC 251520Z 16004KT 080V190 CAVOK 25/05 Q1013 NOSIG
2026-04-25 14:50:00,METAR LIMC 251450Z 18005KT 130V240 CAVOK 25/05 Q1013 NOSIG
2026-04-25 14:20:00,METAR LIMC 251420Z 17005KT 120V230 CAVOK 24/05 Q1014 NOSIG
2026-04-25 13:50:00,METAR LIMC 251350Z 16005KT 120V250 CAVOK 24/05 Q1014 NOSIG
2026-04-25 13:20:00,METAR LIMC 251320Z VRB04KT CAVOK 24/06 Q1014 NOSIG
2026-04-25 12:50:00,METAR LIMC 251250Z VRB04KT CAVOK 23/07 Q1014 NOSIG
2026-04-25 12:20:00,METAR LIMC 251220Z 20005KT 150V240 CAVOK 23/07 Q1015 NOSIG
2026-04-25 11:50:00,METAR LIMC 251150Z 18005KT 120V250 CAVOK 22/09 Q1015 NOSIG
2026-04-25 11:20:00,METAR LIMC 251120Z 20004KT 160V310 CAVOK 21/10 Q1015 NOSIG
2026-04-25 10:50:00,METAR LIMC 251050Z VRB04KT CAVOK 21/12 Q1016 NOSIG
2026-04-25 10:20:00,METAR LIMC 251020Z 18004KT 140V240 CAVOK 20/10 Q1016 NOSIG
2026-04-25 09:50:00,METAR LIMC 250950Z VRB03KT CAVOK 20/11 Q1016 NOSIG
2026-04-25 09:20:00,METAR LIMC 250920Z 16003KT 090V240 CAVOK 19/11 Q1016 NOSIG
2026-04-25 08:50:00,METAR LIMC 250850Z 17003KT 100V240 CAVOK 18/11 Q1017 NOSIG
2026-04-25 08:20:00,METAR LIMC 250820Z VRB03KT CAVOK 17/11 Q1017 NOSIG
2026-04-25 07:50:00,METAR LIMC 250750Z VRB03KT CAVOK 17/11 Q1017 NOSIG
2026-04-25 07:20:00,METAR LIMC 250720Z 09004KT 060V120 CAVOK 16/10 Q1017 NOSIG
2026-04-25 06:50:00,METAR LIMC 250650Z 11003KT 090V150 CAVOK 15/10 Q1017 NOSIG
2026-04-25 06:20:00,METAR LIMC 250620Z VRB02KT CAVOK 14/10 Q1016 NOSIG
2026-04-25 05:50:00,METAR LIMC 250550Z VRB02KT CAVOK 12/10 Q1016 NOSIG
2026-04-25 05:20:00,METAR LIMC 250520Z VRB02KT CAVOK 09/08 Q1016 NOSIG
2026-04-25 04:50:00,METAR LIMC 250450Z 04003KT CAVOK 08/07 Q1016 NOSIG
2026-04-25 04:20:00,METAR LIMC 250420Z VRB02KT CAVOK 08/07 Q1015 NOSIG
2026-04-25 03:50:00,METAR LIMC 250350Z VRB02KT CAVOK 08/07 Q1015 NOSIG
2026-04-25 03:20:00,METAR LIMC 250320Z VRB01KT CAVOK 09/08 Q1015 NOSIG
2026-04-25 02:50:00,METAR LIMC 250250Z 07002KT CAVOK 08/08 Q1015 NOSIG
2026-04-25 02:20:00,METAR LIMC 250220Z VRB02KT CAVOK 08/07 Q1016 NOSIG
2026-04-25 01:50:00,METAR LIMC 250150Z 05002KT CAVOK 08/07 Q1015 NOSIG
2026-04-25 01:20:00,METAR LIMC 250120Z 04002KT CAVOK 09/08 Q1015 NOSIG
2026-04-25 00:20:00,METAR LIMC 250020Z VRB01KT CAVOK 10/09 Q1016 NOSIG
2026-04-24 23:50:00,METAR LIMC 242350Z VRB02KT CAVOK 10/08 Q1016 NOSIG
2026-04-24 22:50:00,METAR LIMC 242250Z VRB02KT CAVOK 11/08 Q1016 NOSIG
2026-04-24 22:20:00,METAR LIMC 242220Z VRB01KT CAVOK 11/08 Q1016 NOSIG
2026-04-24 21:50:00,METAR LIMC 242150Z VRB01KT CAVOK 12/08 Q1016 NOSIG
2026-04-24 21:20:00,METAR LIMC 242120Z VRB02KT CAVOK 13/07 Q1016 NOSIG
2026-04-24 20:50:00,METAR LIMC 242050Z 15003KT 130V190 CAVOK 15/06 Q1015 NOSIG
2026-04-24 20:20:00,METAR LIMC 242020Z 15003KT 130V190 CAVOK 16/06 Q1015 NOSIG
2026-04-24 19:50:00,METAR LIMC 241950Z 15003KT 110V210 CAVOK 17/06 Q1015 NOSIG
2026-04-24 19:20:00,METAR LIMC 241920Z 19004KT CAVOK 19/05 Q1015 NOSIG
2026-04-24 18:50:00,METAR LIMC 241850Z 16004KT 130V190 CAVOK 19/06 Q1014 NOSIG
2026-04-24 18:20:00,METAR LIMC 241820Z 17004KT CAVOK 21/06 Q1014 NOSIG
2026-04-24 17:50:00,METAR LIMC 241750Z 16002KT CAVOK 23/03 Q1014 NOSIG
2026-04-24 17:20:00,METAR LIMC 241720Z VRB02KT CAVOK 24/04 Q1014 NOSIG
2026-04-24 16:50:00,METAR LIMC 241650Z 15003KT 130V190 CAVOK 25/04 Q1014 NOSIG
2026-04-24 16:20:00,METAR LIMC 241620Z 19004KT 130V230 CAVOK 25/01 Q1014 NOSIG
2026-04-24 15:50:00,METAR LIMC 241550Z 22004KT 170V280 CAVOK 25/00 Q1014 NOSIG
2026-04-24 15:20:00,METAR LIMC 241520Z 24005KT 210V290 CAVOK 25/01 Q1015 NOSIG
2026-04-24 14:50:00,METAR LIMC 241450Z 24006KT 200V260 CAVOK 25/02 Q1015 NOSIG
2026-04-24 14:20:00,METAR LIMC 241420Z 18004KT 110V260 CAVOK 25/02 Q1015 NOSIG
2026-04-24 13:50:00,METAR LIMC 241350Z 21005KT 150V280 CAVOK 24/04 Q1015 NOSIG
2026-04-24 13:20:00,METAR LIMC 241320Z VRB05KT CAVOK 24/03 Q1016 NOSIG
2026-04-24 12:50:00,METAR LIMC 241250Z 18004KT 150V230 CAVOK 23/05 Q1016 NOSIG
2026-04-24 12:20:00,METAR LIMC 241220Z VRB04KT CAVOK 23/05 Q1016 NOSIG
2026-04-24 11:50:00,METAR LIMC 241150Z 18005KT 120V230 CAVOK 23/07 Q1017 NOSIG
2026-04-24 11:20:00,METAR LIMC 241120Z VRB03KT CAVOK 22/06 Q1017 NOSIG
2026-04-24 10:50:00,METAR LIMC 241050Z VRB04KT CAVOK 22/05 Q1017 NOSIG
2026-04-24 10:20:00,METAR LIMC 241020Z VRB04KT CAVOK 21/05 Q1018 NOSIG
2026-04-24 09:50:00,METAR LIMC 240950Z VRB03KT CAVOK 21/07 Q1018 NOSIG
2026-04-24 09:20:00,METAR LIMC 240920Z 12004KT 070V190 CAVOK 21/08 Q1018 NOSIG
2026-04-24 08:50:00,METAR LIMC 240850Z 13003KT 090V190 CAVOK 19/09 Q1018 NOSIG
2026-04-24 08:20:00,METAR LIMC 240820Z VRB03KT CAVOK 18/08 Q1018 NOSIG
2026-04-24 07:50:00,METAR LIMC 240750Z VRB02KT CAVOK 18/08 Q1018 NOSIG
2026-04-24 07:20:00,METAR LIMC 240720Z 08004KT 350V120 CAVOK 17/08 Q1018 NOSIG
2026-04-24 06:50:00,METAR LIMC 240650Z 33003KT CAVOK 15/10 Q1018 NOSIG
2026-04-24 06:20:00,METAR LIMC 240620Z VRB01KT CAVOK 12/10 Q1018 NOSIG
2026-04-24 05:50:00,METAR LIMC 240550Z 34003KT CAVOK 09/08 Q1018 NOSIG
2026-04-24 05:20:00,METAR LIMC 240520Z 34003KT 320V020 CAVOK 06/06 Q1018 NOSIG
2026-04-24 04:50:00,METAR LIMC 240450Z VRB02KT CAVOK 07/07 Q1018 NOSIG
2026-04-24 04:20:00,METAR LIMC 240420Z 02002KT CAVOK 05/05 Q1018 NOSIG
2026-04-24 03:50:00,METAR LIMC 240350Z 04002KT CAVOK 07/07 Q1018 NOSIG
2026-04-24 03:20:00,METAR LIMC 240320Z 08002KT CAVOK 08/08 Q1018 NOSIG
2026-04-24 02:50:00,METAR LIMC 240250Z VRB02KT CAVOK 07/07 Q1018 NOSIG
2026-04-24 02:20:00,METAR LIMC 240220Z VRB02KT CAVOK 07/07 Q1018 NOSIG
2026-04-24 01:50:00,METAR LIMC 240150Z VRB02KT CAVOK 08/08 Q1018 NOSIG
2026-04-24 01:20:00,METAR LIMC 240120Z VRB01KT CAVOK 08/08 Q1018 NOSIG
2026-04-24 00:50:00,METAR LIMC 240050Z VRB02KT CAVOK 07/06 Q1018 NOSIG
2026-04-24 00:20:00,METAR LIMC 240020Z VRB01KT CAVOK 08/07 Q1018 NOSIG
2026-04-23 23:50:00,METAR LIMC 232350Z VRB02KT CAVOK 08/07 Q1018 NOSIG
2026-04-23 23:20:00,METAR LIMC 232320Z VRB02KT CAVOK 10/08 Q1018 NOSIG
2026-04-23 22:50:00,METAR LIMC 232250Z VRB02KT CAVOK 09/08 Q1018 NOSIG
2026-04-23 22:20:00,METAR LIMC 232220Z VRB01KT CAVOK 09/08 Q1019 NOSIG
2026-04-23 21:50:00,METAR LIMC 232150Z 08002KT CAVOK 11/08 Q1019 NOSIG
2026-04-23 21:20:00,METAR LIMC 232120Z VRB01KT CAVOK 10/07 Q1018 NOSIG
2026-04-23 20:50:00,METAR LIMC 232050Z VRB01KT CAVOK 11/07 Q1018 NOSIG
2026-04-23 20:20:00,METAR LIMC 232020Z VRB01KT CAVOK 12/08 Q1018 NOSIG
2026-04-23 19:50:00,METAR LIMC 231950Z VRB01KT CAVOK 12/08 Q1018 NOSIG
2026-04-23 19:20:00,METAR LIMC 231920Z VRB02KT CAVOK 14/08 Q1018 NOSIG
2026-04-23 18:50:00,METAR LIMC 231850Z VRB02KT CAVOK 15/08 Q1018 NOSIG
2026-04-23 18:20:00,METAR LIMC 231820Z VRB02KT CAVOK 18/08 Q1018 NOSIG
2026-04-23 17:50:00,METAR LIMC 231750Z 20004KT CAVOK 20/04 Q1018 NOSIG
2026-04-23 17:20:00,METAR LIMC 231720Z 22005KT 160V280 CAVOK 21/04 Q1018 NOSIG
2026-04-23 16:50:00,METAR LIMC 231650Z 20006KT 170V240 CAVOK 21/04 Q1018 NOSIG
2026-04-23 16:20:00,METAR LIMC 231620Z 19005KT 160V240 CAVOK 21/04 Q1019 NOSIG
2026-04-23 15:50:00,METAR LIMC 231550Z 22005KT 180V270 CAVOK 22/05 Q1019 NOSIG
2026-04-23 15:20:00,METAR LIMC 231520Z 24005KT 170V310 CAVOK 22/05 Q1019 NOSIG
2026-04-23 14:50:00,METAR LIMC 231450Z 25007KT 200V290 CAVOK 22/05 Q1019 NOSIG
2026-04-23 14:20:00,METAR LIMC 231420Z 25006KT 210V330 CAVOK 21/04 Q1020 NOSIG
2026-04-23 13:50:00,METAR LIMC 231350Z 26004KT 200V350 CAVOK 21/05 Q1020 NOSIG
2026-04-23 13:20:00,METAR LIMC 231320Z 21005KT 150V260 CAVOK 21/04 Q1021 NOSIG
2026-04-23 12:50:00,METAR LIMC 231250Z 23006KT 160V280 CAVOK 20/06 Q1021 NOSIG
2026-04-23 12:20:00,METAR LIMC 231220Z 22006KT 110V280 CAVOK 20/06 Q1022 NOSIG
2026-04-23 11:50:00,METAR LIMC 231150Z 25006KT 210V310 CAVOK 19/06 Q1022 NOSIG
2026-04-23 11:20:00,METAR LIMC 231120Z 23005KT 170V330 CAVOK 18/07 Q1022 NOSIG
2026-04-23 10:50:00,METAR LIMC 231050Z VRB04KT CAVOK 19/08 Q1023 NOSIG
2026-04-23 10:20:00,METAR LIMC 231020Z 14003KT 070V200 CAVOK 18/08 Q1023 NOSIG
2026-04-23 09:50:00,METAR LIMC 230950Z VRB02KT CAVOK 18/07 Q1024 NOSIG
2026-04-23 09:20:00,METAR LIMC 230920Z 14003KT 070V230 CAVOK 17/06 Q1024 NOSIG
2026-04-23 08:50:00,METAR LIMC 230850Z VRB02KT CAVOK 17/07 Q1024 NOSIG
2026-04-23 08:20:00,METAR LIMC 230820Z VRB02KT CAVOK 16/07 Q1024 NOSIG
2026-04-23 07:50:00,METAR LIMC 230750Z 07004KT 030V110 CAVOK 15/07 Q1024 NOSIG
2026-04-23 07:20:00,METAR LIMC 230720Z 06004KT 350V130 CAVOK 14/06 Q1024 NOSIG
2026-04-23 06:50:00,METAR LIMC 230650Z VRB02KT CAVOK 13/09 Q1024 NOSIG
2026-04-23 06:20:00,METAR LIMC 230620Z 34004KT CAVOK 11/08 Q1024 NOSIG
2026-04-23 05:50:00,METAR LIMC 230550Z VRB01KT CAVOK 08/08 Q1024 NOSIG
2026-04-23 05:20:00,METAR LIMC 230520Z VRB02KT CAVOK 07/06 Q1024 NOSIG
2026-04-23 04:50:00,METAR LIMC 230450Z VRB01KT CAVOK 06/06 Q1023 NOSIG
2026-04-23 04:20:00,METAR LIMC 230420Z VRB01KT CAVOK 07/06 Q1023 NOSIG
2026-04-23 03:50:00,METAR LIMC 230350Z VRB01KT CAVOK 07/06 Q1023 NOSIG
2026-04-23 03:20:00,METAR LIMC 230320Z VRB02KT CAVOK 07/06 Q1023 NOSIG
2026-04-23 02:50:00,METAR LIMC 230250Z VRB02KT CAVOK 08/06 Q1023 NOSIG
2026-04-23 02:20:00,METAR LIMC 230220Z 06003KT CAVOK 09/08 Q1023 NOSIG
2026-04-23 01:50:00,METAR LIMC 230150Z 06003KT CAVOK 10/08 Q1023 NOSIG
2026-04-23 01:20:00,METAR LIMC 230120Z 07004KT CAVOK 11/08 Q1023 NOSIG
2026-04-23 00:50:00,METAR LIMC 230050Z 06004KT CAVOK 10/08 Q1023 NOSIG
2026-04-23 00:20:00,METAR LIMC 230020Z 07003KT CAVOK 10/08 Q1022 NOSIG
2026-04-22 23:50:00,METAR LIMC 222350Z 07003KT 9999 FEW060 11/09 Q1022 NOSIG
2026-04-22 23:20:00,METAR LIMC 222320Z 07002KT 9999 FEW060 12/09 Q1022 NOSIG
2026-04-22 22:50:00,METAR LIMC 222250Z 07003KT 9999 FEW070 12/09 Q1022 NOSIG
2026-04-22 22:20:00,METAR LIMC 222220Z 08002KT 9999 FEW070 11/09 Q1022 NOSIG
2026-04-22 21:50:00,METAR LIMC 222150Z VRB02KT 9999 SCT050 11/09 Q1022 NOSIG
2026-04-22 21:20:00,METAR LIMC 222120Z VRB02KT 9999 SCT050 11/09 Q1021 NOSIG
2026-04-22 20:50:00,METAR LIMC 222050Z VRB01KT 9999 FEW050 10/08 Q1021 NOSIG
2026-04-22 20:20:00,METAR LIMC 222020Z 05002KT CAVOK 10/08 Q1021 NOSIG
2026-04-22 19:50:00,METAR LIMC 221950Z 10002KT CAVOK 10/08 Q1020 NOSIG
2026-04-22 19:20:00,METAR LIMC 221920Z VRB02KT CAVOK 12/09 Q1020 NOSIG
2026-04-22 18:50:00,METAR LIMC 221850Z 08002KT CAVOK 12/09 Q1019 NOSIG
2026-04-22 18:20:00,METAR LIMC 221820Z VRB02KT CAVOK 13/09 Q1019 NOSIG
2026-04-22 17:50:00,METAR LIMC 221750Z 14003KT CAVOK 16/06 Q1019 NOSIG
2026-04-22 17:20:00,METAR LIMC 221720Z 17002KT CAVOK 17/07 Q1019 NOSIG
2026-04-22 16:50:00,METAR LIMC 221650Z 18003KT 140V230 9999 FEW050 18/07 Q1019 NOSIG
2026-04-22 16:20:00,METAR LIMC 221620Z VRB04KT 9999 FEW050 18/07 Q1019 NOSIG
2026-04-22 15:50:00,METAR LIMC 221550Z 23005KT 190V290 9999 FEW050 18/05 Q1019 NOSIG
2026-04-22 15:20:00,METAR LIMC 221520Z 14003KT 120V190 9999 SCT050 17/07 Q1019 NOSIG
2026-04-22 14:50:00,METAR LIMC 221450Z 15005KT 9999 SCT050 16/06 Q1019 NOSIG
2026-04-22 14:20:00,METAR LIMC 221420Z 15003KT 110V210 9999 SCT050 17/07 Q1019 NOSIG
2026-04-22 13:50:00,METAR LIMC 221350Z VRB03KT 9999 BKN050 18/06 Q1019 NOSIG
2026-04-22 13:20:00,METAR LIMC 221320Z 11003KT 040V200 9999 BKN045 17/06 Q1019 NOSIG
2026-04-22 12:50:00,METAR LIMC 221250Z 16003KT 100V230 9999 BKN040 16/06 Q1019 NOSIG
2026-04-22 12:20:00,METAR LIMC 221220Z VRB03KT 9999 BKN040 16/06 Q1020 NOSIG
2026-04-22 11:50:00,METAR LIMC 221150Z VRB03KT 9999 SCT040 17/07 Q1019 NOSIG
2026-04-22 11:20:00,METAR LIMC 221120Z VRB04KT 9999 SCT040 15/06 Q1020 NOSIG
2026-04-22 10:50:00,METAR LIMC 221050Z VRB04KT 9999 BKN040 15/06 Q1020 NOSIG
2026-04-22 10:20:00,METAR LIMC 221020Z 11005KT 060V140 9999 SCT040 15/07 Q1020 NOSIG
2026-04-22 09:50:00,METAR LIMC 220950Z VRB03KT 9999 BKN050 14/07 Q1020 NOSIG
2026-04-22 09:20:00,METAR LIMC 220920Z 07004KT 010V140 9999 BKN040 13/06 Q1020 NOSIG
2026-04-22 08:50:00,METAR LIMC 220850Z 07004KT 010V150 9999 BKN040 13/06 Q1020 NOSIG
2026-04-22 08:20:00,METAR LIMC 220820Z VRB01KT 9999 BKN040 12/08 Q1020 NOSIG
2026-04-22 07:50:00,METAR LIMC 220750Z VRB01KT 9999 BKN040 12/08 Q1020 NOSIG
2026-04-22 07:20:00,METAR LIMC 220720Z 12003KT 070V170 9999 BKN040 11/07 Q1019 NOSIG
2026-04-22 06:50:00,METAR LIMC 220650Z 11004KT 080V140 9999 BKN040 11/08 Q1019 NOSIG
2026-04-22 06:20:00,METAR LIMC 220620Z VRB02KT 9999 BKN040 11/08 Q1019 NOSIG
2026-04-22 05:50:00,METAR LIMC 220550Z 11003KT 060V160 9999 BKN040 11/09 Q1019 NOSIG
2026-04-22 05:20:00,METAR LIMC 220520Z VRB02KT 9999 BKN040 10/10 Q1018 NOSIG
2026-04-22 04:50:00,METAR LIMC 220450Z VRB02KT 9999 FEW035 BKN065 10/09 Q1018 NOSIG
2026-04-22 04:20:00,METAR LIMC 220420Z 04002KT 9999 FEW040 BKN065 09/09 Q1018 NOSIG
2026-04-22 03:50:00,METAR LIMC 220350Z VRB02KT 9999 FEW030 BKN065 10/09 Q1018 NOSIG
2026-04-22 03:20:00,METAR LIMC 220320Z VRB02KT 9999 SCT030 BKN060 10/10 Q1018 NOSIG
2026-04-22 02:50:00,METAR LIMC 220250Z VRB01KT 9999 SCT040 BKN065 11/10 Q1018 NOSIG
2026-04-22 02:20:00,METAR LIMC 220220Z VRB01KT 9999 SCT040 BKN060 12/08 Q1017 NOSIG
2026-04-22 01:50:00,METAR LIMC 220150Z 04003KT 350V150 9999 SCT060 BKN080 11/09 Q1017 NOSIG
2026-04-22 01:20:00,METAR LIMC 220120Z VRB02KT 9999 FEW060 BKN080 11/10 Q1017 NOSIG
2026-04-22 00:50:00,METAR LIMC 220050Z 07003KT 010V140 9999 BKN080 12/10 Q1016 NOSIG
2026-04-22 00:20:00,METAR LIMC 220020Z 02003KT 340V060 9999 BKN080 12/11 Q1017 NOSIG
2026-04-21 23:50:00,METAR LIMC 212350Z 36003KT 330V040 9999 BKN075 12/11 Q1016 NOSIG
2026-04-21 23:20:00,METAR LIMC 212320Z 36004KT 330V060 9999 BKN075 11/11 Q1016 NOSIG
2026-04-21 22:50:00,METAR LIMC 212250Z 02004KT 330V090 9999 BKN070 12/11 Q1016 NOSIG
2026-04-21 22:20:00,METAR LIMC 212220Z 03003KT 330V110 9999 -RA BKN060 12/11 Q1016 RERA NOSIG
2026-04-21 21:50:00,METAR LIMC 212150Z 11004KT 070V150 7000 RA BKN060 12/11 Q1015 NOSIG
2026-04-21 21:20:00,METAR LIMC 212120Z 10006KT 060V130 7000 RA SCT030 BKN050 12/11 Q1015 NOSIG
2026-04-21 20:50:00,METAR LIMC 212050Z 09006KT 050V140 5000 +RA SCT025 BKN040 12/11 Q1015 NOSIG
2026-04-21 20:20:00,METAR LIMC 212020Z 04007KT 350V090 9999 RA SCT030 BKN060 14/09 Q1014 NOSIG
2026-04-21 19:50:00,METAR LIMC 211950Z 06007KT 030V090 9999 BKN075 15/09 Q1013 TEMPO SHRA
2026-04-21 19:20:00,METAR LIMC 211920Z 06008KT 030V100 9999 BKN070 16/09 Q1013 TEMPO SHRA
2026-04-21 18:50:00,METAR LIMC 211850Z 11005KT 080V140 9999 VCSH SCT070 16/10 Q1012 NOSIG
2026-04-21 18:20:00,METAR LIMC 211820Z 12005KT 090V150 9999 VCSH SCT060 16/10 Q1012 NOSIG
2026-04-21 17:50:00,METAR LIMC 211750Z 13006KT 9999 FEW040 17/10 Q1011 NOSIG
2026-04-21 17:20:00,METAR LIMC 211720Z 14007KT 9999 FEW040 18/10 Q1011 NOSIG
2026-04-21 16:50:00,METAR LIMC 211650Z 14008KT 9999 FEW040 18/10 Q1011 NOSIG
2026-04-21 16:20:00,METAR LIMC 211620Z 15008KT 9999 FEW040 18/09 Q1011 NOSIG
2026-04-21 15:50:00,METAR LIMC 211550Z 13006KT 090V170 9999 FEW040 19/10 Q1011 NOSIG
2026-04-21 15:20:00,METAR LIMC 211520Z 12005KT 080V160 9999 SCT040 19/10 Q1011 NOSIG
2026-04-21 14:50:00,METAR LIMC 211450Z 11005KT 040V190 9999 SCT040 19/10 Q1011 NOSIG
2026-04-21 14:20:00,METAR LIMC 211420Z VRB06KT 9999 SCT040 19/09 Q1011 NOSIG
2026-04-21 13:50:00,METAR LIMC 211350Z 13007KT 090V190 9999 SCT040 19/10 Q1011 NOSIG
2026-04-21 13:20:00,METAR LIMC 211320Z 12006KT 080V150 9999 SCT040 19/10 Q1011 NOSIG
2026-04-21 12:50:00,METAR LIMC 211250Z 15005KT 090V190 9999 SCT040 19/11 Q1012 NOSIG
2026-04-21 12:20:00,METAR LIMC 211220Z 11006KT 050V150 9999 BKN040 19/10 Q1012 NOSIG
2026-04-21 11:50:00,METAR LIMC 211150Z 09006KT 040V140 9999 BKN035 17/10 Q1012 NOSIG
2026-04-21 11:20:00,METAR LIMC 211120Z 12006KT 050V170 9999 BKN035 17/10 Q1012 NOSIG
2026-04-21 10:50:00,METAR LIMC 211050Z 14005KT 050V180 9999 BKN030 18/11 Q1013 NOSIG
2026-04-21 10:20:00,METAR LIMC 211020Z VRB04KT 9999 BKN030 17/11 Q1013 NOSIG
2026-04-21 09:50:00,METAR LIMC 210950Z 07005KT 010V120 9999 SCT025 16/10 Q1013 NOSIG
2026-04-21 09:20:00,METAR LIMC 210920Z VRB04KT 9999 SCT025 15/10 Q1013 NOSIG
2026-04-21 08:50:00,METAR LIMC 210850Z 09004KT 020V170 9999 SCT020 16/11 Q1013 NOSIG
2026-04-21 08:20:00,METAR LIMC 210820Z 10007KT 070V140 9999 FEW020 SCT080 15/10 Q1013 NOSIG
2026-04-21 07:50:00,METAR LIMC 210750Z 09008KT 060V140 9999 FEW020 SCT050 15/11 Q1013 NOSIG
2026-04-21 07:20:00,METAR LIMC 210720Z 08006KT 050V110 9999 SCT015 SCT025 14/12 Q1013 NOSIG
2026-04-21 06:50:00,METAR LIMC 210650Z 06004KT 030V090 7000 BKN020 14/12 Q1013 NOSIG
2026-04-21 06:20:00,METAR LIMC 210620Z 05005KT 360V100 6000 BKN010 BKN020 13/12 Q1013 NOSIG
2026-04-21 05:50:00,METAR LIMC 210550Z 05005KT 010V090 4000 BR SCT010 SCT020 13/13 Q1013 BECMG 6000
2026-04-21 05:20:00,METAR LIMC 210520Z 06005KT 030V090 4000 BR SCT008 BKN015 13/13 Q1012 NOSIG
2026-04-21 04:50:00,METAR LIMC 210450Z 06005KT 030V090 4000 BR BKN009 13/13 Q1012 NOSIG
2026-04-21 04:20:00,METAR LIMC 210420Z 05004KT 020V090 3500 BR SCT015 13/13 Q1012 NOSIG
2026-04-21 03:50:00,METAR LIMC 210350Z 04005KT 010V080 9999 BKN030 13/13 Q1012 NOSIG
2026-04-21 03:20:00,METAR LIMC 210320Z 04004KT 360V090 9999 SCT025 BKN075 12/12 Q1012 RERA NOSIG
2026-04-21 02:50:00,METAR LIMC 210250Z 11009KT 060V130 9999 RA VCTS FEW050CB BKN070 12/12 Q1011 RETS BECMG NSW
2026-04-21 02:20:00,METAR LIMC 210220Z 35008KT 320V030 9999 2000N +TSRA SCT010CB OVC022 14/13 Q1011 NOSIG
2026-04-21 01:50:00,METAR LIMC 210150Z VRB02KT 9999 TS VCSH SCT022CB BKN040 15/12 Q1011 TEMPO TSRA
2026-04-21 01:20:00,METAR LIMC 210120Z 10004KT 9999 VCTS FEW040CB BKN050 14/12 Q1011 TEMPO TSRA
2026-04-21 00:50:00,METAR LIMC 210050Z 08002KT 9999 FEW040TCU SCT050 13/12 Q1011 TEMPO TSRA
2026-04-21 00:20:00,METAR LIMC 210020Z VRB02KT 9999 SCT030 13/12 Q1011 NOSIG
2026-04-20 23:50:00,METAR LIMC 202350Z 06002KT 9999 SCT050 14/12 Q1011 NOSIG
2026-04-20 23:20:00,METAR LIMC 202320Z 07003KT 9999 BKN035 13/12 Q1011 NOSIG
2026-04-20 22:50:00,METAR LIMC 202250Z 06003KT 030V090 CAVOK 13/12 Q1011 NOSIG
2026-04-20 22:20:00,METAR LIMC 202220Z VRB01KT CAVOK 14/12 Q1011 NOSIG
2026-04-20 21:50:00,METAR LIMC 202150Z VRB02KT CAVOK 15/12 Q1011 NOSIG
2026-04-20 21:20:00,METAR LIMC 202120Z 19004KT 150V230 9999 SCT050 16/12 Q1011 NOSIG
2026-04-20 20:50:00,METAR LIMC 202050Z VRB02KT 9999 SCT050 16/12 Q1010 NOSIG
2026-04-20 20:20:00,METAR LIMC 202020Z 17003KT 150V210 CAVOK 17/12 Q1010 NOSIG
2026-04-20 19:50:00,METAR LIMC 201950Z 14004KT 120V180 CAVOK 17/13 Q1010 NOSIG
2026-04-20 19:20:00,METAR LIMC 201920Z 15003KT CAVOK 17/13 Q1010 NOSIG
2026-04-20 18:50:00,METAR LIMC 201850Z 19005KT CAVOK 18/13 Q1009 NOSIG
2026-04-20 18:20:00,METAR LIMC 201820Z 19004KT 150V220 9999 SCT050 20/13 Q1009 NOSIG
2026-04-20 17:50:00,METAR LIMC 201750Z VRB02KT 9999 SCT050 20/11 Q1009 NOSIG
2026-04-20 17:20:00,METAR LIMC 201720Z 16003KT 140V220 9999 SCT050 21/11 Q1009 NOSIG
2026-04-20 16:50:00,METAR LIMC 201650Z 22003KT 150V280 9999 SCT050 22/10 Q1009 NOSIG
2026-04-20 16:20:00,METAR LIMC 201620Z VRB02KT 9999 SCT050 23/11 Q1009 NOSIG
2026-04-20 15:50:00,METAR LIMC 201550Z VRB04KT 9999 SCT050 23/11 Q1009 NOSIG
2026-04-20 15:20:00,METAR LIMC 201520Z 22005KT 190V270 9999 SCT040 22/10 Q1009 NOSIG
2026-04-20 14:50:00,METAR LIMC 201450Z 20005KT 120V280 9999 SCT040 22/11 Q1010 NOSIG
2026-04-20 14:20:00,METAR LIMC 201420Z 14004KT 100V170 9999 SCT040 22/11 Q1010 NOSIG
2026-04-20 13:50:00,METAR LIMC 201350Z 15004KT 110V210 9999 SCT040 21/11 Q1010 NOSIG
2026-04-20 13:20:00,METAR LIMC 201320Z 14006KT 090V200 9999 SCT040 21/11 Q1011 NOSIG
2026-04-20 12:50:00,METAR LIMC 201250Z 13006KT 050V180 9999 SCT040 21/11 Q1011 NOSIG
2026-04-20 12:20:00,METAR LIMC 201220Z 11007KT 080V140 CAVOK 21/12 Q1011 NOSIG
2026-04-20 11:50:00,METAR LIMC 201150Z 13006KT 080V180 9999 SCT040 20/12 Q1012 NOSIG
2026-04-20 11:20:00,METAR LIMC 201120Z 15005KT 120V200 9999 BKN040 20/13 Q1012 NOSIG
2026-04-20 10:50:00,METAR LIMC 201050Z 10006KT 040V160 9999 SCT030 19/13 Q1012 NOSIG
2026-04-20 10:20:00,METAR LIMC 201020Z 12006KT 050V190 9999 BKN030 20/13 Q1013 NOSIG
2026-04-20 09:50:00,METAR LIMC 200950Z VRB05KT 9999 SCT025 SCT070 19/13 Q1013 NOSIG
2026-04-20 09:20:00,METAR LIMC 200920Z 13006KT 100V180 9999 SCT025 SCT065 18/13 Q1013 NOSIG
2026-04-20 08:50:00,METAR LIMC 200850Z 12006KT 070V170 9999 SCT020 SCT065 18/13 Q1013 NOSIG
2026-04-20 08:20:00,METAR LIMC 200820Z 12007KT 090V160 9999 SCT020 18/13 Q1013 NOSIG
2026-04-20 07:50:00,METAR LIMC 200750Z 09006KT 060V120 CAVOK 17/13 Q1013 NOSIG
2026-04-20 07:20:00,METAR LIMC 200720Z 08005KT 030V120 9999 FEW070 16/12 Q1013 NOSIG
2026-04-20 06:50:00,METAR LIMC 200650Z VRB02KT 9999 SCT060 14/13 Q1013 NOSIG
2026-04-20 06:20:00,METAR LIMC 200620Z 08002KT 9999 FEW070 12/12 Q1013 NOSIG
2026-04-20 05:50:00,METAR LIMC 200550Z VRB01KT 9999 FEW070 11/11 Q1013 NOSIG
2026-04-20 05:20:00,METAR LIMC 200520Z VRB02KT 9999 FEW070 11/11 Q1013 NOSIG
2026-04-20 04:50:00,METAR LIMC 200450Z VRB01KT 9999 SCT070 11/11 Q1013 NOSIG
2026-04-20 04:20:00,METAR LIMC 200420Z VRB01KT 9999 SCT060 11/11 Q1013 NOSIG
2026-04-20 03:50:00,METAR LIMC 200350Z 01003KT CAVOK 11/11 Q1013 NOSIG
2026-04-20 03:20:00,METAR LIMC 200320Z VRB02KT 9999 BKN060 12/12 Q1013 NOSIG
2026-04-20 02:50:00,METAR LIMC 200250Z 35003KT 9999 SCT060 12/12 Q1013 NOSIG
2026-04-20 02:20:00,METAR LIMC 200220Z VRB01KT CAVOK 12/12 Q1014 NOSIG
2026-04-20 01:50:00,METAR LIMC 200150Z VRB01KT 9999 SCT050 13/12 Q1013 NOSIG
2026-04-20 01:20:00,METAR LIMC 200120Z VRB01KT 9999 SCT050 13/12 Q1013 NOSIG
2026-04-20 00:50:00,METAR LIMC 200050Z VRB02KT 9999 SCT050 14/12 Q1014 NOSIG
2026-04-20 00:20:00,METAR LIMC 200020Z VRB01KT 9999 SCT050 14/12 Q1014 NOSIG
2026-04-19 23:50:00,METAR LIMC 192350Z 36004KT 330V040 9999 SCT050 15/12 Q1014 NOSIG
2026-04-19 23:20:00,METAR LIMC 192320Z VRB01KT 9999 SCT050 15/12 Q1014 NOSIG
2026-04-19 22:50:00,METAR LIMC 192250Z VRB02KT 9999 SCT060 16/12 Q1014 RETS NOSIG
2026-04-19 22:20:00,METAR LIMC 192220Z 02004KT 320V130 9999 TS SCT050CB 16/12 Q1014 NOSIG
2026-04-19 21:50:00,METAR LIMC 192150Z 01003KT 330V080 9999 VCTS SCT050CB 17/10 Q1014 TEMPO TSRA
2026-04-19 21:20:00,METAR LIMC 192120Z 34007KT 320V030 9999 VCTS SCT050CB 17/11 Q1014 TEMPO TSRA
2026-04-19 20:50:00,METAR LIMC 192050Z 08004KT 040V130 9999 -RA SCT060 18/10 Q1014 TEMPO TSRA
2026-04-19 20:20:00,METAR LIMC 192020Z 11005KT 080V140 9999 -RA SCT060 19/09 Q1014 NOSIG
2026-04-19 19:50:00,METAR LIMC 191950Z 09007KT 050V140 9999 BKN060 19/09 Q1014 NOSIG
2026-04-19 19:20:00,METAR LIMC 191920Z 08007KT 050V120 CAVOK 19/10 Q1014 NOSIG
2026-04-19 18:50:00,METAR LIMC 191850Z 09005KT 050V130 CAVOK 20/10 Q1013 NOSIG
2026-04-19 18:20:00,METAR LIMC 191820Z 08004KT 040V110 CAVOK 21/12 Q1013 NOSIG
2026-04-19 17:50:00,METAR LIMC 191750Z 15003KT CAVOK 22/10 Q1012 NOSIG
2026-04-19 17:20:00,METAR LIMC 191720Z 13005KT 090V160 CAVOK 23/10 Q1012 NOSIG
2026-04-19 16:50:00,METAR LIMC 191650Z 13004KT CAVOK 23/10 Q1012 NOSIG
2026-04-19 16:20:00,METAR LIMC 191620Z VRB03KT CAVOK 23/10 Q1012 NOSIG
2026-04-19 15:50:00,METAR LIMC 191550Z 11005KT 040V170 CAVOK 24/11 Q1013 NOSIG
2026-04-19 15:20:00,METAR LIMC 191520Z VRB03KT CAVOK 24/11 Q1013 NOSIG
2026-04-19 14:50:00,METAR LIMC 191450Z 11005KT 020V170 9999 FEW050 24/11 Q1013 NOSIG
2026-04-19 14:20:00,METAR LIMC 191420Z 11005KT 050V150 9999 SCT050 23/11 Q1013 NOSIG
2026-04-19 13:50:00,METAR LIMC 191350Z 11005KT 060V190 9999 SCT050 24/11 Q1014 NOSIG
2026-04-19 13:20:00,METAR LIMC 191320Z 07004KT 350V120 9999 FEW050 23/11 Q1014 NOSIG
2026-04-19 12:50:00,METAR LIMC 191250Z 19003KT 130V290 CAVOK 23/10 Q1015 NOSIG
2026-04-19 12:20:00,METAR LIMC 191220Z 16004KT 100V210 CAVOK 23/10 Q1015 NOSIG
2026-04-19 11:50:00,METAR LIMC 191150Z 14006KT 090V220 9999 FEW020 23/10 Q1015 NOSIG
2026-04-19 11:20:00,METAR LIMC 191120Z VRB03KT 9999 FEW020 22/12 Q1016 NOSIG
2026-04-19 10:50:00,METAR LIMC 191050Z 17004KT 130V220 CAVOK 21/12 Q1016 NOSIG
2026-04-19 10:20:00,METAR LIMC 191020Z 13004KT 030V200 CAVOK 21/11 Q1016 NOSIG
2026-04-19 09:50:00,METAR LIMC 190950Z 13006KT 100V180 CAVOK 20/11 Q1017 NOSIG
2026-04-19 09:20:00,METAR LIMC 190920Z 12004KT 080V170 CAVOK 20/12 Q1017 NOSIG
2026-04-19 08:50:00,METAR LIMC 190850Z 10004KT 040V160 9999 FEW020 20/12 Q1017 NOSIG
2026-04-19 08:20:00,METAR LIMC 190820Z 11007KT 080V140 CAVOK 19/12 Q1017 NOSIG
2026-04-19 07:50:00,METAR LIMC 190750Z 08005KT 030V120 9999 SCT060 19/11 Q1017 NOSIG
2026-04-19 07:20:00,METAR LIMC 190720Z VRB01KT 9999 BKN060 18/13 Q1017 NOSIG
2026-04-19 06:50:00,METAR LIMC 190650Z VRB02KT 9999 BKN060 17/13 Q1017 NOSIG
2026-04-19 06:20:00,METAR LIMC 190620Z VRB01KT 9999 BKN060 16/13 Q1016 NOSIG
2026-04-19 05:50:00,METAR LIMC 190550Z VRB02KT 9999 BKN060 16/13 Q1016 NOSIG
2026-04-19 05:20:00,METAR LIMC 190520Z VRB01KT 9999 BKN060 16/12 Q1016 NOSIG
2026-04-19 04:50:00,METAR LIMC 190450Z 01003KT 320V060 9999 BKN060 15/12 Q1016 RETS NOSIG
2026-04-19 04:20:00,METAR LIMC 190420Z VRB02KT 9999 TS FEW030CB BKN060 15/12 Q1016 TEMPO 4000 TSRA
2026-04-19 03:50:00,METAR LIMC 190350Z VRB02KT 9999 SCT060 16/12 Q1016 TEMPO 4000 TSRA
2026-04-19 03:20:00,METAR LIMC 190320Z 35004KT 9999 SCT070 16/12 Q1016 TEMPO 4000 SHRA
2026-04-19 02:50:00,METAR LIMC 190250Z VRB02KT 9999 SCT060 16/11 Q1016 NOSIG
2026-04-19 02:20:00,METAR LIMC 190220Z 06004KT 9999 SCT060 17/11 Q1016 NOSIG
2026-04-19 01:50:00,METAR LIMC 190150Z 05003KT 9999 SCT055 17/11 Q1016 NOSIG
2026-04-19 01:20:00,METAR LIMC 190120Z 05003KT 9999 SCT050 16/12 Q1016 NOSIG
2026-04-19 00:50:00,METAR LIMC 190050Z 05003KT 9999 FEW050 16/12 Q1016 NOSIG
2026-04-19 00:20:00,METAR LIMC 190020Z 05003KT 020V080 9999 FEW050 16/12 Q1017 NOSIG
2026-04-18 23:50:00,METAR LIMC 182350Z 07004KT 9999 FEW050 17/12 Q1017 NOSIG
2026-04-18 23:20:00,METAR LIMC 182320Z 06004KT 030V090 CAVOK 16/12 Q1017 NOSIG
2026-04-18 22:50:00,METAR LIMC 182250Z 06005KT CAVOK 17/12 Q1017 NOSIG
2026-04-18 22:20:00,METAR LIMC 182220Z 07006KT CAVOK 17/13 Q1017 NOSIG
2026-04-18 21:50:00,METAR LIMC 182150Z VRB01KT CAVOK 15/13 Q1017 NOSIG
2026-04-18 21:20:00,METAR LIMC 182120Z 05002KT CAVOK 16/13 Q1017 NOSIG
2026-04-18 20:50:00,METAR LIMC 182050Z 07003KT CAVOK 16/13 Q1016 NOSIG
2026-04-18 20:20:00,METAR LIMC 182020Z VRB01KT CAVOK 15/12 Q1017 NOSIG
2026-04-18 19:50:00,METAR LIMC 181950Z VRB02KT CAVOK 16/13 Q1017 NOSIG
2026-04-18 19:20:00,METAR LIMC 181920Z 07001KT CAVOK 17/13 Q1016 NOSIG
2026-04-18 18:50:00,METAR LIMC 181850Z VRB01KT CAVOK 18/12 Q1016 NOSIG
2026-04-18 18:20:00,METAR LIMC 181820Z VRB01KT CAVOK 20/12 Q1016 NOSIG
2026-04-18 17:50:00,METAR LIMC 181750Z VRB01KT CAVOK 21/13 Q1016 NOSIG
2026-04-18 17:20:00,METAR LIMC 181720Z 19003KT 160V240 CAVOK 24/10 Q1016 NOSIG
2026-04-18 16:50:00,METAR LIMC 181650Z 18003KT 140V220 CAVOK 23/11 Q1016 NOSIG
2026-04-18 16:20:00,METAR LIMC 181620Z 16003KT 130V200 CAVOK 25/11 Q1016 NOSIG
2026-04-18 15:20:00,METAR LIMC 181520Z 21004KT 130V270 CAVOK 25/10 Q1016 NOSIG
2026-04-18 14:50:00,METAR LIMC 181450Z 22006KT 180V290 CAVOK 25/10 Q1016 NOSIG
2026-04-18 14:20:00,METAR LIMC 181420Z 21005KT 170V280 CAVOK 25/10 Q1017 NOSIG
2026-04-18 13:50:00,METAR LIMC 181350Z VRB04KT CAVOK 25/11 Q1017 NOSIG
2026-04-18 13:20:00,METAR LIMC 181320Z 22005KT 150V300 9999 FEW050 25/10 Q1017 NOSIG
2026-04-18 12:50:00,METAR LIMC 181250Z 21005KT 140V270 9999 FEW050 24/11 Q1018 NOSIG
2026-04-18 12:20:00,METAR LIMC 181220Z 14005KT 100V240 9999 SCT050 24/12 Q1018 NOSIG
2026-04-18 11:50:00,METAR LIMC 181150Z 13005KT 050V210 9999 SCT050 23/12 Q1018 NOSIG
2026-04-18 11:20:00,METAR LIMC 181120Z VRB03KT 9999 SCT040 23/12 Q1018 NOSIG
2026-04-18 10:50:00,METAR LIMC 181050Z 12005KT 030V170 9999 SCT050 23/13 Q1019 NOSIG
2026-04-18 10:20:00,METAR LIMC 181020Z 17003KT 050V220 9999 FEW050 23/12 Q1019 NOSIG
2026-04-18 09:50:00,METAR LIMC 180950Z 16004KT 090V210 9999 FEW050 22/12 Q1019 NOSIG
2026-04-18 09:20:00,METAR LIMC 180920Z VRB02KT 9999 FEW050 22/13 Q1019 NOSIG
2026-04-18 08:50:00,METAR LIMC 180850Z VRB02KT 9999 FEW050 22/12 Q1019 NOSIG
2026-04-18 08:20:00,METAR LIMC 180820Z VRB02KT 9999 SCT050 20/13 Q1019 NOSIG
2026-04-18 07:50:00,METAR LIMC 180750Z 32005KT 270V060 9999 SCT050 20/14 Q1019 NOSIG
2026-04-18 07:20:00,METAR LIMC 180720Z 02003KT 320V080 9999 SCT060 18/13 Q1019 NOSIG
2026-04-18 06:50:00,METAR LIMC 180650Z VRB02KT 9999 SCT050 16/14 Q1019 NOSIG
2026-04-18 06:20:00,METAR LIMC 180620Z 34005KT 9999 BKN060 16/13 Q1019 NOSIG
2026-04-18 05:50:00,METAR LIMC 180550Z 35003KT 330V040 9999 BKN070 15/13 Q1019 NOSIG
2026-04-18 05:20:00,METAR LIMC 180520Z 35003KT 320V030 9999 SCT060 14/12 Q1019 NOSIG
2026-04-18 04:50:00,METAR LIMC 180450Z 36004KT 310V030 9999 SCT060 14/12 Q1019 NOSIG
2026-04-18 04:20:00,METAR LIMC 180420Z 34005KT 9999 SCT060 13/12 Q1019 NOSIG
2026-04-18 03:50:00,METAR LIMC 180350Z 35004KT CAVOK 13/11 Q1019 NOSIG
2026-04-18 03:20:00,METAR LIMC 180320Z VRB01KT CAVOK 11/11 Q1019 NOSIG
2026-04-18 02:50:00,METAR LIMC 180250Z 35004KT CAVOK 13/12 Q1019 NOSIG
2026-04-18 02:20:00,METAR LIMC 180220Z VRB02KT CAVOK 12/11 Q1019 NOSIG
2026-04-18 01:50:00,METAR LIMC 180150Z VRB02KT CAVOK 11/11 Q1019 NOSIG
2026-04-18 01:20:00,METAR LIMC 180120Z VRB01KT CAVOK 11/11 Q1019 NOSIG
2026-04-18 00:50:00,METAR LIMC 180050Z VRB01KT CAVOK 11/11 Q1019 NOSIG
2026-04-18 00:20:00,METAR LIMC 180020Z VRB01KT CAVOK 12/12 Q1019 NOSIG
2026-04-17 23:50:00,METAR LIMC 172350Z VRB01KT CAVOK 12/11 Q1019 NOSIG
2026-04-17 23:20:00,METAR LIMC 172320Z 34004KT 310V020 CAVOK 12/11 Q1019 NOSIG
2026-04-17 22:50:00,METAR LIMC 172250Z VRB01KT CAVOK 12/11 Q1018 NOSIG
2026-04-17 22:20:00,METAR LIMC 172220Z VRB01KT CAVOK 13/12 Q1018 NOSIG
2026-04-17 21:50:00,METAR LIMC 172150Z 07002KT CAVOK 14/12 Q1018 NOSIG
2026-04-17 21:20:00,METAR LIMC 172120Z VRB01KT CAVOK 13/12 Q1018 NOSIG
2026-04-17 20:50:00,METAR LIMC 172050Z VRB02KT CAVOK 13/12 Q1018 NOSIG
2026-04-17 20:20:00,METAR LIMC 172020Z VRB01KT CAVOK 14/11 Q1018 NOSIG
2026-04-17 19:50:00,METAR LIMC 171950Z VRB01KT CAVOK 15/12 Q1017 NOSIG
2026-04-17 19:20:00,METAR LIMC 171920Z 05001KT CAVOK 16/12 Q1017 NOSIG
2026-04-17 18:50:00,METAR LIMC 171850Z VRB01KT CAVOK 18/13 Q1017 NOSIG
2026-04-17 18:20:00,METAR LIMC 171820Z 07002KT CAVOK 18/12 Q1017 NOSIG
2026-04-17 17:50:00,METAR LIMC 171750Z 11001KT CAVOK 20/13 Q1017 NOSIG
2026-04-17 17:20:00,METAR LIMC 171720Z 12002KT CAVOK 23/11 Q1016 NOSIG
2026-04-17 16:50:00,METAR LIMC 171650Z VRB01KT CAVOK 23/13 Q1016 NOSIG
2026-04-17 16:20:00,METAR LIMC 171620Z VRB03KT CAVOK 23/11 Q1017 NOSIG
2026-04-17 15:50:00,METAR LIMC 171550Z 21004KT 170V270 9999 FEW050 23/11 Q1017 NOSIG
2026-04-17 15:20:00,METAR LIMC 171520Z 20004KT 160V240 9999 FEW050 23/11 Q1017 NOSIG
2026-04-17 14:50:00,METAR LIMC 171450Z 21005KT 160V280 9999 FEW050 23/11 Q1017 NOSIG
2026-04-17 14:20:00,METAR LIMC 171420Z 23005KT 150V260 9999 FEW050 23/11 Q1017 NOSIG
2026-04-17 13:50:00,METAR LIMC 171350Z VRB02KT 9999 FEW050 24/12 Q1018 NOSIG
2026-04-17 13:20:00,METAR LIMC 171320Z 16004KT 100V260 9999 FEW050 23/11 Q1018 NOSIG
2026-04-17 12:50:00,METAR LIMC 171250Z VRB03KT 9999 SCT045 23/10 Q1018 NOSIG
2026-04-17 12:20:00,METAR LIMC 171220Z 09006KT 070V140 9999 SCT045 23/12 Q1019 NOSIG
2026-04-17 11:50:00,METAR LIMC 171150Z 16004KT 110V230 9999 SCT040 23/11 Q1019 NOSIG
2026-04-17 11:20:00,METAR LIMC 171120Z VRB03KT 9999 BKN040 23/12 Q1019 NOSIG
2026-04-17 10:50:00,METAR LIMC 171050Z 17004KT 070V240 9999 SCT040 22/11 Q1020 NOSIG
2026-04-17 10:20:00,METAR LIMC 171020Z VRB04KT 9999 SCT040 21/11 Q1020 NOSIG
2026-04-17 09:50:00,METAR LIMC 170950Z 09005KT 010V160 9999 SCT030 21/12 Q1020 NOSIG
2026-04-17 09:20:00,METAR LIMC 170920Z VRB04KT CAVOK 21/12 Q1020 NOSIG
2026-04-17 08:50:00,METAR LIMC 170850Z 08005KT 040V100 CAVOK 20/12 Q1020 NOSIG
2026-04-17 08:20:00,METAR LIMC 170820Z 12006KT 080V150 9999 SCT040 19/12 Q1020 NOSIG
2026-04-17 07:50:00,METAR LIMC 170750Z 10005KT 020V140 9999 SCT040 19/12 Q1020 NOSIG
2026-04-17 07:20:00,METAR LIMC 170720Z 09004KT 030V130 9000 SCT030 19/13 Q1020 NOSIG
2026-04-17 06:50:00,METAR LIMC 170650Z 06003KT 9000 SCT030 18/13 Q1020 NOSIG
2026-04-17 06:20:00,METAR LIMC 170620Z VRB02KT 9000 NSC 15/14 Q1020 NOSIG
2026-04-17 05:50:00,METAR LIMC 170550Z VRB02KT 8000 SCT050 13/13 Q1020 NOSIG
2026-04-17 05:20:00,METAR LIMC 170520Z VRB01KT 8000 BKN030 11/11 Q1020 NOSIG
2026-04-17 04:50:00,METAR LIMC 170450Z 08002KT 8000 NSC 12/11 Q1020 NOSIG
2026-04-17 04:20:00,METAR LIMC 170420Z 04002KT CAVOK 12/12 Q1020 NOSIG
2026-04-17 03:50:00,METAR LIMC 170350Z VRB02KT CAVOK 12/12 Q1019 NOSIG
2026-04-17 03:20:00,METAR LIMC 170320Z VRB02KT CAVOK 12/12 Q1019 NOSIG
2026-04-17 02:50:00,METAR LIMC 170250Z VRB01KT 9999 SCT050 13/12 Q1020 NOSIG
2026-04-17 02:20:00,METAR LIMC 170220Z VRB01KT 9999 SCT050 12/12 Q1020 NOSIG
2026-04-17 01:50:00,METAR LIMC 170150Z VRB01KT 9999 SCT050 13/12 Q1020 NOSIG
2026-04-17 01:20:00,METAR LIMC 170120Z VRB01KT 9999 SCT050 12/12 Q1019 NOSIG
2026-04-17 00:50:00,METAR LIMC 170050Z VRB01KT 9999 FEW050 13/12 Q1020 NOSIG
2026-04-17 00:20:00,METAR LIMC 170020Z VRB02KT 9999 FEW050 13/12 Q1020 NOSIG
2026-04-16 23:50:00,METAR LIMC 162350Z VRB02KT CAVOK 13/12 Q1020 NOSIG
2026-04-16 23:20:00,METAR LIMC 162320Z VRB01KT CAVOK 12/11 Q1020 NOSIG
2026-04-16 22:50:00,METAR LIMC 162250Z 07002KT CAVOK 13/12 Q1019 NOSIG
2026-04-16 22:20:00,METAR LIMC 162220Z VRB01KT CAVOK 13/12 Q1019 NOSIG
2026-04-16 21:50:00,METAR LIMC 162150Z VRB01KT CAVOK 13/12 Q1019 NOSIG
2026-04-16 21:20:00,METAR LIMC 162120Z 05002KT CAVOK 14/12 Q1019 NOSIG
2026-04-16 20:50:00,METAR LIMC 162050Z 06002KT CAVOK 14/12 Q1019 NOSIG
2026-04-16 20:20:00,METAR LIMC 162020Z 05001KT CAVOK 14/13 Q1018 NOSIG
2026-04-16 19:50:00,METAR LIMC 161950Z VRB01KT CAVOK 15/13 Q1018 NOSIG
2026-04-16 19:20:00,METAR LIMC 161920Z VRB01KT CAVOK 16/13 Q1018 NOSIG
2026-04-16 18:50:00,METAR LIMC 161850Z VRB01KT CAVOK 17/13 Q1017 NOSIG
2026-04-16 18:20:00,METAR LIMC 161820Z 08001KT CAVOK 18/13 Q1017 NOSIG
2026-04-16 17:50:00,METAR LIMC 161750Z 16003KT CAVOK 21/12 Q1017 NOSIG
2026-04-16 17:20:00,METAR LIMC 161720Z VRB02KT CAVOK 22/12 Q1017 NOSIG
2026-04-16 16:50:00,METAR LIMC 161650Z 19003KT 160V230 CAVOK 23/11 Q1017 NOSIG
2026-04-16 16:20:00,METAR LIMC 161620Z 15004KT 100V230 CAVOK 23/12 Q1017 NOSIG
2026-04-16 15:50:00,METAR LIMC 161550Z 18004KT 100V220 CAVOK 23/11 Q1017 NOSIG
2026-04-16 14:50:00,METAR LIMC 161450Z 17005KT 120V220 CAVOK 23/12 Q1017 NOSIG
2026-04-16 14:20:00,METAR LIMC 161420Z 15006KT 100V220 CAVOK 23/13 Q1017 NOSIG
2026-04-16 13:50:00,METAR LIMC 161350Z 10004KT 040V180 9999 FEW045 24/12 Q1017 NOSIG
2026-04-16 13:20:00,METAR LIMC 161320Z VRB04KT 9999 FEW040 23/12 Q1018 NOSIG
2026-04-16 12:50:00,METAR LIMC 161250Z 14003KT 060V220 9999 FEW040 23/12 Q1018 NOSIG
2026-04-16 12:20:00,METAR LIMC 161220Z VRB04KT 9999 FEW035 23/13 Q1018 NOSIG
2026-04-16 11:50:00,METAR LIMC 161150Z VRB04KT 9999 FEW030 22/13 Q1018 NOSIG
2026-04-16 11:20:00,METAR LIMC 161120Z VRB04KT 9999 FEW030 21/12 Q1019 NOSIG
2026-04-16 10:50:00,METAR LIMC 161050Z 24005KT 190V290 9999 FEW030 21/13 Q1019 NOSIG
2026-04-16 10:20:00,METAR LIMC 161020Z VRB03KT 9999 FEW030 21/12 Q1019 NOSIG
2026-04-16 09:50:00,METAR LIMC 160950Z VRB04KT CAVOK 20/12 Q1019 NOSIG
2026-04-16 09:20:00,METAR LIMC 160920Z 28006KT 260V330 CAVOK 20/12 Q1019 NOSIG
2026-04-16 08:50:00,METAR LIMC 160850Z VRB03KT CAVOK 19/13 Q1019 NOSIG
2026-04-16 08:20:00,METAR LIMC 160820Z VRB02KT CAVOK 19/13 Q1019 NOSIG
2026-04-16 07:50:00,METAR LIMC 160750Z VRB02KT CAVOK 17/13 Q1019 NOSIG
2026-04-16 07:20:00,METAR LIMC 160720Z 33003KT 300V360 CAVOK 16/13 Q1019 NOSIG
2026-04-16 06:50:00,METAR LIMC 160650Z 35004KT 320V040 CAVOK 14/13 Q1019 NOSIG
2026-04-16 06:20:00,METAR LIMC 160620Z 34004KT CAVOK 13/12 Q1019 NOSIG
2026-04-16 05:50:00,METAR LIMC 160550Z 35004KT 8000 MIFG NSC 11/11 Q1019 NOSIG
2026-04-16 05:20:00,METAR LIMC 160520Z 35004KT 320V020 6000 R35R/1900U R17L/1000U R35L/////// BCFG NSC 10/10 Q1019 NOSIG
2026-04-16 04:50:00,METAR LIMC 160450Z VRB01KT 7000 BCFG NSC 09/09 Q1019 NOSIG
2026-04-16 04:20:00,METAR LIMC 160420Z 34003KT 8000 MIFG NSC 09/09 Q1019 NOSIG
2026-04-16 03:50:00,METAR LIMC 160350Z 35003KT 7000 BCFG NSC 10/10 Q1019 NOSIG
2026-04-16 03:20:00,METAR LIMC 160320Z 34002KT 7000 BCFG NSC 10/10 Q1019 NOSIG
2026-04-16 02:50:00,METAR LIMC 160250Z VRB02KT 8000 BCFG NSC 10/10 Q1019 NOSIG
2026-04-16 02:20:00,METAR LIMC 160220Z 00000KT 9000 FEW040 10/10 Q1019 NOSIG
2026-04-16 01:50:00,METAR LIMC 160150Z VRB02KT 9000 BCFG NSC 10/10 Q1019 NOSIG
2026-04-16 01:20:00,METAR LIMC 160120Z VRB01KT 9000 BCFG NSC 11/11 Q1019 NOSIG
2026-04-16 00:50:00,METAR LIMC 160050Z VRB02KT 9999 BCFG NSC 11/11 Q1019 NOSIG
2026-04-16 00:20:00,METAR LIMC 160020Z 05003KT 280V090 CAVOK 12/12 Q1019 NOSIG
2026-04-15 23:50:00,METAR LIMC 152350Z VRB02KT CAVOK 11/10 Q1020 NOSIG
2026-04-15 23:20:00,METAR LIMC 152320Z VRB02KT CAVOK 11/11 Q1020 NOSIG
2026-04-15 22:50:00,METAR LIMC 152250Z VRB01KT CAVOK 12/12 Q1019 NOSIG
2026-04-15 22:20:00,METAR LIMC 152220Z 04002KT CAVOK 12/11 Q1019 NOSIG
2026-04-15 21:50:00,METAR LIMC 152150Z 07002KT CAVOK 12/11 Q1019 NOSIG
2026-04-15 21:20:00,METAR LIMC 152120Z VRB01KT CAVOK 13/12 Q1019 NOSIG
2026-04-15 20:50:00,METAR LIMC 152050Z VRB01KT CAVOK 13/12 Q1019 NOSIG
2026-04-15 20:20:00,METAR LIMC 152020Z 08003KT CAVOK 15/13 Q1019 NOSIG
2026-04-15 19:50:00,METAR LIMC 151950Z 05001KT CAVOK 15/12 Q1019 NOSIG
2026-04-15 19:20:00,METAR LIMC 151920Z 08003KT CAVOK 17/13 Q1019 NOSIG
2026-04-15 18:50:00,METAR LIMC 151850Z 06004KT 030V090 CAVOK 17/12 Q1019 NOSIG
2026-04-15 18:20:00,METAR LIMC 151820Z 18003KT 140V210 CAVOK 18/12 Q1018 NOSIG
2026-04-15 17:50:00,METAR LIMC 151750Z 21005KT CAVOK 20/12 Q1018 NOSIG
2026-04-15 17:20:00,METAR LIMC 151720Z 20006KT 170V230 9999 FEW040 20/11 Q1018 NOSIG
2026-04-15 16:50:00,METAR LIMC 151650Z 19005KT 150V220 9999 FEW040 21/11 Q1018 NOSIG
2026-04-15 16:20:00,METAR LIMC 151620Z 20004KT 100V260 9999 FEW040 22/11 Q1018 NOSIG
2026-04-15 15:50:00,METAR LIMC 151550Z 19005KT 130V220 9999 FEW040 22/12 Q1018 NOSIG
2026-04-15 15:20:00,METAR LIMC 151520Z 18003KT 100V220 9999 FEW040 22/11 Q1018 NOSIG
2026-04-15 14:50:00,METAR LIMC 151450Z 18005KT 140V220 9999 FEW040 21/11 Q1018 NOSIG
2026-04-15 14:20:00,METAR LIMC 151420Z 21006KT 110V270 9999 SCT040 22/12 Q1018 NOSIG
2026-04-15 13:50:00,METAR LIMC 151350Z 23006KT 190V330 9999 FEW040 21/12 Q1018 NOSIG
2026-04-15 13:20:00,METAR LIMC 151320Z 22007KT 190V280 9999 SCT040 21/12 Q1018 NOSIG
2026-04-15 12:50:00,METAR LIMC 151250Z 23006KT 200V280 9999 SCT030 21/12 Q1019 NOSIG
2026-04-15 12:20:00,METAR LIMC 151220Z VRB05KT 9999 FEW030 20/12 Q1019 NOSIG
2026-04-15 11:50:00,METAR LIMC 151150Z VRB04KT 9999 FEW030 20/12 Q1019 NOSIG
2026-04-15 11:20:00,METAR LIMC 151120Z VRB03KT 9999 FEW030 20/13 Q1019 NOSIG
2026-04-15 10:50:00,METAR LIMC 151050Z 21004KT 100V270 9999 FEW020 19/13 Q1019 NOSIG
2026-04-15 10:20:00,METAR LIMC 151020Z 23006KT 180V280 9999 SCT020 18/13 Q1020 NOSIG
2026-04-15 09:50:00,METAR LIMC 150950Z 21004KT 140V280 9999 BKN020 18/13 Q1020 NOSIG
2026-04-15 09:20:00,METAR LIMC 150920Z 24004KT 190V350 9999 BKN020 18/13 Q1020 NOSIG
2026-04-15 08:50:00,METAR LIMC 150850Z 26004KT 220V290 9999 BKN020 17/13 Q1020 NOSIG
2026-04-15 08:20:00,METAR LIMC 150820Z 28005KT 240V320 9999 SCT010 16/13 Q1020 NOSIG
2026-04-15 07:50:00,METAR LIMC 150750Z 25005KT 210V280 9999 SCT010 16/12 Q1020 NOSIG
2026-04-15 07:20:00,METAR LIMC 150720Z VRB02KT 9999 FEW010 SCT070 16/13 Q1019 NOSIG
2026-04-15 06:50:00,METAR LIMC 150650Z VRB01KT 9999 BKN070 14/13 Q1019 NOSIG
2026-04-15 06:20:00,METAR LIMC 150620Z VRB02KT 9999 BKN080 13/13 Q1019 NOSIG
2026-04-15 05:50:00,METAR LIMC 150550Z VRB02KT 9999 BKN070 13/12 Q1019 NOSIG
2026-04-15 05:20:00,METAR LIMC 150520Z VRB02KT 9999 BCFG BKN070 13/12 Q1018 NOSIG
2026-04-15 04:50:00,METAR LIMC 150450Z VRB01KT 9999 VCFG BKN070 12/12 Q1018 NOSIG
2026-04-15 04:20:00,METAR LIMC 150420Z VRB01KT 9999 BKN070 12/12 Q1018 NOSIG
2026-04-15 03:50:00,METAR LIMC 150350Z VRB01KT 9999 BKN072 12/12 Q1018 NOSIG
2026-04-15 03:20:00,METAR LIMC 150320Z VRB02KT 9999 SCT015 BKN080 12/12 Q1018 NOSIG
2026-04-15 02:50:00,METAR LIMC 150250Z VRB02KT 9999 SCT015 BKN080 12/12 Q1018 NOSIG
2026-04-15 02:20:00,METAR LIMC 150220Z VRB02KT 9999 BKN016 12/12 Q1018 NOSIG
2026-04-15 01:50:00,METAR LIMC 150150Z VRB02KT 8000 SCT015 BKN090 12/12 Q1018 NOSIG
2026-04-15 01:20:00,METAR LIMC 150120Z 31005KT 8000 SCT015 BKN060 13/12 Q1018 NOSIG
2026-04-15 00:50:00,METAR LIMC 150050Z 33004KT 3500 -RA BR BKN015 13/13 Q1018 TEMPO 1500 -RA BCFG
2026-04-15 00:20:00,METAR LIMC 150020Z 33003KT 290V010 3500 1500SW -RA BCFG SCT004 BKN060 12/12 Q1018 TEMPO 1500 -RA BCFG
2026-04-14 23:50:00,METAR LIMC 142350Z 34002KT 3500 -RA BR SCT003 SCT010 OVC050 12/12 Q1018 RERA NOSIG
2026-04-14 23:20:00,METAR LIMC 142320Z VRB01KT 3500 RA BR SCT005 OVC050 13/12 Q1018 NOSIG
2026-04-14 22:50:00,METAR LIMC 142250Z 12002KT 4000 RA BKN030 13/12 Q1018 REDZ NOSIG
2026-04-14 22:20:00,METAR LIMC 142220Z VRB02KT 6000 RA BKN030 13/12 Q1018 NOSIG
2026-04-14 21:50:00,METAR LIMC 142150Z 14003KT 100V170 9999 BKN035 14/12 Q1018 NOSIG
2026-04-14 21:20:00,METAR LIMC 142120Z 13005KT 110V170 9999 BKN034 14/12 Q1018 NOSIG
2026-04-14 20:50:00,METAR LIMC 142050Z 13004KT 090V160 9999 BKN030 14/12 Q1018 NOSIG
2026-04-14 20:20:00,METAR LIMC 142020Z 13006KT 9999 -DZ BKN027 BKN060 14/12 Q1017 NOSIG
2026-04-14 19:50:00,METAR LIMC 141950Z 13007KT 100V190 9999 BKN053 14/12 Q1017 NOSIG
2026-04-14 19:20:00,METAR LIMC 141920Z 14008KT 110V180 9999 BKN040 BKN070 15/12 Q1016 NOSIG
2026-04-14 18:50:00,METAR LIMC 141850Z 14007KT 120V180 9999 SCT020 BKN060 16/12 Q1016 NOSIG
2026-04-14 18:20:00,METAR LIMC 141820Z 15003KT 9999 BKN030 16/12 Q1015 NOSIG
2026-04-14 17:50:00,METAR LIMC 141750Z 15005KT 130V190 9999 SCT030 16/11 Q1015 NOSIG
2026-04-14 17:20:00,METAR LIMC 141720Z 15005KT 120V190 9999 SCT030 17/11 Q1014 NOSIG
2026-04-14 16:50:00,METAR LIMC 141650Z 15006KT 120V190 9999 SCT030 17/11 Q1014 NOSIG
2026-04-14 16:20:00,METAR LIMC 141620Z 17005KT 9999 SCT030 18/12 Q1014 NOSIG
2026-04-14 15:50:00,METAR LIMC 141550Z 15006KT 110V180 9999 SCT040 19/11 Q1014 NOSIG
2026-04-14 15:20:00,METAR LIMC 141520Z 17005KT 120V220 9999 SCT030 19/11 Q1013 NOSIG
2026-04-14 14:50:00,METAR LIMC 141450Z 20007KT 140V240 9999 SCT030 19/12 Q1013 NOSIG
2026-04-14 14:20:00,METAR LIMC 141420Z 19005KT 130V250 9999 SCT030 19/11 Q1013 NOSIG
2026-04-14 13:50:00,METAR LIMC 141350Z 20005KT 120V250 9999 SCT020 18/11 Q1013 NOSIG
2026-04-14 13:20:00,METAR LIMC 141320Z 20005KT 150V250 9999 FEW020 18/13 Q1013 NOSIG
2026-04-14 12:50:00,METAR LIMC 141250Z 19004KT 140V270 9999 FEW015 BKN090 17/13 Q1013 NOSIG
2026-04-14 12:20:00,METAR LIMC 141220Z 19004KT 130V230 9999 FEW015 BKN080 16/13 Q1013 NOSIG
2026-04-14 11:50:00,METAR LIMC 141150Z 15004KT 100V190 9999 FEW015 BKN080 16/13 Q1013 NOSIG
2026-04-14 11:20:00,METAR LIMC 141120Z 15003KT 100V190 9999 FEW015 BKN075 15/12 Q1013 NOSIG
2026-04-14 10:50:00,METAR LIMC 141050Z 19003KT 110V270 9999 FEW015 BKN070 15/12 Q1013 NOSIG
2026-04-14 10:20:00,METAR LIMC 141020Z 18004KT 120V200 9999 SCT070 15/12 Q1013 NOSIG
2026-04-14 09:50:00,METAR LIMC 140950Z 16006KT 120V200 9999 SCT070 14/12 Q1013 NOSIG
2026-04-14 09:20:00,METAR LIMC 140920Z 15004KT 120V200 9999 SCT080 14/12 Q1012 NOSIG
2026-04-14 08:50:00,METAR LIMC 140850Z VRB02KT 9999 SCT080 14/11 Q1012 NOSIG
2026-04-14 08:20:00,METAR LIMC 140820Z 21003KT 150V280 CAVOK 14/12 Q1012 NOSIG
2026-04-14 07:50:00,METAR LIMC 140750Z 20003KT 180V300 9999 BKN080 13/12 Q1012 NOSIG
2026-04-14 07:20:00,METAR LIMC 140720Z VRB01KT 9999 BKN080 13/12 Q1011 NOSIG
2026-04-14 06:50:00,METAR LIMC 140650Z VRB01KT 9999 BKN070 13/11 Q1011 NOSIG
2026-04-14 06:20:00,METAR LIMC 140620Z VRB01KT 9999 BKN070 13/11 Q1011 NOSIG
2026-04-14 05:50:00,METAR LIMC 140550Z VRB02KT 9999 -DZ BKN070 12/11 Q1011 NOSIG
2026-04-14 05:20:00,METAR LIMC 140520Z VRB02KT 9999 -DZ BKN070 11/11 Q1010 NOSIG
2026-04-14 04:50:00,METAR LIMC 140450Z 33003KT 290V360 9999 -RA BKN070 11/11 Q1010 NOSIG
2026-04-14 04:20:00,METAR LIMC 140420Z 31003KT 270V340 9999 -RA BKN070 12/11 Q1010 NOSIG
2026-04-14 03:50:00,METAR LIMC 140350Z VRB01KT 9999 BKN070 11/11 Q1010 NOSIG
2026-04-14 03:20:00,METAR LIMC 140320Z VRB01KT 9999 BKN060 11/11 Q1010 NOSIG
2026-04-14 02:50:00,METAR LIMC 140250Z VRB01KT 9999 BKN060 11/11 Q1009 NOSIG
2026-04-14 02:20:00,METAR LIMC 140220Z 29001KT 9999 -RA BKN060 11/11 Q1009 NOSIG
2026-04-14 01:50:00,METAR LIMC 140150Z VRB01KT 9999 -RA BKN060 11/11 Q1009 NOSIG
2026-04-14 01:20:00,METAR LIMC 140120Z 34003KT 320V030 9999 -RA BKN060 12/11 Q1009 NOSIG
2026-04-14 00:50:00,METAR LIMC 140050Z 34005KT 330V090 9999 -RA BKN060 12/11 Q1009 NOSIG
2026-04-14 00:20:00,METAR LIMC 140020Z 01003KT 270V080 9999 -RA BKN060 12/11 Q1009 NOSIG
2026-04-13 23:50:00,METAR LIMC 132350Z VRB02KT 9999 -RA BKN060 12/11 Q1009 NOSIG
2026-04-13 23:20:00,METAR LIMC 132320Z VRB01KT 9999 BKN050 12/11 Q1009 NOSIG
2026-04-13 22:50:00,METAR LIMC 132250Z 34003KT 320V020 9999 -RA BKN060 12/11 Q1009 NOSIG
2026-04-13 22:20:00,METAR LIMC 132220Z VRB02KT 9999 -RA BKN060 12/11 Q1009 NOSIG
2026-04-13 21:50:00,METAR LIMC 132150Z 01004KT 320V060 9999 -RA BKN060 13/10 Q1009 NOSIG
2026-04-13 21:20:00,METAR LIMC 132120Z 02005KT 320V070 9999 -RA BKN050 13/10 Q1009 NOSIG
2026-04-13 20:50:00,METAR LIMC 132050Z 04003KT 340V080 9999 -RA BKN050 13/10 Q1009 NOSIG
2026-04-13 20:20:00,METAR LIMC 132020Z 35004KT 300V040 9999 BKN040 13/10 Q1008 NOSIG
2026-04-13 19:50:00,METAR LIMC 131950Z 35005KT 320V030 9999 BKN050 13/10 Q1008 NOSIG
2026-04-13 19:20:00,METAR LIMC 131920Z 35007KT 310V030 9999 BKN050 13/10 Q1008 NOSIG
2026-04-13 18:50:00,METAR LIMC 131850Z 34008KT 9999 SCT040 13/10 Q1008 NOSIG
2026-04-13 18:20:00,METAR LIMC 131820Z 34008KT CAVOK 12/10 Q1007 NOSIG
2026-04-13 17:50:00,METAR LIMC 131750Z 34009KT CAVOK 13/10 Q1007 NOSIG
2026-04-13 17:20:00,METAR LIMC 131720Z 33010KT 9999 BKN080 13/10 Q1007 NOSIG
2026-04-13 16:50:00,METAR LIMC 131650Z 33009KT 9999 BKN070 13/11 Q1007 NOSIG
2026-04-13 16:20:00,METAR LIMC 131620Z 34009KT 9999 BKN060 13/10 Q1007 NOSIG
2026-04-13 15:50:00,METAR LIMC 131550Z 34009KT 9999 BKN070 13/11 Q1007 NOSIG
2026-04-13 15:20:00,METAR LIMC 131520Z 33012KT 9999 BKN060 13/11 Q1007 BECMG RA
2026-04-13 14:50:00,METAR LIMC 131450Z 33010KT 9999 BKN040 13/11 Q1007 BECMG RA
2026-04-13 14:20:00,METAR LIMC 131420Z 34009KT 9999 BKN045 13/10 Q1007 BECMG RA
2026-04-13 13:50:00,METAR LIMC 131350Z 35008KT 320V020 9999 BKN040 13/10 Q1007 BECMG RA
2026-04-13 13:20:00,METAR LIMC 131320Z 34009KT 320V020 9999 BKN040 13/10 Q1007 NOSIG
2026-04-13 12:50:00,METAR LIMC 131250Z 34009KT 9999 BKN050 13/10 Q1007 NOSIG
2026-04-13 12:20:00,METAR LIMC 131220Z 34010KT 9999 BKN050 12/10 Q1007 NOSIG
2026-04-13 11:50:00,METAR LIMC 131150Z 34009KT 9999 -RA BKN050 12/11 Q1008 NOSIG
2026-04-13 11:20:00,METAR LIMC 131120Z 34008KT 8000 -RA BKN040 12/11 Q1008 NOSIG
2026-04-13 10:50:00,METAR LIMC 131050Z 34009KT 9999 -RA BKN040 12/11 Q1008 NOSIG
2026-04-13 10:20:00,METAR LIMC 131020Z 34009KT 9999 -RA BKN040 13/12 Q1008 NOSIG
2026-04-13 09:50:00,METAR LIMC 130950Z 34009KT 310V010 8000 -RA BKN040 12/12 Q1008 NOSIG
2026-04-13 09:20:00,METAR LIMC 130920Z 34008KT 8000 -RA BKN040 12/11 Q1008 RERA NOSIG
2026-04-13 08:50:00,METAR LIMC 130850Z 35006KT 3000 RA BKN030 12/11 Q1008 NOSIG
2026-04-13 08:20:00,METAR LIMC 130820Z 34006KT 4000 RA BKN030 12/11 Q1008 NOSIG
2026-04-13 07:50:00,METAR LIMC 130750Z 34005KT 320V020 3000 RA BKN020 12/11 Q1008 NOSIG
2026-04-13 07:20:00,METAR LIMC 130720Z 34004KT 3000 RA BKN020 12/11 Q1009 NOSIG
2026-04-13 06:50:00,METAR LIMC 130650Z 34006KT 330V030 4000 RA BKN020 12/11 Q1009 NOSIG
2026-04-13 06:20:00,METAR LIMC 130620Z 34006KT 5000 -RA BKN030 12/11 Q1009 NOSIG
2026-04-13 05:50:00,METAR LIMC 130550Z 35004KT 6000 -RA BKN030 12/11 Q1009 NOSIG
2026-04-13 05:20:00,METAR LIMC 130520Z 34005KT 7000 -RA BKN050 12/11 Q1009 NOSIG
2026-04-13 04:50:00,METAR LIMC 130450Z 01003KT 320V050 9999 -RA SCT025 BKN060 12/11 Q1009 NOSIG
2026-04-13 04:20:00,METAR LIMC 130420Z 35003KT 320V040 9999 SCT030 BKN060 13/10 Q1009 NOSIG
2026-04-13 03:50:00,METAR LIMC 130350Z 34005KT 9999 BKN030 13/10 Q1009 NOSIG
2026-04-13 03:20:00,METAR LIMC 130320Z VRB02KT 9999 SCT025 BKN050 14/10 Q1009 NOSIG
2026-04-13 02:20:00,METAR LIMC 130220Z 02004KT 340V060 9999 BKN025 14/10 Q1009 NOSIG
2026-04-13 01:50:00,METAR LIMC 130150Z 04004KT 350V080 9999 BKN025 14/10 Q1009 NOSIG
2026-04-13 01:20:00,METAR LIMC 130120Z 05005KT 360V100 9999 FEW020 BKN045 14/11 Q1010 NOSIG
2026-04-13 00:50:00,METAR LIMC 130050Z 04006KT 350V080 9999 FEW020 BKN050 15/10 Q1010 NOSIG
2026-04-13 00:20:00,METAR LIMC 130020Z 04005KT 010V080 9999 BKN050 15/10 Q1010 NOSIG
2026-04-12 23:50:00,METAR LIMC 122350Z 06005KT 010V110 9999 BKN050 15/09 Q1011 NOSIG
2026-04-12 23:20:00,METAR LIMC 122320Z 07005KT 030V120 9999 BKN050 15/08 Q1011 NOSIG
2026-04-12 22:50:00,METAR LIMC 122250Z VRB02KT 9999 BKN050 15/08 Q1011 NOSIG
2026-04-12 22:20:00,METAR LIMC 122220Z VRB02KT 9999 BKN055 14/08 Q1011 NOSIG
2026-04-12 21:50:00,METAR LIMC 122150Z 34003KT 320V020 9999 BKN055 14/08 Q1011 NOSIG
2026-04-12 21:20:00,METAR LIMC 122120Z 36004KT 320V030 9999 BKN050 15/08 Q1011 NOSIG
2026-04-12 20:50:00,METAR LIMC 122050Z 35003KT 9999 BKN040 15/07 Q1012 NOSIG
2026-04-12 20:20:00,METAR LIMC 122020Z 01002KT 9999 BKN045 15/07 Q1012 NOSIG
2026-04-12 19:50:00,METAR LIMC 121950Z VRB02KT 9999 BKN040 15/08 Q1012 NOSIG
2026-04-12 19:20:00,METAR LIMC 121920Z VRB02KT 9999 BKN040 15/07 Q1012 NOSIG
2026-04-12 18:50:00,METAR LIMC 121850Z VRB02KT 9999 BKN040 15/08 Q1012 NOSIG
2026-04-12 18:20:00,METAR LIMC 121820Z VRB01KT 9999 BKN050 15/08 Q1012 NOSIG
2026-04-12 17:50:00,METAR LIMC 121750Z VRB02KT 9999 BKN040 16/06 Q1012 NOSIG
2026-04-12 17:20:00,METAR LIMC 121720Z 12002KT 9999 BKN060 16/06 Q1012 NOSIG
2026-04-12 16:50:00,METAR LIMC 121650Z 13004KT 9999 BKN060 16/05 Q1012 NOSIG
2026-04-12 16:20:00,METAR LIMC 121620Z 14004KT 9999 BKN050 17/05 Q1012 NOSIG
2026-04-12 15:50:00,METAR LIMC 121550Z 12004KT 9999 BKN060 18/05 Q1012 NOSIG
2026-04-12 14:50:00,METAR LIMC 121450Z VRB02KT 9999 BKN060 18/07 Q1012 NOSIG
2026-04-12 14:20:00,METAR LIMC 121420Z VRB03KT 9999 SCT060 18/07 Q1013 NOSIG
2026-04-12 13:50:00,METAR LIMC 121350Z VRB04KT 9999 BKN060 18/07 Q1013 NOSIG
2026-04-12 13:20:00,METAR LIMC 121320Z VRB04KT 9999 BKN060 18/08 Q1013 NOSIG
2026-04-12 12:50:00,METAR LIMC 121250Z 05004KT 340V080 9999 BKN060 17/08 Q1014 NOSIG
2026-04-12 12:20:00,METAR LIMC 121220Z 01003KT 310V080 9999 BKN060 17/07 Q1014 NOSIG
2026-04-12 11:50:00,METAR LIMC 121150Z VRB02KT 9999 FEW060 17/08 Q1014 NOSIG
2026-04-12 11:20:00,METAR LIMC 121120Z VRB02KT 9999 FEW050 16/08 Q1015 NOSIG
2026-04-12 10:50:00,METAR LIMC 121050Z 13005KT 100V170 9999 FEW040 16/08 Q1015 NOSIG
2026-04-12 10:20:00,METAR LIMC 121020Z 10003KT 030V130 9999 FEW040 16/08 Q1015 NOSIG
2026-04-12 09:50:00,METAR LIMC 120950Z 07004KT 030V120 9999 FEW040 SCT070 16/09 Q1015 NOSIG
2026-04-12 09:20:00,METAR LIMC 120920Z 10003KT 060V180 9999 SCT040 SCT070 16/09 Q1015 NOSIG
2026-04-12 08:50:00,METAR LIMC 120850Z 09004KT 010V140 9999 SCT035 SCT070 15/09 Q1015 NOSIG
2026-04-12 08:20:00,METAR LIMC 120820Z 06003KT 360V110 9999 FEW030 SCT070 15/09 Q1015 NOSIG
2026-04-12 07:50:00,METAR LIMC 120750Z 06003KT 010V140 9999 FEW030 SCT060 15/10 Q1015 NOSIG
2026-04-12 07:20:00,METAR LIMC 120720Z 10003KT 040V170 9999 SCT030 14/10 Q1015 NOSIG
2026-04-12 06:50:00,METAR LIMC 120650Z VRB02KT 9999 BKN025 14/10 Q1015 NOSIG
2026-04-12 06:20:00,METAR LIMC 120620Z 36003KT 330V030 9999 FEW025 SCT060 13/11 Q1014 NOSIG
2026-04-12 05:50:00,METAR LIMC 120550Z VRB01KT 9999 SCT060 11/10 Q1014 NOSIG
2026-04-12 05:20:00,METAR LIMC 120520Z 09002KT 9999 SCT060 10/09 Q1014 NOSIG
2026-04-12 04:50:00,METAR LIMC 120450Z VRB01KT 9999 SCT060 10/09 Q1014 NOSIG
2026-04-12 04:20:00,METAR LIMC 120420Z 36002KT CAVOK 10/09 Q1014 NOSIG
2026-04-12 03:50:00,METAR LIMC 120350Z 34003KT CAVOK 11/09 Q1014 NOSIG
2026-04-12 02:20:00,METAR LIMC 120220Z 06005KT 020V090 CAVOK 13/09 Q1014 NOSIG
2026-04-12 01:50:00,METAR LIMC 120150Z 06005KT 030V090 CAVOK 13/08 Q1014 NOSIG
2026-04-12 01:20:00,METAR LIMC 120120Z 06005KT CAVOK 13/08 Q1014 NOSIG
2026-04-12 00:50:00,METAR LIMC 120050Z 07003KT CAVOK 12/08 Q1014 NOSIG
2026-04-12 00:20:00,METAR LIMC 120020Z 06004KT 030V090 CAVOK 13/08 Q1014 NOSIG
2026-04-11 23:50:00,METAR LIMC 112350Z 06004KT CAVOK 12/08 Q1014 NOSIG
2026-04-11 23:20:00,METAR LIMC 112320Z VRB01KT CAVOK 11/08 Q1014 NOSIG
2026-04-11 22:50:00,METAR LIMC 112250Z VRB01KT CAVOK 11/08 Q1014 NOSIG
2026-04-11 22:20:00,METAR LIMC 112220Z VRB01KT CAVOK 11/08 Q1014 NOSIG
2026-04-11 21:50:00,METAR LIMC 112150Z 07002KT CAVOK 11/08 Q1014 NOSIG
2026-04-11 21:20:00,METAR LIMC 112120Z VRB01KT CAVOK 11/08 Q1014 NOSIG
2026-04-11 20:50:00,METAR LIMC 112050Z 06001KT CAVOK 12/08 Q1014 NOSIG
2026-04-11 20:20:00,METAR LIMC 112020Z VRB01KT CAVOK 13/08 Q1014 NOSIG
2026-04-11 19:50:00,METAR LIMC 111950Z 08002KT CAVOK 13/08 Q1014 NOSIG
2026-04-11 19:20:00,METAR LIMC 111920Z 06001KT CAVOK 13/08 Q1014 NOSIG
2026-04-11 18:50:00,METAR LIMC 111850Z VRB01KT CAVOK 15/08 Q1013 NOSIG
2026-04-11 18:20:00,METAR LIMC 111820Z VRB02KT CAVOK 17/07 Q1013 NOSIG
2026-04-11 17:50:00,METAR LIMC 111750Z 14003KT CAVOK 17/08 Q1013 NOSIG
2026-04-11 17:20:00,METAR LIMC 111720Z VRB02KT CAVOK 18/07 Q1013 NOSIG
2026-04-11 16:50:00,METAR LIMC 111650Z VRB02KT CAVOK 21/06 Q1013 NOSIG
2026-04-11 16:20:00,METAR LIMC 111620Z 20004KT 150V240 CAVOK 21/06 Q1013 NOSIG
2026-04-11 15:50:00,METAR LIMC 111550Z 18004KT 110V240 CAVOK 21/05 Q1013 NOSIG
2026-04-11 15:20:00,METAR LIMC 111520Z VRB03KT CAVOK 21/04 Q1013 NOSIG
2026-04-11 14:50:00,METAR LIMC 111450Z VRB04KT CAVOK 21/04 Q1014 NOSIG
2026-04-11 14:20:00,METAR LIMC 111420Z 11005KT 040V210 CAVOK 21/05 Q1014 NOSIG
2026-04-11 13:50:00,METAR LIMC 111350Z 21004KT 130V240 CAVOK 21/04 Q1014 NOSIG
2026-04-11 13:20:00,METAR LIMC 111320Z VRB03KT CAVOK 21/04 Q1015 NOSIG
2026-04-11 12:50:00,METAR LIMC 111250Z 17005KT 090V230 CAVOK 21/04 Q1015 NOSIG
2026-04-11 12:20:00,METAR LIMC 111220Z 18003KT 110V260 CAVOK 20/05 Q1015 NOSIG
2026-04-11 11:50:00,METAR LIMC 111150Z VRB04KT CAVOK 20/04 Q1015 NOSIG
2026-04-11 11:20:00,METAR LIMC 111120Z VRB03KT CAVOK 19/03 Q1015 NOSIG
2026-04-11 10:50:00,METAR LIMC 111050Z 13005KT 090V170 9999 SCT050 19/03 Q1016 NOSIG
2026-04-11 10:20:00,METAR LIMC 111020Z 09004KT 360V160 9999 SCT050 19/03 Q1016 NOSIG
2026-04-11 09:50:00,METAR LIMC 110950Z VRB03KT 9999 SCT050 18/03 Q1016 NOSIG
2026-04-11 09:20:00,METAR LIMC 110920Z VRB03KT 9999 SCT050 17/02 Q1016 NOSIG
2026-04-11 08:50:00,METAR LIMC 110850Z VRB02KT 9999 SCT060 17/01 Q1016 NOSIG
2026-04-11 08:20:00,METAR LIMC 110820Z VRB03KT CAVOK 17/02 Q1016 NOSIG
2026-04-11 07:50:00,METAR LIMC 110750Z VRB02KT CAVOK 16/01 Q1016 NOSIG
2026-04-11 07:20:00,METAR LIMC 110720Z 07004KT 030V150 CAVOK 15/04 Q1016 NOSIG
2026-04-11 06:50:00,METAR LIMC 110650Z 07004KT 040V100 9999 SCT050 15/04 Q1016 NOSIG
2026-04-11 06:20:00,METAR LIMC 110620Z VRB02KT 9999 SCT040 14/05 Q1016 NOSIG
2026-04-11 05:50:00,METAR LIMC 110550Z VRB02KT 9999 SCT050 13/05 Q1016 NOSIG
2026-04-11 05:20:00,METAR LIMC 110520Z VRB02KT CAVOK 13/05 Q1016 NOSIG
2026-04-11 04:50:00,METAR LIMC 110450Z 07003KT 010V130 9999 BKN040 13/06 Q1015 NOSIG
2026-04-11 04:20:00,METAR LIMC 110420Z 08004KT 050V110 9999 BKN040 13/06 Q1015 NOSIG
2026-04-11 03:50:00,METAR LIMC 110350Z 04004KT 360V080 9999 BKN040 13/06 Q1015 NOSIG
2026-04-11 03:20:00,METAR LIMC 110320Z VRB02KT 9999 SCT040 11/08 Q1015 NOSIG
2026-04-11 02:50:00,METAR LIMC 110250Z 34005KT 9999 BKN040 11/07 Q1015 NOSIG
2026-04-11 02:20:00,METAR LIMC 110220Z 01003KT 340V050 CAVOK 10/07 Q1015 NOSIG
2026-04-11 01:50:00,METAR LIMC 110150Z VRB02KT CAVOK 11/08 Q1015 NOSIG
2026-04-11 01:20:00,METAR LIMC 110120Z VRB02KT CAVOK 12/08 Q1015 NOSIG
2026-04-11 00:50:00,METAR LIMC 110050Z 03003KT 360V090 CAVOK 12/08 Q1015 NOSIG
2026-04-11 00:20:00,METAR LIMC 110020Z 04003KT 010V090 CAVOK 13/08 Q1015 NOSIG
2026-04-10 23:50:00,METAR LIMC 102350Z 08004KT 040V110 CAVOK 14/09 Q1015 NOSIG
2026-04-10 23:20:00,METAR LIMC 102320Z 06004KT 020V090 CAVOK 14/10 Q1015 NOSIG
2026-04-10 22:50:00,METAR LIMC 102250Z 04004KT 010V070 CAVOK 14/10 Q1015 NOSIG
2026-04-10 22:20:00,METAR LIMC 102220Z 04003KT 010V070 CAVOK 14/10 Q1014 NOSIG
2026-04-10 21:50:00,METAR LIMC 102150Z 04003KT 010V070 CAVOK 14/10 Q1014 NOSIG
2026-04-10 21:20:00,METAR LIMC 102120Z 03003KT 350V060 CAVOK 13/10 Q1014 NOSIG
2026-04-10 20:50:00,METAR LIMC 102050Z 06003KT 030V090 CAVOK 15/10 Q1014 NOSIG
2026-04-10 20:20:00,METAR LIMC 102020Z VRB02KT CAVOK 15/10 Q1014 NOSIG
2026-04-10 19:50:00,METAR LIMC 101950Z VRB02KT CAVOK 16/11 Q1013 NOSIG
2026-04-10 19:20:00,METAR LIMC 101920Z 12004KT CAVOK 17/11 Q1013 NOSIG
2026-04-10 18:50:00,METAR LIMC 101850Z 11002KT CAVOK 16/11 Q1013 NOSIG
2026-04-10 18:20:00,METAR LIMC 101820Z 10002KT CAVOK 17/12 Q1012 NOSIG
2026-04-10 17:50:00,METAR LIMC 101750Z 11004KT CAVOK 20/10 Q1012 NOSIG
2026-04-10 17:20:00,METAR LIMC 101720Z 11004KT CAVOK 20/10 Q1012 NOSIG
2026-04-10 16:50:00,METAR LIMC 101650Z 12003KT 080V150 CAVOK 21/11 Q1012 NOSIG
2026-04-10 16:20:00,METAR LIMC 101620Z 12004KT 080V160 CAVOK 21/10 Q1012 NOSIG
2026-04-10 15:50:00,METAR LIMC 101550Z 12003KT 070V190 CAVOK 21/11 Q1012 NOSIG
2026-04-10 15:20:00,METAR LIMC 101520Z VRB03KT CAVOK 21/10 Q1012 NOSIG
2026-04-10 14:50:00,METAR LIMC 101450Z 18003KT 120V260 CAVOK 21/10 Q1012 NOSIG
2026-04-10 14:20:00,METAR LIMC 101420Z VRB03KT CAVOK 21/10 Q1012 NOSIG
2026-04-10 13:50:00,METAR LIMC 101350Z 17003KT 050V210 CAVOK 20/10 Q1013 NOSIG
2026-04-10 13:20:00,METAR LIMC 101320Z 22003KT 160V270 CAVOK 20/09 Q1013 NOSIG
2026-04-10 12:50:00,METAR LIMC 101250Z VRB03KT CAVOK 20/09 Q1013 NOSIG
2026-04-10 12:20:00,METAR LIMC 101220Z VRB03KT CAVOK 20/09 Q1014 NOSIG
2026-04-10 11:50:00,METAR LIMC 101150Z 13004KT 090V180 CAVOK 19/09 Q1014 NOSIG
2026-04-10 11:20:00,METAR LIMC 101120Z VRB03KT CAVOK 18/09 Q1014 NOSIG
2026-04-10 10:50:00,METAR LIMC 101050Z 12003KT 040V180 CAVOK 17/09 Q1015 NOSIG
2026-04-10 10:20:00,METAR LIMC 101020Z VRB02KT CAVOK 16/08 Q1015 NOSIG
2026-04-10 09:50:00,METAR LIMC 100950Z VRB03KT CAVOK 17/09 Q1016 NOSIG
2026-04-10 09:20:00,METAR LIMC 100920Z VRB02KT CAVOK 15/07 Q1016 NOSIG
2026-04-10 08:50:00,METAR LIMC 100850Z VRB02KT CAVOK 15/08 Q1016 NOSIG
2026-04-10 08:20:00,METAR LIMC 100820Z 13004KT 100V160 CAVOK 14/07 Q1015 NOSIG
2026-04-10 07:50:00,METAR LIMC 100750Z VRB02KT CAVOK 14/07 Q1016 NOSIG
2026-04-10 07:20:00,METAR LIMC 100720Z VRB02KT CAVOK 14/08 Q1015 NOSIG
2026-04-10 06:50:00,METAR LIMC 100650Z VRB02KT CAVOK 13/08 Q1015 NOSIG
2026-04-10 06:20:00,METAR LIMC 100620Z VRB02KT CAVOK 13/08 Q1015 NOSIG
2026-04-10 05:50:00,METAR LIMC 100550Z VRB02KT CAVOK 09/07 Q1015 NOSIG
2026-04-10 05:20:00,METAR LIMC 100520Z VRB01KT CAVOK 08/07 Q1015 NOSIG
2026-04-10 04:50:00,METAR LIMC 100450Z VRB02KT CAVOK 09/07 Q1015 NOSIG
2026-04-10 04:20:00,METAR LIMC 100420Z VRB02KT CAVOK 11/07 Q1015 NOSIG
2026-04-10 03:50:00,METAR LIMC 100350Z 05003KT 010V070 CAVOK 12/07 Q1015 NOSIG
2026-04-10 03:20:00,METAR LIMC 100320Z 07003KT 020V110 CAVOK 12/08 Q1015 NOSIG
2026-04-10 02:50:00,METAR LIMC 100250Z 07003KT 030V100 CAVOK 12/08 Q1015 NOSIG
2026-04-10 02:20:00,METAR LIMC 100220Z 06004KT 020V090 CAVOK 13/08 Q1015 NOSIG
2026-04-10 01:50:00,METAR LIMC 100150Z 04003KT 330V070 CAVOK 12/08 Q1015 NOSIG
2026-04-10 01:20:00,METAR LIMC 100120Z 05003KT 010V100 CAVOK 13/08 Q1015 NOSIG
2026-04-10 00:50:00,METAR LIMC 100050Z 05003KT 020V090 CAVOK 13/08 Q1015 NOSIG
2026-04-10 00:20:00,METAR LIMC 100020Z 05004KT CAVOK 13/08 Q1015 NOSIG
2026-04-09 23:50:00,METAR LIMC 092350Z 06003KT CAVOK 14/08 Q1015 NOSIG
2026-04-09 23:20:00,METAR LIMC 092320Z 05003KT 010V080 CAVOK 14/09 Q1015 NOSIG
2026-04-09 22:50:00,METAR LIMC 092250Z 05004KT 020V080 CAVOK 14/09 Q1015 NOSIG
2026-04-09 22:20:00,METAR LIMC 092220Z 05003KT CAVOK 13/09 Q1015 NOSIG
2026-04-09 21:50:00,METAR LIMC 092150Z VRB02KT CAVOK 12/09 Q1015 NOSIG
2026-04-09 21:20:00,METAR LIMC 092120Z 07002KT CAVOK 14/10 Q1015 NOSIG
2026-04-09 20:50:00,METAR LIMC 092050Z 08003KT CAVOK 13/10 Q1015 NOSIG
2026-04-09 20:20:00,METAR LIMC 092020Z VRB02KT CAVOK 14/10 Q1014 NOSIG
2026-04-09 19:50:00,METAR LIMC 091950Z 07003KT 040V110 CAVOK 13/10 Q1014 NOSIG
2026-04-09 19:20:00,METAR LIMC 091920Z 05002KT CAVOK 14/10 Q1014 NOSIG
2026-04-09 18:50:00,METAR LIMC 091850Z 07003KT CAVOK 16/10 Q1014 NOSIG
2026-04-09 18:20:00,METAR LIMC 091820Z 10001KT CAVOK 18/10 Q1013 NOSIG
2026-04-09 17:50:00,METAR LIMC 091750Z 15003KT CAVOK 20/10 Q1013 NOSIG
2026-04-09 17:20:00,METAR LIMC 091720Z VRB02KT CAVOK 21/09 Q1013 NOSIG
2026-04-09 16:50:00,METAR LIMC 091650Z 17003KT 140V210 CAVOK 22/09 Q1013 NOSIG
2026-04-09 16:20:00,METAR LIMC 091620Z 13004KT CAVOK 22/09 Q1013 NOSIG
2026-04-09 15:50:00,METAR LIMC 091550Z 18003KT 110V240 CAVOK 22/09 Q1014 NOSIG
2026-04-09 15:20:00,METAR LIMC 091520Z 19003KT 120V280 CAVOK 22/08 Q1014 NOSIG
2026-04-09 14:50:00,METAR LIMC 091450Z 15005KT 090V200 CAVOK 22/08 Q1014 NOSIG
2026-04-09 14:20:00,METAR LIMC 091420Z VRB03KT CAVOK 22/08 Q1015 NOSIG
2026-04-09 13:50:00,METAR LIMC 091350Z 17004KT 120V250 CAVOK 22/07 Q1015 NOSIG
2026-04-09 13:20:00,METAR LIMC 091320Z 16005KT 080V230 CAVOK 22/07 Q1015 NOSIG
2026-04-09 12:50:00,METAR LIMC 091250Z VRB03KT CAVOK 22/07 Q1016 NOSIG
2026-04-09 12:20:00,METAR LIMC 091220Z VRB03KT CAVOK 21/05 Q1016 NOSIG
2026-04-09 11:50:00,METAR LIMC 091150Z 13003KT 050V210 CAVOK 21/05 Q1017 NOSIG
2026-04-09 11:20:00,METAR LIMC 091120Z 11004KT 050V190 CAVOK 21/06 Q1017 NOSIG
2026-04-09 10:50:00,METAR LIMC 091050Z 23004KT 170V300 CAVOK 20/06 Q1018 NOSIG
2026-04-09 10:20:00,METAR LIMC 091020Z VRB03KT CAVOK 19/05 Q1018 NOSIG
2026-04-09 09:50:00,METAR LIMC 090950Z VRB02KT CAVOK 19/05 Q1019 NOSIG
2026-04-09 09:20:00,METAR LIMC 090920Z VRB03KT CAVOK 18/04 Q1019 NOSIG
2026-04-09 08:50:00,METAR LIMC 090850Z 06003KT 360V130 CAVOK 18/04 Q1019 NOSIG
2026-04-09 08:20:00,METAR LIMC 090820Z 09004KT 360V150 CAVOK 18/04 Q1019 NOSIG
2026-04-09 07:50:00,METAR LIMC 090750Z 06004KT 030V120 CAVOK 17/05 Q1019 NOSIG
2026-04-09 07:20:00,METAR LIMC 090720Z 01003KT 310V070 CAVOK 16/06 Q1019 NOSIG
2026-04-09 06:50:00,METAR LIMC 090650Z 35003KT CAVOK 14/08 Q1020 NOSIG
2026-04-09 06:20:00,METAR LIMC 090620Z 35003KT CAVOK 12/07 Q1019 NOSIG
2026-04-09 05:50:00,METAR LIMC 090550Z 34003KT 9999 FEW040 10/06 Q1019 NOSIG
2026-04-09 05:20:00,METAR LIMC 090520Z VRB02KT 9999 SCT040 11/06 Q1019 NOSIG
2026-04-09 04:50:00,METAR LIMC 090450Z 03003KT 330V080 9999 BKN037 14/05 Q1019 NOSIG
2026-04-09 04:20:00,METAR LIMC 090420Z 05005KT 020V090 9999 BKN035 14/05 Q1019 NOSIG
2026-04-09 03:50:00,METAR LIMC 090350Z 04003KT 340V110 9999 BKN032 13/06 Q1019 NOSIG
2026-04-09 03:20:00,METAR LIMC 090320Z 04003KT 360V060 CAVOK 12/06 Q1019 NOSIG
2026-04-09 02:50:00,METAR LIMC 090250Z 05003KT 020V080 CAVOK 12/07 Q1019 NOSIG
2026-04-09 02:20:00,METAR LIMC 090220Z 05003KT 020V090 CAVOK 13/08 Q1019 NOSIG
2026-04-09 01:50:00,METAR LIMC 090150Z VRB02KT CAVOK 13/09 Q1019 NOSIG
2026-04-09 01:20:00,METAR LIMC 090120Z VRB02KT CAVOK 12/10 Q1019 NOSIG
2026-04-09 00:50:00,METAR LIMC 090050Z VRB02KT CAVOK 13/10 Q1019 NOSIG
2026-04-09 00:20:00,METAR LIMC 090020Z VRB03KT CAVOK 14/11 Q1019 NOSIG
2026-04-08 23:50:00,METAR LIMC 082350Z 04004KT 010V070 CAVOK 15/12 Q1019 NOSIG
2026-04-08 23:20:00,METAR LIMC 082320Z 05004KT 020V090 CAVOK 15/12 Q1019 NOSIG
2026-04-08 22:50:00,METAR LIMC 082250Z 06003KT 020V100 CAVOK 15/12 Q1019 NOSIG
2026-04-08 22:20:00,METAR LIMC 082220Z 07003KT CAVOK 15/12 Q1018 NOSIG
2026-04-08 21:50:00,METAR LIMC 082150Z 05003KT CAVOK 15/12 Q1018 NOSIG
2026-04-08 21:20:00,METAR LIMC 082120Z 07002KT CAVOK 14/11 Q1018 NOSIG
2026-04-08 20:50:00,METAR LIMC 082050Z 06003KT CAVOK 15/12 Q1018 NOSIG
2026-04-08 20:20:00,METAR LIMC 082020Z 07003KT CAVOK 15/10 Q1018 NOSIG
2026-04-08 19:50:00,METAR LIMC 081950Z 07002KT CAVOK 15/11 Q1017 NOSIG
2026-04-08 19:20:00,METAR LIMC 081920Z 08003KT CAVOK 16/11 Q1017 NOSIG
2026-04-08 18:50:00,METAR LIMC 081850Z 09002KT CAVOK 18/11 Q1017 NOSIG
2026-04-08 18:20:00,METAR LIMC 081820Z 11003KT 070V130 CAVOK 19/11 Q1017 NOSIG
2026-04-08 17:50:00,METAR LIMC 081750Z 13003KT CAVOK 22/10 Q1017 NOSIG
2026-04-08 17:20:00,METAR LIMC 081720Z 14005KT CAVOK 23/11 Q1017 NOSIG
2026-04-08 16:50:00,METAR LIMC 081650Z VRB02KT CAVOK 24/10 Q1017 NOSIG
2026-04-08 16:20:00,METAR LIMC 081620Z 20003KT 150V270 CAVOK 24/10 Q1017 NOSIG
2026-04-08 15:50:00,METAR LIMC 081550Z 14005KT CAVOK 24/10 Q1017 NOSIG
2026-04-08 15:20:00,METAR LIMC 081520Z 14005KT 110V190 CAVOK 24/10 Q1017 NOSIG
2026-04-08 14:50:00,METAR LIMC 081450Z VRB04KT CAVOK 24/10 Q1017 NOSIG
2026-04-08 14:20:00,METAR LIMC 081420Z VRB03KT CAVOK 24/11 Q1018 NOSIG
2026-04-08 13:50:00,METAR LIMC 081350Z VRB05KT CAVOK 24/11 Q1018 NOSIG
2026-04-08 13:20:00,METAR LIMC 081320Z 15005KT 090V190 CAVOK 23/11 Q1019 NOSIG
2026-04-08 12:50:00,METAR LIMC 081250Z 18005KT 100V240 CAVOK 23/12 Q1019 NOSIG
2026-04-08 12:20:00,METAR LIMC 081220Z VRB05KT CAVOK 23/13 Q1019 NOSIG
2026-04-08 11:50:00,METAR LIMC 081150Z 14005KT 050V210 CAVOK 22/12 Q1020 NOSIG
2026-04-08 11:20:00,METAR LIMC 081120Z VRB05KT CAVOK 21/13 Q1020 NOSIG
2026-04-08 10:50:00,METAR LIMC 081050Z 13006KT 100V180 CAVOK 21/13 Q1020 NOSIG
2026-04-08 10:20:00,METAR LIMC 081020Z 11006KT 050V150 CAVOK 20/13 Q1020 NOSIG
2026-04-08 09:50:00,METAR LIMC 080950Z 12006KT 070V150 CAVOK 19/12 Q1021 NOSIG
2026-04-08 09:20:00,METAR LIMC 080920Z 11006KT 080V150 CAVOK 19/12 Q1021 NOSIG
2026-04-08 08:50:00,METAR LIMC 080850Z 10004KT 360V140 CAVOK 18/12 Q1021 NOSIG
2026-04-08 08:20:00,METAR LIMC 080820Z 11004KT 040V150 CAVOK 17/12 Q1020 NOSIG
2026-04-08 07:50:00,METAR LIMC 080750Z 10004KT 050V130 CAVOK 16/12 Q1020 NOSIG
2026-04-08 07:20:00,METAR LIMC 080720Z 09003KT 050V130 CAVOK 15/12 Q1020 NOSIG
2026-04-08 06:50:00,METAR LIMC 080650Z 07003KT 030V090 CAVOK 13/11 Q1020 NOSIG
2026-04-08 06:20:00,METAR LIMC 080620Z VRB01KT CAVOK 11/11 Q1020 NOSIG
2026-04-08 05:50:00,METAR LIMC 080550Z VRB01KT CAVOK 08/08 Q1019 NOSIG
2026-04-08 05:20:00,METAR LIMC 080520Z VRB01KT 9999 MIFG NSC 06/06 Q1019 NOSIG
2026-04-08 04:50:00,METAR LIMC 080450Z VRB01KT 9999 MIFG NSC 07/07 Q1019 NOSIG
2026-04-08 04:20:00,METAR LIMC 080420Z VRB01KT CAVOK 07/07 Q1019 NOSIG
2026-04-08 03:50:00,METAR LIMC 080350Z VRB01KT 9999 MIFG NSC 07/07 Q1019 NOSIG
2026-04-08 03:20:00,METAR LIMC 080320Z VRB01KT 9999 MIFG NSC 08/08 Q1019 NOSIG
2026-04-08 02:50:00,METAR LIMC 080250Z VRB02KT CAVOK 07/07 Q1019 NOSIG
2026-04-08 02:20:00,METAR LIMC 080220Z 06002KT CAVOK 08/08 Q1019 NOSIG
2026-04-08 01:50:00,METAR LIMC 080150Z 08003KT CAVOK 09/09 Q1019 NOSIG
2026-04-08 01:20:00,METAR LIMC 080120Z VRB01KT CAVOK 09/09 Q1019 NOSIG
2026-04-08 00:50:00,METAR LIMC 080050Z VRB01KT CAVOK 09/09 Q1019 NOSIG
2026-04-08 00:20:00,METAR LIMC 080020Z VRB01KT CAVOK 09/09 Q1019 NOSIG
2026-04-07 23:50:00,METAR LIMC 072350Z 08001KT CAVOK 10/09 Q1019 NOSIG
2026-04-07 23:20:00,METAR LIMC 072320Z 09002KT CAVOK 10/09 Q1019 NOSIG
2026-04-07 22:50:00,METAR LIMC 072250Z VRB01KT CAVOK 11/10 Q1019 NOSIG
2026-04-07 22:20:00,METAR LIMC 072220Z VRB02KT CAVOK 12/10 Q1019 NOSIG
2026-04-07 21:50:00,METAR LIMC 072150Z 20004KT 080V230 CAVOK 13/10 Q1019 NOSIG
2026-04-07 21:20:00,METAR LIMC 072120Z 15003KT 130V190 CAVOK 13/10 Q1019 NOSIG
2026-04-07 20:50:00,METAR LIMC 072050Z 15003KT 130V190 CAVOK 14/11 Q1019 NOSIG
2026-04-07 20:20:00,METAR LIMC 072020Z 19003KT 150V230 CAVOK 15/11 Q1019 NOSIG
2026-04-07 19:50:00,METAR LIMC 071950Z 19005KT CAVOK 16/11 Q1019 NOSIG
2026-04-07 19:20:00,METAR LIMC 071920Z 20007KT CAVOK 17/12 Q1019 NOSIG
2026-04-07 18:50:00,METAR LIMC 071850Z 19006KT 150V210 CAVOK 18/12 Q1019 NOSIG
2026-04-07 18:20:00,METAR LIMC 071820Z 18005KT 150V210 CAVOK 19/12 Q1018 NOSIG
2026-04-07 17:50:00,METAR LIMC 071750Z 19007KT 150V220 CAVOK 21/12 Q1018 NOSIG
2026-04-07 17:20:00,METAR LIMC 071720Z 19007KT 150V230 CAVOK 23/12 Q1018 NOSIG
2026-04-07 16:50:00,METAR LIMC 071650Z 19006KT 160V220 CAVOK 24/11 Q1018 NOSIG
2026-04-07 16:20:00,METAR LIMC 071620Z 21005KT 140V310 CAVOK 25/10 Q1018 NOSIG
2026-04-07 15:50:00,METAR LIMC 071550Z 21005KT 140V250 CAVOK 25/09 Q1018 NOSIG
2026-04-07 15:20:00,METAR LIMC 071520Z 20005KT 160V240 CAVOK 25/10 Q1018 NOSIG
2026-04-07 14:50:00,METAR LIMC 071450Z 20005KT 120V280 CAVOK 25/11 Q1018 NOSIG
2026-04-07 14:20:00,METAR LIMC 071420Z 22006KT 180V260 CAVOK 24/10 Q1019 NOSIG
2026-04-07 13:50:00,METAR LIMC 071350Z 17003KT 100V230 CAVOK 24/11 Q1019 NOSIG
2026-04-07 13:20:00,METAR LIMC 071320Z 18005KT 120V230 CAVOK 24/11 Q1020 NOSIG
2026-04-07 12:50:00,METAR LIMC 071250Z 20005KT 140V240 CAVOK 24/11 Q1020 NOSIG
2026-04-07 12:20:00,METAR LIMC 071220Z 16004KT 050V220 CAVOK 23/11 Q1020 NOSIG
2026-04-07 11:50:00,METAR LIMC 071150Z 16004KT 120V200 CAVOK 22/10 Q1021 NOSIG
2026-04-07 11:20:00,METAR LIMC 071120Z 15004KT 100V260 CAVOK 22/11 Q1021 NOSIG
2026-04-07 10:50:00,METAR LIMC 071050Z 16004KT 080V200 CAVOK 21/11 Q1022 NOSIG
2026-04-07 10:20:00,METAR LIMC 071020Z VRB04KT CAVOK 20/11 Q1022 NOSIG
2026-04-07 09:50:00,METAR LIMC 070950Z 11006KT 080V170 CAVOK 19/10 Q1022 NOSIG
2026-04-07 09:20:00,METAR LIMC 070920Z 12005KT 080V160 CAVOK 19/11 Q1022 NOSIG
2026-04-07 08:50:00,METAR LIMC 070850Z 14003KT 080V190 CAVOK 18/10 Q1022 NOSIG
2026-04-07 08:20:00,METAR LIMC 070820Z 12004KT 080V150 CAVOK 17/11 Q1022 NOSIG
2026-04-07 07:50:00,METAR LIMC 070750Z 12004KT 090V160 CAVOK 16/10 Q1022 NOSIG
2026-04-07 07:20:00,METAR LIMC 070720Z 11004KT 080V140 CAVOK 15/10 Q1022 NOSIG
2026-04-07 06:50:00,METAR LIMC 070650Z 08003KT 040V160 CAVOK 14/10 Q1022 NOSIG
2026-04-07 06:20:00,METAR LIMC 070620Z VRB02KT CAVOK 12/10 Q1022 NOSIG
2026-04-07 05:50:00,METAR LIMC 070550Z VRB01KT CAVOK 08/08 Q1022 NOSIG
2026-04-07 05:20:00,METAR LIMC 070520Z 02002KT CAVOK 06/06 Q1022 NOSIG
2026-04-07 04:50:00,METAR LIMC 070450Z VRB01KT CAVOK 07/07 Q1022 NOSIG
2026-04-07 04:20:00,METAR LIMC 070420Z VRB01KT CAVOK 08/08 Q1022 NOSIG
2026-04-07 03:20:00,METAR LIMC 070320Z 07002KT CAVOK 08/08 Q1022 NOSIG
2026-04-07 02:50:00,METAR LIMC 070250Z VRB01KT CAVOK 09/08 Q1022 NOSIG
2026-04-07 02:20:00,METAR LIMC 070220Z VRB01KT CAVOK 09/09 Q1022 NOSIG
2026-04-07 01:50:00,METAR LIMC 070150Z 03001KT CAVOK 09/08 Q1022 NOSIG
2026-04-07 01:20:00,METAR LIMC 070120Z 04002KT CAVOK 09/08 Q1022 NOSIG
2026-04-07 00:50:00,METAR LIMC 070050Z 07003KT CAVOK 11/09 Q1022 NOSIG
2026-04-07 00:20:00,METAR LIMC 070020Z 08003KT CAVOK 12/10 Q1022 NOSIG
2026-04-06 23:50:00,METAR LIMC 062350Z 09002KT CAVOK 11/09 Q1022 NOSIG
2026-04-06 23:20:00,METAR LIMC 062320Z VRB01KT CAVOK 12/10 Q1022 NOSIG
2026-04-06 22:50:00,METAR LIMC 062250Z VRB01KT CAVOK 13/10 Q1022 NOSIG
2026-04-06 22:20:00,METAR LIMC 062220Z COR VRB01KT CAVOK 14/10 Q1022 NOSIG
2026-04-06 21:50:00,METAR LIMC 062150Z VRB01KT CAVOK 14/10 Q1022 NOSIG
2026-04-06 21:20:00,METAR LIMC 062120Z VRB02KT CAVOK 14/10 Q1021 NOSIG
2026-04-06 20:50:00,METAR LIMC 062050Z 16002KT CAVOK 16/10 Q1021 NOSIG
2026-04-06 20:20:00,METAR LIMC 062020Z VRB02KT CAVOK 17/10 Q1021 NOSIG
2026-04-06 19:50:00,METAR LIMC 061950Z 19004KT 160V230 CAVOK 19/10 Q1021 NOSIG
2026-04-06 19:20:00,METAR LIMC 061920Z VRB02KT CAVOK 18/10 Q1021 NOSIG
2026-04-06 18:50:00,METAR LIMC 061850Z VRB01KT CAVOK 17/09 Q1020 NOSIG
2026-04-06 18:20:00,METAR LIMC 061820Z VRB02KT CAVOK 21/08 Q1020 NOSIG
2026-04-06 17:50:00,METAR LIMC 061750Z 21004KT 190V260 CAVOK 23/07 Q1020 NOSIG
2026-04-06 17:20:00,METAR LIMC 061720Z 23006KT 200V260 CAVOK 24/06 Q1020 NOSIG
2026-04-06 16:50:00,METAR LIMC 061650Z 23006KT 200V290 CAVOK 25/05 Q1020 NOSIG
2026-04-06 16:20:00,METAR LIMC 061620Z 23007KT 200V280 CAVOK 26/05 Q1020 NOSIG
2026-04-06 15:50:00,METAR LIMC 061550Z 23008KT 190V270 CAVOK 26/05 Q1020 NOSIG
2026-04-06 14:50:00,METAR LIMC 061450Z 20006KT 140V230 CAVOK 25/06 Q1020 NOSIG
2026-04-06 14:20:00,METAR LIMC 061420Z 22006KT 170V260 CAVOK 26/06 Q1020 NOSIG
2026-04-06 13:50:00,METAR LIMC 061350Z 21007KT 160V280 CAVOK 26/08 Q1021 NOSIG
2026-04-06 13:20:00,METAR LIMC 061320Z 20005KT 140V270 CAVOK 24/07 Q1021 NOSIG
2026-04-06 12:50:00,METAR LIMC 061250Z 19006KT 110V280 CAVOK 24/07 Q1022 NOSIG
2026-04-06 12:20:00,METAR LIMC 061220Z 20006KT 130V240 CAVOK 24/07 Q1022 NOSIG
2026-04-06 11:50:00,METAR LIMC 061150Z 22004KT 150V260 CAVOK 23/07 Q1023 NOSIG
2026-04-06 11:20:00,METAR LIMC 061120Z 16005KT 080V230 CAVOK 22/09 Q1023 NOSIG
2026-04-06 10:50:00,METAR LIMC 061050Z VRB03KT CAVOK 21/08 Q1023 NOSIG
2026-04-06 10:20:00,METAR LIMC 061020Z 16003KT 090V210 CAVOK 21/09 Q1023 NOSIG
2026-04-06 09:50:00,METAR LIMC 060950Z VRB02KT CAVOK 20/10 Q1024 NOSIG
2026-04-06 09:20:00,METAR LIMC 060920Z 14004KT 110V190 CAVOK 19/10 Q1024 NOSIG
2026-04-06 08:50:00,METAR LIMC 060850Z 13004KT 080V160 CAVOK 18/09 Q1024 NOSIG
2026-04-06 08:20:00,METAR LIMC 060820Z 13004KT 090V160 CAVOK 17/09 Q1023 NOSIG
2026-04-06 07:50:00,METAR LIMC 060750Z VRB02KT CAVOK 17/09 Q1023 NOSIG
2026-04-06 07:20:00,METAR LIMC 060720Z 08003KT 030V110 CAVOK 15/08 Q1023 NOSIG
2026-04-06 06:50:00,METAR LIMC 060650Z VRB01KT CAVOK 13/09 Q1023 NOSIG
2026-04-06 06:20:00,METAR LIMC 060620Z VRB01KT CAVOK 10/08 Q1023 NOSIG
2026-04-06 05:50:00,METAR LIMC 060550Z VRB01KT CAVOK 07/06 Q1023 NOSIG
2026-04-06 05:20:00,METAR LIMC 060520Z VRB02KT CAVOK 08/07 Q1023 NOSIG
2026-04-06 04:50:00,METAR LIMC 060450Z VRB01KT CAVOK 08/07 Q1022 NOSIG
2026-04-06 04:20:00,METAR LIMC 060420Z VRB01KT CAVOK 08/07 Q1022 NOSIG
2026-04-06 03:50:00,METAR LIMC 060350Z VRB02KT CAVOK 07/05 Q1022 NOSIG
2026-04-06 03:20:00,METAR LIMC 060320Z VRB01KT CAVOK 07/06 Q1023 NOSIG
2026-04-06 02:50:00,METAR LIMC 060250Z VRB01KT CAVOK 08/07 Q1023 NOSIG
2026-04-06 02:20:00,METAR LIMC 060220Z VRB02KT CAVOK 09/06 Q1023 NOSIG
2026-04-06 01:50:00,METAR LIMC 060150Z 07002KT CAVOK 09/07 Q1023 NOSIG
2026-04-06 01:20:00,METAR LIMC 060120Z VRB02KT CAVOK 09/07 Q1023 NOSIG
2026-04-06 00:50:00,METAR LIMC 060050Z VRB01KT CAVOK 10/07 Q1023 NOSIG
2026-04-06 00:20:00,METAR LIMC 060020Z 08002KT CAVOK 11/07 Q1023 NOSIG
2026-04-05 23:50:00,METAR LIMC 052350Z VRB02KT CAVOK 11/07 Q1023 NOSIG
2026-04-05 23:20:00,METAR LIMC 052320Z 08002KT CAVOK 12/07 Q1023 NOSIG
2026-04-05 22:20:00,METAR LIMC 052220Z VRB01KT CAVOK 13/07 Q1023 NOSIG
2026-04-05 21:50:00,METAR LIMC 052150Z VRB02KT CAVOK 14/06 Q1023 NOSIG
2026-04-05 21:20:00,METAR LIMC 052120Z 20003KT 170V240 CAVOK 16/06 Q1023 NOSIG
2026-04-05 20:50:00,METAR LIMC 052050Z 15004KT 130V190 CAVOK 14/06 Q1022 NOSIG
2026-04-05 20:20:00,METAR LIMC 052020Z VRB01KT CAVOK 12/06 Q1022 NOSIG
2026-04-05 19:50:00,METAR LIMC 051950Z VRB01KT CAVOK 13/06 Q1022 NOSIG
2026-04-05 19:20:00,METAR LIMC 051920Z 07002KT CAVOK 14/06 Q1022 NOSIG
2026-04-05 18:50:00,METAR LIMC 051850Z VRB02KT CAVOK 16/07 Q1022 NOSIG
2026-04-05 18:20:00,METAR LIMC 051820Z VRB01KT CAVOK 18/06 Q1021 NOSIG
2026-04-05 17:50:00,METAR LIMC 051750Z VRB02KT CAVOK 20/05 Q1021 NOSIG
2026-04-05 17:20:00,METAR LIMC 051720Z 16003KT 140V200 CAVOK 21/05 Q1021 NOSIG
2026-04-05 16:50:00,METAR LIMC 051650Z 18004KT CAVOK 22/04 Q1021 NOSIG
2026-04-05 16:20:00,METAR LIMC 051620Z 19004KT CAVOK 23/03 Q1021 NOSIG
2026-04-05 15:50:00,METAR LIMC 051550Z 16003KT 110V260 CAVOK 23/04 Q1021 NOSIG
2026-04-05 15:20:00,METAR LIMC 051520Z 23006KT 180V280 CAVOK 24/03 Q1021 NOSIG
2026-04-05 14:50:00,METAR LIMC 051450Z VRB03KT CAVOK 24/03 Q1022 NOSIG
2026-04-05 12:50:00,METAR LIMC 051250Z 13006KT 070V180 CAVOK 23/04 Q1023 NOSIG
2026-04-05 12:20:00,METAR LIMC 051220Z 14005KT 030V200 CAVOK 22/03 Q1023 NOSIG
2026-04-05 11:50:00,METAR LIMC 051150Z 17005KT 130V240 CAVOK 22/04 Q1023 NOSIG
2026-04-05 11:20:00,METAR LIMC 051120Z VRB04KT CAVOK 22/04 Q1024 NOSIG
2026-04-05 10:50:00,METAR LIMC 051050Z 13004KT 080V210 CAVOK 21/04 Q1024 NOSIG
2026-04-05 10:20:00,METAR LIMC 051020Z 14004KT 080V200 CAVOK 21/04 Q1024 NOSIG
2026-04-05 09:50:00,METAR LIMC 050950Z VRB02KT CAVOK 20/05 Q1024 NOSIG
2026-04-05 09:20:00,METAR LIMC 050920Z VRB03KT CAVOK 19/05 Q1024 NOSIG
2026-04-05 08:50:00,METAR LIMC 050850Z VRB02KT CAVOK 18/05 Q1024 NOSIG
2026-04-05 08:20:00,METAR LIMC 050820Z 14003KT 100V200 CAVOK 17/05 Q1024 NOSIG
2026-04-05 07:50:00,METAR LIMC 050750Z VRB01KT CAVOK 17/06 Q1024 NOSIG
2026-04-05 07:20:00,METAR LIMC 050720Z VRB01KT CAVOK 14/05 Q1024 NOSIG
2026-04-05 06:50:00,METAR LIMC 050650Z VRB01KT CAVOK 12/06 Q1024 NOSIG
2026-04-05 06:20:00,METAR LIMC 050620Z VRB01KT CAVOK 08/05 Q1024 NOSIG
2026-04-05 05:50:00,METAR LIMC 050550Z VRB01KT CAVOK 06/04 Q1023 NOSIG
2026-04-05 05:20:00,METAR LIMC 050520Z VRB02KT CAVOK 06/04 Q1023 NOSIG
2026-04-05 04:50:00,METAR LIMC 050450Z 35004KT CAVOK 07/04 Q1023 NOSIG
2026-04-05 04:20:00,METAR LIMC 050420Z VRB02KT CAVOK 06/04 Q1023 NOSIG
2026-04-05 03:50:00,METAR LIMC 050350Z VRB01KT CAVOK 06/04 Q1023 NOSIG
2026-04-05 03:20:00,METAR LIMC 050320Z VRB01KT CAVOK 07/04 Q1023 NOSIG
2026-04-05 02:50:00,METAR LIMC 050250Z VRB01KT CAVOK 07/04 Q1023 NOSIG
2026-04-05 02:20:00,METAR LIMC 050220Z 34005KT CAVOK 09/04 Q1023 NOSIG
2026-04-05 01:50:00,METAR LIMC 050150Z 35003KT CAVOK 08/04 Q1023 NOSIG
2026-04-05 01:20:00,METAR LIMC 050120Z 34005KT CAVOK 08/04 Q1023 NOSIG
2026-04-05 00:50:00,METAR LIMC 050050Z 35003KT CAVOK 07/04 Q1023 NOSIG
2026-04-05 00:20:00,METAR LIMC 050020Z VRB02KT CAVOK 08/04 Q1023 NOSIG
2026-04-04 23:50:00,METAR LIMC 042350Z 34003KT CAVOK 07/04 Q1023 NOSIG
2026-04-04 23:20:00,METAR LIMC 042320Z 35003KT 330V060 CAVOK 08/04 Q1023 NOSIG
2026-04-04 22:50:00,METAR LIMC 042250Z 02003KT 340V040 CAVOK 08/04 Q1022 NOSIG
2026-04-04 22:20:00,METAR LIMC 042220Z VRB02KT CAVOK 09/05 Q1022 NOSIG
2026-04-04 21:50:00,METAR LIMC 042150Z VRB02KT CAVOK 10/05 Q1022 NOSIG
2026-04-04 21:20:00,METAR LIMC 042120Z 04003KT CAVOK 12/05 Q1022 NOSIG
2026-04-04 20:50:00,METAR LIMC 042050Z 08003KT CAVOK 13/04 Q1021 NOSIG
2026-04-04 20:20:00,METAR LIMC 042020Z 07002KT CAVOK 13/05 Q1021 NOSIG
2026-04-04 19:50:00,METAR LIMC 041950Z 07003KT CAVOK 13/04 Q1021 NOSIG
2026-04-04 19:20:00,METAR LIMC 041920Z 08003KT CAVOK 13/04 Q1021 NOSIG
2026-04-04 18:50:00,METAR LIMC 041850Z 08003KT CAVOK 15/04 Q1020 NOSIG
2026-04-04 18:20:00,METAR LIMC 041820Z VRB02KT CAVOK 17/02 Q1020 NOSIG
2026-04-04 17:50:00,METAR LIMC 041750Z VRB02KT CAVOK 20/01 Q1020 NOSIG
2026-04-04 17:20:00,METAR LIMC 041720Z 16003KT CAVOK 21/01 Q1019 NOSIG
2026-04-04 16:50:00,METAR LIMC 041650Z 19003KT 140V220 CAVOK 22/M00 Q1019 NOSIG
2026-04-04 16:20:00,METAR LIMC 041620Z 19004KT 130V250 CAVOK 23/01 Q1019 NOSIG
2026-04-04 15:50:00,METAR LIMC 041550Z 18004KT 130V230 CAVOK 23/M00 Q1019 NOSIG
2026-04-04 15:20:00,METAR LIMC 041520Z 21005KT 140V280 CAVOK 23/M01 Q1019 NOSIG
2026-04-04 14:50:00,METAR LIMC 041450Z 18005KT 140V260 CAVOK 23/M01 Q1019 NOSIG
2026-04-04 14:20:00,METAR LIMC 041420Z 17004KT 110V240 CAVOK 23/01 Q1020 NOSIG
2026-04-04 13:50:00,METAR LIMC 041350Z 15004KT 100V210 CAVOK 23/01 Q1020 NOSIG
2026-04-04 13:20:00,METAR LIMC 041320Z 14006KT 090V200 CAVOK 23/00 Q1020 NOSIG
2026-04-04 12:50:00,METAR LIMC 041250Z VRB04KT CAVOK 23/00 Q1020 NOSIG
2026-04-04 12:20:00,METAR LIMC 041220Z 17004KT 120V210 CAVOK 22/00 Q1020 NOSIG
2026-04-04 11:50:00,METAR LIMC 041150Z 12005KT 070V180 CAVOK 22/01 Q1021 NOSIG
2026-04-04 11:20:00,METAR LIMC 041120Z COR VRB02KT CAVOK 21/M02 Q1021 NOSIG
2026-04-04 10:50:00,METAR LIMC 041050Z VRB02KT CAVOK 21/M02 Q1021 NOSIG
2026-04-04 10:20:00,METAR LIMC 041020Z VRB03KT CAVOK 20/M00 Q1021 NOSIG
2026-04-04 09:50:00,METAR LIMC 040950Z 15003KT 100V270 CAVOK 19/M01 Q1021 NOSIG
2026-04-04 09:20:00,METAR LIMC 040920Z 16004KT 090V210 CAVOK 19/M00 Q1021 NOSIG
2026-04-04 08:50:00,METAR LIMC 040850Z 14004KT 100V190 CAVOK 18/M02 Q1021 NOSIG
2026-04-04 08:20:00,METAR LIMC 040820Z 11005KT 070V140 CAVOK 17/M02 Q1021 NOSIG
2026-04-04 07:50:00,METAR LIMC 040750Z 10003KT 050V140 CAVOK 17/M02 Q1021 NOSIG
2026-04-04 07:20:00,METAR LIMC 040720Z 34003KT 310V010 CAVOK 15/M02 Q1020 NOSIG
2026-04-04 06:50:00,METAR LIMC 040650Z 33004KT 310V020 CAVOK 12/02 Q1020 NOSIG
2026-04-04 06:20:00,METAR LIMC 040620Z VRB01KT CAVOK 08/01 Q1020 NOSIG
2026-04-04 05:50:00,METAR LIMC 040550Z VRB02KT CAVOK 05/M00 Q1019 NOSIG
2026-04-04 05:20:00,METAR LIMC 040520Z VRB01KT CAVOK 07/M02 Q1019 NOSIG
2026-04-04 04:50:00,METAR LIMC 040450Z VRB01KT CAVOK 07/M02 Q1018 NOSIG
2026-04-04 04:20:00,METAR LIMC 040420Z 35003KT 320V030 CAVOK 08/M02 Q1018 NOSIG
2026-04-04 03:50:00,METAR LIMC 040350Z VRB02KT CAVOK 08/M02 Q1018 NOSIG
2026-04-04 03:20:00,METAR LIMC 040320Z 34004KT CAVOK 08/M01 Q1018 NOSIG
2026-04-04 02:50:00,METAR LIMC 040250Z 35004KT CAVOK 05/M02 Q1018 NOSIG
2026-04-04 02:20:00,METAR LIMC 040220Z 33006KT CAVOK 05/M03 Q1018 NOSIG
2026-04-04 01:50:00,METAR LIMC 040150Z 01003KT 340V040 CAVOK 07/M04 Q1017 NOSIG
2026-04-04 01:20:00,METAR LIMC 040120Z 34004KT CAVOK 06/M03 Q1017 NOSIG
2026-04-04 00:50:00,METAR LIMC 040050Z VRB02KT CAVOK 07/M03 Q1017 NOSIG
2026-04-04 00:20:00,METAR LIMC 040020Z VRB02KT CAVOK 07/M04 Q1017 NOSIG
2026-04-03 23:50:00,METAR LIMC 032350Z 34004KT CAVOK 09/M04 Q1017 NOSIG
2026-04-03 23:20:00,METAR LIMC 032320Z 32006KT CAVOK 09/M05 Q1016 NOSIG
2026-04-03 22:50:00,METAR LIMC 032250Z 36004KT 330V030 CAVOK 11/M06 Q1016 NOSIG
2026-04-03 22:20:00,METAR LIMC 032220Z 34005KT CAVOK 10/M05 Q1016 NOSIG
2026-04-03 21:50:00,METAR LIMC 032150Z 36004KT 330V040 CAVOK 12/M07 Q1016 NOSIG
2026-04-03 21:20:00,METAR LIMC 032120Z 01003KT 340V050 CAVOK 16/M09 Q1016 NOSIG
2026-04-03 20:50:00,METAR LIMC 032050Z 03004KT 340V070 CAVOK 15/M10 Q1015 NOSIG
2026-04-03 20:20:00,METAR LIMC 032020Z 05003KT 020V080 CAVOK 15/M06 Q1015 NOSIG
2026-04-03 19:50:00,METAR LIMC 031950Z 04002KT CAVOK 10/01 Q1015 NOSIG
2026-04-03 19:20:00,METAR LIMC 031920Z 02003KT CAVOK 10/01 Q1015 NOSIG
2026-04-03 18:50:00,METAR LIMC 031850Z VRB02KT CAVOK 14/01 Q1014 NOSIG
2026-04-03 18:20:00,METAR LIMC 031820Z 22005KT 190V250 CAVOK 19/M02 Q1013 NOSIG
2026-04-03 17:50:00,METAR LIMC 031750Z 23008KT CAVOK 19/M02 Q1013 NOSIG
2026-04-03 17:20:00,METAR LIMC 031720Z 23010KT CAVOK 20/M02 Q1012 NOSIG
2026-04-03 16:50:00,METAR LIMC 031650Z 24010KT CAVOK 21/M02 Q1012 NOSIG
2026-04-03 16:20:00,METAR LIMC 031620Z 23009KT 210V270 CAVOK 22/M03 Q1012 NOSIG
2026-04-03 15:50:00,METAR LIMC 031550Z 21005KT 130V280 CAVOK 22/M06 Q1012 NOSIG
2026-04-03 15:20:00,METAR LIMC 031520Z 22006KT 150V250 CAVOK 22/M04 Q1012 NOSIG
2026-04-03 14:50:00,METAR LIMC 031450Z 23008KT 160V270 CAVOK 22/M04 Q1012 NOSIG
2026-04-03 14:20:00,METAR LIMC 031420Z 25008KT 220V280 CAVOK 22/M03 Q1012 NOSIG
2026-04-03 13:50:00,METAR LIMC 031350Z 21004KT 140V260 CAVOK 22/M06 Q1012 NOSIG
2026-04-03 13:20:00,METAR LIMC 031320Z 22007KT 180V260 CAVOK 21/M03 Q1012 NOSIG
2026-04-03 12:50:00,METAR LIMC 031250Z 25007KT 210V300 CAVOK 21/M05 Q1012 NOSIG
2026-04-03 12:20:00,METAR LIMC 031220Z VRB06KT CAVOK 21/M05 Q1013 NOSIG
2026-04-03 11:50:00,METAR LIMC 031150Z VRB04KT CAVOK 21/M03 Q1013 NOSIG
2026-04-03 11:20:00,METAR LIMC 031120Z 29007KT 260V340 CAVOK 21/M03 Q1013 NOSIG
2026-04-03 10:50:00,METAR LIMC 031050Z 28007KT 200V320 CAVOK 19/M04 Q1013 NOSIG
2026-04-03 10:20:00,METAR LIMC 031020Z 31008KT 240V050 CAVOK 19/M04 Q1014 NOSIG
2026-04-03 09:50:00,METAR LIMC 030950Z 31008KT 280V350 CAVOK 18/M04 Q1014 NOSIG
2026-04-03 09:20:00,METAR LIMC 030920Z 31012KT CAVOK 18/M04 Q1014 NOSIG
2026-04-03 08:50:00,METAR LIMC 030850Z 33012KT 300V360 CAVOK 17/M05 Q1014 NOSIG
2026-04-03 08:20:00,METAR LIMC 030820Z 32011KT CAVOK 17/M04 Q1013 NOSIG
2026-04-03 07:50:00,METAR LIMC 030750Z 35010KT 320V040 CAVOK 16/M04 Q1013 NOSIG
2026-04-03 07:20:00,METAR LIMC 030720Z 33010KT CAVOK 14/M02 Q1013 NOSIG
2026-04-03 06:50:00,METAR LIMC 030650Z 32006KT CAVOK 13/M02 Q1013 NOSIG
2026-04-03 06:20:00,METAR LIMC 030620Z 34004KT CAVOK 07/M01 Q1013 NOSIG
2026-04-03 05:50:00,METAR LIMC 030550Z 34004KT CAVOK 04/M02 Q1012 NOSIG
2026-04-03 05:20:00,METAR LIMC 030520Z 35003KT 320V020 CAVOK 04/M02 Q1012 NOSIG
2026-04-03 04:50:00,METAR LIMC 030450Z 35003KT 320V030 CAVOK 03/M02 Q1012 NOSIG
2026-04-03 04:20:00,METAR LIMC 030420Z VRB01KT CAVOK 04/M02 Q1011 NOSIG
2026-04-03 03:50:00,METAR LIMC 030350Z VRB01KT CAVOK 05/M02 Q1011 NOSIG
2026-04-03 03:20:00,METAR LIMC 030320Z VRB02KT CAVOK 05/M03 Q1011 NOSIG
2026-04-03 02:50:00,METAR LIMC 030250Z 33004KT 300V360 CAVOK 06/M03 Q1011 NOSIG
2026-04-03 02:20:00,METAR LIMC 030220Z 34004KT CAVOK 06/M04 Q1010 NOSIG
2026-04-03 01:50:00,METAR LIMC 030150Z 34004KT CAVOK 07/M04 Q1010 NOSIG
2026-04-03 01:20:00,METAR LIMC 030120Z 35003KT 330V040 CAVOK 09/M04 Q1010 NOSIG
2026-04-03 00:50:00,METAR LIMC 030050Z 35004KT 320V020 CAVOK 12/M06 Q1010 NOSIG
2026-04-03 00:20:00,METAR LIMC 030020Z 36005KT 330V050 CAVOK 13/M06 Q1010 NOSIG
2026-04-02 23:50:00,METAR LIMC 022350Z 02004KT 330V070 CAVOK 13/M06 Q1010 NOSIG
2026-04-02 23:20:00,METAR LIMC 022320Z 36004KT 310V050 CAVOK 13/M06 Q1010 NOSIG
2026-04-02 22:50:00,METAR LIMC 022250Z 36005KT 330V040 CAVOK 14/M06 Q1009 NOSIG
2026-04-02 22:20:00,METAR LIMC 022220Z 36005KT 290V040 CAVOK 14/M06 Q1009 NOSIG
2026-04-02 21:50:00,METAR LIMC 022150Z 36005KT 310V040 CAVOK 14/M06 Q1009 NOSIG
2026-04-02 21:20:00,METAR LIMC 022120Z 36005KT 320V050 CAVOK 14/M05 Q1009 NOSIG
2026-04-02 20:50:00,METAR LIMC 022050Z 36007KT 320V040 CAVOK 15/M05 Q1008 NOSIG
2026-04-02 20:20:00,METAR LIMC 022020Z 36006KT 320V040 CAVOK 15/M04 Q1008 NOSIG
2026-04-02 19:50:00,METAR LIMC 021950Z 35006KT 310V040 CAVOK 15/M04 Q1008 NOSIG
2026-04-02 19:20:00,METAR LIMC 021920Z 36004KT 320V030 CAVOK 15/M03 Q1007 NOSIG
2026-04-02 18:50:00,METAR LIMC 021850Z 35003KT 280V050 CAVOK 14/M02 Q1007 NOSIG
2026-04-02 18:20:00,METAR LIMC 021820Z VRB04KT CAVOK 16/M01 Q1006 NOSIG
2026-04-02 17:50:00,METAR LIMC 021750Z 23005KT 220V280 CAVOK 16/M02 Q1006 NOSIG
2026-04-02 17:20:00,METAR LIMC 021720Z 23005KT 200V260 CAVOK 17/M02 Q1005 NOSIG
2026-04-02 16:50:00,METAR LIMC 021650Z 22007KT 160V240 CAVOK 17/M02 Q1005 NOSIG
2026-04-02 16:20:00,METAR LIMC 021620Z 22006KT 160V270 CAVOK 18/M01 Q1005 NOSIG
2026-04-02 15:50:00,METAR LIMC 021550Z 23004KT 190V260 CAVOK 18/M02 Q1005 NOSIG
2026-04-02 15:20:00,METAR LIMC 021520Z 19006KT 150V230 CAVOK 18/M02 Q1005 NOSIG
2026-04-02 14:50:00,METAR LIMC 021450Z VRB04KT CAVOK 17/M03 Q1005 NOSIG
2026-04-02 14:20:00,METAR LIMC 021420Z 21006KT 170V250 CAVOK 18/M02 Q1005 NOSIG
2026-04-02 13:50:00,METAR LIMC 021350Z 22007KT 170V300 CAVOK 17/M02 Q1005 NOSIG
2026-04-02 13:20:00,METAR LIMC 021320Z 22006KT 170V280 CAVOK 17/M02 Q1006 NOSIG
2026-04-02 12:50:00,METAR LIMC 021250Z VRB05KT CAVOK 16/M02 Q1006 NOSIG
2026-04-02 12:20:00,METAR LIMC 021220Z 23004KT 170V290 CAVOK 16/M03 Q1006 NOSIG
2026-04-02 11:50:00,METAR LIMC 021150Z VRB03KT CAVOK 16/M04 Q1007 NOSIG
2026-04-02 11:20:00,METAR LIMC 021120Z VRB04KT CAVOK 16/M04 Q1007 NOSIG
2026-04-02 10:50:00,METAR LIMC 021050Z VRB05KT CAVOK 15/M03 Q1008 NOSIG
2026-04-02 10:20:00,METAR LIMC 021020Z 14005KT 050V210 CAVOK 14/M04 Q1008 NOSIG
2026-04-02 09:50:00,METAR LIMC 020950Z 14005KT 080V230 CAVOK 14/M04 Q1008 NOSIG
2026-04-02 09:20:00,METAR LIMC 020920Z 13005KT 040V210 CAVOK 14/M04 Q1008 NOSIG
2026-04-02 08:50:00,METAR LIMC 020850Z 10005KT 050V210 CAVOK 13/M04 Q1008 NOSIG
2026-04-02 08:20:00,METAR LIMC 020820Z VRB04KT CAVOK 13/M04 Q1008 NOSIG
2026-04-02 07:50:00,METAR LIMC 020750Z VRB04KT CAVOK 12/M03 Q1008 NOSIG
2026-04-02 07:20:00,METAR LIMC 020720Z VRB02KT CAVOK 11/M02 Q1008 NOSIG
2026-04-02 06:50:00,METAR LIMC 020650Z 33003KT 310V010 CAVOK 06/M01 Q1008 NOSIG
2026-04-02 06:20:00,METAR LIMC 020620Z VRB01KT CAVOK 03/M02 Q1008 NOSIG
2026-04-02 05:50:00,METAR LIMC 020550Z 34004KT CAVOK 01/M04 Q1008 NOSIG
2026-04-02 05:20:00,METAR LIMC 020520Z 36003KT CAVOK 00/M03 Q1008 NOSIG
2026-04-02 04:50:00,METAR LIMC 020450Z 03004KT CAVOK M00/M03 Q1008 NOSIG
2026-04-02 04:20:00,METAR LIMC 020420Z 01004KT 340V040 CAVOK 03/M04 Q1008 NOSIG
2026-04-02 03:50:00,METAR LIMC 020350Z 03002KT CAVOK 00/M03 Q1008 NOSIG
2026-04-02 03:20:00,METAR LIMC 020320Z VRB02KT CAVOK 01/M04 Q1008 NOSIG
2026-04-02 02:50:00,METAR LIMC 020250Z 35004KT CAVOK 02/M04 Q1008 NOSIG
2026-04-02 02:20:00,METAR LIMC 020220Z 02004KT CAVOK 04/M04 Q1009 NOSIG
2026-04-02 01:50:00,METAR LIMC 020150Z 34004KT CAVOK 03/M04 Q1009 NOSIG
2026-04-02 01:20:00,METAR LIMC 020120Z 34004KT CAVOK 06/M04 Q1009 NOSIG
2026-04-02 00:50:00,METAR LIMC 020050Z 04004KT 340V080 CAVOK 10/M07 Q1010 NOSIG
2026-04-02 00:20:00,METAR LIMC 020020Z 05006KT CAVOK 10/M06 Q1010 NOSIG
2026-04-01 23:50:00,METAR LIMC 012350Z 03006KT 360V070 CAVOK 10/M06 Q1010 NOSIG
2026-04-01 23:20:00,METAR LIMC 012320Z 03005KT CAVOK 09/M06 Q1010 NOSIG
2026-04-01 22:50:00,METAR LIMC 012250Z 06004KT CAVOK 06/M04 Q1011 NOSIG
2026-04-01 22:20:00,METAR LIMC 012220Z VRB02KT CAVOK 06/M05 Q1011 NOSIG
2026-04-01 21:50:00,METAR LIMC 012150Z 02004KT 340V060 CAVOK 09/M06 Q1011 NOSIG
2026-04-01 21:20:00,METAR LIMC 012120Z 01003KT 350V050 CAVOK 08/M05 Q1011 NOSIG
2026-04-01 20:50:00,METAR LIMC 012050Z VRB01KT CAVOK 04/M04 Q1012 NOSIG
2026-04-01 20:20:00,METAR LIMC 012020Z VRB02KT CAVOK 06/M04 Q1012 NOSIG
2026-04-01 19:50:00,METAR LIMC 011950Z VRB02KT CAVOK 06/M04 Q1012 NOSIG
2026-04-01 19:20:00,METAR LIMC 011920Z VRB02KT CAVOK 08/M04 Q1012 NOSIG
2026-04-01 18:50:00,METAR LIMC 011850Z 24004KT 150V300 CAVOK 12/M06 Q1012 NOSIG
2026-04-01 18:20:00,METAR LIMC 011820Z 23005KT 200V280 CAVOK 12/M06 Q1011 NOSIG
2026-04-01 17:50:00,METAR LIMC 011750Z 23007KT 170V260 CAVOK 12/M06 Q1011 NOSIG
2026-04-01 17:20:00,METAR LIMC 011720Z 23009KT CAVOK 14/M07 Q1011 NOSIG
2026-04-01 16:50:00,METAR LIMC 011650Z 24009KT 210V310 CAVOK 15/M07 Q1011 NOSIG
2026-04-01 16:20:00,METAR LIMC 011620Z 21009KT 180V250 9999 SCT100 15/M07 Q1011 NOSIG
2026-04-01 15:50:00,METAR LIMC 011550Z 21007KT 9999 SCT100 15/M08 Q1011 NOSIG
2026-04-01 15:20:00,METAR LIMC 011520Z 14003KT 080V220 CAVOK 16/M08 Q1011 NOSIG
2026-04-01 14:50:00,METAR LIMC 011450Z 15005KT 120V190 9999 BKN100 15/M11 Q1012 NOSIG
2026-04-01 13:50:00,METAR LIMC 011350Z VRB02KT 9999 BKN100 15/M09 Q1012 NOSIG
2026-04-01 13:20:00,METAR LIMC 011320Z VRB03KT 9999 BKN100 15/M12 Q1013 NOSIG
2026-04-01 12:50:00,METAR LIMC 011250Z VRB05KT 9999 BKN080 15/M12 Q1013 NOSIG
2026-04-01 12:20:00,METAR LIMC 011220Z 02007KT 300V070 9999 BKN100 15/M12 Q1014 NOSIG
2026-04-01 11:50:00,METAR LIMC 011150Z 34006KT 300V030 CAVOK 15/M11 Q1014 NOSIG
2026-04-01 11:20:00,METAR LIMC 011120Z VRB06KT CAVOK 14/M13 Q1014 NOSIG
2026-04-01 10:50:00,METAR LIMC 011050Z 01006KT 300V090 CAVOK 14/M13 Q1015 NOSIG
2026-04-01 10:20:00,METAR LIMC 011020Z 02007KT 330V070 9999 BKN090 14/M12 Q1015 NOSIG
2026-04-01 09:50:00,METAR LIMC 010950Z 03008KT 320V080 9999 BKN090 13/M13 Q1015 NOSIG
2026-04-01 09:20:00,METAR LIMC 010920Z 02008KT 300V080 9999 BKN090 13/M12 Q1015 NOSIG
2026-04-01 08:50:00,METAR LIMC 010850Z 36008G20KT 310V080 CAVOK 12/M12 Q1015 NOSIG
2026-04-01 08:20:00,METAR LIMC 010820Z 35008KT 310V040 CAVOK 12/M11 Q1015 NOSIG
2026-04-01 07:50:00,METAR LIMC 010750Z 35009KT 320V030 CAVOK 11/M12 Q1015 NOSIG
2026-04-01 07:20:00,METAR LIMC 010720Z 36007KT 320V030 CAVOK 10/M11 Q1015 NOSIG
2026-04-01 06:50:00,METAR LIMC 010650Z 35009KT 320V040 CAVOK 09/M12 Q1015 NOSIG
2026-04-01 06:20:00,METAR LIMC 010620Z 35008KT 310V060 CAVOK 09/M12 Q1016 NOSIG
2026-04-01 05:50:00,METAR LIMC 010550Z 35008KT 320V050 CAVOK 09/M12 Q1015 NOSIG
2026-04-01 05:20:00,METAR LIMC 010520Z 35009KT 320V040 CAVOK 09/M12 Q1015 NOSIG
2026-04-01 04:50:00,METAR LIMC 010450Z 35009KT 320V020 CAVOK 08/M12 Q1015 NOSIG
2026-04-01 04:20:00,METAR LIMC 010420Z 35008KT 320V030 CAVOK 08/M12 Q1015 NOSIG
2026-04-01 03:50:00,METAR LIMC 010350Z 35008KT 330V030 CAVOK 08/M12 Q1016 NOSIG
2026-04-01 03:20:00,METAR LIMC 010320Z 35009KT 320V030 CAVOK 09/M12 Q1016 NOSIG
2026-04-01 02:50:00,METAR LIMC 010250Z 35008KT CAVOK 08/M12 Q1016 NOSIG
2026-04-01 02:20:00,METAR LIMC 010220Z 35008KT 320V030 CAVOK 09/M12 Q1016 NOSIG
2026-04-01 01:50:00,METAR LIMC 010150Z 36007KT 310V040 CAVOK 09/M13 Q1016 NOSIG
2026-04-01 01:20:00,METAR LIMC 010120Z 35008KT 320V030 CAVOK 09/M13 Q1017 NOSIG
2026-04-01 00:20:00,METAR LIMC 010020Z 35008KT 310V020 CAVOK 09/M13 Q1017 NOSIG
2026-03-31 23:50:00,METAR LIMC 312350Z 34009KT 310V010 CAVOK 09/M13 Q1017 NOSIG
2026-03-31 23:20:00,METAR LIMC 312320Z 35008KT 310V020 CAVOK 09/M13 Q1017 NOSIG
2026-03-31 22:50:00,METAR LIMC 312250Z 35008KT 320V030 CAVOK 09/M13 Q1017 NOSIG
2026-03-31 22:20:00,METAR LIMC 312220Z 34012G22KT 320V030 CAVOK 10/M13 Q1017 NOSIG
2026-03-31 21:50:00,METAR LIMC 312150Z 35012KT CAVOK 10/M13 Q1017 NOSIG
2026-03-31 21:20:00,METAR LIMC 312120Z 35013KT CAVOK 10/M13 Q1017 NOSIG
2026-03-31 20:50:00,METAR LIMC 312050Z 35013G23KT 320V030 CAVOK 10/M12 Q1017 NOSIG
2026-03-31 20:20:00,METAR LIMC 312020Z 35012G23KT CAVOK 10/M12 Q1017 NOSIG
2026-03-31 19:50:00,METAR LIMC 311950Z 34013G23KT 310V040 CAVOK 10/M12 Q1017 NOSIG
2026-03-31 19:20:00,METAR LIMC 311920Z 35012KT CAVOK 10/M12 Q1017 WS R35R NOSIG
2026-03-31 18:50:00,METAR LIMC 311850Z 35014KT 320V040 CAVOK 11/M13 Q1016 WS R35R NOSIG
2026-03-31 18:20:00,METAR LIMC 311820Z 35016G30KT 320V030 CAVOK 11/M13 Q1016 NOSIG
2026-03-31 17:50:00,METAR LIMC 311750Z 35016G31KT 320V040 CAVOK 12/M13 Q1016 WS R35R NOSIG
2026-03-31 17:20:00,METAR LIMC 311720Z 36016G28KT 320V030 CAVOK 12/M14 Q1015 WS R35R NOSIG
2026-03-31 16:50:00,METAR LIMC 311650Z 35015G28KT 320V040 CAVOK 13/M14 Q1015 WS R35R NOSIG
2026-03-31 16:20:00,METAR LIMC 311620Z 36014G28KT 330V050 CAVOK 13/M13 Q1015 WS R35R NOSIG
2026-03-31 15:50:00,METAR LIMC 311550Z 36015G31KT 320V050 CAVOK 14/M14 Q1015 WS R35R NOSIG
2026-03-31 15:20:00,METAR LIMC 311520Z 35018G34KT 330V040 CAVOK 14/M13 Q1015 WS R35R NOSIG
2026-03-31 14:50:00,METAR LIMC 311450Z 35015G28KT 320V060 CAVOK 14/M13 Q1015 NOSIG
2026-03-31 14:20:00,METAR LIMC 311420Z 35016G28KT 320V050 CAVOK 15/M12 Q1015 NOSIG
2026-03-31 13:50:00,METAR LIMC 311350Z 36017G30KT 320V050 CAVOK 14/M13 Q1015 WS R35R NOSIG
2026-03-31 13:20:00,METAR LIMC 311320Z 36014G27KT 320V050 CAVOK 15/M13 Q1015 WS R35R NOSIG
2026-03-31 12:50:00,METAR LIMC 311250Z 34018G31KT 320V020 CAVOK 14/M10 Q1015 NOSIG
2026-03-31 12:20:00,METAR LIMC 311220Z 34019G31KT CAVOK 15/M10 Q1015 WS R35R NOSIG
2026-03-31 11:50:00,METAR LIMC 311150Z 34016KT 320V020 CAVOK 15/M10 Q1016 WS R35R NOSIG
2026-03-31 11:20:00,METAR LIMC 311120Z 34017KT 320V030 CAVOK 15/M11 Q1016 NOSIG
2026-03-31 10:50:00,METAR LIMC 311050Z 35013G24KT 320V040 CAVOK 14/M12 Q1016 NOSIG
2026-03-31 10:20:00,METAR LIMC 311020Z 34022G35KT CAVOK 13/M12 Q1016 NOSIG
2026-03-31 09:50:00,METAR LIMC 310950Z 35014G26KT 320V040 CAVOK 14/M10 Q1016 NOSIG
2026-03-31 09:20:00,METAR LIMC 310920Z 35015KT 320V040 CAVOK 13/M09 Q1016 NOSIG
2026-03-31 08:50:00,METAR LIMC 310850Z 34017G29KT 310V020 CAVOK 13/M09 Q1016 NOSIG
2026-03-31 08:20:00,METAR LIMC 310820Z 35012G22KT 320V040 CAVOK 12/M09 Q1016 NOSIG
2026-03-31 07:50:00,METAR LIMC 310750Z 36009G19KT 310V050 CAVOK 12/M07 Q1016 NOSIG
2026-03-31 07:20:00,METAR LIMC 310720Z 35010KT 310V030 CAVOK 11/M06 Q1016 NOSIG
2026-03-31 06:50:00,METAR LIMC 310650Z 34013KT CAVOK 09/M04 Q1016 NOSIG
2026-03-31 06:20:00,METAR LIMC 310620Z 35010KT 320V030 CAVOK 09/M03 Q1016 NOSIG
2026-03-31 05:50:00,METAR LIMC 310550Z 36008KT 330V030 CAVOK 08/M04 Q1015 NOSIG
2026-03-31 05:20:00,METAR LIMC 310520Z 36007KT 320V040 CAVOK 08/M04 Q1015 NOSIG
2026-03-31 04:50:00,METAR LIMC 310450Z 34008KT 320V020 CAVOK 07/M03 Q1015 NOSIG
2026-03-31 04:20:00,METAR LIMC 310420Z 36004KT 320V050 CAVOK 07/M03 Q1014 NOSIG
2026-03-31 03:50:00,METAR LIMC 310350Z 02006KT 330V060 CAVOK 08/M03 Q1014 NOSIG
2026-03-31 03:20:00,METAR LIMC 310320Z 34004KT 310V030 CAVOK 07/M03 Q1014 NOSIG
2026-03-31 02:50:00,METAR LIMC 310250Z 02004KT 300V070 CAVOK 07/M03 Q1014 NOSIG
2026-03-31 02:20:00,METAR LIMC 310220Z 36004KT 320V060 CAVOK 08/M03 Q1014 NOSIG
2026-03-31 01:50:00,METAR LIMC 310150Z 33008KT CAVOK 06/M02 Q1014 NOSIG
2026-03-31 01:20:00,METAR LIMC 310120Z 34009KT CAVOK 07/M02 Q1014 NOSIG
2026-03-31 00:50:00,METAR LIMC 310050Z 35007KT 320V020 CAVOK 08/M04 Q1014 NOSIG
2026-03-31 00:20:00,METAR LIMC 310020Z 35008KT 320V040 CAVOK 08/M03 Q1014 NOSIG
2026-03-30 23:50:00,METAR LIMC 302350Z 35008KT 310V040 CAVOK 09/M02 Q1014 NOSIG
2026-03-30 23:20:00,METAR LIMC 302320Z 34007KT 320V030 CAVOK 08/M02 Q1014 NOSIG
2026-03-30 22:50:00,METAR LIMC 302250Z 34011KT CAVOK 08/M02 Q1014 NOSIG
2026-03-30 22:20:00,METAR LIMC 302220Z 34011KT CAVOK 09/M02 Q1013 NOSIG
2026-03-30 21:50:00,METAR LIMC 302150Z 35010KT 330V030 CAVOK 10/M02 Q1013 NOSIG
2026-03-30 21:20:00,METAR LIMC 302120Z 35009KT 310V030 CAVOK 10/M03 Q1013 NOSIG
2026-03-30 20:50:00,METAR LIMC 302050Z 36009KT 320V050 CAVOK 10/M02 Q1013 NOSIG
2026-03-30 20:20:00,METAR LIMC 302020Z 35007KT 320V020 CAVOK 10/M03 Q1012 NOSIG
2026-03-30 19:50:00,METAR LIMC 301950Z 35008KT CAVOK 10/M03 Q1012 NOSIG
2026-03-30 19:20:00,METAR LIMC 301920Z 36007KT 320V050 CAVOK 11/M04 Q1012 NOSIG
2026-03-30 18:50:00,METAR LIMC 301850Z 36009KT 320V030 CAVOK 12/M05 Q1012 NOSIG
2026-03-30 18:20:00,METAR LIMC 301820Z 36009KT 330V050 CAVOK 12/M05 Q1011 NOSIG
2026-03-30 17:50:00,METAR LIMC 301750Z 36009G21KT 330V050 CAVOK 13/M07 Q1011 NOSIG
2026-03-30 17:20:00,METAR LIMC 301720Z 36010KT 320V050 CAVOK 14/M07 Q1011 NOSIG
2026-03-30 16:50:00,METAR LIMC 301650Z 01010KT 320V040 CAVOK 15/M08 Q1010 NOSIG
2026-03-30 16:20:00,METAR LIMC 301620Z 01009G19KT 310V070 CAVOK 16/M10 Q1010 NOSIG
2026-03-30 15:50:00,METAR LIMC 301550Z 03011KT 330V070 CAVOK 17/M10 Q1010 NOSIG
2026-03-30 15:20:00,METAR LIMC 301520Z 02009KT 330V070 CAVOK 17/M10 Q1009 NOSIG
2026-03-30 14:50:00,METAR LIMC 301450Z 36008KT 320V050 CAVOK 18/M11 Q1009 NOSIG
2026-03-30 14:20:00,METAR LIMC 301420Z 03008KT 320V060 9999 FEW090 19/M10 Q1009 NOSIG
2026-03-30 13:50:00,METAR LIMC 301350Z VRB07KT 9999 SCT090 17/M08 Q1010 NOSIG
2026-03-30 13:20:00,METAR LIMC 301320Z 02007KT 330V100 9999 SCT090 17/M06 Q1010 NOSIG
2026-03-30 12:50:00,METAR LIMC 301250Z VRB04KT 9999 FEW090 18/M02 Q1010 BECMG 01015KT
2026-03-30 12:20:00,METAR LIMC 301220Z 19005KT 120V270 9999 FEW090 18/M02 Q1011 BECMG 01015KT
2026-03-30 11:50:00,METAR LIMC 301150Z VRB05KT CAVOK 18/M02 Q1011 BECMG 01015KT
2026-03-30 11:20:00,METAR LIMC 301120Z VRB05KT CAVOK 17/M03 Q1012 NOSIG
2026-03-30 10:50:00,METAR LIMC 301050Z 22006KT 180V270 CAVOK 16/M03 Q1013 NOSIG
2026-03-30 10:20:00,METAR LIMC 301020Z 21006KT 190V250 CAVOK 15/M03 Q1014 NOSIG
2026-03-30 09:50:00,METAR LIMC 300950Z VRB02KT CAVOK 16/M04 Q1014 NOSIG
2026-03-30 09:20:00,METAR LIMC 300920Z 26004KT 210V320 CAVOK 15/M04 Q1015 NOSIG
2026-03-30 08:50:00,METAR LIMC 300850Z 26004KT 230V300 CAVOK 14/M04 Q1015 NOSIG
2026-03-30 08:20:00,METAR LIMC 300820Z 24003KT 180V280 CAVOK 13/M01 Q1015 NOSIG
2026-03-30 07:50:00,METAR LIMC 300750Z 29003KT 240V330 CAVOK 12/M04 Q1015 NOSIG
2026-03-30 07:20:00,METAR LIMC 300720Z VRB02KT CAVOK 11/M03 Q1015 NOSIG
2026-03-30 06:50:00,METAR LIMC 300650Z 32003KT 270V350 CAVOK 09/M01 Q1016 NOSIG
2026-03-30 06:20:00,METAR LIMC 300620Z 34002KT CAVOK 05/M01 Q1016 NOSIG
2026-03-30 05:50:00,METAR LIMC 300550Z 35003KT 310V040 CAVOK 03/M03 Q1016 NOSIG
2026-03-30 05:20:00,METAR LIMC 300520Z 32004KT 270V040 CAVOK 06/M03 Q1016 NOSIG
2026-03-30 04:50:00,METAR LIMC 300450Z VRB02KT CAVOK 05/M03 Q1016 NOSIG
2026-03-30 04:20:00,METAR LIMC 300420Z VRB01KT CAVOK 03/M02 Q1017 NOSIG
2026-03-30 03:50:00,METAR LIMC 300350Z 33003KT CAVOK 03/M02 Q1017 NOSIG
2026-03-30 03:20:00,METAR LIMC 300320Z 34003KT 310V020 CAVOK 04/M03 Q1018 NOSIG
2026-03-30 02:50:00,METAR LIMC 300250Z VRB02KT CAVOK 05/M02 Q1018 NOSIG
2026-03-30 02:20:00,METAR LIMC 300220Z 34004KT 310V020 CAVOK 05/M04 Q1018 NOSIG
2026-03-30 01:50:00,METAR LIMC 300150Z 35004KT CAVOK 07/M04 Q1019 NOSIG
2026-03-30 01:20:00,METAR LIMC 300120Z 35004KT 320V030 CAVOK 08/M04 Q1018 NOSIG
2026-03-30 00:50:00,METAR LIMC 300050Z 36004KT 320V040 CAVOK 07/M05 Q1019 NOSIG
2026-03-30 00:20:00,METAR LIMC 300020Z 34005KT CAVOK 07/M04 Q1019 NOSIG
2026-03-29 23:50:00,METAR LIMC 292350Z 36003KT 330V030 CAVOK 06/M04 Q1020 NOSIG
2026-03-29 23:20:00,METAR LIMC 292320Z 01004KT 330V060 CAVOK 08/M06 Q1020 NOSIG
2026-03-29 22:50:00,METAR LIMC 292250Z 36003KT CAVOK 07/M05 Q1020 NOSIG
2026-03-29 22:20:00,METAR LIMC 292220Z 36004KT 330V050 CAVOK 09/M06 Q1020 NOSIG
2026-03-29 21:50:00,METAR LIMC 292150Z 34005KT CAVOK 08/M06 Q1019 NOSIG
2026-03-29 21:20:00,METAR LIMC 292120Z 01004KT 330V040 CAVOK 10/M06 Q1020 NOSIG
2026-03-29 20:50:00,METAR LIMC 292050Z 35005KT 320V020 CAVOK 09/M06 Q1019 NOSIG
2026-03-29 20:20:00,METAR LIMC 292020Z 35006KT CAVOK 11/M07 Q1019 NOSIG
2026-03-29 19:50:00,METAR LIMC 291950Z 34006KT CAVOK 12/M07 Q1019 NOSIG
2026-03-29 19:20:00,METAR LIMC 291920Z 35005KT CAVOK 12/M07 Q1019 NOSIG
2026-03-29 18:50:00,METAR LIMC 291850Z 35005KT 330V040 CAVOK 13/M07 Q1018 NOSIG
2026-03-29 18:20:00,METAR LIMC 291820Z 35006KT 330V040 CAVOK 14/M08 Q1018 NOSIG
2026-03-29 17:50:00,METAR LIMC 291750Z 01007KT 320V060 CAVOK 15/M08 Q1017 NOSIG
2026-03-29 17:20:00,METAR LIMC 291720Z 01008KT 330V060 CAVOK 16/M08 Q1017 NOSIG
2026-03-29 16:50:00,METAR LIMC 291650Z 36007KT 320V070 CAVOK 17/M08 Q1016 NOSIG
2026-03-29 16:20:00,METAR LIMC 291620Z 02007KT 330V070 CAVOK 17/M09 Q1016 NOSIG
2026-03-29 15:20:00,METAR LIMC 291520Z 35009KT 320V030 CAVOK 18/M09 Q1016 NOSIG
2026-03-29 14:50:00,METAR LIMC 291450Z 35009KT 310V030 CAVOK 17/M09 Q1016 NOSIG
2026-03-29 14:20:00,METAR LIMC 291420Z 34012KT 310V020 CAVOK 18/M08 Q1016 NOSIG
2026-03-29 13:50:00,METAR LIMC 291350Z 34013KT CAVOK 17/M08 Q1016 NOSIG
2026-03-29 13:20:00,METAR LIMC 291320Z 34012G22KT 320V020 CAVOK 17/M10 Q1016 NOSIG
2026-03-29 12:50:00,METAR LIMC 291250Z 34013KT 290V050 CAVOK 17/M08 Q1016 NOSIG
2026-03-29 12:20:00,METAR LIMC 291220Z 02008KT 340V100 CAVOK 17/M09 Q1016 NOSIG
2026-03-29 11:50:00,METAR LIMC 291150Z 02011KT 330V060 CAVOK 17/M10 Q1016 NOSIG
2026-03-29 11:20:00,METAR LIMC 291120Z 01009KT 320V060 CAVOK 16/M10 Q1016 NOSIG
2026-03-29 10:50:00,METAR LIMC 291050Z 03011G21KT 340V070 CAVOK 15/M10 Q1016 NOSIG
2026-03-29 10:20:00,METAR LIMC 291020Z 36011KT 320V040 CAVOK 16/M09 Q1016 NOSIG
2026-03-29 09:50:00,METAR LIMC 290950Z 36011G21KT 320V050 CAVOK 16/M09 Q1015 WS R35R NOSIG
2026-03-29 09:20:00,METAR LIMC 290920Z 35011G23KT 320V060 CAVOK 16/M10 Q1015 WS R35R NOSIG
2026-03-29 08:50:00,METAR LIMC 290850Z 35012KT 310V040 CAVOK 15/M09 Q1015 NOSIG
2026-03-29 08:20:00,METAR LIMC 290820Z 35014KT 330V030 CAVOK 14/M09 Q1015 NOSIG
2026-03-29 07:50:00,METAR LIMC 290750Z 34014KT 320V020 CAVOK 14/M09 Q1014 NOSIG
2026-03-29 07:20:00,METAR LIMC 290720Z 34012G22KT 320V020 CAVOK 13/M09 Q1014 NOSIG
2026-03-29 06:50:00,METAR LIMC 290650Z 34010KT 300V020 CAVOK 13/M09 Q1014 NOSIG
2026-03-29 06:20:00,METAR LIMC 290620Z 35010KT 320V020 CAVOK 12/M09 Q1013 NOSIG
2026-03-29 05:50:00,METAR LIMC 290550Z 34010KT CAVOK 12/M09 Q1013 NOSIG
2026-03-29 05:20:00,METAR LIMC 290520Z 35009KT 320V030 CAVOK 12/M09 Q1012 NOSIG
2026-03-29 04:50:00,METAR LIMC 290450Z 35008KT 320V030 CAVOK 12/M09 Q1012 NOSIG
2026-03-29 04:20:00,METAR LIMC 290420Z 35008KT 320V020 CAVOK 12/M08 Q1012 NOSIG
2026-03-29 03:50:00,METAR LIMC 290350Z 35008KT 320V030 CAVOK 12/M08 Q1011 NOSIG
2026-03-29 03:20:00,METAR LIMC 290320Z 35008KT 320V030 CAVOK 13/M08 Q1011 NOSIG
2026-03-29 02:50:00,METAR LIMC 290250Z 35008KT 320V030 CAVOK 13/M08 Q1011 NOSIG
2026-03-29 02:20:00,METAR LIMC 290220Z 35007KT 330V060 CAVOK 13/M07 Q1011 NOSIG
2026-03-29 01:50:00,METAR LIMC 290150Z 34008KT 320V020 CAVOK 13/M07 Q1011 NOSIG
2026-03-29 01:20:00,METAR LIMC 290120Z 35008KT 320V030 CAVOK 13/M07 Q1011 NOSIG
2026-03-29 00:50:00,METAR LIMC 290050Z 35008KT CAVOK 13/M07 Q1010 NOSIG
2026-03-29 00:20:00,METAR LIMC 290020Z 35008G18KT 320V100 CAVOK 14/M07 Q1010 NOSIG
2026-03-28 23:50:00,METAR LIMC 282350Z 35011KT 320V020 CAVOK 14/M07 Q1010 NOSIG
2026-03-28 23:20:00,METAR LIMC 282320Z 36007KT 300V040 CAVOK 14/M06 Q1010 NOSIG
2026-03-28 22:50:00,METAR LIMC 282250Z 36009KT 320V110 CAVOK 14/M06 Q1010 NOSIG
2026-03-28 22:20:00,METAR LIMC 282220Z 36008KT 320V050 CAVOK 15/M06 Q1010 NOSIG
2026-03-28 21:50:00,METAR LIMC 282150Z 35012KT 330V030 CAVOK 15/M06 Q1009 NOSIG
2026-03-28 21:20:00,METAR LIMC 282120Z 35010KT 320V030 CAVOK 15/M06 Q1009 NOSIG
2026-03-28 20:50:00,METAR LIMC 282050Z 34014KT CAVOK 15/M06 Q1009 NOSIG
2026-03-28 20:20:00,METAR LIMC 282020Z 34013KT CAVOK 15/M06 Q1009 NOSIG
2026-03-28 19:50:00,METAR LIMC 281950Z 33010KT CAVOK 14/M04 Q1009 NOSIG
2026-03-28 19:20:00,METAR LIMC 281920Z 32005KT 290V360 CAVOK 13/M03 Q1009 BECMG 01015KT
2026-03-28 18:50:00,METAR LIMC 281850Z 01003KT 320V060 CAVOK 11/02 Q1009 BECMG 01015KT
2026-03-28 18:20:00,METAR LIMC 281820Z 22003KT 100V260 CAVOK 15/M03 Q1009 BECMG 01015KT
2026-03-28 17:50:00,METAR LIMC 281750Z 22004KT 190V250 CAVOK 15/M03 Q1009 NOSIG
2026-03-28 17:20:00,METAR LIMC 281720Z 22004KT 200V270 CAVOK 15/M03 Q1009 BECMG 01015KT
2026-03-28 16:50:00,METAR LIMC 281650Z 21005KT CAVOK 15/M03 Q1009 BECMG 01015KT
2026-03-28 16:20:00,METAR LIMC 281620Z 23008KT 210V270 CAVOK 15/M03 Q1008 BECMG 01015KT
2026-03-28 15:50:00,METAR LIMC 281550Z 22007KT 190V270 CAVOK 16/M03 Q1009 NOSIG
2026-03-28 15:20:00,METAR LIMC 281520Z 22006KT CAVOK 16/M04 Q1009 NOSIG
2026-03-28 14:50:00,METAR LIMC 281450Z 24008KT CAVOK 16/M03 Q1009 NOSIG
2026-03-28 14:20:00,METAR LIMC 281420Z 24006KT 200V270 CAVOK 16/M04 Q1009 NOSIG
2026-03-28 13:50:00,METAR LIMC 281350Z 24007KT 190V290 CAVOK 16/M05 Q1009 NOSIG
2026-03-28 13:20:00,METAR LIMC 281320Z 22007KT 190V260 CAVOK 16/M05 Q1010 NOSIG
2026-03-28 12:50:00,METAR LIMC 281250Z 27006KT 220V310 CAVOK 16/M06 Q1010 NOSIG
2026-03-28 12:20:00,METAR LIMC 281220Z 25007KT 210V280 CAVOK 16/M05 Q1011 NOSIG
2026-03-28 11:50:00,METAR LIMC 281150Z 22007KT 160V280 CAVOK 15/M05 Q1011 NOSIG
2026-03-28 11:20:00,METAR LIMC 281120Z 23006KT 190V260 CAVOK 15/M05 Q1011 NOSIG
2026-03-28 10:50:00,METAR LIMC 281050Z 21005KT 110V260 CAVOK 14/M06 Q1012 NOSIG
2026-03-28 10:20:00,METAR LIMC 281020Z VRB02KT CAVOK 14/M05 Q1012 NOSIG
2026-03-28 09:50:00,METAR LIMC 280950Z 28004KT 210V330 CAVOK 13/M06 Q1012 NOSIG
2026-03-28 09:20:00,METAR LIMC 280920Z 26004KT 210V320 CAVOK 13/M05 Q1013 NOSIG
2026-03-28 08:50:00,METAR LIMC 280850Z VRB03KT CAVOK 13/M06 Q1013 NOSIG
2026-03-28 08:20:00,METAR LIMC 280820Z VRB02KT CAVOK 12/M06 Q1013 NOSIG
2026-03-28 07:50:00,METAR LIMC 280750Z VRB02KT CAVOK 11/M06 Q1013 NOSIG
2026-03-28 07:20:00,METAR LIMC 280720Z 33003KT 280V020 CAVOK 09/M06 Q1013 NOSIG
2026-03-28 06:50:00,METAR LIMC 280650Z VRB02KT CAVOK 06/M02 Q1013 NOSIG
2026-03-28 06:20:00,METAR LIMC 280620Z VRB02KT CAVOK 01/M03 Q1012 NOSIG
2026-03-28 05:50:00,METAR LIMC 280550Z VRB01KT CAVOK 01/M05 Q1012 NOSIG
2026-03-28 05:20:00,METAR LIMC 280520Z VRB02KT CAVOK 02/M06 Q1012 NOSIG
2026-03-28 04:50:00,METAR LIMC 280450Z 35003KT 330V030 CAVOK 01/M05 Q1012 NOSIG
2026-03-28 04:20:00,METAR LIMC 280420Z 34004KT CAVOK 02/M06 Q1012 NOSIG
2026-03-28 03:50:00,METAR LIMC 280350Z 33004KT CAVOK 04/M06 Q1012 NOSIG
2026-03-28 03:20:00,METAR LIMC 280320Z 36003KT 330V050 CAVOK 03/M05 Q1012 NOSIG
2026-03-28 02:50:00,METAR LIMC 280250Z 34004KT 310V030 CAVOK 02/M05 Q1012 NOSIG
2026-03-28 02:20:00,METAR LIMC 280220Z 35004KT 320V030 CAVOK 05/M06 Q1012 NOSIG
2026-03-28 01:50:00,METAR LIMC 280150Z 03004KT 350V070 CAVOK 08/M06 Q1012 NOSIG
2026-03-28 01:20:00,METAR LIMC 280120Z 04003KT 010V070 CAVOK 03/M06 Q1012 NOSIG
2026-03-28 00:50:00,METAR LIMC 280050Z 01003KT 330V040 CAVOK 05/M06 Q1012 NOSIG
2026-03-28 00:20:00,METAR LIMC 280020Z 35003KT 310V040 CAVOK 04/M06 Q1012 NOSIG
2026-03-27 23:50:00,METAR LIMC 272350Z 36003KT 330V040 CAVOK 04/M06 Q1012 NOSIG
2026-03-27 23:20:00,METAR LIMC 272320Z 01003KT 320V070 CAVOK 07/M07 Q1012 NOSIG
2026-03-27 22:50:00,METAR LIMC 272250Z 03004KT 350V060 CAVOK 08/M07 Q1012 NOSIG
2026-03-27 22:20:00,METAR LIMC 272220Z 02003KT CAVOK 06/M07 Q1012 NOSIG
2026-03-27 21:50:00,METAR LIMC 272150Z VRB02KT CAVOK 05/M05 Q1011 NOSIG
2026-03-27 21:20:00,METAR LIMC 272120Z 36004KT 330V040 CAVOK 08/M07 Q1011 NOSIG
2026-03-27 20:50:00,METAR LIMC 272050Z 35004KT 320V020 CAVOK 07/M06 Q1011 NOSIG
2026-03-27 20:20:00,METAR LIMC 272020Z 01004KT 340V040 CAVOK 09/M07 Q1011 NOSIG
2026-03-27 19:50:00,METAR LIMC 271950Z 36004KT CAVOK 09/M07 Q1011 NOSIG
2026-03-27 19:20:00,METAR LIMC 271920Z 01003KT 330V050 CAVOK 10/M07 Q1011 NOSIG
2026-03-27 18:50:00,METAR LIMC 271850Z 35003KT CAVOK 09/M06 Q1010 NOSIG
2026-03-27 18:20:00,METAR LIMC 271820Z VRB02KT CAVOK 12/M08 Q1010 NOSIG
2026-03-27 17:50:00,METAR LIMC 271750Z 03004KT 340V070 CAVOK 13/M09 Q1010 NOSIG
2026-03-27 17:20:00,METAR LIMC 271720Z 02005KT 290V070 CAVOK 14/M08 Q1009 NOSIG
2026-03-27 16:50:00,METAR LIMC 271650Z 36006KT 310V050 CAVOK 15/M09 Q1009 NOSIG
2026-03-27 16:20:00,METAR LIMC 271620Z 34008KT 320V030 CAVOK 15/M10 Q1009 NOSIG
2026-03-25 14:50:00,METAR LIMC 251450Z 19006KT 150V230 9999 BKN050 17/06 Q1002 NOSIG
2026-03-25 14:20:00,METAR LIMC 251420Z 17005KT 110V280 9999 SCT045 16/07 Q1003 NOSIG
2026-03-25 13:50:00,METAR LIMC 251350Z 18006KT 140V230 9999 SCT045 17/06 Q1004 NOSIG
2026-03-25 13:20:00,METAR LIMC 251320Z VRB06KT 9999 SCT045 16/05 Q1005 NOSIG
2026-03-25 12:50:00,METAR LIMC 251250Z 20005KT 140V260 CAVOK 16/03 Q1006 NOSIG
2026-03-25 12:20:00,METAR LIMC 251220Z 20006KT 150V240 CAVOK 17/01 Q1007 NOSIG
2026-03-25 11:50:00,METAR LIMC 251150Z 16005KT 110V200 CAVOK 16/03 Q1007 NOSIG
2026-03-25 11:20:00,METAR LIMC 251120Z VRB04KT CAVOK 16/02 Q1008 NOSIG
2026-03-25 10:50:00,METAR LIMC 251050Z 14003KT 060V210 CAVOK 16/02 Q1009 NOSIG
2026-03-25 10:20:00,METAR LIMC 251020Z 16004KT 120V200 CAVOK 15/03 Q1010 NOSIG
2026-03-25 09:50:00,METAR LIMC 250950Z 17003KT 080V240 CAVOK 15/05 Q1010 NOSIG
2026-03-25 09:20:00,METAR LIMC 250920Z 13004KT 090V170 CAVOK 14/03 Q1011 NOSIG
2026-03-25 08:50:00,METAR LIMC 250850Z 13004KT 070V190 CAVOK 14/04 Q1012 NOSIG
2026-03-25 08:20:00,METAR LIMC 250820Z VRB02KT CAVOK 14/03 Q1012 NOSIG
2026-03-25 07:50:00,METAR LIMC 250750Z VRB02KT CAVOK 13/03 Q1012 NOSIG
2026-03-25 07:20:00,METAR LIMC 250720Z 34003KT 310V020 CAVOK 11/03 Q1013 NOSIG
2026-03-25 06:50:00,METAR LIMC 250650Z 34003KT 320V020 CAVOK 07/04 Q1013 NOSIG
2026-03-25 06:20:00,METAR LIMC 250620Z VRB01KT CAVOK 04/02 Q1014 NOSIG
2026-03-25 05:50:00,METAR LIMC 250550Z 35003KT CAVOK 02/01 Q1014 NOSIG
2026-03-25 05:20:00,METAR LIMC 250520Z VRB02KT CAVOK 03/01 Q1014 NOSIG
2026-03-25 04:50:00,METAR LIMC 250450Z 01003KT 290V030 CAVOK 04/02 Q1014 NOSIG
2026-03-25 04:20:00,METAR LIMC 250420Z 34006KT CAVOK 04/02 Q1014 NOSIG
2026-03-25 03:50:00,METAR LIMC 250350Z VRB01KT CAVOK 03/02 Q1014 NOSIG
2026-03-25 03:20:00,METAR LIMC 250320Z 36004KT 340V040 CAVOK 04/02 Q1015 NOSIG
2026-03-25 02:50:00,METAR LIMC 250250Z 34004KT CAVOK 03/01 Q1015 NOSIG
2026-03-25 02:20:00,METAR LIMC 250220Z VRB02KT CAVOK 03/02 Q1016 NOSIG
2026-03-25 01:50:00,METAR LIMC 250150Z 35003KT CAVOK 03/02 Q1016 NOSIG
2026-03-25 01:20:00,METAR LIMC 250120Z 07002KT CAVOK 03/02 Q1017 NOSIG
2026-03-25 00:50:00,METAR LIMC 250050Z VRB01KT CAVOK 03/02 Q1017 NOSIG
2026-03-25 00:20:00,METAR LIMC 250020Z 34006KT CAVOK 04/02 Q1018 NOSIG
2026-03-24 23:50:00,METAR LIMC 242350Z 04001KT CAVOK 04/02 Q1017 NOSIG
2026-03-24 23:20:00,METAR LIMC 242320Z VRB02KT CAVOK 04/02 Q1018 NOSIG
2026-03-24 22:50:00,METAR LIMC 242250Z VRB01KT CAVOK 05/03 Q1018 NOSIG
2026-03-24 22:20:00,METAR LIMC 242220Z VRB01KT CAVOK 05/02 Q1018 NOSIG
2026-03-24 21:50:00,METAR LIMC 242150Z VRB02KT CAVOK 05/02 Q1018 NOSIG
2026-03-24 21:20:00,METAR LIMC 242120Z VRB02KT CAVOK 06/03 Q1018 NOSIG
2026-03-24 20:50:00,METAR LIMC 242050Z VRB02KT CAVOK 06/02 Q1018 NOSIG
2026-03-24 20:20:00,METAR LIMC 242020Z 04001KT CAVOK 07/02 Q1018 NOSIG
2026-03-24 19:50:00,METAR LIMC 241950Z VRB01KT CAVOK 07/02 Q1018 NOSIG
2026-03-24 19:20:00,METAR LIMC 241920Z VRB01KT CAVOK 08/02 Q1018 NOSIG
2026-03-24 18:50:00,METAR LIMC 241850Z VRB01KT CAVOK 10/03 Q1018 NOSIG
2026-03-24 18:20:00,METAR LIMC 241820Z VRB03KT CAVOK 14/02 Q1018 NOSIG
2026-03-24 17:50:00,METAR LIMC 241750Z 20005KT 120V240 CAVOK 15/01 Q1018 NOSIG
2026-03-24 17:20:00,METAR LIMC 241720Z 19005KT 160V220 CAVOK 15/M00 Q1018 NOSIG
2026-03-24 16:50:00,METAR LIMC 241650Z 20004KT 160V230 CAVOK 16/M00 Q1018 NOSIG
2026-03-24 16:20:00,METAR LIMC 241620Z 20005KT 160V270 CAVOK 17/M00 Q1018 NOSIG
2026-03-24 15:50:00,METAR LIMC 241550Z 21006KT 180V240 CAVOK 17/M00 Q1018 NOSIG
2026-03-24 15:20:00,METAR LIMC 241520Z 20006KT 140V230 CAVOK 17/M00 Q1019 NOSIG
2026-03-24 14:50:00,METAR LIMC 241450Z 20005KT 120V260 CAVOK 17/00 Q1019 NOSIG
2026-03-24 14:20:00,METAR LIMC 241420Z 15005KT 110V190 CAVOK 17/01 Q1019 NOSIG
2026-03-24 13:50:00,METAR LIMC 241350Z 21006KT 140V260 CAVOK 17/01 Q1019 NOSIG
2026-03-24 13:20:00,METAR LIMC 241320Z VRB04KT CAVOK 17/01 Q1020 NOSIG
2026-03-24 12:50:00,METAR LIMC 241250Z 12004KT 060V180 CAVOK 17/00 Q1020 NOSIG
2026-03-24 12:20:00,METAR LIMC 241220Z VRB02KT CAVOK 17/M00 Q1020 NOSIG
2026-03-24 11:50:00,METAR LIMC 241150Z VRB04KT CAVOK 16/01 Q1021 NOSIG
2026-03-24 11:20:00,METAR LIMC 241120Z VRB04KT CAVOK 16/02 Q1021 NOSIG
2026-03-24 10:50:00,METAR LIMC 241050Z VRB03KT CAVOK 16/03 Q1021 NOSIG
2026-03-24 10:20:00,METAR LIMC 241020Z VRB03KT CAVOK 15/04 Q1021 NOSIG
2026-03-24 09:50:00,METAR LIMC 240950Z VRB03KT CAVOK 15/03 Q1022 NOSIG
2026-03-24 09:20:00,METAR LIMC 240920Z 11003KT 030V160 CAVOK 14/02 Q1022 NOSIG
2026-03-24 08:50:00,METAR LIMC 240850Z 12004KT 080V160 CAVOK 13/03 Q1022 NOSIG
2026-03-24 08:20:00,METAR LIMC 240820Z 09004KT 050V130 CAVOK 13/03 Q1022 NOSIG
2026-03-24 07:50:00,METAR LIMC 240750Z 10003KT 050V140 CAVOK 12/03 Q1022 NOSIG
2026-03-24 07:20:00,METAR LIMC 240720Z 05003KT 020V080 CAVOK 10/02 Q1021 NOSIG
2026-03-24 06:50:00,METAR LIMC 240650Z VRB02KT CAVOK 05/03 Q1021 NOSIG
2026-03-24 06:20:00,METAR LIMC 240620Z 36003KT CAVOK 04/01 Q1021 NOSIG
2026-03-24 05:50:00,METAR LIMC 240550Z 36003KT CAVOK 01/00 Q1020 NOSIG
2026-03-24 05:20:00,METAR LIMC 240520Z VRB02KT CAVOK 01/01 Q1020 NOSIG
2026-03-24 04:50:00,METAR LIMC 240450Z VRB02KT CAVOK 02/00 Q1020 NOSIG
2026-03-24 04:20:00,METAR LIMC 240420Z 36003KT 330V030 CAVOK 02/01 Q1020 NOSIG
2026-03-24 03:50:00,METAR LIMC 240350Z VRB01KT CAVOK 02/01 Q1019 NOSIG
2026-03-24 03:20:00,METAR LIMC 240320Z 35003KT 320V030 CAVOK 02/01 Q1019 NOSIG
2026-03-24 02:50:00,METAR LIMC 240250Z VRB02KT CAVOK 02/01 Q1019 NOSIG
2026-03-24 02:20:00,METAR LIMC 240220Z VRB01KT CAVOK 01/00 Q1019 NOSIG
2026-03-24 01:50:00,METAR LIMC 240150Z VRB01KT CAVOK 02/00 Q1019 NOSIG
2026-03-24 01:20:00,METAR LIMC 240120Z VRB02KT CAVOK 02/01 Q1019 NOSIG
2026-03-24 00:50:00,METAR LIMC 240050Z VRB02KT CAVOK 02/01 Q1019 NOSIG
2026-03-24 00:20:00,METAR LIMC 240020Z VRB01KT CAVOK 03/02 Q1019 NOSIG
2026-03-23 23:50:00,METAR LIMC 232350Z VRB02KT CAVOK 03/01 Q1019 NOSIG
2026-03-23 23:20:00,METAR LIMC 232320Z VRB02KT CAVOK 04/02 Q1019 NOSIG
2026-03-23 22:50:00,METAR LIMC 232250Z VRB02KT CAVOK 03/01 Q1019 NOSIG
2026-03-23 22:20:00,METAR LIMC 232220Z VRB02KT CAVOK 03/02 Q1019 NOSIG
2026-03-23 21:50:00,METAR LIMC 232150Z VRB02KT CAVOK 04/01 Q1019 NOSIG
2026-03-23 21:20:00,METAR LIMC 232120Z VRB01KT CAVOK 05/01 Q1019 NOSIG
2026-03-23 20:50:00,METAR LIMC 232050Z VRB01KT CAVOK 06/02 Q1018 NOSIG
2026-03-23 20:20:00,METAR LIMC 232020Z VRB01KT CAVOK 06/02 Q1018 NOSIG
2026-03-23 19:50:00,METAR LIMC 231950Z VRB02KT CAVOK 08/03 Q1018 NOSIG
2026-03-23 19:20:00,METAR LIMC 231920Z VRB02KT CAVOK 08/02 Q1017 NOSIG
2026-03-23 18:50:00,METAR LIMC 231850Z VRB02KT CAVOK 10/01 Q1017 NOSIG
2026-03-23 18:20:00,METAR LIMC 231820Z 20004KT 150V230 CAVOK 13/01 Q1016 NOSIG
2026-03-23 17:50:00,METAR LIMC 231750Z 22006KT 190V280 CAVOK 13/01 Q1016 NOSIG
2026-03-23 17:20:00,METAR LIMC 231720Z 21006KT 160V250 CAVOK 15/01 Q1016 NOSIG
2026-03-23 16:50:00,METAR LIMC 231650Z 21008KT CAVOK 15/01 Q1015 NOSIG
2026-03-23 16:20:00,METAR LIMC 231620Z 22008KT CAVOK 16/01 Q1015 NOSIG
2026-03-23 15:50:00,METAR LIMC 231550Z 19006KT 160V220 CAVOK 16/M00 Q1015 NOSIG
2026-03-23 15:20:00,METAR LIMC 231520Z 21007KT 150V270 CAVOK 16/01 Q1015 NOSIG
2026-03-23 14:50:00,METAR LIMC 231450Z 21007KT 160V250 CAVOK 16/01 Q1015 NOSIG
2026-03-23 14:20:00,METAR LIMC 231420Z VRB06KT CAVOK 16/01 Q1015 NOSIG
2026-03-23 13:50:00,METAR LIMC 231350Z 22005KT 160V320 CAVOK 16/01 Q1015 NOSIG
2026-03-23 13:20:00,METAR LIMC 231320Z 23004KT 160V270 CAVOK 15/01 Q1015 NOSIG
2026-03-23 12:50:00,METAR LIMC 231250Z 22007KT 160V280 CAVOK 15/01 Q1015 NOSIG
2026-03-23 12:20:00,METAR LIMC 231220Z VRB05KT CAVOK 15/01 Q1016 NOSIG
2026-03-23 11:50:00,METAR LIMC 231150Z 22006KT 150V310 CAVOK 14/00 Q1016 NOSIG
2026-03-23 11:20:00,METAR LIMC 231120Z 23007KT 170V280 CAVOK 14/00 Q1016 NOSIG
2026-03-23 10:50:00,METAR LIMC 231050Z 22007KT 190V280 CAVOK 14/M00 Q1016 NOSIG
2026-03-23 10:20:00,METAR LIMC 231020Z 29006KT 250V340 CAVOK 14/01 Q1016 NOSIG
2026-03-23 09:50:00,METAR LIMC 230950Z VRB03KT CAVOK 13/00 Q1016 NOSIG
2026-03-23 09:20:00,METAR LIMC 230920Z 27005KT 210V350 CAVOK 12/01 Q1016 NOSIG
2026-03-23 08:50:00,METAR LIMC 230850Z 31005KT 270V340 CAVOK 11/02 Q1016 NOSIG
2026-03-23 08:20:00,METAR LIMC 230820Z 33005KT 290V020 CAVOK 10/03 Q1016 NOSIG
2026-03-23 07:50:00,METAR LIMC 230750Z 33006KT CAVOK 09/03 Q1016 NOSIG
2026-03-23 07:20:00,METAR LIMC 230720Z 35003KT 310V030 CAVOK 08/03 Q1016 NOSIG
2026-03-23 06:50:00,METAR LIMC 230650Z 34003KT 300V070 CAVOK 05/03 Q1015 NOSIG
2026-03-23 06:20:00,METAR LIMC 230620Z 35004KT CAVOK 03/02 Q1015 NOSIG
2026-03-23 05:50:00,METAR LIMC 230550Z 34004KT CAVOK 02/01 Q1015 NOSIG
2026-03-23 05:20:00,METAR LIMC 230520Z VRB02KT CAVOK 01/01 Q1015 NOSIG
2026-03-23 04:50:00,METAR LIMC 230450Z 36003KT 330V040 CAVOK 03/01 Q1015 NOSIG
2026-03-23 04:20:00,METAR LIMC 230420Z 35003KT CAVOK 03/01 Q1015 NOSIG
2026-03-23 03:50:00,METAR LIMC 230350Z 34005KT CAVOK 02/01 Q1015 NOSIG
2026-03-23 03:20:00,METAR LIMC 230320Z 34004KT CAVOK 03/01 Q1015 NOSIG
2026-03-23 02:50:00,METAR LIMC 230250Z 35004KT CAVOK 05/02 Q1015 NOSIG
2026-03-23 02:20:00,METAR LIMC 230220Z 34005KT CAVOK 04/02 Q1015 NOSIG
2026-03-23 01:50:00,METAR LIMC 230150Z 35004KT CAVOK 04/02 Q1015 NOSIG
2026-03-23 01:20:00,METAR LIMC 230120Z 35003KT 9999 SCT090 05/02 Q1015 NOSIG
2026-03-23 00:50:00,METAR LIMC 230050Z 35004KT 9999 BKN080 06/02 Q1015 NOSIG
2026-03-23 00:20:00,METAR LIMC 230020Z 34006KT 9999 BKN080 06/02 Q1015 NOSIG
2026-03-22 23:50:00,METAR LIMC 222350Z 33005KT 9999 BKN080 06/02 Q1015 NOSIG
2026-03-22 23:20:00,METAR LIMC 222320Z 34004KT 9999 BKN080 06/03 Q1015 NOSIG
2026-03-22 22:50:00,METAR LIMC 222250Z 36003KT 330V040 9999 BKN080 07/02 Q1015 NOSIG
2026-03-22 22:20:00,METAR LIMC 222220Z 36003KT 330V030 9999 BKN080 08/02 Q1015 NOSIG
2026-03-22 21:50:00,METAR LIMC 222150Z 02003KT 330V080 9999 BKN080 09/02 Q1015 NOSIG
2026-03-22 21:20:00,METAR LIMC 222120Z VRB02KT 9999 BKN065 08/02 Q1015 NOSIG
2026-03-22 20:50:00,METAR LIMC 222050Z 35005KT 9999 BKN070 08/02 Q1015 NOSIG
2026-03-22 20:20:00,METAR LIMC 222020Z VRB02KT 9999 BKN070 07/02 Q1015 NOSIG
2026-03-22 19:50:00,METAR LIMC 221950Z 34004KT 9999 BKN070 07/02 Q1014 NOSIG
2026-03-22 19:20:00,METAR LIMC 221920Z VRB02KT 9999 BKN080 07/02 Q1014 NOSIG
2026-03-22 18:50:00,METAR LIMC 221850Z 01002KT 9999 SCT080 07/02 Q1014 NOSIG
2026-03-22 18:20:00,METAR LIMC 221820Z 02002KT 9999 FEW070 09/02 Q1014 NOSIG
2026-03-22 17:50:00,METAR LIMC 221750Z 01002KT 9999 FEW070 10/01 Q1014 NOSIG
2026-03-22 17:20:00,METAR LIMC 221720Z 34004KT 9999 FEW060 11/01 Q1014 NOSIG
2026-03-22 16:50:00,METAR LIMC 221650Z 34003KT 9999 SCT050 12/00 Q1014 NOSIG
2026-03-22 16:20:00,METAR LIMC 221620Z 32007KT 9999 BKN050 12/01 Q1013 NOSIG
2026-03-22 15:50:00,METAR LIMC 221550Z 31005KT 260V020 9999 BKN050 12/01 Q1013 NOSIG
2026-03-22 15:20:00,METAR LIMC 221520Z 01003KT 320V090 9999 BKN060 12/00 Q1013 NOSIG
2026-03-22 14:50:00,METAR LIMC 221450Z 33005KT 290V010 9999 BKN060 12/01 Q1013 NOSIG
2026-03-22 14:20:00,METAR LIMC 221420Z 34003KT 300V050 9999 BKN060 13/00 Q1013 NOSIG
2026-03-22 13:50:00,METAR LIMC 221350Z 31006KT 270V340 9999 BKN060 13/02 Q1013 NOSIG
2026-03-22 13:20:00,METAR LIMC 221320Z 34006KT 310V020 9999 SCT060 13/01 Q1014 NOSIG
2026-03-22 12:50:00,METAR LIMC 221250Z 29004KT 210V330 9999 BKN060 12/02 Q1014 NOSIG
2026-03-22 12:20:00,METAR LIMC 221220Z 31005KT 250V030 9999 BKN050 12/02 Q1014 NOSIG
2026-03-22 11:50:00,METAR LIMC 221150Z 32008KT 290V350 9999 BKN045 12/03 Q1014 NOSIG
2026-03-22 11:20:00,METAR LIMC 221120Z 32007KT 280V340 9999 BKN050 12/03 Q1014 NOSIG
2026-03-22 10:50:00,METAR LIMC 221050Z VRB03KT 9999 BKN050 12/03 Q1015 NOSIG
2026-03-22 10:20:00,METAR LIMC 221020Z VRB03KT 9999 BKN040 12/03 Q1015 NOSIG
2026-03-22 09:50:00,METAR LIMC 220950Z VRB02KT 9999 BKN040 11/02 Q1015 NOSIG
2026-03-22 09:20:00,METAR LIMC 220920Z VRB02KT 9999 BKN065 10/03 Q1015 NOSIG
2026-03-22 08:50:00,METAR LIMC 220850Z 34004KT 320V020 9999 BKN060 10/03 Q1015 NOSIG
2026-03-22 08:20:00,METAR LIMC 220820Z 33007KT 9999 BKN065 09/04 Q1015 NOSIG
2026-03-22 07:50:00,METAR LIMC 220750Z 34007KT 9999 BKN060 09/04 Q1015 NOSIG
2026-03-22 07:20:00,METAR LIMC 220720Z 34005KT 310V040 9999 BKN050 08/04 Q1014 NOSIG
2026-03-22 06:50:00,METAR LIMC 220650Z 35007KT 320V020 9999 BKN050 08/04 Q1014 NOSIG
2026-03-22 06:20:00,METAR LIMC 220620Z 34007KT 310V010 9999 BKN045 08/04 Q1014 NOSIG
2026-03-22 05:50:00,METAR LIMC 220550Z 35005KT 9999 BKN045 08/04 Q1014 NOSIG
2026-03-22 05:20:00,METAR LIMC 220520Z 35006KT 9999 BKN050 08/04 Q1014 NOSIG
2026-03-22 04:50:00,METAR LIMC 220450Z 34006KT 9999 BKN060 08/04 Q1013 NOSIG
2026-03-22 04:20:00,METAR LIMC 220420Z 34005KT 9999 BKN050 08/04 Q1013 NOSIG
2026-03-22 03:50:00,METAR LIMC 220350Z 34007KT 9999 BKN060 08/05 Q1013 NOSIG
2026-03-22 03:20:00,METAR LIMC 220320Z 34007KT 9999 BKN050 08/05 Q1014 NOSIG
2026-03-22 02:50:00,METAR LIMC 220250Z 34007KT 9999 BKN050 08/04 Q1013 NOSIG
2026-03-22 02:20:00,METAR LIMC 220220Z 34008KT 9999 BKN050 08/04 Q1013 NOSIG
2026-03-22 01:50:00,METAR LIMC 220150Z 34006KT 310V020 9999 BKN050 09/03 Q1013 NOSIG
2026-03-22 01:20:00,METAR LIMC 220120Z VRB03KT 9999 BKN045 09/04 Q1013 NOSIG
2026-03-22 00:50:00,METAR LIMC 220050Z 34009KT 9999 BKN045 08/04 Q1013 NOSIG
2026-03-22 00:20:00,METAR LIMC 220020Z 34008KT 9999 SCT040 BKN060 09/05 Q1013 NOSIG
2026-03-21 23:50:00,METAR LIMC 212350Z 31010KT 9999 SCT042 BKN060 09/05 Q1013 NOSIG
2026-03-21 23:20:00,METAR LIMC 212320Z 34007KT 9999 BKN055 09/04 Q1013 NOSIG
2026-03-21 22:50:00,METAR LIMC 212250Z 34004KT 9999 BKN065 10/03 Q1013 NOSIG
2026-03-21 22:20:00,METAR LIMC 212220Z 01003KT 320V060 9999 BKN062 11/01 Q1013 NOSIG
2026-03-21 21:50:00,METAR LIMC 212150Z 01003KT 350V050 9999 BKN060 11/02 Q1013 NOSIG
2026-03-21 21:20:00,METAR LIMC 212120Z 03003KT 350V060 9999 BKN065 11/01 Q1013 NOSIG
2026-03-21 20:50:00,METAR LIMC 212050Z VRB01KT 9999 BKN060 10/02 Q1012 NOSIG
2026-03-21 20:20:00,METAR LIMC 212020Z VRB01KT 9999 BKN060 12/01 Q1012 NOSIG
2026-03-21 19:50:00,METAR LIMC 211950Z 13003KT 100V160 9999 BKN050 12/01 Q1012 NOSIG
2026-03-21 19:20:00,METAR LIMC 211920Z 12006KT 090V150 9999 -RA BKN060 12/01 Q1012 NOSIG
2026-03-21 18:50:00,METAR LIMC 211850Z 13005KT 9999 -RA BKN050 12/02 Q1011 NOSIG
2026-03-21 18:20:00,METAR LIMC 211820Z 13006KT 9999 -RA BKN050 12/02 Q1011 NOSIG
2026-03-21 17:50:00,METAR LIMC 211750Z 12006KT 080V140 9999 BKN060 13/03 Q1011 NOSIG
2026-03-21 17:20:00,METAR LIMC 211720Z 12008KT 9999 BKN080 13/04 Q1011 NOSIG
2026-03-21 16:50:00,METAR LIMC 211650Z 13007KT 100V170 9999 BKN070 14/04 Q1010 NOSIG
2026-03-21 16:20:00,METAR LIMC 211620Z 12007KT 080V150 9999 BKN060 14/03 Q1010 NOSIG
2026-03-21 15:50:00,METAR LIMC 211550Z 13009KT 100V160 CAVOK 15/01 Q1010 NOSIG
2026-03-21 14:50:00,METAR LIMC 211450Z 10006KT 050V140 CAVOK 15/M01 Q1010 NOSIG
2026-03-21 14:20:00,METAR LIMC 211420Z 14006KT 080V220 CAVOK 16/M01 Q1010 NOSIG
2026-03-21 13:50:00,METAR LIMC 211350Z 12008KT 080V170 CAVOK 15/M01 Q1011 NOSIG
2026-03-21 13:20:00,METAR LIMC 211320Z 16006KT 130V200 CAVOK 15/M00 Q1011 NOSIG
2026-03-21 12:50:00,METAR LIMC 211250Z VRB03KT CAVOK 15/M02 Q1011 NOSIG
2026-03-21 12:20:00,METAR LIMC 211220Z 10005KT 060V130 CAVOK 15/M02 Q1012 NOSIG
2026-03-21 11:50:00,METAR LIMC 211150Z VRB03KT CAVOK 15/M02 Q1012 NOSIG
2026-03-21 11:20:00,METAR LIMC 211120Z 12004KT 050V210 CAVOK 15/M01 Q1012 NOSIG
2026-03-21 10:50:00,METAR LIMC 211050Z VRB05KT CAVOK 14/M01 Q1013 NOSIG
2026-03-21 10:20:00,METAR LIMC 211020Z 11005KT 050V190 CAVOK 14/01 Q1013 NOSIG
2026-03-21 09:50:00,METAR LIMC 210950Z 13005KT 090V180 CAVOK 13/01 Q1013 NOSIG
2026-03-21 09:20:00,METAR LIMC 210920Z VRB03KT CAVOK 13/03 Q1013 NOSIG
2026-03-21 08:50:00,METAR LIMC 210850Z VRB02KT 9999 SCT080 13/03 Q1014 NOSIG
2026-03-21 08:20:00,METAR LIMC 210820Z VRB01KT 9999 BKN085 11/02 Q1014 NOSIG
2026-03-21 07:50:00,METAR LIMC 210750Z VRB02KT 9999 BKN084 10/03 Q1014 NOSIG
2026-03-21 07:20:00,METAR LIMC 210720Z 35002KT 9999 BKN083 10/03 Q1014 NOSIG
2026-03-21 06:50:00,METAR LIMC 210650Z 33004KT 9999 BKN083 08/03 Q1014 NOSIG
2026-03-21 06:20:00,METAR LIMC 210620Z 34005KT 9999 BKN080 08/02 Q1014 NOSIG
2026-03-21 05:50:00,METAR LIMC 210550Z 34004KT 9999 BKN080 07/03 Q1014 NOSIG
2026-03-21 05:20:00,METAR LIMC 210520Z 34005KT 9999 SCT080 08/02 Q1014 NOSIG
2026-03-21 04:50:00,METAR LIMC 210450Z 33006KT 9999 SCT070 07/02 Q1014 NOSIG
2026-03-21 04:20:00,METAR LIMC 210420Z 36003KT 320V030 9999 SCT070 07/01 Q1014 NOSIG
2026-03-21 03:50:00,METAR LIMC 210350Z 02003KT 340V060 9999 SCT070 08/01 Q1014 NOSIG
2026-03-21 02:20:00,METAR LIMC 210220Z 35005KT 9999 SCT080 07/02 Q1015 NOSIG
2026-03-21 01:50:00,METAR LIMC 210150Z 34003KT 310V050 CAVOK 06/02 Q1015 NOSIG
2026-03-21 01:20:00,METAR LIMC 210120Z VRB02KT CAVOK 05/02 Q1015 NOSIG
2026-03-21 00:50:00,METAR LIMC 210050Z 36003KT 330V040 CAVOK 04/01 Q1015 NOSIG
2026-03-21 00:20:00,METAR LIMC 210020Z 07003KT CAVOK 07/01 Q1015 NOSIG
2026-03-20 23:50:00,METAR LIMC 202350Z 07004KT CAVOK 08/01 Q1015 NOSIG
2026-03-20 23:20:00,METAR LIMC 202320Z 06004KT CAVOK 07/02 Q1015 NOSIG
2026-03-20 22:50:00,METAR LIMC 202250Z 06004KT CAVOK 07/02 Q1015 NOSIG
2026-03-20 22:20:00,METAR LIMC 202220Z 06003KT CAVOK 04/02 Q1015 NOSIG
2026-03-20 21:50:00,METAR LIMC 202150Z 07002KT CAVOK 04/01 Q1015 NOSIG
2026-03-20 21:20:00,METAR LIMC 202120Z 05003KT CAVOK 05/02 Q1015 NOSIG
2026-03-20 20:50:00,METAR LIMC 202050Z 03001KT CAVOK 05/01 Q1015 NOSIG
2026-03-20 20:20:00,METAR LIMC 202020Z VRB01KT CAVOK 06/01 Q1015 NOSIG
2026-03-20 19:50:00,METAR LIMC 201950Z 05002KT CAVOK 06/02 Q1014 NOSIG
2026-03-20 19:20:00,METAR LIMC 201920Z VRB01KT CAVOK 08/02 Q1014 NOSIG
2026-03-20 18:50:00,METAR LIMC 201850Z VRB02KT CAVOK 09/02 Q1014 NOSIG
2026-03-20 18:20:00,METAR LIMC 201820Z VRB02KT CAVOK 11/01 Q1014 NOSIG
2026-03-20 17:50:00,METAR LIMC 201750Z 18003KT 150V210 CAVOK 12/01 Q1014 NOSIG
2026-03-20 17:20:00,METAR LIMC 201720Z 19004KT CAVOK 13/01 Q1013 NOSIG
2026-03-20 16:50:00,METAR LIMC 201650Z 19005KT 150V220 CAVOK 14/01 Q1013 NOSIG
2026-03-20 16:20:00,METAR LIMC 201620Z 18005KT 150V220 CAVOK 15/01 Q1013 NOSIG
2026-03-20 15:50:00,METAR LIMC 201550Z 18003KT 130V230 CAVOK 15/00 Q1014 NOSIG
2026-03-20 15:20:00,METAR LIMC 201520Z 13004KT 060V210 CAVOK 16/01 Q1014 NOSIG
2026-03-20 14:50:00,METAR LIMC 201450Z 18005KT 140V250 CAVOK 15/M00 Q1014 NOSIG
2026-03-20 14:20:00,METAR LIMC 201420Z 17004KT 110V230 CAVOK 16/01 Q1014 NOSIG
2026-03-20 13:50:00,METAR LIMC 201350Z 21005KT 130V260 CAVOK 15/M00 Q1015 NOSIG
2026-03-20 13:20:00,METAR LIMC 201320Z VRB04KT 9999 FEW060 15/M00 Q1015 NOSIG
2026-03-20 12:50:00,METAR LIMC 201250Z VRB04KT 9999 FEW060 15/M00 Q1016 NOSIG
2026-03-20 12:20:00,METAR LIMC 201220Z 11005KT 070V210 9999 FEW060 15/M00 Q1016 NOSIG
2026-03-20 11:50:00,METAR LIMC 201150Z 24005KT 200V280 9999 FEW060 15/01 Q1016 NOSIG
2026-03-20 11:20:00,METAR LIMC 201120Z 14005KT 090V190 CAVOK 14/M01 Q1017 NOSIG
2026-03-20 10:50:00,METAR LIMC 201050Z VRB03KT CAVOK 14/M01 Q1017 NOSIG
2026-03-20 10:20:00,METAR LIMC 201020Z VRB04KT CAVOK 14/M01 Q1018 NOSIG
2026-03-20 09:50:00,METAR LIMC 200950Z VRB02KT CAVOK 14/00 Q1018 NOSIG
2026-03-20 09:20:00,METAR LIMC 200920Z VRB02KT CAVOK 13/00 Q1018 NOSIG
2026-03-20 08:50:00,METAR LIMC 200850Z VRB04KT CAVOK 12/M00 Q1018 NOSIG
2026-03-20 08:20:00,METAR LIMC 200820Z 08003KT 020V170 CAVOK 12/M00 Q1019 NOSIG
2026-03-20 07:50:00,METAR LIMC 200750Z 33004KT CAVOK 11/01 Q1019 NOSIG
2026-03-20 07:20:00,METAR LIMC 200720Z 34005KT CAVOK 09/02 Q1019 NOSIG
2026-03-20 06:50:00,METAR LIMC 200650Z 34005KT CAVOK 05/01 Q1019 NOSIG
2026-03-20 06:20:00,METAR LIMC 200620Z 34003KT CAVOK 01/M00 Q1018 NOSIG
2026-03-20 05:50:00,METAR LIMC 200550Z 35005KT CAVOK 04/M00 Q1018 NOSIG
2026-03-20 05:20:00,METAR LIMC 200520Z 34005KT CAVOK 03/M01 Q1018 NOSIG
2026-03-20 04:50:00,METAR LIMC 200450Z 35003KT 320V030 CAVOK 01/M01 Q1018 NOSIG
2026-03-20 04:20:00,METAR LIMC 200420Z VRB01KT CAVOK 02/M00 Q1018 NOSIG
2026-03-20 03:50:00,METAR LIMC 200350Z 34003KT CAVOK 02/M01 Q1018 NOSIG
2026-03-20 03:20:00,METAR LIMC 200320Z 34003KT CAVOK 03/M00 Q1018 NOSIG
2026-03-20 02:50:00,METAR LIMC 200250Z 02003KT 350V050 CAVOK 04/M01 Q1018 NOSIG
2026-03-20 02:20:00,METAR LIMC 200220Z 03003KT 350V050 CAVOK 07/M00 Q1018 NOSIG
2026-03-20 01:50:00,METAR LIMC 200150Z 04003KT 360V070 CAVOK 07/M00 Q1018 NOSIG
2026-03-20 01:20:00,METAR LIMC 200120Z 03003KT 360V080 CAVOK 07/M00 Q1018 NOSIG
2026-03-20 00:50:00,METAR LIMC 200050Z 05003KT 010V090 CAVOK 08/M00 Q1018 NOSIG
2026-03-20 00:20:00,METAR LIMC 200020Z 06004KT CAVOK 08/00 Q1018 NOSIG
2026-03-19 23:50:00,METAR LIMC 192350Z 06004KT 020V090 CAVOK 09/01 Q1018 NOSIG
2026-03-19 23:20:00,METAR LIMC 192320Z 05004KT 020V080 CAVOK 09/01 Q1018 NOSIG
2026-03-19 22:50:00,METAR LIMC 192250Z 07005KT CAVOK 09/01 Q1018 NOSIG
2026-03-19 22:20:00,METAR LIMC 192220Z 07005KT CAVOK 09/02 Q1018 NOSIG
2026-03-19 21:50:00,METAR LIMC 192150Z 06005KT CAVOK 09/02 Q1018 NOSIG
2026-03-19 21:20:00,METAR LIMC 192120Z 05002KT CAVOK 06/02 Q1017 NOSIG
2026-03-19 20:50:00,METAR LIMC 192050Z 03002KT CAVOK 05/01 Q1017 NOSIG
2026-03-19 20:20:00,METAR LIMC 192020Z 07002KT CAVOK 06/01 Q1017 NOSIG
2026-03-19 19:50:00,METAR LIMC 191950Z 08004KT CAVOK 08/01 Q1016 NOSIG
2026-03-19 19:20:00,METAR LIMC 191920Z 08002KT CAVOK 08/01 Q1016 NOSIG
2026-03-19 18:50:00,METAR LIMC 191850Z VRB02KT CAVOK 12/00 Q1016 NOSIG
2026-03-19 18:20:00,METAR LIMC 191820Z 16003KT 130V190 CAVOK 12/M00 Q1016 NOSIG
2026-03-19 17:50:00,METAR LIMC 191750Z 19004KT CAVOK 13/M01 Q1015 NOSIG
2026-03-19 17:20:00,METAR LIMC 191720Z 20006KT 170V230 CAVOK 15/M02 Q1015 NOSIG
2026-03-19 16:50:00,METAR LIMC 191650Z 21008KT CAVOK 16/M01 Q1015 NOSIG
2026-03-19 16:20:00,METAR LIMC 191620Z 21007KT CAVOK 17/M02 Q1015 NOSIG
2026-03-19 15:50:00,METAR LIMC 191550Z 24008KT 210V270 CAVOK 17/M02 Q1015 NOSIG
2026-03-19 15:20:00,METAR LIMC 191520Z 22006KT 180V260 CAVOK 17/M02 Q1015 NOSIG
2026-03-19 14:50:00,METAR LIMC 191450Z 24006KT 190V310 CAVOK 17/M02 Q1016 NOSIG
2026-03-19 14:20:00,METAR LIMC 191420Z 21006KT 150V240 CAVOK 17/M02 Q1016 NOSIG
2026-03-19 13:50:00,METAR LIMC 191350Z VRB03KT CAVOK 18/M01 Q1017 NOSIG
2026-03-19 13:20:00,METAR LIMC 191320Z 22006KT 170V270 CAVOK 17/M01 Q1017 NOSIG
2026-03-19 12:50:00,METAR LIMC 191250Z VRB05KT CAVOK 17/M01 Q1018 NOSIG
2026-03-19 12:20:00,METAR LIMC 191220Z VRB06KT CAVOK 17/M00 Q1018 NOSIG
2026-03-19 11:50:00,METAR LIMC 191150Z 26004KT 160V320 CAVOK 17/M00 Q1018 NOSIG
2026-03-19 11:20:00,METAR LIMC 191120Z 23007KT 180V270 CAVOK 16/M01 Q1019 NOSIG
2026-03-19 10:50:00,METAR LIMC 191050Z 22006KT 190V260 CAVOK 16/00 Q1019 NOSIG
2026-03-19 10:20:00,METAR LIMC 191020Z 23005KT 180V320 CAVOK 15/M01 Q1019 NOSIG
2026-03-19 09:50:00,METAR LIMC 190950Z VRB03KT CAVOK 15/M00 Q1020 NOSIG
2026-03-19 09:20:00,METAR LIMC 190920Z 31005KT 280V360 CAVOK 14/01 Q1020 NOSIG
2026-03-19 08:50:00,METAR LIMC 190850Z 32006KT 290V350 CAVOK 13/02 Q1020 NOSIG
2026-03-19 08:20:00,METAR LIMC 190820Z 32007KT CAVOK 11/02 Q1020 NOSIG
2026-03-19 07:50:00,METAR LIMC 190750Z 34007KT CAVOK 11/03 Q1020 NOSIG
2026-03-19 07:20:00,METAR LIMC 190720Z 34007KT CAVOK 09/03 Q1020 NOSIG
2026-03-19 06:50:00,METAR LIMC 190650Z 35005KT 320V030 CAVOK 06/02 Q1020 NOSIG
2026-03-19 06:20:00,METAR LIMC 190620Z 35004KT CAVOK 02/01 Q1020 NOSIG
2026-03-19 05:50:00,METAR LIMC 190550Z 35004KT CAVOK 03/01 Q1020 NOSIG
2026-03-19 05:20:00,METAR LIMC 190520Z 34006KT CAVOK 03/01 Q1020 NOSIG
2026-03-19 04:50:00,METAR LIMC 190450Z 34005KT CAVOK 03/01 Q1020 NOSIG
2026-03-19 04:20:00,METAR LIMC 190420Z 35005KT CAVOK 02/01 Q1020 NOSIG
2026-03-19 03:50:00,METAR LIMC 190350Z 34004KT CAVOK 02/01 Q1020 NOSIG
2026-03-19 03:20:00,METAR LIMC 190320Z 34007KT CAVOK 05/02 Q1020 NOSIG
2026-03-19 02:50:00,METAR LIMC 190250Z 34005KT CAVOK 04/02 Q1021 NOSIG
2026-03-19 02:20:00,METAR LIMC 190220Z 35005KT 320V030 CAVOK 04/01 Q1021 NOSIG
2026-03-19 01:50:00,METAR LIMC 190150Z 34005KT 9999 FEW080 02/01 Q1021 NOSIG
2026-03-19 01:20:00,METAR LIMC 190120Z 34004KT 9999 FEW090 03/01 Q1021 NOSIG
2026-03-19 00:50:00,METAR LIMC 190050Z VRB02KT CAVOK 02/00 Q1022 NOSIG
2026-03-19 00:20:00,METAR LIMC 190020Z 01003KT 330V040 CAVOK 02/01 Q1021 NOSIG
2026-03-18 23:50:00,METAR LIMC 182350Z VRB02KT CAVOK 03/02 Q1021 NOSIG
2026-03-18 23:20:00,METAR LIMC 182320Z 08002KT CAVOK 05/02 Q1021 NOSIG
2026-03-18 22:50:00,METAR LIMC 182250Z VRB02KT CAVOK 03/01 Q1021 NOSIG
2026-03-18 22:20:00,METAR LIMC 182220Z 34004KT 300V010 CAVOK 05/02 Q1021 NOSIG
2026-03-18 21:50:00,METAR LIMC 182150Z 34004KT 9999 FEW100 06/02 Q1021 NOSIG
2026-03-18 21:20:00,METAR LIMC 182120Z VRB02KT 9999 FEW100 06/02 Q1021 NOSIG
2026-03-18 20:50:00,METAR LIMC 182050Z VRB02KT CAVOK 06/02 Q1020 NOSIG
2026-03-18 20:20:00,METAR LIMC 182020Z VRB01KT CAVOK 08/02 Q1020 NOSIG
2026-03-18 19:50:00,METAR LIMC 181950Z 15003KT 100V230 CAVOK 09/02 Q1020 NOSIG
2026-03-18 19:20:00,METAR LIMC 181920Z 16003KT 130V200 9999 FEW085 10/02 Q1020 NOSIG
2026-03-18 18:50:00,METAR LIMC 181850Z 18003KT 130V210 9999 FEW090 11/02 Q1019 NOSIG
2026-03-18 18:20:00,METAR LIMC 181820Z 16003KT 9999 FEW085 10/01 Q1019 NOSIG
2026-03-18 17:50:00,METAR LIMC 181750Z 18003KT 150V220 9999 FEW085 11/01 Q1018 NOSIG
2026-03-18 17:20:00,METAR LIMC 181720Z 21007KT 160V260 CAVOK 12/00 Q1018 NOSIG
2026-03-18 16:50:00,METAR LIMC 181650Z 22007KT 190V280 CAVOK 13/01 Q1018 NOSIG
2026-03-18 16:20:00,METAR LIMC 181620Z 22008KT 190V270 CAVOK 13/00 Q1018 NOSIG
2026-03-18 15:50:00,METAR LIMC 181550Z 23007KT CAVOK 13/M01 Q1018 NOSIG
2026-03-18 15:20:00,METAR LIMC 181520Z 22008KT 190V250 9999 SCT095 13/M01 Q1018 NOSIG
2026-03-18 14:50:00,METAR LIMC 181450Z 19004KT 150V230 9999 SCT100 14/M00 Q1018 NOSIG
2026-03-18 14:20:00,METAR LIMC 181420Z 17007KT 120V220 9999 FEW100 14/M01 Q1018 NOSIG
2026-03-18 13:50:00,METAR LIMC 181350Z 16006KT 130V190 9999 SCT100 13/M01 Q1018 NOSIG
2026-03-18 13:20:00,METAR LIMC 181320Z 16006KT 130V190 9999 SCT100 13/M01 Q1018 NOSIG
2026-03-18 12:50:00,METAR LIMC 181250Z 12008KT 100V160 9999 BKN080 14/M02 Q1018 NOSIG
2026-03-18 12:20:00,METAR LIMC 181220Z 13009KT 9999 BKN070 14/M01 Q1018 NOSIG
2026-03-18 11:50:00,METAR LIMC 181150Z 10008KT 040V150 9999 SCT070 14/M01 Q1019 NOSIG
2026-03-18 11:20:00,METAR LIMC 181120Z 26004KT 190V340 9999 SCT070 14/M01 Q1018 NOSIG
2026-03-18 10:50:00,METAR LIMC 181050Z VRB04KT CAVOK 13/M01 Q1018 NOSIG
2026-03-18 10:20:00,METAR LIMC 181020Z 31007KT 270V340 CAVOK 13/01 Q1018 NOSIG
2026-03-18 09:50:00,METAR LIMC 180950Z 31007KT 270V020 CAVOK 13/02 Q1018 NOSIG
2026-03-18 09:20:00,METAR LIMC 180920Z 32008KT 290V020 CAVOK 12/02 Q1018 NOSIG
2026-03-18 08:50:00,METAR LIMC 180850Z VRB04KT CAVOK 12/02 Q1018 NOSIG
2026-03-18 08:20:00,METAR LIMC 180820Z 04004KT 340V100 9999 FEW080 11/02 Q1018 NOSIG
2026-03-18 07:50:00,METAR LIMC 180750Z VRB03KT 9999 SCT080 11/02 Q1017 NOSIG
2026-03-18 07:20:00,METAR LIMC 180720Z 03003KT 340V070 9999 BKN070 09/02 Q1017 NOSIG
2026-03-18 06:50:00,METAR LIMC 180650Z 03003KT 360V080 9999 BKN060 08/02 Q1017 NOSIG
2026-03-18 06:20:00,METAR LIMC 180620Z 04004KT 350V080 9999 BKN050 08/02 Q1017 NOSIG
2026-03-18 05:50:00,METAR LIMC 180550Z 08007KT 040V110 9999 BKN050 08/02 Q1016 NOSIG
2026-03-18 05:20:00,METAR LIMC 180520Z 07006KT 010V120 9999 BKN050 08/03 Q1016 NOSIG
2026-03-18 04:50:00,METAR LIMC 180450Z 07006KT 040V100 9999 SCT050 09/03 Q1016 NOSIG
2026-03-18 04:20:00,METAR LIMC 180420Z 07006KT 040V110 9999 SCT050 09/03 Q1016 NOSIG
2026-03-18 03:50:00,METAR LIMC 180350Z 08007KT 040V110 9999 SCT050 09/03 Q1016 NOSIG
2026-03-18 03:20:00,METAR LIMC 180320Z 07004KT 040V100 9999 SCT050 09/02 Q1016 NOSIG
2026-03-18 02:50:00,METAR LIMC 180250Z 06004KT 010V120 9999 SCT050 10/02 Q1016 NOSIG
2026-03-18 02:20:00,METAR LIMC 180220Z 08007KT 030V110 9999 SCT050 10/01 Q1016 NOSIG
2026-03-18 01:50:00,METAR LIMC 180150Z 07005KT 030V100 9999 SCT050 10/01 Q1016 NOSIG
2026-03-18 01:20:00,METAR LIMC 180120Z 08004KT 030V120 9999 SCT050 10/00 Q1016 NOSIG
2026-03-18 00:50:00,METAR LIMC 180050Z 08005KT 040V100 9999 SCT050 10/00 Q1017 NOSIG
2026-03-18 00:20:00,METAR LIMC 180020Z 07004KT 020V120 9999 SCT050 11/01 Q1017 NOSIG
2026-03-17 23:50:00,METAR LIMC 172350Z 09007KT 060V120 9999 SCT050 11/01 Q1017 NOSIG
2026-03-17 23:20:00,METAR LIMC 172320Z 09008KT 070V130 9999 SCT050 11/01 Q1017 NOSIG
2026-03-17 22:50:00,METAR LIMC 172250Z 10006KT 070V130 9999 SCT050 11/02 Q1017 NOSIG
2026-03-17 22:20:00,METAR LIMC 172220Z 09007KT 070V130 9999 SCT050 11/02 Q1017 NOSIG
2026-03-17 21:50:00,METAR LIMC 172150Z 09008KT 060V130 9999 SCT050 12/03 Q1016 NOSIG
2026-03-17 21:20:00,METAR LIMC 172120Z 06003KT 030V090 9999 SCT050 11/05 Q1016 NOSIG
2026-03-17 20:50:00,METAR LIMC 172050Z 07003KT 9999 FEW050 09/05 Q1016 NOSIG
2026-03-17 20:20:00,METAR LIMC 172020Z 08002KT CAVOK 09/05 Q1016 NOSIG
2026-03-17 19:50:00,METAR LIMC 171950Z 08004KT CAVOK 10/05 Q1016 NOSIG
2026-03-17 19:20:00,METAR LIMC 171920Z 08003KT CAVOK 11/05 Q1015 NOSIG
2026-03-17 18:50:00,METAR LIMC 171850Z 10004KT CAVOK 12/04 Q1015 NOSIG
2026-03-17 18:20:00,METAR LIMC 171820Z 11003KT CAVOK 13/04 Q1015 NOSIG
2026-03-17 17:50:00,METAR LIMC 171750Z 13004KT CAVOK 13/04 Q1015 NOSIG
2026-03-17 17:20:00,METAR LIMC 171720Z 15004KT CAVOK 14/04 Q1014 NOSIG
2026-03-17 16:50:00,METAR LIMC 171650Z 15005KT CAVOK 15/04 Q1014 NOSIG
2026-03-17 16:20:00,METAR LIMC 171620Z 15006KT 110V210 CAVOK 16/03 Q1014 NOSIG
2026-03-17 15:50:00,METAR LIMC 171550Z 14006KT CAVOK 16/03 Q1014 NOSIG
2026-03-17 14:50:00,METAR LIMC 171450Z VRB02KT CAVOK 17/02 Q1015 NOSIG
2026-03-17 14:20:00,METAR LIMC 171420Z VRB03KT 9999 SCT055 17/04 Q1015 NOSIG
2026-03-17 13:50:00,METAR LIMC 171350Z 16005KT 120V210 9999 SCT055 16/03 Q1016 NOSIG
2026-03-17 13:20:00,METAR LIMC 171320Z 13005KT 070V190 9999 SCT055 17/03 Q1016 NOSIG
2026-03-17 12:50:00,METAR LIMC 171250Z VRB04KT 9999 SCT055 16/02 Q1017 NOSIG
2026-03-17 12:20:00,METAR LIMC 171220Z VRB04KT 9999 FEW050 16/02 Q1018 NOSIG
2026-03-17 11:50:00,METAR LIMC 171150Z VRB04KT CAVOK 16/02 Q1018 NOSIG
2026-03-17 11:20:00,METAR LIMC 171120Z VRB04KT 9999 FEW050 16/04 Q1018 NOSIG
2026-03-17 10:50:00,METAR LIMC 171050Z 10006KT 020V170 CAVOK 15/04 Q1018 NOSIG
2026-03-17 10:20:00,METAR LIMC 171020Z 11006KT 080V150 CAVOK 14/04 Q1019 NOSIG
2026-03-17 09:50:00,METAR LIMC 170950Z 12005KT 070V200 CAVOK 14/05 Q1019 NOSIG
2026-03-17 09:20:00,METAR LIMC 170920Z 09005KT 040V150 CAVOK 13/05 Q1019 NOSIG
2026-03-17 08:50:00,METAR LIMC 170850Z 08006KT 020V130 CAVOK 13/05 Q1019 NOSIG
2026-03-17 08:20:00,METAR LIMC 170820Z 08005KT 010V130 CAVOK 12/06 Q1019 NOSIG
2026-03-17 07:50:00,METAR LIMC 170750Z VRB03KT CAVOK 12/05 Q1019 NOSIG
2026-03-17 07:20:00,METAR LIMC 170720Z 34003KT 320V050 CAVOK 10/06 Q1019 NOSIG
2026-03-17 06:50:00,METAR LIMC 170650Z 35003KT 330V030 CAVOK 07/03 Q1018 NOSIG
2026-03-17 06:20:00,METAR LIMC 170620Z 03003KT 010V070 CAVOK 04/01 Q1018 NOSIG
2026-03-17 05:50:00,METAR LIMC 170550Z 01003KT 350V050 CAVOK 03/M00 Q1018 NOSIG
2026-03-17 05:20:00,METAR LIMC 170520Z 02003KT CAVOK 04/M01 Q1017 NOSIG
2026-03-17 04:50:00,METAR LIMC 170450Z VRB02KT CAVOK 03/M00 Q1017 NOSIG
2026-03-17 04:20:00,METAR LIMC 170420Z VRB01KT CAVOK 07/M01 Q1017 NOSIG
2026-03-17 03:50:00,METAR LIMC 170350Z 34006KT CAVOK 07/M02 Q1016 NOSIG
2026-03-17 03:20:00,METAR LIMC 170320Z 33006KT CAVOK 07/M02 Q1016 NOSIG
2026-03-17 02:50:00,METAR LIMC 170250Z 33006KT 310V020 CAVOK 05/M02 Q1016 NOSIG
2026-03-17 02:20:00,METAR LIMC 170220Z 33007KT CAVOK 06/M02 Q1016 NOSIG
2026-03-17 01:50:00,METAR LIMC 170150Z 34004KT CAVOK 07/M03 Q1016 NOSIG
2026-03-17 01:20:00,METAR LIMC 170120Z 34004KT CAVOK 09/M03 Q1016 NOSIG
2026-03-17 00:50:00,METAR LIMC 170050Z 33005KT CAVOK 09/M04 Q1016 NOSIG
2026-03-17 00:20:00,METAR LIMC 170020Z 35004KT 320V030 CAVOK 13/M06 Q1015 NOSIG
2026-03-16 23:50:00,METAR LIMC 162350Z 03004KT 340V060 CAVOK 13/M06 Q1015 NOSIG
2026-03-16 23:20:00,METAR LIMC 162320Z 36004KT 320V040 CAVOK 13/M06 Q1015 NOSIG
2026-03-16 22:50:00,METAR LIMC 162250Z 35006KT 320V040 CAVOK 13/M07 Q1015 NOSIG
2026-03-16 22:20:00,METAR LIMC 162220Z 35005KT 320V030 CAVOK 13/M07 Q1015 NOSIG
2026-03-16 21:50:00,METAR LIMC 162150Z 35005KT 320V030 CAVOK 13/M08 Q1015 NOSIG
2026-03-16 21:20:00,METAR LIMC 162120Z 35007KT CAVOK 13/M08 Q1015 NOSIG
2026-03-16 20:50:00,METAR LIMC 162050Z 01006KT 330V040 CAVOK 14/M08 Q1015 NOSIG
2026-03-16 20:20:00,METAR LIMC 162020Z 01003KT 330V030 CAVOK 10/M05 Q1015 NOSIG
2026-03-16 19:50:00,METAR LIMC 161950Z 02005KT 340V070 CAVOK 13/M06 Q1014 NOSIG
2026-03-16 19:20:00,METAR LIMC 161920Z 36004KT 330V030 CAVOK 12/M06 Q1014 NOSIG
2026-03-16 18:50:00,METAR LIMC 161850Z 35003KT 320V030 CAVOK 12/M05 Q1014 NOSIG
2026-03-16 18:20:00,METAR LIMC 161820Z 35004KT 310V040 CAVOK 16/M08 Q1014 NOSIG
2026-03-16 17:50:00,METAR LIMC 161750Z 02003KT 320V070 CAVOK 17/M08 Q1014 NOSIG
2026-03-16 17:20:00,METAR LIMC 161720Z 36006KT 320V030 CAVOK 18/M09 Q1014 NOSIG
2026-03-16 16:50:00,METAR LIMC 161650Z 35006KT 320V030 CAVOK 18/M09 Q1014 NOSIG
2026-03-16 16:20:00,METAR LIMC 161620Z 34009KT 320V020 CAVOK 19/M07 Q1014 NOSIG
2026-03-16 15:50:00,METAR LIMC 161550Z 33009KT CAVOK 19/M04 Q1013 NOSIG
2026-03-16 15:20:00,METAR LIMC 161520Z 32008KT 290V350 CAVOK 20/M04 Q1013 NOSIG
2026-03-16 14:50:00,METAR LIMC 161450Z 33008KT 270V010 CAVOK 20/M03 Q1013 NOSIG
2026-03-16 14:20:00,METAR LIMC 161420Z 31007KT 280V350 CAVOK 20/M04 Q1013 NOSIG
2026-03-16 13:50:00,METAR LIMC 161350Z 31007KT 270V350 CAVOK 19/M02 Q1014 NOSIG
2026-03-16 13:20:00,METAR LIMC 161320Z 31009KT 280V340 CAVOK 19/M01 Q1014 NOSIG
2026-03-16 12:50:00,METAR LIMC 161250Z 30005KT 240V360 CAVOK 19/M01 Q1014 NOSIG
2026-03-16 12:20:00,METAR LIMC 161220Z VRB03KT CAVOK 19/00 Q1014 NOSIG
2026-03-16 11:50:00,METAR LIMC 161150Z 33006KT 270V020 CAVOK 18/02 Q1015 NOSIG
2026-03-16 11:20:00,METAR LIMC 161120Z 29006KT 260V330 CAVOK 18/01 Q1015 NOSIG
2026-03-16 10:50:00,METAR LIMC 161050Z 29006KT 250V320 CAVOK 17/00 Q1015 NOSIG
2026-03-16 10:20:00,METAR LIMC 161020Z 30008KT 280V340 CAVOK 17/04 Q1015 NOSIG
2026-03-16 09:50:00,METAR LIMC 160950Z 31008KT CAVOK 16/05 Q1016 NOSIG
2026-03-16 09:20:00,METAR LIMC 160920Z 32007KT 290V360 CAVOK 15/06 Q1015 NOSIG
2026-03-16 08:50:00,METAR LIMC 160850Z 33007KT 300V010 CAVOK 13/06 Q1015 NOSIG
2026-03-16 08:20:00,METAR LIMC 160820Z 35005KT CAVOK 12/06 Q1015 NOSIG
2026-03-16 07:50:00,METAR LIMC 160750Z 34006KT CAVOK 11/06 Q1015 NOSIG
2026-03-16 07:20:00,METAR LIMC 160720Z 35004KT 290V040 CAVOK 09/06 Q1015 NOSIG
2026-03-16 06:50:00,METAR LIMC 160650Z 35004KT 320V020 CAVOK 06/05 Q1014 NOSIG
2026-03-16 06:20:00,METAR LIMC 160620Z 34004KT CAVOK 04/03 Q1014 NOSIG
2026-03-16 05:50:00,METAR LIMC 160550Z 34005KT CAVOK 04/03 Q1014 NOSIG
2026-03-16 05:20:00,METAR LIMC 160520Z 36004KT 330V030 CAVOK 06/05 Q1014 NOSIG
2026-03-16 04:50:00,METAR LIMC 160450Z 34006KT CAVOK 06/04 Q1014 NOSIG
2026-03-16 04:20:00,METAR LIMC 160420Z 35007KT CAVOK 07/05 Q1013 NOSIG
2026-03-16 03:50:00,METAR LIMC 160350Z 34007KT CAVOK 07/05 Q1014 NOSIG
2026-03-16 03:20:00,METAR LIMC 160320Z VRB02KT CAVOK 06/05 Q1013 NOSIG
2026-03-16 02:50:00,METAR LIMC 160250Z 34007KT CAVOK 07/05 Q1014 NOSIG
2026-03-16 02:20:00,METAR LIMC 160220Z 34005KT CAVOK 05/05 Q1014 NOSIG
2026-03-16 01:50:00,METAR LIMC 160150Z 35005KT CAVOK 06/05 Q1014 NOSIG
2026-03-16 01:20:00,METAR LIMC 160120Z 34004KT CAVOK 06/05 Q1014 NOSIG
2026-03-16 00:50:00,METAR LIMC 160050Z 35004KT 9999 SCT100 08/06 Q1014 NOSIG
2026-03-16 00:20:00,METAR LIMC 160020Z 35004KT 320V020 9999 SCT100 08/06 Q1014 NOSIG
2026-03-15 23:50:00,METAR LIMC 152350Z 35003KT 330V030 9999 SCT100 08/06 Q1014 NOSIG
2026-03-15 23:20:00,METAR LIMC 152320Z 34004KT 9999 SCT100 09/06 Q1014 NOSIG
2026-03-15 22:50:00,METAR LIMC 152250Z 36007KT 9999 SCT090 09/06 Q1014 NOSIG
2026-03-15 22:20:00,METAR LIMC 152220Z 01005KT 9999 BKN085 09/06 Q1014 NOSIG
2026-03-15 21:50:00,METAR LIMC 152150Z 01007KT 9999 BKN070 09/06 Q1014 NOSIG
2026-03-15 21:20:00,METAR LIMC 152120Z 35007KT 9999 BKN065 09/06 Q1014 NOSIG
2026-03-15 20:50:00,METAR LIMC 152050Z 36006KT 9999 SCT065 SCT085 09/06 Q1014 NOSIG
2026-03-15 20:20:00,METAR LIMC 152020Z 35006KT 9999 BKN070 10/06 Q1013 NOSIG
2026-03-15 19:50:00,METAR LIMC 151950Z 34008KT 9999 BKN070 10/06 Q1013 NOSIG
2026-03-15 19:20:00,METAR LIMC 151920Z 35007KT 9999 BKN070 10/06 Q1013 NOSIG
2026-03-15 18:50:00,METAR LIMC 151850Z 36007KT 9999 BKN060 10/06 Q1013 NOSIG
2026-03-15 18:20:00,METAR LIMC 151820Z 06005KT 9999 BKN040 10/06 Q1013 NOSIG
2026-03-15 17:50:00,METAR LIMC 151750Z 36004KT 9999 BKN040 10/06 Q1012 NOSIG
2026-03-15 17:20:00,METAR LIMC 151720Z 35007KT 9999 BKN040 10/06 Q1012 NOSIG
2026-03-15 16:50:00,METAR LIMC 151650Z 35006KT 9999 BKN080 11/06 Q1011 NOSIG
2026-03-15 16:20:00,METAR LIMC 151620Z 36007KT 9999 BKN080 12/06 Q1010 NOSIG
2026-03-15 15:50:00,METAR LIMC 151550Z 01007KT 9999 BKN050 12/06 Q1010 NOSIG
2026-03-15 15:20:00,METAR LIMC 151520Z 01007KT 9999 BKN050 13/07 Q1010 NOSIG
2026-03-15 14:50:00,METAR LIMC 151450Z 36008KT 9999 BKN065 12/06 Q1010 NOSIG
2026-03-15 14:20:00,METAR LIMC 151420Z 36008KT 9999 BKN060 12/07 Q1010 NOSIG
2026-03-15 13:50:00,METAR LIMC 151350Z 01010KT 9999 BKN040 12/06 Q1010 NOSIG
2026-03-15 13:20:00,METAR LIMC 151320Z 01009KT 350V050 9999 BKN040 11/06 Q1010 NOSIG
2026-03-15 12:50:00,METAR LIMC 151250Z 03010KT 9999 BKN040 11/06 Q1009 NOSIG
2026-03-15 12:20:00,METAR LIMC 151220Z 01010KT 9999 SCT050 13/06 Q1009 NOSIG
2026-03-15 11:50:00,METAR LIMC 151150Z 35013KT 9999 FEW045 SCT075 12/05 Q1009 NOSIG
2026-03-15 11:20:00,METAR LIMC 151120Z 36010KT 9999 SCT050 11/05 Q1009 NOSIG
2026-03-15 10:50:00,METAR LIMC 151050Z 01012KT 9999 FEW055 10/05 Q1009 NOSIG
2026-03-15 10:20:00,METAR LIMC 151020Z 36012KT 9999 FEW050 BKN100 10/06 Q1008 NOSIG
2026-03-15 09:50:00,METAR LIMC 150950Z 01013KT 9999 BKN080 09/05 Q1008 NOSIG
2026-03-15 09:20:00,METAR LIMC 150920Z 01016KT 9999 BKN060 08/05 Q1007 NOSIG
2026-03-15 08:50:00,METAR LIMC 150850Z 01015KT 9999 BKN050 07/05 Q1007 NOSIG
2026-03-15 08:20:00,METAR LIMC 150820Z 36014KT 9999 BKN045 06/04 Q1007 NOSIG
