Time_recorded,METAR
2026-05-02 15:30:00,METAR LEBL 021530Z 09008KT 060V120 9000 FEW015 SCT055 19/15 Q1021 NOSIG
2026-05-02 15:00:00,METAR LEBL 021500Z 09008KT 060V130 9000 FEW015 SCT050 19/15 Q1021 NOSIG
2026-05-02 14:30:00,METAR LEBL 021430Z 09009KT 060V120 9000 FEW020 SCT060 19/15 Q1021 NOSIG
2026-05-02 14:00:00,METAR LEBL 021400Z 10008KT 8000 FEW015 SCT060 19/15 Q1022 NOSIG
2026-05-02 13:30:00,METAR LEBL 021330Z 09008KT 060V130 8000 FEW015 SCT060 19/16 Q1022 NOSIG
2026-05-02 13:00:00,METAR LEBL 021300Z 10011KT 070V130 8000 FEW015 SCT060 19/16 Q1022 NOSIG
2026-05-02 12:30:00,METAR LEBL 021230Z 09009KT 8000 FEW015 BKN060 19/16 Q1022 NOSIG
2026-05-02 12:00:00,METAR LEBL 021200Z 09010KT 060V120 8000 FEW015 SCT060 19/16 Q1022 NOSIG
2026-05-02 11:30:00,METAR LEBL 021130Z 09010KT 060V120 8000 SCT020 BKN060 19/15 Q1022 NOSIG
2026-05-02 11:00:00,METAR LEBL 021100Z 10010KT 8000 BKN060 19/16 Q1022 NOSIG
2026-05-02 10:30:00,METAR LEBL 021030Z 09008KT 060V120 8000 BKN060 19/14 Q1023 NOSIG
2026-05-02 10:00:00,METAR LEBL 021000Z 06009KT 040V120 8000 FEW010 BKN060 19/14 Q1023 NOSIG
2026-05-02 09:30:00,METAR LEBL 020930Z 06009KT 8000 FEW011 BKN060 19/14 Q1023 NOSIG
2026-05-02 09:00:00,METAR LEBL 020900Z 06007KT 8000 FEW011 SCT050 19/15 Q1023 NOSIG
2026-05-02 08:30:00,METAR LEBL 020830Z 05007KT 8000 FEW011 BKN050 18/15 Q1023 NOSIG
2026-05-02 08:00:00,METAR LEBL 020800Z 06007KT 8000 FEW011 BKN050 18/15 Q1023 NOSIG
2026-05-02 07:30:00,METAR LEBL 020730Z 06008KT 8000 FEW011 BKN050 18/16 Q1023 NOSIG
2026-05-02 07:00:00,METAR LEBL 020700Z 06008KT 8000 FEW011 BKN050 18/16 Q1023 NOSIG
2026-05-02 06:30:00,METAR LEBL 020630Z 07009KT 8000 FEW011 SCT060 18/16 Q1023 NOSIG
2026-05-02 06:00:00,METAR LEBL 020600Z 06008KT 8000 FEW011 SCT060 18/16 Q1023 NOSIG
2026-05-02 05:30:00,METAR LEBL 020530Z 06008KT 8000 FEW035 18/16 Q1023 NOSIG
2026-05-02 05:00:00,METAR LEBL 020500Z 07007KT 040V100 8000 SCT036 18/16 Q1023 NOSIG
2026-05-02 04:30:00,METAR LEBL 020430Z 07006KT 8000 SCT036 18/16 Q1023 NOSIG
2026-05-02 04:00:00,METAR LEBL 020400Z 07007KT 030V090 8000 FEW032 18/16 Q1023 NOSIG
2026-05-02 03:30:00,METAR LEBL 020330Z 07009KT 040V100 8000 FEW045 SCT057 18/16 Q1023 NOSIG
2026-05-02 03:00:00,METAR LEBL 020300Z 07009KT 8000 FEW045 SCT057 18/16 Q1023 NOSIG
2026-05-02 02:30:00,METAR LEBL 020230Z 07009KT 8000 FEW045 SCT057 18/16 Q1023 NOSIG
2026-05-02 02:00:00,METAR LEBL 020200Z 06008KT 8000 FEW014 SCT050 18/16 Q1023 NOSIG
2026-05-02 01:30:00,METAR LEBL 020130Z 06009KT 8000 FEW008 BKN015 BKN040 18/17 Q1023 NOSIG
2026-05-02 01:00:00,METAR LEBL 020100Z 07009KT 8000 FEW015 SCT045 18/17 Q1023 NOSIG
2026-05-02 00:30:00,METAR LEBL 020030Z 07008KT 8000 FEW015 SCT050 18/17 Q1024 NOSIG
2026-05-02 00:00:00,METAR LEBL 020000Z 07007KT 030V090 8000 FEW019 BKN028 BKN043 18/16 Q1024 NOSIG
2026-05-01 23:30:00,METAR LEBL 012330Z 07006KT 8000 SCT029 BKN042 18/16 Q1024 NOSIG
2026-05-01 23:00:00,METAR LEBL 012300Z 08006KT 8000 FEW045 SCT060 18/16 Q1024 NOSIG
2026-05-01 22:30:00,METAR LEBL 012230Z 07007KT 040V100 8000 FEW020 SCT042 BKN059 18/16 Q1024 NOSIG
2026-05-01 22:00:00,METAR LEBL 012200Z 08010KT 8000 FEW023 BKN040 18/16 Q1024 NOSIG
2026-05-01 21:30:00,METAR LEBL 012130Z 08008KT 050V110 8000 FEW026 BKN041 18/16 Q1024 NOSIG
2026-05-01 21:00:00,METAR LEBL 012100Z 07009KT 8000 SCT035 18/16 Q1024 NOSIG
2026-05-01 20:30:00,METAR LEBL 012030Z 07009KT 8000 FEW030 BKN040 18/16 Q1024 NOSIG
2026-05-01 20:00:00,METAR LEBL 012000Z 08010KT 8000 SCT038 18/16 Q1024 NOSIG
2026-05-01 19:30:00,METAR LEBL 011930Z 09008KT 060V120 8000 SCT015 18/16 Q1023 NOSIG
2026-05-01 19:00:00,METAR LEBL 011900Z 09008KT 060V120 8000 SCT014 18/16 Q1023 NOSIG
2026-05-01 18:30:00,METAR LEBL 011830Z 08007KT 050V110 8000 SCT014 18/16 Q1023 NOSIG
2026-05-01 18:00:00,METAR LEBL 011800Z 08010KT 040V100 8000 SCT014 18/16 Q1023 NOSIG
2026-05-01 17:30:00,METAR LEBL 011730Z 07011KT 8000 FEW015 18/16 Q1023 NOSIG
2026-05-01 17:00:00,METAR LEBL 011700Z 07011KT 9000 FEW018 19/15 Q1022 NOSIG
2026-05-01 16:30:00,METAR LEBL 011630Z 07014KT 040V100 9000 FEW030 19/15 Q1022 NOSIG
2026-05-01 16:00:00,METAR LEBL 011600Z 07014KT 9000 FEW030 19/15 Q1022 NOSIG
2026-05-01 15:30:00,METAR LEBL 011530Z 07014KT 050V110 9000 FEW030 19/14 Q1022 NOSIG
2026-05-01 15:00:00,METAR LEBL 011500Z 08015KT 9000 FEW030 20/14 Q1022 NOSIG
2026-05-01 14:30:00,METAR LEBL 011430Z 09015G25KT 050V110 9000 FEW030 20/14 Q1022 NOSIG
2026-05-01 14:00:00,METAR LEBL 011400Z 09015KT 9000 FEW030 20/13 Q1022 NOSIG
2026-05-01 13:30:00,METAR LEBL 011330Z 09016KT 070V130 9000 FEW030 21/14 Q1022 NOSIG
2026-05-01 13:00:00,METAR LEBL 011300Z 09017KT 9000 FEW030 21/15 Q1022 NOSIG
2026-05-01 12:30:00,METAR LEBL 011230Z 08019KT 9000 FEW030 21/15 Q1022 NOSIG
2026-05-01 12:00:00,METAR LEBL 011200Z 08020KT 9000 FEW030 20/15 Q1022 NOSIG
2026-05-01 11:30:00,METAR LEBL 011130Z 07018KT 9000 FEW030 21/14 Q1022 NOSIG
2026-05-01 11:00:00,METAR LEBL 011100Z 08021KT 9000 FEW030 21/14 Q1022 NOSIG
2026-05-01 10:30:00,METAR LEBL 011030Z 08019KT 9000 FEW030 22/14 Q1022 NOSIG
2026-05-01 10:00:00,METAR LEBL 011000Z 08017KT 9000 SCT030 21/15 Q1022 NOSIG
2026-05-01 09:30:00,METAR LEBL 010930Z 08015KT 040V100 9000 FEW025 20/15 Q1022 NOSIG
2026-05-01 09:00:00,METAR LEBL 010900Z 07016KT 9000 FEW025 20/14 Q1022 NOSIG
2026-05-01 08:30:00,METAR LEBL 010830Z 07014KT 9000 SCT025 20/14 Q1022 NOSIG
2026-05-01 08:00:00,METAR LEBL 010800Z 06014KT 030V110 9000 SCT025 20/14 Q1021 NOSIG
2026-05-01 07:30:00,METAR LEBL 010730Z 04012KT 9000 FEW040 19/14 Q1021 NOSIG
2026-05-01 07:00:00,METAR LEBL 010700Z 04010KT 020V080 9000 FEW040 19/14 Q1021 NOSIG
2026-05-01 06:30:00,METAR LEBL 010630Z 03006KT 9000 FEW040 17/14 Q1021 NOSIG
2026-05-01 06:00:00,METAR LEBL 010600Z 36005KT 9000 FEW040 16/14 Q1021 NOSIG
2026-05-01 05:30:00,METAR LEBL 010530Z 33005KT 9000 FEW040 16/14 Q1020 NOSIG
2026-05-01 05:00:00,METAR LEBL 010500Z 03005KT 9000 FEW030 16/14 Q1020 NOSIG
2026-05-01 04:30:00,METAR LEBL 010430Z 05009KT 9000 FEW020 16/14 Q1020 NOSIG
2026-05-01 04:00:00,METAR LEBL 010400Z 06012KT 9999 FEW020 17/15 Q1020 NOSIG
2026-05-01 03:30:00,METAR LEBL 010330Z 06010KT 9999 FEW020 17/15 Q1020 NOSIG
2026-05-01 03:00:00,METAR LEBL 010300Z 06012KT 9999 FEW020 17/15 Q1020 NOSIG
2026-05-01 02:30:00,METAR LEBL 010230Z 07011KT 9999 FEW020 17/16 Q1020 NOSIG
2026-05-01 02:00:00,METAR LEBL 010200Z 06009KT 9999 FEW015 SCT034 17/16 Q1020 NOSIG
2026-05-01 01:30:00,METAR LEBL 010130Z 07010KT 9999 FEW015 BKN034 18/16 Q1020 NOSIG
2026-05-01 01:00:00,METAR LEBL 010100Z 06010KT 9999 FEW015 BKN032 18/16 Q1020 NOSIG
2026-05-01 00:30:00,METAR LEBL 010030Z 06012KT 9999 FEW015 SCT031 18/16 Q1020 NOSIG
2026-05-01 00:00:00,METAR LEBL 010000Z 08009KT 9999 FEW014 18/16 Q1020 NOSIG
2026-04-30 23:30:00,METAR LEBL 302330Z 07012KT 9999 FEW014 18/15 Q1020 NOSIG
2026-04-30 23:00:00,METAR LEBL 302300Z 08013KT 9999 FEW014 18/16 Q1019 NOSIG
2026-04-30 22:30:00,METAR LEBL 302230Z 08013KT 9999 FEW014 18/16 Q1019 NOSIG
2026-04-30 22:00:00,METAR LEBL 302200Z 07017KT 9999 FEW012 18/17 Q1019 NOSIG
2026-04-30 21:30:00,METAR LEBL 302130Z 08017KT 9999 SCT012 18/17 Q1019 NOSIG
2026-04-30 21:00:00,METAR LEBL 302100Z 08014KT 9999 SCT011 18/17 Q1019 NOSIG
2026-04-30 20:30:00,METAR LEBL 302030Z 07012KT 050V110 9999 BKN012 18/17 Q1018 NOSIG
2026-04-30 20:00:00,METAR LEBL 302000Z 07010KT 9999 FEW010 18/17 Q1018 NOSIG
2026-04-30 19:30:00,METAR LEBL 301930Z 07011KT 9999 FEW020 18/17 Q1018 NOSIG
2026-04-30 19:00:00,METAR LEBL 301900Z 06009KT 9999 FEW020 19/17 Q1017 NOSIG
2026-04-30 18:30:00,METAR LEBL 301830Z 08008KT 050V110 9999 FEW020 19/16 Q1017 NOSIG
2026-04-30 18:00:00,METAR LEBL 301800Z 09010KT 9999 FEW015 19/17 Q1017 NOSIG
2026-04-30 17:30:00,METAR LEBL 301730Z 07009KT 040V100 9999 FEW015 20/16 Q1017 NOSIG
2026-04-30 17:00:00,METAR LEBL 301700Z 07011KT 9999 FEW015 20/15 Q1017 NOSIG
2026-04-30 16:30:00,METAR LEBL 301630Z 07012KT 040V100 9999 FEW015 21/16 Q1017 NOSIG
2026-04-30 16:00:00,METAR LEBL 301600Z 08012KT 9999 FEW014 21/17 Q1017 NOSIG
2026-04-30 14:30:00,METAR LEBL 301430Z 07016KT 9999 FEW014 21/16 Q1017 NOSIG
2026-04-30 14:00:00,METAR LEBL 301400Z 09014KT 9999 FEW010 21/18 Q1017 NOSIG
2026-04-30 13:30:00,METAR LEBL 301330Z 09014KT 9999 FEW017 22/17 Q1017 NOSIG
2026-04-30 13:00:00,METAR LEBL 301300Z 08013KT 9999 FEW017 22/16 Q1017 NOSIG
2026-04-30 12:30:00,METAR LEBL 301230Z 07013KT 9999 FEW017 21/16 Q1017 NOSIG
2026-04-30 12:00:00,METAR LEBL 301200Z 07013KT 9999 FEW015 22/15 Q1017 NOSIG
2026-04-30 11:30:00,METAR LEBL 301130Z 07012KT 9999 SCT015 SCT020 21/16 Q1017 NOSIG
2026-04-30 11:00:00,METAR LEBL 301100Z 06013KT 9999 SCT015 SCT020 21/15 Q1017 NOSIG
2026-04-30 10:30:00,METAR LEBL 301030Z 07011KT 040V110 9999 FEW014 SCT064 21/16 Q1017 NOSIG
2026-04-30 10:00:00,METAR LEBL 301000Z 09010KT 9999 FEW014 SCT064 20/15 Q1017 NOSIG
2026-04-30 09:30:00,METAR LEBL 300930Z 09011KT 9999 FEW012 SCT060 20/14 Q1017 NOSIG
2026-04-30 09:00:00,METAR LEBL 300900Z 08008KT 040V110 9999 SCT012 SCT060 19/15 Q1017 NOSIG
2026-04-30 08:30:00,METAR LEBL 300830Z 08010KT 9999 SCT010 SCT015 19/16 Q1016 NOSIG
2026-04-30 08:00:00,METAR LEBL 300800Z 06008KT 9999 SCT010 19/16 Q1016 NOSIG
2026-04-30 07:30:00,METAR LEBL 300730Z 06008KT 030V090 9999 SCT010 18/16 Q1016 NOSIG
2026-04-30 07:00:00,METAR LEBL 300700Z 08008KT 9999 SCT010 18/16 Q1016 NOSIG
2026-04-30 06:30:00,METAR LEBL 300630Z VRB02KT 9999 FEW013 17/14 Q1016 NOSIG
2026-04-30 06:00:00,METAR LEBL 300600Z 34004KT 9999 FEW014 16/14 Q1016 NOSIG
2026-04-30 05:30:00,METAR LEBL 300530Z 34005KT 9999 FEW012 16/14 Q1015 NOSIG
2026-04-30 05:00:00,METAR LEBL 300500Z 33006KT 9999 FEW012 16/14 Q1015 NOSIG
2026-04-30 04:30:00,METAR LEBL 300430Z 33005KT 9999 FEW009 16/15 Q1015 NOSIG
2026-04-30 04:00:00,METAR LEBL 300400Z 33007KT 9999 FEW008 16/15 Q1014 NOSIG
2026-04-30 03:30:00,METAR LEBL 300330Z 33006KT 9999 FEW008 16/15 Q1014 NOSIG
2026-04-30 03:00:00,METAR LEBL 300300Z 34005KT 9999 FEW009 16/15 Q1014 NOSIG
2026-04-30 02:30:00,METAR LEBL 300230Z 34003KT 320V020 9999 FEW009 16/15 Q1014 NOSIG
2026-04-30 02:00:00,METAR LEBL 300200Z 03004KT 9999 FEW009 16/15 Q1014 NOSIG
2026-04-30 01:30:00,METAR LEBL 300130Z 03006KT 9999 FEW009 17/16 Q1014 NOSIG
2026-04-30 01:00:00,METAR LEBL 300100Z 06007KT 9999 SCT009 SCT013 17/17 Q1015 NOSIG
2026-04-30 00:30:00,METAR LEBL 300030Z 04007KT 9999 SCT009 SCT013 17/17 Q1015 NOSIG
2026-04-30 00:00:00,METAR LEBL 300000Z 05006KT 9999 SCT008 SCT013 18/17 Q1015 NOSIG
2026-04-29 23:30:00,METAR LEBL 292330Z 05006KT 9999 BKN009 BKN014 18/17 Q1015 NOSIG
2026-04-29 23:00:00,METAR LEBL 292300Z 06009KT 9999 BKN009 BKN013 BKN035 18/17 Q1015 NOSIG
2026-04-29 22:30:00,METAR LEBL 292230Z 06008KT 9999 BKN009 BKN014 BKN035 18/18 Q1015 NOSIG
2026-04-29 22:24:00,SPECI LEBL 292224Z 06008KT 9999 BKN009 BKN035 18/17 Q1015 NOSIG
2026-04-29 22:00:00,METAR LEBL 292200Z 06009KT 9999 SCT009 SCT035 18/17 Q1015 NOSIG
2026-04-29 21:30:00,METAR LEBL 292130Z 06009KT 9999 SCT009 SCT035 18/17 Q1015 NOSIG
2026-04-29 21:00:00,METAR LEBL 292100Z 07010KT 040V100 9999 BKN009 BKN035 18/18 Q1015 NOSIG
2026-04-29 20:30:00,METAR LEBL 292030Z 06011KT 9999 SCT009 SCT035 18/18 Q1014 NOSIG
2026-04-29 20:00:00,METAR LEBL 292000Z 06010KT 9999 SCT009 SCT030 18/17 Q1014 NOSIG
2026-04-29 19:30:00,METAR LEBL 291930Z 07009KT 9999 SCT009 SCT030 18/17 Q1014 NOSIG
2026-04-29 19:00:00,METAR LEBL 291900Z 06007KT 9999 SCT009 SCT035 18/17 Q1013 NOSIG
2026-04-29 18:30:00,METAR LEBL 291830Z 07009KT 040V100 9999 FEW040 18/17 Q1013 NOSIG
2026-04-29 18:00:00,METAR LEBL 291800Z 07010KT 9999 FEW040 19/16 Q1012 NOSIG
2026-04-29 17:30:00,METAR LEBL 291730Z 07011KT CAVOK 19/16 Q1012 NOSIG
2026-04-29 17:00:00,METAR LEBL 291700Z 06011KT CAVOK 20/16 Q1012 NOSIG
2026-04-29 16:30:00,METAR LEBL 291630Z 07011KT 040V100 9999 FEW020 20/15 Q1012 NOSIG
2026-04-29 16:00:00,METAR LEBL 291600Z 06013KT 9999 FEW018 20/16 Q1012 NOSIG
2026-04-29 15:30:00,METAR LEBL 291530Z 07013KT 040V100 9999 FEW018 20/16 Q1012 NOSIG
2026-04-29 15:00:00,METAR LEBL 291500Z 07013KT 040V100 9999 FEW018 20/16 Q1012 NOSIG
2026-04-29 14:30:00,METAR LEBL 291430Z 07015KT 9999 FEW018 21/16 Q1012 NOSIG
2026-04-29 14:00:00,METAR LEBL 291400Z 08014KT 9999 FEW018 20/15 Q1013 NOSIG
2026-04-29 13:30:00,METAR LEBL 291330Z 07015KT 9999 FEW018 20/16 Q1013 NOSIG
2026-04-29 13:00:00,METAR LEBL 291300Z 07015KT 040V100 9999 FEW018 21/16 Q1013 NOSIG
2026-04-29 12:30:00,METAR LEBL 291230Z 06015KT 9999 FEW020 21/16 Q1013 NOSIG
2026-04-29 12:00:00,METAR LEBL 291200Z 07014KT 9999 FEW018 21/16 Q1013 NOSIG
2026-04-29 11:30:00,METAR LEBL 291130Z 10013KT 070V130 9999 FEW017 20/16 Q1013 NOSIG
2026-04-29 11:00:00,METAR LEBL 291100Z 09014KT 9999 SCT017 20/16 Q1013 NOSIG
2026-04-29 10:30:00,METAR LEBL 291030Z 10015KT 9000 SCT016 20/16 Q1013 NOSIG
2026-04-29 10:00:00,METAR LEBL 291000Z 09014KT 060V120 9000 SCT015 20/16 Q1013 NOSIG
2026-04-29 09:30:00,METAR LEBL 290930Z 09014KT 060V120 9000 SCT015 19/16 Q1013 NOSIG
2026-04-29 09:00:00,METAR LEBL 290900Z 08015KT 040V110 9000 SCT016 19/16 Q1013 NOSIG
2026-04-29 08:30:00,METAR LEBL 290830Z 09015KT 060V120 9000 SCT015 19/16 Q1013 NOSIG
2026-04-29 08:00:00,METAR LEBL 290800Z 07016KT 9000 SCT014 19/16 Q1012 NOSIG
2026-04-29 07:30:00,METAR LEBL 290730Z 07013KT 9999 SCT014 18/16 Q1012 NOSIG
2026-04-29 07:00:00,METAR LEBL 290700Z 07012KT 9000 SCT014 18/16 Q1012 NOSIG
2026-04-29 06:30:00,METAR LEBL 290630Z 06012KT 9000 SCT014 18/16 Q1011 NOSIG
2026-04-29 06:00:00,METAR LEBL 290600Z 05012KT 9000 SCT014 17/16 Q1011 NOSIG
2026-04-29 05:30:00,METAR LEBL 290530Z 05011KT 9000 BKN012 17/17 Q1011 NOSIG
2026-04-29 05:00:00,METAR LEBL 290500Z 05012KT 9999 SCT012 BKN016 17/17 Q1011 NOSIG
2026-04-29 04:30:00,METAR LEBL 290430Z 05013KT 9999 SCT012 SCT023 17/17 Q1011 NOSIG
2026-04-29 04:00:00,METAR LEBL 290400Z 06011KT 9999 -RA FEW012 SCT023 17/17 Q1011 NOSIG
2026-04-29 03:30:00,METAR LEBL 290330Z 07009KT 9999 -RA FEW011 SCT025 18/18 Q1012 NOSIG
2026-04-29 03:00:00,METAR LEBL 290300Z 06007KT 040V100 9999 -RA FEW013 SCT025 18/17 Q1012 NOSIG
2026-04-29 02:30:00,METAR LEBL 290230Z 07008KT 9999 FEW012 BKN027 18/17 Q1012 NOSIG
2026-04-29 02:00:00,METAR LEBL 290200Z 08007KT 9999 FEW012 BKN028 18/17 Q1012 NOSIG
2026-04-29 01:30:00,METAR LEBL 290130Z 07009KT 9999 FEW012 BKN025 18/17 Q1012 NOSIG
2026-04-29 01:00:00,METAR LEBL 290100Z 08008KT 9999 SCT019 BKN025 18/17 Q1013 NOSIG
2026-04-29 00:30:00,METAR LEBL 290030Z 08008KT 9999 SCT016 BKN023 18/17 Q1013 NOSIG
2026-04-29 00:00:00,METAR LEBL 290000Z 08006KT 9999 SCT015 BKN019 18/17 Q1013 NOSIG
2026-04-28 23:30:00,METAR LEBL 282330Z 08006KT 9999 -DZ SCT014 BKN021 18/17 Q1013 NOSIG
2026-04-28 23:00:00,METAR LEBL 282300Z 09007KT 9999 -DZ SCT015 BKN021 18/17 Q1013 NOSIG
2026-04-28 22:30:00,METAR LEBL 282230Z 09006KT 9999 BKN018 18/18 Q1013 NOSIG
2026-04-28 22:00:00,METAR LEBL 282200Z 08006KT 9999 BKN016 18/17 Q1013 NOSIG
2026-04-28 21:30:00,METAR LEBL 282130Z 09005KT 060V120 9999 SCT014 18/17 Q1013 NOSIG
2026-04-28 21:00:00,METAR LEBL 282100Z 08007KT 030V100 9999 FEW025 18/16 Q1012 NOSIG
2026-04-28 20:30:00,METAR LEBL 282030Z 08006KT 050V120 9999 FEW025 18/16 Q1012 NOSIG
2026-04-28 20:00:00,METAR LEBL 282000Z 07007KT 9999 FEW025 19/16 Q1012 NOSIG
2026-04-28 19:30:00,METAR LEBL 281930Z 07008KT 9999 FEW025 19/16 Q1011 NOSIG
2026-04-28 19:00:00,METAR LEBL 281900Z 06007KT 020V100 9999 FEW025 19/16 Q1011 NOSIG
2026-04-28 18:30:00,METAR LEBL 281830Z 09006KT CAVOK 19/15 Q1011 NOSIG
2026-04-28 18:00:00,METAR LEBL 281800Z 11004KT 9999 FEW025 19/15 Q1012 NOSIG
2026-04-28 17:30:00,METAR LEBL 281730Z 14005KT 110V170 9999 FEW020 20/16 Q1012 NOSIG
2026-04-28 17:00:00,METAR LEBL 281700Z 16005KT 110V190 9999 FEW020 20/15 Q1012 NOSIG
2026-04-28 16:30:00,METAR LEBL 281630Z 18006KT 140V210 9999 FEW025 20/16 Q1012 NOSIG
2026-04-28 16:00:00,METAR LEBL 281600Z 18006KT 130V200 9999 FEW025 20/16 Q1012 NOSIG
2026-04-28 15:30:00,METAR LEBL 281530Z 17006KT 120V230 9999 FEW025 20/15 Q1012 NOSIG
2026-04-28 15:00:00,METAR LEBL 281500Z 14006KT 120V190 CAVOK 20/15 Q1013 NOSIG
2026-04-28 14:30:00,METAR LEBL 281430Z 16006KT 110V210 CAVOK 20/16 Q1013 NOSIG
2026-04-28 14:00:00,METAR LEBL 281400Z 12006KT 080V160 CAVOK 21/14 Q1013 NOSIG
2026-04-28 13:30:00,METAR LEBL 281330Z 16007KT 120V200 CAVOK 20/16 Q1013 NOSIG
2026-04-28 13:00:00,METAR LEBL 281300Z 18006KT 110V210 CAVOK 21/16 Q1013 NOSIG
2026-04-28 12:30:00,METAR LEBL 281230Z 15006KT 130V200 CAVOK 21/14 Q1014 NOSIG
2026-04-28 12:00:00,METAR LEBL 281200Z 19007KT 150V220 CAVOK 20/15 Q1014 NOSIG
2026-04-28 11:30:00,METAR LEBL 281130Z 19007KT 150V230 CAVOK 20/16 Q1014 NOSIG
2026-04-28 11:00:00,METAR LEBL 281100Z 16007KT 130V200 CAVOK 20/16 Q1015 NOSIG
2026-04-28 10:30:00,METAR LEBL 281030Z 19009KT CAVOK 20/15 Q1015 NOSIG
2026-04-28 10:00:00,METAR LEBL 281000Z 18008KT 140V210 CAVOK 20/15 Q1015 NOSIG
2026-04-28 09:30:00,METAR LEBL 280930Z 11007KT 080V160 CAVOK 20/14 Q1015 NOSIG
2026-04-28 09:00:00,METAR LEBL 280900Z 14005KT 080V190 CAVOK 20/15 Q1015 NOSIG
2026-04-28 08:30:00,METAR LEBL 280830Z 09004KT 030V130 CAVOK 20/15 Q1015 NOSIG
2026-04-28 08:00:00,METAR LEBL 280800Z 04002KT CAVOK 19/15 Q1015 NOSIG
2026-04-28 07:30:00,METAR LEBL 280730Z 34004KT 230V010 CAVOK 18/15 Q1014 NOSIG
2026-04-28 07:00:00,METAR LEBL 280700Z 34005KT CAVOK 17/15 Q1014 NOSIG
2026-04-28 06:30:00,METAR LEBL 280630Z 32005G15KT 250V010 CAVOK 16/13 Q1015 NOSIG
2026-04-28 06:00:00,METAR LEBL 280600Z 31006KT 230V350 CAVOK 15/13 Q1014 NOSIG
2026-04-28 05:30:00,METAR LEBL 280530Z 34004KT 250V040 CAVOK 15/13 Q1014 NOSIG
2026-04-28 05:00:00,METAR LEBL 280500Z 34005KT 220V030 CAVOK 15/12 Q1014 NOSIG
2026-04-28 04:30:00,METAR LEBL 280430Z 32008KT CAVOK 15/12 Q1014 NOSIG
2026-04-28 04:00:00,METAR LEBL 280400Z 31006KT CAVOK 15/11 Q1014 NOSIG
2026-04-28 03:30:00,METAR LEBL 280330Z 31005KT CAVOK 14/10 Q1015 NOSIG
2026-04-28 03:00:00,METAR LEBL 280300Z 29004KT CAVOK 14/10 Q1015 NOSIG
2026-04-28 02:30:00,METAR LEBL 280230Z 30006KT 9999 FEW030 14/10 Q1015 NOSIG
2026-04-28 02:00:00,METAR LEBL 280200Z 32005KT 9999 FEW030 14/10 Q1015 NOSIG
2026-04-28 01:30:00,METAR LEBL 280130Z 32005KT 9999 FEW030 15/11 Q1015 NOSIG
2026-04-28 01:00:00,METAR LEBL 280100Z 31003KT 9999 FEW030 15/11 Q1016 NOSIG
2026-04-28 00:30:00,METAR LEBL 280030Z 29003KT 9999 FEW030 16/11 Q1016 NOSIG
2026-04-28 00:00:00,METAR LEBL 280000Z 31004KT 9999 FEW030 15/11 Q1016 NOSIG
2026-04-27 23:30:00,METAR LEBL 272330Z 32004KT 9999 FEW030 16/11 Q1017 NOSIG
2026-04-27 23:00:00,METAR LEBL 272300Z 30003KT 9999 FEW030 16/12 Q1017 NOSIG
2026-04-27 22:30:00,METAR LEBL 272230Z 31003KT 280V340 9999 FEW030 16/12 Q1017 NOSIG
2026-04-27 22:00:00,METAR LEBL 272200Z 26003KT 230V300 9999 FEW030 16/12 Q1017 NOSIG
2026-04-27 21:30:00,METAR LEBL 272130Z 21004KT 9999 FEW030 17/17 Q1017 NOSIG
2026-04-27 21:00:00,METAR LEBL 272100Z VRB01KT 9999 FEW030 18/18 Q1017 NOSIG
2026-04-27 20:30:00,METAR LEBL 272030Z 16002KT 9999 FEW030 18/17 Q1017 NOSIG
2026-04-27 20:00:00,METAR LEBL 272000Z VRB01KT 9999 FEW030 18/17 Q1017 NOSIG
2026-04-27 19:30:00,METAR LEBL 271930Z 20003KT 170V230 9999 FEW030 18/17 Q1017 NOSIG
2026-04-27 19:00:00,METAR LEBL 271900Z 21004KT 9999 FEW030 18/16 Q1017 NOSIG
2026-04-27 18:30:00,METAR LEBL 271830Z 20005KT CAVOK 19/15 Q1017 NOSIG
2026-04-27 18:00:00,METAR LEBL 271800Z 20005KT CAVOK 19/16 Q1017 NOSIG
2026-04-27 17:30:00,METAR LEBL 271730Z 18004KT 140V230 CAVOK 19/16 Q1017 NOSIG
2026-04-27 17:00:00,METAR LEBL 271700Z 17004KT 130V210 CAVOK 20/15 Q1017 NOSIG
2026-04-27 16:30:00,METAR LEBL 271630Z 18004KT 090V220 CAVOK 20/15 Q1017 NOSIG
2026-04-27 16:00:00,METAR LEBL 271600Z 20006KT 160V230 CAVOK 20/15 Q1017 NOSIG
2026-04-27 15:30:00,METAR LEBL 271530Z 18006KT 130V230 CAVOK 20/14 Q1017 NOSIG
2026-04-27 15:00:00,METAR LEBL 271500Z 18007KT 140V220 CAVOK 20/14 Q1017 NOSIG
2026-04-27 14:30:00,METAR LEBL 271430Z 18006KT 150V230 CAVOK 21/14 Q1017 NOSIG
2026-04-27 14:00:00,METAR LEBL 271400Z 19006KT 140V220 CAVOK 20/15 Q1018 NOSIG
2026-04-27 13:30:00,METAR LEBL 271330Z 19005KT 130V240 CAVOK 20/16 Q1018 NOSIG
2026-04-27 13:00:00,METAR LEBL 271300Z 19007KT 160V220 CAVOK 21/17 Q1018 NOSIG
2026-04-27 12:30:00,METAR LEBL 271230Z 17006KT 120V200 CAVOK 20/16 Q1018 NOSIG
2026-04-27 12:00:00,METAR LEBL 271200Z 15005KT 100V200 CAVOK 21/15 Q1018 NOSIG
2026-04-27 11:30:00,METAR LEBL 271130Z 12004KT 040V200 CAVOK 22/15 Q1019 NOSIG
2026-04-27 11:00:00,METAR LEBL 271100Z 11007KT 070V150 CAVOK 20/16 Q1019 NOSIG
2026-04-27 10:30:00,METAR LEBL 271030Z 08008KT 040V120 CAVOK 21/14 Q1019 NOSIG
2026-04-27 10:00:00,METAR LEBL 271000Z 09008KT 060V130 CAVOK 22/15 Q1019 NOSIG
2026-04-27 09:30:00,METAR LEBL 270930Z 08006KT 020V110 CAVOK 22/15 Q1019 NOSIG
2026-04-27 09:00:00,METAR LEBL 270900Z 08004KT 010V120 9999 FEW025 22/14 Q1019 NOSIG
2026-04-27 08:30:00,METAR LEBL 270830Z 16003KT 120V210 9999 FEW025 20/14 Q1019 NOSIG
2026-04-27 08:00:00,METAR LEBL 270800Z 17004KT 110V220 9999 SCT025 18/14 Q1019 NOSIG
2026-04-27 07:30:00,METAR LEBL 270730Z 03002KT CAVOK 19/13 Q1019 NOSIG
2026-04-27 07:00:00,METAR LEBL 270700Z 33003KT 280V040 CAVOK 19/13 Q1019 NOSIG
2026-04-27 06:30:00,METAR LEBL 270630Z 26003KT 200V310 CAVOK 20/13 Q1019 NOSIG
2026-04-27 06:00:00,METAR LEBL 270600Z VRB02KT CAVOK 18/11 Q1018 NOSIG
2026-04-27 05:30:00,METAR LEBL 270530Z 28003KT 250V340 CAVOK 17/12 Q1018 NOSIG
2026-04-27 05:00:00,METAR LEBL 270500Z 26003KT 240V300 CAVOK 17/12 Q1018 NOSIG
2026-04-27 04:30:00,METAR LEBL 270430Z 25005KT CAVOK 16/12 Q1018 NOSIG
2026-04-27 04:00:00,METAR LEBL 270400Z 21004KT CAVOK 17/10 Q1018 NOSIG
2026-04-27 03:30:00,METAR LEBL 270330Z 20003KT CAVOK 17/10 Q1018 NOSIG
2026-04-27 03:00:00,METAR LEBL 270300Z 34001KT CAVOK 17/09 Q1018 NOSIG
2026-04-27 02:30:00,METAR LEBL 270230Z 28002KT CAVOK 16/08 Q1018 NOSIG
2026-04-27 02:00:00,METAR LEBL 270200Z 28004KT CAVOK 16/07 Q1018 NOSIG
2026-04-27 01:30:00,METAR LEBL 270130Z 27004KT CAVOK 16/09 Q1018 NOSIG
2026-04-27 01:00:00,METAR LEBL 270100Z 27004KT CAVOK 16/10 Q1018 NOSIG
2026-04-27 00:30:00,METAR LEBL 270030Z 30004KT CAVOK 16/11 Q1019 NOSIG
2026-04-27 00:00:00,METAR LEBL 270000Z 30003KT CAVOK 17/11 Q1019 NOSIG
2026-04-26 23:30:00,METAR LEBL 262330Z 27004KT CAVOK 17/15 Q1019 NOSIG
2026-04-26 23:00:00,METAR LEBL 262300Z 23006KT CAVOK 17/16 Q1019 NOSIG
2026-04-26 22:30:00,METAR LEBL 262230Z 24007KT CAVOK 17/16 Q1019 NOSIG
2026-04-26 22:00:00,METAR LEBL 262200Z 23006KT CAVOK 18/17 Q1019 NOSIG
2026-04-26 21:30:00,METAR LEBL 262130Z 22006KT CAVOK 18/17 Q1019 NOSIG
2026-04-26 21:00:00,METAR LEBL 262100Z 22006KT CAVOK 18/17 Q1019 NOSIG
2026-04-26 20:30:00,METAR LEBL 262030Z 22006KT CAVOK 18/18 Q1019 NOSIG
2026-04-26 20:00:00,METAR LEBL 262000Z 23006KT CAVOK 18/17 Q1019 NOSIG
2026-04-26 19:30:00,METAR LEBL 261930Z 21005KT CAVOK 18/17 Q1019 NOSIG
2026-04-26 19:00:00,METAR LEBL 261900Z 19005KT CAVOK 19/16 Q1018 NOSIG
2026-04-26 18:30:00,METAR LEBL 261830Z VRB02KT CAVOK 20/10 Q1018 NOSIG
2026-04-26 18:00:00,METAR LEBL 261800Z 16003KT 130V200 CAVOK 21/04 Q1018 NOSIG
2026-04-26 17:30:00,METAR LEBL 261730Z 15003KT CAVOK 22/07 Q1018 NOSIG
2026-04-26 17:00:00,METAR LEBL 261700Z 15003KT 040V190 CAVOK 22/08 Q1018 NOSIG
2026-04-26 16:30:00,METAR LEBL 261630Z 18003KT 110V220 CAVOK 22/09 Q1018 NOSIG
2026-04-26 15:00:00,METAR LEBL 261500Z 21008KT 160V240 9999 FEW020 21/16 Q1018 NOSIG
2026-04-26 14:30:00,METAR LEBL 261430Z 20008KT 170V230 9999 FEW020 21/15 Q1018 NOSIG
2026-04-26 14:00:00,METAR LEBL 261400Z 20007KT 170V240 9999 FEW020 21/14 Q1019 NOSIG
2026-04-26 13:30:00,METAR LEBL 261330Z 20008KT 160V240 9999 FEW020 21/16 Q1019 NOSIG
2026-04-26 13:00:00,METAR LEBL 261300Z 19008KT 150V210 9999 FEW020 21/16 Q1019 NOSIG
2026-04-26 12:30:00,METAR LEBL 261230Z 18006KT 140V210 9999 FEW020 21/14 Q1019 NOSIG
2026-04-26 12:00:00,METAR LEBL 261200Z 13005KT 100V160 9999 FEW020 22/13 Q1019 NOSIG
2026-04-26 11:30:00,METAR LEBL 261130Z 14004KT 120V190 9999 FEW020 21/14 Q1019 NOSIG
2026-04-26 11:00:00,METAR LEBL 261100Z 14005KT 110V200 9999 FEW020 21/16 Q1019 NOSIG
2026-04-26 10:30:00,METAR LEBL 261030Z 13004KT 070V170 CAVOK 21/16 Q1019 NOSIG
2026-04-26 10:00:00,METAR LEBL 261000Z 14005KT 100V190 CAVOK 19/16 Q1019 NOSIG
2026-04-26 09:30:00,METAR LEBL 260930Z 14004KT 110V170 CAVOK 20/17 Q1019 NOSIG
2026-04-26 09:00:00,METAR LEBL 260900Z 15005KT CAVOK 20/16 Q1019 NOSIG
2026-04-26 08:30:00,METAR LEBL 260830Z 03001KT CAVOK 21/13 Q1019 NOSIG
2026-04-26 08:00:00,METAR LEBL 260800Z 33003KT 260V070 CAVOK 19/14 Q1019 NOSIG
2026-04-26 07:30:00,METAR LEBL 260730Z 35003KT CAVOK 18/14 Q1019 NOSIG
2026-04-26 07:00:00,METAR LEBL 260700Z 31005KT 240V360 CAVOK 17/13 Q1019 NOSIG
2026-04-26 06:30:00,METAR LEBL 260630Z 33004KT 230V020 CAVOK 16/12 Q1019 NOSIG
2026-04-26 05:30:00,METAR LEBL 260530Z 33006KT 260V360 CAVOK 14/11 Q1018 NOSIG
2026-04-26 05:00:00,METAR LEBL 260500Z 33006KT CAVOK 14/11 Q1018 NOSIG
2026-04-26 04:30:00,METAR LEBL 260430Z 33005KT CAVOK 15/11 Q1018 NOSIG
2026-04-26 04:00:00,METAR LEBL 260400Z 33004KT CAVOK 15/11 Q1018 NOSIG
2026-04-26 03:30:00,METAR LEBL 260330Z 35003KT CAVOK 14/11 Q1018 NOSIG
2026-04-26 03:00:00,METAR LEBL 260300Z VRB01KT CAVOK 15/11 Q1018 NOSIG
2026-04-26 02:30:00,METAR LEBL 260230Z 33004KT CAVOK 14/11 Q1017 NOSIG
2026-04-26 02:00:00,METAR LEBL 260200Z 30006KT CAVOK 14/11 Q1017 NOSIG
2026-04-26 01:30:00,METAR LEBL 260130Z 31003KT CAVOK 15/11 Q1017 NOSIG
2026-04-26 01:00:00,METAR LEBL 260100Z 32004KT CAVOK 15/11 Q1017 NOSIG
2026-04-26 00:30:00,METAR LEBL 260030Z 34002KT 9999 FEW010 15/12 Q1017 NOSIG
2026-04-26 00:00:00,METAR LEBL 260000Z 26003KT 240V320 9999 FEW010 15/13 Q1017 NOSIG
2026-04-25 23:30:00,METAR LEBL 252330Z 24006KT 9999 FEW010 15/14 Q1018 NOSIG
2026-04-25 23:00:00,METAR LEBL 252300Z 23003KT 9999 FEW010 16/14 Q1018 NOSIG
2026-04-25 22:30:00,METAR LEBL 252230Z 23004KT CAVOK 16/14 Q1018 NOSIG
2026-04-25 22:00:00,METAR LEBL 252200Z 22005KT CAVOK 16/14 Q1018 NOSIG
2026-04-25 21:30:00,METAR LEBL 252130Z 22003KT CAVOK 16/15 Q1018 NOSIG
2026-04-25 21:00:00,METAR LEBL 252100Z 22005KT CAVOK 17/15 Q1018 NOSIG
2026-04-25 20:30:00,METAR LEBL 252030Z 21003KT CAVOK 17/14 Q1018 NOSIG
2026-04-25 20:00:00,METAR LEBL 252000Z 21003KT CAVOK 17/15 Q1018 NOSIG
2026-04-25 19:30:00,METAR LEBL 251930Z 21004KT CAVOK 17/15 Q1018 NOSIG
2026-04-25 19:00:00,METAR LEBL 251900Z 21005KT CAVOK 17/15 Q1017 NOSIG
2026-04-25 18:30:00,METAR LEBL 251830Z 20004KT CAVOK 17/16 Q1017 NOSIG
2026-04-25 18:00:00,METAR LEBL 251800Z 20005KT CAVOK 18/16 Q1017 NOSIG
2026-04-25 17:30:00,METAR LEBL 251730Z 20006KT 160V220 CAVOK 18/16 Q1017 NOSIG
2026-04-25 17:00:00,METAR LEBL 251700Z 20006KT 170V240 CAVOK 18/15 Q1017 NOSIG
2026-04-25 16:30:00,METAR LEBL 251630Z 20007KT 160V240 CAVOK 18/15 Q1017 NOSIG
2026-04-25 16:00:00,METAR LEBL 251600Z 18006KT 150V240 CAVOK 19/15 Q1017 NOSIG
2026-04-25 15:30:00,METAR LEBL 251530Z 17007KT 120V210 CAVOK 19/15 Q1017 NOSIG
2026-04-25 15:00:00,METAR LEBL 251500Z 19007KT 140V240 CAVOK 19/15 Q1017 NOSIG
2026-04-25 14:30:00,METAR LEBL 251430Z 19007KT 130V240 CAVOK 19/15 Q1017 NOSIG
2026-04-25 14:00:00,METAR LEBL 251400Z 17007KT 140V210 CAVOK 19/14 Q1017 NOSIG
2026-04-25 13:30:00,METAR LEBL 251330Z 18007KT 130V220 CAVOK 19/13 Q1018 NOSIG
2026-04-25 13:00:00,METAR LEBL 251300Z 17006KT 130V240 CAVOK 19/10 Q1018 NOSIG
2026-04-25 12:30:00,METAR LEBL 251230Z 18007KT 130V210 CAVOK 19/11 Q1018 NOSIG
2026-04-25 12:00:00,METAR LEBL 251200Z 17006KT 130V200 CAVOK 20/09 Q1018 NOSIG
2026-04-25 11:30:00,METAR LEBL 251130Z 17006KT 150V210 CAVOK 19/09 Q1018 NOSIG
2026-04-25 11:00:00,METAR LEBL 251100Z 15005KT 080V210 CAVOK 18/11 Q1019 NOSIG
2026-04-25 10:30:00,METAR LEBL 251030Z 13006KT 110V170 CAVOK 18/10 Q1019 NOSIG
2026-04-25 10:00:00,METAR LEBL 251000Z 15004KT 090V190 CAVOK 19/11 Q1019 NOSIG
2026-04-25 09:30:00,METAR LEBL 250930Z 13005KT 110V180 CAVOK 18/11 Q1019 NOSIG
2026-04-25 09:00:00,METAR LEBL 250900Z 15005KT CAVOK 18/12 Q1019 NOSIG
2026-04-25 08:30:00,METAR LEBL 250830Z 15002KT CAVOK 18/11 Q1019 NOSIG
2026-04-25 08:00:00,METAR LEBL 250800Z 02002KT 9999 FEW010 18/09 Q1019 NOSIG
2026-04-25 07:30:00,METAR LEBL 250730Z 34003KT 280V010 9999 FEW010 16/10 Q1019 NOSIG
2026-04-25 07:00:00,METAR LEBL 250700Z 31006KT 250V350 9999 FEW010 15/09 Q1019 NOSIG
2026-04-25 06:30:00,METAR LEBL 250630Z 33007G19KT 200V010 9999 FEW010 13/09 Q1018 NOSIG
2026-04-25 06:00:00,METAR LEBL 250600Z 34007G18KT 250V020 9999 FEW010 13/09 Q1018 NOSIG
2026-04-25 05:30:00,METAR LEBL 250530Z 33007KT 280V360 9999 FEW045 12/08 Q1018 NOSIG
2026-04-25 05:00:00,METAR LEBL 250500Z 33006KT 9999 FEW045 12/07 Q1018 NOSIG
2026-04-25 04:30:00,METAR LEBL 250430Z 33004KT 9999 FEW045 12/07 Q1018 NOSIG
2026-04-25 04:00:00,METAR LEBL 250400Z 31004KT 9999 FEW045 12/08 Q1018 NOSIG
2026-04-25 03:30:00,METAR LEBL 250330Z 33005KT 9999 FEW045 12/08 Q1018 NOSIG
2026-04-25 03:00:00,METAR LEBL 250300Z 30005KT 9999 FEW045 12/08 Q1018 NOSIG
2026-04-25 02:30:00,METAR LEBL 250230Z 32006KT 9999 FEW045 12/08 Q1018 NOSIG
2026-04-25 02:00:00,METAR LEBL 250200Z 32006KT 9999 FEW045 13/08 Q1018 NOSIG
2026-04-25 01:30:00,METAR LEBL 250130Z 31005KT 9999 FEW045 13/08 Q1018 NOSIG
2026-04-25 01:00:00,METAR LEBL 250100Z 35005KT 9999 FEW045 13/08 Q1018 NOSIG
2026-04-25 00:30:00,METAR LEBL 250030Z 33004KT CAVOK 13/08 Q1018 NOSIG
2026-04-25 00:00:00,METAR LEBL 250000Z 32003KT CAVOK 13/09 Q1019 NOSIG
2026-04-24 23:30:00,METAR LEBL 242330Z 32004KT CAVOK 14/09 Q1019 NOSIG
2026-04-24 23:00:00,METAR LEBL 242300Z 29003KT 250V310 CAVOK 14/10 Q1019 NOSIG
2026-04-24 22:30:00,METAR LEBL 242230Z 00000KT CAVOK 14/10 Q1019 NOSIG
2026-04-24 22:00:00,METAR LEBL 242200Z 15002KT CAVOK 15/12 Q1019 NOSIG
2026-04-24 21:30:00,METAR LEBL 242130Z 11003KT CAVOK 16/12 Q1019 NOSIG
2026-04-24 21:00:00,METAR LEBL 242100Z VRB02KT CAVOK 16/12 Q1019 NOSIG
2026-04-24 20:30:00,METAR LEBL 242030Z 14001KT CAVOK 16/12 Q1019 NOSIG
2026-04-24 20:00:00,METAR LEBL 242000Z 13002KT CAVOK 16/12 Q1019 NOSIG
2026-04-24 19:30:00,METAR LEBL 241930Z 12002KT CAVOK 16/12 Q1018 NOSIG
2026-04-24 19:00:00,METAR LEBL 241900Z VRB02KT CAVOK 16/12 Q1018 NOSIG
2026-04-24 18:30:00,METAR LEBL 241830Z 12003KT CAVOK 17/11 Q1018 NOSIG
2026-04-24 18:00:00,METAR LEBL 241800Z 13004KT CAVOK 17/12 Q1018 NOSIG
2026-04-24 17:30:00,METAR LEBL 241730Z 12004KT CAVOK 17/10 Q1018 NOSIG
2026-04-24 17:00:00,METAR LEBL 241700Z 12005KT 080V190 CAVOK 18/10 Q1018 NOSIG
2026-04-24 16:30:00,METAR LEBL 241630Z 14004KT 100V200 CAVOK 18/09 Q1018 NOSIG
2026-04-24 16:00:00,METAR LEBL 241600Z 14004KT CAVOK 18/10 Q1018 NOSIG
2026-04-24 15:30:00,METAR LEBL 241530Z 14005KT 080V190 CAVOK 18/11 Q1019 NOSIG
2026-04-24 15:00:00,METAR LEBL 241500Z 14006KT 100V190 CAVOK 18/12 Q1019 NOSIG
2026-04-24 14:30:00,METAR LEBL 241430Z 13007KT CAVOK 18/13 Q1019 NOSIG
2026-04-24 14:00:00,METAR LEBL 241400Z 15007KT 120V180 CAVOK 18/12 Q1019 NOSIG
2026-04-24 13:30:00,METAR LEBL 241330Z 15007KT 100V180 CAVOK 18/14 Q1019 NOSIG
2026-04-24 13:00:00,METAR LEBL 241300Z 14009KT 110V180 CAVOK 18/14 Q1020 NOSIG
2026-04-24 12:30:00,METAR LEBL 241230Z 13009KT 090V190 CAVOK 18/14 Q1020 NOSIG
2026-04-24 12:00:00,METAR LEBL 241200Z 11009KT 080V160 CAVOK 18/14 Q1019 NOSIG
2026-04-24 11:30:00,METAR LEBL 241130Z 11011KT CAVOK 18/14 Q1019 NOSIG
2026-04-24 11:00:00,METAR LEBL 241100Z 11011KT CAVOK 18/14 Q1020 NOSIG
2026-04-24 10:30:00,METAR LEBL 241030Z 10016G30KT 060V150 CAVOK 18/13 Q1020 NOSIG
2026-04-24 10:00:00,METAR LEBL 241000Z 12009KT 090V150 CAVOK 18/12 Q1019 NOSIG
2026-04-24 09:30:00,METAR LEBL 240930Z 11009KT CAVOK 18/10 Q1019 NOSIG
2026-04-24 09:00:00,METAR LEBL 240900Z 10007KT 070V130 CAVOK 19/10 Q1019 NOSIG
2026-04-24 08:30:00,METAR LEBL 240830Z 10003KT 350V140 CAVOK 18/09 Q1019 NOSIG
2026-04-24 08:00:00,METAR LEBL 240800Z 34006KT 310V010 9999 SCT035 17/08 Q1019 NOSIG
2026-04-24 07:30:00,METAR LEBL 240730Z 34006KT 280V010 9999 SCT035 15/08 Q1019 NOSIG
2026-04-24 07:00:00,METAR LEBL 240700Z COR 33009G21KT 9999 SCT035 14/09 Q1020 NOSIG
2026-04-24 06:30:00,METAR LEBL 240630Z 33009KT 280V010 9999 SCT040 13/08 Q1020 NOSIG
2026-04-24 06:00:00,METAR LEBL 240600Z 33007G17KT 280V350 9999 SCT040 13/08 Q1020 NOSIG
2026-04-24 05:30:00,METAR LEBL 240530Z 33008KT 9999 SCT040 13/08 Q1019 NOSIG
2026-04-24 05:00:00,METAR LEBL 240500Z 33008KT 9999 SCT040 13/08 Q1019 NOSIG
2026-04-24 04:30:00,METAR LEBL 240430Z 33008KT 9999 SCT040 14/08 Q1019 NOSIG
2026-04-24 04:00:00,METAR LEBL 240400Z 33007KT 9999 SCT040 14/08 Q1019 NOSIG
2026-04-24 03:30:00,METAR LEBL 240330Z 33006KT 9999 SCT030 14/09 Q1019 NOSIG
2026-04-24 03:00:00,METAR LEBL 240300Z 33006KT 9999 SCT030 14/09 Q1019 NOSIG
2026-04-24 02:30:00,METAR LEBL 240230Z 34004KT 9999 SCT030 15/09 Q1019 NOSIG
2026-04-24 02:00:00,METAR LEBL 240200Z 04004KT 9999 SCT030 15/09 Q1019 NOSIG
2026-04-24 01:30:00,METAR LEBL 240130Z 05005KT 9999 SCT030 15/09 Q1019 NOSIG
2026-04-24 00:30:00,METAR LEBL 240030Z 06007KT 9999 SCT030 16/11 Q1020 NOSIG
2026-04-23 23:30:00,METAR LEBL 232330Z 06008KT 9999 SCT030 16/11 Q1020 NOSIG
2026-04-23 23:00:00,METAR LEBL 232300Z 06008KT 9999 SCT030 16/12 Q1020 NOSIG
2026-04-23 22:30:00,METAR LEBL 232230Z 06010KT 9999 SCT030 16/12 Q1020 NOSIG
2026-04-23 22:00:00,METAR LEBL 232200Z 07009KT CAVOK 16/12 Q1020 NOSIG
2026-04-23 21:30:00,METAR LEBL 232130Z 06008KT CAVOK 16/12 Q1020 NOSIG
2026-04-23 21:00:00,METAR LEBL 232100Z 06011KT 9999 FEW035 16/12 Q1020 NOSIG
2026-04-23 20:30:00,METAR LEBL 232030Z 06011KT 9999 FEW035 16/12 Q1020 NOSIG
2026-04-23 20:00:00,METAR LEBL 232000Z 06012KT 9999 FEW035 16/12 Q1020 NOSIG
2026-04-23 19:30:00,METAR LEBL 231930Z 06012KT 9999 FEW035 16/12 Q1020 NOSIG
2026-04-23 19:00:00,METAR LEBL 231900Z 07013KT 9999 FEW035 17/12 Q1020 NOSIG
2026-04-23 18:30:00,METAR LEBL 231830Z 07015KT 9999 FEW035 17/12 Q1020 NOSIG
2026-04-23 18:00:00,METAR LEBL 231800Z 07016KT 9999 FEW035 17/12 Q1020 NOSIG
2026-04-23 17:30:00,METAR LEBL 231730Z 07016KT 040V100 9999 FEW035 18/13 Q1020 NOSIG
2026-04-23 17:00:00,METAR LEBL 231700Z 07016KT 9999 FEW035 18/13 Q1020 NOSIG
2026-04-23 16:30:00,METAR LEBL 231630Z 07017KT CAVOK 18/14 Q1020 NOSIG
2026-04-23 16:00:00,METAR LEBL 231600Z 07017KT CAVOK 18/13 Q1020 NOSIG
2026-04-23 15:30:00,METAR LEBL 231530Z 07018KT CAVOK 19/13 Q1020 NOSIG
2026-04-23 15:00:00,METAR LEBL 231500Z 07017KT 040V100 CAVOK 19/12 Q1020 NOSIG
2026-04-23 14:30:00,METAR LEBL 231430Z 07018KT CAVOK 19/11 Q1020 NOSIG
2026-04-23 14:00:00,METAR LEBL 231400Z 08019KT 050V110 CAVOK 19/10 Q1021 NOSIG
2026-04-23 13:30:00,METAR LEBL 231330Z 07019KT CAVOK 19/11 Q1021 NOSIG
2026-04-23 13:00:00,METAR LEBL 231300Z 07019KT CAVOK 20/10 Q1021 NOSIG
2026-04-23 12:30:00,METAR LEBL 231230Z 08017KT 050V110 CAVOK 20/07 Q1021 NOSIG
2026-04-23 12:00:00,METAR LEBL 231200Z 08018KT CAVOK 20/07 Q1021 NOSIG
2026-04-23 11:30:00,METAR LEBL 231130Z 07019KT CAVOK 20/11 Q1021 NOSIG
2026-04-23 11:00:00,METAR LEBL 231100Z 07019KT CAVOK 20/11 Q1021 NOSIG
2026-04-23 10:30:00,METAR LEBL 231030Z 06020KT 9999 FEW040 19/10 Q1021 NOSIG
2026-04-23 10:00:00,METAR LEBL 231000Z 06018KT 030V090 9999 FEW040 19/11 Q1021 NOSIG
2026-04-23 09:30:00,METAR LEBL 230930Z 06017G27KT 030V090 9999 FEW030 19/12 Q1021 NOSIG
2026-04-23 09:00:00,METAR LEBL 230900Z 06019KT 9999 FEW050 19/12 Q1021 NOSIG
2026-04-23 08:30:00,METAR LEBL 230830Z 06018KT 9999 FEW050 18/12 Q1021 NOSIG
2026-04-23 08:00:00,METAR LEBL 230800Z 07019KT 9999 FEW050 18/12 Q1021 NOSIG
2026-04-23 07:30:00,METAR LEBL 230730Z 06017KT 9999 SCT050 17/12 Q1021 NOSIG
2026-04-23 07:00:00,METAR LEBL 230700Z 06013KT 9999 SCT040 17/12 Q1020 NOSIG
2026-04-23 06:30:00,METAR LEBL 230630Z 06013KT 9999 SCT029 17/12 Q1020 NOSIG
2026-04-23 06:00:00,METAR LEBL 230600Z 06014KT 9999 FEW029 16/12 Q1020 NOSIG
2026-04-23 05:30:00,METAR LEBL 230530Z 05013KT 9999 FEW029 16/12 Q1019 NOSIG
2026-04-23 05:00:00,METAR LEBL 230500Z 06014KT 9999 OVC028 16/13 Q1019 NOSIG
2026-04-23 04:30:00,METAR LEBL 230430Z 06013KT 9999 BKN027 16/13 Q1019 NOSIG
2026-04-23 04:00:00,METAR LEBL 230400Z 07013KT 9999 FEW025 16/13 Q1019 NOSIG
2026-04-23 03:30:00,METAR LEBL 230330Z 07012KT 9999 FEW025 16/13 Q1019 NOSIG
2026-04-23 03:00:00,METAR LEBL 230300Z 07013KT 040V100 9999 FEW025 16/13 Q1019 NOSIG
2026-04-23 02:30:00,METAR LEBL 230230Z 07014KT 9999 FEW025 16/13 Q1019 NOSIG
2026-04-23 02:00:00,METAR LEBL 230200Z 07014KT 9999 FEW025 16/13 Q1019 NOSIG
2026-04-23 01:30:00,METAR LEBL 230130Z 07013KT 9999 FEW023 16/13 Q1019 NOSIG
2026-04-23 01:00:00,METAR LEBL 230100Z 06015KT 9999 FEW023 16/14 Q1019 NOSIG
2026-04-23 00:30:00,METAR LEBL 230030Z 06015KT 9999 FEW010 16/14 Q1019 NOSIG
2026-04-23 00:00:00,METAR LEBL 230000Z 06015KT 9999 SCT010 16/15 Q1019 NOSIG
2026-04-22 23:30:00,METAR LEBL 222330Z 06017KT 040V100 9999 FEW007 SCT028 16/15 Q1018 NOSIG
2026-04-22 23:00:00,METAR LEBL 222300Z 06018KT 9999 SCT007 SCT028 17/15 Q1018 NOSIG
2026-04-22 22:30:00,METAR LEBL 222230Z 07016KT 9999 SCT010 BKN030 17/15 Q1018 NOSIG
2026-04-22 22:00:00,METAR LEBL 222200Z 07013KT 9999 SCT020 BKN030 17/15 Q1019 NOSIG
2026-04-22 21:30:00,METAR LEBL 222130Z 07015KT 9999 FEW025 SCT055 17/14 Q1018 NOSIG
2026-04-22 21:00:00,METAR LEBL 222100Z 07014KT 040V100 9999 FEW025 SCT055 17/14 Q1018 NOSIG
2026-04-22 20:30:00,METAR LEBL 222030Z 07017KT 040V100 9999 FEW025 SCT045 17/14 Q1017 NOSIG
2026-04-22 20:00:00,METAR LEBL 222000Z 07016KT 9999 FEW025 SCT042 17/15 Q1017 NOSIG
2026-04-22 19:30:00,METAR LEBL 221930Z 08014KT 9999 FEW011 SCT042 17/15 Q1016 NOSIG
2026-04-22 19:00:00,METAR LEBL 221900Z 07010KT 9999 FEW010 SCT035 17/15 Q1016 NOSIG
2026-04-22 18:30:00,METAR LEBL 221830Z 07008KT 040V100 9999 FEW010 SCT035 18/15 Q1016 NOSIG
2026-04-22 18:00:00,METAR LEBL 221800Z 06008KT 040V110 9999 FEW010 SCT030 18/15 Q1016 NOSIG
2026-04-22 17:30:00,METAR LEBL 221730Z 08010KT 050V110 9999 FEW009 SCT035 18/15 Q1015 NOSIG
2026-04-22 17:00:00,METAR LEBL 221700Z 06016KT 9999 FEW009 SCT030 18/15 Q1014 NOSIG
2026-04-22 16:30:00,METAR LEBL 221630Z 07015KT 9999 FEW008 SCT012 19/15 Q1014 NOSIG
2026-04-22 16:00:00,METAR LEBL 221600Z 08011KT 9999 SCT013 SCT017 20/15 Q1014 NOSIG
2026-04-22 15:30:00,METAR LEBL 221530Z 08008KT 9999 SCT008 SCT010 BKN014 19/15 Q1014 NOSIG
2026-04-22 15:00:00,METAR LEBL 221500Z 09009KT 050V120 9999 SCT008 SCT010 BKN013 19/15 Q1014 NOSIG
2026-04-22 14:30:00,METAR LEBL 221430Z 10010KT 9999 SCT008 BKN012 BKN015 19/15 Q1014 NOSIG
2026-04-22 14:00:00,METAR LEBL 221400Z 10011KT 9999 SCT006 SCT008 BKN010 19/16 Q1014 NOSIG
2026-04-22 13:30:00,METAR LEBL 221330Z 09013KT 9999 SCT008 BKN011 20/16 Q1014 NOSIG
2026-04-22 13:00:00,METAR LEBL 221300Z 10010KT 070V130 9999 SCT008 BKN010 20/16 Q1014 NOSIG
2026-04-22 12:30:00,METAR LEBL 221230Z 08010KT 9999 SCT008 BKN010 20/16 Q1014 NOSIG
2026-04-22 12:00:00,METAR LEBL 221200Z 11007KT 090V150 9999 FEW007 SCT010 20/17 Q1013 NOSIG
2026-04-22 11:30:00,METAR LEBL 221130Z 12007KT 080V160 9999 FEW009 20/16 Q1013 NOSIG
2026-04-22 11:00:00,METAR LEBL 221100Z 16006KT 130V200 9999 FEW015 20/16 Q1013 NOSIG
2026-04-22 10:30:00,METAR LEBL 221030Z 18006KT 130V240 9999 FEW018 20/16 Q1013 NOSIG
2026-04-22 10:00:00,METAR LEBL 221000Z 21006KT 180V240 9999 FEW015 19/16 Q1013 NOSIG
2026-04-22 09:30:00,METAR LEBL 220930Z 19008KT 160V230 9999 FEW018 20/16 Q1013 NOSIG
2026-04-22 09:00:00,METAR LEBL 220900Z 20004KT 9999 FEW015 19/15 Q1013 NOSIG
2026-04-22 08:30:00,METAR LEBL 220830Z 23003KT 9999 FEW020 20/14 Q1013 NOSIG
2026-04-22 08:00:00,METAR LEBL 220800Z 30003KT 230V350 9999 FEW007 SCT025 19/11 Q1013 NOSIG
2026-04-22 07:30:00,METAR LEBL 220730Z 30005KT 270V340 9999 FEW005 SCT025 17/10 Q1013 NOSIG
2026-04-22 07:00:00,METAR LEBL 220700Z 32006G17KT 240V360 9999 FEW004 SCT022 17/10 Q1012 NOSIG
2026-04-22 06:30:00,METAR LEBL 220630Z 31005KT 200V340 9999 FEW004 SCT020 15/10 Q1012 NOSIG
2026-04-22 06:00:00,METAR LEBL 220600Z 33005KT 260V020 9999 FEW003 SCT015 15/11 Q1012 NOSIG
2026-04-22 05:30:00,METAR LEBL 220530Z 28005KT 250V320 9999 SCT003 SCT015 15/11 Q1011 NOSIG
2026-04-22 05:00:00,METAR LEBL 220500Z 26004KT 220V280 9999 BKN003 BKN006 15/10 Q1011 TEMPO NSC
2026-04-22 04:30:00,METAR LEBL 220430Z 29003KT 9999 BKN002 BKN007 14/08 Q1011 TEMPO NSC
2026-04-22 04:00:00,METAR LEBL 220400Z 29005KT 9999 BKN002 BKN010 14/09 Q1010 TEMPO NSC
2026-04-22 03:41:00,SPECI LEBL 220341Z 30003KT 260V330 9999 BKN003 BKN010 15/08 Q1010 NOSIG
2026-04-22 03:30:00,METAR LEBL 220330Z 30005KT 9999 SCT003 SCT010 14/08 Q1010 NOSIG
2026-04-22 03:00:00,METAR LEBL 220300Z 29004KT 250V340 9999 FEW020 14/09 Q1010 NOSIG
2026-04-22 02:30:00,METAR LEBL 220230Z 29003KT 260V330 9999 FEW020 15/10 Q1010 NOSIG
2026-04-22 02:00:00,METAR LEBL 220200Z 32004KT 9999 FEW020 15/09 Q1010 NOSIG
2026-04-22 01:30:00,METAR LEBL 220130Z VRB02KT 9999 FEW020 15/10 Q1011 NOSIG
2026-04-22 01:00:00,METAR LEBL 220100Z 34003KT 320V030 9999 FEW020 SCT040 15/09 Q1011 NOSIG
2026-04-22 00:30:00,METAR LEBL 220030Z 29003KT 260V330 9999 FEW015 15/10 Q1011 NOSIG
2026-04-22 00:00:00,METAR LEBL 220000Z 27004KT 9999 FEW012 16/14 Q1012 NOSIG
2026-04-21 23:30:00,METAR LEBL 212330Z 27004KT 240V310 9999 FEW012 16/15 Q1011 NOSIG
2026-04-21 23:00:00,METAR LEBL 212300Z 24006KT 210V270 9999 FEW012 17/16 Q1011 NOSIG
2026-04-21 22:30:00,METAR LEBL 212230Z 22007KT 9999 FEW012 17/16 Q1011 NOSIG
2026-04-21 22:00:00,METAR LEBL 212200Z 22008KT 9999 FEW012 17/16 Q1011 NOSIG
2026-04-21 21:30:00,METAR LEBL 212130Z 22006KT 9999 FEW015 17/16 Q1011 NOSIG
2026-04-21 21:00:00,METAR LEBL 212100Z 22006KT 9999 FEW015 17/17 Q1011 NOSIG
2026-04-21 20:30:00,METAR LEBL 212030Z 22006KT 9999 FEW015 18/17 Q1011 NOSIG
2026-04-21 20:00:00,METAR LEBL 212000Z 21006KT 9999 FEW015 18/17 Q1011 NOSIG
2026-04-21 19:30:00,METAR LEBL 211930Z 22003KT 190V250 9999 FEW018 18/16 Q1011 NOSIG
2026-04-21 19:00:00,METAR LEBL 211900Z VRB02KT 9999 FEW022 18/16 Q1011 NOSIG
2026-04-21 18:30:00,METAR LEBL 211830Z 21007KT 9999 FEW040 18/16 Q1011 NOSIG
2026-04-21 18:00:00,METAR LEBL 211800Z 22007KT 9999 FEW040 19/16 Q1010 NOSIG
2026-04-21 17:30:00,METAR LEBL 211730Z 21009KT 9999 FEW040 19/15 Q1010 NOSIG
2026-04-21 17:00:00,METAR LEBL 211700Z 20008KT 170V240 9999 FEW040 20/16 Q1010 NOSIG
2026-04-21 16:30:00,METAR LEBL 211630Z 20008KT 160V230 9999 FEW040 20/16 Q1010 NOSIG
2026-04-21 16:00:00,METAR LEBL 211600Z 19007KT 150V230 9999 FEW030 20/16 Q1010 NOSIG
2026-04-21 15:30:00,METAR LEBL 211530Z 19007KT 160V220 9999 FEW024 20/13 Q1010 NOSIG
2026-04-21 15:00:00,METAR LEBL 211500Z 19008KT 130V210 CAVOK 20/14 Q1010 NOSIG
2026-04-21 14:30:00,METAR LEBL 211430Z 18008KT 150V210 CAVOK 20/16 Q1011 NOSIG
2026-04-21 14:00:00,METAR LEBL 211400Z 17007KT 130V210 CAVOK 20/17 Q1011 NOSIG
2026-04-21 13:30:00,METAR LEBL 211330Z 13008KT 100V160 CAVOK 20/16 Q1011 NOSIG
2026-04-21 13:00:00,METAR LEBL 211300Z COR 13007KT 100V170 CAVOK 20/15 Q1011 NOSIG
2026-04-21 12:30:00,METAR LEBL 211230Z 17008KT 120V200 CAVOK 20/15 Q1011 NOSIG
2026-04-21 12:00:00,METAR LEBL 211200Z 18008KT 120V200 CAVOK 20/14 Q1011 NOSIG
2026-04-21 11:30:00,METAR LEBL 211130Z 19007KT 140V240 CAVOK 20/15 Q1011 NOSIG
2026-04-21 11:00:00,METAR LEBL 211100Z 21007KT 120V250 CAVOK 20/15 Q1012 NOSIG
2026-04-21 10:30:00,METAR LEBL 211030Z 21005KT 150V240 CAVOK 20/16 Q1012 NOSIG
2026-04-21 10:00:00,METAR LEBL 211000Z 20006KT 160V240 CAVOK 19/16 Q1012 NOSIG
2026-04-21 09:30:00,METAR LEBL 210930Z 15006KT 120V190 CAVOK 19/14 Q1012 NOSIG
2026-04-21 09:00:00,METAR LEBL 210900Z 14006KT CAVOK 20/14 Q1012 NOSIG
2026-04-21 08:30:00,METAR LEBL 210830Z 28002KT 9999 FEW030 20/14 Q1012 NOSIG
2026-04-21 08:00:00,METAR LEBL 210800Z 34002KT 9999 FEW030 19/13 Q1012 NOSIG
2026-04-21 07:30:00,METAR LEBL 210730Z 32005KT 270V360 9999 FEW030 18/13 Q1012 NOSIG
2026-04-21 07:00:00,METAR LEBL 210700Z 31006KT 250V360 9999 FEW030 16/12 Q1012 NOSIG
2026-04-21 06:30:00,METAR LEBL 210630Z 30006KT 250V340 9999 FEW030 15/12 Q1012 NOSIG
2026-04-21 06:00:00,METAR LEBL 210600Z 31005KT 270V350 9999 FEW030 15/12 Q1011 NOSIG
2026-04-21 05:30:00,METAR LEBL 210530Z 31004KT 260V350 9999 FEW030 14/12 Q1011 NOSIG
2026-04-21 05:00:00,METAR LEBL 210500Z 29004KT 250V320 9999 FEW030 14/12 Q1011 NOSIG
2026-04-21 04:30:00,METAR LEBL 210430Z 31007KT 9999 FEW030 BKN060 14/12 Q1011 NOSIG
2026-04-21 04:00:00,METAR LEBL 210400Z 31010KT 9999 FEW030 14/12 Q1011 NOSIG
2026-04-21 03:30:00,METAR LEBL 210330Z 31010KT 9999 FEW030 14/11 Q1011 NOSIG
2026-04-21 03:00:00,METAR LEBL 210300Z 31009KT 9999 FEW030 15/12 Q1011 NOSIG
2026-04-21 02:30:00,METAR LEBL 210230Z 31005KT 290V350 9999 FEW030 15/13 Q1011 NOSIG
2026-04-21 02:00:00,METAR LEBL 210200Z 31006KT 9999 FEW030 15/13 Q1012 NOSIG
2026-04-21 01:30:00,METAR LEBL 210130Z 31006KT 9999 FEW030 15/13 Q1012 NOSIG
2026-04-21 01:00:00,METAR LEBL 210100Z 31007KT 9999 FEW030 15/13 Q1012 NOSIG
2026-04-21 00:30:00,METAR LEBL 210030Z 31005KT 9999 FEW030 16/13 Q1012 NOSIG
2026-04-21 00:00:00,METAR LEBL 210000Z 31004KT 9999 FEW030 15/13 Q1012 NOSIG
2026-04-20 23:30:00,METAR LEBL 202330Z 26005KT 9999 FEW030 15/13 Q1012 NOSIG
2026-04-20 23:00:00,METAR LEBL 202300Z 24004KT 9999 FEW030 17/13 Q1012 NOSIG
2026-04-20 22:30:00,METAR LEBL 202230Z 28004KT 9999 FEW030 17/14 Q1013 NOSIG
2026-04-20 22:00:00,METAR LEBL 202200Z 30005KT 9999 FEW030 17/14 Q1013 NOSIG
2026-04-20 21:30:00,METAR LEBL 202130Z 28005KT 9999 FEW030 17/14 Q1013 NOSIG
2026-04-20 21:00:00,METAR LEBL 202100Z 29004KT 9999 FEW030 17/15 Q1013 NOSIG
2026-04-20 20:30:00,METAR LEBL 202030Z 26003KT 220V300 9999 FEW030 17/16 Q1013 NOSIG
2026-04-20 20:00:00,METAR LEBL 202000Z 23003KT 9999 FEW030 17/16 Q1013 NOSIG
2026-04-20 19:30:00,METAR LEBL 201930Z 19004KT 150V220 9999 FEW030 18/16 Q1013 NOSIG
2026-04-20 19:00:00,METAR LEBL 201900Z 13003KT 080V180 9999 FEW030 18/15 Q1013 NOSIG
2026-04-20 18:30:00,METAR LEBL 201830Z 09003KT 060V120 9999 FEW030 18/14 Q1013 NOSIG
2026-04-20 18:00:00,METAR LEBL 201800Z 07007KT 030V100 9999 FEW030TCU 19/15 Q1013 NOSIG
2026-04-20 17:30:00,METAR LEBL 201730Z 08006KT 030V140 9999 FEW030TCU 19/15 Q1013 NOSIG
2026-04-20 17:00:00,METAR LEBL 201700Z 17006KT 130V210 9999 FEW030TCU 19/14 Q1012 NOSIG
2026-04-20 16:30:00,METAR LEBL 201630Z 21006KT 9999 FEW030TCU 19/14 Q1012 NOSIG
2026-04-20 16:00:00,METAR LEBL 201600Z 22010KT 9999 FEW030TCU 19/14 Q1012 NOSIG
2026-04-20 15:30:00,METAR LEBL 201530Z 23013KT 9999 FEW030TCU 19/14 Q1012 NOSIG
2026-04-20 15:00:00,METAR LEBL 201500Z 23016KT 9999 FEW030TCU 20/13 Q1012 NOSIG
2026-04-20 14:30:00,METAR LEBL 201430Z 22014KT 9999 FEW030 21/15 Q1012 NOSIG
2026-04-20 14:00:00,METAR LEBL 201400Z 22014KT 9999 FEW040 20/15 Q1012 NOSIG
2026-04-20 13:30:00,METAR LEBL 201330Z 22013KT 9999 FEW040 20/15 Q1012 NOSIG
2026-04-20 13:00:00,METAR LEBL 201300Z 21014KT 9999 FEW040 21/15 Q1013 NOSIG
2026-04-20 12:30:00,METAR LEBL 201230Z 21015KT 9999 FEW040 20/16 Q1013 NOSIG
2026-04-20 12:00:00,METAR LEBL 201200Z 21014KT 9999 FEW040 19/15 Q1013 NOSIG
2026-04-20 11:30:00,METAR LEBL 201130Z 20015KT 9999 FEW045 19/15 Q1013 NOSIG
2026-04-20 11:00:00,METAR LEBL 201100Z 21014KT 9999 FEW050 20/16 Q1014 NOSIG
2026-04-20 10:30:00,METAR LEBL 201030Z 20013KT 9999 FEW050 20/16 Q1014 NOSIG
2026-04-20 10:00:00,METAR LEBL 201000Z 21014KT 9999 FEW050 20/16 Q1014 NOSIG
2026-04-20 09:30:00,METAR LEBL 200930Z 21014KT 9999 FEW050 19/15 Q1014 NOSIG
2026-04-20 09:00:00,METAR LEBL 200900Z 22013KT 9999 FEW050 19/16 Q1014 NOSIG
2026-04-20 08:30:00,METAR LEBL 200830Z 22012KT 9999 FEW045 19/15 Q1014 NOSIG
2026-04-20 08:00:00,METAR LEBL 200800Z 22010KT 9999 FEW045 18/15 Q1014 NOSIG
2026-04-20 07:30:00,METAR LEBL 200730Z 24007KT 9999 FEW045 18/15 Q1014 NOSIG
2026-04-20 07:00:00,METAR LEBL 200700Z 29005KT 240V340 9999 FEW060 18/15 Q1014 NOSIG
2026-04-20 06:30:00,METAR LEBL 200630Z 28005KT 250V330 9999 FEW060 17/15 Q1014 NOSIG
2026-04-20 06:00:00,METAR LEBL 200600Z 27007KT 240V310 9999 FEW060 16/15 Q1014 NOSIG
2026-04-20 05:30:00,METAR LEBL 200530Z 23004KT 9999 FEW060 16/14 Q1013 NOSIG
2026-04-20 05:00:00,METAR LEBL 200500Z 24007KT 9999 FEW030 15/13 Q1013 NOSIG
2026-04-20 04:30:00,METAR LEBL 200430Z 24006KT 9999 FEW030 16/13 Q1014 NOSIG
2026-04-20 04:00:00,METAR LEBL 200400Z 28003KT 240V310 9999 FEW030 16/13 Q1014 NOSIG
2026-04-20 03:30:00,METAR LEBL 200330Z 29003KT 9999 FEW030 16/13 Q1014 NOSIG
2026-04-20 03:00:00,METAR LEBL 200300Z 23006KT 9999 FEW030 16/13 Q1014 NOSIG
2026-04-20 02:30:00,METAR LEBL 200230Z 21005KT 9999 FEW030 17/14 Q1014 NOSIG
2026-04-20 02:00:00,METAR LEBL 200200Z 21007KT 9999 FEW030 17/14 Q1014 NOSIG
2026-04-20 01:30:00,METAR LEBL 200130Z 26004KT 9999 FEW030 18/13 Q1015 NOSIG
2026-04-20 01:00:00,METAR LEBL 200100Z 29006KT 9999 FEW030 17/13 Q1015 NOSIG
2026-04-20 00:30:00,METAR LEBL 200030Z 29006KT 250V320 9999 FEW030 16/15 Q1015 NOSIG
2026-04-20 00:00:00,METAR LEBL 200000Z 23013KT 9999 FEW030 FEW032TCU 17/15 Q1015 NOSIG
2026-04-19 23:30:00,METAR LEBL 192330Z 25004KT 230V320 9999 FEW030 FEW032TCU 17/14 Q1016 NOSIG
2026-04-19 23:00:00,METAR LEBL 192300Z 26006KT 220V340 9999 FEW030 FEW032TCU 16/14 Q1016 NOSIG
2026-04-19 22:30:00,METAR LEBL 192230Z 24005KT 200V260 9999 FEW030 17/15 Q1016 NOSIG
2026-04-19 22:00:00,METAR LEBL 192200Z 27004KT 230V300 9999 FEW030 16/15 Q1017 NOSIG
2026-04-19 21:30:00,METAR LEBL 192130Z 30005KT 9999 FEW030 17/15 Q1017 NOSIG
2026-04-19 21:00:00,METAR LEBL 192100Z 28005KT 260V330 9999 FEW030 17/16 Q1017 NOSIG
2026-04-19 20:30:00,METAR LEBL 192030Z 25005KT 9999 FEW030 17/16 Q1017 NOSIG
2026-04-19 20:00:00,METAR LEBL 192000Z 25005KT 220V280 9999 FEW030 16/15 Q1017 NOSIG
2026-04-19 19:30:00,METAR LEBL 191930Z 21004KT 180V250 9999 FEW030 17/15 Q1017 NOSIG
2026-04-19 19:00:00,METAR LEBL 191900Z VRB02KT 9999 FEW030 17/16 Q1017 NOSIG
2026-04-19 18:30:00,METAR LEBL 191830Z 22005KT 9999 FEW030 17/16 Q1017 NOSIG
2026-04-19 18:00:00,METAR LEBL 191800Z 22005KT 9999 FEW040 17/16 Q1017 NOSIG
2026-04-19 17:30:00,METAR LEBL 191730Z 21007KT 9999 FEW040 18/16 Q1017 NOSIG
2026-04-19 17:00:00,METAR LEBL 191700Z 21006KT 170V260 9999 FEW030 FEW032TCU 19/16 Q1017 NOSIG
2026-04-19 16:30:00,METAR LEBL 191630Z 21009KT 9999 FEW030 19/15 Q1016 NOSIG
2026-04-19 16:00:00,METAR LEBL 191600Z 21009KT 170V230 9999 FEW030 19/15 Q1017 NOSIG
2026-04-19 15:30:00,METAR LEBL 191530Z 21009KT 180V240 9999 FEW030 19/15 Q1017 NOSIG
2026-04-19 15:00:00,METAR LEBL 191500Z 20009KT 170V230 9999 FEW030 19/14 Q1017 NOSIG
2026-04-19 14:30:00,METAR LEBL 191430Z 20010KT 160V220 9999 FEW030 20/15 Q1017 NOSIG
2026-04-19 14:00:00,METAR LEBL 191400Z 20009KT 170V240 9999 FEW030 20/15 Q1017 NOSIG
2026-04-19 13:30:00,METAR LEBL 191330Z 20011KT 9999 FEW030 19/15 Q1017 NOSIG
2026-04-19 13:00:00,METAR LEBL 191300Z 20011KT 180V240 9999 FEW030 19/14 Q1017 NOSIG
2026-04-19 12:30:00,METAR LEBL 191230Z 21012KT CAVOK 20/14 Q1017 NOSIG
2026-04-19 12:00:00,METAR LEBL 191200Z 21013KT CAVOK 20/13 Q1018 NOSIG
2026-04-19 11:30:00,METAR LEBL 191130Z 21012KT 9999 FEW040 20/13 Q1018 NOSIG
2026-04-19 11:00:00,METAR LEBL 191100Z 21012KT 190V250 9999 FEW040 20/13 Q1018 NOSIG
2026-04-19 10:30:00,METAR LEBL 191030Z 21008KT 9999 FEW050 20/14 Q1019 NOSIG
2026-04-19 10:00:00,METAR LEBL 191000Z 22009KT 170V240 9999 FEW050 19/16 Q1019 NOSIG
2026-04-19 09:30:00,METAR LEBL 190930Z 22008KT 190V250 9999 FEW050 20/14 Q1018 NOSIG
2026-04-19 09:00:00,METAR LEBL 190900Z 20007KT 160V230 9999 FEW050 20/13 Q1018 NOSIG
2026-04-19 08:30:00,METAR LEBL 190830Z 22006KT 190V270 CAVOK 18/14 Q1018 NOSIG
2026-04-19 08:00:00,METAR LEBL 190800Z VRB02KT CAVOK 18/12 Q1018 NOSIG
2026-04-19 07:30:00,METAR LEBL 190730Z 29004KT 210V340 CAVOK 18/12 Q1018 NOSIG
2026-04-19 07:00:00,METAR LEBL 190700Z 31006KT 260V350 9999 FEW040 16/09 Q1018 NOSIG
2026-04-19 06:30:00,METAR LEBL 190630Z 32007KT 260V340 9999 FEW040 15/09 Q1018 NOSIG
2026-04-19 06:00:00,METAR LEBL 190600Z 30008KT 270V330 9999 FEW040 15/09 Q1017 NOSIG
2026-04-19 05:30:00,METAR LEBL 190530Z 32014KT 9999 FEW040 15/08 Q1017 NOSIG
2026-04-19 05:00:00,METAR LEBL 190500Z 32011KT 9999 FEW040 15/08 Q1017 NOSIG
2026-04-19 04:30:00,METAR LEBL 190430Z 33013KT 9999 FEW040 15/08 Q1017 NOSIG
2026-04-19 04:00:00,METAR LEBL 190400Z 33013KT 9999 FEW040 15/08 Q1017 NOSIG
2026-04-19 03:30:00,METAR LEBL 190330Z 33009KT 290V350 9999 FEW040 15/08 Q1017 NOSIG
2026-04-19 03:00:00,METAR LEBL 190300Z 32011KT 9999 FEW040 15/08 Q1017 NOSIG
2026-04-19 02:30:00,METAR LEBL 190230Z 31010KT 9999 FEW040 15/08 Q1017 NOSIG
2026-04-19 02:00:00,METAR LEBL 190200Z 31010KT 9999 FEW040 15/08 Q1018 NOSIG
2026-04-19 01:30:00,METAR LEBL 190130Z 29006KT 9999 FEW040 15/08 Q1018 NOSIG
2026-04-19 01:00:00,METAR LEBL 190100Z 28005KT 9999 FEW040 15/09 Q1018 NOSIG
2026-04-19 00:30:00,METAR LEBL 190030Z 29006KT 9999 FEW040 15/10 Q1019 NOSIG
2026-04-19 00:00:00,METAR LEBL 190000Z 27004KT 240V300 9999 FEW040 16/11 Q1019 NOSIG
2026-04-18 23:30:00,METAR LEBL 182330Z 26003KT 9999 FEW040 15/11 Q1019 NOSIG
2026-04-18 23:00:00,METAR LEBL 182300Z 25006KT 9999 FEW040 16/13 Q1019 NOSIG
2026-04-18 22:30:00,METAR LEBL 182230Z 24004KT 9999 FEW040 16/14 Q1019 NOSIG
2026-04-18 22:00:00,METAR LEBL 182200Z COR 27003KT 9999 FEW040 16/14 Q1019 NOSIG
2026-04-18 21:30:00,METAR LEBL 182130Z 27005KT 9999 FEW040 16/13 Q1020 NOSIG
2026-04-18 21:00:00,METAR LEBL 182100Z 23005KT 9999 FEW040 17/13 Q1019 NOSIG
2026-04-18 20:30:00,METAR LEBL 182030Z 22005KT 9999 FEW040 17/13 Q1019 NOSIG
2026-04-18 20:00:00,METAR LEBL 182000Z 21007KT 9999 FEW040 18/13 Q1019 NOSIG
2026-04-18 19:30:00,METAR LEBL 181930Z 22006KT 9999 FEW040 18/12 Q1019 NOSIG
2026-04-18 19:00:00,METAR LEBL 181900Z 21007KT 9999 FEW040 18/12 Q1019 NOSIG
2026-04-18 18:30:00,METAR LEBL 181830Z 22008KT 9999 FEW050 19/11 Q1018 NOSIG
2026-04-18 18:00:00,METAR LEBL 181800Z 22009KT 9999 FEW050 19/11 Q1018 NOSIG
2026-04-18 17:30:00,METAR LEBL 181730Z 22010KT 9999 FEW050 20/10 Q1018 NOSIG
2026-04-18 17:00:00,METAR LEBL 181700Z 22010KT 9999 FEW050 20/10 Q1019 NOSIG
2026-04-18 16:30:00,METAR LEBL 181630Z 22010KT 9999 FEW040 20/11 Q1019 NOSIG
2026-04-18 16:00:00,METAR LEBL 181600Z 22010KT 9999 FEW045 21/12 Q1019 NOSIG
2026-04-18 15:00:00,METAR LEBL 181500Z 21010KT 9999 FEW045 20/14 Q1019 NOSIG
2026-04-18 14:30:00,METAR LEBL 181430Z 20010KT 9999 FEW045 21/15 Q1019 NOSIG
2026-04-18 14:00:00,METAR LEBL 181400Z 20007KT 170V240 9999 FEW045 21/14 Q1019 NOSIG
2026-04-18 13:30:00,METAR LEBL 181330Z 21006KT 160V240 9999 FEW045 20/15 Q1019 NOSIG
2026-04-18 13:00:00,METAR LEBL 181300Z 19007KT 9999 FEW045 20/15 Q1020 NOSIG
2026-04-18 12:30:00,METAR LEBL 181230Z 21008KT 170V240 9999 FEW045 20/13 Q1020 NOSIG
2026-04-18 12:00:00,METAR LEBL 181200Z 20008KT 9999 FEW045 21/13 Q1020 NOSIG
2026-04-18 11:30:00,METAR LEBL 181130Z 20006KT 170V230 CAVOK 22/12 Q1020 NOSIG
2026-04-18 11:00:00,METAR LEBL 181100Z 20006KT 170V230 CAVOK 20/13 Q1020 NOSIG
2026-04-18 10:30:00,METAR LEBL 181030Z 20007KT 150V220 CAVOK 20/14 Q1020 NOSIG
2026-04-18 10:00:00,METAR LEBL 181000Z 21006KT CAVOK 20/13 Q1020 NOSIG
2026-04-18 09:30:00,METAR LEBL 180930Z 20005KT 160V220 CAVOK 20/14 Q1020 NOSIG
2026-04-18 09:00:00,METAR LEBL 180900Z 21004KT 140V240 CAVOK 19/13 Q1020 NOSIG
2026-04-18 08:30:00,METAR LEBL 180830Z VRB01KT CAVOK 19/15 Q1020 NOSIG
2026-04-18 08:00:00,METAR LEBL 180800Z 30003KT 240V340 CAVOK 19/14 Q1020 NOSIG
2026-04-18 07:30:00,METAR LEBL 180730Z 31004KT 270V020 CAVOK 18/13 Q1020 NOSIG
2026-04-18 07:00:00,METAR LEBL 180700Z 31008KT 260V340 CAVOK 16/11 Q1019 NOSIG
2026-04-18 06:30:00,METAR LEBL 180630Z 31010KT 260V340 CAVOK 15/10 Q1019 NOSIG
2026-04-18 06:00:00,METAR LEBL 180600Z 32007KT CAVOK 14/10 Q1019 NOSIG
2026-04-18 05:30:00,METAR LEBL 180530Z 32008G24KT CAVOK 14/10 Q1019 NOSIG
2026-04-18 05:00:00,METAR LEBL 180500Z 33009KT CAVOK 14/10 Q1019 NOSIG
2026-04-18 04:30:00,METAR LEBL 180430Z 32009KT 9999 FEW040 14/10 Q1018 NOSIG
2026-04-18 04:00:00,METAR LEBL 180400Z 32008KT CAVOK 14/10 Q1018 NOSIG
2026-04-18 03:30:00,METAR LEBL 180330Z 33009KT CAVOK 14/10 Q1018 NOSIG
2026-04-18 03:00:00,METAR LEBL 180300Z 33009KT CAVOK 15/10 Q1019 NOSIG
2026-04-18 02:30:00,METAR LEBL 180230Z 32007KT 9999 FEW050 15/11 Q1019 NOSIG
2026-04-18 02:00:00,METAR LEBL 180200Z 30005KT 260V330 9999 FEW050 14/10 Q1019 NOSIG
2026-04-18 01:30:00,METAR LEBL 180130Z 29005KT 9999 FEW050 14/11 Q1019 NOSIG
2026-04-18 01:00:00,METAR LEBL 180100Z 28003KT 240V310 9999 FEW050 15/11 Q1019 NOSIG
2026-04-18 00:30:00,METAR LEBL 180030Z 28003KT 9999 FEW050 14/12 Q1019 NOSIG
2026-04-18 00:00:00,METAR LEBL 180000Z 25005KT 9999 FEW050 15/13 Q1020 NOSIG
2026-04-17 23:30:00,METAR LEBL 172330Z 26003KT 9999 FEW050 15/14 Q1020 NOSIG
2026-04-17 23:00:00,METAR LEBL 172300Z 25005KT 9999 FEW050 15/14 Q1020 NOSIG
2026-04-17 22:30:00,METAR LEBL 172230Z 24006KT 9999 FEW050 15/15 Q1020 NOSIG
2026-04-17 22:00:00,METAR LEBL 172200Z 23006KT 9999 FEW050 16/15 Q1020 NOSIG
2026-04-17 21:30:00,METAR LEBL 172130Z 24005KT 9999 FEW050 16/15 Q1020 NOSIG
2026-04-17 21:00:00,METAR LEBL 172100Z 23005KT 9999 FEW050 16/15 Q1020 NOSIG
2026-04-17 20:30:00,METAR LEBL 172030Z 22005KT 9999 FEW050 17/15 Q1020 NOSIG
2026-04-17 20:00:00,METAR LEBL 172000Z 22005KT 9999 FEW050 17/15 Q1020 NOSIG
2026-04-17 19:30:00,METAR LEBL 171930Z 22006KT 9999 FEW050 17/15 Q1019 NOSIG
2026-04-17 19:00:00,METAR LEBL 171900Z 21005KT 9999 FEW050 17/15 Q1019 NOSIG
2026-04-17 18:30:00,METAR LEBL 171830Z 21007KT 9999 FEW050 17/14 Q1019 NOSIG
2026-04-17 18:00:00,METAR LEBL 171800Z 21007KT CAVOK 18/14 Q1019 NOSIG
2026-04-17 17:30:00,METAR LEBL 171730Z 21007KT CAVOK 18/14 Q1019 NOSIG
2026-04-17 17:00:00,METAR LEBL 171700Z 19007KT CAVOK 18/15 Q1019 NOSIG
2026-04-17 16:30:00,METAR LEBL 171630Z 19008KT 170V240 CAVOK 19/15 Q1019 NOSIG
2026-04-17 16:00:00,METAR LEBL 171600Z 19007KT 160V220 CAVOK 19/14 Q1019 NOSIG
2026-04-17 15:30:00,METAR LEBL 171530Z 20009KT CAVOK 19/14 Q1019 NOSIG
2026-04-17 15:00:00,METAR LEBL 171500Z 20008KT CAVOK 19/12 Q1019 NOSIG
2026-04-17 14:30:00,METAR LEBL 171430Z 20008KT 150V220 CAVOK 20/11 Q1019 NOSIG
2026-04-17 14:00:00,METAR LEBL 171400Z 16007KT 130V190 CAVOK 19/14 Q1019 NOSIG
2026-04-17 13:30:00,METAR LEBL 171330Z 17006KT 130V210 CAVOK 19/14 Q1019 NOSIG
2026-04-17 13:00:00,METAR LEBL 171300Z 18006KT 150V240 CAVOK 20/14 Q1019 NOSIG
2026-04-17 12:30:00,METAR LEBL 171230Z 19007KT CAVOK 19/12 Q1020 NOSIG
2026-04-17 12:00:00,METAR LEBL 171200Z 20007KT CAVOK 20/13 Q1020 NOSIG
2026-04-17 11:30:00,METAR LEBL 171130Z 21007KT 170V240 CAVOK 19/13 Q1020 NOSIG
2026-04-17 11:00:00,METAR LEBL 171100Z 20007KT 170V240 CAVOK 19/13 Q1020 NOSIG
2026-04-17 10:30:00,METAR LEBL 171030Z 20007KT 170V230 CAVOK 19/12 Q1020 NOSIG
2026-04-17 10:00:00,METAR LEBL 171000Z 20008KT 170V240 CAVOK 18/13 Q1020 NOSIG
2026-04-17 09:30:00,METAR LEBL 170930Z 21007KT 170V250 CAVOK 18/13 Q1020 NOSIG
2026-04-17 09:00:00,METAR LEBL 170900Z 24006KT 220V290 CAVOK 18/13 Q1020 NOSIG
2026-04-17 08:30:00,METAR LEBL 170830Z 25005KT 200V300 CAVOK 18/14 Q1020 NOSIG
2026-04-17 08:00:00,METAR LEBL 170800Z 28004KT 240V330 CAVOK 17/13 Q1020 NOSIG
2026-04-17 07:30:00,METAR LEBL 170730Z 30005KT 270V330 CAVOK 16/11 Q1020 NOSIG
2026-04-17 07:00:00,METAR LEBL 170700Z 32007G17KT CAVOK 15/09 Q1020 NOSIG
2026-04-17 06:30:00,METAR LEBL 170630Z 32007KT 270V010 CAVOK 14/08 Q1020 NOSIG
2026-04-17 06:00:00,METAR LEBL 170600Z 31006KT 220V350 CAVOK 13/08 Q1020 NOSIG
2026-04-17 05:30:00,METAR LEBL 170530Z 32005KT CAVOK 12/08 Q1020 NOSIG
2026-04-17 05:00:00,METAR LEBL 170500Z 32006KT CAVOK 12/08 Q1020 NOSIG
2026-04-17 04:30:00,METAR LEBL 170430Z 31006KT CAVOK 13/07 Q1019 NOSIG
2026-04-17 04:00:00,METAR LEBL 170400Z 30005KT CAVOK 13/07 Q1019 NOSIG
2026-04-17 03:30:00,METAR LEBL 170330Z 30005KT 270V330 CAVOK 14/07 Q1019 NOSIG
2026-04-17 03:00:00,METAR LEBL 170300Z VRB02KT CAVOK 14/07 Q1019 NOSIG
2026-04-17 02:30:00,METAR LEBL 170230Z 32006KT CAVOK 14/07 Q1020 NOSIG
2026-04-17 02:00:00,METAR LEBL 170200Z 30006KT CAVOK 14/07 Q1020 NOSIG
2026-04-17 01:30:00,METAR LEBL 170130Z 30006KT CAVOK 15/08 Q1020 NOSIG
2026-04-17 01:00:00,METAR LEBL 170100Z 29005KT CAVOK 14/08 Q1020 NOSIG
2026-04-17 00:30:00,METAR LEBL 170030Z 31003KT CAVOK 14/10 Q1020 NOSIG
2026-04-17 00:00:00,METAR LEBL 170000Z 24003KT CAVOK 15/14 Q1020 NOSIG
2026-04-16 23:30:00,METAR LEBL 162330Z 23004KT CAVOK 15/14 Q1020 NOSIG
2026-04-16 23:00:00,METAR LEBL 162300Z 24005KT CAVOK 15/14 Q1020 NOSIG
2026-04-16 22:30:00,METAR LEBL 162230Z 24006KT CAVOK 16/14 Q1020 NOSIG
2026-04-16 22:00:00,METAR LEBL 162200Z 21004KT CAVOK 16/13 Q1020 NOSIG
2026-04-16 21:30:00,METAR LEBL 162130Z 21005KT CAVOK 17/14 Q1020 NOSIG
2026-04-16 21:00:00,METAR LEBL 162100Z 21006KT 9999 FEW030 BKN060 18/10 Q1020 NOSIG
2026-04-16 20:30:00,METAR LEBL 162030Z 22008KT CAVOK 17/12 Q1020 NOSIG
2026-04-16 20:00:00,METAR LEBL 162000Z 21006KT CAVOK 17/12 Q1020 NOSIG
2026-04-16 19:30:00,METAR LEBL 161930Z 24010KT CAVOK 17/11 Q1020 NOSIG
2026-04-16 19:00:00,METAR LEBL 161900Z 22010KT CAVOK 18/11 Q1019 NOSIG
2026-04-16 18:30:00,METAR LEBL 161830Z 22012KT CAVOK 18/12 Q1019 NOSIG
2026-04-16 18:00:00,METAR LEBL 161800Z 21011KT CAVOK 18/12 Q1019 NOSIG
2026-04-16 17:30:00,METAR LEBL 161730Z 23015KT CAVOK 19/10 Q1019 NOSIG
2026-04-16 17:00:00,METAR LEBL 161700Z 23013KT 9999 FEW050 19/12 Q1019 NOSIG
2026-04-16 16:30:00,METAR LEBL 161630Z 23014KT 9999 FEW050 19/13 Q1019 NOSIG
2026-04-16 16:00:00,METAR LEBL 161600Z 23015KT 9999 FEW040 19/13 Q1019 NOSIG
2026-04-16 15:30:00,METAR LEBL 161530Z 22015KT 9999 FEW040 18/14 Q1019 NOSIG
2026-04-16 15:00:00,METAR LEBL 161500Z 22015KT 9999 FEW040 19/14 Q1019 NOSIG
2026-04-16 14:30:00,METAR LEBL 161430Z 21012KT 9999 FEW040 19/13 Q1020 NOSIG
2026-04-16 14:00:00,METAR LEBL 161400Z 21013KT 9999 FEW040 18/14 Q1020 NOSIG
2026-04-16 13:30:00,METAR LEBL 161330Z 21012KT 9999 FEW040 18/14 Q1021 NOSIG
2026-04-16 13:00:00,METAR LEBL 161300Z 21011KT 180V240 9999 FEW040 18/14 Q1021 NOSIG
2026-04-16 12:30:00,METAR LEBL 161230Z 21011KT 9999 FEW040 18/13 Q1021 NOSIG
2026-04-16 12:00:00,METAR LEBL 161200Z 21011KT 9999 FEW040 19/13 Q1021 NOSIG
2026-04-16 11:30:00,METAR LEBL 161130Z 20009KT 9999 FEW040 19/11 Q1021 NOSIG
2026-04-16 11:00:00,METAR LEBL 161100Z 19006KT 160V220 9999 FEW040 18/12 Q1022 NOSIG
2026-04-16 10:30:00,METAR LEBL 161030Z 17006KT 140V200 9999 FEW040 19/12 Q1022 NOSIG
2026-04-16 10:00:00,METAR LEBL 161000Z 18006KT 150V220 9999 FEW060 18/12 Q1022 NOSIG
2026-04-16 09:30:00,METAR LEBL 160930Z 18005KT 130V220 9999 FEW060 19/10 Q1022 NOSIG
2026-04-16 09:00:00,METAR LEBL 160900Z 28003KT CAVOK 19/10 Q1021 NOSIG
2026-04-16 08:30:00,METAR LEBL 160830Z 33003KT 9999 FEW060 19/12 Q1021 NOSIG
2026-04-16 08:00:00,METAR LEBL 160800Z 32006KT 270V350 9999 FEW040 17/12 Q1021 NOSIG
2026-04-16 07:00:00,METAR LEBL 160700Z 32009G19KT 9999 FEW060 14/10 Q1021 NOSIG
2026-04-16 06:30:00,METAR LEBL 160630Z 32010KT 270V360 9999 FEW060 14/10 Q1021 NOSIG
2026-04-16 06:00:00,METAR LEBL 160600Z 32010G22KT 300V360 9999 FEW060 12/10 Q1021 NOSIG
2026-04-16 05:30:00,METAR LEBL 160530Z 32008KT 280V340 9999 FEW060 12/10 Q1021 NOSIG
2026-04-16 05:00:00,METAR LEBL 160500Z 32008KT CAVOK 12/10 Q1021 NOSIG
2026-04-16 04:30:00,METAR LEBL 160430Z 32008KT CAVOK 12/10 Q1020 NOSIG
2026-04-16 04:00:00,METAR LEBL 160400Z 31007KT CAVOK 13/10 Q1020 NOSIG
2026-04-16 03:30:00,METAR LEBL 160330Z 32008KT CAVOK 12/10 Q1021 NOSIG
2026-04-16 03:00:00,METAR LEBL 160300Z 31007KT CAVOK 13/10 Q1021 NOSIG
2026-04-16 02:30:00,METAR LEBL 160230Z 33008KT CAVOK 13/10 Q1021 NOSIG
2026-04-16 02:00:00,METAR LEBL 160200Z 33008KT CAVOK 14/10 Q1021 NOSIG
2026-04-16 01:30:00,METAR LEBL 160130Z 32008KT CAVOK 13/10 Q1021 NOSIG
2026-04-16 01:00:00,METAR LEBL 160100Z VRB02KT CAVOK 14/10 Q1021 NOSIG
2026-04-16 00:30:00,METAR LEBL 160030Z 32006KT CAVOK 14/10 Q1021 NOSIG
2026-04-16 00:00:00,METAR LEBL 160000Z 30005KT 9999 FEW020 15/11 Q1021 NOSIG
2026-04-15 23:30:00,METAR LEBL 152330Z 30004KT 9999 FEW020 14/11 Q1021 NOSIG
2026-04-15 23:00:00,METAR LEBL 152300Z 29005KT CAVOK 14/11 Q1021 NOSIG
2026-04-15 22:30:00,METAR LEBL 152230Z 33004KT 270V340 CAVOK 15/11 Q1021 NOSIG
2026-04-15 22:00:00,METAR LEBL 152200Z 29006KT CAVOK 15/11 Q1021 NOSIG
2026-04-15 21:30:00,METAR LEBL 152130Z 24008KT CAVOK 14/13 Q1021 NOSIG
2026-04-15 21:00:00,METAR LEBL 152100Z 21005KT CAVOK 16/14 Q1021 NOSIG
2026-04-15 20:30:00,METAR LEBL 152030Z 20005KT CAVOK 16/14 Q1021 NOSIG
2026-04-15 20:00:00,METAR LEBL 152000Z 20006KT CAVOK 16/13 Q1020 NOSIG
2026-04-15 19:30:00,METAR LEBL 151930Z 20007KT CAVOK 16/13 Q1020 NOSIG
2026-04-15 19:00:00,METAR LEBL 151900Z 21008KT CAVOK 16/13 Q1020 NOSIG
2026-04-15 18:30:00,METAR LEBL 151830Z 21010KT CAVOK 16/13 Q1019 NOSIG
2026-04-15 18:00:00,METAR LEBL 151800Z 22011KT 9999 FEW015 17/13 Q1019 NOSIG
2026-04-15 17:30:00,METAR LEBL 151730Z 21012KT 9999 FEW016 17/13 Q1019 NOSIG
2026-04-15 17:00:00,METAR LEBL 151700Z 22012KT 9999 FEW018 17/13 Q1019 NOSIG
2026-04-15 16:30:00,METAR LEBL 151630Z 21010KT 9999 FEW020 17/12 Q1019 NOSIG
2026-04-15 16:00:00,METAR LEBL 151600Z 19008KT 170V240 9999 FEW022 18/12 Q1019 NOSIG
2026-04-15 15:30:00,METAR LEBL 151530Z 20007KT 9999 FEW022 17/11 Q1019 NOSIG
2026-04-15 15:00:00,METAR LEBL 151500Z 20009KT 170V230 9999 FEW022 17/12 Q1019 NOSIG
2026-04-15 14:30:00,METAR LEBL 151430Z 20009KT 160V230 9999 FEW020 17/12 Q1019 NOSIG
2026-04-15 14:00:00,METAR LEBL 151400Z 20009KT 9999 FEW023 17/11 Q1019 NOSIG
2026-04-15 13:30:00,METAR LEBL 151330Z 20009KT 170V230 9999 FEW020 17/11 Q1020 NOSIG
2026-04-15 13:00:00,METAR LEBL 151300Z 20009KT 170V230 9999 FEW020 17/12 Q1020 NOSIG
2026-04-15 12:30:00,METAR LEBL 151230Z 19009KT 9999 FEW020 17/12 Q1020 NOSIG
2026-04-15 12:00:00,METAR LEBL 151200Z 19006KT 140V230 9999 FEW020 17/07 Q1020 NOSIG
2026-04-15 11:30:00,METAR LEBL 151130Z 17005KT 110V210 9999 FEW020 17/06 Q1020 NOSIG
2026-04-15 11:00:00,METAR LEBL 151100Z 15007KT 100V170 9999 FEW015 17/07 Q1021 NOSIG
2026-04-15 10:30:00,METAR LEBL 151030Z 12007KT 9999 FEW015 17/08 Q1021 NOSIG
2026-04-15 10:00:00,METAR LEBL 151000Z 10007KT 9999 FEW015 17/08 Q1021 NOSIG
2026-04-15 09:30:00,METAR LEBL 150930Z 34003KT 9999 FEW020 18/06 Q1021 NOSIG
2026-04-15 09:00:00,METAR LEBL 150900Z 32006KT 250V010 9999 FEW020 17/08 Q1021 NOSIG
2026-04-15 08:30:00,METAR LEBL 150830Z 34006KT 290V040 CAVOK 15/07 Q1020 NOSIG
2026-04-15 08:00:00,METAR LEBL 150800Z 32009KT 290V360 CAVOK 14/08 Q1020 NOSIG
2026-04-15 07:30:00,METAR LEBL 150730Z 31011KT CAVOK 13/07 Q1020 NOSIG
2026-04-15 07:00:00,METAR LEBL 150700Z 32009KT 280V350 CAVOK 11/07 Q1020 NOSIG
2026-04-15 06:30:00,METAR LEBL 150630Z 33007KT 290V350 CAVOK 10/06 Q1020 NOSIG
2026-04-15 06:00:00,METAR LEBL 150600Z 32008KT 280V350 CAVOK 10/06 Q1019 NOSIG
2026-04-15 05:30:00,METAR LEBL 150530Z 33008KT CAVOK 09/07 Q1019 NOSIG
2026-04-15 05:00:00,METAR LEBL 150500Z 32009KT 9999 FEW015 09/07 Q1019 NOSIG
2026-04-15 04:30:00,METAR LEBL 150430Z 33008KT 9999 FEW015 09/07 Q1019 NOSIG
2026-04-15 04:00:00,METAR LEBL 150400Z 33010KT 9999 FEW015 09/07 Q1019 NOSIG
2026-04-15 03:30:00,METAR LEBL 150330Z 32008KT 9999 FEW015 10/08 Q1019 NOSIG
2026-04-15 03:00:00,METAR LEBL 150300Z 32007KT 9999 FEW015 10/08 Q1019 NOSIG
2026-04-15 02:30:00,METAR LEBL 150230Z 32006KT 9999 FEW015 10/08 Q1019 NOSIG
2026-04-15 02:00:00,METAR LEBL 150200Z 34003KT 310V050 9999 FEW015 10/08 Q1019 NOSIG
2026-04-15 01:30:00,METAR LEBL 150130Z 34006KT 310V010 9999 FEW015 11/09 Q1019 NOSIG
2026-04-15 01:00:00,METAR LEBL 150100Z 33006KT 9999 FEW015 11/09 Q1019 NOSIG
2026-04-15 00:30:00,METAR LEBL 150030Z 32006KT 9999 FEW015 11/09 Q1019 NOSIG
2026-04-15 00:00:00,METAR LEBL 150000Z 33007KT CAVOK 11/08 Q1019 NOSIG
2026-04-14 23:30:00,METAR LEBL 142330Z 32007KT 9999 FEW015 12/08 Q1019 NOSIG
2026-04-14 23:00:00,METAR LEBL 142300Z 32006KT 9999 FEW018 12/07 Q1019 NOSIG
2026-04-14 22:30:00,METAR LEBL 142230Z 32004KT 9999 FEW015 12/08 Q1019 NOSIG
2026-04-14 22:00:00,METAR LEBL 142200Z 31003KT 9999 FEW015 13/09 Q1019 NOSIG
2026-04-14 21:30:00,METAR LEBL 142130Z 23003KT 9999 FEW020 13/09 Q1019 NOSIG
2026-04-14 21:00:00,METAR LEBL 142100Z VRB01KT 9999 FEW020 13/09 Q1019 NOSIG
2026-04-14 20:30:00,METAR LEBL 142030Z 29005KT 250V320 9999 FEW030 13/11 Q1019 NOSIG
2026-04-14 20:00:00,METAR LEBL 142000Z 25006KT 9999 FEW030 13/11 Q1019 NOSIG
2026-04-14 19:30:00,METAR LEBL 141930Z 23004KT 200V260 9999 FEW030 14/11 Q1018 NOSIG
2026-04-14 19:00:00,METAR LEBL 141900Z 22004KT 9999 FEW055 15/11 Q1018 NOSIG
2026-04-14 18:30:00,METAR LEBL 141830Z 21004KT CAVOK 15/11 Q1017 NOSIG
2026-04-14 18:00:00,METAR LEBL 141800Z 22005KT 190V260 CAVOK 16/11 Q1017 NOSIG
2026-04-14 17:30:00,METAR LEBL 141730Z 21007KT CAVOK 16/11 Q1017 NOSIG
2026-04-14 17:00:00,METAR LEBL 141700Z 20009KT 170V240 CAVOK 16/11 Q1017 NOSIG
2026-04-14 16:30:00,METAR LEBL 141630Z 20009KT CAVOK 16/11 Q1016 NOSIG
2026-04-14 16:00:00,METAR LEBL 141600Z 20011KT CAVOK 16/11 Q1016 NOSIG
2026-04-14 15:30:00,METAR LEBL 141530Z 20012KT CAVOK 16/10 Q1016 NOSIG
2026-04-14 15:00:00,METAR LEBL 141500Z 20013KT CAVOK 16/10 Q1016 NOSIG
2026-04-14 14:30:00,METAR LEBL 141430Z 20012KT CAVOK 17/10 Q1016 NOSIG
2026-04-14 14:00:00,METAR LEBL 141400Z 20013KT CAVOK 17/10 Q1016 NOSIG
2026-04-14 13:30:00,METAR LEBL 141330Z 20013KT CAVOK 17/10 Q1016 NOSIG
2026-04-14 13:00:00,METAR LEBL 141300Z 20013KT CAVOK 17/09 Q1016 NOSIG
2026-04-14 12:30:00,METAR LEBL 141230Z 18011KT CAVOK 17/10 Q1016 NOSIG
2026-04-14 12:00:00,METAR LEBL 141200Z 19009KT 150V220 CAVOK 17/09 Q1016 NOSIG
2026-04-14 11:30:00,METAR LEBL 141130Z 18009KT 150V220 9999 FEW020 16/09 Q1016 NOSIG
2026-04-14 11:00:00,METAR LEBL 141100Z 19009KT 150V220 9999 FEW020 16/08 Q1017 NOSIG
2026-04-14 10:30:00,METAR LEBL 141030Z 17008KT 130V200 9999 FEW020 17/08 Q1016 NOSIG
2026-04-14 10:00:00,METAR LEBL 141000Z 29002KT CAVOK 17/08 Q1016 NOSIG
2026-04-14 09:30:00,METAR LEBL 140930Z 32007KT 250V350 CAVOK 16/07 Q1016 NOSIG
2026-04-14 09:00:00,METAR LEBL 140900Z 32009KT 250V360 CAVOK 15/05 Q1016 NOSIG
2026-04-14 08:30:00,METAR LEBL 140830Z 33012G22KT 310V010 CAVOK 14/05 Q1016 NOSIG
2026-04-14 08:00:00,METAR LEBL 140800Z 33013KT 290V350 CAVOK 13/06 Q1016 NOSIG
2026-04-14 07:30:00,METAR LEBL 140730Z 33013G25KT CAVOK 11/05 Q1016 NOSIG
2026-04-14 07:00:00,METAR LEBL 140700Z 33014G27KT CAVOK 11/05 Q1016 NOSIG
2026-04-14 06:30:00,METAR LEBL 140630Z 33014G25KT CAVOK 10/05 Q1015 NOSIG
2026-04-14 06:00:00,METAR LEBL 140600Z 33013G23KT 290V010 CAVOK 10/05 Q1015 NOSIG
2026-04-14 05:30:00,METAR LEBL 140530Z 33012G23KT 280V350 CAVOK 10/06 Q1015 NOSIG
2026-04-14 05:00:00,METAR LEBL 140500Z 33012KT CAVOK 10/06 Q1015 NOSIG
2026-04-14 04:30:00,METAR LEBL 140430Z 33010KT CAVOK 10/07 Q1014 NOSIG
2026-04-14 04:00:00,METAR LEBL 140400Z 34010KT CAVOK 10/08 Q1014 NOSIG
2026-04-14 03:30:00,METAR LEBL 140330Z 33009KT CAVOK 11/09 Q1014 NOSIG
2026-04-14 03:00:00,METAR LEBL 140300Z 33008KT CAVOK 10/09 Q1014 NOSIG
2026-04-14 02:30:00,METAR LEBL 140230Z 34006KT CAVOK 11/09 Q1014 NOSIG
2026-04-14 02:00:00,METAR LEBL 140200Z 33007KT CAVOK 11/10 Q1014 NOSIG
2026-04-14 01:30:00,METAR LEBL 140130Z 33009KT CAVOK 11/10 Q1014 NOSIG
2026-04-14 01:00:00,METAR LEBL 140100Z 32007KT CAVOK 11/10 Q1014 NOSIG
2026-04-14 00:30:00,METAR LEBL 140030Z 32004KT CAVOK 11/10 Q1014 NOSIG
2026-04-14 00:00:00,METAR LEBL 140000Z 32005KT CAVOK 12/10 Q1014 NOSIG
2026-04-13 23:30:00,METAR LEBL 132330Z VRB02KT CAVOK 13/10 Q1014 NOSIG
2026-04-13 23:00:00,METAR LEBL 132300Z 16004KT 120V190 CAVOK 15/10 Q1014 NOSIG
2026-04-13 22:30:00,METAR LEBL 132230Z 14003KT 110V190 CAVOK 15/10 Q1014 NOSIG
2026-04-13 22:00:00,METAR LEBL 132200Z 14004KT 110V210 CAVOK 15/09 Q1014 NOSIG
2026-04-13 21:30:00,METAR LEBL 132130Z 13006KT CAVOK 15/10 Q1013 NOSIG
2026-04-13 21:00:00,METAR LEBL 132100Z 13006KT 110V180 CAVOK 15/10 Q1013 NOSIG
2026-04-13 20:30:00,METAR LEBL 132030Z 13006KT 110V170 CAVOK 15/11 Q1013 NOSIG
2026-04-13 20:00:00,METAR LEBL 132000Z 12005KT 090V150 CAVOK 15/10 Q1012 NOSIG
2026-04-13 19:30:00,METAR LEBL 131930Z VRB02KT CAVOK 15/09 Q1012 NOSIG
2026-04-13 19:00:00,METAR LEBL 131900Z 10003KT CAVOK 15/10 Q1011 NOSIG
2026-04-13 18:30:00,METAR LEBL 131830Z 11005KT CAVOK 15/09 Q1011 NOSIG
2026-04-13 18:00:00,METAR LEBL 131800Z COR 10006KT CAVOK 15/10 Q1011 NOSIG
2026-04-13 17:30:00,METAR LEBL 131730Z 11005KT 9999 FEW050 15/09 Q1010 NOSIG
2026-04-13 17:00:00,METAR LEBL 131700Z 11005KT 9999 FEW040 15/09 Q1010 NOSIG
2026-04-13 16:30:00,METAR LEBL 131630Z 14006KT 110V170 9999 FEW030 15/09 Q1009 NOSIG
2026-04-13 16:00:00,METAR LEBL 131600Z 18008KT 140V210 9999 FEW030 16/09 Q1009 NOSIG
2026-04-13 15:30:00,METAR LEBL 131530Z 19010KT 150V220 9999 FEW030 16/10 Q1009 NOSIG
2026-04-13 15:00:00,METAR LEBL 131500Z 20011KT 9999 FEW030 16/09 Q1009 NOSIG
2026-04-13 14:30:00,METAR LEBL 131430Z 21010KT 9999 FEW030 15/08 Q1009 NOSIG
2026-04-13 14:00:00,METAR LEBL 131400Z 21012KT 180V240 9999 FEW030 15/10 Q1009 NOSIG
2026-04-13 13:30:00,METAR LEBL 131330Z 20012KT 170V230 9999 FEW030 15/10 Q1009 NOSIG
2026-04-13 13:00:00,METAR LEBL 131300Z 20011KT 9999 FEW030 15/10 Q1009 NOSIG
2026-04-13 12:30:00,METAR LEBL 131230Z 20010KT 9999 FEW030 14/10 Q1009 NOSIG
2026-04-13 12:00:00,METAR LEBL 131200Z 20007KT 160V220 9999 FEW030 14/10 Q1009 NOSIG
2026-04-13 11:30:00,METAR LEBL 131130Z 21007KT 170V250 9999 FEW030 SCT060 13/10 Q1009 NOSIG
2026-04-13 11:00:00,METAR LEBL 131100Z COR 25004KT 200V310 9999 FEW030 BKN060 14/10 Q1009 NOSIG
2026-04-13 10:00:00,METAR LEBL 131000Z 32007G18KT 290V020 9999 FEW030 BKN060 12/08 Q1009 NOSIG
2026-04-13 09:30:00,METAR LEBL 130930Z 33007KT 9999 FEW018 SCT050 11/08 Q1009 NOSIG
2026-04-13 09:00:00,METAR LEBL 130900Z 32007KT 260V350 9999 FEW027 SCT034 BKN040 11/08 Q1009 NOSIG
2026-04-13 08:30:00,METAR LEBL 130830Z 34008G19KT 290V030 9999 DZ FEW027 BKN032 10/08 Q1008 NOSIG
2026-04-13 08:00:00,METAR LEBL 130800Z 33009KT 270V050 9999 SCT030 BKN047 10/08 Q1008 NOSIG
2026-04-13 07:30:00,METAR LEBL 130730Z 32010G23KT 290V360 9999 FEW035 SCT050 BKN058 10/08 Q1007 NOSIG
2026-04-13 07:00:00,METAR LEBL 130700Z 31010G20KT 9999 FEW035 BKN058 10/08 Q1007 NOSIG
2026-04-13 06:30:00,METAR LEBL 130630Z 33008KT 290V350 9999 -DZ FEW050 BKN057 10/08 Q1007 NOSIG
2026-04-13 06:00:00,METAR LEBL 130600Z COR 33007G17KT 240V360 9999 -DZ FEW035 BKN056 10/08 Q1007 NOSIG
2026-04-13 05:30:00,METAR LEBL 130530Z 34006KT 290V010 9999 DZ FEW050 BKN056 10/08 Q1007 NOSIG
2026-04-13 05:00:00,METAR LEBL 130500Z 31011KT 9999 DZ FEW038 BKN044 10/09 Q1006 NOSIG
2026-04-13 04:30:00,METAR LEBL 130430Z 31009KT 9999 DZ FEW040 BKN047 10/09 Q1006 NOSIG
2026-04-13 04:00:00,METAR LEBL 130400Z 32008KT 9999 DZ FEW040 SCT047 BKN058 11/09 Q1006 NOSIG
2026-04-13 03:30:00,METAR LEBL 130330Z 32009KT 9999 DZ FEW042 SCT045 BKN060 11/09 Q1006 NOSIG
2026-04-13 03:00:00,METAR LEBL 130300Z 32010KT 9999 DZ FEW042 SCT045 BKN060 11/09 Q1006 NOSIG
2026-04-13 02:30:00,METAR LEBL 130230Z 34008KT 310V010 9999 DZ BKN040 11/09 Q1006 NOSIG
2026-04-13 02:00:00,METAR LEBL 130200Z 32009KT 9999 -RA FEW030 BKN048 11/10 Q1006 NOSIG
2026-04-13 01:30:00,METAR LEBL 130130Z 32012KT 9999 -RA FEW030 SCT034 BKN041 11/10 Q1006 NOSIG
2026-04-13 01:00:00,METAR LEBL 130100Z 32010KT 9999 -RA FEW030 BKN038 11/10 Q1006 NOSIG
2026-04-13 00:30:00,METAR LEBL 130030Z 31010KT 9999 -RA FEW030 SCT035 12/11 Q1006 NOSIG
2026-04-13 00:00:00,METAR LEBL 130000Z 31011KT 9999 -RA FEW030 BKN035 12/11 Q1007 NOSIG
2026-04-12 23:30:00,METAR LEBL 122330Z 32012KT 9999 -RA FEW030 BKN035 12/10 Q1007 RERA NOSIG
2026-04-12 23:00:00,METAR LEBL 122300Z 31010KT 9999 RA FEW030 BKN036 12/11 Q1007 NOSIG
2026-04-12 22:30:00,METAR LEBL 122230Z 32011KT 9999 -RA FEW030 BKN031 12/11 Q1007 NOSIG
2026-04-12 22:00:00,METAR LEBL 122200Z 32010KT 9999 -RA FEW030 SCT044 BKN060 12/11 Q1007 NOSIG
2026-04-12 21:30:00,METAR LEBL 122130Z 32010KT 9999 -RA FEW019 SCT037 12/12 Q1008 RERA NOSIG
2026-04-12 21:00:00,METAR LEBL 122100Z 32008KT 9999 RA FEW019 FEW025TCU BKN034 12/12 Q1008 NOSIG
2026-04-12 20:30:00,METAR LEBL 122030Z 34007KT 310V010 9000 RA FEW017 BKN018 12/12 Q1008 NOSIG
2026-04-12 20:00:00,METAR LEBL 122000Z 34008KT 280V010 8000 RA FEW015 FEW025TCU SCT026 BKN032 12/12 Q1008 NOSIG
2026-04-12 19:30:00,METAR LEBL 121930Z 34010KT 310V010 9000 RA FEW020 FEW023TCU SCT028 BKN037 12/12 Q1008 NOSIG
2026-04-12 19:00:00,METAR LEBL 121900Z 34011KT 300V010 8000 RA FEW030TCU SCT037 12/12 Q1008 NOSIG
2026-04-12 18:30:00,METAR LEBL 121830Z 33010KT 290V360 8000 -RA FEW030TCU SCT038 BKN050 12/12 Q1008 NOSIG
2026-04-12 18:00:00,METAR LEBL 121800Z 32010G20KT 270V360 6000 -RA SCT035TCU OVC050 13/12 Q1008 NOSIG
2026-04-12 17:30:00,METAR LEBL 121730Z 32012KT 6000 -RA SCT035TCU OVC050 13/11 Q1008 NOSIG
2026-04-12 17:00:00,METAR LEBL 121700Z 33007KT 260V010 6000 -RA SCT035TCU OVC050 13/11 Q1008 NOSIG
2026-04-12 16:30:00,METAR LEBL 121630Z 32012KT 280V340 6000 RA BKN050 13/11 Q1008 NOSIG
2026-04-12 16:00:00,METAR LEBL 121600Z 33013KT 9999 -DZ FEW050 14/11 Q1008 NOSIG
2026-04-12 15:00:00,METAR LEBL 121500Z 33014KT 290V350 9999 FEW058 15/10 Q1008 NOSIG
2026-04-12 14:30:00,METAR LEBL 121430Z 33012KT 9999 FEW058 16/09 Q1008 NOSIG
2026-04-12 14:00:00,METAR LEBL 121400Z 33013KT 9999 -DZ FEW058 16/09 Q1008 NOSIG
2026-04-12 13:30:00,METAR LEBL 121330Z 32013KT 290V350 CAVOK 17/09 Q1008 NOSIG
2026-04-12 13:00:00,METAR LEBL 121300Z 33012G22KT CAVOK 17/09 Q1008 NOSIG
2026-04-12 12:30:00,METAR LEBL 121230Z 33012G22KT 260V350 CAVOK 18/09 Q1008 NOSIG
2026-04-12 12:00:00,METAR LEBL 121200Z 33012KT 290V350 CAVOK 18/09 Q1008 NOSIG
2026-04-12 11:30:00,METAR LEBL 121130Z 33010G27KT 290V060 CAVOK 18/10 Q1009 NOSIG
2026-04-12 11:00:00,METAR LEBL 121100Z 33007KT 260V030 CAVOK 18/09 Q1009 NOSIG
2026-04-12 10:30:00,METAR LEBL 121030Z 34007G17KT 250V020 CAVOK 18/09 Q1010 NOSIG
2026-04-12 10:00:00,METAR LEBL 121000Z 33008KT 290V040 CAVOK 17/09 Q1010 NOSIG
2026-04-12 09:30:00,METAR LEBL 120930Z 35005KT 260V030 CAVOK 16/09 Q1010 NOSIG
2026-04-12 09:00:00,METAR LEBL 120900Z 34013G23KT 310V020 CAVOK 16/09 Q1009 NOSIG
2026-04-12 08:30:00,METAR LEBL 120830Z 34010KT 300V010 CAVOK 16/09 Q1010 NOSIG
2026-04-12 08:00:00,METAR LEBL 120800Z 33006KT 280V350 CAVOK 16/09 Q1010 NOSIG
2026-04-12 07:30:00,METAR LEBL 120730Z 33005KT 290V030 CAVOK 15/12 Q1010 NOSIG
2026-04-12 07:00:00,METAR LEBL 120700Z VRB02KT CAVOK 16/14 Q1010 NOSIG
2026-04-12 06:30:00,METAR LEBL 120630Z 03002KT CAVOK 16/13 Q1010 NOSIG
2026-04-12 06:00:00,METAR LEBL 120600Z 34002KT CAVOK 16/13 Q1010 NOSIG
2026-04-12 05:30:00,METAR LEBL 120530Z 18002KT CAVOK 16/13 Q1010 NOSIG
2026-04-12 05:00:00,METAR LEBL 120500Z 26004KT CAVOK 15/14 Q1009 NOSIG
2026-04-12 04:30:00,METAR LEBL 120430Z 07001KT CAVOK 16/13 Q1009 NOSIG
2026-04-12 04:00:00,METAR LEBL 120400Z VRB01KT CAVOK 16/14 Q1009 NOSIG
2026-04-12 03:30:00,METAR LEBL 120330Z 05003KT 030V100 CAVOK 16/13 Q1009 NOSIG
2026-04-12 03:00:00,METAR LEBL 120300Z 07003KT 050V110 CAVOK 16/13 Q1010 NOSIG
2026-04-12 02:30:00,METAR LEBL 120230Z 09004KT CAVOK 17/13 Q1010 NOSIG
2026-04-12 02:00:00,METAR LEBL 120200Z 06004KT CAVOK 16/14 Q1010 NOSIG
2026-04-12 01:30:00,METAR LEBL 120130Z 07003KT 040V100 CAVOK 17/14 Q1010 NOSIG
2026-04-12 01:00:00,METAR LEBL 120100Z 08003KT 050V110 CAVOK 17/14 Q1010 NOSIG
2026-04-12 00:30:00,METAR LEBL 120030Z 08005KT CAVOK 17/14 Q1010 NOSIG
2026-04-12 00:00:00,METAR LEBL 120000Z 07003KT 010V090 CAVOK 17/14 Q1010 NOSIG
2026-04-11 23:30:00,METAR LEBL 112330Z 04006KT 010V070 CAVOK 17/14 Q1010 NOSIG
2026-04-11 23:00:00,METAR LEBL 112300Z 05007KT CAVOK 17/15 Q1011 NOSIG
2026-04-11 22:30:00,METAR LEBL 112230Z 04008KT CAVOK 17/15 Q1011 NOSIG
2026-04-11 22:00:00,METAR LEBL 112200Z 04008KT CAVOK 17/14 Q1011 NOSIG
2026-04-11 21:30:00,METAR LEBL 112130Z 06013KT CAVOK 17/14 Q1012 NOSIG
2026-04-11 21:00:00,METAR LEBL 112100Z 06014KT CAVOK 17/14 Q1012 NOSIG
2026-04-11 20:30:00,METAR LEBL 112030Z 06016KT 040V100 CAVOK 17/14 Q1012 NOSIG
2026-04-11 20:00:00,METAR LEBL 112000Z 06017KT CAVOK 17/14 Q1011 NOSIG
2026-04-11 19:30:00,METAR LEBL 111930Z 06019KT CAVOK 18/13 Q1011 NOSIG
2026-04-11 19:00:00,METAR LEBL 111900Z 06016KT CAVOK 18/13 Q1011 NOSIG
2026-04-11 18:30:00,METAR LEBL 111830Z 06014KT CAVOK 18/12 Q1011 NOSIG
2026-04-11 18:00:00,METAR LEBL 111800Z 07015KT CAVOK 18/12 Q1011 NOSIG
2026-04-11 17:30:00,METAR LEBL 111730Z 07014KT 050V110 CAVOK 19/11 Q1010 NOSIG
2026-04-11 17:00:00,METAR LEBL 111700Z 06014KT CAVOK 21/09 Q1009 NOSIG
2026-04-11 16:30:00,METAR LEBL 111630Z 09006KT CAVOK 21/09 Q1010 NOSIG
2026-04-11 16:00:00,METAR LEBL 111600Z 08007KT CAVOK 22/07 Q1009 NOSIG
2026-04-11 15:30:00,METAR LEBL 111530Z 08005KT CAVOK 22/07 Q1009 NOSIG
2026-04-11 15:00:00,METAR LEBL 111500Z 11004KT 080V140 CAVOK 23/06 Q1010 NOSIG
2026-04-11 14:30:00,METAR LEBL 111430Z 13007KT CAVOK 23/08 Q1010 NOSIG
2026-04-11 14:00:00,METAR LEBL 111400Z 14005KT CAVOK 22/07 Q1010 NOSIG
2026-04-11 13:30:00,METAR LEBL 111330Z 15007KT 130V190 CAVOK 22/09 Q1010 NOSIG
2026-04-11 13:00:00,METAR LEBL 111300Z 16004KT 120V200 CAVOK 22/09 Q1010 NOSIG
2026-04-11 12:30:00,METAR LEBL 111230Z 17004KT 120V210 CAVOK 20/10 Q1010 NOSIG
2026-04-11 12:00:00,METAR LEBL 111200Z 18003KT 150V300 CAVOK 21/09 Q1011 NOSIG
2026-04-11 11:30:00,METAR LEBL 111130Z 20005KT 150V230 CAVOK 20/09 Q1011 NOSIG
2026-04-11 11:00:00,METAR LEBL 111100Z 18002KT CAVOK 21/09 Q1011 NOSIG
2026-04-11 10:30:00,METAR LEBL 111030Z 19005KT 160V220 CAVOK 19/12 Q1012 NOSIG
2026-04-11 10:00:00,METAR LEBL 111000Z 22005KT CAVOK 19/11 Q1012 NOSIG
2026-04-11 09:30:00,METAR LEBL 110930Z 21007KT CAVOK 19/11 Q1012 NOSIG
2026-04-11 09:00:00,METAR LEBL 110900Z 30005KT 250V330 CAVOK 20/07 Q1012 NOSIG
2026-04-11 08:30:00,METAR LEBL 110830Z 31007KT 250V340 CAVOK 19/07 Q1012 NOSIG
2026-04-11 08:00:00,METAR LEBL 110800Z 32009KT 260V360 CAVOK 18/07 Q1012 NOSIG
2026-04-11 07:30:00,METAR LEBL 110730Z 32009KT CAVOK 17/06 Q1012 NOSIG
2026-04-11 07:00:00,METAR LEBL 110700Z 32011KT CAVOK 16/06 Q1012 NOSIG
2026-04-11 06:30:00,METAR LEBL 110630Z 32011G24KT 290V010 CAVOK 15/05 Q1012 NOSIG
2026-04-11 06:00:00,METAR LEBL 110600Z 32009KT 290V350 9999 FEW018 14/05 Q1012 NOSIG
2026-04-11 05:30:00,METAR LEBL 110530Z 32009G19KT 260V350 9999 FEW018 15/05 Q1012 NOSIG
2026-04-11 05:00:00,METAR LEBL 110500Z 31008KT 9999 FEW018 14/05 Q1012 NOSIG
2026-04-11 04:30:00,METAR LEBL 110430Z 32008KT 9999 FEW018 15/05 Q1012 NOSIG
2026-04-11 04:00:00,METAR LEBL 110400Z 32007KT CAVOK 14/06 Q1012 NOSIG
2026-04-11 03:30:00,METAR LEBL 110330Z 31004KT CAVOK 14/05 Q1013 NOSIG
2026-04-11 03:00:00,METAR LEBL 110300Z 30005KT CAVOK 14/05 Q1013 NOSIG
2026-04-11 02:30:00,METAR LEBL 110230Z 28004KT CAVOK 14/06 Q1013 NOSIG
2026-04-11 02:00:00,METAR LEBL 110200Z 30005KT 260V330 CAVOK 13/07 Q1013 NOSIG
2026-04-11 01:30:00,METAR LEBL 110130Z 28007KT CAVOK 16/06 Q1013 NOSIG
2026-04-11 01:00:00,METAR LEBL 110100Z 30007KT CAVOK 16/06 Q1013 NOSIG
2026-04-11 00:30:00,METAR LEBL 110030Z VRB02KT CAVOK 16/11 Q1014 NOSIG
2026-04-11 00:00:00,METAR LEBL 110000Z 18002KT CAVOK 17/11 Q1014 NOSIG
2026-04-10 23:30:00,METAR LEBL 102330Z 00000KT CAVOK 17/11 Q1014 NOSIG
2026-04-10 23:00:00,METAR LEBL 102300Z 20005KT CAVOK 17/12 Q1015 NOSIG
2026-04-10 22:30:00,METAR LEBL 102230Z 21004KT CAVOK 17/10 Q1015 NOSIG
2026-04-10 22:00:00,METAR LEBL 102200Z 21004KT CAVOK 18/10 Q1015 NOSIG
2026-04-10 21:30:00,METAR LEBL 102130Z 20006KT CAVOK 19/09 Q1015 NOSIG
2026-04-10 21:00:00,METAR LEBL 102100Z 22006KT CAVOK 18/11 Q1015 NOSIG
2026-04-10 20:30:00,METAR LEBL 102030Z 22006KT CAVOK 18/11 Q1015 NOSIG
2026-04-10 20:00:00,METAR LEBL 102000Z 25007KT CAVOK 19/07 Q1015 NOSIG
2026-04-10 19:30:00,METAR LEBL 101930Z 21003KT CAVOK 19/07 Q1015 NOSIG
2026-04-10 19:00:00,METAR LEBL 101900Z 20004KT 140V250 CAVOK 19/10 Q1015 NOSIG
2026-04-10 18:30:00,METAR LEBL 101830Z 23006KT 9999 FEW045 20/06 Q1014 NOSIG
2026-04-10 18:00:00,METAR LEBL 101800Z 24009KT 210V280 9999 FEW040 20/06 Q1014 NOSIG
2026-04-10 17:30:00,METAR LEBL 101730Z 23012KT CAVOK 21/04 Q1014 NOSIG
2026-04-10 17:00:00,METAR LEBL 101700Z 23012KT CAVOK 22/05 Q1014 NOSIG
2026-04-10 16:30:00,METAR LEBL 101630Z 22013KT CAVOK 22/05 Q1014 NOSIG
2026-04-10 16:00:00,METAR LEBL 101600Z 22013KT CAVOK 22/07 Q1015 NOSIG
2026-04-10 15:30:00,METAR LEBL 101530Z 22014KT CAVOK 22/09 Q1015 NOSIG
2026-04-10 15:00:00,METAR LEBL 101500Z 22012KT CAVOK 22/10 Q1015 NOSIG
2026-04-10 14:30:00,METAR LEBL 101430Z 22015KT CAVOK 22/10 Q1016 NOSIG
2026-04-10 14:00:00,METAR LEBL 101400Z 22014KT 9999 FEW055 23/08 Q1016 NOSIG
2026-04-10 13:30:00,METAR LEBL 101330Z 22013KT 9999 FEW040 23/10 Q1016 NOSIG
2026-04-10 13:00:00,METAR LEBL 101300Z 22013KT 9999 FEW040 22/10 Q1016 NOSIG
2026-04-10 12:30:00,METAR LEBL 101230Z 22009KT 9999 FEW030 21/11 Q1017 NOSIG
2026-04-10 12:00:00,METAR LEBL 101200Z 21010KT CAVOK 20/13 Q1017 NOSIG
2026-04-10 11:30:00,METAR LEBL 101130Z 20008KT 170V230 CAVOK 19/14 Q1017 NOSIG
2026-04-10 11:00:00,METAR LEBL 101100Z 17006KT 140V210 9000 NSC 19/15 Q1017 NOSIG
2026-04-10 10:30:00,METAR LEBL 101030Z 18006KT CAVOK 20/15 Q1018 NOSIG
2026-04-10 10:00:00,METAR LEBL 101000Z 21004KT 170V240 CAVOK 20/13 Q1018 NOSIG
2026-04-10 09:30:00,METAR LEBL 100930Z 19006KT 140V210 9999 FEW060 20/14 Q1018 NOSIG
2026-04-10 09:00:00,METAR LEBL 100900Z 22004KT 190V250 9999 FEW060 20/14 Q1018 NOSIG
2026-04-10 08:30:00,METAR LEBL 100830Z 24004KT 190V300 9999 FEW050 19/15 Q1018 NOSIG
2026-04-10 08:00:00,METAR LEBL 100800Z 25006KT 230V310 9000 NSC 18/14 Q1018 NOSIG
2026-04-10 07:30:00,METAR LEBL 100730Z 27008KT 250V310 9000 NSC 17/14 Q1018 NOSIG
2026-04-10 07:00:00,METAR LEBL 100700Z 29010KT 250V310 CAVOK 15/10 Q1018 NOSIG
2026-04-10 06:30:00,METAR LEBL 100630Z 31010G23KT CAVOK 15/08 Q1017 NOSIG
2026-04-10 06:00:00,METAR LEBL 100600Z 34009G20KT 280V010 CAVOK 14/07 Q1017 NOSIG
2026-04-10 05:30:00,METAR LEBL 100530Z 34009G20KT 300V360 CAVOK 14/07 Q1017 NOSIG
2026-04-10 05:00:00,METAR LEBL 100500Z 33007KT CAVOK 14/07 Q1017 NOSIG
2026-04-10 04:30:00,METAR LEBL 100430Z 33009KT 9999 FEW015 14/07 Q1017 NOSIG
2026-04-10 04:00:00,METAR LEBL 100400Z 33009KT 9999 FEW015 14/07 Q1017 NOSIG
2026-04-10 03:30:00,METAR LEBL 100330Z 31009KT 9999 FEW015 15/07 Q1017 NOSIG
2026-04-10 03:00:00,METAR LEBL 100300Z 30007KT 9999 FEW015 14/07 Q1017 NOSIG
2026-04-10 02:30:00,METAR LEBL 100230Z 30008KT 9999 FEW015 15/07 Q1017 NOSIG
2026-04-10 02:00:00,METAR LEBL 100200Z 30007KT 9999 FEW015 14/08 Q1017 NOSIG
2026-04-10 01:30:00,METAR LEBL 100130Z 30006KT 9999 FEW015 15/08 Q1018 NOSIG
2026-04-10 01:00:00,METAR LEBL 100100Z 30006KT 9999 FEW015 15/08 Q1018 NOSIG
2026-04-10 00:30:00,METAR LEBL 100030Z 29005KT 9000 FEW010 15/09 Q1018 NOSIG
2026-04-10 00:00:00,METAR LEBL 100000Z 29004KT 9000 FEW008 14/11 Q1018 NOSIG
2026-04-09 23:30:00,METAR LEBL 092330Z 27003KT 230V290 9000 FEW005 14/13 Q1018 NOSIG
2026-04-09 23:00:00,METAR LEBL 092300Z 26003KT 9000 FEW005 15/13 Q1018 NOSIG
2026-04-09 22:30:00,METAR LEBL 092230Z 23005KT 9999 FEW005 15/14 Q1018 NOSIG
2026-04-09 22:00:00,METAR LEBL 092200Z 25005KT 9000 FEW004 15/14 Q1018 NOSIG
2026-04-09 21:30:00,METAR LEBL 092130Z 25005KT 9000 FEW005 15/14 Q1018 NOSIG
2026-04-09 21:00:00,METAR LEBL 092100Z 25006KT CAVOK 16/14 Q1018 NOSIG
2026-04-09 20:30:00,METAR LEBL 092030Z 22004KT CAVOK 16/14 Q1018 NOSIG
2026-04-09 20:00:00,METAR LEBL 092000Z 22003KT CAVOK 16/13 Q1018 NOSIG
2026-04-09 19:30:00,METAR LEBL 091930Z 25004KT CAVOK 16/13 Q1017 NOSIG
2026-04-09 19:00:00,METAR LEBL 091900Z 22007KT CAVOK 16/13 Q1017 NOSIG
2026-04-09 18:30:00,METAR LEBL 091830Z 22007KT CAVOK 17/13 Q1017 NOSIG
2026-04-09 18:00:00,METAR LEBL 091800Z 22006KT CAVOK 17/14 Q1017 NOSIG
2026-04-09 17:30:00,METAR LEBL 091730Z 21008KT CAVOK 17/13 Q1017 NOSIG
2026-04-09 17:00:00,METAR LEBL 091700Z 22009KT CAVOK 17/13 Q1017 NOSIG
2026-04-09 16:30:00,METAR LEBL 091630Z 21009KT 9999 FEW007 18/13 Q1017 NOSIG
2026-04-09 16:00:00,METAR LEBL 091600Z 21011KT 9999 FEW007 18/12 Q1017 NOSIG
2026-04-09 15:30:00,METAR LEBL 091530Z 21010KT 9999 VCFG FEW001 18/13 Q1017 TEMPO 1000 BCFG VV002
2026-04-09 15:00:00,METAR LEBL 091500Z 21010KT 9999 VCFG FEW001 18/13 Q1018 TEMPO 1000 BCFG VV002
2026-04-09 14:30:00,METAR LEBL 091430Z 21009KT 9999 VCFG FEW001 19/14 Q1018 TEMPO 1000 BCFG VV002
2026-04-09 14:00:00,METAR LEBL 091400Z 20009KT 7000 2400S PRFG FEW001 17/14 Q1018 TEMPO 1000 BCFG VV002
2026-04-09 13:30:00,METAR LEBL 091330Z 20008KT 8000 2400SW PRFG FEW001 17/13 Q1018 NOSIG
2026-04-09 13:00:00,METAR LEBL 091300Z 20007KT 170V230 8000 3900SW VCFG NSC 18/14 Q1019 NOSIG
2026-04-09 12:30:00,METAR LEBL 091230Z 20007KT 8000 VCFG NSC 19/14 Q1019 NOSIG
2026-04-09 12:00:00,METAR LEBL 091200Z 22009KT 8000 VCFG NSC 18/13 Q1019 NOSIG
2026-04-09 11:30:00,METAR LEBL 091130Z 20007KT 8000 VCFG NSC 18/13 Q1019 NOSIG
2026-04-09 11:00:00,METAR LEBL 091100Z 20006KT 160V220 8000 VCFG NSC 18/13 Q1020 NOSIG
2026-04-09 10:30:00,METAR LEBL 091030Z 18006KT 120V210 9000 4400SW VCFG NSC 17/13 Q1020 NOSIG
2026-04-09 10:00:00,METAR LEBL 091000Z 15004KT 9000 4400SW VCFG FEW001 18/12 Q1020 NOSIG
2026-04-09 09:30:00,METAR LEBL 090930Z COR 24004KT 9000 VCFG FEW001 17/12 Q1020 NOSIG
2026-04-09 09:00:00,METAR LEBL 090900Z 33005G16KT 250V030 9999 VCFG FEW001 18/10 Q1020 TEMPO 4000 BR BKN008
2026-04-09 08:30:00,METAR LEBL 090830Z 33004KT 9999 VCFG FEW001 17/09 Q1020 TEMPO 4000 BR BKN008
2026-04-09 08:00:00,METAR LEBL 090800Z 05002KT 9999 VCFG FEW002 15/08 Q1020 TEMPO 4000 BR BKN008
2026-04-09 07:30:00,METAR LEBL 090730Z 07003KT 020V100 9999 VCFG FEW003 14/07 Q1020 TEMPO 4000 BR BKN008
2026-04-09 07:00:00,METAR LEBL 090700Z 06004KT 9999 VCFG FEW002 14/08 Q1020 BECMG 0500 FG VV002
2026-04-09 06:30:00,METAR LEBL 090630Z 33005KT 260V350 9999 VCFG FEW002 14/07 Q1019 BECMG 0500 FG VV002
2026-04-09 06:00:00,METAR LEBL 090600Z 31006G16KT 250V340 9999 VCFG FEW002 12/08 Q1019 BECMG 0500 FG VV002
2026-04-09 05:30:00,METAR LEBL 090530Z 29007KT 240V330 9999 VCFG FEW035 12/07 Q1019 BECMG 0500 FG VV002
2026-04-09 05:00:00,METAR LEBL 090500Z 29007KT 9999 VCFG FEW001 12/08 Q1018 BECMG 0500 FG VV002
2026-04-09 04:30:00,METAR LEBL 090430Z 30007KT 9999 SCT003 12/08 Q1019 NOSIG
2026-04-09 04:00:00,METAR LEBL 090400Z 27007KT 9999 FEW030 12/07 Q1018 NOSIG
2026-04-09 03:30:00,METAR LEBL 090330Z 31003KT 290V010 9999 FEW030 12/07 Q1018 NOSIG
2026-04-09 03:00:00,METAR LEBL 090300Z 30003KT 240V330 9999 VCFG FEW030 13/08 Q1019 NOSIG
2026-04-09 02:30:00,METAR LEBL 090230Z 32004KT 290V350 9999 VCFG FEW030 13/08 Q1019 NOSIG
2026-04-09 02:00:00,METAR LEBL 090200Z 33006KT 9999 VCFG FEW030 13/09 Q1019 NOSIG
2026-04-09 01:30:00,METAR LEBL 090130Z 34003KT 310V010 9999 VCFG FEW030 12/10 Q1019 NOSIG
2026-04-09 01:00:00,METAR LEBL 090100Z COR 35003KT 9999 BCFG FEW005 12/10 Q1019 NOSIG
2026-04-09 00:30:00,METAR LEBL 090030Z 31003KT 260V350 9000 NSC 13/11 Q1020 BECMG 3000 BR BKN005
2026-04-09 00:00:00,METAR LEBL 090000Z 35004KT 8000 NSC 13/11 Q1020 BECMG 3000 BR BKN005
2026-04-08 23:30:00,METAR LEBL 082330Z 32004KT 8000 NSC 13/11 Q1020 BECMG 3000 BR BKN005
2026-04-08 23:00:00,METAR LEBL 082300Z 34003KT 6000 NSC 13/12 Q1020 BECMG 3000 BR BKN005
2026-04-08 22:30:00,METAR LEBL 082230Z 00000KT 7000 NSC 13/12 Q1020 BECMG 3000 BR BKN005
2026-04-08 22:00:00,METAR LEBL 082200Z VRB02KT 7000 NSC 14/14 Q1020 NOSIG
2026-04-08 21:30:00,METAR LEBL 082130Z 07005KT 7000 NSC 14/14 Q1020 NOSIG
2026-04-08 21:00:00,METAR LEBL 082100Z 07005KT 7000 NSC 14/14 Q1020 NOSIG
2026-04-08 20:30:00,METAR LEBL 082030Z 09005KT 060V120 8000 NSC 14/13 Q1020 NOSIG
2026-04-08 20:00:00,METAR LEBL 082000Z 05005KT 9000 FEW006 15/14 Q1020 NOSIG
2026-04-08 19:30:00,METAR LEBL 081930Z 07005KT 040V100 9000 FEW006 15/14 Q1020 NOSIG
2026-04-08 19:00:00,METAR LEBL 081900Z 07006KT 9999 SCT006 15/14 Q1020 NOSIG
2026-04-08 18:30:00,METAR LEBL 081830Z 07005KT 9999 SCT006 15/14 Q1020 NOSIG
2026-04-08 18:00:00,METAR LEBL 081800Z 10006KT 9999 SCT006 16/14 Q1020 NOSIG
2026-04-08 17:30:00,METAR LEBL 081730Z 08006KT 050V120 9999 FEW030 16/14 Q1020 NOSIG
2026-04-08 17:00:00,METAR LEBL 081700Z 07008KT 040V110 9999 FEW030 17/14 Q1020 NOSIG
2026-04-08 16:30:00,METAR LEBL 081630Z 10007KT 9999 FEW030 17/14 Q1020 NOSIG
2026-04-08 16:00:00,METAR LEBL 081600Z 08010KT CAVOK 17/14 Q1020 NOSIG
2026-04-08 15:30:00,METAR LEBL 081530Z 07010KT 040V110 9999 FEW030 17/13 Q1019 NOSIG
2026-04-08 15:00:00,METAR LEBL 081500Z 07013KT 9999 FEW030 17/13 Q1019 NOSIG
2026-04-08 14:30:00,METAR LEBL 081430Z 07013KT 040V100 CAVOK 18/14 Q1019 NOSIG
2026-04-08 14:00:00,METAR LEBL 081400Z 07012KT 030V100 CAVOK 18/13 Q1020 NOSIG
2026-04-08 13:30:00,METAR LEBL 081330Z 07012KT CAVOK 18/13 Q1020 NOSIG
2026-04-08 13:00:00,METAR LEBL 081300Z 07012KT CAVOK 18/13 Q1020 NOSIG
2026-04-08 12:30:00,METAR LEBL 081230Z 07013KT CAVOK 18/13 Q1020 NOSIG
2026-04-08 12:00:00,METAR LEBL 081200Z 08012KT CAVOK 18/13 Q1020 NOSIG
2026-04-08 11:30:00,METAR LEBL 081130Z 08011KT 050V110 CAVOK 18/13 Q1020 NOSIG
2026-04-08 11:00:00,METAR LEBL 081100Z 08011KT 050V110 CAVOK 17/12 Q1020 NOSIG
2026-04-08 10:30:00,METAR LEBL 081030Z 08012KT 9999 FEW030 17/13 Q1021 NOSIG
2026-04-08 10:00:00,METAR LEBL 081000Z 08010KT 050V110 9999 FEW025 16/12 Q1021 NOSIG
2026-04-08 09:30:00,METAR LEBL 080930Z 07010KT 9999 FEW020 16/12 Q1021 NOSIG
2026-04-08 09:00:00,METAR LEBL 080900Z 08009KT 9999 FEW015 16/12 Q1021 NOSIG
2026-04-08 08:30:00,METAR LEBL 080830Z 09008KT 9999 4500SE SCT006 15/13 Q1021 TEMPO 0800 FG VV005
2026-04-08 08:00:00,METAR LEBL 080800Z 08008KT 9999 4500SE SCT006 15/12 Q1020 TEMPO 0800 FG VV005
2026-04-08 07:30:00,METAR LEBL 080730Z VRB05KT 9999 4500SE SCT006 13/07 Q1020 TEMPO 0800 FG VV005
2026-04-08 07:00:00,METAR LEBL 080700Z 35003KT 300V040 9999 4500SE SCT005 13/06 Q1020 TEMPO 0800 FG VV005
2026-04-08 06:30:00,METAR LEBL 080630Z 33004KT 9999 FEW025 12/06 Q1020 TEMPO 0800 FG VV005
2026-04-08 06:00:00,METAR LEBL 080600Z 33006KT 300V010 9999 FEW025 11/06 Q1020 TEMPO 0800 FG VV005
2026-04-08 05:30:00,METAR LEBL 080530Z 33006KT 290V360 9999 FEW025 11/06 Q1020 NOSIG
2026-04-08 05:00:00,METAR LEBL 080500Z 35004KT 320V040 9999 FEW020 11/06 Q1020 NOSIG
2026-04-08 04:30:00,METAR LEBL 080430Z 33007KT CAVOK 12/06 Q1019 NOSIG
2026-04-08 04:00:00,METAR LEBL 080400Z 34006KT CAVOK 11/07 Q1019 NOSIG
2026-04-08 03:30:00,METAR LEBL 080330Z 33007KT CAVOK 12/07 Q1019 NOSIG
2026-04-08 03:00:00,METAR LEBL 080300Z 34008KT CAVOK 12/07 Q1019 NOSIG
2026-04-08 02:30:00,METAR LEBL 080230Z 34008KT CAVOK 13/08 Q1019 NOSIG
2026-04-08 02:00:00,METAR LEBL 080200Z 34005KT CAVOK 13/08 Q1019 NOSIG
2026-04-08 01:30:00,METAR LEBL 080130Z 34005KT CAVOK 12/09 Q1020 NOSIG
2026-04-08 01:00:00,METAR LEBL 080100Z 33004KT CAVOK 13/09 Q1020 NOSIG
2026-04-08 00:30:00,METAR LEBL 080030Z 35005KT 9999 FEW030 14/09 Q1020 NOSIG
2026-04-08 00:00:00,METAR LEBL 080000Z 34005KT 9999 FEW030 13/09 Q1020 NOSIG
2026-04-07 23:30:00,METAR LEBL 072330Z 01004KT 9999 FEW030 13/09 Q1020 NOSIG
2026-04-07 23:00:00,METAR LEBL 072300Z 03006KT 9999 FEW030 13/10 Q1020 NOSIG
2026-04-07 22:30:00,METAR LEBL 072230Z 05007KT 9999 FEW030 14/13 Q1020 NOSIG
2026-04-07 22:00:00,METAR LEBL 072200Z 05004KT 9999 FEW030 15/14 Q1020 NOSIG
2026-04-07 21:30:00,METAR LEBL 072130Z 05005KT 9999 FEW030 15/14 Q1020 NOSIG
2026-04-07 21:00:00,METAR LEBL 072100Z 05005KT 9999 FEW030 15/14 Q1020 NOSIG
2026-04-07 20:30:00,METAR LEBL 072030Z 06004KT 9999 FEW060 15/14 Q1020 NOSIG
2026-04-07 20:00:00,METAR LEBL 072000Z 06005KT 9999 FEW060 16/13 Q1020 NOSIG
2026-04-07 19:30:00,METAR LEBL 071930Z 06003KT 9999 FEW060 16/13 Q1020 NOSIG
2026-04-07 19:00:00,METAR LEBL 071900Z 07005KT 9999 FEW060 16/13 Q1020 NOSIG
2026-04-07 18:30:00,METAR LEBL 071830Z 07006KT 9999 FEW060 16/13 Q1020 NOSIG
2026-04-07 18:00:00,METAR LEBL 071800Z 08005KT 9999 FEW060 16/12 Q1020 NOSIG
2026-04-07 17:30:00,METAR LEBL 071730Z 08008KT CAVOK 17/12 Q1019 NOSIG
2026-04-07 17:00:00,METAR LEBL 071700Z 08007KT 050V110 CAVOK 18/11 Q1020 NOSIG
2026-04-07 16:30:00,METAR LEBL 071630Z 08008KT CAVOK 18/11 Q1020 NOSIG
2026-04-07 16:00:00,METAR LEBL 071600Z 07008KT 040V100 CAVOK 18/11 Q1020 NOSIG
2026-04-07 15:30:00,METAR LEBL 071530Z 10007KT CAVOK 18/12 Q1020 NOSIG
2026-04-07 15:00:00,METAR LEBL 071500Z 11007KT CAVOK 18/13 Q1020 NOSIG
2026-04-07 14:30:00,METAR LEBL 071430Z 07008KT 040V110 CAVOK 19/12 Q1020 NOSIG
2026-04-07 14:00:00,METAR LEBL 071400Z 06008KT CAVOK 19/12 Q1021 NOSIG
2026-04-07 13:30:00,METAR LEBL 071330Z 10008KT 060V130 CAVOK 18/12 Q1021 NOSIG
2026-04-07 13:00:00,METAR LEBL 071300Z 10008KT CAVOK 18/12 Q1021 NOSIG
2026-04-07 12:30:00,METAR LEBL 071230Z 10008KT CAVOK 19/13 Q1021 NOSIG
2026-04-07 12:00:00,METAR LEBL 071200Z 08009KT 040V120 CAVOK 18/12 Q1021 NOSIG
2026-04-07 11:30:00,METAR LEBL 071130Z 08010KT 050V120 CAVOK 18/11 Q1022 NOSIG
2026-04-07 11:00:00,METAR LEBL 071100Z 08010KT 040V100 CAVOK 18/10 Q1022 NOSIG
2026-04-07 10:30:00,METAR LEBL 071030Z 08009KT 040V110 CAVOK 18/10 Q1022 NOSIG
2026-04-07 10:00:00,METAR LEBL 071000Z 08009KT 050V110 CAVOK 18/09 Q1022 NOSIG
2026-04-07 09:30:00,METAR LEBL 070930Z 08009KT CAVOK 18/09 Q1023 NOSIG
2026-04-07 09:00:00,METAR LEBL 070900Z 07007KT 040V100 CAVOK 18/06 Q1022 NOSIG
2026-04-07 08:30:00,METAR LEBL 070830Z 34004KT 310V040 CAVOK 16/05 Q1022 NOSIG
2026-04-07 08:00:00,METAR LEBL 070800Z 33007KT CAVOK 14/05 Q1022 NOSIG
2026-04-07 07:30:00,METAR LEBL 070730Z 34007KT 300V010 CAVOK 13/05 Q1022 NOSIG
2026-04-07 07:00:00,METAR LEBL 070700Z 33010KT 270V020 CAVOK 11/04 Q1022 NOSIG
2026-04-07 06:30:00,METAR LEBL 070630Z 33010KT 290V010 CAVOK 11/04 Q1022 NOSIG
2026-04-07 06:00:00,METAR LEBL 070600Z 33011KT 300V360 CAVOK 10/04 Q1022 NOSIG
2026-04-07 05:30:00,METAR LEBL 070530Z 34010KT 310V010 CAVOK 10/04 Q1022 NOSIG
2026-04-07 05:00:00,METAR LEBL 070500Z 33012KT CAVOK 10/04 Q1022 NOSIG
2026-04-07 04:30:00,METAR LEBL 070430Z 33011KT CAVOK 10/04 Q1021 NOSIG
2026-04-07 04:00:00,METAR LEBL 070400Z 33010KT CAVOK 10/04 Q1021 NOSIG
2026-04-07 03:30:00,METAR LEBL 070330Z 33011KT CAVOK 11/04 Q1022 NOSIG
2026-04-07 03:00:00,METAR LEBL 070300Z 33008KT CAVOK 11/05 Q1022 NOSIG
2026-04-07 02:30:00,METAR LEBL 070230Z 33009KT CAVOK 11/05 Q1022 NOSIG
2026-04-07 02:00:00,METAR LEBL 070200Z 33009KT CAVOK 11/05 Q1022 NOSIG
2026-04-07 01:30:00,METAR LEBL 070130Z 33010KT CAVOK 11/05 Q1023 NOSIG
2026-04-07 01:00:00,METAR LEBL 070100Z 33008KT CAVOK 11/05 Q1023 NOSIG
2026-04-07 00:30:00,METAR LEBL 070030Z 33007KT CAVOK 11/05 Q1024 NOSIG
2026-04-07 00:00:00,METAR LEBL 070000Z 33008KT CAVOK 11/06 Q1024 NOSIG
2026-04-06 23:30:00,METAR LEBL 062330Z 32004KT CAVOK 11/06 Q1024 NOSIG
2026-04-06 23:00:00,METAR LEBL 062300Z 32004KT 280V340 CAVOK 12/07 Q1024 NOSIG
2026-04-06 22:30:00,METAR LEBL 062230Z 31003KT CAVOK 12/07 Q1024 NOSIG
2026-04-06 22:00:00,METAR LEBL 062200Z 35001KT CAVOK 13/10 Q1024 NOSIG
2026-04-06 21:30:00,METAR LEBL 062130Z 01001KT CAVOK 13/09 Q1024 NOSIG
2026-04-06 21:00:00,METAR LEBL 062100Z 00000KT CAVOK 13/12 Q1024 NOSIG
2026-04-06 20:30:00,METAR LEBL 062030Z 29001KT CAVOK 14/13 Q1024 NOSIG
2026-04-06 20:00:00,METAR LEBL 062000Z 22003KT 190V250 CAVOK 14/13 Q1024 NOSIG
2026-04-06 19:30:00,METAR LEBL 061930Z 21005KT CAVOK 15/12 Q1023 NOSIG
2026-04-06 19:00:00,METAR LEBL 061900Z 20005KT 130V220 CAVOK 15/12 Q1023 NOSIG
2026-04-06 18:30:00,METAR LEBL 061830Z 20005KT CAVOK 16/12 Q1023 NOSIG
2026-04-06 18:00:00,METAR LEBL 061800Z 20007KT CAVOK 16/12 Q1023 NOSIG
2026-04-06 17:30:00,METAR LEBL 061730Z 21007KT CAVOK 17/12 Q1023 NOSIG
2026-04-06 17:00:00,METAR LEBL 061700Z 21009KT CAVOK 17/12 Q1023 NOSIG
2026-04-06 16:30:00,METAR LEBL 061630Z 20011KT CAVOK 17/11 Q1023 NOSIG
2026-04-06 16:00:00,METAR LEBL 061600Z 21010KT 170V230 CAVOK 18/11 Q1023 NOSIG
2026-04-06 15:30:00,METAR LEBL 061530Z 21010KT CAVOK 18/11 Q1023 NOSIG
2026-04-06 15:00:00,METAR LEBL 061500Z 21012KT CAVOK 19/11 Q1024 NOSIG
2026-04-06 14:30:00,METAR LEBL 061430Z 21012KT CAVOK 18/11 Q1024 NOSIG
2026-04-06 14:00:00,METAR LEBL 061400Z 22013KT CAVOK 19/11 Q1024 NOSIG
2026-04-06 13:30:00,METAR LEBL 061330Z 21013KT CAVOK 19/11 Q1024 NOSIG
2026-04-06 13:00:00,METAR LEBL 061300Z 22015KT CAVOK 20/10 Q1025 NOSIG
2026-04-06 12:30:00,METAR LEBL 061230Z 22016KT CAVOK 19/10 Q1025 NOSIG
2026-04-06 12:00:00,METAR LEBL 061200Z 22016KT CAVOK 19/11 Q1025 NOSIG
2026-04-06 11:30:00,METAR LEBL 061130Z 21015KT CAVOK 19/12 Q1025 NOSIG
2026-04-06 11:00:00,METAR LEBL 061100Z 22015KT CAVOK 19/12 Q1025 NOSIG
2026-04-06 10:30:00,METAR LEBL 061030Z 21013KT CAVOK 18/12 Q1025 NOSIG
2026-04-06 10:00:00,METAR LEBL 061000Z 21013KT CAVOK 17/12 Q1026 NOSIG
2026-04-06 09:30:00,METAR LEBL 060930Z 22013KT CAVOK 18/11 Q1025 NOSIG
2026-04-06 09:00:00,METAR LEBL 060900Z 22011KT CAVOK 17/12 Q1026 NOSIG
2026-04-06 08:30:00,METAR LEBL 060830Z 23009KT CAVOK 17/12 Q1026 NOSIG
2026-04-06 08:00:00,METAR LEBL 060800Z 29003KT 220V330 CAVOK 17/13 Q1026 NOSIG
2026-04-06 07:30:00,METAR LEBL 060730Z 30003KT 260V020 CAVOK 15/10 Q1026 NOSIG
2026-04-06 07:00:00,METAR LEBL 060700Z 31005KT CAVOK 13/08 Q1026 NOSIG
2026-04-06 06:30:00,METAR LEBL 060630Z 31005KT 280V350 CAVOK 12/07 Q1025 NOSIG
2026-04-06 06:00:00,METAR LEBL 060600Z 31005KT 240V360 CAVOK 11/07 Q1025 NOSIG
2026-04-06 05:30:00,METAR LEBL 060530Z 30004KT 260V340 CAVOK 11/07 Q1025 NOSIG
2026-04-06 05:00:00,METAR LEBL 060500Z 31004KT CAVOK 11/07 Q1025 NOSIG
2026-04-06 04:30:00,METAR LEBL 060430Z 30005KT CAVOK 11/07 Q1025 NOSIG
2026-04-06 04:00:00,METAR LEBL 060400Z 30006KT CAVOK 12/07 Q1025 NOSIG
2026-04-06 03:30:00,METAR LEBL 060330Z 30004KT CAVOK 12/07 Q1025 NOSIG
2026-04-06 03:00:00,METAR LEBL 060300Z 31003KT 280V340 CAVOK 12/07 Q1025 NOSIG
2026-04-06 02:30:00,METAR LEBL 060230Z 32004KT CAVOK 13/07 Q1025 NOSIG
2026-04-06 02:00:00,METAR LEBL 060200Z 30004KT CAVOK 13/06 Q1026 NOSIG
2026-04-06 01:30:00,METAR LEBL 060130Z 28003KT 240V320 CAVOK 13/07 Q1026 NOSIG
2026-04-06 01:00:00,METAR LEBL 060100Z 29003KT CAVOK 13/06 Q1026 NOSIG
2026-04-06 00:30:00,METAR LEBL 060030Z 31003KT 280V340 CAVOK 13/08 Q1026 NOSIG
2026-04-06 00:00:00,METAR LEBL 060000Z 26004KT CAVOK 13/11 Q1026 NOSIG
2026-04-05 23:30:00,METAR LEBL 052330Z 24007KT CAVOK 14/11 Q1026 NOSIG
2026-04-05 23:00:00,METAR LEBL 052300Z 23008KT CAVOK 14/12 Q1026 NOSIG
2026-04-05 22:30:00,METAR LEBL 052230Z 22008KT CAVOK 15/12 Q1026 NOSIG
2026-04-05 22:00:00,METAR LEBL 052200Z 22009KT CAVOK 15/13 Q1026 NOSIG
2026-04-05 21:30:00,METAR LEBL 052130Z 22010KT CAVOK 15/13 Q1026 NOSIG
2026-04-05 21:00:00,METAR LEBL 052100Z 22011KT CAVOK 15/13 Q1025 NOSIG
2026-04-05 20:30:00,METAR LEBL 052030Z 22011KT CAVOK 15/12 Q1025 NOSIG
2026-04-05 20:00:00,METAR LEBL 052000Z 22009KT CAVOK 15/11 Q1025 NOSIG
2026-04-05 19:30:00,METAR LEBL 051930Z 22009KT CAVOK 16/10 Q1025 NOSIG
2026-04-05 19:00:00,METAR LEBL 051900Z 22010KT CAVOK 16/10 Q1025 NOSIG
2026-04-05 18:30:00,METAR LEBL 051830Z 22011KT CAVOK 16/09 Q1024 NOSIG
2026-04-05 18:00:00,METAR LEBL 051800Z 22013KT CAVOK 17/08 Q1024 NOSIG
2026-04-05 17:30:00,METAR LEBL 051730Z 22013KT CAVOK 16/12 Q1024 NOSIG
2026-04-05 17:00:00,METAR LEBL 051700Z 22014KT CAVOK 17/14 Q1024 NOSIG
2026-04-05 16:30:00,METAR LEBL 051630Z 22014KT CAVOK 17/14 Q1024 NOSIG
2026-04-05 16:00:00,METAR LEBL 051600Z 22014KT CAVOK 17/13 Q1024 NOSIG
2026-04-05 15:30:00,METAR LEBL 051530Z 22014KT CAVOK 17/13 Q1024 NOSIG
2026-04-05 15:00:00,METAR LEBL 051500Z 22014KT CAVOK 17/13 Q1024 NOSIG
2026-04-05 13:00:00,METAR LEBL 051300Z 22014KT 190V250 CAVOK 17/13 Q1025 NOSIG
2026-04-05 12:30:00,METAR LEBL 051230Z 21014KT CAVOK 18/14 Q1025 NOSIG
2026-04-05 12:00:00,METAR LEBL 051200Z 21014KT 170V230 CAVOK 17/13 Q1025 NOSIG
2026-04-05 11:30:00,METAR LEBL 051130Z 20012KT CAVOK 17/14 Q1025 NOSIG
2026-04-05 11:00:00,METAR LEBL 051100Z 20011KT CAVOK 17/14 Q1025 NOSIG
2026-04-05 10:30:00,METAR LEBL 051030Z 21011KT 170V230 CAVOK 17/13 Q1025 NOSIG
2026-04-05 10:00:00,METAR LEBL 051000Z 21010KT CAVOK 17/14 Q1025 NOSIG
2026-04-05 09:30:00,METAR LEBL 050930Z 21009KT 180V240 CAVOK 16/13 Q1025 NOSIG
2026-04-05 09:00:00,METAR LEBL 050900Z 22009KT 190V250 CAVOK 16/13 Q1025 NOSIG
2026-04-05 08:30:00,METAR LEBL 050830Z 23007KT 200V260 CAVOK 16/13 Q1024 NOSIG
2026-04-05 08:00:00,METAR LEBL 050800Z 27005KT 220V310 9999 FEW010 15/13 Q1024 NOSIG
2026-04-05 07:30:00,METAR LEBL 050730Z 29004KT 190V330 9999 SCT004 14/09 Q1024 NOSIG
2026-04-05 07:00:00,METAR LEBL 050700Z 31005KT 9999 SCT004 13/07 Q1024 NOSIG
2026-04-05 06:30:00,METAR LEBL 050630Z 32006G19KT 9999 SCT004 12/07 Q1024 NOSIG
2026-04-05 06:00:00,METAR LEBL 050600Z 32006G16KT 240V350 CAVOK 11/06 Q1023 NOSIG
2026-04-05 05:30:00,METAR LEBL 050530Z 32006G18KT 250V360 9999 FEW005 11/06 Q1023 NOSIG
2026-04-05 05:00:00,METAR LEBL 050500Z 30006KT 9999 FEW020 11/06 Q1023 NOSIG
2026-04-05 04:30:00,METAR LEBL 050430Z 30007KT 9999 FEW020 11/06 Q1023 NOSIG
2026-04-05 04:00:00,METAR LEBL 050400Z 30006KT 9999 FEW020 11/06 Q1023 NOSIG
2026-04-05 03:30:00,METAR LEBL 050330Z 30006KT 9999 FEW020 12/07 Q1023 NOSIG
2026-04-05 03:00:00,METAR LEBL 050300Z 29008KT CAVOK 12/06 Q1023 NOSIG
2026-04-05 02:30:00,METAR LEBL 050230Z 30007KT CAVOK 12/06 Q1023 NOSIG
2026-04-05 02:00:00,METAR LEBL 050200Z 30007KT 270V330 CAVOK 12/06 Q1023 NOSIG
2026-04-05 01:30:00,METAR LEBL 050130Z 31006KT CAVOK 12/06 Q1023 NOSIG
2026-04-05 01:00:00,METAR LEBL 050100Z 32004KT CAVOK 12/07 Q1023 NOSIG
2026-04-05 00:30:00,METAR LEBL 050030Z 30003KT CAVOK 12/07 Q1024 NOSIG
2026-04-05 00:00:00,METAR LEBL 050000Z 29003KT CAVOK 12/08 Q1024 NOSIG
2026-04-04 23:30:00,METAR LEBL 042330Z 28004KT CAVOK 13/08 Q1024 NOSIG
2026-04-04 23:00:00,METAR LEBL 042300Z 31004KT CAVOK 13/08 Q1024 NOSIG
2026-04-04 22:30:00,METAR LEBL 042230Z 27004KT CAVOK 14/11 Q1024 NOSIG
2026-04-04 22:00:00,METAR LEBL 042200Z 25004KT CAVOK 14/12 Q1024 NOSIG
2026-04-04 21:30:00,METAR LEBL 042130Z 25005KT CAVOK 14/12 Q1024 NOSIG
2026-04-04 21:00:00,METAR LEBL 042100Z 25006KT CAVOK 14/11 Q1024 NOSIG
2026-04-04 20:30:00,METAR LEBL 042030Z 22006KT CAVOK 15/11 Q1023 NOSIG
2026-04-04 20:00:00,METAR LEBL 042000Z 22007KT CAVOK 15/11 Q1023 NOSIG
2026-04-04 19:30:00,METAR LEBL 041930Z 22009KT CAVOK 16/09 Q1023 NOSIG
2026-04-04 19:00:00,METAR LEBL 041900Z 22010KT CAVOK 16/07 Q1023 NOSIG
2026-04-04 18:30:00,METAR LEBL 041830Z 23011KT CAVOK 16/08 Q1022 NOSIG
2026-04-04 18:00:00,METAR LEBL 041800Z 22011KT 9999 FEW020 16/10 Q1022 NOSIG
2026-04-04 17:30:00,METAR LEBL 041730Z 22012KT 9999 FEW020 17/11 Q1022 NOSIG
2026-04-04 17:00:00,METAR LEBL 041700Z 22011KT 9999 FEW020 17/10 Q1022 NOSIG
2026-04-04 16:30:00,METAR LEBL 041630Z 22011KT 9999 FEW020 17/11 Q1022 NOSIG
2026-04-04 16:00:00,METAR LEBL 041600Z 21010KT 170V240 9999 FEW020 18/11 Q1022 NOSIG
2026-04-04 15:30:00,METAR LEBL 041530Z 21012KT 9999 FEW020 17/11 Q1022 NOSIG
2026-04-04 15:00:00,METAR LEBL 041500Z 21011KT 9999 FEW020 17/10 Q1022 NOSIG
2026-04-04 14:30:00,METAR LEBL 041430Z 21010KT 170V230 9999 FEW020 17/11 Q1022 NOSIG
2026-04-04 14:00:00,METAR LEBL 041400Z 21010KT 9999 FEW020 18/11 Q1023 NOSIG
2026-04-04 13:30:00,METAR LEBL 041330Z 21010KT 9999 FEW020 17/11 Q1023 NOSIG
2026-04-04 13:00:00,METAR LEBL 041300Z 20010KT 170V230 9999 FEW020 17/10 Q1023 NOSIG
2026-04-04 12:30:00,METAR LEBL 041230Z 20010KT 9999 FEW020 18/08 Q1023 NOSIG
2026-04-04 12:00:00,METAR LEBL 041200Z 21011KT 9999 FEW020 17/10 Q1024 NOSIG
2026-04-04 11:30:00,METAR LEBL 041130Z 21010KT 170V230 9999 FEW020 17/11 Q1024 NOSIG
2026-04-04 11:00:00,METAR LEBL 041100Z 22009KT 9999 FEW020 18/12 Q1024 NOSIG
2026-04-04 10:30:00,METAR LEBL 041030Z 21010KT 9999 FEW020 17/12 Q1024 NOSIG
2026-04-04 10:00:00,METAR LEBL 041000Z 22007KT 9999 FEW020 17/11 Q1024 NOSIG
2026-04-04 09:30:00,METAR LEBL 040930Z 20004KT 160V280 9999 FEW020 17/10 Q1024 NOSIG
2026-04-04 09:00:00,METAR LEBL 040900Z 27003KT 200V330 9999 FEW020 16/11 Q1024 NOSIG
2026-04-04 08:30:00,METAR LEBL 040830Z 30004KT 240V350 9999 FEW020 16/09 Q1024 NOSIG
2026-04-04 08:00:00,METAR LEBL 040800Z 32007KT 250V010 9999 FEW020 15/09 Q1024 NOSIG
2026-04-04 07:30:00,METAR LEBL 040730Z VRB10G21KT 9999 FEW020 13/06 Q1024 NOSIG
2026-04-04 07:00:00,METAR LEBL 040700Z 33007G18KT 230V360 9999 FEW020 12/06 Q1024 NOSIG
2026-04-04 06:30:00,METAR LEBL 040630Z 32006G18KT 9999 FEW020 11/06 Q1023 NOSIG
2026-04-04 06:00:00,METAR LEBL 040600Z 32009G21KT 260V010 9999 FEW020 11/07 Q1023 NOSIG
2026-04-04 05:30:00,METAR LEBL 040530Z 32008KT 9999 FEW020 11/07 Q1023 NOSIG
2026-04-04 05:00:00,METAR LEBL 040500Z 32011KT 9999 FEW020 10/07 Q1023 NOSIG
2026-04-04 04:30:00,METAR LEBL 040430Z 32012KT 9999 FEW020 11/07 Q1022 NOSIG
2026-04-04 04:00:00,METAR LEBL 040400Z 33009KT 300V360 9999 FEW020 11/08 Q1022 NOSIG
2026-04-04 03:30:00,METAR LEBL 040330Z 32006KT 9999 FEW020 11/08 Q1022 NOSIG
2026-04-04 03:00:00,METAR LEBL 040300Z 32007KT 9999 FEW020 11/09 Q1022 NOSIG
2026-04-04 02:30:00,METAR LEBL 040230Z 33008KT 9999 FEW020 11/09 Q1022 NOSIG
2026-04-04 02:00:00,METAR LEBL 040200Z 32007KT 9999 FEW020 11/09 Q1023 NOSIG
2026-04-04 01:30:00,METAR LEBL 040130Z 32006KT 9999 FEW020 10/09 Q1023 NOSIG
2026-04-04 01:00:00,METAR LEBL 040100Z 31003KT 9999 FEW020 10/09 Q1023 NOSIG
2026-04-04 00:30:00,METAR LEBL 040030Z 32006KT 9999 FEW020 11/09 Q1023 NOSIG
2026-04-04 00:00:00,METAR LEBL 040000Z 32006KT 9999 FEW020 12/09 Q1023 NOSIG
2026-04-03 23:30:00,METAR LEBL 032330Z 31004KT 9999 FEW020 12/09 Q1023 NOSIG
2026-04-03 23:00:00,METAR LEBL 032300Z 31004KT 9999 FEW020 12/10 Q1023 NOSIG
2026-04-03 22:30:00,METAR LEBL 032230Z 31003KT 9999 FEW020 12/10 Q1023 NOSIG
2026-04-03 22:00:00,METAR LEBL 032200Z 22006KT 9999 FEW020 13/11 Q1022 NOSIG
2026-04-03 21:30:00,METAR LEBL 032130Z 22007KT 9999 FEW020 14/12 Q1022 NOSIG
2026-04-03 21:00:00,METAR LEBL 032100Z 22007KT 9999 FEW020 14/12 Q1022 NOSIG
2026-04-03 20:30:00,METAR LEBL 032030Z 21006KT 9999 FEW020 14/12 Q1022 NOSIG
2026-04-03 20:00:00,METAR LEBL 032000Z 20006KT 9999 FEW020 14/11 Q1021 NOSIG
2026-04-03 19:30:00,METAR LEBL 031930Z 20007KT 160V220 9999 FEW020 14/11 Q1021 NOSIG
2026-04-03 19:00:00,METAR LEBL 031900Z 20007KT 9999 FEW020 15/11 Q1021 NOSIG
2026-04-03 18:30:00,METAR LEBL 031830Z 20007KT 9999 FEW020 15/11 Q1021 NOSIG
2026-04-03 18:00:00,METAR LEBL 031800Z 20007KT 160V240 9999 FEW020 15/12 Q1020 NOSIG
2026-04-03 17:30:00,METAR LEBL 031730Z 16009KT 130V190 9999 FEW050 16/11 Q1020 NOSIG
2026-04-03 17:00:00,METAR LEBL 031700Z 15008KT 120V190 9999 FEW050 16/11 Q1019 NOSIG
2026-04-03 16:30:00,METAR LEBL 031630Z 15008KT 130V190 9999 FEW040 17/11 Q1019 NOSIG
2026-04-03 16:00:00,METAR LEBL 031600Z 17010KT 9999 FEW040 17/10 Q1018 NOSIG
2026-04-03 15:30:00,METAR LEBL 031530Z 18010KT 150V210 9999 FEW030 17/10 Q1018 NOSIG
2026-04-03 15:00:00,METAR LEBL 031500Z 18011KT 150V210 9999 FEW030 17/11 Q1018 NOSIG
2026-04-03 14:30:00,METAR LEBL 031430Z 18008KT 140V220 9999 FEW030 17/08 Q1018 NOSIG
2026-04-03 14:00:00,METAR LEBL 031400Z 19009KT 150V220 9999 FEW030 17/08 Q1019 NOSIG
2026-04-03 13:30:00,METAR LEBL 031330Z 21011KT 170V230 9999 FEW025 17/08 Q1019 NOSIG
2026-04-03 13:00:00,METAR LEBL 031300Z 21012KT 9999 FEW030 17/07 Q1019 NOSIG
2026-04-03 12:30:00,METAR LEBL 031230Z 21011KT 9999 FEW030 17/04 Q1019 NOSIG
2026-04-03 12:00:00,METAR LEBL 031200Z 21010KT 9999 FEW030 17/04 Q1020 NOSIG
2026-04-03 11:30:00,METAR LEBL 031130Z 21011KT 170V240 9999 FEW030 16/05 Q1020 NOSIG
2026-04-03 11:00:00,METAR LEBL 031100Z 19009KT 9999 FEW020 16/05 Q1020 NOSIG
2026-04-03 10:30:00,METAR LEBL 031030Z 18007KT 9999 FEW025 16/05 Q1020 NOSIG
2026-04-03 10:00:00,METAR LEBL 031000Z 19007KT 160V240 9999 FEW030 15/05 Q1020 NOSIG
2026-04-03 09:30:00,METAR LEBL 030930Z 24003KT 190V320 CAVOK 15/05 Q1020 NOSIG
2026-04-03 09:00:00,METAR LEBL 030900Z 33007KT 9999 FEW010 15/04 Q1020 NOSIG
2026-04-03 08:30:00,METAR LEBL 030830Z 34009G20KT 300V020 9999 FEW012 15/03 Q1019 NOSIG
2026-04-03 08:00:00,METAR LEBL 030800Z 33009KT 260V040 9999 FEW012 14/04 Q1019 NOSIG
2026-04-03 07:30:00,METAR LEBL 030730Z 33009G20KT 260V010 9999 FEW012 13/04 Q1018 NOSIG
2026-04-03 07:00:00,METAR LEBL 030700Z 32011G25KT 9999 FEW015 12/03 Q1018 NOSIG
2026-04-03 06:30:00,METAR LEBL 030630Z 32010G23KT 290V010 9999 FEW010 10/03 Q1018 NOSIG
2026-04-03 06:00:00,METAR LEBL 030600Z 33009G24KT 290V350 9999 FEW010 10/02 Q1017 NOSIG
2026-04-03 05:30:00,METAR LEBL 030530Z 33007G18KT 9999 FEW010 10/02 Q1017 NOSIG
2026-04-03 05:00:00,METAR LEBL 030500Z 31004KT 280V340 9999 FEW015 09/01 Q1017 NOSIG
2026-04-03 04:30:00,METAR LEBL 030430Z 33006KT CAVOK 09/01 Q1017 NOSIG
2026-04-03 04:00:00,METAR LEBL 030400Z 29005KT CAVOK 09/01 Q1016 NOSIG
2026-04-03 03:30:00,METAR LEBL 030330Z VRB02KT CAVOK 09/02 Q1016 NOSIG
2026-04-03 03:00:00,METAR LEBL 030300Z 33005KT CAVOK 10/02 Q1016 NOSIG
2026-04-03 02:30:00,METAR LEBL 030230Z 28004KT 9999 FEW030 11/02 Q1016 NOSIG
2026-04-03 02:00:00,METAR LEBL 030200Z VRB02KT 9999 FEW025 11/02 Q1016 NOSIG
2026-04-03 01:30:00,METAR LEBL 030130Z 27005KT 9999 FEW025 10/03 Q1016 NOSIG
2026-04-03 01:00:00,METAR LEBL 030100Z 32007KT 9999 FEW020 10/04 Q1015 NOSIG
2026-04-03 00:30:00,METAR LEBL 030030Z 34007KT 9999 FEW020 10/05 Q1016 NOSIG
2026-04-03 00:00:00,METAR LEBL 030000Z 31004KT 290V350 9999 FEW025 10/05 Q1016 NOSIG
2026-04-02 23:30:00,METAR LEBL 022330Z 32005KT 9999 FEW025 10/05 Q1016 NOSIG
2026-04-02 23:00:00,METAR LEBL 022300Z 32005KT 9999 FEW025 11/06 Q1016 NOSIG
2026-04-02 22:30:00,METAR LEBL 022230Z 32004KT 9999 FEW025 11/08 Q1016 NOSIG
2026-04-02 22:00:00,METAR LEBL 022200Z 32005KT 290V350 9999 FEW035 12/09 Q1015 NOSIG
2026-04-02 21:30:00,METAR LEBL 022130Z 02003KT 9999 FEW025 13/10 Q1015 NOSIG
2026-04-02 21:00:00,METAR LEBL 022100Z 02004KT 9999 FEW025 14/11 Q1015 NOSIG
2026-04-02 20:30:00,METAR LEBL 022030Z 05002KT 9999 FEW020 14/11 Q1015 NOSIG
2026-04-02 20:00:00,METAR LEBL 022000Z 05004KT 310V090 9999 FEW040 14/11 Q1014 NOSIG
2026-04-02 19:30:00,METAR LEBL 021930Z 06007KT 9999 FEW050 14/11 Q1014 NOSIG
2026-04-02 19:00:00,METAR LEBL 021900Z 06008KT 9999 FEW050 14/11 Q1013 NOSIG
2026-04-02 18:30:00,METAR LEBL 021830Z 06007KT 9999 SCT055 15/10 Q1012 NOSIG
2026-04-02 18:00:00,METAR LEBL 021800Z 05012KT 9999 SCT050 15/10 Q1012 NOSIG
2026-04-02 17:30:00,METAR LEBL 021730Z 04013KT 9999 SCT050 16/10 Q1011 NOSIG
2026-04-02 17:00:00,METAR LEBL 021700Z 04009KT 020V090 9999 SCT050 20/00 Q1011 NOSIG
2026-04-02 16:30:00,METAR LEBL 021630Z 31012KT 9999 SCT050 21/M00 Q1010 NOSIG
2026-04-02 16:00:00,METAR LEBL 021600Z 30012KT 9999 SCT050 20/M01 Q1010 NOSIG
2026-04-02 15:30:00,METAR LEBL 021530Z 29013KT 270V330 9999 SCT050 21/00 Q1010 NOSIG
2026-04-02 15:00:00,METAR LEBL 021500Z 32011KT 280V340 9999 SCT050 20/01 Q1010 NOSIG
2026-04-02 14:30:00,METAR LEBL 021430Z 31009KT 190V340 9999 SCT050 20/01 Q1010 NOSIG
2026-04-02 14:00:00,METAR LEBL 021400Z 21011KT 9999 BKN030 17/08 Q1011 NOSIG
2026-04-02 13:30:00,METAR LEBL 021330Z 22013KT 9999 BKN030 16/09 Q1011 NOSIG
2026-04-02 13:00:00,METAR LEBL 021300Z 21015KT 9999 BKN030 16/07 Q1011 NOSIG
2026-04-02 12:30:00,METAR LEBL 021230Z 21015KT 9999 BKN030 15/08 Q1012 NOSIG
2026-04-02 12:00:00,METAR LEBL 021200Z 21015KT 9999 SCT030 16/08 Q1012 NOSIG
2026-04-02 11:30:00,METAR LEBL 021130Z 21015KT 9999 SCT032 15/08 Q1012 NOSIG
2026-04-02 11:00:00,METAR LEBL 021100Z 21014KT 180V240 9999 SCT030 15/07 Q1013 NOSIG
2026-04-02 10:30:00,METAR LEBL 021030Z 22013KT 9999 SCT036 15/07 Q1013 NOSIG
2026-04-02 10:00:00,METAR LEBL 021000Z 22013KT 170V240 9999 SCT032 14/06 Q1013 NOSIG
2026-04-02 09:30:00,METAR LEBL 020930Z 22010KT 190V250 9999 FEW025 15/06 Q1013 NOSIG
2026-04-02 09:00:00,METAR LEBL 020900Z 19010KT 160V220 9999 FEW025 14/07 Q1013 NOSIG
2026-04-02 08:30:00,METAR LEBL 020830Z 20009KT 9999 FEW025 14/07 Q1013 NOSIG
2026-04-02 08:00:00,METAR LEBL 020800Z 20009KT 9999 FEW025 14/07 Q1013 NOSIG
2026-04-02 07:30:00,METAR LEBL 020730Z 21009KT 170V230 9999 FEW025 13/08 Q1013 NOSIG
2026-04-02 07:00:00,METAR LEBL 020700Z 24004KT 210V300 9999 FEW025 12/09 Q1013 NOSIG
2026-04-02 06:30:00,METAR LEBL 020630Z 31003KT 260V350 9999 SCT032 10/08 Q1013 NOSIG
2026-04-02 06:00:00,METAR LEBL 020600Z 28004KT 240V340 9999 SCT032 10/07 Q1012 NOSIG
2026-04-02 05:00:00,METAR LEBL 020500Z 32004KT 9999 SCT032 10/08 Q1012 NOSIG
2026-04-02 04:30:00,METAR LEBL 020430Z VRB02KT 9999 SCT032 10/07 Q1012 NOSIG
2026-04-02 04:00:00,METAR LEBL 020400Z 31005KT 9999 SCT032 10/07 Q1012 NOSIG
2026-04-02 03:30:00,METAR LEBL 020330Z 29004KT 9999 SCT032 11/07 Q1012 NOSIG
2026-04-02 03:00:00,METAR LEBL 020300Z 08003KT 040V110 9999 SCT032 12/07 Q1012 NOSIG
2026-04-02 02:30:00,METAR LEBL 020230Z 08006KT 050V110 9999 SCT040 12/08 Q1012 NOSIG
2026-04-02 02:00:00,METAR LEBL 020200Z 09008KT 9999 BKN040 12/07 Q1012 NOSIG
2026-04-02 01:30:00,METAR LEBL 020130Z 09011KT 9999 SCT040 13/09 Q1013 NOSIG
2026-04-02 01:00:00,METAR LEBL 020100Z 21006KT 9999 SCT040 13/11 Q1013 NOSIG
2026-04-02 00:30:00,METAR LEBL 020030Z 21004KT 9999 SCT040 13/11 Q1013 BECMG 4000 SHRA FEW020CB
2026-04-02 00:00:00,METAR LEBL 020000Z COR AUTO 21006KT CAVOK 13/11 Q1013
2026-04-01 23:30:00,METAR LEBL 012330Z 19004KT 9999 SCT022 SCT045 14/11 Q1013 NOSIG
2026-04-01 23:00:00,METAR LEBL 012300Z 21006KT 9999 SCT022 SCT045 14/11 Q1013 NOSIG
2026-04-01 22:30:00,METAR LEBL 012230Z 20007KT 9999 SCT022 SCT045 14/11 Q1014 NOSIG
2026-04-01 22:00:00,METAR LEBL 012200Z 21007KT 9999 SCT022 SCT045 14/11 Q1014 NOSIG
2026-04-01 21:30:00,METAR LEBL 012130Z 22008KT 9999 SCT022 SCT045 14/11 Q1014 NOSIG
2026-04-01 21:00:00,METAR LEBL 012100Z 22009KT 9999 SCT018 SCT045 14/10 Q1014 NOSIG
2026-04-01 20:30:00,METAR LEBL 012030Z 22009KT 9999 SCT018 SCT045 14/10 Q1014 NOSIG
2026-04-01 20:00:00,METAR LEBL 012000Z 22011KT 9999 SCT018 SCT045 14/11 Q1014 NOSIG
2026-04-01 19:30:00,METAR LEBL 011930Z 23012KT 9999 SCT018 SCT045 14/11 Q1014 NOSIG
2026-04-01 19:00:00,METAR LEBL 011900Z 23010KT 9999 SCT018 SCT045 14/11 Q1014 NOSIG
2026-04-01 18:30:00,METAR LEBL 011830Z 23013KT 9999 SCT018 SCT045 14/11 Q1014 NOSIG
2026-04-01 18:00:00,METAR LEBL 011800Z 23013KT 9999 SCT018 SCT060 14/11 Q1013 NOSIG
2026-04-01 17:30:00,METAR LEBL 011730Z 23014KT 9999 SCT016 SCT060 15/11 Q1013 NOSIG
2026-04-01 17:00:00,METAR LEBL 011700Z 23013KT 9999 SCT018 SCT060 15/10 Q1013 NOSIG
2026-04-01 16:30:00,METAR LEBL 011630Z 23013KT 9999 SCT022 SCT060 15/10 Q1013 NOSIG
2026-04-01 16:00:00,METAR LEBL 011600Z 21011KT 9999 FEW012 SCT022 15/10 Q1013 NOSIG
2026-04-01 15:30:00,METAR LEBL 011530Z 20012KT 9999 FEW015 SCT025 15/09 Q1013 NOSIG
2026-04-01 15:00:00,METAR LEBL 011500Z 20013KT 9999 FEW015 SCT030 16/08 Q1014 NOSIG
2026-04-01 14:00:00,METAR LEBL 011400Z 20009KT 130V230 9999 FEW012 SCT030 15/09 Q1015 NOSIG
2026-04-01 13:30:00,METAR LEBL 011330Z 19009KT 9999 FEW015 SCT030 15/09 Q1015 NOSIG
2026-04-01 13:00:00,METAR LEBL 011300Z 20010KT 160V220 9999 FEW015 SCT050 15/08 Q1015 NOSIG
2026-04-01 12:30:00,METAR LEBL 011230Z 19009KT 160V220 9999 FEW025 SCT060 15/07 Q1016 NOSIG
2026-04-01 12:00:00,METAR LEBL 011200Z 20011KT 160V230 9999 FEW025 SCT045 15/08 Q1016 NOSIG
2026-04-01 11:30:00,METAR LEBL 011130Z 20015KT 9999 FEW030 SCT045 15/08 Q1016 NOSIG
2026-04-01 11:00:00,METAR LEBL 011100Z 20012KT 170V230 9999 FEW033 15/06 Q1016 NOSIG
2026-04-01 10:30:00,METAR LEBL 011030Z 20012KT 170V230 9999 FEW033 15/06 Q1016 NOSIG
2026-04-01 10:00:00,METAR LEBL 011000Z 18009KT 150V210 9999 FEW024 14/07 Q1017 NOSIG
2026-04-01 09:30:00,METAR LEBL 010930Z 18007KT 130V200 9999 FEW022 14/08 Q1017 NOSIG
2026-04-01 09:00:00,METAR LEBL 010900Z 21005KT 170V250 9999 FEW020 14/08 Q1017 NOSIG
2026-04-01 08:30:00,METAR LEBL 010830Z 27001KT 9999 FEW020 14/09 Q1017 NOSIG
2026-04-01 08:00:00,METAR LEBL 010800Z VRB03KT 9999 FEW020 12/07 Q1017 NOSIG
2026-04-01 07:30:00,METAR LEBL 010730Z 00000KT 9999 FEW020 11/06 Q1017 NOSIG
2026-04-01 07:00:00,METAR LEBL 010700Z VRB02KT 9999 FEW020 10/06 Q1017 NOSIG
2026-04-01 06:30:00,METAR LEBL 010630Z 33007KT 280V010 9999 FEW020 09/06 Q1017 NOSIG
2026-04-01 06:00:00,METAR LEBL 010600Z 32007KT 230V350 9999 FEW020 09/06 Q1017 NOSIG
2026-04-01 05:30:00,METAR LEBL 010530Z 32008KT 9999 FEW020 08/06 Q1017 NOSIG
2026-04-01 05:00:00,METAR LEBL 010500Z 31004KT 290V350 9999 FEW014 08/06 Q1017 NOSIG
2026-04-01 04:30:00,METAR LEBL 010430Z 32004KT 9999 FEW012 08/07 Q1017 NOSIG
2026-04-01 04:00:00,METAR LEBL 010400Z 36006KT 300V060 9999 FEW014 08/07 Q1017 NOSIG
2026-04-01 03:30:00,METAR LEBL 010330Z 31006KT 270V350 9000 FEW012 08/06 Q1017 NOSIG
2026-04-01 03:00:00,METAR LEBL 010300Z 36003KT 9000 FEW010 09/07 Q1017 NOSIG
2026-04-01 02:30:00,METAR LEBL 010230Z 30003KT 9000 FEW012 SCT018 09/08 Q1017 NOSIG
2026-04-01 02:00:00,METAR LEBL 010200Z 33004KT 250V020 9000 FEW010 SCT018 09/08 Q1018 NOSIG
2026-04-01 01:30:00,METAR LEBL 010130Z 33003KT 300V060 9999 FEW015 10/08 Q1018 NOSIG
2026-04-01 01:00:00,METAR LEBL 010100Z VRB02KT 9000 FEW010 10/08 Q1018 NOSIG
2026-04-01 00:30:00,METAR LEBL 010030Z 02003KT 9999 FEW010 10/09 Q1018 NOSIG
2026-04-01 00:00:00,METAR LEBL 010000Z 31006KT 280V340 9999 FEW010 10/08 Q1018 NOSIG
2026-03-31 23:30:00,METAR LEBL 312330Z VRB01KT 9999 FEW010 11/08 Q1018 NOSIG
2026-03-31 23:00:00,METAR LEBL 312300Z VRB02KT 9999 FEW012 11/09 Q1018 NOSIG
2026-03-31 22:30:00,METAR LEBL 312230Z 31004KT 9999 FEW012 11/09 Q1019 NOSIG
2026-03-31 22:00:00,METAR LEBL 312200Z 31004KT 9999 FEW013 12/09 Q1019 NOSIG
2026-03-31 21:30:00,METAR LEBL 312130Z 30005KT 9999 FEW013 12/09 Q1019 NOSIG
2026-03-31 21:00:00,METAR LEBL 312100Z 25004KT 220V290 9999 FEW013 13/10 Q1019 NOSIG
2026-03-31 20:30:00,METAR LEBL 312030Z 31004KT 240V340 9999 FEW013 13/10 Q1019 NOSIG
2026-03-31 20:00:00,METAR LEBL 312000Z 29003KT 200V350 9999 FEW015 13/09 Q1019 NOSIG
2026-03-31 19:30:00,METAR LEBL 311930Z 28006KT 240V320 9999 FEW015 14/10 Q1019 NOSIG
2026-03-31 19:00:00,METAR LEBL 311900Z 23005KT 9999 FEW018 13/09 Q1019 NOSIG
2026-03-31 18:30:00,METAR LEBL 311830Z 21005KT 9999 FEW018 14/10 Q1018 NOSIG
2026-03-31 18:00:00,METAR LEBL 311800Z 21005KT 9999 FEW040 15/10 Q1018 NOSIG
2026-03-31 17:30:00,METAR LEBL 311730Z 20007KT 9999 FEW040 15/10 Q1018 NOSIG
2026-03-31 17:00:00,METAR LEBL 311700Z 18008KT 140V200 9999 FEW040 15/09 Q1018 NOSIG
2026-03-31 16:30:00,METAR LEBL 311630Z 18008KT 150V210 9999 FEW030 16/09 Q1017 NOSIG
2026-03-31 16:00:00,METAR LEBL 311600Z 19008KT 160V220 9999 FEW030 16/09 Q1018 NOSIG
2026-03-31 15:30:00,METAR LEBL 311530Z 19009KT 150V210 9999 FEW030 16/10 Q1018 NOSIG
2026-03-31 15:00:00,METAR LEBL 311500Z 18008KT 150V220 9999 FEW030 16/09 Q1018 NOSIG
2026-03-31 14:30:00,METAR LEBL 311430Z 17009KT 130V210 9999 FEW030 16/09 Q1018 NOSIG
2026-03-31 14:00:00,METAR LEBL 311400Z 18008KT 150V220 9999 FEW030 16/09 Q1018 NOSIG
2026-03-31 13:30:00,METAR LEBL 311330Z 17009KT 140V200 9999 FEW050 16/09 Q1019 NOSIG
2026-03-31 13:00:00,METAR LEBL 311300Z 16008KT 120V200 9999 FEW050 16/08 Q1019 NOSIG
2026-03-31 12:30:00,METAR LEBL 311230Z 14008KT 110V180 9999 FEW050 16/07 Q1019 NOSIG
2026-03-31 12:00:00,METAR LEBL 311200Z 14008KT 110V190 9999 FEW050 16/07 Q1019 NOSIG
2026-03-31 11:30:00,METAR LEBL 311130Z 11009KT 080V150 9999 FEW030 16/08 Q1020 NOSIG
2026-03-31 11:00:00,METAR LEBL 311100Z 10011KT 9999 FEW030 16/09 Q1020 NOSIG
2026-03-31 10:30:00,METAR LEBL 311030Z 14009KT 110V180 9999 FEW017 SCT028 BKN034 16/09 Q1020 NOSIG
2026-03-31 10:00:00,METAR LEBL 311000Z 11010KT 080V150 9999 FEW014 SCT023 16/12 Q1020 NOSIG
2026-03-31 09:30:00,METAR LEBL 310930Z 04013KT 9999 FEW018 SCT026 16/12 Q1020 NOSIG
2026-03-31 09:00:00,METAR LEBL 310900Z 05011KT 9999 SCT022 15/11 Q1019 NOSIG
2026-03-31 08:30:00,METAR LEBL 310830Z 32006KT 270V010 9999 FEW020 15/09 Q1019 NOSIG
2026-03-31 08:00:00,METAR LEBL 310800Z 31007KT 270V340 9999 FEW020 14/08 Q1018 NOSIG
2026-03-31 07:30:00,METAR LEBL 310730Z 31010KT 9999 FEW020 14/06 Q1018 NOSIG
2026-03-31 07:00:00,METAR LEBL 310700Z 32009KT 220V360 9999 FEW020 13/06 Q1018 NOSIG
2026-03-31 06:30:00,METAR LEBL 310630Z 31008KT 280V010 9999 FEW020 11/06 Q1018 NOSIG
2026-03-31 06:00:00,METAR LEBL 310600Z 33007KT 9999 FEW020 10/06 Q1018 NOSIG
2026-03-31 05:30:00,METAR LEBL 310530Z 33008KT 220V010 9999 FEW020 11/06 Q1017 NOSIG
2026-03-31 05:00:00,METAR LEBL 310500Z 33010KT CAVOK 11/07 Q1017 NOSIG
2026-03-31 04:30:00,METAR LEBL 310430Z 33008KT CAVOK 11/06 Q1017 NOSIG
2026-03-31 04:00:00,METAR LEBL 310400Z 33008KT CAVOK 11/06 Q1017 NOSIG
2026-03-31 03:30:00,METAR LEBL 310330Z 34005KT CAVOK 11/07 Q1017 NOSIG
2026-03-31 03:00:00,METAR LEBL 310300Z 35003KT 310V080 CAVOK 11/07 Q1017 NOSIG
2026-03-31 02:30:00,METAR LEBL 310230Z 09004KT 050V120 CAVOK 12/07 Q1017 NOSIG
2026-03-31 02:00:00,METAR LEBL 310200Z 36005KT 330V040 CAVOK 14/09 Q1018 NOSIG
2026-03-31 01:30:00,METAR LEBL 310130Z 04005KT 010V070 CAVOK 14/08 Q1018 NOSIG
2026-03-31 01:00:00,METAR LEBL 310100Z 04006KT CAVOK 13/07 Q1018 NOSIG
2026-03-31 00:30:00,METAR LEBL 310030Z 35005KT 330V030 CAVOK 13/07 Q1018 NOSIG
2026-03-31 00:00:00,METAR LEBL 310000Z 01004KT 340V080 CAVOK 15/06 Q1018 NOSIG
2026-03-30 23:30:00,METAR LEBL 302330Z 03006KT CAVOK 15/07 Q1018 NOSIG
2026-03-30 23:00:00,METAR LEBL 302300Z 03005KT 360V070 CAVOK 15/06 Q1018 NOSIG
2026-03-30 22:30:00,METAR LEBL 302230Z 05006KT CAVOK 16/06 Q1018 NOSIG
2026-03-30 22:00:00,METAR LEBL 302200Z 02007KT CAVOK 16/07 Q1018 NOSIG
2026-03-30 21:30:00,METAR LEBL 302130Z 34005KT CAVOK 16/07 Q1018 NOSIG
2026-03-30 21:00:00,METAR LEBL 302100Z 36004KT 310V070 CAVOK 17/07 Q1017 NOSIG
2026-03-30 20:30:00,METAR LEBL 302030Z 36004KT 310V060 CAVOK 18/07 Q1017 NOSIG
2026-03-30 20:00:00,METAR LEBL 302000Z 29004KT 240V350 CAVOK 17/08 Q1017 NOSIG
2026-03-30 19:30:00,METAR LEBL 301930Z 29006KT 250V340 CAVOK 19/06 Q1017 NOSIG
2026-03-30 19:00:00,METAR LEBL 301900Z 30005KT 240V350 CAVOK 19/06 Q1017 NOSIG
2026-03-30 18:30:00,METAR LEBL 301830Z VRB01KT CAVOK 19/06 Q1017 NOSIG
2026-03-30 18:00:00,METAR LEBL 301800Z 19003KT CAVOK 17/10 Q1017 NOSIG
2026-03-30 17:30:00,METAR LEBL 301730Z 21008KT CAVOK 18/11 Q1017 NOSIG
2026-03-30 17:00:00,METAR LEBL 301700Z 22012KT CAVOK 17/11 Q1018 NOSIG
2026-03-30 16:30:00,METAR LEBL 301630Z 22014KT CAVOK 18/10 Q1018 NOSIG
2026-03-30 16:00:00,METAR LEBL 301600Z 22014KT CAVOK 18/10 Q1018 NOSIG
2026-03-30 15:30:00,METAR LEBL 301530Z 23015KT CAVOK 18/08 Q1018 NOSIG
2026-03-30 15:00:00,METAR LEBL 301500Z 23015KT CAVOK 18/08 Q1019 NOSIG
2026-03-30 14:30:00,METAR LEBL 301430Z 22013KT CAVOK 18/08 Q1020 NOSIG
2026-03-30 14:00:00,METAR LEBL 301400Z 22013KT CAVOK 18/09 Q1020 NOSIG
2026-03-30 13:30:00,METAR LEBL 301330Z 22011KT CAVOK 18/03 Q1021 NOSIG
2026-03-30 13:00:00,METAR LEBL 301300Z 22009KT 180V250 CAVOK 18/04 Q1022 NOSIG
2026-03-30 12:30:00,METAR LEBL 301230Z 21010KT CAVOK 18/05 Q1022 NOSIG
2026-03-30 12:00:00,METAR LEBL 301200Z 21006KT 140V280 CAVOK 17/03 Q1023 NOSIG
2026-03-30 11:30:00,METAR LEBL 301130Z 20007KT CAVOK 16/04 Q1023 NOSIG
2026-03-30 11:00:00,METAR LEBL 301100Z 19009KT 160V230 CAVOK 14/04 Q1024 NOSIG
2026-03-30 10:30:00,METAR LEBL 301030Z 20006KT 150V250 CAVOK 14/04 Q1024 NOSIG
2026-03-30 10:00:00,METAR LEBL 301000Z 24003KT 170V280 CAVOK 15/01 Q1025 NOSIG
2026-03-30 09:30:00,METAR LEBL 300930Z 29005KT 210V350 CAVOK 14/M00 Q1024 NOSIG
2026-03-30 09:00:00,METAR LEBL 300900Z 31007KT CAVOK 13/M00 Q1024 NOSIG
2026-03-30 08:30:00,METAR LEBL 300830Z 32011G21KT 290V350 CAVOK 11/M01 Q1024 NOSIG
2026-03-30 08:00:00,METAR LEBL 300800Z 33010KT 280V010 CAVOK 09/M02 Q1025 NOSIG
2026-03-30 07:30:00,METAR LEBL 300730Z 33010KT 280V360 CAVOK 08/M02 Q1025 NOSIG
2026-03-30 07:00:00,METAR LEBL 300700Z 32009KT 290V350 CAVOK 07/M03 Q1025 NOSIG
2026-03-30 06:30:00,METAR LEBL 300630Z 33008G18KT 290V010 CAVOK 06/M04 Q1025 NOSIG
2026-03-30 06:00:00,METAR LEBL 300600Z 31007KT 210V340 CAVOK 06/M03 Q1025 NOSIG
2026-03-30 05:30:00,METAR LEBL 300530Z 33008G19KT CAVOK 06/M04 Q1025 NOSIG
2026-03-30 05:00:00,METAR LEBL 300500Z 32008KT CAVOK 06/M03 Q1024 NOSIG
2026-03-30 04:30:00,METAR LEBL 300430Z 33008KT CAVOK 06/M04 Q1024 NOSIG
2026-03-30 04:00:00,METAR LEBL 300400Z 33004KT 280V360 CAVOK 07/M03 Q1024 NOSIG
2026-03-30 03:30:00,METAR LEBL 300330Z 34006KT CAVOK 06/M03 Q1024 NOSIG
2026-03-30 03:00:00,METAR LEBL 300300Z 34007KT CAVOK 08/M04 Q1024 NOSIG
2026-03-30 02:30:00,METAR LEBL 300230Z 34003KT CAVOK 08/M04 Q1024 NOSIG
2026-03-30 02:00:00,METAR LEBL 300200Z 31006KT CAVOK 08/M04 Q1024 NOSIG
2026-03-30 01:30:00,METAR LEBL 300130Z 33007KT CAVOK 08/M04 Q1024 NOSIG
2026-03-30 01:00:00,METAR LEBL 300100Z 33008KT CAVOK 09/M04 Q1024 NOSIG
2026-03-30 00:30:00,METAR LEBL 300030Z 33004KT CAVOK 08/M03 Q1024 NOSIG
2026-03-30 00:00:00,METAR LEBL 300000Z 34008KT CAVOK 08/M03 Q1025 NOSIG
2026-03-29 23:30:00,METAR LEBL 292330Z 32008KT CAVOK 09/M02 Q1024 NOSIG
2026-03-29 23:00:00,METAR LEBL 292300Z 32008KT CAVOK 08/M02 Q1024 NOSIG
2026-03-29 22:30:00,METAR LEBL 292230Z 32006KT CAVOK 10/M03 Q1024 NOSIG
2026-03-29 22:00:00,METAR LEBL 292200Z 33003KT CAVOK 10/M03 Q1024 NOSIG
2026-03-29 21:30:00,METAR LEBL 292130Z 33005KT CAVOK 11/M03 Q1024 NOSIG
2026-03-29 21:00:00,METAR LEBL 292100Z 30003KT CAVOK 12/M03 Q1023 NOSIG
2026-03-29 20:30:00,METAR LEBL 292030Z 21004KT 190V250 CAVOK 13/05 Q1023 NOSIG
2026-03-29 20:00:00,METAR LEBL 292000Z 19003KT 170V240 CAVOK 13/04 Q1023 NOSIG
2026-03-29 19:30:00,METAR LEBL 291930Z 16004KT 130V190 CAVOK 14/04 Q1023 NOSIG
2026-03-29 19:00:00,METAR LEBL 291900Z 18003KT 140V240 CAVOK 14/05 Q1022 NOSIG
2026-03-29 18:30:00,METAR LEBL 291830Z 17006KT CAVOK 14/04 Q1021 NOSIG
2026-03-29 18:00:00,METAR LEBL 291800Z 17008KT CAVOK 14/05 Q1021 NOSIG
2026-03-29 17:30:00,METAR LEBL 291730Z 18008KT 140V210 CAVOK 14/04 Q1021 NOSIG
2026-03-29 17:00:00,METAR LEBL 291700Z 21009KT CAVOK 15/02 Q1020 NOSIG
2026-03-29 16:30:00,METAR LEBL 291630Z 33004KT CAVOK 17/M03 Q1020 NOSIG
2026-03-29 16:00:00,METAR LEBL 291600Z 31008G18KT 250V350 CAVOK 16/M04 Q1020 NOSIG
2026-03-29 15:30:00,METAR LEBL 291530Z 28007KT 260V330 CAVOK 15/M01 Q1020 NOSIG
2026-03-29 15:00:00,METAR LEBL 291500Z 24007KT 200V280 CAVOK 15/M01 Q1020 NOSIG
2026-03-29 14:30:00,METAR LEBL 291430Z 23010KT 200V260 CAVOK 15/M01 Q1020 NOSIG
2026-03-29 14:00:00,METAR LEBL 291400Z 16006KT 130V190 CAVOK 14/M01 Q1020 NOSIG
2026-03-29 13:30:00,METAR LEBL 291330Z 13008KT 100V170 CAVOK 15/M03 Q1019 NOSIG
2026-03-29 13:00:00,METAR LEBL 291300Z 13009KT 100V170 CAVOK 14/M04 Q1019 NOSIG
2026-03-29 12:30:00,METAR LEBL 291230Z 12012KT 100V160 9999 FEW030 15/M03 Q1019 NOSIG
2026-03-29 12:00:00,METAR LEBL 291200Z 13010KT 100V160 9999 SCT030 15/M05 Q1018 NOSIG
2026-03-29 11:30:00,METAR LEBL 291130Z 08012KT 9999 FEW030 17/M08 Q1018 NOSIG
2026-03-29 11:00:00,METAR LEBL 291100Z 35009KT 310V020 CAVOK 16/M08 Q1018 NOSIG
2026-03-29 10:30:00,METAR LEBL 291030Z 33014KT CAVOK 15/M09 Q1018 NOSIG
2026-03-29 10:00:00,METAR LEBL 291000Z 34013KT 300V030 CAVOK 15/M08 Q1018 NOSIG
2026-03-29 09:30:00,METAR LEBL 290930Z 01014G24KT 340V060 CAVOK 14/M08 Q1018 NOSIG
2026-03-29 09:00:00,METAR LEBL 290900Z 34013G24KT 290V020 CAVOK 14/M08 Q1018 NOSIG
2026-03-29 08:30:00,METAR LEBL 290830Z 34012G24KT 300V020 CAVOK 13/M05 Q1018 NOSIG
2026-03-29 08:00:00,METAR LEBL 290800Z VRB06G17KT CAVOK 12/M04 Q1018 NOSIG
2026-03-29 07:30:00,METAR LEBL 290730Z 36010G20KT 320V040 CAVOK 11/M02 Q1017 NOSIG
2026-03-29 07:00:00,METAR LEBL 290700Z 36007G17KT 280V040 CAVOK 10/M02 Q1017 NOSIG
2026-03-29 06:30:00,METAR LEBL 290630Z 34008KT 230V040 9999 FEW030 09/M02 Q1017 NOSIG
2026-03-29 06:00:00,METAR LEBL 290600Z 32011G21KT 290V350 9999 FEW030 09/M02 Q1017 NOSIG
2026-03-29 05:30:00,METAR LEBL 290530Z 32013G25KT 290V350 CAVOK 10/M03 Q1017 NOSIG
2026-03-29 05:00:00,METAR LEBL 290500Z 32009KT CAVOK 10/M03 Q1016 NOSIG
2026-03-29 04:30:00,METAR LEBL 290430Z 31006KT CAVOK 10/M03 Q1017 NOSIG
2026-03-29 04:00:00,METAR LEBL 290400Z 30005KT 280V350 9999 FEW030 10/04 Q1017 NOSIG
2026-03-29 03:30:00,METAR LEBL 290330Z 27006KT 9999 FEW030 11/07 Q1017 NOSIG
2026-03-29 03:00:00,METAR LEBL 290300Z 29004KT 9999 FEW030 11/06 Q1017 NOSIG
2026-03-29 02:30:00,METAR LEBL 290230Z 10003KT 040V140 9999 FEW030 11/06 Q1017 NOSIG
2026-03-29 02:00:00,METAR LEBL 290200Z 10005KT 060V140 9999 FEW025 12/06 Q1017 NOSIG
2026-03-29 01:30:00,METAR LEBL 290130Z 10013KT 9999 FEW015 SCT025 BKN033 12/08 Q1017 NOSIG
2026-03-29 01:00:00,METAR LEBL 290100Z 09006KT 070V130 9999 FEW015 13/10 Q1017 NOSIG
2026-03-29 00:30:00,METAR LEBL 290030Z 11003KT 080V150 9999 FEW015 13/10 Q1017 NOSIG
2026-03-28 23:30:00,METAR LEBL 282330Z 08011KT 060V120 9999 FEW018 14/12 Q1017 NOSIG
2026-03-28 23:00:00,METAR LEBL 282300Z 06009KT 9999 FEW018 14/12 Q1017 NOSIG
2026-03-28 22:30:00,METAR LEBL 282230Z 04006KT CAVOK 14/12 Q1017 NOSIG
2026-03-28 22:00:00,METAR LEBL 282200Z 09004KT CAVOK 14/12 Q1017 NOSIG
2026-03-28 21:30:00,METAR LEBL 282130Z 07005KT 010V100 CAVOK 14/12 Q1017 NOSIG
2026-03-28 21:00:00,METAR LEBL 282100Z 18001KT CAVOK 14/12 Q1017 NOSIG
2026-03-28 20:30:00,METAR LEBL 282030Z 23009KT 9999 FEW020 14/11 Q1017 NOSIG
2026-03-28 20:00:00,METAR LEBL 282000Z 22010KT 9999 FEW020 14/11 Q1017 NOSIG
2026-03-28 19:30:00,METAR LEBL 281930Z 22013KT 9999 SCT030 14/10 Q1017 NOSIG
2026-03-28 19:00:00,METAR LEBL 281900Z 24013KT 9999 SCT030 14/11 Q1017 NOSIG
2026-03-28 18:30:00,METAR LEBL 281830Z 23013KT 9999 SCT030 14/10 Q1017 NOSIG
2026-03-28 18:00:00,METAR LEBL 281800Z COR 24014KT 9999 SCT030 15/10 Q1017 NOSIG
2026-03-28 17:30:00,METAR LEBL 281730Z 25013KT 9999 FEW025 SCT030 16/09 Q1016 NOSIG
2026-03-28 17:00:00,METAR LEBL 281700Z 25010KT 9999 FEW025 SCT030 16/09 Q1016 NOSIG
2026-03-28 16:30:00,METAR LEBL 281630Z 24014KT 9999 FEW025 SCT030 16/09 Q1016 NOSIG
2026-03-28 16:00:00,METAR LEBL 281600Z 23015KT 9999 FEW025 SCT030 16/08 Q1016 NOSIG
2026-03-28 15:30:00,METAR LEBL 281530Z 24015KT 9999 FEW025 16/08 Q1016 NOSIG
2026-03-28 15:00:00,METAR LEBL 281500Z 23017KT 9999 FEW025 16/08 Q1017 NOSIG
2026-03-28 14:30:00,METAR LEBL 281430Z 23018KT 9999 FEW025 16/07 Q1017 NOSIG
2026-03-28 14:00:00,METAR LEBL 281400Z 23019KT CAVOK 16/06 Q1017 NOSIG
2026-03-28 13:30:00,METAR LEBL 281330Z 23018KT CAVOK 16/05 Q1017 NOSIG
2026-03-28 13:00:00,METAR LEBL 281300Z 24017KT CAVOK 16/06 Q1018 NOSIG
2026-03-28 12:30:00,METAR LEBL 281230Z 22011KT CAVOK 15/07 Q1018 NOSIG
2026-03-28 12:00:00,METAR LEBL 281200Z 22010KT CAVOK 16/06 Q1018 NOSIG
2026-03-28 11:30:00,METAR LEBL 281130Z 21009KT CAVOK 15/05 Q1019 NOSIG
2026-03-28 11:00:00,METAR LEBL 281100Z 21008KT CAVOK 15/05 Q1019 NOSIG
2026-03-28 10:30:00,METAR LEBL 281030Z 27005KT CAVOK 15/06 Q1019 NOSIG
2026-03-28 10:00:00,METAR LEBL 281000Z 32010KT 280V350 CAVOK 14/03 Q1019 NOSIG
2026-03-28 09:30:00,METAR LEBL 280930Z 32010KT 290V010 CAVOK 14/04 Q1019 NOSIG
2026-03-28 09:00:00,METAR LEBL 280900Z 32011KT 270V350 CAVOK 13/04 Q1019 NOSIG
2026-03-28 08:30:00,METAR LEBL 280830Z 32011KT CAVOK 12/04 Q1019 NOSIG
2026-03-28 08:00:00,METAR LEBL 280800Z 32011KT 280V340 CAVOK 11/04 Q1019 NOSIG
2026-03-28 07:30:00,METAR LEBL 280730Z 32010G20KT 280V350 CAVOK 10/05 Q1019 NOSIG
2026-03-28 07:00:00,METAR LEBL 280700Z 33009G21KT 280V040 CAVOK 08/05 Q1019 NOSIG
2026-03-28 06:30:00,METAR LEBL 280630Z 33010G23KT 300V010 CAVOK 08/05 Q1019 NOSIG
2026-03-28 06:00:00,METAR LEBL 280600Z 34009KT CAVOK 07/05 Q1018 NOSIG
2026-03-28 05:30:00,METAR LEBL 280530Z 33009KT CAVOK 08/05 Q1018 NOSIG
2026-03-28 05:00:00,METAR LEBL 280500Z 33008KT CAVOK 08/05 Q1018 NOSIG
2026-03-28 04:30:00,METAR LEBL 280430Z 33010KT CAVOK 08/05 Q1018 NOSIG
2026-03-28 04:00:00,METAR LEBL 280400Z 32004KT CAVOK 09/06 Q1018 NOSIG
2026-03-28 03:30:00,METAR LEBL 280330Z 32006KT 9999 FEW025 09/06 Q1018 NOSIG
2026-03-28 03:00:00,METAR LEBL 280300Z 32005KT 9999 FEW025 09/06 Q1018 NOSIG
2026-03-28 02:30:00,METAR LEBL 280230Z 32006KT 9999 FEW025 10/06 Q1018 NOSIG
2026-03-28 02:00:00,METAR LEBL 280200Z 29007KT 240V330 9999 FEW025 12/06 Q1018 NOSIG
2026-03-28 01:30:00,METAR LEBL 280130Z 24012KT 9999 FEW025 13/07 Q1018 NOSIG
2026-03-28 01:00:00,METAR LEBL 280100Z 25011KT 9999 FEW025 13/08 Q1018 NOSIG
2026-03-28 00:30:00,METAR LEBL 280030Z 24014KT 9999 FEW025 SCT040 13/08 Q1018 NOSIG
2026-03-28 00:00:00,METAR LEBL 280000Z 26007KT 230V300 9999 FEW025 12/08 Q1018 NOSIG
2026-03-27 23:30:00,METAR LEBL 272330Z 29005KT 230V310 9999 FEW025 12/07 Q1018 NOSIG
2026-03-27 23:00:00,METAR LEBL 272300Z 24011KT CAVOK 12/07 Q1018 NOSIG
2026-03-27 22:30:00,METAR LEBL 272230Z 26005KT 200V310 CAVOK 12/08 Q1018 NOSIG
2026-03-27 22:00:00,METAR LEBL 272200Z 23008KT CAVOK 12/07 Q1018 NOSIG
2026-03-27 21:30:00,METAR LEBL 272130Z 23008KT CAVOK 12/06 Q1018 NOSIG
2026-03-27 21:00:00,METAR LEBL 272100Z 22008KT CAVOK 12/07 Q1018 NOSIG
2026-03-27 20:30:00,METAR LEBL 272030Z 22008KT 9999 FEW024 12/07 Q1017 NOSIG
2026-03-27 20:00:00,METAR LEBL 272000Z 22008KT 9999 FEW024 12/07 Q1017 NOSIG
2026-03-27 19:30:00,METAR LEBL 271930Z 21006KT 9999 FEW024 13/07 Q1017 NOSIG
2026-03-27 19:00:00,METAR LEBL 271900Z 20005KT 9999 FEW024 13/07 Q1017 NOSIG
2026-03-27 18:30:00,METAR LEBL 271830Z 19005KT 9999 FEW024 13/06 Q1017 NOSIG
2026-03-27 18:00:00,METAR LEBL 271800Z 17005KT 140V210 9999 FEW028 13/06 Q1016 NOSIG
2026-03-27 17:30:00,METAR LEBL 271730Z 14006KT 100V190 9999 FEW030 13/07 Q1016 NOSIG
2026-03-27 17:00:00,METAR LEBL 271700Z 14007KT 110V180 9999 FEW018 14/07 Q1015 NOSIG
2026-03-27 16:30:00,METAR LEBL 271630Z 15009KT 030V200 9999 FEW018 14/06 Q1015 NOSIG
2026-03-27 16:00:00,METAR LEBL 271600Z 15008KT 120V200 9999 FEW018 14/07 Q1015 NOSIG
2026-03-25 15:00:00,METAR LEBL 251500Z 22017KT CAVOK 16/12 Q1014 NOSIG
2026-03-25 14:30:00,METAR LEBL 251430Z 21016KT CAVOK 16/13 Q1014 NOSIG
2026-03-25 14:00:00,METAR LEBL 251400Z 22019KT CAVOK 17/12 Q1015 NOSIG
2026-03-25 13:30:00,METAR LEBL 251330Z 22017KT CAVOK 17/11 Q1015 NOSIG
2026-03-25 13:00:00,METAR LEBL 251300Z 23016KT CAVOK 16/11 Q1016 NOSIG
2026-03-25 12:30:00,METAR LEBL 251230Z 22017KT CAVOK 16/11 Q1016 NOSIG
2026-03-25 12:00:00,METAR LEBL 251200Z 23018KT CAVOK 16/11 Q1016 NOSIG
2026-03-25 11:30:00,METAR LEBL 251130Z 22017KT CAVOK 16/11 Q1017 NOSIG
2026-03-25 11:00:00,METAR LEBL 251100Z 22016KT 190V250 CAVOK 16/10 Q1017 NOSIG
2026-03-25 10:30:00,METAR LEBL 251030Z 22012KT CAVOK 16/11 Q1018 NOSIG
2026-03-25 10:00:00,METAR LEBL 251000Z 22011KT CAVOK 15/11 Q1018 NOSIG
2026-03-25 09:30:00,METAR LEBL 250930Z 22011KT CAVOK 15/11 Q1018 NOSIG
2026-03-25 09:00:00,METAR LEBL 250900Z 28004KT 210V340 CAVOK 16/11 Q1018 NOSIG
2026-03-25 08:30:00,METAR LEBL 250830Z 32007KT 250V010 CAVOK 13/09 Q1019 NOSIG
2026-03-25 08:00:00,METAR LEBL 250800Z 31004KT 280V340 CAVOK 12/09 Q1018 NOSIG
2026-03-25 07:30:00,METAR LEBL 250730Z 31006G17KT 210V010 CAVOK 11/08 Q1018 NOSIG
2026-03-25 07:00:00,METAR LEBL 250700Z 32008KT CAVOK 10/08 Q1019 NOSIG
2026-03-25 06:30:00,METAR LEBL 250630Z 30006KT 270V350 CAVOK 10/07 Q1019 NOSIG
2026-03-25 06:00:00,METAR LEBL 250600Z 32008KT CAVOK 10/07 Q1019 NOSIG
2026-03-25 05:30:00,METAR LEBL 250530Z 30005KT CAVOK 11/08 Q1019 NOSIG
2026-03-25 05:00:00,METAR LEBL 250500Z 30004KT 220V340 CAVOK 10/07 Q1019 NOSIG
2026-03-25 04:30:00,METAR LEBL 250430Z 29005KT 220V320 9999 FEW048 11/07 Q1019 NOSIG
2026-03-25 04:00:00,METAR LEBL 250400Z 28003KT 9999 FEW048 12/08 Q1019 NOSIG
2026-03-25 03:30:00,METAR LEBL 250330Z 30006KT 9999 FEW048 10/08 Q1019 NOSIG
2026-03-25 03:00:00,METAR LEBL 250300Z 29005KT 9999 FEW048 12/08 Q1020 NOSIG
2026-03-25 02:30:00,METAR LEBL 250230Z 30004KT 260V330 9999 FEW045 11/08 Q1020 NOSIG
2026-03-25 02:00:00,METAR LEBL 250200Z 24009KT 220V280 CAVOK 13/09 Q1020 NOSIG
2026-03-25 01:30:00,METAR LEBL 250130Z 26006KT 240V300 CAVOK 13/10 Q1021 NOSIG
2026-03-25 01:00:00,METAR LEBL 250100Z 24008KT CAVOK 13/11 Q1021 NOSIG
2026-03-25 00:30:00,METAR LEBL 250030Z 23009KT CAVOK 13/11 Q1021 NOSIG
2026-03-25 00:00:00,METAR LEBL 250000Z 24008KT CAVOK 13/11 Q1022 NOSIG
2026-03-24 23:30:00,METAR LEBL 242330Z 24008KT CAVOK 13/11 Q1022 NOSIG
2026-03-24 23:00:00,METAR LEBL 242300Z 24007KT 9999 FEW045 13/11 Q1022 NOSIG
2026-03-24 22:30:00,METAR LEBL 242230Z 25007KT 9999 FEW045 13/11 Q1022 NOSIG
2026-03-24 22:00:00,METAR LEBL 242200Z 24009KT 9999 FEW030 13/11 Q1022 NOSIG
2026-03-24 21:30:00,METAR LEBL 242130Z 24010KT 9999 FEW030 13/11 Q1022 NOSIG
2026-03-24 21:00:00,METAR LEBL 242100Z 24008KT 220V280 9999 FEW030 13/11 Q1023 NOSIG
2026-03-24 20:30:00,METAR LEBL 242030Z 24008KT 9999 FEW030 14/11 Q1022 NOSIG
2026-03-24 20:00:00,METAR LEBL 242000Z 23008KT 9999 FEW030 14/12 Q1022 NOSIG
2026-03-24 19:30:00,METAR LEBL 241930Z 24009KT 9999 FEW030 14/12 Q1022 NOSIG
2026-03-24 19:00:00,METAR LEBL 241900Z 24010KT 9999 FEW035 14/12 Q1022 NOSIG
2026-03-24 18:30:00,METAR LEBL 241830Z 23011KT 9999 FEW040 14/12 Q1021 NOSIG
2026-03-24 18:00:00,METAR LEBL 241800Z 23014KT 9999 FEW050 14/12 Q1021 NOSIG
2026-03-24 17:30:00,METAR LEBL 241730Z 23014KT 9999 FEW060 15/12 Q1021 NOSIG
2026-03-24 17:00:00,METAR LEBL 241700Z 23017KT CAVOK 15/12 Q1021 NOSIG
2026-03-24 16:30:00,METAR LEBL 241630Z 22016KT CAVOK 15/12 Q1021 NOSIG
2026-03-24 16:00:00,METAR LEBL 241600Z 22016KT 9999 FEW060 16/13 Q1021 NOSIG
2026-03-24 15:30:00,METAR LEBL 241530Z 22015KT 9999 FEW060 16/12 Q1021 NOSIG
2026-03-24 15:00:00,METAR LEBL 241500Z 21014KT 9999 FEW055 16/12 Q1021 NOSIG
2026-03-24 14:30:00,METAR LEBL 241430Z 21014KT 9999 FEW055 16/12 Q1021 NOSIG
2026-03-24 14:00:00,METAR LEBL 241400Z 21014KT 9999 FEW050 17/13 Q1022 NOSIG
2026-03-24 13:30:00,METAR LEBL 241330Z 22013KT 9999 FEW050 17/12 Q1022 NOSIG
2026-03-24 13:00:00,METAR LEBL 241300Z 21013KT 9999 FEW040 16/12 Q1022 NOSIG
2026-03-24 12:30:00,METAR LEBL 241230Z 21010KT 9999 FEW050 16/12 Q1022 NOSIG
2026-03-24 12:00:00,METAR LEBL 241200Z 20010KT 9999 FEW050 16/11 Q1023 NOSIG
2026-03-24 11:30:00,METAR LEBL 241130Z 21009KT 180V240 9999 FEW035 16/11 Q1023 NOSIG
2026-03-24 11:00:00,METAR LEBL 241100Z 21009KT 9999 FEW035 15/11 Q1023 NOSIG
2026-03-24 10:30:00,METAR LEBL 241030Z 21008KT 9999 FEW035 15/10 Q1023 NOSIG
2026-03-24 10:00:00,METAR LEBL 241000Z 28003KT 9999 FEW030 16/10 Q1024 NOSIG
2026-03-24 09:30:00,METAR LEBL 240930Z 30004KT 250V330 9999 FEW020 16/11 Q1024 NOSIG
2026-03-24 09:00:00,METAR LEBL 240900Z 31007KT 250V330 9999 FEW023 15/10 Q1024 NOSIG
2026-03-24 08:30:00,METAR LEBL 240830Z 32007KT 9000 FEW022 SCT050 13/10 Q1023 NOSIG
2026-03-24 08:00:00,METAR LEBL 240800Z 32007KT 270V350 8000 FEW022 12/09 Q1023 NOSIG
2026-03-24 07:30:00,METAR LEBL 240730Z 33009KT 290V010 8000 FEW022 10/09 Q1023 NOSIG
2026-03-24 07:00:00,METAR LEBL 240700Z 34009G21KT 300V050 8000 FEW025 10/08 Q1023 NOSIG
2026-03-24 06:30:00,METAR LEBL 240630Z 33009KT 8000 FEW045 09/08 Q1022 NOSIG
2026-03-24 06:00:00,METAR LEBL 240600Z 32008KT 9000 FEW045 09/08 Q1022 NOSIG
2026-03-24 05:30:00,METAR LEBL 240530Z 32008KT 9000 FEW025 09/08 Q1022 NOSIG
2026-03-24 05:00:00,METAR LEBL 240500Z 33009KT 9000 FEW020 09/08 Q1022 NOSIG
2026-03-24 04:30:00,METAR LEBL 240430Z 32008KT 9000 FEW020 09/08 Q1022 NOSIG
2026-03-24 04:00:00,METAR LEBL 240400Z 32009KT 9000 FEW020 10/09 Q1021 NOSIG
2026-03-24 03:30:00,METAR LEBL 240330Z 32010KT 9000 FEW020 10/09 Q1021 NOSIG
2026-03-24 03:00:00,METAR LEBL 240300Z 33008KT 9999 FEW020 10/09 Q1021 NOSIG
2026-03-24 02:30:00,METAR LEBL 240230Z 33007KT 9999 FEW020 10/09 Q1021 NOSIG
2026-03-24 02:00:00,METAR LEBL 240200Z 32007KT 9999 FEW020 10/09 Q1021 NOSIG
2026-03-24 01:30:00,METAR LEBL 240130Z 32006KT 9999 FEW020 11/09 Q1022 NOSIG
2026-03-24 01:00:00,METAR LEBL 240100Z 33007KT 9999 FEW020 11/09 Q1022 NOSIG
2026-03-24 00:30:00,METAR LEBL 240030Z 33006KT 9999 FEW020 11/09 Q1022 NOSIG
2026-03-24 00:00:00,METAR LEBL 240000Z 33006KT 9999 FEW020 11/09 Q1022 NOSIG
2026-03-23 23:30:00,METAR LEBL 232330Z 33005KT 9999 FEW020 SCT045 12/09 Q1022 NOSIG
2026-03-23 23:00:00,METAR LEBL 232300Z 33004KT 9999 FEW015 SCT045 12/09 Q1022 NOSIG
2026-03-23 22:30:00,METAR LEBL 232230Z 32005KT 9999 FEW020 12/10 Q1022 NOSIG
2026-03-23 22:00:00,METAR LEBL 232200Z 29003KT 9999 FEW050 SCT064 13/10 Q1022 NOSIG
2026-03-23 21:30:00,METAR LEBL 232130Z 30003KT 9999 FEW060 13/10 Q1022 NOSIG
2026-03-23 21:00:00,METAR LEBL 232100Z 00000KT 9999 FEW050 14/09 Q1022 NOSIG
2026-03-23 20:30:00,METAR LEBL 232030Z 00000KT 9999 FEW046 SCT056 14/09 Q1021 NOSIG
2026-03-23 20:00:00,METAR LEBL 232000Z 00000KT 9999 FEW046 SCT056 14/09 Q1021 NOSIG
2026-03-23 19:30:00,METAR LEBL 231930Z 10003KT 9999 FEW046 SCT056 14/09 Q1021 NOSIG
2026-03-23 19:00:00,METAR LEBL 231900Z 07001KT 9999 FEW058 14/09 Q1020 NOSIG
2026-03-23 18:30:00,METAR LEBL 231830Z 08004KT 040V110 9999 FEW048 14/09 Q1020 NOSIG
2026-03-23 18:00:00,METAR LEBL 231800Z VRB02KT 9999 FEW048 14/09 Q1019 NOSIG
2026-03-23 17:30:00,METAR LEBL 231730Z 07005KT 050V110 9999 FEW045 15/09 Q1019 NOSIG
2026-03-23 17:00:00,METAR LEBL 231700Z 10005KT 080V140 9999 FEW040 15/09 Q1019 NOSIG
2026-03-23 16:30:00,METAR LEBL 231630Z 08005KT 040V130 9999 FEW040 15/10 Q1018 NOSIG
2026-03-23 16:00:00,METAR LEBL 231600Z 12006KT 9999 FEW050 15/11 Q1018 NOSIG
2026-03-23 15:30:00,METAR LEBL 231530Z 12007KT 080V150 9999 FEW044 SCT060 15/11 Q1018 NOSIG
2026-03-23 15:00:00,METAR LEBL 231500Z 12008KT 090V150 9999 FEW044 BKN060 15/11 Q1018 NOSIG
2026-03-23 14:30:00,METAR LEBL 231430Z 15006KT 120V190 9999 FEW040 BKN060 15/10 Q1017 NOSIG
2026-03-23 14:00:00,METAR LEBL 231400Z 12008KT 9999 SCT037 15/10 Q1017 NOSIG
2026-03-23 13:30:00,METAR LEBL 231330Z 10010KT 070V170 9999 BKN037 15/09 Q1017 NOSIG
2026-03-23 13:00:00,METAR LEBL 231300Z 10007KT 070V130 9999 SCT037 16/10 Q1017 NOSIG
2026-03-23 12:30:00,METAR LEBL 231230Z 10008KT 070V140 9999 FEW020 15/09 Q1017 NOSIG
2026-03-23 12:00:00,METAR LEBL 231200Z 11009KT 080V140 9999 FEW020 15/09 Q1017 NOSIG
2026-03-23 11:30:00,METAR LEBL 231130Z 10009KT 070V130 9999 FEW020 14/09 Q1017 NOSIG
2026-03-23 11:00:00,METAR LEBL 231100Z 08009KT 9999 FEW020 14/09 Q1017 NOSIG
2026-03-23 10:30:00,METAR LEBL 231030Z 08011KT 050V110 CAVOK 14/09 Q1017 NOSIG
2026-03-23 10:00:00,METAR LEBL 231000Z 08009KT 9999 FEW020 13/09 Q1016 NOSIG
2026-03-23 09:30:00,METAR LEBL 230930Z 08009KT 9999 FEW020 13/09 Q1016 NOSIG
2026-03-23 09:00:00,METAR LEBL 230900Z 08009KT 040V100 9999 FEW020 13/09 Q1016 NOSIG
2026-03-23 08:30:00,METAR LEBL 230830Z 08010KT 9999 FEW020 13/09 Q1016 NOSIG
2026-03-23 08:00:00,METAR LEBL 230800Z 07012KT 9999 FEW020 12/09 Q1015 NOSIG
2026-03-23 07:30:00,METAR LEBL 230730Z 08012KT 030V100 9999 FEW020 11/08 Q1015 NOSIG
2026-03-23 07:00:00,METAR LEBL 230700Z 08016KT CAVOK 11/08 Q1015 NOSIG
2026-03-23 06:30:00,METAR LEBL 230630Z 07016KT 030V110 9999 FEW062 11/08 Q1015 NOSIG
2026-03-23 06:00:00,METAR LEBL 230600Z 07014G26KT 040V100 9999 FEW057 11/09 Q1014 NOSIG
2026-03-23 05:30:00,METAR LEBL 230530Z 07011KT 040V100 9999 FEW057 12/09 Q1014 NOSIG
2026-03-23 05:00:00,METAR LEBL 230500Z 08013KT 9999 BKN050 12/09 Q1013 NOSIG
2026-03-23 04:30:00,METAR LEBL 230430Z 08010KT 050V110 9999 BKN040 BKN050 12/10 Q1013 NOSIG
2026-03-23 04:00:00,METAR LEBL 230400Z 07006KT 9999 SCT031 BKN038 BKN050 12/10 Q1013 NOSIG
2026-03-23 03:30:00,METAR LEBL 230330Z 07009KT 9999 BKN030 BKN050 12/10 Q1013 NOSIG
2026-03-23 03:00:00,METAR LEBL 230300Z 06012KT 9999 BKN028 BKN059 12/10 Q1013 NOSIG
2026-03-23 02:30:00,METAR LEBL 230230Z 06018KT 9999 BKN025 BKN058 12/11 Q1012 NOSIG
2026-03-23 02:00:00,METAR LEBL 230200Z 08014KT 9999 SCT016 BKN027 13/12 Q1012 NOSIG
2026-03-23 01:30:00,METAR LEBL 230130Z 07004KT 040V100 8000 SCT014 BKN022 13/13 Q1012 NOSIG
2026-03-23 01:00:00,METAR LEBL 230100Z 05006KT 8000 SCT018 13/13 Q1012 NOSIG
2026-03-23 00:30:00,METAR LEBL 230030Z 04004KT 9000 FEW038 13/13 Q1012 NOSIG
2026-03-23 00:00:00,METAR LEBL 230000Z COR 03004KT 9999 FEW029 SCT060 13/13 Q1012 NOSIG
2026-03-22 23:30:00,METAR LEBL 222330Z VRB01KT 9999 -RA FEW023 SCT059 13/13 Q1012 NOSIG
2026-03-22 23:00:00,METAR LEBL 222300Z 08002KT 9000 -RA FEW023 SCT059 13/13 Q1012 NOSIG
2026-03-22 22:30:00,METAR LEBL 222230Z 06007KT 9000 -RA FEW023 SCT059 13/13 Q1012 NOSIG
2026-03-22 22:00:00,METAR LEBL 222200Z VRB02KT 9000 -RA FEW023 SCT059 13/11 Q1012 NOSIG
2026-03-22 21:30:00,METAR LEBL 222130Z 29003KT 270V340 9999 -RA FEW023 SCT059 13/11 Q1012 NOSIG
2026-03-22 21:00:00,METAR LEBL 222100Z VRB02KT 9999 -RA SCT059 14/10 Q1011 NOSIG
2026-03-22 20:30:00,METAR LEBL 222030Z 26004KT 240V320 9999 FEW020 SCT059 13/11 Q1011 NOSIG
2026-03-22 20:00:00,METAR LEBL 222000Z 25006KT 9999 SCT018 14/11 Q1011 NOSIG
2026-03-22 19:30:00,METAR LEBL 221930Z 25010KT 9999 FEW018 13/11 Q1011 NOSIG
2026-03-22 19:00:00,METAR LEBL 221900Z 25008KT 9999 FEW015 13/12 Q1010 NOSIG
2026-03-22 18:30:00,METAR LEBL 221830Z 23009KT 9999 FEW017 13/12 Q1010 NOSIG
2026-03-22 18:00:00,METAR LEBL 221800Z 24011KT 9999 FEW020 14/12 Q1010 NOSIG
2026-03-22 17:30:00,METAR LEBL 221730Z 23016KT 9999 FEW020 14/11 Q1009 NOSIG
2026-03-22 17:00:00,METAR LEBL 221700Z 23017KT 9999 FEW020 14/12 Q1009 NOSIG
2026-03-22 16:30:00,METAR LEBL 221630Z 22016KT 9999 FEW020 15/11 Q1009 NOSIG
2026-03-22 16:00:00,METAR LEBL 221600Z 22015KT 9999 FEW020 15/11 Q1009 NOSIG
2026-03-22 15:30:00,METAR LEBL 221530Z 22014KT 9999 FEW020 15/11 Q1009 NOSIG
2026-03-22 15:00:00,METAR LEBL 221500Z 22015KT 9999 FEW020 15/11 Q1009 NOSIG
2026-03-22 14:30:00,METAR LEBL 221430Z 23016KT 9999 FEW020 15/12 Q1009 NOSIG
2026-03-22 14:00:00,METAR LEBL 221400Z 22017KT 9999 FEW020 15/11 Q1009 NOSIG
2026-03-22 13:30:00,METAR LEBL 221330Z 22018KT 9999 FEW020 16/12 Q1009 NOSIG
2026-03-22 12:30:00,METAR LEBL 221230Z 22017KT 9999 FEW020 15/11 Q1010 NOSIG
2026-03-22 12:00:00,METAR LEBL 221200Z 22017KT 9999 FEW020 14/11 Q1010 NOSIG
2026-03-22 11:30:00,METAR LEBL 221130Z 23018KT 9999 FEW020 14/11 Q1010 NOSIG
2026-03-22 10:30:00,METAR LEBL 221030Z 22017KT 9999 FEW020 14/11 Q1011 NOSIG
2026-03-22 10:00:00,METAR LEBL 221000Z 23017KT 9999 FEW020 13/11 Q1011 NOSIG
2026-03-22 09:30:00,METAR LEBL 220930Z 23015KT 9999 FEW020 14/11 Q1011 NOSIG
2026-03-22 08:30:00,METAR LEBL 220830Z 31007KT 280V350 9999 FEW020 10/05 Q1011 NOSIG
2026-03-22 08:00:00,METAR LEBL 220800Z 32009G19KT 260V350 9999 FEW020 09/04 Q1011 NOSIG
2026-03-22 07:30:00,METAR LEBL 220730Z 32007KT 9999 FEW020 09/04 Q1011 NOSIG
2026-03-22 07:00:00,METAR LEBL 220700Z 32007G17KT 250V010 9999 FEW020 08/05 Q1011 NOSIG
2026-03-22 06:30:00,METAR LEBL 220630Z 31006G16KT 260V350 9999 FEW020 08/04 Q1011 NOSIG
2026-03-22 05:30:00,METAR LEBL 220530Z 32008KT 9999 FEW030 07/04 Q1011 NOSIG
2026-03-22 05:00:00,METAR LEBL 220500Z 32008KT 9999 FEW030 07/04 Q1011 NOSIG
2026-03-22 04:30:00,METAR LEBL 220430Z 32007KT CAVOK 07/04 Q1011 NOSIG
2026-03-22 03:30:00,METAR LEBL 220330Z 32007KT 9999 FEW030 08/05 Q1011 NOSIG
2026-03-22 03:00:00,METAR LEBL 220300Z 32006KT 9999 FEW030 08/05 Q1011 NOSIG
2026-03-22 02:30:00,METAR LEBL 220230Z 32006KT 9999 FEW030 09/06 Q1011 NOSIG
2026-03-22 02:00:00,METAR LEBL 220200Z 33006KT 9999 FEW030 08/06 Q1011 NOSIG
2026-03-22 01:30:00,METAR LEBL 220130Z 31007KT 9999 FEW030 09/07 Q1011 NOSIG
2026-03-22 01:00:00,METAR LEBL 220100Z 32007KT 9999 FEW030 08/07 Q1011 NOSIG
2026-03-22 00:30:00,METAR LEBL 220030Z 32007KT CAVOK 08/07 Q1011 NOSIG
2026-03-22 00:00:00,METAR LEBL 220000Z 31007KT CAVOK 08/06 Q1012 NOSIG
2026-03-21 23:30:00,METAR LEBL 212330Z 32006KT CAVOK 08/07 Q1012 NOSIG
2026-03-21 23:00:00,METAR LEBL 212300Z 32006KT CAVOK 09/07 Q1012 NOSIG
2026-03-21 22:30:00,METAR LEBL 212230Z 31004KT CAVOK 10/07 Q1013 NOSIG
2026-03-21 21:30:00,METAR LEBL 212130Z 32002KT CAVOK 11/08 Q1012 NOSIG
2026-03-21 21:00:00,METAR LEBL 212100Z 28003KT CAVOK 11/08 Q1012 NOSIG
2026-03-21 20:30:00,METAR LEBL 212030Z 29004KT 260V340 CAVOK 11/09 Q1013 NOSIG
2026-03-21 19:30:00,METAR LEBL 211930Z 23005KT CAVOK 12/09 Q1012 NOSIG
2026-03-21 19:00:00,METAR LEBL 211900Z 22005KT CAVOK 13/09 Q1012 NOSIG
2026-03-21 18:30:00,METAR LEBL 211830Z 22006KT CAVOK 13/09 Q1012 NOSIG
2026-03-21 18:00:00,METAR LEBL 211800Z 22006KT CAVOK 13/10 Q1012 NOSIG
2026-03-21 17:30:00,METAR LEBL 211730Z 22008KT CAVOK 14/09 Q1012 NOSIG
2026-03-21 17:00:00,METAR LEBL 211700Z 21008KT CAVOK 15/09 Q1011 NOSIG
2026-03-21 16:30:00,METAR LEBL 211630Z 21010KT CAVOK 15/10 Q1011 NOSIG
2026-03-21 16:00:00,METAR LEBL 211600Z 21009KT 170V240 CAVOK 15/09 Q1011 NOSIG
2026-03-21 15:30:00,METAR LEBL 211530Z 20010KT CAVOK 15/09 Q1012 NOSIG
2026-03-21 14:30:00,METAR LEBL 211430Z 20009KT 160V230 CAVOK 15/08 Q1012 NOSIG
2026-03-21 14:00:00,METAR LEBL 211400Z 20009KT 160V230 CAVOK 15/08 Q1012 NOSIG
2026-03-21 13:30:00,METAR LEBL 211330Z 21009KT CAVOK 15/06 Q1012 NOSIG
2026-03-21 13:00:00,METAR LEBL 211300Z 19009KT 160V220 CAVOK 15/06 Q1012 NOSIG
2026-03-21 12:30:00,METAR LEBL 211230Z 19010KT 160V220 CAVOK 15/07 Q1013 NOSIG
2026-03-21 12:00:00,METAR LEBL 211200Z 20009KT 160V220 CAVOK 15/06 Q1013 NOSIG
2026-03-21 11:30:00,METAR LEBL 211130Z 19009KT CAVOK 15/07 Q1013 NOSIG
2026-03-21 11:00:00,METAR LEBL 211100Z 17006KT 130V190 CAVOK 15/07 Q1013 NOSIG
2026-03-21 10:30:00,METAR LEBL 211030Z 27001KT CAVOK 16/02 Q1013 NOSIG
2026-03-21 10:00:00,METAR LEBL 211000Z 32004KT 260V020 CAVOK 15/03 Q1013 NOSIG
2026-03-21 09:30:00,METAR LEBL 210930Z 31007G20KT 270V350 CAVOK 14/07 Q1013 NOSIG
2026-03-21 09:00:00,METAR LEBL 210900Z 32009KT 270V350 CAVOK 12/04 Q1014 NOSIG
2026-03-21 08:30:00,METAR LEBL 210830Z 32012G24KT CAVOK 10/03 Q1014 NOSIG
2026-03-21 08:00:00,METAR LEBL 210800Z 32011KT 280V010 CAVOK 08/03 Q1013 NOSIG
2026-03-21 07:30:00,METAR LEBL 210730Z 32012KT 280V350 CAVOK 07/02 Q1013 NOSIG
2026-03-21 07:00:00,METAR LEBL 210700Z 32012G24KT 250V350 CAVOK 06/02 Q1013 NOSIG
2026-03-21 06:30:00,METAR LEBL 210630Z 33013KT CAVOK 06/02 Q1013 NOSIG
2026-03-21 06:00:00,METAR LEBL 210600Z 33013KT CAVOK 06/02 Q1013 NOSIG
2026-03-21 05:30:00,METAR LEBL 210530Z 33012KT 9999 FEW030 06/02 Q1013 NOSIG
2026-03-21 05:00:00,METAR LEBL 210500Z 33013KT 9999 FEW030 06/02 Q1013 NOSIG
2026-03-21 04:30:00,METAR LEBL 210430Z 33012KT 9999 FEW030 07/02 Q1013 NOSIG
2026-03-21 04:00:00,METAR LEBL 210400Z 33011KT 9999 FEW030 07/02 Q1013 NOSIG
2026-03-21 03:30:00,METAR LEBL 210330Z 33011KT 9999 FEW030 07/03 Q1013 NOSIG
2026-03-21 03:00:00,METAR LEBL 210300Z 33011KT CAVOK 07/03 Q1013 NOSIG
2026-03-21 02:30:00,METAR LEBL 210230Z 33011KT CAVOK 07/03 Q1013 NOSIG
2026-03-21 02:00:00,METAR LEBL 210200Z 33011KT CAVOK 08/03 Q1014 NOSIG
2026-03-21 01:30:00,METAR LEBL 210130Z 33010KT CAVOK 08/04 Q1014 NOSIG
2026-03-21 01:00:00,METAR LEBL 210100Z 33010KT CAVOK 08/05 Q1014 NOSIG
2026-03-21 00:30:00,METAR LEBL 210030Z 33010KT CAVOK 08/05 Q1014 NOSIG
2026-03-21 00:00:00,METAR LEBL 210000Z 33010KT CAVOK 08/06 Q1015 NOSIG
2026-03-20 23:30:00,METAR LEBL 202330Z 33008KT 9000 NSC 09/07 Q1015 NOSIG
2026-03-20 23:00:00,METAR LEBL 202300Z 32007KT 9000 NSC 09/08 Q1015 NOSIG
2026-03-20 22:30:00,METAR LEBL 202230Z 33007KT 9000 FEW025 10/08 Q1015 NOSIG
2026-03-20 21:30:00,METAR LEBL 202130Z 33005KT 9999 FEW025 10/08 Q1015 NOSIG
2026-03-20 21:00:00,METAR LEBL 202100Z VRB02KT 9999 FEW025 11/09 Q1015 NOSIG
2026-03-20 20:30:00,METAR LEBL 202030Z 00000KT 9999 FEW025 13/11 Q1015 NOSIG
2026-03-20 20:00:00,METAR LEBL 202000Z 02002KT 9999 FEW025 13/10 Q1015 NOSIG
2026-03-20 19:30:00,METAR LEBL 201930Z 06003KT 9999 FEW025 13/11 Q1015 NOSIG
2026-03-20 19:00:00,METAR LEBL 201900Z 09003KT 9999 FEW025 14/11 Q1015 NOSIG
2026-03-20 18:30:00,METAR LEBL 201830Z 08003KT 040V110 9999 FEW025 13/11 Q1015 NOSIG
2026-03-20 18:00:00,METAR LEBL 201800Z 10005KT 9999 FEW025 14/11 Q1015 NOSIG
2026-03-20 17:30:00,METAR LEBL 201730Z 10005KT 9999 FEW025 14/10 Q1015 NOSIG
2026-03-20 17:00:00,METAR LEBL 201700Z 10007KT 9999 FEW025 15/10 Q1015 NOSIG
2026-03-20 16:30:00,METAR LEBL 201630Z 10007KT 9999 FEW025 15/10 Q1014 NOSIG
2026-03-20 16:00:00,METAR LEBL 201600Z 10007KT 070V130 9999 FEW025 16/09 Q1015 NOSIG
2026-03-20 15:30:00,METAR LEBL 201530Z 10008KT 9999 FEW025 16/10 Q1015 NOSIG
2026-03-20 15:00:00,METAR LEBL 201500Z 09008KT 060V120 9999 FEW026 16/09 Q1015 NOSIG
2026-03-20 14:30:00,METAR LEBL 201430Z 08011KT 9999 FEW029 16/09 Q1015 NOSIG
2026-03-20 14:00:00,METAR LEBL 201400Z 07011KT 9999 FEW031 16/08 Q1015 NOSIG
2026-03-20 13:30:00,METAR LEBL 201330Z 07012KT 9999 FEW036 16/07 Q1016 NOSIG
2026-03-20 12:30:00,METAR LEBL 201230Z 07012KT 040V100 9999 FEW040 16/06 Q1016 NOSIG
2026-03-20 11:30:00,METAR LEBL 201130Z 08011KT 050V110 9999 FEW050 16/03 Q1017 NOSIG
2026-03-20 10:30:00,METAR LEBL 201030Z 09007KT 050V130 9999 FEW055 16/01 Q1017 NOSIG
2026-03-20 10:00:00,METAR LEBL 201000Z 06007KT 9999 FEW055 16/02 Q1017 NOSIG
2026-03-20 09:30:00,METAR LEBL 200930Z 03004KT 280V070 9999 FEW038 14/05 Q1017 NOSIG
2026-03-20 09:00:00,METAR LEBL 200900Z 32006KT 280V360 CAVOK 13/05 Q1017 NOSIG
2026-03-20 08:30:00,METAR LEBL 200830Z 33007KT 240V010 CAVOK 11/04 Q1017 NOSIG
2026-03-20 08:00:00,METAR LEBL 200800Z 33008KT CAVOK 09/04 Q1017 NOSIG
2026-03-20 07:30:00,METAR LEBL 200730Z 33010G22KT 250V350 CAVOK 08/04 Q1016 NOSIG
2026-03-20 06:30:00,METAR LEBL 200630Z 33011G21KT 290V350 CAVOK 07/03 Q1016 NOSIG
2026-03-20 06:00:00,METAR LEBL 200600Z 33010KT CAVOK 06/03 Q1016 NOSIG
2026-03-20 05:30:00,METAR LEBL 200530Z 33009KT CAVOK 07/04 Q1016 NOSIG
2026-03-20 05:00:00,METAR LEBL 200500Z 33010KT CAVOK 07/04 Q1016 NOSIG
2026-03-20 04:30:00,METAR LEBL 200430Z 33010KT CAVOK 07/04 Q1016 NOSIG
2026-03-20 04:00:00,METAR LEBL 200400Z 33010KT CAVOK 07/05 Q1016 NOSIG
2026-03-20 03:30:00,METAR LEBL 200330Z 33010KT CAVOK 07/05 Q1016 NOSIG
2026-03-20 03:00:00,METAR LEBL 200300Z 33009KT CAVOK 08/06 Q1016 NOSIG
2026-03-20 02:30:00,METAR LEBL 200230Z 33010KT 8000 FEW020 08/06 Q1016 NOSIG
2026-03-20 02:00:00,METAR LEBL 200200Z 33010KT 8000 FEW020 08/07 Q1016 NOSIG
2026-03-20 01:30:00,METAR LEBL 200130Z 32009KT 8000 FEW020 08/07 Q1017 NOSIG
2026-03-20 01:00:00,METAR LEBL 200100Z 32010KT 8000 FEW020 09/07 Q1017 NOSIG
2026-03-20 00:30:00,METAR LEBL 200030Z 33008KT 8000 FEW020 09/07 Q1017 NOSIG
2026-03-20 00:00:00,METAR LEBL 200000Z 33007KT 8000 FEW020 09/07 Q1017 NOSIG
2026-03-19 23:30:00,METAR LEBL 192330Z 33008KT CAVOK 09/07 Q1017 NOSIG
2026-03-19 23:00:00,METAR LEBL 192300Z 33007KT CAVOK 09/08 Q1017 NOSIG
2026-03-19 22:30:00,METAR LEBL 192230Z 32006KT CAVOK 10/08 Q1017 NOSIG
2026-03-19 22:00:00,METAR LEBL 192200Z 33006KT CAVOK 10/08 Q1018 NOSIG
2026-03-19 21:30:00,METAR LEBL 192130Z 33005KT CAVOK 10/08 Q1018 NOSIG
2026-03-19 21:00:00,METAR LEBL 192100Z 34005KT CAVOK 11/08 Q1017 NOSIG
2026-03-19 20:30:00,METAR LEBL 192030Z 02004KT 9999 FEW020 13/08 Q1017 NOSIG
2026-03-19 20:00:00,METAR LEBL 192000Z 36002KT 9999 FEW025 13/08 Q1017 NOSIG
2026-03-19 19:30:00,METAR LEBL 191930Z 04003KT 9999 FEW037 13/09 Q1017 NOSIG
2026-03-19 19:00:00,METAR LEBL 191900Z 06006KT 9999 FEW020 SCT045 13/09 Q1017 NOSIG
2026-03-19 18:30:00,METAR LEBL 191830Z 06006KT 9000 FEW020 SCT045 13/09 Q1017 NOSIG
2026-03-19 18:00:00,METAR LEBL 191800Z 06008KT 9999 FEW025 SCT045 14/09 Q1017 NOSIG
2026-03-19 17:30:00,METAR LEBL 191730Z 06009KT 9000 SCT025 BKN045 14/09 Q1017 NOSIG
2026-03-19 17:00:00,METAR LEBL 191700Z 06006KT 9000 FEW020 SCT063 14/09 Q1017 NOSIG
2026-03-19 16:30:00,METAR LEBL 191630Z 06011KT 9000 SCT022 SCT063 14/09 Q1016 NOSIG
2026-03-19 16:00:00,METAR LEBL 191600Z 06011KT 9000 SCT022 BKN063 14/09 Q1016 NOSIG
2026-03-19 15:30:00,METAR LEBL 191530Z 06013KT 040V100 9000 SCT022 BKN055 15/09 Q1016 NOSIG
2026-03-19 15:00:00,METAR LEBL 191500Z 06011KT 9000 SCT027 BKN053 14/08 Q1017 NOSIG
2026-03-19 14:30:00,METAR LEBL 191430Z 06012KT 9000 FEW020 SCT027 BKN053 14/08 Q1017 NOSIG
2026-03-19 14:00:00,METAR LEBL 191400Z 06012KT 9000 FEW020 SCT027 BKN050 14/09 Q1017 NOSIG
2026-03-19 13:30:00,METAR LEBL 191330Z 06012KT 9000 SCT027 BKN056 15/08 Q1017 NOSIG
2026-03-19 13:00:00,METAR LEBL 191300Z 06011KT 9000 SCT027 BKN058 15/08 Q1017 NOSIG
2026-03-19 12:30:00,METAR LEBL 191230Z 07012KT 040V100 9999 SCT028 BKN060 15/08 Q1018 NOSIG
2026-03-19 12:00:00,METAR LEBL 191200Z 06012KT 9000 SCT028 SCT036 BKN064 15/09 Q1018 NOSIG
2026-03-19 11:30:00,METAR LEBL 191130Z 08012KT 050V110 9000 FEW020 SCT028 BKN064 15/08 Q1018 NOSIG
2026-03-19 11:00:00,METAR LEBL 191100Z 07011KT 040V100 9000 SCT025 SCT032 BKN058 14/09 Q1018 NOSIG
2026-03-19 10:30:00,METAR LEBL 191030Z 06010KT 9999 -RA SCT026 BKN035 BKN045 14/10 Q1018 NOSIG
2026-03-19 10:00:00,METAR LEBL 191000Z COR 06009KT 030V090 9000 -RA SCT026 BKN035 BKN045 14/09 Q1018 NOSIG
2026-03-19 09:30:00,METAR LEBL 190930Z 05012KT 9999 SCT024 BKN033 14/08 Q1018 NOSIG
2026-03-19 09:00:00,METAR LEBL 190900Z 06012KT 9999 SCT025 SCT035 15/08 Q1018 NOSIG
2026-03-19 08:30:00,METAR LEBL 190830Z 05011KT 9999 SCT023 SCT055 14/07 Q1017 NOSIG
2026-03-19 08:00:00,METAR LEBL 190800Z 06013KT 020V080 9999 SCT025 SCT035 14/07 Q1017 NOSIG
2026-03-19 07:30:00,METAR LEBL 190730Z 06012KT 9999 SCT025 SCT032 13/08 Q1017 NOSIG
2026-03-19 07:00:00,METAR LEBL 190700Z 04007KT 010V070 9999 SCT025 SCT033 BKN045 13/07 Q1016 NOSIG
2026-03-19 06:30:00,METAR LEBL 190630Z 05009KT 9999 SCT025 SCT032 BKN049 12/07 Q1016 NOSIG
2026-03-19 06:00:00,METAR LEBL 190600Z 05009KT 9999 SCT025 SCT037 12/08 Q1016 NOSIG
2026-03-19 05:30:00,METAR LEBL 190530Z 05010KT 9999 SCT025 SCT035 12/08 Q1016 NOSIG
2026-03-19 05:00:00,METAR LEBL 190500Z 07013KT 9999 SCT025 BKN035 BKN042 13/07 Q1016 NOSIG
2026-03-19 04:30:00,METAR LEBL 190430Z 07014KT 9999 BKN025 BKN030 BKN043 13/08 Q1016 NOSIG
2026-03-19 04:00:00,METAR LEBL 190400Z COR 07013KT 040V100 9999 -RA SCT025 SCT035 BKN044 13/08 Q1016 NOSIG
2026-03-19 03:30:00,METAR LEBL 190330Z 07013KT 9999 SCT025 SCT035 BKN055 13/08 Q1016 NOSIG
2026-03-19 03:00:00,METAR LEBL 190300Z 08013KT 9999 SCT025 SCT035 BKN055 13/08 Q1016 NOSIG
2026-03-19 02:30:00,METAR LEBL 190230Z 08014KT 060V120 9999 FEW013 SCT025 BKN057 13/08 Q1016 NOSIG
2026-03-19 02:00:00,METAR LEBL 190200Z 08012KT 9999 FEW010 SCT025 BKN043 13/08 Q1016 NOSIG
2026-03-19 01:30:00,METAR LEBL 190130Z 08013KT 9999 SCT025 SCT035 BKN050 13/08 Q1016 NOSIG
2026-03-19 01:00:00,METAR LEBL 190100Z 07013KT 9999 FEW015 SCT025 BKN048 13/08 Q1016 NOSIG
2026-03-19 00:30:00,METAR LEBL 190030Z 08015KT 9999 FEW020 SCT027 BKN040 13/08 Q1016 NOSIG
2026-03-19 00:00:00,METAR LEBL 190000Z 08016KT 9999 FEW020 SCT025 BKN052 13/07 Q1016 NOSIG
2026-03-18 23:30:00,METAR LEBL 182330Z 08015KT 9999 FEW010 SCT025 BKN046 13/08 Q1016 NOSIG
2026-03-18 23:00:00,METAR LEBL 182300Z 08015KT 040V100 9999 BKN022 BKN028 BKN044 13/09 Q1016 NOSIG
2026-03-18 22:30:00,METAR LEBL 182230Z 08017KT 9999 BKN022 BKN028 BKN045 13/09 Q1015 NOSIG
2026-03-18 22:00:00,METAR LEBL 182200Z 08017KT 9000 -RA BKN018 BKN024 BKN038 14/10 Q1015 NOSIG
2026-03-18 21:30:00,METAR LEBL 182130Z 07015KT 040V100 9000 BKN017 BKN024 BKN033 14/10 Q1015 NOSIG
2026-03-18 21:00:00,METAR LEBL 182100Z 08015G25KT 9000 BKN017 BKN037 BKN047 14/10 Q1015 NOSIG
2026-03-18 20:30:00,METAR LEBL 182030Z 09017KT 9000 SCT015 BKN026 BKN033 14/10 Q1014 NOSIG
2026-03-18 20:00:00,METAR LEBL 182000Z 08015G27KT 9999 SCT015 BKN023 BKN050 14/11 Q1014 NOSIG
2026-03-18 19:30:00,METAR LEBL 181930Z 08013KT 9999 FEW015 SCT052 14/11 Q1013 NOSIG
2026-03-18 19:00:00,METAR LEBL 181900Z 08014KT 9999 FEW017 14/11 Q1013 NOSIG
2026-03-18 18:30:00,METAR LEBL 181830Z 07017KT 9999 FEW018 14/11 Q1013 NOSIG
2026-03-18 18:00:00,METAR LEBL 181800Z 08018KT 9999 FEW018 14/11 Q1012 NOSIG
2026-03-18 17:30:00,METAR LEBL 181730Z 08016KT 9999 SCT018 14/11 Q1012 NOSIG
2026-03-18 17:00:00,METAR LEBL 181700Z 07017KT 9999 FEW015 15/11 Q1012 NOSIG
2026-03-18 16:30:00,METAR LEBL 181630Z 08014KT 9999 FEW015 15/11 Q1011 NOSIG
2026-03-18 16:00:00,METAR LEBL 181600Z 09013KT 9999 SCT015 15/11 Q1011 NOSIG
2026-03-18 15:30:00,METAR LEBL 181530Z 08014KT 9999 FEW015 15/11 Q1011 NOSIG
2026-03-18 15:00:00,METAR LEBL 181500Z 08014KT 050V110 9999 FEW025 15/11 Q1010 NOSIG
2026-03-18 14:30:00,METAR LEBL 181430Z 08012KT 040V110 9999 FEW020 15/10 Q1010 NOSIG
2026-03-18 14:00:00,METAR LEBL 181400Z 09010KT 9999 FEW020 15/10 Q1010 NOSIG
2026-03-18 13:30:00,METAR LEBL 181330Z 10010KT 9999 FEW020 16/11 Q1010 NOSIG
2026-03-18 13:00:00,METAR LEBL 181300Z 10008KT 060V120 9999 FEW020 15/10 Q1010 NOSIG
2026-03-18 12:30:00,METAR LEBL 181230Z 09009KT 9999 FEW015 15/11 Q1010 NOSIG
2026-03-18 12:00:00,METAR LEBL 181200Z 08007KT 060V120 9999 FEW015 15/11 Q1011 NOSIG
2026-03-18 11:30:00,METAR LEBL 181130Z 09006KT 060V130 9999 FEW012 15/11 Q1011 NOSIG
2026-03-18 11:00:00,METAR LEBL 181100Z 10006KT 060V130 9999 FEW013 15/11 Q1011 NOSIG
2026-03-18 10:30:00,METAR LEBL 181030Z 05006KT 020V100 9999 FEW012 14/11 Q1011 NOSIG
2026-03-18 10:00:00,METAR LEBL 181000Z 06006KT 030V110 9000 FEW012 14/11 Q1011 NOSIG
2026-03-18 09:30:00,METAR LEBL 180930Z 06006KT 020V080 9000 FEW009 13/11 Q1011 NOSIG
2026-03-18 09:00:00,METAR LEBL 180900Z 07006KT 020V100 8000 FEW008 13/11 Q1011 NOSIG
2026-03-18 08:30:00,METAR LEBL 180830Z 34003KT 9000 FEW006 12/10 Q1011 NOSIG
2026-03-18 08:00:00,METAR LEBL 180800Z 33004KT 260V010 9999 SCT006 10/08 Q1012 NOSIG
2026-03-18 07:30:00,METAR LEBL 180730Z 33005G16KT 210V010 9999 FEW005 10/08 Q1012 NOSIG
2026-03-18 07:00:00,METAR LEBL 180700Z 33005KT 270V010 9000 FEW005 08/07 Q1011 NOSIG
2026-03-18 06:30:00,METAR LEBL 180630Z 33007KT 230V350 9000 FEW010 08/07 Q1011 NOSIG
2026-03-18 06:00:00,METAR LEBL 180600Z 33006KT 8000 FEW009 08/07 Q1011 NOSIG
2026-03-18 05:30:00,METAR LEBL 180530Z 33006KT 3000 BR SCT002 08/07 Q1011 NOSIG
2026-03-18 05:00:00,METAR LEBL 180500Z 32005KT 3000 BR BKN002 08/07 Q1011 NOSIG
2026-03-18 04:30:00,METAR LEBL 180430Z 33005KT 4000 BR BKN003 08/07 Q1011 NOSIG
2026-03-18 04:00:00,METAR LEBL 180400Z 33006KT 5000 BR SCT004 09/07 Q1011 NOSIG
2026-03-18 03:30:00,METAR LEBL 180330Z 36005KT 6000 SCT007 09/07 Q1011 NOSIG
2026-03-18 03:00:00,METAR LEBL 180300Z 34004KT 6000 SCT007 09/07 Q1011 NOSIG
2026-03-18 02:30:00,METAR LEBL 180230Z 32005KT 6000 SCT007 09/07 Q1012 NOSIG
2026-03-18 02:00:00,METAR LEBL 180200Z 31006KT 7000 SCT007 09/07 Q1012 NOSIG
2026-03-18 01:30:00,METAR LEBL 180130Z 33006KT 6000 SCT007 09/08 Q1012 NOSIG
2026-03-18 01:00:00,METAR LEBL 180100Z 33007KT 6000 SCT007 09/08 Q1013 NOSIG
2026-03-18 00:30:00,METAR LEBL 180030Z 33005KT 4000 BR SCT007 10/09 Q1013 NOSIG
2026-03-18 00:00:00,METAR LEBL 180000Z 32006KT 4000 BR SCT007 10/10 Q1013 NOSIG
2026-03-17 23:30:00,METAR LEBL 172330Z 32005KT 4000 BR SCT007 11/10 Q1013 NOSIG
2026-03-17 23:00:00,METAR LEBL 172300Z 34005KT 7000 FEW007 11/09 Q1013 NOSIG
2026-03-17 22:30:00,METAR LEBL 172230Z 32004KT 7000 SCT007 11/10 Q1014 NOSIG
2026-03-17 22:00:00,METAR LEBL 172200Z VRB01KT 6000 SCT007 12/11 Q1014 NOSIG
2026-03-17 21:30:00,METAR LEBL 172130Z 05002KT 6000 SCT006 12/12 Q1014 NOSIG
2026-03-17 21:00:00,METAR LEBL 172100Z 09001KT 6000 FEW007 13/12 Q1014 NOSIG
2026-03-17 20:30:00,METAR LEBL 172030Z 06002KT 9999 FEW008 13/13 Q1014 NOSIG
2026-03-17 20:00:00,METAR LEBL 172000Z 08003KT 9999 FEW008 14/13 Q1014 NOSIG
2026-03-17 19:30:00,METAR LEBL 171930Z 10003KT 9999 FEW010 14/13 Q1014 NOSIG
2026-03-17 19:00:00,METAR LEBL 171900Z 07003KT 9999 FEW008 14/13 Q1014 NOSIG
2026-03-17 18:30:00,METAR LEBL 171830Z 13002KT 9999 FEW008 14/13 Q1014 NOSIG
2026-03-17 18:00:00,METAR LEBL 171800Z 16003KT 130V190 9999 FEW008 14/13 Q1014 NOSIG
2026-03-17 17:30:00,METAR LEBL 171730Z 16003KT 130V210 9999 FEW008 15/13 Q1014 NOSIG
2026-03-17 17:00:00,METAR LEBL 171700Z 18004KT 150V230 CAVOK 15/13 Q1014 NOSIG
2026-03-17 16:30:00,METAR LEBL 171630Z 17005KT 140V200 CAVOK 15/13 Q1014 NOSIG
2026-03-17 16:00:00,METAR LEBL 171600Z 19004KT 150V240 CAVOK 16/12 Q1014 NOSIG
2026-03-17 15:30:00,METAR LEBL 171530Z 20004KT 130V250 CAVOK 16/11 Q1014 NOSIG
2026-03-17 15:00:00,METAR LEBL 171500Z 19005KT 150V220 CAVOK 16/12 Q1015 NOSIG
2026-03-17 14:30:00,METAR LEBL 171430Z 15004KT 110V210 CAVOK 16/12 Q1015 NOSIG
2026-03-17 14:00:00,METAR LEBL 171400Z 16005KT 120V210 CAVOK 16/11 Q1015 NOSIG
2026-03-17 13:30:00,METAR LEBL 171330Z 15005KT 120V180 CAVOK 16/11 Q1016 NOSIG
2026-03-17 13:00:00,METAR LEBL 171300Z 13005KT CAVOK 16/11 Q1016 NOSIG
2026-03-17 12:30:00,METAR LEBL 171230Z 15005KT 100V170 CAVOK 16/11 Q1017 NOSIG
2026-03-17 12:00:00,METAR LEBL 171200Z 12006KT CAVOK 17/11 Q1017 NOSIG
2026-03-17 11:30:00,METAR LEBL 171130Z 11007KT CAVOK 16/11 Q1017 NOSIG
2026-03-17 11:00:00,METAR LEBL 171100Z 11005KT CAVOK 16/11 Q1017 NOSIG
2026-03-17 10:30:00,METAR LEBL 171030Z 09003KT 030V130 CAVOK 16/10 Q1017 NOSIG
2026-03-17 10:00:00,METAR LEBL 171000Z 00000KT CAVOK 16/09 Q1017 NOSIG
2026-03-17 09:30:00,METAR LEBL 170930Z VRB02KT CAVOK 15/08 Q1017 NOSIG
2026-03-17 09:00:00,METAR LEBL 170900Z 33006KT CAVOK 13/07 Q1017 NOSIG
2026-03-17 08:30:00,METAR LEBL 170830Z 33007KT 290V010 CAVOK 12/07 Q1017 NOSIG
2026-03-17 08:00:00,METAR LEBL 170800Z 33009KT 280V360 CAVOK 11/06 Q1017 NOSIG
2026-03-17 07:30:00,METAR LEBL 170730Z 32009G22KT 270V350 CAVOK 10/06 Q1017 NOSIG
2026-03-17 07:00:00,METAR LEBL 170700Z 33007KT 300V010 CAVOK 09/06 Q1017 NOSIG
2026-03-17 06:30:00,METAR LEBL 170630Z 33008KT 240V360 CAVOK 08/05 Q1017 NOSIG
2026-03-17 06:00:00,METAR LEBL 170600Z 33009KT CAVOK 08/05 Q1017 NOSIG
2026-03-17 05:30:00,METAR LEBL 170530Z 33008KT CAVOK 08/05 Q1017 NOSIG
2026-03-17 05:00:00,METAR LEBL 170500Z 33011KT CAVOK 09/06 Q1017 NOSIG
2026-03-17 04:30:00,METAR LEBL 170430Z 33010KT CAVOK 09/06 Q1017 NOSIG
2026-03-17 04:00:00,METAR LEBL 170400Z 34007KT CAVOK 09/06 Q1017 NOSIG
2026-03-17 03:30:00,METAR LEBL 170330Z 33009KT CAVOK 09/06 Q1017 NOSIG
2026-03-17 03:00:00,METAR LEBL 170300Z 33007KT CAVOK 09/07 Q1018 NOSIG
2026-03-17 02:30:00,METAR LEBL 170230Z 33007KT CAVOK 09/07 Q1018 NOSIG
2026-03-17 02:00:00,METAR LEBL 170200Z 33007KT CAVOK 10/07 Q1018 NOSIG
2026-03-17 01:30:00,METAR LEBL 170130Z 34004KT 320V020 CAVOK 10/07 Q1018 NOSIG
2026-03-17 01:00:00,METAR LEBL 170100Z 31004KT CAVOK 10/07 Q1019 NOSIG
2026-03-17 00:30:00,METAR LEBL 170030Z 35003KT 310V060 CAVOK 11/08 Q1019 NOSIG
2026-03-17 00:00:00,METAR LEBL 170000Z 31005KT CAVOK 11/08 Q1019 NOSIG
2026-03-16 23:30:00,METAR LEBL 162330Z 31006KT CAVOK 11/07 Q1019 NOSIG
2026-03-16 23:00:00,METAR LEBL 162300Z 30003KT CAVOK 11/08 Q1019 NOSIG
2026-03-16 22:30:00,METAR LEBL 162230Z 31003KT CAVOK 11/08 Q1019 NOSIG
2026-03-16 22:00:00,METAR LEBL 162200Z 30005KT CAVOK 12/08 Q1019 NOSIG
2026-03-16 21:30:00,METAR LEBL 162130Z 28005KT 260V330 CAVOK 12/08 Q1019 NOSIG
2026-03-16 21:00:00,METAR LEBL 162100Z 25007KT CAVOK 12/09 Q1019 NOSIG
2026-03-16 20:30:00,METAR LEBL 162030Z 24007KT CAVOK 13/09 Q1019 NOSIG
2026-03-16 20:00:00,METAR LEBL 162000Z 23008KT CAVOK 13/09 Q1019 NOSIG
2026-03-16 19:30:00,METAR LEBL 161930Z 23009KT CAVOK 13/09 Q1019 NOSIG
2026-03-16 19:00:00,METAR LEBL 161900Z 23008KT CAVOK 13/10 Q1019 NOSIG
2026-03-16 18:30:00,METAR LEBL 161830Z 21010KT CAVOK 13/10 Q1019 NOSIG
2026-03-16 18:00:00,METAR LEBL 161800Z 23014KT CAVOK 14/10 Q1019 NOSIG
2026-03-16 17:30:00,METAR LEBL 161730Z 21010KT CAVOK 15/10 Q1019 NOSIG
2026-03-16 17:00:00,METAR LEBL 161700Z 21011KT CAVOK 15/10 Q1018 NOSIG
2026-03-16 16:30:00,METAR LEBL 161630Z 21013KT CAVOK 15/10 Q1018 NOSIG
2026-03-16 16:00:00,METAR LEBL 161600Z 21011KT CAVOK 16/10 Q1018 NOSIG
2026-03-16 15:30:00,METAR LEBL 161530Z 22013KT CAVOK 16/09 Q1019 NOSIG
2026-03-16 15:00:00,METAR LEBL 161500Z 22013KT CAVOK 16/05 Q1019 NOSIG
2026-03-16 14:30:00,METAR LEBL 161430Z 22012KT CAVOK 16/05 Q1019 NOSIG
2026-03-16 14:00:00,METAR LEBL 161400Z 22012KT CAVOK 16/04 Q1019 NOSIG
2026-03-16 13:30:00,METAR LEBL 161330Z 23012KT CAVOK 15/03 Q1019 NOSIG
2026-03-16 13:00:00,METAR LEBL 161300Z 22012KT CAVOK 15/04 Q1020 NOSIG
2026-03-16 12:30:00,METAR LEBL 161230Z 21010KT 170V240 CAVOK 15/05 Q1020 NOSIG
2026-03-16 12:00:00,METAR LEBL 161200Z 33009KT 290V020 CAVOK 16/05 Q1020 NOSIG
2026-03-16 11:30:00,METAR LEBL 161130Z COR 32011G22KT 280V360 CAVOK 17/04 Q1020 NOSIG
2026-03-16 11:00:00,METAR LEBL 161100Z 33011KT 260V360 CAVOK 15/03 Q1020 NOSIG
2026-03-16 10:30:00,METAR LEBL 161030Z 34011KT 250V010 CAVOK 14/03 Q1020 NOSIG
2026-03-16 10:00:00,METAR LEBL 161000Z 33010KT 290V020 CAVOK 14/02 Q1020 NOSIG
2026-03-16 09:30:00,METAR LEBL 160930Z 33011KT 300V360 CAVOK 13/02 Q1020 NOSIG
2026-03-16 09:00:00,METAR LEBL 160900Z 33010KT 280V360 CAVOK 11/02 Q1020 NOSIG
2026-03-16 08:30:00,METAR LEBL 160830Z 33008KT 300V010 CAVOK 10/02 Q1020 NOSIG
2026-03-16 08:00:00,METAR LEBL 160800Z 33010KT 280V350 CAVOK 09/01 Q1020 NOSIG
2026-03-16 07:30:00,METAR LEBL 160730Z 32014G24KT CAVOK 08/01 Q1020 NOSIG
2026-03-16 07:00:00,METAR LEBL 160700Z 31011KT 270V330 CAVOK 07/01 Q1019 NOSIG
2026-03-16 06:30:00,METAR LEBL 160630Z 32008G19KT 300V010 CAVOK 07/M00 Q1019 NOSIG
2026-03-16 06:00:00,METAR LEBL 160600Z 31008KT CAVOK 07/00 Q1019 NOSIG
2026-03-16 05:30:00,METAR LEBL 160530Z 31009KT CAVOK 07/00 Q1018 NOSIG
2026-03-16 05:00:00,METAR LEBL 160500Z 34012KT CAVOK 08/00 Q1018 NOSIG
2026-03-16 04:30:00,METAR LEBL 160430Z 34008KT 310V010 CAVOK 08/M00 Q1017 NOSIG
2026-03-16 04:00:00,METAR LEBL 160400Z 32008KT CAVOK 08/M01 Q1017 NOSIG
2026-03-16 03:30:00,METAR LEBL 160330Z 33008KT CAVOK 08/M01 Q1017 NOSIG
2026-03-16 03:00:00,METAR LEBL 160300Z 33007KT CAVOK 08/M02 Q1017 NOSIG
2026-03-16 02:30:00,METAR LEBL 160230Z 34009KT CAVOK 08/M03 Q1017 NOSIG
2026-03-16 02:00:00,METAR LEBL 160200Z 33008KT CAVOK 08/M03 Q1017 NOSIG
2026-03-16 01:30:00,METAR LEBL 160130Z 33008KT 9999 FEW025 08/M02 Q1017 NOSIG
2026-03-16 01:00:00,METAR LEBL 160100Z 33007KT 9999 FEW025 10/M03 Q1017 NOSIG
2026-03-16 00:30:00,METAR LEBL 160030Z 32006KT 9999 FEW025 09/M02 Q1016 NOSIG
2026-03-16 00:00:00,METAR LEBL 160000Z 31006KT 9999 FEW025 10/M01 Q1016 NOSIG
2026-03-15 23:30:00,METAR LEBL 152330Z 33006KT 9999 FEW025 10/01 Q1016 NOSIG
2026-03-15 23:00:00,METAR LEBL 152300Z 32006KT 9999 FEW025 11/02 Q1016 NOSIG
2026-03-15 22:30:00,METAR LEBL 152230Z 32006KT 9999 FEW025 11/02 Q1016 NOSIG
2026-03-15 22:00:00,METAR LEBL 152200Z 32007KT 280V340 9999 FEW025 13/01 Q1016 NOSIG
2026-03-15 21:30:00,METAR LEBL 152130Z 31005KT 270V340 9999 FEW025 13/04 Q1015 NOSIG
2026-03-15 21:00:00,METAR LEBL 152100Z 26007KT 240V300 9999 FEW025 13/05 Q1015 NOSIG
2026-03-15 20:30:00,METAR LEBL 152030Z 26007KT 9999 FEW025 13/05 Q1014 NOSIG
2026-03-15 20:00:00,METAR LEBL 152000Z 25007KT CAVOK 13/05 Q1014 NOSIG
2026-03-15 19:30:00,METAR LEBL 151930Z 26006KT 220V290 CAVOK 13/06 Q1013 NOSIG
2026-03-15 19:00:00,METAR LEBL 151900Z 23005KT CAVOK 14/06 Q1013 NOSIG
2026-03-15 18:30:00,METAR LEBL 151830Z 07005G18KT CAVOK 14/05 Q1012 NOSIG
2026-03-15 18:00:00,METAR LEBL 151800Z 08012G22KT 030V130 CAVOK 15/05 Q1011 NOSIG
2026-03-15 17:30:00,METAR LEBL 151730Z 15005KT 110V190 CAVOK 16/05 Q1010 NOSIG
2026-03-15 17:00:00,METAR LEBL 151700Z 14008KT CAVOK 16/04 Q1010 NOSIG
2026-03-15 16:30:00,METAR LEBL 151630Z 15008KT 130V190 CAVOK 16/05 Q1009 NOSIG
2026-03-15 16:00:00,METAR LEBL 151600Z 16009KT 120V190 CAVOK 16/04 Q1008 NOSIG
2026-03-15 15:30:00,METAR LEBL 151530Z 15009KT CAVOK 17/05 Q1008 NOSIG
2026-03-15 15:00:00,METAR LEBL 151500Z 16010KT 130V190 CAVOK 17/02 Q1008 NOSIG
2026-03-15 14:30:00,METAR LEBL 151430Z 14008KT CAVOK 17/02 Q1007 NOSIG
2026-03-15 14:00:00,METAR LEBL 151400Z 14011KT 110V170 CAVOK 17/M02 Q1007 NOSIG
2026-03-15 13:30:00,METAR LEBL 151330Z 10010KT 060V120 CAVOK 19/M05 Q1007 NOSIG
2026-03-15 13:00:00,METAR LEBL 151300Z 36008G21KT 300V050 CAVOK 18/M05 Q1007 NOSIG
2026-03-15 12:30:00,METAR LEBL 151230Z 32012KT 290V360 CAVOK 18/M06 Q1006 NOSIG
2026-03-15 12:00:00,METAR LEBL 151200Z 32009G19KT CAVOK 17/M04 Q1006 NOSIG
2026-03-15 11:30:00,METAR LEBL 151130Z 29012G23KT 260V330 CAVOK 17/M02 Q1006 NOSIG
2026-03-15 11:00:00,METAR LEBL 151100Z 30011KT 250V350 CAVOK 16/M02 Q1006 NOSIG
2026-03-15 10:30:00,METAR LEBL 151030Z 30013KT 240V340 CAVOK 15/M01 Q1006 NOSIG
2026-03-15 10:00:00,METAR LEBL 151000Z 29015KT 270V330 CAVOK 14/M01 Q1006 NOSIG
2026-03-15 09:30:00,METAR LEBL 150930Z 30015KT 260V330 CAVOK 13/M01 Q1006 NOSIG
2026-03-15 09:00:00,METAR LEBL 150900Z 31015KT 280V340 CAVOK 12/M01 Q1006 NOSIG
2026-03-15 08:30:00,METAR LEBL 150830Z 31014KT 9999 FEW024 11/01 Q1006 NOSIG
2026-03-15 08:00:00,METAR LEBL 150800Z 31010G20KT 220V350 9999 FEW024 11/M00 Q1006 NOSIG
