Time_recorded,METAR
2026-05-02 15:30:00,METAR VOBL 021530Z 30005KT 6000 FEW012 28/19 Q1012 NOSIG
2026-05-02 15:00:00,METAR VOBL 021500Z 30005KT 6000 FEW012 28/19 Q1012 NOSIG
2026-05-02 14:30:00,METAR VOBL 021430Z 30003KT 6000 SCT012 30/16 Q1011 NOSIG
2026-05-02 14:00:00,METAR VOBL 021400Z 30005KT 6000 SCT012 29/18 Q1011 NOSIG
2026-05-02 13:30:00,METAR VOBL 021330Z 30005KT 6000 SCT012 30/17 Q1010 NOSIG
2026-05-02 13:00:00,METAR VOBL 021300Z 30005KT 8000 FEW012 SCT020 31/17 Q1010 NOSIG
2026-05-02 12:30:00,METAR VOBL 021230Z 32006KT 8000 FEW012 SCT020 32/16 Q1010 NOSIG
2026-05-02 12:00:00,METAR VOBL 021200Z 31004KT 9999 FEW012 SCT020 33/15 Q1010 NOSIG
2026-05-02 11:30:00,METAR VOBL 021130Z 32004KT 9999 SCT012 SCT020 33/15 Q1010 NOSIG
2026-05-02 11:00:00,METAR VOBL 021100Z 30006KT 9999 SCT012 SCT020 34/15 Q1010 NOSIG
2026-05-02 10:30:00,METAR VOBL 021030Z 30006KT 9999 SCT012 SCT020 33/16 Q1009 NOSIG
2026-05-02 10:00:00,METAR VOBL 021000Z 28004KT 9999 SCT012 SCT020 34/15 Q1010 NOSIG
2026-05-02 09:30:00,METAR VOBL 020930Z 28004KT 9999 SCT012 SCT020 34/14 Q1010 NOSIG
2026-05-02 09:00:00,METAR VOBL 020900Z 28006KT 9999 SCT012 SCT020 33/14 Q1011 NOSIG
2026-05-02 08:30:00,METAR VOBL 020830Z 29003KT 8000 SCT012 SCT020 33/17 Q1012 NOSIG
2026-05-02 08:00:00,METAR VOBL 020800Z 29003KT 8000 SCT012 SCT020 32/17 Q1012 NOSIG
2026-05-02 07:30:00,METAR VOBL 020730Z 29004KT 8000 SCT012 SCT020 32/18 Q1013 NOSIG
2026-05-02 07:00:00,METAR VOBL 020700Z 29005KT 8000 SCT012 31/19 Q1013 NOSIG
2026-05-02 06:30:00,METAR VOBL 020630Z 32005KT 8000 FEW012 30/19 Q1014 NOSIG
2026-05-02 06:00:00,METAR VOBL 020600Z 32005KT 8000 FEW012 30/20 Q1014 NOSIG
2026-05-02 05:30:00,METAR VOBL 020530Z 31006KT 8000 FEW012 29/20 Q1015 NOSIG
2026-05-02 05:00:00,METAR VOBL 020500Z 29008KT 6000 FEW012 28/20 Q1015 NOSIG
2026-05-02 04:30:00,METAR VOBL 020430Z 29008KT 6000 FEW012 27/20 Q1015 NOSIG
2026-05-02 04:00:00,METAR VOBL 020400Z 29010KT 6000 FEW012 26/20 Q1015 NOSIG
2026-05-02 03:30:00,METAR VOBL 020330Z 27010KT 6000 FEW012 26/20 Q1015 NOSIG
2026-05-02 03:00:00,METAR VOBL 020300Z 25010KT 6000 FEW012 25/20 Q1015 NOSIG
2026-05-02 02:30:00,METAR VOBL 020230Z 24008KT 6000 FEW012 25/20 Q1015 NOSIG
2026-05-02 02:00:00,METAR VOBL 020200Z 23008KT 6000 FEW012 24/19 Q1014 NOSIG
2026-05-02 01:30:00,METAR VOBL 020130Z 23008KT 6000 FEW012 23/19 Q1013 NOSIG
2026-05-02 01:00:00,METAR VOBL 020100Z 23007KT 6000 FEW012 23/19 Q1013 NOSIG
2026-05-02 00:30:00,METAR VOBL 020030Z 24008KT 6000 FEW012 SCT080 23/19 Q1013 NOSIG
2026-05-02 00:00:00,METAR VOBL 020000Z 26007KT 6000 FEW012 SCT080 22/19 Q1012 NOSIG
2026-05-01 23:30:00,METAR VOBL 012330Z 26008KT 6000 FEW012 SCT080 22/20 Q1012 NOSIG
2026-05-01 23:00:00,METAR VOBL 012300Z 27008KT 6000 FEW012 SCT080 22/20 Q1012 NOSIG
2026-05-01 22:30:00,METAR VOBL 012230Z 27010KT 6000 FEW012 SCT080 22/20 Q1012 NOSIG
2026-05-01 22:00:00,METAR VOBL 012200Z 27008KT 270V040 6000 FEW012 SCT080 23/20 Q1012 NOSIG
2026-05-01 21:30:00,METAR VOBL 012130Z 25008KT 6000 FEW012 SCT080 24/20 Q1012 NOSIG
2026-05-01 21:00:00,METAR VOBL 012100Z 25008KT 6000 FEW012 SCT080 24/20 Q1012 NOSIG
2026-05-01 20:30:00,METAR VOBL 012030Z 25008KT 6000 FEW012 SCT080 24/20 Q1012 NOSIG
2026-05-01 20:00:00,METAR VOBL 012000Z 25008KT 6000 FEW012 SCT080 25/20 Q1013 NOSIG
2026-05-01 19:30:00,METAR VOBL 011930Z 23009KT 6000 FEW012 SCT080 25/19 Q1013 NOSIG
2026-05-01 19:00:00,METAR VOBL 011900Z 25005KT 6000 FEW012 SCT080 24/21 Q1013 NOSIG
2026-05-01 18:30:00,METAR VOBL 011830Z 27008KT 6000 FEW010 FEW025CB SCT080 24/20 Q1014 NOSIG
2026-05-01 18:00:00,METAR VOBL 011800Z 27008KT 4000 TS SCT010 FEW025CB SCT080 24/19 Q1014 NOSIG
2026-05-01 17:30:00,METAR VOBL 011730Z COR 27010KT 3000 TS SCT010 FEW025CB BKN080 26/17 Q1014 NOSIG
2026-05-01 17:00:00,METAR VOBL 011700Z 15017G30KT 3000 +TSRA BKN008 SCT012 FEW025CB BKN080 25/17 Q1015 TEMPO VIS 1500 TSRA
2026-05-01 16:30:00,METAR VOBL 011630Z COR 30018KT 6000 TSRA SCT012 FEW025CB SCT080 26/16 Q1014 NOSIG
2026-05-01 16:00:00,METAR VOBL 011600Z 27009KT 6000 SCT012 FEW025CB SCT080 26/20 Q1014 NOSIG
2026-05-01 15:30:00,METAR VOBL 011530Z 24009KT 6000 SCT012 FEW025CB SCT080 28/16 Q1013 NOSIG
2026-05-01 15:00:00,METAR VOBL 011500Z 24008KT 6000 SCT012 FEW025CB SCT080 28/19 Q1013 NOSIG
2026-05-01 14:30:00,METAR VOBL 011430Z 24012KT 6000 TS SCT012 FEW025CB SCT080 29/16 Q1013 NOSIG
2026-05-01 14:00:00,METAR VOBL 011400Z 30005KT 6000 TS SCT012 FEW025CB BKN080 29/20 Q1012 NOSIG
2026-05-01 13:30:00,METAR VOBL 011330Z COR 30005KT 6000 SCT012 FEW025CB BKN080 30/20 Q1012 NOSIG
2026-05-01 13:00:00,METAR VOBL 011300Z 31005KT 8000 FEW012 31/19 Q1011 NOSIG
2026-05-01 12:30:00,METAR VOBL 011230Z 31006KT 9999 FEW012 33/18 Q1011 NOSIG
2026-05-01 12:00:00,METAR VOBL 011200Z 31006KT 9999 FEW012 33/18 Q1011 NOSIG
2026-05-01 11:30:00,METAR VOBL 011130Z 30006KT 9999 FEW012 33/18 Q1011 NOSIG
2026-05-01 11:00:00,METAR VOBL 011100Z 31008KT 9999 FEW012 33/18 Q1011 NOSIG
2026-05-01 10:30:00,METAR VOBL 011030Z 31008KT 9999 FEW012 33/18 Q1011 NOSIG
2026-05-01 10:00:00,METAR VOBL 011000Z 31009KT 9999 FEW012 33/18 Q1011 NOSIG
2026-05-01 09:30:00,METAR VOBL 010930Z 30008KT 9999 FEW012 33/18 Q1012 NOSIG
2026-05-01 09:00:00,METAR VOBL 010900Z 29006KT 9999 FEW012 33/18 Q1012 NOSIG
2026-05-01 08:30:00,METAR VOBL 010830Z 27008KT 9999 FEW012 32/17 Q1013 NOSIG
2026-05-01 08:00:00,METAR VOBL 010800Z 29008KT 9999 FEW012 32/17 Q1014 NOSIG
2026-05-01 07:30:00,METAR VOBL 010730Z 27008KT 9999 FEW012 32/18 Q1014 NOSIG
2026-05-01 07:00:00,METAR VOBL 010700Z 29010KT 9999 FEW012 31/18 Q1014 NOSIG
2026-05-01 06:30:00,METAR VOBL 010630Z 27008KT 8000 FEW012 31/18 Q1015 NOSIG
2026-05-01 06:00:00,METAR VOBL 010600Z 27008KT 8000 FEW012 31/18 Q1015 NOSIG
2026-05-01 05:30:00,METAR VOBL 010530Z 24005KT 8000 FEW012 28/17 Q1016 NOSIG
2026-05-01 05:00:00,METAR VOBL 010500Z 23008KT 8000 FEW012 28/18 Q1016 NOSIG
2026-05-01 04:30:00,METAR VOBL 010430Z 23008KT 6000 FEW012 SCT080 28/18 Q1016 NOSIG
2026-05-01 04:00:00,METAR VOBL 010400Z 25008KT 6000 FEW012 SCT080 27/18 Q1016 NOSIG
2026-05-01 03:30:00,METAR VOBL 010330Z COR 22005KT 6000 FEW012 SCT080 26/18 Q1016 NOSIG
2026-05-01 03:00:00,METAR VOBL 010300Z 23004KT 6000 FEW012 SCT080 24/19 Q1016 NOSIG
2026-05-01 02:30:00,METAR VOBL 010230Z 25007KT 6000 FEW012 SCT080 24/19 Q1016 NOSIG
2026-05-01 02:00:00,METAR VOBL 010200Z 25007KT 6000 FEW010 SCT012 BKN080 23/18 Q1014 NOSIG
2026-05-01 01:30:00,METAR VOBL 010130Z 25005KT 6000 FEW010 SCT012 BKN080 23/18 Q1014 NOSIG
2026-05-01 01:05:00,METAR VOBL 010105Z 28004KT 6000 SCT012 FEW025CB BKN080 21/18 Q1014 NOSIG
2026-05-01 01:00:00,METAR VOBL 010100Z 28004KT 6000 SCT012 FEW025CB BKN080 21/18 Q1014 NOSIG
2026-05-01 00:30:00,METAR VOBL 010030Z 32003KT 5000 -TSRA SCT012 SCT018 FEW025CB 22/17 Q1014 NOSIG
2026-05-01 00:00:00,METAR VOBL 010000Z 34006KT 4000 -TSRA SCT012 SCT018 FEW025CB 21/18 Q1014 NOSIG
2026-04-30 23:30:00,METAR VOBL 302330Z 31006KT 3000 -TSRA SCT012 SCT018 FEW025CB 21/18 Q1014 NOSIG
2026-04-30 23:05:00,METAR VOBL 302305Z 32008KT 3000 -TSRA SCT012 SCT018 FEW025CB 21/18 Q1014 NOSIG
2026-04-30 23:00:00,METAR VOBL 302300Z 32008KT 3000 -TSRA SCT012 SCT018 FEW025CB 21/18 Q1014 NOSIG
2026-04-30 22:30:00,METAR VOBL 302230Z 02010KT 3000 -TSRA SCT012 SCT018 FEW025CB 21/19 Q1014 NOSIG
2026-04-30 22:00:00,METAR VOBL 302200Z 02010KT 3000 -TSRA SCT012 SCT018 FEW025CB 21/19 Q1015 NOSIG
2026-04-30 21:30:00,METAR VOBL 302130Z 04006KT 2000 -TSRA SCT012 SCT018 FEW025CB 20/18 Q1015 NOSIG
2026-04-30 21:00:00,METAR VOBL 302100Z 04006KT 2000 -TSRA SCT012 SCT018 FEW025CB 20/18 Q1015 NOSIG
2026-04-30 20:30:00,METAR VOBL 302030Z 04012KT 2000 TSRA SCT012 FEW025CB 20/18 Q1016 NOSIG
2026-04-30 20:05:00,METAR VOBL 302005Z 04012KT 3000 -TSRA SCT012 FEW025CB 24/17 Q1015 TEMPO 1500 TSRA RA
2026-04-30 19:30:00,METAR VOBL 301930Z 25006KT 6000 SCT012 24/17 Q1014 NOSIG
2026-04-30 19:00:00,METAR VOBL 301900Z 25006KT 6000 SCT012 24/17 Q1014 NOSIG
2026-04-30 18:30:00,METAR VOBL 301830Z 25006KT 6000 SCT012 24/17 Q1015 NOSIG
2026-04-30 18:00:00,METAR VOBL 301800Z 23006KT 6000 SCT012 24/18 Q1015 NOSIG
2026-04-30 17:30:00,METAR VOBL 301730Z 23008KT 6000 SCT012 24/18 Q1015 NOSIG
2026-04-30 17:00:00,METAR VOBL 301700Z 23008KT 6000 SCT012 SCT018 FEW025CB 24/19 Q1015 NOSIG
2026-04-30 16:30:00,METAR VOBL 301630Z 21008KT 140V210 6000 SCT012 SCT018 FEW025CB 25/19 Q1015 NOSIG
2026-04-30 16:00:00,METAR VOBL 301600Z 16008KT 6000 SCT012 SCT018 FEW025CB 26/18 Q1015 NOSIG
2026-04-30 14:30:00,METAR VOBL 301430Z 14012KT 6000 SCT012 SCT018 FEW025CB 30/18 Q1013 NOSIG
2026-04-30 14:00:00,METAR VOBL 301400Z 14003KT 6000 SCT012 SCT018 FEW025CB 29/19 Q1013 NOSIG
2026-04-30 13:30:00,METAR VOBL 301330Z 09003KT 6000 FEW012 SCT018 FEW025CB 30/18 Q1012 NOSIG
2026-04-30 13:00:00,METAR VOBL 301300Z 32005KT 8000 FEW012 31/17 Q1012 NOSIG
2026-04-30 12:30:00,METAR VOBL 301230Z 32005KT 8000 FEW012 32/17 Q1012 NOSIG
2026-04-30 12:00:00,METAR VOBL 301200Z 32005KT 8000 FEW012 SCT018 33/17 Q1011 NOSIG
2026-04-30 11:30:00,METAR VOBL 301130Z 32005KT 8000 FEW012 SCT018 33/17 Q1011 NOSIG
2026-04-30 11:00:00,METAR VOBL 301100Z 32005KT 8000 SCT012 34/17 Q1011 NOSIG
2026-04-30 10:30:00,METAR VOBL 301030Z 32005KT 8000 SCT012 33/17 Q1011 NOSIG
2026-04-30 10:00:00,METAR VOBL 301000Z 28005KT 8000 SCT012 33/17 Q1012 NOSIG
2026-04-30 09:30:00,METAR VOBL 300930Z 28005KT 8000 SCT012 34/18 Q1012 NOSIG
2026-04-30 09:00:00,METAR VOBL 300900Z 29005KT 6000 SCT012 33/17 Q1012 NOSIG
2026-04-30 08:30:00,METAR VOBL 300830Z 29005KT 6000 SCT012 32/17 Q1013 NOSIG
2026-04-30 08:00:00,METAR VOBL 300800Z 29005KT 6000 FEW012 32/18 Q1013 NOSIG
2026-04-30 07:30:00,METAR VOBL 300730Z 29005KT 6000 FEW012 31/19 Q1014 NOSIG
2026-04-30 07:00:00,METAR VOBL 300700Z 27005KT 6000 NSC 30/19 Q1015 NOSIG
2026-04-30 06:30:00,METAR VOBL 300630Z 32008KT 6000 NSC 30/20 Q1015 NOSIG
2026-04-30 06:00:00,METAR VOBL 300600Z 27007KT 6000 NSC 29/19 Q1016 NOSIG
2026-04-30 05:30:00,METAR VOBL 300530Z 25007KT 6000 NSC 29/19 Q1016 NOSIG
2026-04-30 05:00:00,METAR VOBL 300500Z 25007KT 6000 NSC 28/18 Q1016 NOSIG
2026-04-30 04:30:00,METAR VOBL 300430Z 25007KT 6000 NSC 27/18 Q1016 NOSIG
2026-04-30 04:00:00,METAR VOBL 300400Z 23008KT 6000 NSC 26/19 Q1016 NOSIG
2026-04-30 03:30:00,METAR VOBL 300330Z 22005KT 6000 FEW012 26/18 Q1016 NOSIG
2026-04-30 03:00:00,METAR VOBL 300300Z 22008KT 5000 HZ FEW012 25/18 Q1016 NOSIG
2026-04-30 02:30:00,METAR VOBL 300230Z 23006KT 5000 BR FEW012 25/18 Q1015 NOSIG
2026-04-30 02:00:00,METAR VOBL 300200Z 22005KT 5000 BR FEW012 24/19 Q1015 NOSIG
2026-04-30 01:30:00,METAR VOBL 300130Z 23008KT 5000 BR FEW012 24/18 Q1015 NOSIG
2026-04-30 01:00:00,METAR VOBL 300100Z 23008KT 6000 FEW012 SCT080 23/18 Q1014 NOSIG
2026-04-30 00:30:00,METAR VOBL 300030Z 25008KT 6000 FEW012 SCT080 23/18 Q1014 NOSIG
2026-04-30 00:00:00,METAR VOBL 300000Z 27008KT 6000 SCT015 SCT080 23/18 Q1013 NOSIG
2026-04-29 23:30:00,METAR VOBL 292330Z 23008KT 6000 SCT015 SCT080 23/18 Q1013 NOSIG
2026-04-29 23:00:00,METAR VOBL 292300Z 23008KT 6000 SCT015 SCT080 23/18 Q1013 NOSIG
2026-04-29 22:30:00,METAR VOBL 292230Z 23008KT 6000 SCT015 SCT080 24/18 Q1013 NOSIG
2026-04-29 22:00:00,METAR VOBL 292200Z 23008KT 6000 SCT015 SCT080 24/19 Q1013 NOSIG
2026-04-29 21:30:00,METAR VOBL 292130Z 27009KT 6000 SCT015 SCT080 24/19 Q1013 NOSIG
2026-04-29 21:00:00,METAR VOBL 292100Z 27006KT 6000 SCT015 SCT080 23/19 Q1013 NOSIG
2026-04-29 20:30:00,METAR VOBL 292030Z 27003KT 6000 SCT015 SCT080 23/20 Q1013 NOSIG
2026-04-29 20:00:00,METAR VOBL 292000Z COR VRB02KT 6000 SCT015 SCT080 23/20 Q1013 NOSIG
2026-04-29 19:30:00,METAR VOBL 291930Z 34006KT 6000 SCT015 SCT080 23/20 Q1013 NOSIG
2026-04-29 19:00:00,METAR VOBL 291900Z 25007KT 6000 SCT015 SCT080 24/20 Q1013 NOSIG
2026-04-29 18:30:00,METAR VOBL 291830Z COR 24009KT 6000 SCT012 FEW025CB BKN080 24/19 Q1013 NOSIG
2026-04-29 18:00:00,METAR VOBL 291800Z 24009KT 6000 SCT012 FEW025CB BKN080 24/19 Q1014 NOSIG
2026-04-29 17:30:00,METAR VOBL 291730Z 23009KT 6000 SCT012 FEW025CB BKN080 24/19 Q1013 NOSIG
2026-04-29 17:00:00,METAR VOBL 291700Z 23012KT 6000 SCT012 FEW025CB BKN080 24/20 Q1014 NOSIG
2026-04-29 16:30:00,METAR VOBL 291630Z 23008KT 6000 SCT012 FEW025CB BKN080 24/19 Q1015 NOSIG
2026-04-29 16:00:00,METAR VOBL 291600Z 10006KT 6000 SCT012 FEW025CB BKN080 24/19 Q1015 NOSIG
2026-04-29 15:30:00,METAR VOBL 291530Z 15010KT 5000 -TSRA SCT012 SCT020 FEW025CB 24/19 Q1015 TEMPO 3000 TSRA DZ
2026-04-29 15:00:00,METAR VOBL 291500Z COR 15016KT 2000 +TSRA SCT012 SCT020 FEW025CB 24/19 Q1015 TEMPO 1500 TSRA DZ
2026-04-29 14:30:00,METAR VOBL 291430Z VRB02KT 3000 -TSRA SCT012 SCT020 FEW025CB 23/20 Q1014 TEMPO 1500 TSRA DZ
2026-04-29 14:00:00,METAR VOBL 291400Z 12012KT 3000 TSRA SCT012 SCT020 FEW025CB 24/19 Q1014 TEMPO 1500 TSRA DZ
2026-04-29 13:30:00,METAR VOBL 291330Z 22012KT 5000 TS SCT012 SCT020 FEW025CB 23/19 Q1013 NOSIG
2026-04-29 13:00:00,METAR VOBL 291300Z 22015KT 3000 -TSRA SCT012 SCT020 FEW025CB 24/20 Q1012 TEMPO 1500 TSRA DZ
2026-04-29 12:30:00,METAR VOBL 291230Z 22012KT 070V220 3000 TSRA SCT015 SCT020 FEW025CB 25/19 Q1013 TEMPO 1500 TSRA DZ
2026-04-29 12:00:00,METAR VOBL 291200Z 05015KT 5000 VCSH SCT015 SCT020 FEW025CB 29/16 Q1010 TEMPO 3000 RA DZ
2026-04-29 11:30:00,METAR VOBL 291130Z 07018KT 5000 VCSH SCT015 SCT020 FEW025CB 28/16 Q1010 TEMPO 3000 RA DZ
2026-04-29 11:00:00,METAR VOBL 291100Z 06012KT 5000 VCSH SCT015 FEW025CB 30/13 Q1010 TEMPO 3000 RA DZ
2026-04-29 10:30:00,METAR VOBL 291030Z 23004KT 6000 SCT015 34/16 Q1010 NOSIG
2026-04-29 10:00:00,METAR VOBL 291000Z 25005KT 6000 SCT015 34/17 Q1010 NOSIG
2026-04-29 09:30:00,METAR VOBL 290930Z 23004KT 6000 SCT015 34/17 Q1010 NOSIG
2026-04-29 09:00:00,METAR VOBL 290900Z 23004KT 6000 FEW015 33/17 Q1011 NOSIG
2026-04-29 08:30:00,METAR VOBL 290830Z 23006KT 6000 FEW015 33/17 Q1012 NOSIG
2026-04-29 08:00:00,METAR VOBL 290800Z 22004KT 6000 NSC 33/18 Q1012 NOSIG
2026-04-29 07:30:00,METAR VOBL 290730Z 23006KT 6000 NSC 33/18 Q1013 NOSIG
2026-04-29 07:00:00,METAR VOBL 290700Z 26006KT 6000 NSC 32/19 Q1013 NOSIG
2026-04-29 06:30:00,METAR VOBL 290630Z 26006KT 6000 NSC 31/19 Q1014 NOSIG
2026-04-29 06:00:00,METAR VOBL 290600Z 27010KT 6000 NSC 31/19 Q1014 NOSIG
2026-04-29 05:30:00,METAR VOBL 290530Z 24010KT 6000 NSC 31/19 Q1015 NOSIG
2026-04-29 05:00:00,METAR VOBL 290500Z 29010KT 6000 FEW015 29/18 Q1015 NOSIG
2026-04-29 04:30:00,METAR VOBL 290430Z 25008KT 6000 FEW015 29/19 Q1015 NOSIG
2026-04-29 04:00:00,METAR VOBL 290400Z 25008KT 6000 FEW015 28/18 Q1015 NOSIG
2026-04-29 03:30:00,METAR VOBL 290330Z 25006KT 6000 FEW015 27/18 Q1015 NOSIG
2026-04-29 03:00:00,METAR VOBL 290300Z 23006KT 6000 FEW015 26/18 Q1014 NOSIG
2026-04-29 02:30:00,METAR VOBL 290230Z 23003KT 230V010 6000 FEW015 26/18 Q1014 NOSIG
2026-04-29 02:00:00,METAR VOBL 290200Z 26003KT 6000 FEW015 SCT080 25/19 Q1013 NOSIG
2026-04-29 01:30:00,METAR VOBL 290130Z VRB02KT 6000 FEW015 SCT080 25/19 Q1013 NOSIG
2026-04-29 01:00:00,METAR VOBL 290100Z VRB02KT 6000 FEW015 SCT080 24/18 Q1012 NOSIG
2026-04-29 00:30:00,METAR VOBL 290030Z VRB02KT 6000 FEW015 SCT080 23/18 Q1012 NOSIG
2026-04-29 00:00:00,METAR VOBL 290000Z COR VRB02KT 6000 SCT012 BKN080 23/18 Q1012 NOSIG
2026-04-28 23:30:00,METAR VOBL 282330Z 20004KT 6000 SCT012 BKN080 24/18 Q1012 NOSIG
2026-04-28 23:00:00,METAR VOBL 282300Z 20004KT 6000 SCT012 BKN080 25/18 Q1011 NOSIG
2026-04-28 22:30:00,METAR VOBL 282230Z VRB02KT 6000 SCT012 BKN080 25/18 Q1011 NOSIG
2026-04-28 22:00:00,METAR VOBL 282200Z VRB02KT 6000 SCT012 BKN080 25/18 Q1011 NOSIG
2026-04-28 21:30:00,METAR VOBL 282130Z 02004KT 6000 SCT012 BKN080 25/18 Q1012 NOSIG
2026-04-28 21:00:00,METAR VOBL 282100Z 02004KT 6000 SCT012 BKN080 26/17 Q1012 NOSIG
2026-04-28 20:30:00,METAR VOBL 282030Z 02004KT 290V020 6000 SCT012 BKN080 26/17 Q1012 NOSIG
2026-04-28 20:00:00,METAR VOBL 282000Z 30006KT 6000 SCT012 BKN080 26/17 Q1012 NOSIG
2026-04-28 19:30:00,METAR VOBL 281930Z 31003KT 6000 SCT012 BKN080 26/17 Q1012 NOSIG
2026-04-28 19:00:00,METAR VOBL 281900Z 29006KT 6000 SCT012 BKN080 26/17 Q1012 NOSIG
2026-04-28 18:30:00,METAR VOBL 281830Z 30003KT 6000 SCT012 FEW025CB SCT080 27/17 Q1013 NOSIG
2026-04-28 18:00:00,METAR VOBL 281800Z 30004KT 6000 SCT012 FEW025CB SCT080 27/17 Q1014 NOSIG
2026-04-28 17:30:00,METAR VOBL 281730Z 30005KT 6000 SCT012 FEW025CB SCT080 27/18 Q1014 NOSIG
2026-04-28 17:00:00,METAR VOBL 281700Z 30006KT 6000 SCT012 FEW025CB SCT080 27/18 Q1015 NOSIG
2026-04-28 16:30:00,METAR VOBL 281630Z 29006KT 6000 SCT012 FEW025CB SCT080 28/18 Q1014 NOSIG
2026-04-28 16:00:00,METAR VOBL 281600Z 29006KT 6000 SCT012 FEW025CB SCT080 28/18 Q1014 NOSIG
2026-04-28 15:30:00,METAR VOBL 281530Z 27005KT 6000 SCT012 FEW025CB SCT080 28/18 Q1013 NOSIG
2026-04-28 15:00:00,METAR VOBL 281500Z COR 33005KT 6000 SCT012 FEW025CB SCT080 28/18 Q1013 NOSIG
2026-04-28 14:30:00,METAR VOBL 281430Z 12003KT 6000 SCT012 FEW025CB BKN080 29/18 Q1012 NOSIG
2026-04-28 14:00:00,METAR VOBL 281400Z 20004KT 6000 SCT012 FEW025CB BKN080 29/18 Q1011 NOSIG
2026-04-28 13:30:00,METAR VOBL 281330Z 22006KT 6000 SCT012 FEW025CB BKN080 30/17 Q1011 NOSIG
2026-04-28 13:00:00,METAR VOBL 281300Z 25006KT 6000 SCT012 FEW025CB BKN080 29/17 Q1010 NOSIG
2026-04-28 12:30:00,METAR VOBL 281230Z 29006KT 6000 SCT012 FEW025CB BKN080 29/18 Q1010 NOSIG
2026-04-28 12:00:00,METAR VOBL 281200Z 22008KT 5000 -DZ SCT012 FEW025CB BKN080 28/18 Q1010 NOSIG
2026-04-28 11:30:00,METAR VOBL 281130Z 06008KT 5000 -RA SCT012 SCT020 FEW025CB 30/16 Q1010 NOSIG
2026-04-28 11:00:00,METAR VOBL 281100Z 10008KT 9999 SCT012 SCT020 FEW025CB 32/15 Q1009 NOSIG
2026-04-28 10:30:00,METAR VOBL 281030Z 08005KT 9999 SCT012 SCT020 34/13 Q1009 NOSIG
2026-04-28 10:00:00,METAR VOBL 281000Z 05008KT 9999 SCT012 35/14 Q1009 NOSIG
2026-04-28 09:30:00,METAR VOBL 280930Z VRB02KT 9999 SCT012 35/14 Q1010 NOSIG
2026-04-28 09:00:00,METAR VOBL 280900Z COR VRB02KT 9999 SCT012 35/14 Q1010 NOSIG
2026-04-28 08:30:00,METAR VOBL 280830Z VRB02KT 9999 FEW012 34/15 Q1011 NOSIG
2026-04-28 08:00:00,METAR VOBL 280800Z 36003KT 8000 FEW012 34/15 Q1012 NOSIG
2026-04-28 07:30:00,METAR VOBL 280730Z 36003KT 8000 FEW012 34/15 Q1012 NOSIG
2026-04-28 07:00:00,METAR VOBL 280700Z 27004KT 8000 FEW012 33/17 Q1013 NOSIG
2026-04-28 06:30:00,METAR VOBL 280630Z 26004KT 8000 FEW012 32/17 Q1013 NOSIG
2026-04-28 06:00:00,METAR VOBL 280600Z COR 26006KT 6000 FEW012 31/18 Q1013 NOSIG
2026-04-28 05:30:00,METAR VOBL 280530Z 26006KT 6000 FEW012 31/19 Q1014 NOSIG
2026-04-28 05:00:00,METAR VOBL 280500Z 26007KT 6000 FEW012 30/20 Q1014 NOSIG
2026-04-28 04:30:00,METAR VOBL 280430Z 26007KT 6000 FEW012 SCT080 29/19 Q1014 NOSIG
2026-04-28 04:00:00,METAR VOBL 280400Z 24007KT 6000 FEW012 SCT080 29/20 Q1015 NOSIG
2026-04-28 03:30:00,METAR VOBL 280330Z 24007KT 6000 FEW012 SCT080 28/20 Q1014 NOSIG
2026-04-28 03:00:00,METAR VOBL 280300Z 25005KT 5000 HZ FEW012 SCT080 27/21 Q1014 NOSIG
2026-04-28 02:30:00,METAR VOBL 280230Z 25005KT 5000 HZ FEW012 SCT080 27/21 Q1014 NOSIG
2026-04-28 02:00:00,METAR VOBL 280200Z 25006KT 3000 BR FEW012 SCT090 26/22 Q1013 NOSIG
2026-04-28 01:30:00,METAR VOBL 280130Z 24006KT 3500 BR FEW012 25/21 Q1013 TEMPO 3000 BR
2026-04-28 01:00:00,METAR VOBL 280100Z 25004KT 5000 BR FEW012 25/21 Q1013 NOSIG
2026-04-28 00:30:00,METAR VOBL 280030Z 19006KT 5000 BR FEW015 25/21 Q1012 NOSIG
2026-04-28 00:00:00,METAR VOBL 280000Z 24004KT 6000 FEW015 25/20 Q1012 TEMPO 5000 BR
2026-04-27 23:30:00,METAR VOBL 272330Z 24004KT 6000 FEW015 25/21 Q1012 NOSIG
2026-04-27 23:00:00,METAR VOBL 272300Z 22005KT 6000 FEW015 24/20 Q1011 NOSIG
2026-04-27 22:30:00,METAR VOBL 272230Z 20005KT 6000 FEW015 24/18 Q1011 NOSIG
2026-04-27 22:00:00,METAR VOBL 272200Z 20005KT 6000 FEW015 24/17 Q1011 NOSIG
2026-04-27 21:30:00,METAR VOBL 272130Z 18003KT 6000 FEW015 26/15 Q1011 NOSIG
2026-04-27 21:00:00,METAR VOBL 272100Z 18003KT 6000 FEW015 26/15 Q1011 NOSIG
2026-04-27 20:30:00,METAR VOBL 272030Z 17003KT 6000 FEW015 26/15 Q1012 NOSIG
2026-04-27 20:00:00,METAR VOBL 272000Z 15004KT 6000 FEW015 27/15 Q1012 NOSIG
2026-04-27 19:30:00,METAR VOBL 271930Z 15004KT 6000 FEW015 27/15 Q1012 NOSIG
2026-04-27 19:00:00,METAR VOBL 271900Z 15004KT 6000 FEW015 28/15 Q1012 NOSIG
2026-04-27 18:30:00,METAR VOBL 271830Z 15004KT 6000 FEW015 28/14 Q1012 NOSIG
2026-04-27 18:00:00,METAR VOBL 271800Z 15004KT CAVOK 29/13 Q1013 NOSIG
2026-04-27 17:30:00,METAR VOBL 271730Z 15004KT 6000 FEW015 29/13 Q1013 NOSIG
2026-04-27 17:00:00,METAR VOBL 271700Z 15006KT 6000 FEW015 30/12 Q1013 NOSIG
2026-04-27 16:30:00,METAR VOBL 271630Z 15006KT 6000 FEW015 30/12 Q1013 NOSIG
2026-04-27 16:00:00,METAR VOBL 271600Z 15006KT 6000 FEW015 30/12 Q1013 NOSIG
2026-04-27 15:30:00,METAR VOBL 271530Z 15006KT 6000 FEW015 30/13 Q1012 NOSIG
2026-04-27 15:00:00,METAR VOBL 271500Z 13006KT 6000 SCT015 30/13 Q1012 NOSIG
2026-04-27 14:30:00,METAR VOBL 271430Z 15006KT 6000 SCT015 32/11 Q1011 NOSIG
2026-04-27 14:00:00,METAR VOBL 271400Z 12008KT 6000 SCT015 33/11 Q1010 NOSIG
2026-04-27 13:30:00,METAR VOBL 271330Z 11006KT 6000 SCT015 33/12 Q1010 NOSIG
2026-04-27 13:00:00,METAR VOBL 271300Z 11008KT 6000 SCT015 33/12 Q1009 NOSIG
2026-04-27 12:30:00,METAR VOBL 271230Z 09008KT 8000 SCT015 34/12 Q1009 NOSIG
2026-04-27 12:00:00,METAR VOBL 271200Z 09008KT 8000 SCT015 35/11 Q1009 NOSIG
2026-04-27 11:30:00,METAR VOBL 271130Z 09005KT 8000 SCT015 35/10 Q1009 NOSIG
2026-04-27 11:00:00,METAR VOBL 271100Z 09005KT 8000 SCT015 35/10 Q1009 NOSIG
2026-04-27 10:30:00,METAR VOBL 271030Z 09005KT 8000 SCT015 35/11 Q1009 NOSIG
2026-04-27 10:00:00,METAR VOBL 271000Z 09005KT 8000 SCT015 36/12 Q1010 NOSIG
2026-04-27 09:30:00,METAR VOBL 270930Z 11005KT 8000 SCT015 34/12 Q1010 NOSIG
2026-04-27 09:00:00,METAR VOBL 270900Z 11005KT 8000 SCT015 34/13 Q1010 NOSIG
2026-04-27 08:30:00,METAR VOBL 270830Z 19005KT 8000 SCT015 34/13 Q1011 NOSIG
2026-04-27 08:00:00,METAR VOBL 270800Z 19005KT 8000 FEW015 33/13 Q1011 NOSIG
2026-04-27 07:30:00,METAR VOBL 270730Z 19005KT 8000 FEW015 33/13 Q1012 NOSIG
2026-04-27 07:00:00,METAR VOBL 270700Z 15005KT 8000 FEW015 33/14 Q1013 NOSIG
2026-04-27 06:30:00,METAR VOBL 270630Z 19005KT 8000 FEW015 32/15 Q1013 NOSIG
2026-04-27 06:00:00,METAR VOBL 270600Z COR 20003KT 8000 FEW015 32/15 Q1013 NOSIG
2026-04-27 05:30:00,METAR VOBL 270530Z 22008KT 8000 FEW015 31/17 Q1014 NOSIG
2026-04-27 05:00:00,METAR VOBL 270500Z 23009KT 8000 FEW015 30/17 Q1014 NOSIG
2026-04-27 04:30:00,METAR VOBL 270430Z 24007KT 8000 FEW015 30/17 Q1014 NOSIG
2026-04-27 04:00:00,METAR VOBL 270400Z 25007KT 6000 FEW015 29/18 Q1014 NOSIG
2026-04-27 03:30:00,METAR VOBL 270330Z 25007KT 6000 FEW015 28/19 Q1015 NOSIG
2026-04-27 03:00:00,METAR VOBL 270300Z 27007KT 6000 FEW015 27/19 Q1015 NOSIG
2026-04-27 02:30:00,METAR VOBL 270230Z 25010KT 6000 FEW015 26/20 Q1014 NOSIG
2026-04-27 02:00:00,METAR VOBL 270200Z 24005KT 6000 FEW015 25/21 Q1014 NOSIG
2026-04-27 01:30:00,METAR VOBL 270130Z 23005KT 6000 FEW015 25/21 Q1013 NOSIG
2026-04-27 01:00:00,METAR VOBL 270100Z 23005KT 6000 FEW015 25/20 Q1013 NOSIG
2026-04-27 00:30:00,METAR VOBL 270030Z 25003KT 6000 FEW015 23/18 Q1013 NOSIG
2026-04-27 00:00:00,METAR VOBL 270000Z 25003KT 6000 FEW015 22/17 Q1013 NOSIG
2026-04-26 23:30:00,METAR VOBL 262330Z 25003KT 6000 FEW015 22/17 Q1012 NOSIG
2026-04-26 23:00:00,METAR VOBL 262300Z 25003KT 6000 FEW015 23/17 Q1012 NOSIG
2026-04-26 22:30:00,METAR VOBL 262230Z 22004KT 6000 FEW015 23/17 Q1012 NOSIG
2026-04-26 22:00:00,METAR VOBL 262200Z 20003KT 6000 FEW015 24/15 Q1012 NOSIG
2026-04-26 21:30:00,METAR VOBL 262130Z 17003KT 6000 FEW015 26/15 Q1012 NOSIG
2026-04-26 21:00:00,METAR VOBL 262100Z 17003KT 6000 FEW015 25/15 Q1012 NOSIG
2026-04-26 20:30:00,METAR VOBL 262030Z 14006KT 6000 FEW015 26/15 Q1012 NOSIG
2026-04-26 20:00:00,METAR VOBL 262000Z 14006KT 6000 FEW015 26/15 Q1013 NOSIG
2026-04-26 19:30:00,METAR VOBL 261930Z 17006KT 6000 FEW015 26/15 Q1013 NOSIG
2026-04-26 19:00:00,METAR VOBL 261900Z 17005KT 6000 FEW015 27/14 Q1013 NOSIG
2026-04-26 18:30:00,METAR VOBL 261830Z 17006KT 6000 FEW015 27/14 Q1013 NOSIG
2026-04-26 18:00:00,METAR VOBL 261800Z 17006KT 6000 FEW015 27/13 Q1014 NOSIG
2026-04-26 17:30:00,METAR VOBL 261730Z 15007KT 6000 FEW015 28/12 Q1014 NOSIG
2026-04-26 17:00:00,METAR VOBL 261700Z 15008KT 6000 FEW015 28/12 Q1014 NOSIG
2026-04-26 16:30:00,METAR VOBL 261630Z 14008KT 6000 FEW015 28/12 Q1014 NOSIG
2026-04-26 16:00:00,METAR VOBL 261600Z 13008KT 6000 FEW015 29/12 Q1014 NOSIG
2026-04-26 15:30:00,METAR VOBL 261530Z 13006KT 6000 FEW015 30/12 Q1014 NOSIG
2026-04-26 15:00:00,METAR VOBL 261500Z 13006KT 6000 FEW015 30/11 Q1013 NOSIG
2026-04-26 14:30:00,METAR VOBL 261430Z 13006KT 6000 FEW015 31/11 Q1013 NOSIG
2026-04-26 14:00:00,METAR VOBL 261400Z 11007KT 6000 FEW015 31/11 Q1012 NOSIG
2026-04-26 13:30:00,METAR VOBL 261330Z 11008KT 6000 FEW015 32/11 Q1012 NOSIG
2026-04-26 13:00:00,METAR VOBL 261300Z 11008KT 8000 FEW015 33/11 Q1011 NOSIG
2026-04-26 12:30:00,METAR VOBL 261230Z 11009KT 9999 FEW015 33/11 Q1011 NOSIG
2026-04-26 12:00:00,METAR VOBL 261200Z 11009KT 9999 FEW015 34/11 Q1010 NOSIG
2026-04-26 11:30:00,METAR VOBL 261130Z 10008KT 9999 FEW015 34/10 Q1010 NOSIG
2026-04-26 11:00:00,METAR VOBL 261100Z 08011KT 9999 FEW015 35/11 Q1010 NOSIG
2026-04-26 10:30:00,METAR VOBL 261030Z 09009KT 9999 FEW015 35/10 Q1010 NOSIG
2026-04-26 10:00:00,METAR VOBL 261000Z 09012KT 9999 FEW015 35/11 Q1011 NOSIG
2026-04-26 09:30:00,METAR VOBL 260930Z 09008KT 9999 FEW015 35/09 Q1011 NOSIG
2026-04-26 09:00:00,METAR VOBL 260900Z 10006KT 9999 FEW015 35/09 Q1011 NOSIG
2026-04-26 08:30:00,METAR VOBL 260830Z 10006KT 9999 FEW015 35/10 Q1012 NOSIG
2026-04-26 08:00:00,METAR VOBL 260800Z 15003KT 8000 FEW015 34/11 Q1013 NOSIG
2026-04-26 07:30:00,METAR VOBL 260730Z 20003KT 8000 FEW015 33/13 Q1014 NOSIG
2026-04-26 07:00:00,METAR VOBL 260700Z 20003KT 8000 FEW015 33/13 Q1014 NOSIG
2026-04-26 06:30:00,METAR VOBL 260630Z 15004KT 8000 NSC 33/14 Q1015 NOSIG
2026-04-26 06:00:00,METAR VOBL 260600Z 18003KT 8000 NSC 32/15 Q1015 NOSIG
2026-04-26 05:30:00,METAR VOBL 260530Z 20005KT 8000 NSC 31/16 Q1015 NOSIG
2026-04-26 05:00:00,METAR VOBL 260500Z 19005KT 8000 NSC 31/16 Q1016 NOSIG
2026-04-26 04:30:00,METAR VOBL 260430Z COR 19005KT 8000 VV/// 30/17 Q1016 NOSIG
2026-04-26 04:00:00,METAR VOBL 260400Z 20004KT 6000 FEW015 29/17 Q1016 NOSIG
2026-04-26 03:30:00,METAR VOBL 260330Z 20004KT 6000 FEW015 28/18 Q1016 NOSIG
2026-04-26 03:00:00,METAR VOBL 260300Z 20004KT 6000 FEW015 27/18 Q1016 NOSIG
2026-04-26 02:30:00,METAR VOBL 260230Z 18004KT 6000 FEW015 26/19 Q1015 NOSIG
2026-04-26 02:00:00,METAR VOBL 260200Z 18004KT 6000 FEW015 25/19 Q1015 NOSIG
2026-04-26 01:30:00,METAR VOBL 260130Z 18004KT 6000 FEW015 24/19 Q1015 NOSIG
2026-04-26 01:00:00,METAR VOBL 260100Z 16004KT 6000 FEW015 23/19 Q1014 NOSIG
2026-04-26 00:30:00,METAR VOBL 260030Z 16004KT 6000 FEW015 23/19 Q1014 NOSIG
2026-04-26 00:00:00,METAR VOBL 260000Z 15004KT 6000 NSC 24/19 Q1014 NOSIG
2026-04-25 23:30:00,METAR VOBL 252330Z 13004KT 6000 NSC 24/19 Q1013 NOSIG
2026-04-25 23:00:00,METAR VOBL 252300Z 13006KT 6000 NSC 24/19 Q1013 NOSIG
2026-04-25 22:30:00,METAR VOBL 252230Z 13006KT 6000 NSC 24/19 Q1013 NOSIG
2026-04-25 22:00:00,METAR VOBL 252200Z 13006KT 6000 FEW015 24/18 Q1013 NOSIG
2026-04-25 21:30:00,METAR VOBL 252130Z 13005KT 6000 FEW015 24/18 Q1013 NOSIG
2026-04-25 21:00:00,METAR VOBL 252100Z 13004KT 6000 FEW015 24/17 Q1013 NOSIG
2026-04-25 20:30:00,METAR VOBL 252030Z 13004KT 6000 FEW015 25/17 Q1013 NOSIG
2026-04-25 20:00:00,METAR VOBL 252000Z 13006KT 6000 FEW015 25/17 Q1013 NOSIG
2026-04-25 19:30:00,METAR VOBL 251930Z 14006KT 6000 FEW015 26/17 Q1014 NOSIG
2026-04-25 19:00:00,METAR VOBL 251900Z 14007KT 6000 FEW015 26/17 Q1014 NOSIG
2026-04-25 18:30:00,METAR VOBL 251830Z 14008KT 6000 FEW015 26/16 Q1014 NOSIG
2026-04-25 18:00:00,METAR VOBL 251800Z 13008KT 6000 FEW015 27/15 Q1015 NOSIG
2026-04-25 17:30:00,METAR VOBL 251730Z 12008KT 6000 FEW015 28/15 Q1015 NOSIG
2026-04-25 17:00:00,METAR VOBL 251700Z 12006KT 6000 FEW015 27/15 Q1016 NOSIG
2026-04-25 16:30:00,METAR VOBL 251630Z 11006KT 8000 FEW015 28/15 Q1016 NOSIG
2026-04-25 16:00:00,METAR VOBL 251600Z 12008KT 8000 FEW015 29/14 Q1015 NOSIG
2026-04-25 15:30:00,METAR VOBL 251530Z 12008KT 8000 FEW015 30/13 Q1015 NOSIG
2026-04-25 15:00:00,METAR VOBL 251500Z 12008KT 8000 FEW015 30/13 Q1015 NOSIG
2026-04-25 14:30:00,METAR VOBL 251430Z 12008KT 8000 FEW015 31/12 Q1014 NOSIG
2026-04-25 14:00:00,METAR VOBL 251400Z 12008KT 8000 FEW015 31/12 Q1014 NOSIG
2026-04-25 13:30:00,METAR VOBL 251330Z 12008KT 8000 FEW015 32/11 Q1013 NOSIG
2026-04-25 13:00:00,METAR VOBL 251300Z 12008KT 9999 FEW015 33/11 Q1013 NOSIG
2026-04-25 12:30:00,METAR VOBL 251230Z 11008KT 9999 FEW015 33/11 Q1012 NOSIG
2026-04-25 12:00:00,METAR VOBL 251200Z 11008KT 9999 FEW015 33/11 Q1012 NOSIG
2026-04-25 11:30:00,METAR VOBL 251130Z 11008KT 9999 SCT015 34/10 Q1012 NOSIG
2026-04-25 11:00:00,METAR VOBL 251100Z 11008KT 9999 SCT015 35/10 Q1012 NOSIG
2026-04-25 10:30:00,METAR VOBL 251030Z 11010KT 9999 SCT015 35/10 Q1012 NOSIG
2026-04-25 10:00:00,METAR VOBL 251000Z 11008KT 9999 FEW015 35/10 Q1012 NOSIG
2026-04-25 09:30:00,METAR VOBL 250930Z 11008KT 9999 FEW015 35/10 Q1012 NOSIG
2026-04-25 09:00:00,METAR VOBL 250900Z 11008KT CAVOK 35/09 Q1012 NOSIG
2026-04-25 08:30:00,METAR VOBL 250830Z 12009KT 8000 FEW015 34/09 Q1013 NOSIG
2026-04-25 08:00:00,METAR VOBL 250800Z 11008KT 8000 FEW015 34/09 Q1013 NOSIG
2026-04-25 07:30:00,METAR VOBL 250730Z 12009KT 8000 FEW015 34/09 Q1014 NOSIG
2026-04-25 07:00:00,METAR VOBL 250700Z 12009KT 6000 NSC 34/10 Q1014 NOSIG
2026-04-25 06:30:00,METAR VOBL 250630Z 16010KT 6000 NSC 33/10 Q1014 NOSIG
2026-04-25 06:00:00,METAR VOBL 250600Z 18010KT 6000 NSC 33/11 Q1015 NOSIG
2026-04-25 05:30:00,METAR VOBL 250530Z 17010KT 6000 NSC 32/10 Q1015 NOSIG
2026-04-25 05:00:00,METAR VOBL 250500Z 20005KT 6000 NSC 30/12 Q1016 NOSIG
2026-04-25 04:30:00,METAR VOBL 250430Z 17004KT 6000 NSC 30/15 Q1016 NOSIG
2026-04-25 04:00:00,METAR VOBL 250400Z 22005KT 6000 FEW015 29/15 Q1016 NOSIG
2026-04-25 03:30:00,METAR VOBL 250330Z 20005KT 6000 FEW015 28/17 Q1016 NOSIG
2026-04-25 03:00:00,METAR VOBL 250300Z 18005KT 6000 FEW015 27/17 Q1016 NOSIG
2026-04-25 02:30:00,METAR VOBL 250230Z 16004KT 6000 FEW015 26/17 Q1016 NOSIG
2026-04-25 02:00:00,METAR VOBL 250200Z 16004KT 6000 FEW015 SCT080 26/17 Q1015 NOSIG
2026-04-25 01:30:00,METAR VOBL 250130Z 16004KT 6000 FEW015 SCT080 25/17 Q1015 NOSIG
2026-04-25 01:00:00,METAR VOBL 250100Z 16003KT 6000 SCT015 24/17 Q1014 NOSIG
2026-04-25 00:30:00,METAR VOBL 250030Z VRB02KT 6000 SCT015 23/17 Q1014 NOSIG
2026-04-25 00:00:00,METAR VOBL 250000Z 14003KT 6000 FEW015 24/17 Q1013 NOSIG
2026-04-24 23:30:00,METAR VOBL 242330Z 14003KT 6000 FEW015 24/17 Q1013 NOSIG
2026-04-24 23:00:00,METAR VOBL 242300Z 14003KT 6000 FEW015 24/17 Q1013 NOSIG
2026-04-24 22:30:00,METAR VOBL 242230Z 14003KT 6000 FEW015 25/17 Q1013 NOSIG
2026-04-24 22:00:00,METAR VOBL 242200Z 13003KT 6000 FEW015 24/18 Q1013 NOSIG
2026-04-24 21:30:00,METAR VOBL 242130Z 13003KT 6000 FEW015 23/18 Q1013 NOSIG
2026-04-24 21:00:00,METAR VOBL 242100Z 13003KT 6000 FEW015 23/18 Q1013 NOSIG
2026-04-24 20:30:00,METAR VOBL 242030Z 14003KT 6000 NSC 25/17 Q1013 NOSIG
2026-04-24 20:00:00,METAR VOBL 242000Z 14003KT 6000 NSC 25/16 Q1013 NOSIG
2026-04-24 19:30:00,METAR VOBL 241930Z 12003KT 6000 NSC 25/16 Q1013 NOSIG
2026-04-24 19:00:00,METAR VOBL 241900Z COR 12003KT 6000 NSC 26/16 Q1013 NOSIG
2026-04-24 18:30:00,METAR VOBL 241830Z 15004KT 6000 VV/// 27/15 Q1014 NOSIG
2026-04-24 18:00:00,METAR VOBL 241800Z 15004KT 6000 FEW015 27/15 Q1014 NOSIG
2026-04-24 17:30:00,METAR VOBL 241730Z 15004KT 6000 FEW015 27/14 Q1014 NOSIG
2026-04-24 17:00:00,METAR VOBL 241700Z 14006KT 6000 FEW015 28/14 Q1014 NOSIG
2026-04-24 16:30:00,METAR VOBL 241630Z 12006KT 6000 FEW015 28/13 Q1014 NOSIG
2026-04-24 16:00:00,METAR VOBL 241600Z 13006KT 6000 FEW015 29/13 Q1014 NOSIG
2026-04-24 15:30:00,METAR VOBL 241530Z 14007KT 6000 FEW015 30/12 Q1014 NOSIG
2026-04-24 15:00:00,METAR VOBL 241500Z 15008KT 6000 FEW015 30/13 Q1013 NOSIG
2026-04-24 14:30:00,METAR VOBL 241430Z 15008KT 6000 FEW015 31/13 Q1013 NOSIG
2026-04-24 14:00:00,METAR VOBL 241400Z 15007KT 6000 NSC 31/12 Q1013 NOSIG
2026-04-24 13:30:00,METAR VOBL 241330Z 12008KT 8000 NSC 32/11 Q1012 NOSIG
2026-04-24 13:00:00,METAR VOBL 241300Z 11009KT 8000 FEW015 32/11 Q1011 NOSIG
2026-04-24 12:30:00,METAR VOBL 241230Z 11009KT 8000 FEW015 33/11 Q1011 NOSIG
2026-04-24 12:00:00,METAR VOBL 241200Z 11009KT 8000 FEW015 33/11 Q1011 NOSIG
2026-04-24 11:30:00,METAR VOBL 241130Z 10009KT 9999 SCT015 34/10 Q1010 NOSIG
2026-04-24 11:00:00,METAR VOBL 241100Z 10009KT 9999 SCT015 34/10 Q1010 NOSIG
2026-04-24 10:30:00,METAR VOBL 241030Z 11008KT 9999 SCT015 SCT020 34/09 Q1010 NOSIG
2026-04-24 10:00:00,METAR VOBL 241000Z 11008KT 9999 SCT015 SCT020 34/10 Q1011 NOSIG
2026-04-24 09:30:00,METAR VOBL 240930Z 09008KT 9999 SCT015 SCT020 35/09 Q1011 NOSIG
2026-04-24 09:00:00,METAR VOBL 240900Z 09007KT 9999 SCT015 SCT020 35/10 Q1011 NOSIG
2026-04-24 08:30:00,METAR VOBL 240830Z 10007KT 8000 SCT015 SCT020 34/09 Q1011 NOSIG
2026-04-24 08:00:00,METAR VOBL 240800Z 12005KT 8000 SCT015 SCT020 34/10 Q1012 NOSIG
2026-04-24 07:30:00,METAR VOBL 240730Z 12005KT 8000 SCT015 SCT020 34/11 Q1012 NOSIG
2026-04-24 07:00:00,METAR VOBL 240700Z VRB02KT 8000 SCT015 34/10 Q1013 NOSIG
2026-04-24 06:30:00,METAR VOBL 240630Z VRB02KT 8000 SCT015 32/12 Q1013 NOSIG
2026-04-24 06:00:00,METAR VOBL 240600Z VRB02KT 8000 SCT015 32/13 Q1014 NOSIG
2026-04-24 05:30:00,METAR VOBL 240530Z VRB02KT 8000 FEW015 32/13 Q1014 NOSIG
2026-04-24 05:00:00,METAR VOBL 240500Z 22003KT 8000 FEW015 31/14 Q1014 NOSIG
2026-04-24 04:30:00,METAR VOBL 240430Z 27005KT 8000 NSC 30/15 Q1014 NOSIG
2026-04-24 04:00:00,METAR VOBL 240400Z 27005KT 6000 NSC 30/18 Q1014 NOSIG
2026-04-24 03:30:00,METAR VOBL 240330Z 27007KT 6000 NSC 28/19 Q1014 NOSIG
2026-04-24 03:00:00,METAR VOBL 240300Z 27005KT 6000 NSC 27/19 Q1014 NOSIG
2026-04-24 02:30:00,METAR VOBL 240230Z 24004KT 6000 NSC 26/19 Q1014 NOSIG
2026-04-24 02:00:00,METAR VOBL 240200Z 22004KT 6000 NSC 24/17 Q1014 NOSIG
2026-04-24 01:30:00,METAR VOBL 240130Z VRB02KT 6000 NSC 23/16 Q1013 NOSIG
2026-04-24 01:00:00,METAR VOBL 240100Z VRB02KT 6000 NSC 22/16 Q1013 NOSIG
2026-04-24 00:30:00,METAR VOBL 240030Z VRB01KT 6000 NSC 21/17 Q1013 NOSIG
2026-04-24 00:00:00,METAR VOBL 240000Z 18003KT 6000 NSC 24/16 Q1012 NOSIG
2026-04-23 23:30:00,METAR VOBL 232330Z 16004KT 6000 NSC 24/16 Q1012 NOSIG
2026-04-23 23:00:00,METAR VOBL 232300Z 14003KT 6000 NSC 22/17 Q1012 NOSIG
2026-04-23 22:30:00,METAR VOBL 232230Z 14004KT 6000 NSC 23/17 Q1012 NOSIG
2026-04-23 22:00:00,METAR VOBL 232200Z 16004KT 6000 NSC 25/16 Q1012 NOSIG
2026-04-23 21:30:00,METAR VOBL 232130Z 14004KT 6000 NSC 23/16 Q1012 NOSIG
2026-04-23 21:00:00,METAR VOBL 232100Z 14006KT 6000 NSC 24/15 Q1012 NOSIG
2026-04-23 20:30:00,METAR VOBL 232030Z 14006KT 6000 NSC 24/15 Q1012 NOSIG
2026-04-23 20:00:00,METAR VOBL 232000Z 12006KT 6000 NSC 24/14 Q1012 NOSIG
2026-04-23 19:30:00,METAR VOBL 231930Z 12004KT 6000 NSC 24/16 Q1012 NOSIG
2026-04-23 19:00:00,METAR VOBL 231900Z 12004KT 6000 NSC 24/15 Q1013 NOSIG
2026-04-23 18:30:00,METAR VOBL 231830Z 12004KT 6000 NSC 25/14 Q1013 NOSIG
2026-04-23 18:00:00,METAR VOBL 231800Z 12004KT 6000 FEW015 26/14 Q1014 NOSIG
2026-04-23 17:30:00,METAR VOBL 231730Z 12004KT 6000 FEW015 27/12 Q1014 NOSIG
2026-04-23 17:00:00,METAR VOBL 231700Z 12004KT 6000 FEW015 28/12 Q1014 NOSIG
2026-04-23 16:30:00,METAR VOBL 231630Z 12004KT 6000 FEW015 28/11 Q1014 NOSIG
2026-04-23 16:00:00,METAR VOBL 231600Z 12004KT 6000 FEW015 28/09 Q1014 NOSIG
2026-04-23 15:30:00,METAR VOBL 231530Z 12008KT 6000 FEW015 29/09 Q1013 NOSIG
2026-04-23 15:00:00,METAR VOBL 231500Z 12008KT 6000 FEW015 30/08 Q1013 NOSIG
2026-04-23 14:30:00,METAR VOBL 231430Z 11010KT 6000 FEW015 30/08 Q1012 NOSIG
2026-04-23 14:00:00,METAR VOBL 231400Z 11010KT 6000 FEW015 31/08 Q1012 NOSIG
2026-04-23 13:30:00,METAR VOBL 231330Z 11010KT 6000 SCT015 32/09 Q1011 NOSIG
2026-04-23 13:00:00,METAR VOBL 231300Z 11011KT 8000 SCT015 32/09 Q1011 NOSIG
2026-04-23 12:30:00,METAR VOBL 231230Z 09010KT 8000 SCT015 33/09 Q1011 NOSIG
2026-04-23 12:00:00,METAR VOBL 231200Z 09010KT 9999 SCT015 34/08 Q1010 NOSIG
2026-04-23 11:30:00,METAR VOBL 231130Z 11010KT 9999 SCT015 34/08 Q1010 NOSIG
2026-04-23 11:00:00,METAR VOBL 231100Z COR 11009KT 9999 SCT015 34/10 Q1010 NOSIG
2026-04-23 10:30:00,METAR VOBL 231030Z 11009KT 9999 SCT015 35/09 Q1010 NOSIG
2026-04-23 10:00:00,METAR VOBL 231000Z 11008KT 9999 SCT015 35/10 Q1010 NOSIG
2026-04-23 09:30:00,METAR VOBL 230930Z 11008KT 9999 SCT015 34/09 Q1011 NOSIG
2026-04-23 09:00:00,METAR VOBL 230900Z 09010KT 9999 SCT015 35/10 Q1011 NOSIG
2026-04-23 08:30:00,METAR VOBL 230830Z 09010KT 9999 FEW015 34/10 Q1011 NOSIG
2026-04-23 08:00:00,METAR VOBL 230800Z 09010KT 9999 FEW015 35/11 Q1012 NOSIG
2026-04-23 07:30:00,METAR VOBL 230730Z 11011KT 9999 FEW015 33/09 Q1012 NOSIG
2026-04-23 07:00:00,METAR VOBL 230700Z 08010KT 8000 FEW015 33/09 Q1013 NOSIG
2026-04-23 06:30:00,METAR VOBL 230630Z 08006KT 8000 NSC 33/11 Q1013 NOSIG
2026-04-23 06:00:00,METAR VOBL 230600Z 07006KT 8000 NSC 32/11 Q1013 NOSIG
2026-04-23 05:30:00,METAR VOBL 230530Z 12003KT 8000 NSC 32/11 Q1014 NOSIG
2026-04-23 05:00:00,METAR VOBL 230500Z VRB02KT 8000 NSC 31/14 Q1014 NOSIG
2026-04-23 04:30:00,METAR VOBL 230430Z 19005KT 8000 NSC 29/13 Q1014 NOSIG
2026-04-23 04:00:00,METAR VOBL 230400Z 21005KT 6000 NSC 28/14 Q1014 NOSIG
2026-04-23 03:30:00,METAR VOBL 230330Z 11003KT 6000 NSC 28/16 Q1014 NOSIG
2026-04-23 03:00:00,METAR VOBL 230300Z 11003KT 6000 NSC 26/17 Q1014 NOSIG
2026-04-23 02:30:00,METAR VOBL 230230Z 11003KT 5000 HZ FEW012 24/17 Q1014 NOSIG
2026-04-23 02:00:00,METAR VOBL 230200Z 10003KT 5000 HZ FEW012 23/17 Q1013 NOSIG
2026-04-23 01:30:00,METAR VOBL 230130Z 12003KT 5000 HZ FEW012 22/16 Q1013 NOSIG
2026-04-23 01:00:00,METAR VOBL 230100Z 14003KT 6000 FEW012 21/15 Q1013 TEMPO 5000 HZ
2026-04-23 00:30:00,METAR VOBL 230030Z 16003KT 6000 FEW015 22/15 Q1012 NOSIG
2026-04-23 00:00:00,METAR VOBL 230000Z 16004KT 6000 FEW015 23/15 Q1012 NOSIG
2026-04-22 23:30:00,METAR VOBL 222330Z 14004KT 6000 FEW015 23/15 Q1012 NOSIG
2026-04-22 23:00:00,METAR VOBL 222300Z 12004KT 6000 FEW015 23/15 Q1012 NOSIG
2026-04-22 22:30:00,METAR VOBL 222230Z 14004KT 6000 FEW015 23/15 Q1012 NOSIG
2026-04-22 22:00:00,METAR VOBL 222200Z 14005KT 6000 FEW015 22/16 Q1012 NOSIG
2026-04-22 21:30:00,METAR VOBL 222130Z 11005KT 6000 FEW015 23/18 Q1012 NOSIG
2026-04-22 21:00:00,METAR VOBL 222100Z 11005KT 6000 FEW015 23/18 Q1012 NOSIG
2026-04-22 20:30:00,METAR VOBL 222030Z 11003KT 6000 FEW015 23/17 Q1012 NOSIG
2026-04-22 20:00:00,METAR VOBL 222000Z 12003KT 6000 FEW015 24/16 Q1013 NOSIG
2026-04-22 19:30:00,METAR VOBL 221930Z 12004KT 6000 FEW015 24/15 Q1013 NOSIG
2026-04-22 19:00:00,METAR VOBL 221900Z 12006KT 6000 FEW015 24/15 Q1013 NOSIG
2026-04-22 18:30:00,METAR VOBL 221830Z 12006KT 6000 FEW015 25/15 Q1013 NOSIG
2026-04-22 18:00:00,METAR VOBL 221800Z 12006KT 6000 FEW015 26/14 Q1014 NOSIG
2026-04-22 17:30:00,METAR VOBL 221730Z 13006KT 6000 FEW015 27/14 Q1014 NOSIG
2026-04-22 17:00:00,METAR VOBL 221700Z 13006KT 6000 FEW015 27/13 Q1014 NOSIG
2026-04-22 16:30:00,METAR VOBL 221630Z 13008KT 6000 FEW015 28/13 Q1014 NOSIG
2026-04-22 16:00:00,METAR VOBL 221600Z 13009KT 6000 FEW015 29/12 Q1014 NOSIG
2026-04-22 15:30:00,METAR VOBL 221530Z 12006KT 6000 FEW015 29/12 Q1013 NOSIG
2026-04-22 15:00:00,METAR VOBL 221500Z 10009KT 6000 FEW015 29/12 Q1013 NOSIG
2026-04-22 14:30:00,METAR VOBL 221430Z 11010KT 8000 FEW015 30/11 Q1012 NOSIG
2026-04-22 14:00:00,METAR VOBL 221400Z 11010KT 9999 FEW015 31/09 Q1012 NOSIG
2026-04-22 13:30:00,METAR VOBL 221330Z 11008KT 9999 FEW015 32/08 Q1011 NOSIG
2026-04-22 13:00:00,METAR VOBL 221300Z 11010KT 9999 FEW015 33/08 Q1011 NOSIG
2026-04-22 12:30:00,METAR VOBL 221230Z 11010KT 9999 FEW015 33/08 Q1011 NOSIG
2026-04-22 12:00:00,METAR VOBL 221200Z 11008KT 9999 FEW015 34/09 Q1010 NOSIG
2026-04-22 11:30:00,METAR VOBL 221130Z 09010KT 9999 FEW015 34/11 Q1010 NOSIG
2026-04-22 11:00:00,METAR VOBL 221100Z 09010KT 9999 FEW015 35/09 Q1010 NOSIG
2026-04-22 10:30:00,METAR VOBL 221030Z 09008KT 9999 FEW015 35/09 Q1010 NOSIG
2026-04-22 10:00:00,METAR VOBL 221000Z 09010KT 9999 FEW015 35/08 Q1010 NOSIG
2026-04-22 09:30:00,METAR VOBL 220930Z 09012KT 9999 FEW015 35/09 Q1011 NOSIG
2026-04-22 09:00:00,METAR VOBL 220900Z 09012KT 9999 FEW015 35/09 Q1011 NOSIG
2026-04-22 08:30:00,METAR VOBL 220830Z 07008KT 9999 FEW015 35/10 Q1011 NOSIG
2026-04-22 08:00:00,METAR VOBL 220800Z COR 08012KT 9999 FEW015 34/10 Q1012 NOSIG
2026-04-22 07:30:00,METAR VOBL 220730Z 08010KT CAVOK 34/10 Q1012 NOSIG
2026-04-22 07:00:00,METAR VOBL 220700Z 10008KT CAVOK 33/09 Q1013 NOSIG
2026-04-22 06:30:00,METAR VOBL 220630Z 13006KT CAVOK 33/11 Q1014 NOSIG
2026-04-22 06:00:00,METAR VOBL 220600Z 13006KT CAVOK 32/11 Q1014 NOSIG
2026-04-22 05:30:00,METAR VOBL 220530Z 15004KT CAVOK 31/11 Q1014 NOSIG
2026-04-22 05:00:00,METAR VOBL 220500Z 15004KT CAVOK 31/13 Q1015 NOSIG
2026-04-22 04:30:00,METAR VOBL 220430Z 18004KT CAVOK 30/13 Q1015 NOSIG
2026-04-22 04:00:00,METAR VOBL 220400Z 15004KT 8000 FEW015 29/16 Q1015 NOSIG
2026-04-22 03:30:00,METAR VOBL 220330Z 14004KT 6000 FEW015 28/16 Q1015 NOSIG
2026-04-22 03:00:00,METAR VOBL 220300Z 14004KT 6000 FEW015 26/16 Q1015 NOSIG
2026-04-22 02:30:00,METAR VOBL 220230Z VRB02KT 6000 FEW015 25/15 Q1015 NOSIG
2026-04-22 02:00:00,METAR VOBL 220200Z VRB02KT 6000 FEW015 24/16 Q1015 NOSIG
2026-04-22 01:30:00,METAR VOBL 220130Z VRB02KT 6000 FEW015 23/16 Q1014 NOSIG
2026-04-22 01:00:00,METAR VOBL 220100Z VRB02KT 6000 FEW015 22/16 Q1014 NOSIG
2026-04-22 00:30:00,METAR VOBL 220030Z VRB02KT 6000 FEW015 22/16 Q1014 NOSIG
2026-04-22 00:00:00,METAR VOBL 220000Z VRB02KT 6000 NSC 22/16 Q1014 NOSIG
2026-04-21 23:30:00,METAR VOBL 212330Z 11005KT 6000 NSC 23/16 Q1013 NOSIG
2026-04-21 23:00:00,METAR VOBL 212300Z 11005KT 6000 NSC 23/16 Q1013 NOSIG
2026-04-21 22:30:00,METAR VOBL 212230Z 11005KT 6000 NSC 23/16 Q1013 NOSIG
2026-04-21 22:00:00,METAR VOBL 212200Z 09005KT 6000 FEW015 23/16 Q1013 NOSIG
2026-04-21 21:30:00,METAR VOBL 212130Z 31005KT 6000 SCT015 23/16 Q1013 NOSIG
2026-04-21 21:00:00,METAR VOBL 212100Z 12005KT 6000 SCT015 24/16 Q1013 NOSIG
2026-04-21 20:30:00,METAR VOBL 212030Z 12005KT 6000 SCT015 24/15 Q1013 NOSIG
2026-04-21 20:00:00,METAR VOBL 212000Z 12005KT 6000 SCT015 24/14 Q1014 NOSIG
2026-04-21 19:30:00,METAR VOBL 211930Z 13005KT 6000 SCT015 24/13 Q1014 NOSIG
2026-04-21 19:00:00,METAR VOBL 211900Z 14005KT 6000 SCT015 26/12 Q1014 NOSIG
2026-04-21 18:30:00,METAR VOBL 211830Z 15005KT 6000 SCT015 27/12 Q1014 NOSIG
2026-04-21 18:00:00,METAR VOBL 211800Z 14005KT 6000 SCT015 27/11 Q1014 NOSIG
2026-04-21 17:30:00,METAR VOBL 211730Z 11005KT 6000 SCT015 26/10 Q1015 NOSIG
2026-04-21 17:00:00,METAR VOBL 211700Z 12008KT 8000 FEW015 27/10 Q1015 NOSIG
2026-04-21 16:30:00,METAR VOBL 211630Z 11008KT 8000 FEW015 28/09 Q1014 NOSIG
2026-04-21 16:00:00,METAR VOBL 211600Z 11008KT 8000 FEW015 29/09 Q1014 NOSIG
2026-04-21 15:30:00,METAR VOBL 211530Z 11009KT 8000 FEW015 29/09 Q1013 NOSIG
2026-04-21 15:00:00,METAR VOBL 211500Z 11009KT 8000 FEW015 30/09 Q1013 NOSIG
2026-04-21 14:30:00,METAR VOBL 211430Z 11008KT 8000 FEW015 30/09 Q1012 NOSIG
2026-04-21 14:00:00,METAR VOBL 211400Z 11009KT 8000 FEW015 30/09 Q1012 NOSIG
2026-04-21 13:30:00,METAR VOBL 211330Z 11009KT 9999 FEW015 31/08 Q1011 NOSIG
2026-04-21 13:00:00,METAR VOBL 211300Z 11008KT 9999 FEW015 33/07 Q1011 NOSIG
2026-04-21 12:30:00,METAR VOBL 211230Z 09008KT 9999 FEW015 33/07 Q1010 NOSIG
2026-04-21 12:00:00,METAR VOBL 211200Z 09008KT 9999 FEW015 35/07 Q1010 NOSIG
2026-04-21 11:30:00,METAR VOBL 211130Z 09008KT 9999 FEW015 35/07 Q1010 NOSIG
2026-04-21 11:00:00,METAR VOBL 211100Z 09008KT 9999 FEW015 35/07 Q1010 NOSIG
2026-04-21 10:30:00,METAR VOBL 211030Z 09008KT 9999 FEW015 35/08 Q1010 NOSIG
2026-04-21 10:00:00,METAR VOBL 211000Z 09008KT 9999 FEW015 35/08 Q1010 NOSIG
2026-04-21 09:30:00,METAR VOBL 210930Z 09008KT 9999 FEW015 35/08 Q1010 NOSIG
2026-04-21 09:00:00,METAR VOBL 210900Z 09008KT 8000 FEW015 35/08 Q1011 NOSIG
2026-04-21 08:30:00,METAR VOBL 210830Z 07008KT 8000 FEW015 34/08 Q1011 NOSIG
2026-04-21 08:00:00,METAR VOBL 210800Z 08004KT 8000 FEW015 33/09 Q1012 NOSIG
2026-04-21 07:30:00,METAR VOBL 210730Z 05004KT 8000 FEW015 33/12 Q1013 NOSIG
2026-04-21 07:00:00,METAR VOBL 210700Z 34005KT 8000 FEW015 32/12 Q1013 NOSIG
2026-04-21 06:30:00,METAR VOBL 210630Z 31006KT 8000 FEW015 31/13 Q1014 NOSIG
2026-04-21 06:00:00,METAR VOBL 210600Z VRB02KT 8000 FEW015 31/14 Q1014 NOSIG
2026-04-21 05:30:00,METAR VOBL 210530Z VRB02KT 6000 FEW015 30/15 Q1015 NOSIG
2026-04-21 05:00:00,METAR VOBL 210500Z VRB02KT 6000 FEW015 30/15 Q1015 NOSIG
2026-04-21 04:30:00,METAR VOBL 210430Z 23005KT 6000 FEW015 29/17 Q1015 NOSIG
2026-04-21 04:00:00,METAR VOBL 210400Z 25005KT 6000 FEW015 28/18 Q1015 NOSIG
2026-04-21 03:30:00,METAR VOBL 210330Z 25004KT 6000 FEW015 27/19 Q1015 NOSIG
2026-04-21 03:00:00,METAR VOBL 210300Z 23004KT 6000 FEW015 26/20 Q1015 NOSIG
2026-04-21 02:30:00,METAR VOBL 210230Z VRB02KT 6000 NSC 25/20 Q1015 NOSIG
2026-04-21 02:00:00,METAR VOBL 210200Z COR 18004KT 6000 NSC 24/21 Q1014 NOSIG
2026-04-21 01:30:00,METAR VOBL 210130Z 16004KT 4000 BR NSC 23/21 Q1014 BECMG 5000 BR
2026-04-21 01:00:00,METAR VOBL 210100Z 16006KT 4000 BR NSC 23/21 Q1014 NOSIG
2026-04-21 00:30:00,METAR VOBL 210030Z 16006KT 4000 BR NSC 22/21 Q1013 NOSIG
2026-04-21 00:00:00,METAR VOBL 210000Z 15006KT 5000 BR NSC 23/21 Q1014 NOSIG
2026-04-20 23:30:00,METAR VOBL 202330Z 14005KT 6000 NSC 23/20 Q1013 TEMPO 5000 BR
2026-04-20 23:00:00,METAR VOBL 202300Z 14005KT 6000 NSC 23/20 Q1013 NOSIG
2026-04-20 22:30:00,METAR VOBL 202230Z 17007KT 6000 NSC 23/20 Q1013 NOSIG
2026-04-20 22:00:00,METAR VOBL 202200Z 17005KT 6000 NSC 24/20 Q1013 NOSIG
2026-04-20 21:30:00,METAR VOBL 202130Z 17005KT 6000 NSC 24/19 Q1013 NOSIG
2026-04-20 21:00:00,METAR VOBL 202100Z 17005KT 6000 NSC 25/17 Q1013 NOSIG
2026-04-20 20:30:00,METAR VOBL 202030Z 15006KT 6000 NSC 25/17 Q1013 NOSIG
2026-04-20 20:00:00,METAR VOBL 202000Z 15005KT 6000 NSC 26/15 Q1014 NOSIG
2026-04-20 19:30:00,METAR VOBL 201930Z 15004KT 6000 NSC 26/15 Q1014 NOSIG
2026-04-20 19:00:00,METAR VOBL 201900Z 15005KT 6000 NSC 27/14 Q1014 NOSIG
2026-04-20 18:30:00,METAR VOBL 201830Z 12004KT 6000 NSC 26/14 Q1014 NOSIG
2026-04-20 18:00:00,METAR VOBL 201800Z 12008KT 6000 NSC 27/14 Q1014 NOSIG
2026-04-20 17:30:00,METAR VOBL 201730Z 13006KT 6000 NSC 28/15 Q1014 NOSIG
2026-04-20 17:00:00,METAR VOBL 201700Z 13006KT 6000 NSC 28/14 Q1014 NOSIG
2026-04-20 16:30:00,METAR VOBL 201630Z 12006KT 6000 NSC 29/14 Q1014 NOSIG
2026-04-20 16:00:00,METAR VOBL 201600Z 12008KT 6000 NSC 29/14 Q1014 NOSIG
2026-04-20 15:30:00,METAR VOBL 201530Z 12008KT 6000 NSC 29/15 Q1013 NOSIG
2026-04-20 15:00:00,METAR VOBL 201500Z 12008KT 6000 FEW015 30/14 Q1013 NOSIG
2026-04-20 14:30:00,METAR VOBL 201430Z 12008KT 8000 FEW015 31/12 Q1012 NOSIG
2026-04-20 14:00:00,METAR VOBL 201400Z 12008KT 8000 FEW015 31/11 Q1012 NOSIG
2026-04-20 13:30:00,METAR VOBL 201330Z 12009KT 8000 FEW015 31/11 Q1011 NOSIG
2026-04-20 13:00:00,METAR VOBL 201300Z 10009KT 8000 FEW015 32/10 Q1011 NOSIG
2026-04-20 12:30:00,METAR VOBL 201230Z 10009KT 9999 FEW015 33/10 Q1010 NOSIG
2026-04-20 12:00:00,METAR VOBL 201200Z 10009KT 9999 FEW015 34/09 Q1010 NOSIG
2026-04-20 11:30:00,METAR VOBL 201130Z 10009KT 9999 SCT015 34/10 Q1010 NOSIG
2026-04-20 11:00:00,METAR VOBL 201100Z 10010KT 9999 SCT015 35/11 Q1010 NOSIG
2026-04-20 10:30:00,METAR VOBL 201030Z 10008KT 9999 SCT015 35/11 Q1010 NOSIG
2026-04-20 10:00:00,METAR VOBL 201000Z 10008KT 9999 SCT015 35/11 Q1010 NOSIG
2026-04-20 09:30:00,METAR VOBL 200930Z 11008KT 9999 SCT015 35/10 Q1010 NOSIG
2026-04-20 09:00:00,METAR VOBL 200900Z 12008KT 9999 SCT015 35/10 Q1011 NOSIG
2026-04-20 08:30:00,METAR VOBL 200830Z 12006KT 9999 SCT015 34/12 Q1011 NOSIG
2026-04-20 08:00:00,METAR VOBL 200800Z 09003KT 9999 SCT015 34/14 Q1012 NOSIG
2026-04-20 07:30:00,METAR VOBL 200730Z 09004KT 9999 SCT015 33/14 Q1013 NOSIG
2026-04-20 07:00:00,METAR VOBL 200700Z VRB03KT 9999 SCT015 33/14 Q1013 NOSIG
2026-04-20 06:30:00,METAR VOBL 200630Z VRB02KT 9999 FEW015 33/15 Q1014 NOSIG
2026-04-20 06:00:00,METAR VOBL 200600Z VRB02KT 9999 FEW015 31/16 Q1015 NOSIG
2026-04-20 05:30:00,METAR VOBL 200530Z VRB02KT CAVOK 30/16 Q1015 NOSIG
2026-04-20 05:00:00,METAR VOBL 200500Z VRB02KT 8000 NSC 30/16 Q1015 NOSIG
2026-04-20 04:30:00,METAR VOBL 200430Z VRB02KT 8000 NSC 30/17 Q1015 NOSIG
2026-04-20 04:00:00,METAR VOBL 200400Z 28003KT 6000 FEW015 28/17 Q1015 NOSIG
2026-04-20 03:30:00,METAR VOBL 200330Z 30004KT 6000 FEW015 27/17 Q1015 NOSIG
2026-04-20 03:00:00,METAR VOBL 200300Z 30005KT 6000 FEW015 26/17 Q1015 NOSIG
2026-04-20 02:30:00,METAR VOBL 200230Z 30006KT 5000 HZ FEW015 25/17 Q1015 NOSIG
2026-04-20 02:00:00,METAR VOBL 200200Z 29005KT 5000 HZ FEW015 25/17 Q1014 NOSIG
2026-04-20 01:30:00,METAR VOBL 200130Z 29005KT 5000 HZ FEW015 24/18 Q1014 NOSIG
2026-04-20 01:00:00,METAR VOBL 200100Z 27005KT 5000 HZ FEW015 24/18 Q1014 NOSIG
2026-04-20 00:30:00,METAR VOBL 200030Z 28005KT 6000 FEW015 23/17 Q1014 NOSIG
2026-04-20 00:00:00,METAR VOBL 200000Z 28007KT 6000 FEW015 23/17 Q1014 NOSIG
2026-04-19 23:30:00,METAR VOBL 192330Z 29007KT 6000 FEW015 24/17 Q1014 NOSIG
2026-04-19 23:00:00,METAR VOBL 192300Z 26009KT 6000 FEW015 23/17 Q1013 NOSIG
2026-04-19 22:30:00,METAR VOBL 192230Z 26007KT 6000 FEW015 23/15 Q1013 NOSIG
2026-04-19 22:00:00,METAR VOBL 192200Z 26005KT 6000 FEW015 24/15 Q1013 NOSIG
2026-04-19 21:30:00,METAR VOBL 192130Z 24005KT 6000 FEW015 24/15 Q1013 NOSIG
2026-04-19 21:00:00,METAR VOBL 192100Z 23005KT 6000 FEW015 25/14 Q1013 NOSIG
2026-04-19 20:30:00,METAR VOBL 192030Z 23004KT 6000 FEW015 25/15 Q1013 NOSIG
2026-04-19 20:00:00,METAR VOBL 192000Z 18004KT 6000 FEW015 26/13 Q1014 NOSIG
2026-04-19 19:30:00,METAR VOBL 191930Z 16005KT 6000 FEW015 27/13 Q1014 NOSIG
2026-04-19 19:00:00,METAR VOBL 191900Z 16006KT 6000 FEW015 27/13 Q1014 NOSIG
2026-04-19 18:30:00,METAR VOBL 191830Z 14006KT 6000 FEW015 27/13 Q1015 NOSIG
2026-04-19 18:00:00,METAR VOBL 191800Z 14006KT 6000 FEW015 27/12 Q1015 NOSIG
2026-04-19 17:30:00,METAR VOBL 191730Z 13006KT 6000 FEW015 28/13 Q1015 NOSIG
2026-04-19 17:00:00,METAR VOBL 191700Z 13008KT 6000 FEW015 28/12 Q1015 NOSIG
2026-04-19 16:30:00,METAR VOBL 191630Z 15008KT 6000 FEW015 30/12 Q1015 NOSIG
2026-04-19 16:00:00,METAR VOBL 191600Z 15006KT 6000 FEW015 30/12 Q1014 NOSIG
2026-04-19 15:30:00,METAR VOBL 191530Z 15009KT 6000 FEW015 30/13 Q1014 NOSIG
2026-04-19 15:00:00,METAR VOBL 191500Z 14009KT 6000 FEW015 31/13 Q1013 NOSIG
2026-04-19 14:30:00,METAR VOBL 191430Z 14008KT 6000 FEW015 31/13 Q1013 NOSIG
2026-04-19 14:00:00,METAR VOBL 191400Z 14006KT 6000 FEW015 32/12 Q1013 NOSIG
2026-04-19 13:30:00,METAR VOBL 191330Z 11009KT 8000 FEW015 32/12 Q1012 NOSIG
2026-04-19 13:00:00,METAR VOBL 191300Z 12008KT 8000 FEW015 33/12 Q1012 NOSIG
2026-04-19 12:30:00,METAR VOBL 191230Z 10009KT 9999 FEW015 33/10 Q1011 NOSIG
2026-04-19 12:00:00,METAR VOBL 191200Z 11009KT 9999 FEW015 34/11 Q1011 NOSIG
2026-04-19 11:30:00,METAR VOBL 191130Z 11009KT 9999 FEW015 35/10 Q1011 NOSIG
2026-04-19 11:00:00,METAR VOBL 191100Z 12011KT 9999 SCT015 35/10 Q1011 NOSIG
2026-04-19 10:30:00,METAR VOBL 191030Z 13008KT 9999 SCT015 35/11 Q1011 NOSIG
2026-04-19 10:00:00,METAR VOBL 191000Z 11010KT 9999 SCT015 35/09 Q1011 NOSIG
2026-04-19 09:30:00,METAR VOBL 190930Z 13011KT 9999 SCT015 34/10 Q1012 NOSIG
2026-04-19 09:00:00,METAR VOBL 190900Z 18005KT 9999 SCT015 34/13 Q1012 NOSIG
2026-04-19 08:30:00,METAR VOBL 190830Z 14005KT 9999 SCT015 34/14 Q1013 NOSIG
2026-04-19 08:00:00,METAR VOBL 190800Z 21005KT 8000 SCT015 34/14 Q1013 NOSIG
2026-04-19 07:30:00,METAR VOBL 190730Z 22006KT 8000 FEW015 34/14 Q1013 NOSIG
2026-04-19 07:00:00,METAR VOBL 190700Z 23005KT 8000 FEW015 33/15 Q1014 NOSIG
2026-04-19 06:30:00,METAR VOBL 190630Z 23008KT 8000 FEW015 33/15 Q1015 NOSIG
2026-04-19 06:00:00,METAR VOBL 190600Z 23006KT 8000 FEW015 32/16 Q1015 NOSIG
2026-04-19 05:30:00,METAR VOBL 190530Z 23004KT 8000 FEW015 32/18 Q1015 NOSIG
2026-04-19 05:00:00,METAR VOBL 190500Z 23008KT 8000 FEW015 30/18 Q1015 NOSIG
2026-04-19 04:30:00,METAR VOBL 190430Z 22007KT 8000 FEW015 30/18 Q1016 NOSIG
2026-04-19 04:00:00,METAR VOBL 190400Z 23006KT 6000 FEW015 29/19 Q1015 NOSIG
2026-04-19 03:30:00,METAR VOBL 190330Z 23007KT 6000 FEW015 27/20 Q1015 NOSIG
2026-04-19 03:00:00,METAR VOBL 190300Z 23006KT 6000 FEW015 26/20 Q1015 NOSIG
2026-04-19 02:30:00,METAR VOBL 190230Z VRB02KT 5000 HZ FEW015 25/17 Q1015 NOSIG
2026-04-19 02:00:00,METAR VOBL 190200Z VRB02KT 5000 HZ FEW015 24/17 Q1014 NOSIG
2026-04-19 01:30:00,METAR VOBL 190130Z VRB02KT 5000 HZ FEW015 23/17 Q1014 NOSIG
2026-04-19 01:00:00,METAR VOBL 190100Z VRB02KT 6000 FEW015 22/17 Q1014 NOSIG
2026-04-19 00:30:00,METAR VOBL 190030Z 16003KT 6000 FEW015 23/17 Q1013 NOSIG
2026-04-19 00:00:00,METAR VOBL 190000Z 14003KT 6000 FEW015 22/17 Q1013 NOSIG
2026-04-18 23:30:00,METAR VOBL 182330Z 14004KT 6000 FEW015 22/16 Q1013 NOSIG
2026-04-18 23:00:00,METAR VOBL 182300Z 14003KT 6000 FEW015 23/17 Q1013 NOSIG
2026-04-18 22:30:00,METAR VOBL 182230Z VRB02KT 6000 FEW015 23/16 Q1013 NOSIG
2026-04-18 22:00:00,METAR VOBL 182200Z 02004KT 020V140 6000 FEW015 22/16 Q1013 NOSIG
2026-04-18 21:30:00,METAR VOBL 182130Z 14003KT 6000 FEW015 23/15 Q1013 NOSIG
2026-04-18 21:00:00,METAR VOBL 182100Z 09004KT 6000 FEW015 23/16 Q1013 NOSIG
2026-04-18 20:30:00,METAR VOBL 182030Z 12008KT 6000 FEW015 23/16 Q1013 NOSIG
2026-04-18 20:00:00,METAR VOBL 182000Z 14008KT 6000 FEW015 25/14 Q1013 NOSIG
2026-04-18 19:30:00,METAR VOBL 181930Z 12005KT 6000 FEW015 24/15 Q1014 NOSIG
2026-04-18 19:00:00,METAR VOBL 181900Z 14003KT 6000 FEW015 25/14 Q1014 NOSIG
2026-04-18 18:30:00,METAR VOBL 181830Z 14004KT 6000 FEW015 26/14 Q1015 NOSIG
2026-04-18 18:00:00,METAR VOBL 181800Z 14004KT 6000 FEW015 26/14 Q1015 NOSIG
2026-04-18 17:30:00,METAR VOBL 181730Z 14004KT 6000 FEW015 27/13 Q1015 NOSIG
2026-04-18 17:00:00,METAR VOBL 181700Z 14004KT 6000 FEW015 28/13 Q1015 NOSIG
2026-04-18 16:30:00,METAR VOBL 181630Z 12004KT 6000 FEW015 29/12 Q1015 NOSIG
2026-04-18 16:00:00,METAR VOBL 181600Z 14006KT 6000 FEW015 29/12 Q1015 NOSIG
2026-04-18 15:00:00,METAR VOBL 181500Z 11008KT 8000 FEW015 30/11 Q1014 NOSIG
2026-04-18 14:30:00,METAR VOBL 181430Z 11008KT 8000 FEW015 30/11 Q1013 NOSIG
2026-04-18 14:00:00,METAR VOBL 181400Z 11008KT 8000 FEW015 31/10 Q1013 NOSIG
2026-04-18 13:30:00,METAR VOBL 181330Z 11008KT 8000 FEW015 32/10 Q1012 NOSIG
2026-04-18 13:00:00,METAR VOBL 181300Z 11011KT 8000 FEW015 32/10 Q1012 NOSIG
2026-04-18 12:30:00,METAR VOBL 181230Z 11008KT 8000 FEW015 33/08 Q1012 NOSIG
2026-04-18 12:00:00,METAR VOBL 181200Z 11010KT 8000 FEW015 34/08 Q1011 NOSIG
2026-04-18 11:30:00,METAR VOBL 181130Z 09010KT 8000 SCT015 34/10 Q1011 NOSIG
2026-04-18 11:00:00,METAR VOBL 181100Z 09013KT 8000 SCT015 35/11 Q1011 NOSIG
2026-04-18 10:30:00,METAR VOBL 181030Z 09010KT 8000 SCT015 35/10 Q1011 NOSIG
2026-04-18 10:00:00,METAR VOBL 181000Z 09010KT 8000 SCT015 35/10 Q1012 NOSIG
2026-04-18 09:30:00,METAR VOBL 180930Z 09013KT 8000 SCT015 35/08 Q1012 NOSIG
2026-04-18 09:00:00,METAR VOBL 180900Z 09012KT 8000 SCT015 35/09 Q1012 NOSIG
2026-04-18 08:30:00,METAR VOBL 180830Z 09013KT 8000 SCT015 35/09 Q1013 NOSIG
2026-04-18 08:00:00,METAR VOBL 180800Z 09012KT 8000 FEW015 35/10 Q1013 NOSIG
2026-04-18 07:30:00,METAR VOBL 180730Z 12005KT 8000 FEW015 34/10 Q1014 NOSIG
2026-04-18 07:00:00,METAR VOBL 180700Z 14005KT 6000 NSC 33/11 Q1014 NOSIG
2026-04-18 06:30:00,METAR VOBL 180630Z COR 14006KT 6000 NSC 33/11 Q1015 NOSIG
2026-04-18 06:00:00,METAR VOBL 180600Z 14005KT 6000 NSC 32/11 Q1015 NOSIG
2026-04-18 05:30:00,METAR VOBL 180530Z 14004KT 6000 NSC 31/11 Q1015 NOSIG
2026-04-18 05:00:00,METAR VOBL 180500Z 16007KT 6000 NSC 31/12 Q1015 NOSIG
2026-04-18 04:30:00,METAR VOBL 180430Z 18009KT 6000 NSC 30/13 Q1016 NOSIG
2026-04-18 04:00:00,METAR VOBL 180400Z 18007KT 6000 NSC 29/14 Q1016 NOSIG
2026-04-18 03:30:00,METAR VOBL 180330Z COR 18008KT 5000 HZ NSC 28/16 Q1016 NOSIG
2026-04-18 03:00:00,METAR VOBL 180300Z 20003KT 5000 HZ NSC 27/17 Q1016 NOSIG
2026-04-18 02:30:00,METAR VOBL 180230Z 18003KT 110V180 5000 BR NSC 25/17 Q1015 NOSIG
2026-04-18 02:00:00,METAR VOBL 180200Z VRB02KT 5000 BR FEW012 24/17 Q1015 NOSIG
2026-04-18 01:30:00,METAR VOBL 180130Z VRB01KT 5000 BR FEW012 23/18 Q1014 NOSIG
2026-04-18 01:00:00,METAR VOBL 180100Z 14005KT 5000 BR FEW012 22/17 Q1014 NOSIG
2026-04-18 00:30:00,METAR VOBL 180030Z VRB02KT 6000 NSC 22/18 Q1014 NOSIG
2026-04-18 00:00:00,METAR VOBL 180000Z 14005KT 6000 NSC 23/18 Q1013 NOSIG
2026-04-17 23:30:00,METAR VOBL 172330Z VRB02KT 6000 NSC 23/17 Q1013 NOSIG
2026-04-17 23:00:00,METAR VOBL 172300Z 14005KT 6000 NSC 23/17 Q1013 NOSIG
2026-04-17 22:30:00,METAR VOBL 172230Z VRB02KT 6000 NSC 24/17 Q1013 NOSIG
2026-04-17 22:00:00,METAR VOBL 172200Z 14003KT 6000 NSC 24/17 Q1013 NOSIG
2026-04-17 21:30:00,METAR VOBL 172130Z 14004KT 6000 NSC 24/17 Q1013 NOSIG
2026-04-17 21:00:00,METAR VOBL 172100Z 14003KT 6000 NSC 24/16 Q1014 NOSIG
2026-04-17 20:30:00,METAR VOBL 172030Z 11003KT 6000 NSC 24/16 Q1014 NOSIG
2026-04-17 20:00:00,METAR VOBL 172000Z 14005KT 6000 FEW015 24/15 Q1014 NOSIG
2026-04-17 19:30:00,METAR VOBL 171930Z 13006KT 6000 FEW015 24/15 Q1014 NOSIG
2026-04-17 19:00:00,METAR VOBL 171900Z 14008KT 6000 NSC 25/14 Q1015 NOSIG
2026-04-17 18:30:00,METAR VOBL 171830Z 15007KT 6000 NSC 26/14 Q1015 NOSIG
2026-04-17 18:00:00,METAR VOBL 171800Z 15008KT 6000 NSC 26/13 Q1016 NOSIG
2026-04-17 17:30:00,METAR VOBL 171730Z 15010KT 8000 NSC 27/13 Q1015 NOSIG
2026-04-17 17:00:00,METAR VOBL 171700Z 14010KT 8000 NSC 28/12 Q1015 NOSIG
2026-04-17 16:30:00,METAR VOBL 171630Z 13010KT 8000 NSC 28/11 Q1015 NOSIG
2026-04-17 16:00:00,METAR VOBL 171600Z 11010KT 8000 NSC 29/10 Q1015 NOSIG
2026-04-17 15:30:00,METAR VOBL 171530Z 11008KT 8000 NSC 30/10 Q1014 NOSIG
2026-04-17 15:00:00,METAR VOBL 171500Z 11008KT 8000 NSC 30/10 Q1014 NOSIG
2026-04-17 14:30:00,METAR VOBL 171430Z COR 11010KT 8000 NSC 30/10 Q1014 NOSIG
2026-04-17 14:00:00,METAR VOBL 171400Z 11010KT 8000 NSC 31/09 Q1013 NOSIG
2026-04-17 13:30:00,METAR VOBL 171330Z 11010KT 8000 NSC 31/09 Q1013 NOSIG
2026-04-17 13:00:00,METAR VOBL 171300Z 09008KT 8000 NSC 32/08 Q1012 NOSIG
2026-04-17 12:30:00,METAR VOBL 171230Z 11010KT 8000 FEW015 33/08 Q1012 NOSIG
2026-04-17 12:00:00,METAR VOBL 171200Z 11010KT 8000 FEW015 34/08 Q1012 NOSIG
2026-04-17 11:30:00,METAR VOBL 171130Z 11010KT 8000 FEW015 34/07 Q1011 NOSIG
2026-04-17 11:00:00,METAR VOBL 171100Z 11008KT 9999 SCT015 35/09 Q1011 NOSIG
2026-04-17 10:30:00,METAR VOBL 171030Z 09008KT 9999 SCT015 35/08 Q1011 NOSIG
2026-04-17 10:00:00,METAR VOBL 171000Z 07008KT 9999 SCT015 35/07 Q1012 NOSIG
2026-04-17 09:30:00,METAR VOBL 170930Z 09008KT 9999 SCT015 35/07 Q1012 NOSIG
2026-04-17 09:00:00,METAR VOBL 170900Z COR 09008KT 9999 SCT015 35/07 Q1012 NOSIG
2026-04-17 08:30:00,METAR VOBL 170830Z 09008KT 9999 FEW015 35/08 Q1013 NOSIG
2026-04-17 08:00:00,METAR VOBL 170800Z 09010KT 9999 FEW015 35/08 Q1013 NOSIG
2026-04-17 07:30:00,METAR VOBL 170730Z 09008KT 9999 FEW015 35/09 Q1014 NOSIG
2026-04-17 07:00:00,METAR VOBL 170700Z 09008KT 090V260 9999 FEW015 34/11 Q1015 NOSIG
2026-04-17 06:30:00,METAR VOBL 170630Z 13008KT 9999 FEW015 33/11 Q1015 NOSIG
2026-04-17 06:00:00,METAR VOBL 170600Z VRB02KT 9999 FEW015 33/14 Q1016 NOSIG
2026-04-17 05:30:00,METAR VOBL 170530Z VRB02KT 8000 FEW015 32/14 Q1016 NOSIG
2026-04-17 05:00:00,METAR VOBL 170500Z 26003KT 8000 FEW015 32/15 Q1016 NOSIG
2026-04-17 04:30:00,METAR VOBL 170430Z VRB02KT 8000 FEW015 31/16 Q1016 NOSIG
2026-04-17 04:00:00,METAR VOBL 170400Z 26003KT 6000 NSC 29/17 Q1016 NOSIG
2026-04-17 03:30:00,METAR VOBL 170330Z 26003KT 6000 NSC 28/18 Q1016 NOSIG
2026-04-17 03:00:00,METAR VOBL 170300Z 26003KT 6000 NSC 27/18 Q1016 NOSIG
2026-04-17 02:30:00,METAR VOBL 170230Z 26003KT 260V320 6000 NSC 26/19 Q1016 NOSIG
2026-04-17 02:00:00,METAR VOBL 170200Z VRB02KT 6000 NSC 24/19 Q1015 NOSIG
2026-04-17 01:30:00,METAR VOBL 170130Z VRB02KT 6000 NSC 23/18 Q1015 NOSIG
2026-04-17 01:00:00,METAR VOBL 170100Z VRB02KT 6000 NSC 22/18 Q1014 TEMPO 5000 BR
2026-04-17 00:30:00,METAR VOBL 170030Z VRB02KT 6000 NSC 22/18 Q1014 TEMPO 5000 BR
2026-04-17 00:00:00,METAR VOBL 170000Z VRB02KT 6000 NSC 23/18 Q1014 NOSIG
2026-04-16 23:30:00,METAR VOBL 162330Z VRB02KT 6000 NSC 23/18 Q1013 NOSIG
2026-04-16 23:00:00,METAR VOBL 162300Z VRB02KT 6000 NSC 23/18 Q1013 NOSIG
2026-04-16 22:30:00,METAR VOBL 162230Z 18003KT 6000 NSC 24/18 Q1013 NOSIG
2026-04-16 22:00:00,METAR VOBL 162200Z 17003KT 6000 NSC 25/18 Q1013 NOSIG
2026-04-16 21:30:00,METAR VOBL 162130Z 18003KT 6000 NSC 24/18 Q1013 NOSIG
2026-04-16 21:00:00,METAR VOBL 162100Z 16003KT 6000 NSC 25/18 Q1013 NOSIG
2026-04-16 20:30:00,METAR VOBL 162030Z 16004KT 6000 NSC 26/17 Q1014 NOSIG
2026-04-16 20:00:00,METAR VOBL 162000Z 18005KT 6000 NSC 26/17 Q1014 NOSIG
2026-04-16 19:30:00,METAR VOBL 161930Z 15005KT 6000 FEW015 26/17 Q1014 NOSIG
2026-04-16 19:00:00,METAR VOBL 161900Z 14008KT 6000 FEW015 26/16 Q1014 NOSIG
2026-04-16 18:30:00,METAR VOBL 161830Z 16005KT 6000 FEW015 27/16 Q1015 NOSIG
2026-04-16 18:00:00,METAR VOBL 161800Z 15006KT 6000 FEW015 27/16 Q1015 NOSIG
2026-04-16 17:30:00,METAR VOBL 161730Z 15006KT 6000 FEW015 28/16 Q1015 NOSIG
2026-04-16 17:00:00,METAR VOBL 161700Z 14006KT 6000 FEW015 28/15 Q1015 NOSIG
2026-04-16 16:30:00,METAR VOBL 161630Z 14008KT 6000 FEW015 28/16 Q1015 NOSIG
2026-04-16 16:00:00,METAR VOBL 161600Z 13008KT 6000 FEW015 29/15 Q1014 NOSIG
2026-04-16 15:30:00,METAR VOBL 161530Z 13008KT 6000 FEW015 29/16 Q1014 NOSIG
2026-04-16 15:00:00,METAR VOBL 161500Z 15007KT 6000 FEW015 30/15 Q1014 NOSIG
2026-04-16 14:30:00,METAR VOBL 161430Z 15007KT 6000 FEW015 30/15 Q1013 NOSIG
2026-04-16 14:00:00,METAR VOBL 161400Z 14006KT 6000 FEW015 30/15 Q1012 NOSIG
2026-04-16 13:30:00,METAR VOBL 161330Z 14009KT 6000 FEW015 30/15 Q1012 NOSIG
2026-04-16 13:00:00,METAR VOBL 161300Z 15013KT 8000 FEW015 31/16 Q1011 NOSIG
2026-04-16 12:30:00,METAR VOBL 161230Z 15011KT 8000 FEW015 32/15 Q1011 NOSIG
2026-04-16 12:00:00,METAR VOBL 161200Z 11011KT 8000 FEW015 34/11 Q1010 NOSIG
2026-04-16 11:30:00,METAR VOBL 161130Z 10011KT 9999 FEW015 35/11 Q1010 NOSIG
2026-04-16 11:00:00,METAR VOBL 161100Z 10009KT 9999 SCT012 35/09 Q1010 NOSIG
2026-04-16 10:30:00,METAR VOBL 161030Z 10011KT 9999 SCT012 36/09 Q1010 NOSIG
2026-04-16 10:00:00,METAR VOBL 161000Z COR 10008KT 9999 SCT012 36/09 Q1010 NOSIG
2026-04-16 09:30:00,METAR VOBL 160930Z 07010KT 9999 SCT012 35/09 Q1011 NOSIG
2026-04-16 09:00:00,METAR VOBL 160900Z 09010KT 9999 SCT012 35/09 Q1011 NOSIG
2026-04-16 08:30:00,METAR VOBL 160830Z 07010KT 9999 SCT012 35/09 Q1012 NOSIG
2026-04-16 08:00:00,METAR VOBL 160800Z 07006KT 9999 SCT012 35/10 Q1012 NOSIG
2026-04-16 07:35:00,METAR VOBL 160735Z 10010KT 9999 SCT012 35/09 Q1013 NOSIG
2026-04-16 07:00:00,METAR VOBL 160700Z 15003KT 150V210 9999 SCT012 34/11 Q1013 NOSIG
2026-04-16 06:30:00,METAR VOBL 160630Z 20003KT 8000 SCT012 34/14 Q1014 NOSIG
2026-04-16 06:00:00,METAR VOBL 160600Z 21003KT 8000 SCT012 33/16 Q1014 NOSIG
2026-04-16 05:30:00,METAR VOBL 160530Z 21003KT 8000 SCT012 31/17 Q1015 NOSIG
2026-04-16 05:00:00,METAR VOBL 160500Z 23003KT 8000 FEW012 30/18 Q1015 NOSIG
2026-04-16 04:30:00,METAR VOBL 160430Z 25005KT 8000 FEW012 30/19 Q1015 NOSIG
2026-04-16 04:00:00,METAR VOBL 160400Z 25006KT 6000 FEW012 29/20 Q1015 NOSIG
2026-04-16 03:30:00,METAR VOBL 160330Z 25006KT 6000 FEW012 28/20 Q1015 NOSIG
2026-04-16 03:00:00,METAR VOBL 160300Z 25006KT 6000 FEW012 27/21 Q1014 NOSIG
2026-04-16 02:30:00,METAR VOBL 160230Z 24005KT 6000 FEW012 25/20 Q1014 NOSIG
2026-04-16 02:00:00,METAR VOBL 160200Z 26005KT 6000 FEW012 24/19 Q1014 NOSIG
2026-04-16 01:30:00,METAR VOBL 160130Z 29003KT 6000 FEW012 23/18 Q1013 NOSIG
2026-04-16 01:00:00,METAR VOBL 160100Z 27004KT 6000 FEW012 23/17 Q1013 NOSIG
2026-04-16 00:30:00,METAR VOBL 160030Z 27004KT 6000 FEW012 23/17 Q1013 NOSIG
2026-04-16 00:00:00,METAR VOBL 160000Z 25003KT 6000 FEW012 23/17 Q1013 NOSIG
2026-04-15 23:30:00,METAR VOBL 152330Z 27003KT 6000 FEW012 23/17 Q1012 NOSIG
2026-04-15 23:00:00,METAR VOBL 152300Z 27004KT 6000 FEW012 23/17 Q1012 NOSIG
2026-04-15 22:30:00,METAR VOBL 152230Z VRB02KT 6000 FEW012 23/17 Q1012 NOSIG
2026-04-15 22:00:00,METAR VOBL 152200Z 18003KT 6000 FEW012 23/17 Q1012 NOSIG
2026-04-15 21:30:00,METAR VOBL 152130Z 16004KT 6000 FEW012 24/16 Q1012 NOSIG
2026-04-15 21:00:00,METAR VOBL 152100Z 16004KT 6000 FEW012 25/16 Q1012 NOSIG
2026-04-15 20:30:00,METAR VOBL 152030Z 16005KT 6000 FEW012 26/14 Q1012 NOSIG
2026-04-15 20:00:00,METAR VOBL 152000Z 18005KT 6000 FEW012 26/14 Q1013 NOSIG
2026-04-15 19:30:00,METAR VOBL 151930Z 14005KT 6000 FEW012 26/14 Q1013 NOSIG
2026-04-15 19:00:00,METAR VOBL 151900Z 14005KT 6000 FEW012 26/14 Q1014 NOSIG
2026-04-15 18:30:00,METAR VOBL 151830Z 14005KT 6000 FEW012 27/14 Q1014 NOSIG
2026-04-15 18:00:00,METAR VOBL 151800Z 14005KT 6000 FEW012 28/14 Q1014 NOSIG
2026-04-15 17:30:00,METAR VOBL 151730Z 13005KT 6000 FEW012 28/13 Q1014 NOSIG
2026-04-15 17:00:00,METAR VOBL 151700Z 13005KT 6000 FEW012 28/13 Q1014 NOSIG
2026-04-15 16:30:00,METAR VOBL 151630Z 13006KT 6000 FEW012 29/12 Q1014 NOSIG
2026-04-15 16:00:00,METAR VOBL 151600Z 13006KT 6000 FEW012 29/12 Q1014 NOSIG
2026-04-15 15:30:00,METAR VOBL 151530Z 13009KT 6000 FEW012 29/13 Q1013 NOSIG
2026-04-15 15:00:00,METAR VOBL 151500Z 13007KT 6000 FEW012 30/13 Q1013 NOSIG
2026-04-15 14:30:00,METAR VOBL 151430Z 14007KT 6000 FEW012 31/12 Q1013 NOSIG
2026-04-15 14:00:00,METAR VOBL 151400Z 13008KT 6000 SCT012 31/12 Q1012 NOSIG
2026-04-15 13:30:00,METAR VOBL 151330Z 12008KT 6000 SCT012 32/11 Q1012 NOSIG
2026-04-15 13:00:00,METAR VOBL 151300Z 12008KT 6000 SCT012 32/11 Q1011 NOSIG
2026-04-15 12:30:00,METAR VOBL 151230Z 09008KT 8000 SCT012 33/12 Q1011 NOSIG
2026-04-15 12:00:00,METAR VOBL 151200Z COR 11009KT 9999 SCT012 34/12 Q1010 NOSIG
2026-04-15 11:30:00,METAR VOBL 151130Z 09009KT 9999 SCT012 34/11 Q1010 NOSIG
2026-04-15 11:00:00,METAR VOBL 151100Z 11009KT 9999 SCT012 34/10 Q1010 NOSIG
2026-04-15 10:30:00,METAR VOBL 151030Z 10009KT 9999 SCT012 34/10 Q1010 NOSIG
2026-04-15 10:00:00,METAR VOBL 151000Z 12012KT 9999 FEW012 34/10 Q1011 NOSIG
2026-04-15 09:30:00,METAR VOBL 150930Z 12012KT 9999 FEW012 35/10 Q1011 NOSIG
2026-04-15 09:00:00,METAR VOBL 150900Z 09012KT 9999 FEW012 35/10 Q1011 NOSIG
2026-04-15 08:30:00,METAR VOBL 150830Z 09012KT 300V090 9999 FEW012 34/10 Q1012 NOSIG
2026-04-15 08:00:00,METAR VOBL 150800Z 14005KT 9999 FEW012 34/10 Q1013 NOSIG
2026-04-15 07:30:00,METAR VOBL 150730Z 14005KT 9999 FEW012 33/12 Q1013 NOSIG
2026-04-15 07:00:00,METAR VOBL 150700Z 15005KT 9999 FEW012 33/13 Q1014 NOSIG
2026-04-15 06:30:00,METAR VOBL 150630Z 18005KT 9999 FEW012 32/14 Q1014 NOSIG
2026-04-15 06:00:00,METAR VOBL 150600Z 18006KT 9999 FEW012 31/16 Q1014 NOSIG
2026-04-15 05:30:00,METAR VOBL 150530Z 18003KT 9999 FEW012 30/16 Q1015 NOSIG
2026-04-15 05:00:00,METAR VOBL 150500Z 22006KT 9999 FEW012 29/17 Q1015 NOSIG
2026-04-15 04:30:00,METAR VOBL 150430Z 23008KT 9999 FEW012 28/18 Q1015 NOSIG
2026-04-15 04:00:00,METAR VOBL 150400Z 23008KT 9999 FEW012 27/19 Q1015 NOSIG
2026-04-15 03:30:00,METAR VOBL 150330Z 27010KT 8000 FEW012 26/20 Q1015 NOSIG
2026-04-15 03:00:00,METAR VOBL 150300Z 27010KT 8000 FEW012 25/20 Q1015 NOSIG
2026-04-15 02:30:00,METAR VOBL 150230Z 30010KT 6000 NSC 24/21 Q1015 NOSIG
2026-04-15 02:00:00,METAR VOBL 150200Z COR 30004KT 6000 NSC 24/19 Q1015 NOSIG
2026-04-15 01:30:00,METAR VOBL 150130Z 21004KT 6000 NSC 24/19 Q1014 NOSIG
2026-04-15 01:00:00,METAR VOBL 150100Z 20004KT 6000 NSC 23/18 Q1014 NOSIG
2026-04-15 00:30:00,METAR VOBL 150030Z 22004KT 6000 NSC 23/17 Q1013 NOSIG
2026-04-15 00:00:00,METAR VOBL 150000Z VRB02KT 6000 NSC 22/16 Q1013 NOSIG
2026-04-14 23:30:00,METAR VOBL 142330Z VRB02KT 6000 NSC 22/15 Q1013 NOSIG
2026-04-14 23:00:00,METAR VOBL 142300Z VRB02KT 6000 NSC 23/15 Q1013 NOSIG
2026-04-14 22:30:00,METAR VOBL 142230Z 16003KT 6000 NSC 23/16 Q1013 NOSIG
2026-04-14 22:00:00,METAR VOBL 142200Z 16003KT 6000 NSC 23/16 Q1013 NOSIG
2026-04-14 21:30:00,METAR VOBL 142130Z VRB02KT 6000 NSC 24/14 Q1013 NOSIG
2026-04-14 21:00:00,METAR VOBL 142100Z 17003KT 6000 NSC 24/14 Q1013 NOSIG
2026-04-14 20:30:00,METAR VOBL 142030Z 17003KT 6000 NSC 24/14 Q1014 NOSIG
2026-04-14 20:00:00,METAR VOBL 142000Z 18003KT 6000 NSC 25/13 Q1014 NOSIG
2026-04-14 19:30:00,METAR VOBL 141930Z 15003KT 6000 NSC 25/13 Q1014 NOSIG
2026-04-14 19:00:00,METAR VOBL 141900Z 16003KT 6000 NSC 25/13 Q1015 NOSIG
2026-04-14 18:30:00,METAR VOBL 141830Z 14003KT 6000 NSC 26/12 Q1015 NOSIG
2026-04-14 18:00:00,METAR VOBL 141800Z 14004KT 6000 NSC 27/12 Q1015 NOSIG
2026-04-14 17:30:00,METAR VOBL 141730Z 14004KT 6000 NSC 26/11 Q1015 NOSIG
2026-04-14 17:00:00,METAR VOBL 141700Z 14005KT 6000 NSC 27/11 Q1016 NOSIG
2026-04-14 16:30:00,METAR VOBL 141630Z 14006KT 6000 NSC 28/11 Q1016 NOSIG
2026-04-14 16:00:00,METAR VOBL 141600Z 14007KT 6000 NSC 29/10 Q1015 NOSIG
2026-04-14 15:30:00,METAR VOBL 141530Z 14007KT 6000 NSC 29/10 Q1015 NOSIG
2026-04-14 15:00:00,METAR VOBL 141500Z 14007KT 080V140 6000 NSC 30/09 Q1015 NOSIG
2026-04-14 14:30:00,METAR VOBL 141430Z 13007KT 6000 NSC 30/07 Q1014 NOSIG
2026-04-14 14:00:00,METAR VOBL 141400Z 11008KT 6000 NSC 31/05 Q1014 NOSIG
2026-04-14 13:30:00,METAR VOBL 141330Z 10008KT 8000 NSC 32/06 Q1013 NOSIG
2026-04-14 13:00:00,METAR VOBL 141300Z 10010KT 8000 NSC 32/06 Q1013 NOSIG
2026-04-14 12:30:00,METAR VOBL 141230Z 09012KT CAVOK 34/06 Q1012 NOSIG
2026-04-14 12:00:00,METAR VOBL 141200Z 09011KT CAVOK 34/07 Q1012 NOSIG
2026-04-14 11:30:00,METAR VOBL 141130Z 09011KT CAVOK 35/06 Q1012 NOSIG
2026-04-14 11:00:00,METAR VOBL 141100Z 11012KT CAVOK 35/06 Q1012 NOSIG
2026-04-14 10:30:00,METAR VOBL 141030Z 08013KT CAVOK 35/06 Q1012 NOSIG
2026-04-14 10:00:00,METAR VOBL 141000Z 09013KT CAVOK 35/08 Q1012 NOSIG
2026-04-14 09:30:00,METAR VOBL 140930Z 09013KT CAVOK 34/07 Q1013 NOSIG
2026-04-14 09:00:00,METAR VOBL 140900Z 09011KT CAVOK 35/08 Q1013 NOSIG
2026-04-14 08:30:00,METAR VOBL 140830Z 08012KT CAVOK 35/08 Q1014 NOSIG
2026-04-14 08:00:00,METAR VOBL 140800Z 08012KT CAVOK 35/08 Q1014 NOSIG
2026-04-14 07:30:00,METAR VOBL 140730Z 08012KT CAVOK 34/07 Q1015 NOSIG
2026-04-14 07:00:00,METAR VOBL 140700Z 08009KT CAVOK 33/09 Q1015 NOSIG
2026-04-14 06:30:00,METAR VOBL 140630Z 09006KT 8000 NSC 33/09 Q1016 NOSIG
2026-04-14 06:00:00,METAR VOBL 140600Z 12006KT 8000 NSC 33/12 Q1016 NOSIG
2026-04-14 05:30:00,METAR VOBL 140530Z 12005KT 8000 NSC 32/12 Q1017 NOSIG
2026-04-14 05:00:00,METAR VOBL 140500Z 12004KT 8000 FEW012 31/14 Q1017 NOSIG
2026-04-14 04:30:00,METAR VOBL 140430Z 24004KT 6000 FEW012 29/18 Q1017 NOSIG
2026-04-14 04:00:00,METAR VOBL 140400Z 24004KT 6000 FEW012 29/18 Q1017 NOSIG
2026-04-14 03:30:00,METAR VOBL 140330Z 24005KT 5000 HZ FEW012 27/20 Q1017 NOSIG
2026-04-14 03:00:00,METAR VOBL 140300Z 23004KT 5000 HZ FEW012 26/19 Q1017 NOSIG
2026-04-14 02:30:00,METAR VOBL 140230Z 24003KT 160V240 5000 BR FEW012 25/18 Q1017 NOSIG
2026-04-14 02:00:00,METAR VOBL 140200Z VRB02KT 5000 BR FEW012 24/18 Q1016 NOSIG
2026-04-14 01:30:00,METAR VOBL 140130Z VRB02KT 5000 FEW012 22/18 Q1016 NOSIG
2026-04-14 01:00:00,METAR VOBL 140100Z VRB02KT 6000 FEW012 22/18 Q1015 NOSIG
2026-04-14 00:30:00,METAR VOBL 140030Z VRB02KT 6000 FEW015 22/18 Q1015 NOSIG
2026-04-14 00:00:00,METAR VOBL 140000Z VRB02KT 6000 FEW015 22/17 Q1015 NOSIG
2026-04-13 23:30:00,METAR VOBL 132330Z 14005KT 6000 FEW015 22/18 Q1014 NOSIG
2026-04-13 23:00:00,METAR VOBL 132300Z 15004KT 6000 FEW015 23/18 Q1014 NOSIG
2026-04-13 22:30:00,METAR VOBL 132230Z 12004KT 6000 FEW015 23/17 Q1014 NOSIG
2026-04-13 22:00:00,METAR VOBL 132200Z 13004KT 6000 FEW015 23/17 Q1014 NOSIG
2026-04-13 21:30:00,METAR VOBL 132130Z 13004KT 6000 FEW015 24/17 Q1014 NOSIG
2026-04-13 21:00:00,METAR VOBL 132100Z 16004KT 6000 FEW015 25/17 Q1015 NOSIG
2026-04-13 20:30:00,METAR VOBL 132030Z 16006KT 6000 FEW015 25/16 Q1015 NOSIG
2026-04-13 20:00:00,METAR VOBL 132000Z 16004KT 6000 FEW015 25/16 Q1015 NOSIG
2026-04-13 19:30:00,METAR VOBL 131930Z 16004KT 6000 FEW015 25/16 Q1015 NOSIG
2026-04-13 19:00:00,METAR VOBL 131900Z 13005KT 6000 FEW015 25/15 Q1016 NOSIG
2026-04-13 18:30:00,METAR VOBL 131830Z 11005KT 6000 FEW015 26/15 Q1016 NOSIG
2026-04-13 18:00:00,METAR VOBL 131800Z 11005KT 6000 FEW015 26/15 Q1016 NOSIG
2026-04-13 17:30:00,METAR VOBL 131730Z 11005KT 6000 FEW015 27/15 Q1017 NOSIG
2026-04-13 17:00:00,METAR VOBL 131700Z 11008KT 6000 FEW015 28/14 Q1017 NOSIG
2026-04-13 16:30:00,METAR VOBL 131630Z 11008KT 6000 FEW015 28/13 Q1017 NOSIG
2026-04-13 16:00:00,METAR VOBL 131600Z 11008KT 6000 FEW015 28/14 Q1016 NOSIG
2026-04-13 15:30:00,METAR VOBL 131530Z 11008KT 6000 FEW015 29/14 Q1016 NOSIG
2026-04-13 15:00:00,METAR VOBL 131500Z 11010KT 6000 FEW015 29/14 Q1015 NOSIG
2026-04-13 14:30:00,METAR VOBL 131430Z 11008KT 6000 FEW015 30/13 Q1015 NOSIG
2026-04-13 14:00:00,METAR VOBL 131400Z 08008KT 6000 FEW015 31/12 Q1014 NOSIG
2026-04-13 13:30:00,METAR VOBL 131330Z 08008KT 6000 FEW015 31/10 Q1014 NOSIG
2026-04-13 13:00:00,METAR VOBL 131300Z 08008KT 8000 FEW015 32/10 Q1013 NOSIG
2026-04-13 12:30:00,METAR VOBL 131230Z 09006KT 8000 FEW015 33/10 Q1013 NOSIG
2026-04-13 12:00:00,METAR VOBL 131200Z 09006KT 8000 FEW015 34/11 Q1012 NOSIG
2026-04-13 11:30:00,METAR VOBL 131130Z 04006KT 8000 SCT015 34/11 Q1012 NOSIG
2026-04-13 11:00:00,METAR VOBL 131100Z 04008KT 8000 SCT015 34/10 Q1012 NOSIG
2026-04-13 10:30:00,METAR VOBL 131030Z 09008KT 8000 SCT015 34/11 Q1012 NOSIG
2026-04-13 10:00:00,METAR VOBL 131000Z 07010KT 070V160 8000 SCT015 35/11 Q1012 NOSIG
2026-04-13 09:30:00,METAR VOBL 130930Z 16006KT 070V160 8000 SCT015 35/12 Q1013 NOSIG
2026-04-13 09:00:00,METAR VOBL 130900Z 07006KT 070V200 8000 SCT015 34/11 Q1013 NOSIG
2026-04-13 08:30:00,METAR VOBL 130830Z 08006KT 8000 SCT015 34/11 Q1014 NOSIG
2026-04-13 08:00:00,METAR VOBL 130800Z 13005KT 8000 SCT015 33/12 Q1014 NOSIG
2026-04-13 07:30:00,METAR VOBL 130730Z 20005KT 8000 FEW015 33/14 Q1015 NOSIG
2026-04-13 07:00:00,METAR VOBL 130700Z VRB02KT 8000 FEW015 32/14 Q1015 NOSIG
2026-04-13 06:30:00,METAR VOBL 130630Z VRB02KT 8000 FEW015 31/15 Q1016 NOSIG
2026-04-13 06:00:00,METAR VOBL 130600Z VRB02KT 6000 FEW015 31/16 Q1017 NOSIG
2026-04-13 05:30:00,METAR VOBL 130530Z VRB02KT 6000 FEW015 30/17 Q1017 NOSIG
2026-04-13 05:00:00,METAR VOBL 130500Z 23005KT 6000 NSC 29/18 Q1017 NOSIG
2026-04-13 04:30:00,METAR VOBL 130430Z 23006KT 6000 NSC 28/18 Q1017 NOSIG
2026-04-13 04:00:00,METAR VOBL 130400Z 23006KT 6000 NSC 28/18 Q1017 NOSIG
2026-04-13 03:30:00,METAR VOBL 130330Z 23008KT 6000 NSC 27/19 Q1017 NOSIG
2026-04-13 03:00:00,METAR VOBL 130300Z 23008KT 6000 NSC 26/20 Q1017 NOSIG
2026-04-13 02:30:00,METAR VOBL 130230Z 23006KT 6000 NSC 26/20 Q1017 NOSIG
2026-04-13 02:00:00,METAR VOBL 130200Z 25003KT 6000 NSC 24/18 Q1016 NOSIG
2026-04-13 01:30:00,METAR VOBL 130130Z VRB02KT 6000 NSC 23/18 Q1016 NOSIG
2026-04-13 01:00:00,METAR VOBL 130100Z 17003KT 6000 NSC 23/17 Q1015 NOSIG
2026-04-13 00:30:00,METAR VOBL 130030Z VRB02KT 6000 NSC 23/17 Q1015 NOSIG
2026-04-13 00:00:00,METAR VOBL 130000Z 17003KT 6000 NSC 23/17 Q1015 NOSIG
2026-04-12 23:30:00,METAR VOBL 122330Z 17003KT 6000 NSC 23/17 Q1015 NOSIG
2026-04-12 23:00:00,METAR VOBL 122300Z 17003KT 6000 NSC 23/17 Q1014 NOSIG
2026-04-12 22:30:00,METAR VOBL 122230Z 17003KT 6000 NSC 23/17 Q1014 NOSIG
2026-04-12 22:00:00,METAR VOBL 122200Z 17003KT 6000 NSC 23/17 Q1014 NOSIG
2026-04-12 21:30:00,METAR VOBL 122130Z 17003KT 6000 NSC 24/17 Q1014 NOSIG
2026-04-12 21:00:00,METAR VOBL 122100Z 17005KT 6000 NSC 24/16 Q1014 NOSIG
2026-04-12 20:30:00,METAR VOBL 122030Z 16006KT 6000 NSC 25/16 Q1014 NOSIG
2026-04-12 20:00:00,METAR VOBL 122000Z 16006KT 6000 NSC 25/16 Q1015 NOSIG
2026-04-12 19:30:00,METAR VOBL 121930Z 15006KT 6000 FEW015 25/16 Q1015 NOSIG
2026-04-12 19:00:00,METAR VOBL 121900Z 15006KT 6000 FEW015 26/16 Q1015 NOSIG
2026-04-12 18:30:00,METAR VOBL 121830Z 14006KT 6000 FEW015 26/16 Q1016 NOSIG
2026-04-12 18:00:00,METAR VOBL 121800Z 13004KT 6000 FEW015 26/15 Q1016 NOSIG
2026-04-12 17:30:00,METAR VOBL 121730Z 12005KT 6000 FEW015 27/15 Q1016 NOSIG
2026-04-12 17:00:00,METAR VOBL 121700Z 13008KT 6000 FEW015 27/15 Q1016 NOSIG
2026-04-12 16:30:00,METAR VOBL 121630Z 13008KT 6000 FEW015 28/15 Q1016 NOSIG
2026-04-12 16:00:00,METAR VOBL 121600Z 14006KT 6000 SCT015 28/15 Q1015 NOSIG
2026-04-12 15:00:00,METAR VOBL 121500Z 12008KT 6000 SCT015 29/14 Q1014 NOSIG
2026-04-12 14:30:00,METAR VOBL 121430Z 13010KT 6000 SCT015 30/13 Q1014 NOSIG
2026-04-12 14:00:00,METAR VOBL 121400Z 11010KT 8000 SCT015 30/14 Q1013 NOSIG
2026-04-12 13:30:00,METAR VOBL 121330Z 09009KT 8000 SCT015 31/14 Q1013 NOSIG
2026-04-12 13:00:00,METAR VOBL 121300Z 09008KT 8000 SCT015 32/13 Q1012 NOSIG
2026-04-12 12:30:00,METAR VOBL 121230Z 09010KT 8000 SCT015 32/13 Q1012 NOSIG
2026-04-12 12:00:00,METAR VOBL 121200Z 09008KT 8000 SCT015 33/13 Q1012 NOSIG
2026-04-12 11:30:00,METAR VOBL 121130Z 09010KT 8000 SCT015 SCT020 33/13 Q1011 NOSIG
2026-04-12 11:00:00,METAR VOBL 121100Z 09008KT 8000 SCT015 SCT020 33/13 Q1011 NOSIG
2026-04-12 10:30:00,METAR VOBL 121030Z 09010KT 8000 SCT015 SCT020 34/14 Q1011 NOSIG
2026-04-12 10:00:00,METAR VOBL 121000Z 09008KT 8000 SCT015 SCT020 34/14 Q1011 NOSIG
2026-04-12 09:30:00,METAR VOBL 120930Z 09010KT 8000 SCT015 SCT020 33/14 Q1011 NOSIG
2026-04-12 09:00:00,METAR VOBL 120900Z 09010KT 8000 SCT015 SCT020 33/14 Q1012 NOSIG
2026-04-12 08:30:00,METAR VOBL 120830Z 09010KT 8000 SCT015 33/14 Q1012 NOSIG
2026-04-12 08:00:00,METAR VOBL 120800Z 08008KT 8000 SCT015 32/14 Q1013 NOSIG
2026-04-12 07:30:00,METAR VOBL 120730Z 08007KT 8000 SCT015 32/14 Q1013 NOSIG
2026-04-12 07:00:00,METAR VOBL 120700Z 09008KT 8000 SCT015 32/14 Q1014 NOSIG
2026-04-12 06:30:00,METAR VOBL 120630Z 09010KT 8000 SCT015 31/15 Q1015 NOSIG
2026-04-12 06:00:00,METAR VOBL 120600Z 11007KT 8000 FEW015 31/15 Q1015 NOSIG
2026-04-12 05:30:00,METAR VOBL 120530Z 12009KT 8000 FEW015 30/15 Q1015 NOSIG
2026-04-12 05:00:00,METAR VOBL 120500Z 14008KT 6000 FEW015 30/15 Q1016 NOSIG
2026-04-12 04:30:00,METAR VOBL 120430Z 14006KT 6000 FEW015 29/16 Q1016 NOSIG
2026-04-12 04:00:00,METAR VOBL 120400Z 17007KT 6000 FEW012 28/17 Q1016 NOSIG
2026-04-12 03:30:00,METAR VOBL 120330Z 18005KT 6000 FEW012 28/18 Q1016 NOSIG
2026-04-12 03:00:00,METAR VOBL 120300Z 19004KT 6000 FEW012 26/18 Q1016 NOSIG
2026-04-12 02:30:00,METAR VOBL 120230Z 17005KT 6000 FEW012 25/18 Q1016 NOSIG
2026-04-12 02:00:00,METAR VOBL 120200Z 17004KT 6000 FEW012 24/18 Q1015 NOSIG
2026-04-12 01:30:00,METAR VOBL 120130Z 17003KT 6000 FEW012 24/18 Q1015 NOSIG
2026-04-12 01:00:00,METAR VOBL 120100Z 15005KT 6000 SCT012 24/18 Q1014 NOSIG
2026-04-12 00:30:00,METAR VOBL 120030Z 15005KT 6000 SCT012 24/18 Q1014 NOSIG
2026-04-12 00:00:00,METAR VOBL 120000Z 15005KT 6000 SCT012 23/18 Q1014 NOSIG
2026-04-11 23:30:00,METAR VOBL 112330Z 15005KT 6000 SCT012 23/18 Q1014 NOSIG
2026-04-11 23:00:00,METAR VOBL 112300Z 13005KT 6000 SCT012 23/18 Q1013 NOSIG
2026-04-11 22:30:00,METAR VOBL 112230Z 15005KT 6000 SCT012 24/18 Q1013 NOSIG
2026-04-11 22:00:00,METAR VOBL 112200Z 16005KT 6000 SCT012 24/18 Q1014 NOSIG
2026-04-11 21:30:00,METAR VOBL 112130Z 16005KT 6000 SCT012 24/18 Q1014 NOSIG
2026-04-11 21:00:00,METAR VOBL 112100Z 16006KT 6000 SCT012 25/18 Q1014 NOSIG
2026-04-11 20:30:00,METAR VOBL 112030Z 16006KT 6000 SCT012 25/17 Q1014 NOSIG
2026-04-11 20:00:00,METAR VOBL 112000Z 13005KT 6000 SCT012 25/17 Q1015 NOSIG
2026-04-11 19:30:00,METAR VOBL 111930Z 13005KT 6000 SCT012 25/17 Q1015 NOSIG
2026-04-11 19:00:00,METAR VOBL 111900Z 13005KT 6000 SCT012 26/17 Q1016 NOSIG
2026-04-11 18:30:00,METAR VOBL 111830Z 13005KT 6000 SCT012 26/16 Q1016 NOSIG
2026-04-11 18:00:00,METAR VOBL 111800Z 11005KT 6000 SCT012 26/16 Q1016 NOSIG
2026-04-11 17:30:00,METAR VOBL 111730Z 11005KT 6000 SCT012 26/16 Q1016 NOSIG
2026-04-11 17:00:00,METAR VOBL 111700Z 11007KT 6000 SCT012 27/16 Q1016 NOSIG
2026-04-11 16:30:00,METAR VOBL 111630Z 11007KT 6000 SCT012 28/15 Q1016 NOSIG
2026-04-11 16:00:00,METAR VOBL 111600Z 11008KT 6000 SCT012 28/15 Q1016 NOSIG
2026-04-11 15:30:00,METAR VOBL 111530Z 09008KT 6000 SCT012 29/15 Q1015 NOSIG
2026-04-11 15:00:00,METAR VOBL 111500Z 10008KT 6000 SCT012 29/15 Q1015 NOSIG
2026-04-11 14:30:00,METAR VOBL 111430Z 09008KT 6000 SCT012 30/16 Q1015 NOSIG
2026-04-11 14:00:00,METAR VOBL 111400Z 06004KT 6000 SCT012 30/15 Q1014 NOSIG
2026-04-11 13:30:00,METAR VOBL 111330Z 06007KT 6000 SCT012 31/14 Q1014 NOSIG
2026-04-11 13:00:00,METAR VOBL 111300Z 06007KT 8000 SCT012 32/14 Q1013 NOSIG
2026-04-11 12:30:00,METAR VOBL 111230Z 06011KT 8000 SCT012 33/14 Q1013 NOSIG
2026-04-11 12:00:00,METAR VOBL 111200Z 05010KT 8000 SCT012 33/14 Q1013 NOSIG
2026-04-11 11:30:00,METAR VOBL 111130Z 05009KT 8000 SCT012 33/14 Q1012 NOSIG
2026-04-11 11:00:00,METAR VOBL 111100Z 05009KT 8000 SCT012 33/15 Q1012 NOSIG
2026-04-11 10:30:00,METAR VOBL 111030Z 05008KT 8000 SCT012 SCT018 33/14 Q1012 NOSIG
2026-04-11 10:00:00,METAR VOBL 111000Z 06008KT 8000 SCT012 SCT018 33/15 Q1013 NOSIG
2026-04-11 09:30:00,METAR VOBL 110930Z 06008KT 8000 SCT012 SCT018 33/16 Q1013 NOSIG
2026-04-11 09:00:00,METAR VOBL 110900Z 07005KT 8000 SCT012 SCT020 33/16 Q1013 NOSIG
2026-04-11 08:30:00,METAR VOBL 110830Z 08005KT 8000 SCT012 SCT020 32/15 Q1014 NOSIG
2026-04-11 08:00:00,METAR VOBL 110800Z 04003KT 8000 SCT012 SCT020 31/15 Q1015 NOSIG
2026-04-11 07:30:00,METAR VOBL 110730Z 04003KT 8000 SCT012 SCT020 32/16 Q1015 NOSIG
2026-04-11 07:00:00,METAR VOBL 110700Z VRB02KT 6000 SCT012 31/16 Q1016 NOSIG
2026-04-11 06:30:00,METAR VOBL 110630Z 22003KT 6000 SCT012 31/17 Q1017 NOSIG
2026-04-11 06:00:00,METAR VOBL 110600Z 22005KT 6000 FEW012 30/17 Q1017 NOSIG
2026-04-11 05:30:00,METAR VOBL 110530Z 22005KT 6000 SCT012 29/18 Q1018 NOSIG
2026-04-11 05:00:00,METAR VOBL 110500Z 22005KT 6000 SCT012 28/18 Q1018 NOSIG
2026-04-11 04:30:00,METAR VOBL 110430Z 22006KT 6000 SCT012 28/20 Q1018 NOSIG
2026-04-11 04:00:00,METAR VOBL 110400Z COR 22006KT 6000 SCT012 27/21 Q1018 NOSIG
2026-04-11 03:30:00,METAR VOBL 110330Z 20005KT 5000 HZ SCT012 25/22 Q1018 NOSIG
2026-04-11 03:00:00,METAR VOBL 110300Z 18003KT 4000 BR SCT012 25/22 Q1018 BECMG 5000 HZ
2026-04-11 02:30:00,METAR VOBL 110230Z 16004KT 4000 BR SCT012 25/21 Q1018 NOSIG
2026-04-11 02:00:00,METAR VOBL 110200Z 16005KT 4000 BR SCT012 24/22 Q1017 NOSIG
2026-04-11 01:30:00,METAR VOBL 110130Z 14005KT 3500 BR SCT012 23/21 Q1017 NOSIG
2026-04-11 01:00:00,METAR VOBL 110100Z 14003KT 4000 BR SCT012 23/22 Q1017 NOSIG
2026-04-11 00:30:00,METAR VOBL 110030Z 14004KT 4000 BR SCT012 23/22 Q1016 NOSIG
2026-04-11 00:00:00,METAR VOBL 110000Z 16005KT 6000 SCT012 23/21 Q1016 TEMPO 5000 BR
2026-04-10 23:30:00,METAR VOBL 102330Z 16005KT 6000 FEW015 23/22 Q1016 NOSIG
2026-04-10 23:00:00,METAR VOBL 102300Z 15005KT 6000 FEW015 23/21 Q1015 NOSIG
2026-04-10 22:30:00,METAR VOBL 102230Z 14005KT 6000 FEW015 24/21 Q1015 NOSIG
2026-04-10 22:00:00,METAR VOBL 102200Z 14005KT 6000 FEW015 24/21 Q1015 NOSIG
2026-04-10 21:30:00,METAR VOBL 102130Z 14005KT 6000 FEW015 24/21 Q1015 NOSIG
2026-04-10 21:00:00,METAR VOBL 102100Z 14005KT 6000 FEW015 24/20 Q1016 NOSIG
2026-04-10 20:30:00,METAR VOBL 102030Z 14005KT 6000 FEW015 25/20 Q1016 NOSIG
2026-04-10 20:00:00,METAR VOBL 102000Z 14005KT 6000 SCT015 25/20 Q1016 NOSIG
2026-04-10 19:30:00,METAR VOBL 101930Z 15006KT 6000 SCT015 25/19 Q1017 NOSIG
2026-04-10 19:00:00,METAR VOBL 101900Z 14005KT 6000 SCT015 26/19 Q1017 NOSIG
2026-04-10 18:30:00,METAR VOBL 101830Z 16005KT 6000 SCT015 26/17 Q1018 NOSIG
2026-04-10 18:00:00,METAR VOBL 101800Z 14005KT 6000 SCT015 27/18 Q1018 NOSIG
2026-04-10 17:30:00,METAR VOBL 101730Z 14005KT 6000 SCT015 27/19 Q1018 NOSIG
2026-04-10 17:00:00,METAR VOBL 101700Z 14005KT 6000 SCT015 FEW025CB 27/18 Q1018 NOSIG
2026-04-10 16:30:00,METAR VOBL 101630Z 12005KT 6000 SCT015 FEW025CB 27/19 Q1018 NOSIG
2026-04-10 16:00:00,METAR VOBL 101600Z 10005KT 6000 SCT015 FEW025CB 27/20 Q1018 NOSIG
2026-04-10 15:30:00,METAR VOBL 101530Z 10006KT 6000 SCT015 FEW025CB 27/20 Q1017 NOSIG
2026-04-10 15:00:00,METAR VOBL 101500Z 12006KT 6000 SCT015 FEW025CB 27/20 Q1016 NOSIG
2026-04-10 14:30:00,METAR VOBL 101430Z 09006KT 6000 SCT015 FEW025CB 27/20 Q1016 NOSIG
2026-04-10 14:00:00,METAR VOBL 101400Z 11006KT 110V190 6000 SCT015 FEW025CB 27/20 Q1015 NOSIG
2026-04-10 13:30:00,METAR VOBL 101330Z VRB02KT 6000 SCT015 FEW025CB 28/19 Q1015 NOSIG
2026-04-10 13:00:00,METAR VOBL 101300Z VRB02KT 6000 SCT015 FEW025CB 27/20 Q1014 NOSIG
2026-04-10 12:30:00,METAR VOBL 101230Z 18005KT 6000 SCT015 SCT020 FEW025CB 27/19 Q1014 RETSRA NOSIG
2026-04-10 12:00:00,METAR VOBL 101200Z 20005KT 5000 -TSRA SCT015 SCT020 FEW025CB 27/19 Q1014 NOSIG
2026-04-10 11:30:00,METAR VOBL 101130Z 19014KT 3000 TSRA SCT015 SCT020 FEW025CB 28/20 Q1014 NOSIG
2026-04-10 11:00:00,METAR VOBL 101100Z 08007KT 6000 SCT015 SCT020 33/15 Q1013 NOSIG
2026-04-10 10:30:00,METAR VOBL 101030Z 09008KT 9999 SCT015 SCT020 33/15 Q1013 NOSIG
2026-04-10 10:00:00,METAR VOBL 101000Z 08007KT 9999 SCT015 SCT020 34/15 Q1013 NOSIG
2026-04-10 09:30:00,METAR VOBL 100930Z 08005KT 9999 SCT015 SCT020 34/15 Q1013 NOSIG
2026-04-10 09:00:00,METAR VOBL 100900Z 10006KT 9999 SCT015 SCT020 33/15 Q1014 NOSIG
2026-04-10 08:30:00,METAR VOBL 100830Z 09006KT 9999 SCT015 SCT020 34/15 Q1014 NOSIG
2026-04-10 08:00:00,METAR VOBL 100800Z 07005KT 9999 SCT015 SCT020 33/15 Q1015 NOSIG
2026-04-10 07:30:00,METAR VOBL 100730Z 07006KT 9999 SCT015 SCT020 33/16 Q1016 NOSIG
2026-04-10 07:00:00,METAR VOBL 100700Z 05005KT 9999 SCT015 SCT020 33/17 Q1016 NOSIG
2026-04-10 06:30:00,METAR VOBL 100630Z 05005KT 9999 SCT015 SCT020 32/17 Q1017 NOSIG
2026-04-10 06:00:00,METAR VOBL 100600Z 03004KT 9999 SCT015 31/17 Q1017 NOSIG
2026-04-10 05:30:00,METAR VOBL 100530Z 34004KT 9999 SCT015 31/17 Q1018 NOSIG
2026-04-10 05:00:00,METAR VOBL 100500Z COR 30007KT 8000 FEW015 30/18 Q1018 NOSIG
2026-04-10 04:30:00,METAR VOBL 100430Z 34004KT 8000 FEW015 29/18 Q1018 NOSIG
2026-04-10 04:00:00,METAR VOBL 100400Z 33004KT 8000 FEW015 28/18 Q1018 NOSIG
2026-04-10 03:30:00,METAR VOBL 100330Z 27006KT 8000 FEW015 27/19 Q1018 NOSIG
2026-04-10 03:00:00,METAR VOBL 100300Z 27006KT 8000 FEW015 26/19 Q1018 NOSIG
2026-04-10 02:30:00,METAR VOBL 100230Z 27006KT 8000 FEW015 25/19 Q1018 NOSIG
2026-04-10 02:00:00,METAR VOBL 100200Z 29005KT 140V250 6000 FEW015 25/19 Q1017 NOSIG
2026-04-10 01:30:00,METAR VOBL 100130Z 29004KT 6000 FEW015 SCT080 24/18 Q1016 NOSIG
2026-04-10 01:00:00,METAR VOBL 100100Z VRB02KT 6000 FEW015 SCT080 23/18 Q1016 NOSIG
2026-04-10 00:30:00,METAR VOBL 100030Z VRB02KT 6000 SCT015 SCT080 23/18 Q1015 NOSIG
2026-04-10 00:00:00,METAR VOBL 100000Z VRB02KT 6000 SCT015 SCT080 24/18 Q1015 NOSIG
2026-04-09 23:30:00,METAR VOBL 092330Z VRB02KT 6000 SCT015 SCT080 24/18 Q1015 NOSIG
2026-04-09 23:00:00,METAR VOBL 092300Z 16005KT 6000 SCT015 SCT080 24/18 Q1015 NOSIG
2026-04-09 22:30:00,METAR VOBL 092230Z 14004KT 6000 SCT015 SCT080 24/18 Q1015 NOSIG
2026-04-09 22:00:00,METAR VOBL 092200Z 14003KT 6000 SCT015 SCT080 24/18 Q1015 NOSIG
2026-04-09 21:30:00,METAR VOBL 092130Z 12004KT 120V180 6000 SCT015 FEW025CB 25/17 Q1015 NOSIG
2026-04-09 21:00:00,METAR VOBL 092100Z VRB02KT 6000 SCT015 FEW025CB 25/17 Q1015 NOSIG
2026-04-09 20:30:00,METAR VOBL 092030Z VRB02KT 6000 SCT015 FEW025CB 25/18 Q1016 NOSIG
2026-04-09 20:00:00,METAR VOBL 092000Z 18004KT 6000 SCT015 FEW025CB 26/18 Q1016 NOSIG
2026-04-09 19:30:00,METAR VOBL 091930Z 19006KT 6000 SCT015 FEW025CB 26/18 Q1016 NOSIG
2026-04-09 19:00:00,METAR VOBL 091900Z 19005KT 6000 SCT015 FEW025CB 26/18 Q1016 NOSIG
2026-04-09 18:30:00,METAR VOBL 091830Z 16007KT 6000 SCT015 FEW025CB 26/19 Q1017 NOSIG
2026-04-09 18:00:00,METAR VOBL 091800Z 17009KT 6000 SCT015 FEW025CB 27/18 Q1017 NOSIG
2026-04-09 17:30:00,METAR VOBL 091730Z 12008KT 6000 SCT015 FEW025CB 27/18 Q1017 TEMPO 3000 TSRA DZ
2026-04-09 17:00:00,METAR VOBL 091700Z 13008KT 6000 SCT015 FEW025CB 28/17 Q1017 TEMPO 3000 TSRA DZ
2026-04-09 16:30:00,METAR VOBL 091630Z 13008KT 6000 SCT015 FEW025CB 29/18 Q1016 TEMPO 3000 TSRA DZ
2026-04-09 16:00:00,METAR VOBL 091600Z VRB02KT 6000 SCT015 FEW025CB 28/18 Q1016 NOSIG
2026-04-09 15:30:00,METAR VOBL 091530Z VRB02KT 6000 SCT015 FEW025CB 28/18 Q1016 NOSIG
2026-04-09 15:00:00,METAR VOBL 091500Z VRB02KT 6000 SCT015 28/16 Q1015 NOSIG
2026-04-09 14:30:00,METAR VOBL 091430Z VRB02KT 6000 SCT015 29/16 Q1015 NOSIG
2026-04-09 14:00:00,METAR VOBL 091400Z VRB02KT 6000 SCT015 30/15 Q1014 NOSIG
2026-04-09 13:30:00,METAR VOBL 091330Z VRB02KT 8000 SCT015 31/15 Q1014 NOSIG
2026-04-09 13:00:00,METAR VOBL 091300Z 25006KT 8000 SCT015 31/14 Q1013 NOSIG
2026-04-09 12:30:00,METAR VOBL 091230Z 25006KT 8000 FEW015 SCT020 31/14 Q1013 NOSIG
2026-04-09 12:00:00,METAR VOBL 091200Z 28006KT 8000 FEW015 SCT020 32/14 Q1013 NOSIG
2026-04-09 11:30:00,METAR VOBL 091130Z 25006KT 8000 FEW015 SCT020 33/14 Q1013 NOSIG
2026-04-09 11:00:00,METAR VOBL 091100Z 29006KT 8000 SCT015 SCT020 33/14 Q1013 NOSIG
2026-04-09 10:30:00,METAR VOBL 091030Z 25006KT 8000 SCT015 SCT020 33/14 Q1013 NOSIG
2026-04-09 10:00:00,METAR VOBL 091000Z 25006KT 8000 SCT015 SCT020 33/14 Q1013 NOSIG
2026-04-09 09:30:00,METAR VOBL 090930Z 25006KT 8000 SCT015 SCT020 33/14 Q1013 NOSIG
2026-04-09 09:00:00,METAR VOBL 090900Z 29006KT 8000 SCT015 SCT020 33/14 Q1013 NOSIG
2026-04-09 08:30:00,METAR VOBL 090830Z 24008KT 8000 SCT015 SCT020 32/14 Q1014 NOSIG
2026-04-09 08:00:00,METAR VOBL 090800Z 25006KT 8000 SCT015 SCT020 32/14 Q1015 NOSIG
2026-04-09 07:30:00,METAR VOBL 090730Z 21008KT 8000 SCT015 SCT020 32/15 Q1015 NOSIG
2026-04-09 07:00:00,METAR VOBL 090700Z 25006KT 8000 SCT015 SCT020 31/16 Q1016 NOSIG
2026-04-09 06:30:00,METAR VOBL 090630Z 25005KT 8000 SCT015 SCT020 31/16 Q1017 NOSIG
2026-04-09 06:00:00,METAR VOBL 090600Z 23007KT 8000 SCT015 SCT020 30/17 Q1017 NOSIG
2026-04-09 05:30:00,METAR VOBL 090530Z 25005KT 8000 SCT015 30/17 Q1017 NOSIG
2026-04-09 05:00:00,METAR VOBL 090500Z 23008KT 8000 SCT015 29/17 Q1018 NOSIG
2026-04-09 04:30:00,METAR VOBL 090430Z 21008KT 6000 FEW015 28/18 Q1018 NOSIG
2026-04-09 04:00:00,METAR VOBL 090400Z 23008KT 6000 FEW015 28/18 Q1018 NOSIG
2026-04-09 03:30:00,METAR VOBL 090330Z 23008KT 6000 FEW015 27/19 Q1018 NOSIG
2026-04-09 03:00:00,METAR VOBL 090300Z 23008KT 6000 FEW015 26/19 Q1018 NOSIG
2026-04-09 02:30:00,METAR VOBL 090230Z 23006KT 6000 NSC 26/20 Q1017 NOSIG
2026-04-09 02:00:00,METAR VOBL 090200Z 22003KT 6000 NSC 25/20 Q1016 NOSIG
2026-04-09 01:30:00,METAR VOBL 090130Z 20003KT 6000 NSC 24/19 Q1016 NOSIG
2026-04-09 01:00:00,METAR VOBL 090100Z 20004KT 6000 NSC 24/19 Q1016 NOSIG
2026-04-09 00:30:00,METAR VOBL 090030Z 21004KT 6000 NSC 24/19 Q1015 NOSIG
2026-04-09 00:00:00,METAR VOBL 090000Z 18005KT 6000 NSC 24/19 Q1015 NOSIG
2026-04-08 23:30:00,METAR VOBL 082330Z 18005KT 6000 NSC 24/20 Q1015 NOSIG
2026-04-08 23:00:00,METAR VOBL 082300Z 16005KT 6000 NSC 24/20 Q1015 NOSIG
2026-04-08 22:30:00,METAR VOBL 082230Z 15005KT 6000 NSC 25/20 Q1014 NOSIG
2026-04-08 22:00:00,METAR VOBL 082200Z 15005KT 6000 NSC 25/20 Q1014 NOSIG
2026-04-08 21:30:00,METAR VOBL 082130Z 15005KT 6000 NSC 25/20 Q1014 NOSIG
2026-04-08 21:00:00,METAR VOBL 082100Z 15005KT 6000 NSC 25/19 Q1014 NOSIG
2026-04-08 20:30:00,METAR VOBL 082030Z 15005KT 6000 NSC 26/19 Q1015 NOSIG
2026-04-08 20:00:00,METAR VOBL 082000Z 15004KT 8000 NSC 25/16 Q1015 NOSIG
2026-04-08 19:30:00,METAR VOBL 081930Z 14004KT 8000 NSC 25/15 Q1015 NOSIG
2026-04-08 19:00:00,METAR VOBL 081900Z 12005KT 8000 NSC 25/15 Q1015 NOSIG
2026-04-08 18:30:00,METAR VOBL 081830Z 11004KT 8000 NSC 25/15 Q1016 NOSIG
2026-04-08 18:00:00,METAR VOBL 081800Z 09005KT 8000 NSC 25/14 Q1016 NOSIG
2026-04-08 17:30:00,METAR VOBL 081730Z 10006KT 8000 NSC 26/14 Q1016 NOSIG
2026-04-08 17:00:00,METAR VOBL 081700Z 08004KT 8000 NSC 26/13 Q1016 NOSIG
2026-04-08 16:30:00,METAR VOBL 081630Z 06004KT 8000 FEW015 27/12 Q1016 NOSIG
2026-04-08 16:00:00,METAR VOBL 081600Z VRB02KT 8000 FEW015 26/17 Q1015 NOSIG
2026-04-08 15:30:00,METAR VOBL 081530Z VRB02KT 8000 FEW015 28/11 Q1015 NOSIG
2026-04-08 15:00:00,METAR VOBL 081500Z 33004KT 8000 FEW015 28/11 Q1015 NOSIG
2026-04-08 14:30:00,METAR VOBL 081430Z 33004KT 8000 FEW015 29/11 Q1014 NOSIG
2026-04-08 14:00:00,METAR VOBL 081400Z 35003KT 8000 FEW015 29/11 Q1014 NOSIG
2026-04-08 13:30:00,METAR VOBL 081330Z 35004KT 8000 FEW015 30/11 Q1013 NOSIG
2026-04-08 13:00:00,METAR VOBL 081300Z 35004KT 9999 FEW015 31/11 Q1013 NOSIG
2026-04-08 12:30:00,METAR VOBL 081230Z 35006KT 9999 FEW015 32/10 Q1013 NOSIG
2026-04-08 12:00:00,METAR VOBL 081200Z 35006KT 9999 FEW015 32/10 Q1012 NOSIG
2026-04-08 11:30:00,METAR VOBL 081130Z 35006KT 9999 FEW015 33/11 Q1012 NOSIG
2026-04-08 11:00:00,METAR VOBL 081100Z 34006KT 9999 FEW015 33/11 Q1012 NOSIG
2026-04-08 10:30:00,METAR VOBL 081030Z 36009KT 9999 FEW015 34/11 Q1012 NOSIG
2026-04-08 10:00:00,METAR VOBL 081000Z 36005KT 9999 FEW015 34/11 Q1012 NOSIG
2026-04-08 09:30:00,METAR VOBL 080930Z 32006KT 9999 FEW015 33/11 Q1012 NOSIG
2026-04-08 09:00:00,METAR VOBL 080900Z 02008KT 9999 FEW015 33/10 Q1013 NOSIG
2026-04-08 08:30:00,METAR VOBL 080830Z 32005KT 9999 FEW015 33/11 Q1013 NOSIG
2026-04-08 08:00:00,METAR VOBL 080800Z 03005KT 9999 SCT015 32/11 Q1014 NOSIG
2026-04-08 07:30:00,METAR VOBL 080730Z VRB02KT 9999 SCT015 32/11 Q1014 NOSIG
2026-04-08 07:00:00,METAR VOBL 080700Z VRB02KT 9999 FEW015 32/12 Q1015 NOSIG
2026-04-08 06:30:00,METAR VOBL 080630Z VRB02KT 9999 FEW015 31/12 Q1015 NOSIG
2026-04-08 06:00:00,METAR VOBL 080600Z VRB02KT CAVOK 31/13 Q1016 NOSIG
2026-04-08 05:30:00,METAR VOBL 080530Z 07003KT CAVOK 30/13 Q1016 NOSIG
2026-04-08 05:00:00,METAR VOBL 080500Z 32006KT CAVOK 29/14 Q1016 NOSIG
2026-04-08 04:30:00,METAR VOBL 080430Z 34006KT 8000 NSC 29/14 Q1016 NOSIG
2026-04-08 04:00:00,METAR VOBL 080400Z 30003KT 8000 NSC 28/14 Q1017 NOSIG
2026-04-08 03:30:00,METAR VOBL 080330Z 30005KT 8000 NSC 27/14 Q1017 NOSIG
2026-04-08 03:00:00,METAR VOBL 080300Z 30003KT 8000 NSC 25/15 Q1017 NOSIG
2026-04-08 02:30:00,METAR VOBL 080230Z 30005KT 8000 NSC 24/15 Q1016 NOSIG
2026-04-08 02:00:00,METAR VOBL 080200Z 30005KT 6000 NSC 22/16 Q1016 NOSIG
2026-04-08 01:30:00,METAR VOBL 080130Z 30005KT 6000 NSC 20/15 Q1016 NOSIG
2026-04-08 01:00:00,METAR VOBL 080100Z 30005KT 6000 FEW015 19/15 Q1015 NOSIG
2026-04-08 00:30:00,METAR VOBL 080030Z COR 29005KT 6000 FEW015 FEW025CB 20/14 Q1015 NOSIG
2026-04-08 00:00:00,METAR VOBL 080000Z 29005KT 6000 NSC 20/14 Q1015 NOSIG
2026-04-07 23:30:00,METAR VOBL 072330Z 25005KT 6000 NSC 21/14 Q1014 NOSIG
2026-04-07 23:00:00,METAR VOBL 072300Z 25005KT 6000 NSC 21/14 Q1014 NOSIG
2026-04-07 22:30:00,METAR VOBL 072230Z 27005KT 6000 NSC 20/13 Q1014 NOSIG
2026-04-07 22:00:00,METAR VOBL 072200Z 27005KT 6000 NSC 21/13 Q1014 NOSIG
2026-04-07 21:30:00,METAR VOBL 072130Z 18005KT 6000 NSC 23/13 Q1014 NOSIG
2026-04-07 21:00:00,METAR VOBL 072100Z 16005KT 6000 NSC 22/10 Q1014 NOSIG
2026-04-07 20:30:00,METAR VOBL 072030Z 11005KT 6000 NSC 22/10 Q1014 NOSIG
2026-04-07 20:00:00,METAR VOBL 072000Z 27006KT 6000 NSC 22/10 Q1014 NOSIG
2026-04-07 19:30:00,METAR VOBL 071930Z 29004KT 6000 NSC 22/10 Q1014 NOSIG
2026-04-07 19:00:00,METAR VOBL 071900Z 29004KT 6000 NSC 22/10 Q1015 NOSIG
2026-04-07 18:30:00,METAR VOBL 071830Z 29004KT 6000 NSC 23/09 Q1015 NOSIG
2026-04-07 18:00:00,METAR VOBL 071800Z 32003KT 6000 NSC 24/08 Q1015 NOSIG
2026-04-07 17:30:00,METAR VOBL 071730Z 32003KT 6000 NSC 24/09 Q1015 NOSIG
2026-04-07 17:00:00,METAR VOBL 071700Z 29008KT 6000 NSC 25/07 Q1015 NOSIG
2026-04-07 16:30:00,METAR VOBL 071630Z 29008KT 6000 NSC 26/08 Q1015 NOSIG
2026-04-07 16:00:00,METAR VOBL 071600Z 29003KT 6000 NSC 25/10 Q1015 NOSIG
2026-04-07 15:30:00,METAR VOBL 071530Z 29003KT 6000 NSC 26/10 Q1015 NOSIG
2026-04-07 15:00:00,METAR VOBL 071500Z 29003KT 6000 NSC 26/10 Q1014 NOSIG
2026-04-07 14:30:00,METAR VOBL 071430Z 29003KT 6000 FEW015 27/09 Q1014 NOSIG
2026-04-07 14:00:00,METAR VOBL 071400Z 29003KT 6000 FEW015 28/07 Q1014 NOSIG
2026-04-07 13:30:00,METAR VOBL 071330Z 29006KT 6000 FEW015 30/06 Q1014 NOSIG
2026-04-07 13:00:00,METAR VOBL 071300Z 27006KT 9999 FEW015 31/06 Q1013 NOSIG
2026-04-07 12:30:00,METAR VOBL 071230Z 27006KT 9999 FEW015 32/05 Q1013 NOSIG
2026-04-07 12:00:00,METAR VOBL 071200Z 27008KT 9999 FEW015 33/05 Q1013 NOSIG
2026-04-07 11:30:00,METAR VOBL 071130Z 27010KT 9999 FEW015 33/05 Q1012 NOSIG
2026-04-07 11:00:00,METAR VOBL 071100Z 29010KT 9999 FEW015 33/06 Q1012 NOSIG
2026-04-07 10:30:00,METAR VOBL 071030Z 29010KT 9999 FEW015 33/06 Q1013 NOSIG
2026-04-07 10:00:00,METAR VOBL 071000Z 29010KT 9999 FEW015 33/06 Q1013 NOSIG
2026-04-07 09:30:00,METAR VOBL 070930Z 29010KT 9999 FEW015 33/06 Q1013 NOSIG
2026-04-07 09:00:00,METAR VOBL 070900Z 29010KT 9999 FEW015 32/06 Q1014 NOSIG
2026-04-07 08:30:00,METAR VOBL 070830Z 29010KT 9999 FEW015 33/07 Q1014 NOSIG
2026-04-07 08:00:00,METAR VOBL 070800Z 29008KT 9999 FEW015 33/07 Q1015 NOSIG
2026-04-07 07:30:00,METAR VOBL 070730Z 29008KT 9999 FEW015 32/07 Q1015 NOSIG
2026-04-07 07:00:00,METAR VOBL 070700Z 29008KT CAVOK 31/06 Q1016 NOSIG
2026-04-07 06:30:00,METAR VOBL 070630Z 29010KT CAVOK 31/05 Q1016 NOSIG
2026-04-07 06:00:00,METAR VOBL 070600Z 29010KT CAVOK 31/05 Q1017 NOSIG
2026-04-07 05:30:00,METAR VOBL 070530Z 29008KT CAVOK 31/05 Q1017 NOSIG
2026-04-07 05:00:00,METAR VOBL 070500Z 31011KT 8000 NSC 30/07 Q1017 NOSIG
2026-04-07 04:30:00,METAR VOBL 070430Z 31011KT 8000 NSC 29/08 Q1018 NOSIG
2026-04-07 04:00:00,METAR VOBL 070400Z 31011KT 8000 NSC 28/09 Q1018 NOSIG
2026-04-07 03:30:00,METAR VOBL 070330Z 31009KT 8000 NSC 26/12 Q1017 NOSIG
2026-04-07 03:00:00,METAR VOBL 070300Z 27007KT 8000 FEW015 25/15 Q1017 NOSIG
2026-04-07 02:30:00,METAR VOBL 070230Z 27007KT 8000 FEW015 25/15 Q1017 NOSIG
2026-04-07 02:00:00,METAR VOBL 070200Z 27007KT 8000 FEW015 23/15 Q1017 NOSIG
2026-04-07 01:30:00,METAR VOBL 070130Z 26005KT 6000 FEW015 22/15 Q1016 NOSIG
2026-04-07 01:00:00,METAR VOBL 070100Z 25006KT 6000 FEW015 22/14 Q1016 NOSIG
2026-04-07 00:30:00,METAR VOBL 070030Z 27005KT 6000 SCT015 21/14 Q1016 NOSIG
2026-04-07 00:00:00,METAR VOBL 070000Z 27005KT 6000 SCT015 21/14 Q1015 NOSIG
2026-04-06 23:30:00,METAR VOBL 062330Z 24005KT 6000 SCT015 22/14 Q1015 NOSIG
2026-04-06 23:00:00,METAR VOBL 062300Z 27005KT 6000 SCT015 22/13 Q1015 NOSIG
2026-04-06 22:30:00,METAR VOBL 062230Z 27005KT 6000 SCT015 FEW025CB 22/13 Q1015 NOSIG
2026-04-06 22:00:00,METAR VOBL 062200Z 27006KT 6000 SCT015 FEW025CB 20/16 Q1015 NOSIG
2026-04-06 21:30:00,METAR VOBL 062130Z 26004KT 6000 SCT015 FEW025CB 23/15 Q1015 NOSIG
2026-04-06 21:00:00,METAR VOBL 062100Z 26004KT 6000 SCT015 FEW025CB 23/15 Q1015 TEMPO 5000 TSRA
2026-04-06 20:30:00,METAR VOBL 062030Z 29004KT 6000 SCT015 FEW025CB 24/16 Q1015 TEMPO 5000 TSRA
2026-04-06 20:00:00,METAR VOBL 062000Z 29004KT 6000 SCT015 FEW025CB 25/12 Q1016 TEMPO 3000 TSRA
2026-04-06 19:30:00,METAR VOBL 061930Z 29004KT 6000 SCT015 FEW025CB 25/12 Q1016 TEMPO 3000 TSRA
2026-04-06 19:00:00,METAR VOBL 061900Z VRB02KT 6000 SCT015 FEW025CB 26/12 Q1016 TEMPO 3000 TSRA
2026-04-06 18:30:00,METAR VOBL 061830Z 05005KT 6000 FEW015 26/11 Q1017 NOSIG
2026-04-06 18:00:00,METAR VOBL 061800Z 29005KT 6000 FEW015 26/13 Q1016 NOSIG
2026-04-06 17:30:00,METAR VOBL 061730Z 29005KT 6000 FEW015 26/15 Q1016 NOSIG
2026-04-06 17:00:00,METAR VOBL 061700Z VRB02KT 6000 SCT015 26/16 Q1016 NOSIG
2026-04-06 16:30:00,METAR VOBL 061630Z 31003KT 6000 FEW015 26/15 Q1016 NOSIG
2026-04-06 16:00:00,METAR VOBL 061600Z 31004KT 6000 FEW015 26/14 Q1016 NOSIG
2026-04-06 15:30:00,METAR VOBL 061530Z 31004KT 6000 FEW015 27/14 Q1016 NOSIG
2026-04-06 15:00:00,METAR VOBL 061500Z 31004KT 6000 FEW015 28/14 Q1015 NOSIG
2026-04-06 14:30:00,METAR VOBL 061430Z 31005KT 6000 FEW015 28/13 Q1015 NOSIG
2026-04-06 14:00:00,METAR VOBL 061400Z 31005KT 8000 FEW015 29/13 Q1014 NOSIG
2026-04-06 13:30:00,METAR VOBL 061330Z 29005KT 8000 FEW015 30/13 Q1014 NOSIG
2026-04-06 13:00:00,METAR VOBL 061300Z 28006KT 9999 FEW015 31/12 Q1013 NOSIG
2026-04-06 12:30:00,METAR VOBL 061230Z 28008KT 9999 FEW015 32/12 Q1013 NOSIG
2026-04-06 12:00:00,METAR VOBL 061200Z 29006KT 9999 FEW015 32/12 Q1013 NOSIG
2026-04-06 11:30:00,METAR VOBL 061130Z 29007KT 9999 SCT015 32/12 Q1013 NOSIG
2026-04-06 11:00:00,METAR VOBL 061100Z 29006KT 9999 SCT015 SCT020 32/12 Q1013 NOSIG
2026-04-06 10:30:00,METAR VOBL 061030Z 30006KT 9999 SCT015 SCT020 33/12 Q1013 NOSIG
2026-04-06 10:00:00,METAR VOBL 061000Z 29006KT 9999 SCT015 SCT020 33/13 Q1013 NOSIG
2026-04-06 09:30:00,METAR VOBL 060930Z 29009KT 9999 SCT015 SCT020 33/13 Q1013 NOSIG
2026-04-06 09:00:00,METAR VOBL 060900Z 31009KT 9999 SCT015 SCT020 32/13 Q1014 NOSIG
2026-04-06 08:30:00,METAR VOBL 060830Z 32008KT 9999 SCT015 32/13 Q1014 NOSIG
2026-04-06 08:00:00,METAR VOBL 060800Z 32009KT 9999 FEW015 32/14 Q1015 NOSIG
2026-04-06 07:30:00,METAR VOBL 060730Z 32008KT 9999 FEW015 31/13 Q1015 NOSIG
2026-04-06 07:00:00,METAR VOBL 060700Z 30010KT CAVOK 31/13 Q1016 NOSIG
2026-04-06 06:30:00,METAR VOBL 060630Z 32009KT CAVOK 31/14 Q1016 NOSIG
2026-04-06 06:00:00,METAR VOBL 060600Z 32011KT CAVOK 30/13 Q1017 NOSIG
2026-04-06 05:30:00,METAR VOBL 060530Z 32012KT CAVOK 30/14 Q1017 NOSIG
2026-04-06 05:00:00,METAR VOBL 060500Z 32012KT CAVOK 29/14 Q1017 NOSIG
2026-04-06 04:30:00,METAR VOBL 060430Z 32014KT 9999 NSC 28/14 Q1017 NOSIG
2026-04-06 04:00:00,METAR VOBL 060400Z 32013KT 8000 NSC 27/14 Q1017 NOSIG
2026-04-06 03:30:00,METAR VOBL 060330Z 32012KT 8000 NSC 26/15 Q1017 NOSIG
2026-04-06 03:00:00,METAR VOBL 060300Z 32010KT 6000 NSC 26/16 Q1017 NOSIG
2026-04-06 02:30:00,METAR VOBL 060230Z 32008KT 6000 FEW015 25/16 Q1016 NOSIG
2026-04-06 02:00:00,METAR VOBL 060200Z 29006KT 6000 FEW015 23/16 Q1016 NOSIG
2026-04-06 01:30:00,METAR VOBL 060130Z VRB02KT 6000 FEW015 23/16 Q1016 NOSIG
2026-04-06 01:00:00,METAR VOBL 060100Z VRB02KT 6000 FEW015 22/16 Q1015 NOSIG
2026-04-06 00:30:00,METAR VOBL 060030Z VRB02KT 6000 FEW015 22/16 Q1015 NOSIG
2026-04-06 00:00:00,METAR VOBL 060000Z VRB02KT 6000 FEW015 22/16 Q1015 NOSIG
2026-04-05 23:30:00,METAR VOBL 052330Z 27005KT 6000 FEW015 23/16 Q1014 NOSIG
2026-04-05 23:00:00,METAR VOBL 052300Z VRB02KT 6000 FEW015 23/16 Q1014 NOSIG
2026-04-05 22:30:00,METAR VOBL 052230Z VRB02KT 6000 FEW015 23/15 Q1014 NOSIG
2026-04-05 22:00:00,METAR VOBL 052200Z 23004KT 6000 FEW015 24/15 Q1013 NOSIG
2026-04-05 21:30:00,METAR VOBL 052130Z 23004KT 6000 FEW015 24/15 Q1014 NOSIG
2026-04-05 21:00:00,METAR VOBL 052100Z 25004KT 6000 FEW015 25/15 Q1014 NOSIG
2026-04-05 20:30:00,METAR VOBL 052030Z 27005KT 6000 FEW015 24/15 Q1014 NOSIG
2026-04-05 20:00:00,METAR VOBL 052000Z 27005KT 6000 FEW015 24/15 Q1014 NOSIG
2026-04-05 19:30:00,METAR VOBL 051930Z 28004KT 6000 FEW015 25/15 Q1014 NOSIG
2026-04-05 19:00:00,METAR VOBL 051900Z 29004KT 6000 FEW015 25/16 Q1014 NOSIG
2026-04-05 18:30:00,METAR VOBL 051830Z 27005KT 6000 FEW015 25/16 Q1015 NOSIG
2026-04-05 18:00:00,METAR VOBL 051800Z 27005KT 6000 FEW015 25/16 Q1015 NOSIG
2026-04-05 17:30:00,METAR VOBL 051730Z 27004KT 6000 FEW015 26/16 Q1015 NOSIG
2026-04-05 17:00:00,METAR VOBL 051700Z 27005KT 6000 FEW015 26/16 Q1015 NOSIG
2026-04-05 16:30:00,METAR VOBL 051630Z 29005KT 6000 FEW015 26/16 Q1015 NOSIG
2026-04-05 16:00:00,METAR VOBL 051600Z 30005KT 6000 FEW015 27/15 Q1015 NOSIG
2026-04-05 15:30:00,METAR VOBL 051530Z 30005KT 6000 FEW015 27/15 Q1014 NOSIG
2026-04-05 15:00:00,METAR VOBL 051500Z 32004KT 8000 FEW015 27/15 Q1014 NOSIG
2026-04-05 13:00:00,METAR VOBL 051300Z 32006KT 8000 FEW015 30/14 Q1012 NOSIG
2026-04-05 12:30:00,METAR VOBL 051230Z 32006KT 8000 FEW015 30/14 Q1012 NOSIG
2026-04-05 12:00:00,METAR VOBL 051200Z 32009KT 9999 FEW015 31/14 Q1012 NOSIG
2026-04-05 11:30:00,METAR VOBL 051130Z 32007KT 9999 FEW015 32/14 Q1011 NOSIG
2026-04-05 11:00:00,METAR VOBL 051100Z 31008KT 9999 FEW015 32/14 Q1012 NOSIG
2026-04-05 10:30:00,METAR VOBL 051030Z 31008KT 9999 SCT015 32/14 Q1012 NOSIG
2026-04-05 10:00:00,METAR VOBL 051000Z 31009KT 9999 SCT015 32/14 Q1012 NOSIG
2026-04-05 09:30:00,METAR VOBL 050930Z 31007KT 9999 SCT015 32/14 Q1012 NOSIG
2026-04-05 09:00:00,METAR VOBL 050900Z 30010KT 9999 SCT015 32/14 Q1013 NOSIG
2026-04-05 08:30:00,METAR VOBL 050830Z 32010KT 9999 SCT015 31/14 Q1013 NOSIG
2026-04-05 08:00:00,METAR VOBL 050800Z 32010KT 8000 SCT015 31/14 Q1014 NOSIG
2026-04-05 07:30:00,METAR VOBL 050730Z 31010KT 8000 SCT015 30/14 Q1014 NOSIG
2026-04-05 07:00:00,METAR VOBL 050700Z 31012KT 8000 SCT015 30/14 Q1015 NOSIG
2026-04-05 06:30:00,METAR VOBL 050630Z 31008KT 8000 SCT015 29/14 Q1016 NOSIG
2026-04-05 06:00:00,METAR VOBL 050600Z 31008KT 8000 SCT015 29/15 Q1016 NOSIG
2026-04-05 05:30:00,METAR VOBL 050530Z 31008KT 8000 SCT015 29/15 Q1016 NOSIG
2026-04-05 05:00:00,METAR VOBL 050500Z 29008KT 8000 FEW015 28/15 Q1017 NOSIG
2026-04-05 04:30:00,METAR VOBL 050430Z 29008KT 6000 FEW015 27/16 Q1017 NOSIG
2026-04-05 04:00:00,METAR VOBL 050400Z 29008KT 6000 FEW015 26/17 Q1017 NOSIG
2026-04-05 03:30:00,METAR VOBL 050330Z 29008KT 6000 FEW015 25/18 Q1017 NOSIG
2026-04-05 03:00:00,METAR VOBL 050300Z 27008KT 6000 FEW015 25/18 Q1016 NOSIG
2026-04-05 02:30:00,METAR VOBL 050230Z 27008KT 6000 FEW015 25/20 Q1016 NOSIG
2026-04-05 02:00:00,METAR VOBL 050200Z 28008KT 6000 FEW015 24/20 Q1016 NOSIG
2026-04-05 01:30:00,METAR VOBL 050130Z 27006KT 6000 FEW015 23/19 Q1015 NOSIG
2026-04-05 01:00:00,METAR VOBL 050100Z 26006KT 6000 FEW015 23/19 Q1015 NOSIG
2026-04-05 00:30:00,METAR VOBL 050030Z 26004KT 6000 FEW015 23/19 Q1014 NOSIG
2026-04-05 00:00:00,METAR VOBL 050000Z 26004KT 6000 NSC 23/19 Q1014 NOSIG
2026-04-04 23:30:00,METAR VOBL 042330Z 26007KT 6000 NSC 23/20 Q1014 NOSIG
2026-04-04 23:00:00,METAR VOBL 042300Z 26007KT 6000 NSC 23/19 Q1014 NOSIG
2026-04-04 22:30:00,METAR VOBL 042230Z 26007KT 6000 FEW012 24/19 Q1013 NOSIG
2026-04-04 22:00:00,METAR VOBL 042200Z 26008KT 6000 FEW012 24/19 Q1013 NOSIG
2026-04-04 21:30:00,METAR VOBL 042130Z 27008KT 6000 FEW012 24/19 Q1013 NOSIG
2026-04-04 21:00:00,METAR VOBL 042100Z 25008KT 6000 FEW012 25/19 Q1013 NOSIG
2026-04-04 20:30:00,METAR VOBL 042030Z 24007KT 6000 FEW012 25/19 Q1014 NOSIG
2026-04-04 20:00:00,METAR VOBL 042000Z 19006KT 6000 FEW012 25/18 Q1014 NOSIG
2026-04-04 19:30:00,METAR VOBL 041930Z 19006KT 6000 FEW012 25/18 Q1015 NOSIG
2026-04-04 19:00:00,METAR VOBL 041900Z 18006KT 6000 FEW012 25/18 Q1015 NOSIG
2026-04-04 18:30:00,METAR VOBL 041830Z 17007KT 6000 FEW012 25/17 Q1015 NOSIG
2026-04-04 18:00:00,METAR VOBL 041800Z 18007KT 6000 FEW012 26/17 Q1015 NOSIG
2026-04-04 17:30:00,METAR VOBL 041730Z 18009KT 6000 FEW012 26/17 Q1016 NOSIG
2026-04-04 17:00:00,METAR VOBL 041700Z 17007KT 6000 FEW012 27/17 Q1016 NOSIG
2026-04-04 16:30:00,METAR VOBL 041630Z 13007KT 6000 FEW012 26/17 Q1015 NOSIG
2026-04-04 16:00:00,METAR VOBL 041600Z 30004KT 6000 FEW012 27/17 Q1015 NOSIG
2026-04-04 15:30:00,METAR VOBL 041530Z VRB02KT 6000 FEW012 27/16 Q1015 NOSIG
2026-04-04 15:00:00,METAR VOBL 041500Z VRB02KT 6000 FEW012 28/16 Q1014 NOSIG
2026-04-04 14:30:00,METAR VOBL 041430Z 32003KT 6000 FEW012 28/16 Q1014 NOSIG
2026-04-04 14:00:00,METAR VOBL 041400Z 32003KT 6000 FEW012 28/16 Q1013 NOSIG
2026-04-04 13:30:00,METAR VOBL 041330Z 32004KT 6000 FEW012 28/15 Q1013 NOSIG
2026-04-04 13:00:00,METAR VOBL 041300Z 32005KT 6000 FEW012 28/15 Q1013 NOSIG
2026-04-04 12:30:00,METAR VOBL 041230Z 33005KT 6000 FEW012 SCT080 30/15 Q1012 NOSIG
2026-04-04 12:00:00,METAR VOBL 041200Z 33005KT 6000 FEW012 SCT080 30/14 Q1012 NOSIG
2026-04-04 11:30:00,METAR VOBL 041130Z 31005KT 8000 FEW012 SCT018 31/15 Q1012 NOSIG
2026-04-04 11:00:00,METAR VOBL 041100Z 31005KT 8000 SCT012 SCT018 31/15 Q1012 NOSIG
2026-04-04 10:30:00,METAR VOBL 041030Z 29005KT 8000 SCT012 SCT018 31/15 Q1012 NOSIG
2026-04-04 10:00:00,METAR VOBL 041000Z 31005KT 9999 SCT012 SCT018 31/15 Q1012 NOSIG
2026-04-04 09:30:00,METAR VOBL 040930Z 31007KT 9999 SCT012 SCT018 31/16 Q1013 NOSIG
2026-04-04 09:00:00,METAR VOBL 040900Z 31007KT 9999 SCT012 SCT018 31/16 Q1013 NOSIG
2026-04-04 08:30:00,METAR VOBL 040830Z 31007KT 9999 SCT012 SCT080 30/16 Q1014 NOSIG
2026-04-04 08:00:00,METAR VOBL 040800Z 31007KT 9999 SCT012 SCT080 30/16 Q1014 NOSIG
2026-04-04 07:30:00,METAR VOBL 040730Z 31005KT 9999 SCT012 SCT080 29/17 Q1015 NOSIG
2026-04-04 07:00:00,METAR VOBL 040700Z 30008KT 9999 SCT012 SCT080 29/17 Q1015 NOSIG
2026-04-04 06:30:00,METAR VOBL 040630Z 29006KT 8000 SCT012 SCT080 28/17 Q1015 NOSIG
2026-04-04 06:00:00,METAR VOBL 040600Z 31006KT 8000 SCT012 SCT080 27/17 Q1016 NOSIG
2026-04-04 05:30:00,METAR VOBL 040530Z 31008KT 8000 SCT012 SCT080 27/17 Q1016 NOSIG
2026-04-04 05:00:00,METAR VOBL 040500Z 31007KT 8000 SCT012 SCT080 26/17 Q1017 NOSIG
2026-04-04 04:30:00,METAR VOBL 040430Z 31006KT 8000 SCT012 SCT080 26/18 Q1017 NOSIG
2026-04-04 04:00:00,METAR VOBL 040400Z 31006KT 8000 SCT012 SCT080 26/18 Q1017 NOSIG
2026-04-04 03:30:00,METAR VOBL 040330Z 29006KT 6000 SCT012 SCT080 25/18 Q1017 NOSIG
2026-04-04 03:00:00,METAR VOBL 040300Z 27005KT 6000 SCT012 SCT080 24/19 Q1016 NOSIG
2026-04-04 02:30:00,METAR VOBL 040230Z 27005KT 6000 SCT012 SCT080 24/19 Q1016 NOSIG
2026-04-04 02:00:00,METAR VOBL 040200Z 27005KT 6000 SCT012 SCT080 23/19 Q1016 NOSIG
2026-04-04 01:30:00,METAR VOBL 040130Z 27005KT 6000 SCT012 SCT080 23/19 Q1015 NOSIG
2026-04-04 01:00:00,METAR VOBL 040100Z 27005KT 6000 SCT012 SCT080 23/18 Q1015 NOSIG
2026-04-04 00:30:00,METAR VOBL 040030Z 27005KT 6000 SCT012 SCT080 24/18 Q1015 NOSIG
2026-04-04 00:00:00,METAR VOBL 040000Z 27005KT 6000 SCT012 SCT080 23/18 Q1015 NOSIG
2026-04-03 23:30:00,METAR VOBL 032330Z 27005KT 6000 SCT012 SCT080 25/17 Q1014 NOSIG
2026-04-03 23:00:00,METAR VOBL 032300Z 23005KT 6000 SCT012 SCT080 25/17 Q1014 NOSIG
2026-04-03 22:30:00,METAR VOBL 032230Z 21005KT 6000 SCT012 SCT080 25/17 Q1014 NOSIG
2026-04-03 22:00:00,METAR VOBL 032200Z 21004KT 6000 SCT012 SCT080 25/17 Q1014 NOSIG
2026-04-03 21:30:00,METAR VOBL 032130Z 20008KT 6000 SCT012 SCT080 25/17 Q1014 NOSIG
2026-04-03 21:00:00,METAR VOBL 032100Z 20008KT 6000 SCT012 SCT080 25/16 Q1014 NOSIG
2026-04-03 20:30:00,METAR VOBL 032030Z 18008KT 6000 SCT012 SCT080 25/16 Q1015 NOSIG
2026-04-03 20:00:00,METAR VOBL 032000Z 15010KT 6000 SCT012 SCT080 25/17 Q1015 NOSIG
2026-04-03 19:30:00,METAR VOBL 031930Z 13011KT 6000 SCT012 SCT080 26/16 Q1015 NOSIG
2026-04-03 19:00:00,METAR VOBL 031900Z 11008KT 6000 SCT012 SCT080 26/16 Q1016 NOSIG
2026-04-03 18:30:00,METAR VOBL 031830Z 11008KT 6000 SCT012 SCT080 26/16 Q1016 NOSIG
2026-04-03 18:00:00,METAR VOBL 031800Z 13008KT 6000 SCT012 SCT080 27/16 Q1016 NOSIG
2026-04-03 17:30:00,METAR VOBL 031730Z 11009KT 6000 SCT012 SCT080 28/15 Q1016 NOSIG
2026-04-03 17:00:00,METAR VOBL 031700Z 11009KT 6000 SCT012 28/16 Q1016 NOSIG
2026-04-03 16:30:00,METAR VOBL 031630Z 08006KT 6000 SCT012 28/15 Q1016 NOSIG
2026-04-03 16:00:00,METAR VOBL 031600Z 08004KT 6000 SCT012 SCT018 28/15 Q1016 NOSIG
2026-04-03 15:30:00,METAR VOBL 031530Z 03004KT 6000 SCT012 SCT018 28/16 Q1015 NOSIG
2026-04-03 15:00:00,METAR VOBL 031500Z VRB02KT 6000 SCT012 SCT018 29/15 Q1015 NOSIG
2026-04-03 14:30:00,METAR VOBL 031430Z VRB02KT 6000 SCT012 SCT018 29/15 Q1014 NOSIG
2026-04-03 14:00:00,METAR VOBL 031400Z 32005KT 6000 SCT012 SCT018 29/15 Q1014 NOSIG
2026-04-03 13:30:00,METAR VOBL 031330Z 30007KT 6000 SCT012 SCT018 30/14 Q1013 NOSIG
2026-04-03 13:00:00,METAR VOBL 031300Z 30007KT 6000 SCT012 SCT018 30/14 Q1013 NOSIG
2026-04-03 12:30:00,METAR VOBL 031230Z 32007KT 6000 SCT012 SCT018 FEW025TCU 31/14 Q1012 NOSIG
2026-04-03 12:00:00,METAR VOBL 031200Z 32006KT 8000 SCT012 SCT018 FEW025TCU 31/14 Q1012 NOSIG
2026-04-03 11:30:00,METAR VOBL 031130Z COR 30006KT 8000 SCT012 FEW025TCU 31/13 Q1012 NOSIG TCU TOWARDS NW
2026-04-03 11:00:00,METAR VOBL 031100Z 21004KT 9999 SCT012 32/13 Q1012 NOSIG
2026-04-03 10:30:00,METAR VOBL 031030Z 21004KT 9999 SCT012 32/12 Q1012 NOSIG
2026-04-03 10:00:00,METAR VOBL 031000Z 21005KT 9999 SCT012 32/14 Q1013 NOSIG
2026-04-03 09:30:00,METAR VOBL 030930Z 22005KT 9999 SCT012 32/13 Q1013 NOSIG
2026-04-03 09:00:00,METAR VOBL 030900Z 28005KT 9999 SCT012 32/13 Q1014 NOSIG
2026-04-03 08:30:00,METAR VOBL 030830Z 28005KT 9999 SCT012 31/13 Q1014 NOSIG
2026-04-03 08:00:00,METAR VOBL 030800Z 28008KT 9999 SCT012 31/15 Q1015 NOSIG
2026-04-03 07:30:00,METAR VOBL 030730Z 28008KT 9999 SCT012 30/15 Q1015 NOSIG
2026-04-03 07:00:00,METAR VOBL 030700Z 28008KT 9999 SCT012 31/16 Q1016 NOSIG
2026-04-03 06:30:00,METAR VOBL 030630Z 35008KT 8000 SCT012 30/16 Q1017 NOSIG
2026-04-03 06:00:00,METAR VOBL 030600Z 27008KT 8000 SCT012 29/17 Q1017 NOSIG
2026-04-03 05:30:00,METAR VOBL 030530Z 27008KT 8000 SCT012 28/18 Q1017 NOSIG
2026-04-03 05:00:00,METAR VOBL 030500Z 27008KT 8000 SCT012 28/19 Q1018 NOSIG
2026-04-03 04:30:00,METAR VOBL 030430Z 27008KT 8000 SCT012 27/19 Q1018 NOSIG
2026-04-03 04:00:00,METAR VOBL 030400Z 27005KT 8000 SCT012 26/19 Q1018 NOSIG
2026-04-03 03:30:00,METAR VOBL 030330Z 27005KT 6000 SCT012 25/19 Q1018 NOSIG
2026-04-03 03:00:00,METAR VOBL 030300Z 27005KT 6000 SCT012 24/19 Q1018 NOSIG
2026-04-03 02:30:00,METAR VOBL 030230Z 24004KT 6000 NSC 24/16 Q1017 NOSIG
2026-04-03 02:00:00,METAR VOBL 030200Z VRB02KT 6000 NSC 22/15 Q1017 NOSIG
2026-04-03 01:30:00,METAR VOBL 030130Z COR VRB02KT 6000 NSC 22/14 Q1016 NOSIG
2026-04-03 01:00:00,METAR VOBL 030100Z VRB02KT 6000 NSC 22/14 Q1016 NOSIG
2026-04-03 00:30:00,METAR VOBL 030030Z VRB02KT 6000 NSC 20/14 Q1016 NOSIG
2026-04-03 00:00:00,METAR VOBL 030000Z VRB02KT 6000 NSC 20/14 Q1016 NOSIG
2026-04-02 23:30:00,METAR VOBL 022330Z VRB02KT 6000 NSC 21/14 Q1016 NOSIG
2026-04-02 23:00:00,METAR VOBL 022300Z 16003KT 6000 NSC 21/13 Q1015 NOSIG
2026-04-02 22:30:00,METAR VOBL 022230Z 14006KT 6000 NSC 21/13 Q1016 NOSIG
2026-04-02 22:00:00,METAR VOBL 022200Z 12006KT 6000 NSC 21/13 Q1015 NOSIG
2026-04-02 21:30:00,METAR VOBL 022130Z 12005KT 6000 NSC 21/13 Q1016 NOSIG
2026-04-02 21:00:00,METAR VOBL 022100Z 13005KT 6000 NSC 22/12 Q1016 NOSIG
2026-04-02 20:30:00,METAR VOBL 022030Z 15005KT 6000 NSC 23/12 Q1016 NOSIG
2026-04-02 20:00:00,METAR VOBL 022000Z 17006KT 6000 NSC 23/13 Q1016 NOSIG
2026-04-02 19:30:00,METAR VOBL 021930Z 16006KT 6000 NSC 23/12 Q1016 NOSIG
2026-04-02 19:00:00,METAR VOBL 021900Z 14007KT 6000 NSC 23/13 Q1016 NOSIG
2026-04-02 18:30:00,METAR VOBL 021830Z 14008KT 6000 NSC 23/13 Q1016 NOSIG
2026-04-02 18:00:00,METAR VOBL 021800Z 13006KT 6000 NSC 24/12 Q1017 NOSIG
2026-04-02 17:30:00,METAR VOBL 021730Z 12008KT 6000 NSC 24/11 Q1017 NOSIG
2026-04-02 17:00:00,METAR VOBL 021700Z 11007KT 6000 NSC 24/09 Q1017 NOSIG
2026-04-02 16:30:00,METAR VOBL 021630Z 10007KT 6000 NSC 26/09 Q1016 NOSIG
2026-04-02 16:00:00,METAR VOBL 021600Z 10005KT 6000 NSC 26/09 Q1016 NOSIG
2026-04-02 15:30:00,METAR VOBL 021530Z 07005KT 6000 NSC 26/10 Q1016 NOSIG
2026-04-02 15:00:00,METAR VOBL 021500Z 06005KT 6000 NSC 26/10 Q1016 NOSIG
2026-04-02 14:30:00,METAR VOBL 021430Z 08005KT 6000 NSC 27/09 Q1015 NOSIG
2026-04-02 14:00:00,METAR VOBL 021400Z 10005KT 8000 NSC 28/09 Q1015 NOSIG
2026-04-02 13:30:00,METAR VOBL 021330Z 09005KT 8000 NSC 29/09 Q1014 NOSIG
2026-04-02 13:00:00,METAR VOBL 021300Z 08005KT 8000 NSC 29/10 Q1014 NOSIG
2026-04-02 12:30:00,METAR VOBL 021230Z 08005KT 8000 NSC 30/09 Q1013 NOSIG
2026-04-02 12:00:00,METAR VOBL 021200Z 08003KT 8000 FEW015 31/10 Q1013 NOSIG
2026-04-02 11:30:00,METAR VOBL 021130Z 08003KT 8000 FEW015 31/09 Q1013 NOSIG
2026-04-02 11:00:00,METAR VOBL 021100Z 06003KT 8000 FEW015 31/09 Q1013 NOSIG
2026-04-02 10:30:00,METAR VOBL 021030Z 06006KT 8000 FEW015 31/11 Q1013 NOSIG
2026-04-02 10:00:00,METAR VOBL 021000Z 09006KT 8000 FEW015 31/12 Q1013 NOSIG
2026-04-02 09:30:00,METAR VOBL 020930Z 12003KT 8000 FEW015 31/12 Q1014 NOSIG
2026-04-02 09:00:00,METAR VOBL 020900Z 12003KT 6000 FEW015 31/12 Q1014 NOSIG
2026-04-02 08:30:00,METAR VOBL 020830Z 12003KT 6000 FEW015 31/12 Q1015 NOSIG
2026-04-02 08:00:00,METAR VOBL 020800Z 11007KT 6000 FEW015 30/13 Q1015 NOSIG
2026-04-02 07:30:00,METAR VOBL 020730Z 14005KT 6000 FEW015 30/13 Q1016 NOSIG
2026-04-02 07:00:00,METAR VOBL 020700Z 07005KT 6000 FEW015 29/12 Q1017 NOSIG
2026-04-02 06:30:00,METAR VOBL 020630Z 13005KT 6000 FEW015 29/13 Q1017 NOSIG
2026-04-02 06:00:00,METAR VOBL 020600Z 05003KT 6000 FEW015 29/14 Q1018 NOSIG
2026-04-02 05:30:00,METAR VOBL 020530Z 07004KT 6000 FEW015 28/13 Q1018 NOSIG
2026-04-02 05:00:00,METAR VOBL 020500Z 14003KT 6000 FEW015 27/16 Q1018 NOSIG
2026-04-02 04:30:00,METAR VOBL 020430Z 12003KT 6000 FEW015 26/17 Q1018 NOSIG
2026-04-02 04:00:00,METAR VOBL 020400Z 18005KT 6000 NSC 25/17 Q1018 NOSIG
2026-04-02 03:30:00,METAR VOBL 020330Z 14005KT 6000 NSC 23/17 Q1018 NOSIG
2026-04-02 03:00:00,METAR VOBL 020300Z 12007KT 5000 BR NSC 23/17 Q1017 BECMG 6000
2026-04-02 02:30:00,METAR VOBL 020230Z 13006KT 5000 BR NSC 21/17 Q1017 BECMG 6000
2026-04-02 02:00:00,METAR VOBL 020200Z 13006KT 5000 BR FEW015 20/18 Q1016 NOSIG
2026-04-02 01:30:00,METAR VOBL 020130Z 13006KT 5000 BR FEW015 19/17 Q1016 NOSIG
2026-04-02 01:00:00,METAR VOBL 020100Z 12006KT 5000 BR FEW015 19/17 Q1015 NOSIG
2026-04-02 00:30:00,METAR VOBL 020030Z 12005KT 6000 NSC 19/17 Q1015 TEMPO 5000 BR
2026-04-02 00:00:00,METAR VOBL 020000Z 13004KT 6000 NSC 19/17 Q1015 NOSIG
2026-04-01 23:30:00,METAR VOBL 012330Z 13006KT 6000 NSC 20/17 Q1015 NOSIG
2026-04-01 23:00:00,METAR VOBL 012300Z 11005KT 6000 NSC 20/16 Q1014 NOSIG
2026-04-01 22:30:00,METAR VOBL 012230Z 12005KT 6000 NSC 20/16 Q1014 NOSIG
2026-04-01 22:00:00,METAR VOBL 012200Z 12005KT 6000 NSC 21/16 Q1014 NOSIG
2026-04-01 21:30:00,METAR VOBL 012130Z 12005KT 6000 NSC 21/16 Q1014 NOSIG
2026-04-01 21:00:00,METAR VOBL 012100Z 11005KT 6000 NSC 21/15 Q1014 NOSIG
2026-04-01 20:30:00,METAR VOBL 012030Z 11005KT 6000 NSC 22/15 Q1015 NOSIG
2026-04-01 20:00:00,METAR VOBL 012000Z 11005KT 6000 NSC 23/14 Q1015 NOSIG
2026-04-01 19:30:00,METAR VOBL 011930Z 11005KT 6000 NSC 23/14 Q1015 NOSIG
2026-04-01 19:00:00,METAR VOBL 011900Z 11005KT 6000 NSC 23/14 Q1016 NOSIG
2026-04-01 18:30:00,METAR VOBL 011830Z 11005KT 6000 NSC 24/13 Q1016 NOSIG
2026-04-01 18:00:00,METAR VOBL 011800Z 11010KT 6000 NSC 24/13 Q1016 NOSIG
2026-04-01 17:30:00,METAR VOBL 011730Z 11010KT 6000 NSC 25/13 Q1016 NOSIG
2026-04-01 17:00:00,METAR VOBL 011700Z 11010KT 6000 NSC 25/13 Q1016 NOSIG
2026-04-01 16:30:00,METAR VOBL 011630Z 11006KT 8000 FEW015 25/13 Q1016 NOSIG
2026-04-01 16:00:00,METAR VOBL 011600Z 11010KT 8000 FEW015 26/13 Q1016 NOSIG
2026-04-01 15:30:00,METAR VOBL 011530Z 10009KT 8000 FEW015 27/13 Q1015 NOSIG
2026-04-01 15:00:00,METAR VOBL 011500Z 10009KT 8000 FEW015 27/12 Q1015 NOSIG
2026-04-01 14:30:00,METAR VOBL 011430Z 10009KT 8000 FEW015 27/12 Q1014 NOSIG
2026-04-01 14:00:00,METAR VOBL 011400Z 10009KT 8000 FEW015 28/12 Q1014 NOSIG
2026-04-01 13:30:00,METAR VOBL 011330Z 11010KT 8000 FEW015 29/11 Q1013 NOSIG
2026-04-01 13:00:00,METAR VOBL 011300Z 10009KT 9999 FEW015 30/11 Q1013 NOSIG
2026-04-01 12:30:00,METAR VOBL 011230Z 10010KT 9999 FEW015 31/11 Q1012 NOSIG
2026-04-01 12:00:00,METAR VOBL 011200Z 11005KT 9999 FEW015 31/10 Q1012 NOSIG
2026-04-01 11:30:00,METAR VOBL 011130Z 09008KT 9999 FEW015 32/09 Q1012 NOSIG
2026-04-01 11:00:00,METAR VOBL 011100Z 11005KT 9999 FEW015 33/09 Q1012 NOSIG
2026-04-01 10:30:00,METAR VOBL 011030Z 11005KT 9999 FEW015 33/10 Q1012 NOSIG
2026-04-01 10:00:00,METAR VOBL 011000Z 11005KT 9999 FEW015 33/10 Q1012 NOSIG
2026-04-01 09:30:00,METAR VOBL 010930Z 11008KT 9999 FEW015 32/09 Q1012 NOSIG
2026-04-01 09:00:00,METAR VOBL 010900Z 09005KT 8000 FEW015 32/09 Q1013 NOSIG
2026-04-01 08:30:00,METAR VOBL 010830Z 09008KT 8000 FEW015 31/09 Q1013 NOSIG
2026-04-01 08:00:00,METAR VOBL 010800Z 12008KT 8000 NSC 31/09 Q1014 NOSIG
2026-04-01 07:30:00,METAR VOBL 010730Z 11008KT 8000 NSC 31/10 Q1014 NOSIG
2026-04-01 07:00:00,METAR VOBL 010700Z 07005KT 8000 NSC 30/12 Q1015 NOSIG
2026-04-01 06:30:00,METAR VOBL 010630Z 12005KT 8000 NSC 30/10 Q1016 NOSIG
2026-04-01 06:00:00,METAR VOBL 010600Z 14005KT 8000 NSC 30/10 Q1016 NOSIG
2026-04-01 05:30:00,METAR VOBL 010530Z 14005KT 6000 NSC 29/10 Q1016 NOSIG
2026-04-01 05:00:00,METAR VOBL 010500Z 16005KT 6000 NSC 28/12 Q1017 NOSIG
2026-04-01 04:30:00,METAR VOBL 010430Z 16005KT 5000 HZ NSC 27/15 Q1017 NOSIG
2026-04-01 04:00:00,METAR VOBL 010400Z 16005KT 5000 HZ NSC 26/18 Q1017 NOSIG
2026-04-01 03:30:00,METAR VOBL 010330Z 18005KT 5000 HZ NSC 25/18 Q1017 NOSIG
2026-04-01 03:00:00,METAR VOBL 010300Z 14005KT 5000 HZ NSC 24/19 Q1016 NOSIG
2026-04-01 02:30:00,METAR VOBL 010230Z 14005KT 5000 HZ FEW012 23/19 Q1016 NOSIG
2026-04-01 02:00:00,METAR VOBL 010200Z 14005KT 5000 HZ FEW012 22/19 Q1016 NOSIG
2026-04-01 01:30:00,METAR VOBL 010130Z 14005KT 3000 BR FEW012 21/19 Q1016 NOSIG
2026-04-01 01:00:00,METAR VOBL 010100Z 14005KT 4000 BR FEW012 21/19 Q1016 TEMPO 3000 BR
2026-04-01 00:30:00,METAR VOBL 010030Z 14005KT 4000 BR SCT012 21/19 Q1015 TEMPO 3000 BR
2026-04-01 00:00:00,METAR VOBL 010000Z 14005KT 5000 BR SCT012 21/19 Q1015 NOSIG
2026-03-31 23:30:00,METAR VOBL 312330Z 14005KT 5000 BR SCT012 22/19 Q1015 NOSIG
2026-03-31 23:00:00,METAR VOBL 312300Z 14005KT 6000 SCT012 22/19 Q1015 TEMPO 5000 BR
2026-03-31 22:30:00,METAR VOBL 312230Z 15005KT 6000 FEW015 22/19 Q1014 NOSIG
2026-03-31 22:00:00,METAR VOBL 312200Z 15005KT 6000 FEW015 22/19 Q1014 NOSIG
2026-03-31 21:30:00,METAR VOBL 312130Z 13005KT 6000 FEW015 22/19 Q1015 NOSIG
2026-03-31 21:00:00,METAR VOBL 312100Z 13005KT 6000 FEW015 22/18 Q1015 NOSIG
2026-03-31 20:30:00,METAR VOBL 312030Z 12006KT 6000 FEW015 22/18 Q1015 NOSIG
2026-03-31 20:00:00,METAR VOBL 312000Z 12008KT 6000 FEW015 23/17 Q1015 NOSIG
2026-03-31 19:30:00,METAR VOBL 311930Z 13006KT 6000 FEW015 23/17 Q1015 NOSIG
2026-03-31 19:00:00,METAR VOBL 311900Z 12008KT 6000 FEW015 24/16 Q1016 NOSIG
2026-03-31 18:30:00,METAR VOBL 311830Z 12008KT 6000 FEW015 24/16 Q1016 NOSIG
2026-03-31 18:00:00,METAR VOBL 311800Z 10008KT 6000 FEW015 24/16 Q1016 NOSIG
2026-03-31 17:30:00,METAR VOBL 311730Z 10009KT 6000 FEW015 25/16 Q1016 NOSIG
2026-03-31 17:00:00,METAR VOBL 311700Z 10009KT 6000 FEW015 25/16 Q1016 NOSIG
2026-03-31 16:30:00,METAR VOBL 311630Z 11008KT 6000 FEW015 25/16 Q1016 NOSIG
2026-03-31 16:00:00,METAR VOBL 311600Z 11010KT 6000 FEW015 26/16 Q1015 NOSIG
2026-03-31 15:30:00,METAR VOBL 311530Z 11010KT 6000 FEW015 27/16 Q1015 NOSIG
2026-03-31 15:00:00,METAR VOBL 311500Z 11010KT 6000 FEW015 27/16 Q1014 NOSIG
2026-03-31 14:30:00,METAR VOBL 311430Z 11013KT 6000 FEW015 SCT080 28/15 Q1014 NOSIG
2026-03-31 14:00:00,METAR VOBL 311400Z 12010KT 6000 FEW015 SCT080 28/15 Q1013 NOSIG
2026-03-31 13:30:00,METAR VOBL 311330Z 12008KT 8000 FEW015 SCT080 29/12 Q1013 NOSIG
2026-03-31 13:00:00,METAR VOBL 311300Z 11008KT 8000 SCT015 SCT080 29/12 Q1012 NOSIG
2026-03-31 12:30:00,METAR VOBL 311230Z 10010KT 8000 SCT015 SCT080 30/13 Q1012 NOSIG
2026-03-31 12:00:00,METAR VOBL 311200Z 10008KT 8000 SCT015 SCT080 31/13 Q1012 NOSIG
2026-03-31 11:30:00,METAR VOBL 311130Z 10010KT 8000 SCT015 SCT080 31/13 Q1011 NOSIG
2026-03-31 11:00:00,METAR VOBL 311100Z 10009KT 8000 SCT015 SCT020 31/13 Q1011 NOSIG
2026-03-31 10:30:00,METAR VOBL 311030Z 09009KT 9999 SCT015 SCT020 31/13 Q1012 NOSIG
2026-03-31 10:00:00,METAR VOBL 311000Z 06010KT 9999 SCT015 SCT020 32/13 Q1012 NOSIG
2026-03-31 09:30:00,METAR VOBL 310930Z 06008KT 9999 SCT015 SCT020 33/12 Q1012 NOSIG
2026-03-31 09:00:00,METAR VOBL 310900Z 04006KT 9999 SCT015 SCT020 32/11 Q1013 NOSIG
2026-03-31 08:30:00,METAR VOBL 310830Z 05006KT 9999 SCT015 SCT020 32/13 Q1013 NOSIG
2026-03-31 08:00:00,METAR VOBL 310800Z 07006KT 9999 SCT015 SCT020 31/12 Q1014 NOSIG
2026-03-31 07:30:00,METAR VOBL 310730Z 06007KT 9999 SCT015 SCT020 31/13 Q1014 NOSIG
2026-03-31 07:00:00,METAR VOBL 310700Z 07004KT 8000 SCT015 31/13 Q1015 NOSIG
2026-03-31 06:30:00,METAR VOBL 310630Z 09007KT 8000 SCT015 30/14 Q1015 NOSIG
2026-03-31 06:00:00,METAR VOBL 310600Z 07006KT 8000 SCT015 29/14 Q1016 NOSIG
2026-03-31 05:30:00,METAR VOBL 310530Z VRB02KT 8000 SCT015 29/15 Q1016 NOSIG
2026-03-31 05:00:00,METAR VOBL 310500Z 04006KT 6000 SCT015 28/16 Q1017 NOSIG
2026-03-31 04:30:00,METAR VOBL 310430Z 03003KT 6000 SCT015 28/18 Q1017 NOSIG
2026-03-31 04:00:00,METAR VOBL 310400Z VRB02KT 5000 HZ FEW015 27/19 Q1017 NOSIG
2026-03-31 03:30:00,METAR VOBL 310330Z VRB02KT 5000 HZ FEW015 26/19 Q1017 NOSIG
2026-03-31 03:00:00,METAR VOBL 310300Z VRB02KT 5000 HZ FEW015 25/19 Q1016 NOSIG
2026-03-31 02:30:00,METAR VOBL 310230Z VRB02KT 5000 BR FEW012 24/19 Q1016 NOSIG
2026-03-31 02:00:00,METAR VOBL 310200Z VRB02KT 5000 BR FEW012 22/19 Q1015 NOSIG
2026-03-31 01:30:00,METAR VOBL 310130Z VRB02KT 5000 BR FEW012 21/18 Q1015 NOSIG
2026-03-31 01:00:00,METAR VOBL 310100Z VRB02KT 5000 BR FEW012 22/18 Q1014 NOSIG
2026-03-31 00:30:00,METAR VOBL 310030Z VRB02KT 6000 FEW012 21/17 Q1014 NOSIG
2026-03-31 00:00:00,METAR VOBL 310000Z VRB02KT 6000 FEW012 22/17 Q1014 NOSIG
2026-03-30 23:30:00,METAR VOBL 302330Z VRB02KT 6000 FEW012 21/17 Q1013 NOSIG
2026-03-30 23:00:00,METAR VOBL 302300Z VRB02KT 6000 FEW012 21/17 Q1013 NOSIG
2026-03-30 22:30:00,METAR VOBL 302230Z VRB02KT 6000 FEW012 22/17 Q1013 NOSIG
2026-03-30 22:00:00,METAR VOBL 302200Z 16003KT 6000 FEW012 23/17 Q1013 NOSIG
2026-03-30 21:30:00,METAR VOBL 302130Z 16005KT 6000 FEW012 24/16 Q1013 NOSIG
2026-03-30 21:00:00,METAR VOBL 302100Z 16005KT 6000 FEW012 24/16 Q1014 NOSIG
2026-03-30 20:30:00,METAR VOBL 302030Z 16005KT 6000 FEW012 23/17 Q1014 NOSIG
2026-03-30 20:00:00,METAR VOBL 302000Z 16005KT 6000 FEW012 25/16 Q1014 NOSIG
2026-03-30 19:30:00,METAR VOBL 301930Z 16004KT 6000 SCT012 25/16 Q1015 NOSIG
2026-03-30 19:00:00,METAR VOBL 301900Z 16006KT 6000 SCT012 25/15 Q1015 NOSIG
2026-03-30 18:30:00,METAR VOBL 301830Z 15006KT 6000 SCT012 25/15 Q1015 NOSIG
2026-03-30 18:00:00,METAR VOBL 301800Z 15006KT 6000 SCT012 25/15 Q1015 NOSIG
2026-03-30 17:30:00,METAR VOBL 301730Z 15007KT 6000 SCT012 26/14 Q1016 NOSIG
2026-03-30 17:00:00,METAR VOBL 301700Z 15006KT 6000 SCT012 26/14 Q1016 NOSIG
2026-03-30 16:30:00,METAR VOBL 301630Z 14007KT 6000 SCT012 27/14 Q1015 NOSIG
2026-03-30 16:00:00,METAR VOBL 301600Z 13008KT 6000 SCT012 27/15 Q1015 NOSIG
2026-03-30 15:30:00,METAR VOBL 301530Z 13006KT 6000 SCT012 27/15 Q1015 NOSIG
2026-03-30 15:00:00,METAR VOBL 301500Z 13008KT 6000 SCT012 28/14 Q1014 NOSIG
2026-03-30 14:30:00,METAR VOBL 301430Z 13008KT 6000 SCT012 28/14 Q1014 NOSIG
2026-03-30 14:00:00,METAR VOBL 301400Z 14008KT 6000 SCT012 29/14 Q1014 NOSIG
2026-03-30 13:30:00,METAR VOBL 301330Z 14008KT 6000 SCT012 29/14 Q1014 NOSIG
2026-03-30 13:00:00,METAR VOBL 301300Z 14006KT 8000 SCT012 30/13 Q1013 NOSIG
2026-03-30 12:30:00,METAR VOBL 301230Z 12008KT 8000 SCT012 30/13 Q1013 NOSIG
2026-03-30 12:00:00,METAR VOBL 301200Z 14008KT 8000 SCT012 31/13 Q1012 NOSIG
2026-03-30 11:30:00,METAR VOBL 301130Z 14008KT 8000 SCT012 31/12 Q1012 NOSIG
2026-03-30 11:00:00,METAR VOBL 301100Z 14008KT 8000 SCT012 31/12 Q1012 NOSIG
2026-03-30 10:30:00,METAR VOBL 301030Z 14010KT 8000 SCT012 32/11 Q1012 NOSIG
2026-03-30 10:00:00,METAR VOBL 301000Z 12010KT 8000 SCT012 32/11 Q1013 NOSIG
2026-03-30 09:30:00,METAR VOBL 300930Z 12010KT 8000 SCT012 32/12 Q1013 NOSIG
2026-03-30 09:00:00,METAR VOBL 300900Z 15010KT 8000 SCT012 32/12 Q1013 NOSIG
2026-03-30 08:30:00,METAR VOBL 300830Z 15006KT 8000 SCT012 32/12 Q1013 NOSIG
2026-03-30 08:00:00,METAR VOBL 300800Z 15012KT 8000 FEW012 SCT080 32/12 Q1014 NOSIG
2026-03-30 07:30:00,METAR VOBL 300730Z 16012KT 8000 FEW012 SCT080 32/11 Q1014 NOSIG
2026-03-30 07:00:00,METAR VOBL 300700Z 16010KT 8000 FEW012 SCT080 31/12 Q1015 NOSIG
2026-03-30 06:30:00,METAR VOBL 300630Z 16010KT 8000 FEW012 SCT080 30/13 Q1015 NOSIG
2026-03-30 06:00:00,METAR VOBL 300600Z 17010KT 6000 FEW012 SCT080 30/13 Q1016 NOSIG
2026-03-30 05:30:00,METAR VOBL 300530Z 19010KT 6000 FEW012 SCT080 29/17 Q1016 NOSIG
2026-03-30 05:00:00,METAR VOBL 300500Z 20006KT 6000 FEW012 SCT080 29/17 Q1016 NOSIG
2026-03-30 04:30:00,METAR VOBL 300430Z 19007KT 6000 FEW012 SCT080 28/17 Q1016 NOSIG
2026-03-30 04:00:00,METAR VOBL 300400Z 19006KT 6000 FEW012 BKN080 27/17 Q1016 NOSIG
2026-03-30 03:30:00,METAR VOBL 300330Z 19006KT 6000 FEW012 BKN080 26/17 Q1015 NOSIG
2026-03-30 03:00:00,METAR VOBL 300300Z 19006KT 6000 FEW012 BKN080 25/18 Q1015 NOSIG
2026-03-30 02:30:00,METAR VOBL 300230Z 16004KT 6000 FEW012 BKN080 24/18 Q1015 NOSIG
2026-03-30 02:00:00,METAR VOBL 300200Z 16004KT 6000 FEW012 BKN080 24/18 Q1014 NOSIG
2026-03-30 01:30:00,METAR VOBL 300130Z 15004KT 6000 FEW012 BKN080 24/18 Q1014 NOSIG
2026-03-30 01:00:00,METAR VOBL 300100Z 18003KT 5000 BR FEW012 BKN080 23/19 Q1013 NOSIG
2026-03-30 00:30:00,METAR VOBL 300030Z VRB02KT 6000 FEW012 BKN080 22/18 Q1013 TEMPO 5000 BR
2026-03-30 00:00:00,METAR VOBL 300000Z VRB02KT 6000 FEW012 BKN080 22/19 Q1013 TEMPO 5000 BR
2026-03-29 23:30:00,METAR VOBL 292330Z VRB02KT 6000 FEW012 BKN080 23/18 Q1012 TEMPO 5000 BR
2026-03-29 23:00:00,METAR VOBL 292300Z 16003KT 6000 SCT012 BKN080 23/18 Q1012 NOSIG
2026-03-29 22:30:00,METAR VOBL 292230Z VRB02KT 6000 SCT012 BKN080 23/18 Q1012 NOSIG
2026-03-29 22:00:00,METAR VOBL 292200Z VRB01KT 6000 SCT012 BKN080 23/18 Q1012 NOSIG
2026-03-29 21:30:00,METAR VOBL 292130Z VRB02KT 6000 SCT012 BKN080 24/17 Q1012 NOSIG
2026-03-29 21:00:00,METAR VOBL 292100Z VRB02KT 6000 SCT012 SCT080 23/17 Q1012 NOSIG
2026-03-29 20:30:00,METAR VOBL 292030Z 23004KT 6000 SCT012 SCT080 23/17 Q1013 NOSIG
2026-03-29 20:00:00,METAR VOBL 292000Z 25003KT 180V250 6000 SCT012 SCT080 23/17 Q1013 NOSIG
2026-03-29 19:30:00,METAR VOBL 291930Z 18004KT 6000 SCT012 SCT080 23/17 Q1014 NOSIG
2026-03-29 19:00:00,METAR VOBL 291900Z 16005KT 6000 SCT012 SCT080 22/17 Q1014 NOSIG
2026-03-29 18:30:00,METAR VOBL 291830Z 12010KT 6000 -DZ SCT012 SCT080 22/17 Q1015 NOSIG
2026-03-29 18:00:00,METAR VOBL 291800Z 11012KT 6000 FEW015 22/17 Q1016 NOSIG
2026-03-29 17:30:00,METAR VOBL 291730Z COR 11010KT 6000 FEW015 23/17 Q1016 NOSIG
2026-03-29 17:00:00,METAR VOBL 291700Z 11008KT 6000 FEW015 24/17 Q1016 NOSIG
2026-03-29 16:30:00,METAR VOBL 291630Z 11008KT 6000 FEW015 24/17 Q1016 NOSIG
2026-03-29 16:00:00,METAR VOBL 291600Z 14008KT 6000 FEW015 24/17 Q1015 NOSIG
2026-03-29 15:30:00,METAR VOBL 291530Z 16011KT 6000 FEW015 25/17 Q1014 NOSIG
2026-03-29 15:00:00,METAR VOBL 291500Z 16012KT 6000 FEW015 25/17 Q1014 NOSIG
2026-03-29 14:30:00,METAR VOBL 291430Z 15012KT 6000 FEW015 26/16 Q1013 NOSIG
2026-03-29 14:00:00,METAR VOBL 291400Z 12008KT 360V120 6000 FEW015 28/15 Q1013 NOSIG
2026-03-29 13:30:00,METAR VOBL 291330Z 36006KT 6000 SCT012 30/14 Q1012 NOSIG
2026-03-29 13:00:00,METAR VOBL 291300Z 33006KT 6000 SCT012 30/13 Q1011 NOSIG
2026-03-29 12:30:00,METAR VOBL 291230Z 33006KT 6000 SCT012 31/14 Q1011 NOSIG
2026-03-29 12:00:00,METAR VOBL 291200Z 34004KT 8000 SCT012 31/14 Q1011 NOSIG
2026-03-29 11:30:00,METAR VOBL 291130Z 34004KT 8000 SCT012 31/14 Q1011 NOSIG
2026-03-29 11:00:00,METAR VOBL 291100Z 01004KT 8000 SCT012 31/14 Q1011 NOSIG
2026-03-29 10:30:00,METAR VOBL 291030Z 36006KT 8000 SCT015 31/14 Q1011 NOSIG
2026-03-29 10:00:00,METAR VOBL 291000Z 34006KT 8000 SCT015 32/14 Q1011 NOSIG
2026-03-29 09:30:00,METAR VOBL 290930Z 32006KT 8000 SCT015 32/13 Q1011 NOSIG
2026-03-29 09:00:00,METAR VOBL 290900Z 32005KT 8000 SCT015 31/14 Q1012 NOSIG
2026-03-29 08:30:00,METAR VOBL 290830Z 32005KT 8000 SCT015 31/14 Q1012 NOSIG
2026-03-29 08:00:00,METAR VOBL 290800Z 34005KT 8000 SCT015 31/14 Q1013 NOSIG
2026-03-29 07:30:00,METAR VOBL 290730Z 34007KT 8000 FEW015 30/14 Q1013 NOSIG
2026-03-29 07:00:00,METAR VOBL 290700Z 34009KT 8000 FEW015 30/14 Q1014 NOSIG
2026-03-29 06:30:00,METAR VOBL 290630Z 32011KT 8000 FEW015 SCT080 30/15 Q1015 NOSIG
2026-03-29 06:00:00,METAR VOBL 290600Z 34010KT 8000 SCT015 SCT080 29/15 Q1015 NOSIG
2026-03-29 05:30:00,METAR VOBL 290530Z 31010KT 6000 SCT015 SCT080 28/15 Q1016 NOSIG
2026-03-29 05:00:00,METAR VOBL 290500Z 32009KT 6000 SCT015 SCT080 28/16 Q1016 NOSIG
2026-03-29 04:30:00,METAR VOBL 290430Z COR 30009KT 6000 SCT015 SCT080 26/16 Q1016 NOSIG
2026-03-29 04:00:00,METAR VOBL 290400Z 30008KT 5000 HZ SCT015 BKN080 25/16 Q1016 NOSIG
2026-03-29 03:30:00,METAR VOBL 290330Z COR 29010KT 4000 HZ SCT015 BKN080 25/16 Q1016 NOSIG
2026-03-29 03:00:00,METAR VOBL 290300Z 29010KT 4000 HZ SCT015 BKN080 24/17 Q1016 NOSIG
2026-03-29 02:30:00,METAR VOBL 290230Z 28008KT 4000 HZ SCT015 BKN080 23/17 Q1016 NOSIG
2026-03-29 02:00:00,METAR VOBL 290200Z 29006KT 4000 BR SCT015 BKN080 22/18 Q1015 NOSIG
2026-03-29 01:30:00,METAR VOBL 290130Z 29006KT 4000 BR SCT015 BKN080 21/18 Q1015 TEMPO 3000 BR
2026-03-29 01:00:00,METAR VOBL 290100Z 29006KT 5000 BR SCT015 BKN080 21/17 Q1014 TEMPO 3000 BR
2026-03-29 00:30:00,METAR VOBL 290030Z 29008KT 5000 BR SCT015 SCT080 20/17 Q1014 NOSIG
2026-03-29 00:00:00,METAR VOBL 290000Z 27010KT 5000 BR SCT015 FEW025CB SCT080 21/17 Q1014 NOSIG
2026-03-28 23:30:00,METAR VOBL 282330Z 27008KT 5000 BR SCT015 FEW025CB SCT080 21/17 Q1013 NOSIG
2026-03-28 23:00:00,METAR VOBL 282300Z 27010KT 5000 -TSRA SCT015 FEW025CB SCT080 21/17 Q1013 TEMPO 3000 TSRA RA
2026-03-28 22:30:00,METAR VOBL 282230Z 27010KT 5000 -TSRA SCT015 FEW025CB SCT080 22/17 Q1013 TEMPO 3000 TSRA RA
2026-03-28 22:00:00,METAR VOBL 282200Z 27006KT 5000 -RA SCT015 SCT080 23/17 Q1013 TEMPO 3000 RA
2026-03-28 21:30:00,METAR VOBL 282130Z 29006KT 6000 FEW015 SCT080 24/17 Q1013 NOSIG
2026-03-28 21:00:00,METAR VOBL 282100Z 27006KT 6000 FEW015 SCT080 25/16 Q1013 NOSIG
2026-03-28 20:30:00,METAR VOBL 282030Z 25006KT 6000 FEW015 SCT080 25/16 Q1013 NOSIG
2026-03-28 20:00:00,METAR VOBL 282000Z 23004KT 6000 FEW015 SCT080 25/16 Q1013 NOSIG
2026-03-28 19:30:00,METAR VOBL 281930Z 24005KT 6000 FEW015 SCT080 25/16 Q1014 NOSIG
2026-03-28 19:00:00,METAR VOBL 281900Z 27006KT 6000 FEW015 SCT080 25/16 Q1014 NOSIG
2026-03-28 18:30:00,METAR VOBL 281830Z 26008KT 6000 FEW015 SCT080 26/15 Q1014 NOSIG
2026-03-28 18:00:00,METAR VOBL 281800Z 24008KT 6000 FEW015 SCT080 25/16 Q1014 NOSIG
2026-03-28 17:30:00,METAR VOBL 281730Z 24008KT 6000 FEW015 SCT080 25/16 Q1014 NOSIG
2026-03-28 17:00:00,METAR VOBL 281700Z 13005KT 6000 FEW015 SCT080 26/17 Q1014 NOSIG
2026-03-28 16:30:00,METAR VOBL 281630Z 18005KT 6000 FEW015 SCT080 27/16 Q1014 NOSIG
2026-03-28 16:00:00,METAR VOBL 281600Z 18005KT 6000 SCT015 SCT080 27/16 Q1014 NOSIG
2026-03-28 15:30:00,METAR VOBL 281530Z 18007KT 6000 SCT015 SCT080 27/15 Q1013 NOSIG
2026-03-28 15:00:00,METAR VOBL 281500Z 09008KT 5000 -DZ SCT015 SCT080 29/14 Q1013 NOSIG
2026-03-28 14:30:00,METAR VOBL 281430Z 07005KT 6000 SCT015 SCT080 29/13 Q1012 NOSIG
2026-03-28 14:00:00,METAR VOBL 281400Z 07005KT 8000 SCT015 SCT080 29/13 Q1012 NOSIG
2026-03-28 13:30:00,METAR VOBL 281330Z 07005KT 8000 SCT015 SCT080 30/13 Q1011 NOSIG
2026-03-28 13:00:00,METAR VOBL 281300Z 07005KT 8000 SCT015 SCT020 30/12 Q1011 NOSIG
2026-03-28 12:30:00,METAR VOBL 281230Z 06004KT 8000 SCT015 SCT020 31/11 Q1010 NOSIG
2026-03-28 12:00:00,METAR VOBL 281200Z 07003KT 9999 SCT015 SCT020 32/11 Q1010 NOSIG
2026-03-28 11:30:00,METAR VOBL 281130Z 04003KT 9999 SCT015 SCT020 33/11 Q1010 NOSIG
2026-03-28 11:00:00,METAR VOBL 281100Z 03005KT 9999 SCT015 SCT020 33/11 Q1009 NOSIG
2026-03-28 10:30:00,METAR VOBL 281030Z 33005KT 9999 SCT015 SCT020 33/11 Q1010 NOSIG
2026-03-28 10:00:00,METAR VOBL 281000Z 02005KT 9999 SCT015 SCT020 33/11 Q1010 NOSIG
2026-03-28 09:30:00,METAR VOBL 280930Z 36005KT 9999 SCT015 33/11 Q1010 NOSIG
2026-03-28 09:00:00,METAR VOBL 280900Z 04005KT 9999 SCT015 32/12 Q1011 NOSIG
2026-03-28 08:30:00,METAR VOBL 280830Z 24004KT 8000 SCT015 32/12 Q1011 NOSIG
2026-03-28 08:00:00,METAR VOBL 280800Z VRB02KT 8000 SCT015 32/12 Q1012 NOSIG
2026-03-28 07:30:00,METAR VOBL 280730Z VRB02KT 8000 SCT015 31/12 Q1013 NOSIG
2026-03-28 07:00:00,METAR VOBL 280700Z VRB02KT 8000 SCT015 31/12 Q1013 NOSIG
2026-03-28 06:30:00,METAR VOBL 280630Z VRB02KT 6000 FEW015 30/13 Q1014 NOSIG
2026-03-28 06:00:00,METAR VOBL 280600Z VRB02KT 6000 FEW015 30/13 Q1015 NOSIG
2026-03-28 05:30:00,METAR VOBL 280530Z 29004KT 6000 NSC 29/15 Q1015 NOSIG
2026-03-28 05:00:00,METAR VOBL 280500Z 29004KT 6000 NSC 29/15 Q1015 NOSIG
2026-03-28 04:30:00,METAR VOBL 280430Z VRB02KT 6000 NSC 28/17 Q1016 NOSIG
2026-03-28 04:00:00,METAR VOBL 280400Z VRB02KT 6000 NSC 27/18 Q1016 NOSIG
2026-03-28 03:30:00,METAR VOBL 280330Z 29004KT 5000 HZ NSC 26/19 Q1016 NOSIG
2026-03-28 03:00:00,METAR VOBL 280300Z 27006KT 5000 HZ NSC 25/19 Q1016 NOSIG
2026-03-28 02:30:00,METAR VOBL 280230Z 27006KT 4000 BR NSC 24/19 Q1016 BECMG 5000 HZ
2026-03-28 02:00:00,METAR VOBL 280200Z 27006KT 3000 BR NSC 23/20 Q1015 BECMG 5000 HZ
2026-03-28 01:30:00,METAR VOBL 280130Z 25005KT 3000 BR NSC 22/19 Q1015 NOSIG
2026-03-28 01:00:00,METAR VOBL 280100Z 25005KT 3000 BR NSC 22/19 Q1014 NOSIG
2026-03-28 00:30:00,METAR VOBL 280030Z COR 27008KT 5000 BR NSC 22/18 Q1014 TEMPO 3000 BR
2026-03-28 00:00:00,METAR VOBL 280000Z 27008KT 6000 NSC 22/18 Q1014 TEMPO 5000 BR
2026-03-27 23:30:00,METAR VOBL 272330Z 25008KT 6000 NSC 23/18 Q1014 TEMPO 5000 BR
2026-03-27 23:00:00,METAR VOBL 272300Z 25008KT 6000 NSC 24/17 Q1014 NOSIG
2026-03-27 22:30:00,METAR VOBL 272230Z 23006KT 6000 NSC 24/16 Q1014 NOSIG
2026-03-27 22:00:00,METAR VOBL 272200Z 23005KT 6000 NSC 24/13 Q1013 NOSIG
2026-03-27 21:30:00,METAR VOBL 272130Z 20005KT 6000 NSC 24/14 Q1013 NOSIG
2026-03-27 21:00:00,METAR VOBL 272100Z 20004KT 6000 NSC 24/14 Q1014 NOSIG
2026-03-27 20:30:00,METAR VOBL 272030Z 20004KT 6000 NSC 24/14 Q1014 NOSIG
2026-03-27 20:00:00,METAR VOBL 272000Z 19004KT 6000 NSC 24/14 Q1014 NOSIG
2026-03-27 19:30:00,METAR VOBL 271930Z 18004KT 6000 NSC 24/13 Q1015 NOSIG
2026-03-27 19:00:00,METAR VOBL 271900Z 14006KT 6000 NSC 24/12 Q1015 NOSIG
2026-03-27 18:30:00,METAR VOBL 271830Z 14005KT 6000 NSC 24/11 Q1016 NOSIG
2026-03-27 18:00:00,METAR VOBL 271800Z 13006KT 6000 NSC 24/11 Q1016 NOSIG
2026-03-27 17:30:00,METAR VOBL 271730Z 13005KT 6000 NSC 25/11 Q1016 NOSIG
2026-03-27 17:00:00,METAR VOBL 271700Z 13007KT 6000 NSC 26/11 Q1016 NOSIG
2026-03-27 16:30:00,METAR VOBL 271630Z 12005KT 6000 NSC 27/11 Q1016 NOSIG
2026-03-27 16:00:00,METAR VOBL 271600Z 13007KT 6000 SCT080 27/11 Q1015 NOSIG
2026-03-25 15:00:00,METAR VOBL 251500Z 09009KT 6000 SCT012 26/13 Q1015 NOSIG
2026-03-25 14:30:00,METAR VOBL 251430Z 09010KT 6000 SCT012 27/12 Q1015 NOSIG
2026-03-25 14:00:00,METAR VOBL 251400Z 09010KT 6000 SCT012 28/11 Q1014 NOSIG
2026-03-25 13:30:00,METAR VOBL 251330Z 09008KT 6000 SCT012 29/12 Q1013 NOSIG
2026-03-25 13:00:00,METAR VOBL 251300Z 09008KT 8000 SCT012 30/12 Q1013 NOSIG
2026-03-25 12:30:00,METAR VOBL 251230Z 09008KT 9999 SCT012 31/11 Q1012 NOSIG
2026-03-25 12:00:00,METAR VOBL 251200Z 09008KT 9999 SCT012 31/11 Q1012 NOSIG
2026-03-25 11:30:00,METAR VOBL 251130Z 08008KT 9999 SCT012 32/11 Q1012 NOSIG
2026-03-25 11:00:00,METAR VOBL 251100Z 08008KT 9999 SCT012 32/11 Q1012 NOSIG
2026-03-25 10:30:00,METAR VOBL 251030Z 08008KT 9999 SCT012 32/11 Q1012 NOSIG
2026-03-25 10:00:00,METAR VOBL 251000Z 09007KT 9999 SCT012 32/11 Q1012 NOSIG
2026-03-25 09:30:00,METAR VOBL 250930Z 09007KT 9999 SCT012 32/11 Q1013 NOSIG
2026-03-25 09:00:00,METAR VOBL 250900Z 07005KT 8000 SCT012 32/12 Q1013 NOSIG
2026-03-25 08:30:00,METAR VOBL 250830Z 07007KT 8000 FEW012 32/11 Q1014 NOSIG
2026-03-25 08:00:00,METAR VOBL 250800Z 11004KT 8000 FEW012 31/12 Q1014 NOSIG
2026-03-25 07:30:00,METAR VOBL 250730Z 14005KT 6000 FEW012 31/13 Q1015 NOSIG
2026-03-25 07:00:00,METAR VOBL 250700Z 11006KT 6000 FEW012 30/14 Q1015 NOSIG
2026-03-25 06:30:00,METAR VOBL 250630Z 12006KT 6000 FEW012 30/14 Q1016 NOSIG
2026-03-25 06:00:00,METAR VOBL 250600Z 14004KT 6000 FEW012 29/16 Q1017 NOSIG
2026-03-25 05:30:00,METAR VOBL 250530Z 14004KT 5000 HZ FEW012 28/16 Q1017 NOSIG
2026-03-25 05:00:00,METAR VOBL 250500Z 16003KT 5000 HZ NSC 27/17 Q1017 NOSIG
2026-03-25 04:30:00,METAR VOBL 250430Z 18003KT 5000 HZ NSC 26/17 Q1018 NOSIG
2026-03-25 04:00:00,METAR VOBL 250400Z 16005KT 5000 HZ NSC 25/18 Q1018 NOSIG
2026-03-25 03:30:00,METAR VOBL 250330Z 16004KT 5000 HZ NSC 24/18 Q1018 NOSIG
2026-03-25 03:00:00,METAR VOBL 250300Z 16004KT 4000 HZ NSC 23/18 Q1017 BECMG 5000 HZ
2026-03-25 02:30:00,METAR VOBL 250230Z 16004KT 4000 BR NSC 23/18 Q1017 BECMG 5000 HZ
2026-03-25 02:00:00,METAR VOBL 250200Z 13005KT 4000 BR NSC 22/18 Q1017 NOSIG
2026-03-25 01:30:00,METAR VOBL 250130Z 13005KT 4000 BR NSC 21/18 Q1016 NOSIG
2026-03-25 01:00:00,METAR VOBL 250100Z 14003KT 4000 BR NSC 21/18 Q1016 TEMPO 3000 BR
2026-03-25 00:30:00,METAR VOBL 250030Z 14005KT 5000 BR FEW015 21/18 Q1015 TEMPO 3000 BR
2026-03-25 00:00:00,METAR VOBL 250000Z 14005KT 5000 BR FEW015 21/18 Q1015 TEMPO 3000 BR
2026-03-24 23:30:00,METAR VOBL 242330Z 14005KT 6000 FEW015 21/18 Q1014 NOSIG
2026-03-24 23:00:00,METAR VOBL 242300Z 15005KT 6000 FEW015 21/18 Q1014 NOSIG
2026-03-24 22:30:00,METAR VOBL 242230Z 13005KT 6000 FEW015 21/18 Q1014 NOSIG
2026-03-24 22:00:00,METAR VOBL 242200Z 13005KT 6000 FEW015 22/17 Q1014 NOSIG
2026-03-24 21:30:00,METAR VOBL 242130Z 13006KT 6000 FEW015 22/17 Q1014 NOSIG
2026-03-24 21:00:00,METAR VOBL 242100Z 16005KT 6000 FEW015 22/17 Q1015 NOSIG
2026-03-24 20:30:00,METAR VOBL 242030Z 14005KT 6000 FEW015 22/17 Q1014 NOSIG
2026-03-24 20:00:00,METAR VOBL 242000Z 12006KT 6000 FEW015 23/17 Q1015 NOSIG
2026-03-24 19:30:00,METAR VOBL 241930Z 13006KT 6000 FEW015 23/17 Q1015 NOSIG
2026-03-24 19:00:00,METAR VOBL 241900Z 11010KT 6000 FEW015 23/17 Q1015 NOSIG
2026-03-24 18:30:00,METAR VOBL 241830Z 12008KT 6000 FEW015 23/17 Q1015 NOSIG
2026-03-24 18:00:00,METAR VOBL 241800Z 11010KT 6000 FEW015 23/17 Q1016 NOSIG
2026-03-24 17:30:00,METAR VOBL 241730Z 12009KT 6000 SCT015 24/17 Q1016 NOSIG
2026-03-24 17:00:00,METAR VOBL 241700Z 11009KT 6000 SCT015 25/16 Q1016 NOSIG
2026-03-24 16:30:00,METAR VOBL 241630Z 12007KT 6000 SCT015 25/16 Q1016 NOSIG
2026-03-24 16:00:00,METAR VOBL 241600Z 11009KT 6000 SCT015 26/16 Q1016 NOSIG
2026-03-24 15:30:00,METAR VOBL 241530Z 11011KT 6000 SCT015 26/16 Q1015 NOSIG
2026-03-24 15:00:00,METAR VOBL 241500Z 10006KT 6000 SCT015 27/15 Q1015 NOSIG
2026-03-24 14:30:00,METAR VOBL 241430Z 09006KT 6000 SCT015 27/15 Q1014 NOSIG
2026-03-24 14:00:00,METAR VOBL 241400Z 10006KT 6000 SCT015 27/15 Q1013 NOSIG
2026-03-24 13:30:00,METAR VOBL 241330Z 10006KT 6000 FEW015 SCT020 28/16 Q1013 NOSIG
2026-03-24 13:00:00,METAR VOBL 241300Z 05006KT 6000 FEW015 SCT020 28/15 Q1013 NOSIG
2026-03-24 12:30:00,METAR VOBL 241230Z 05006KT 8000 FEW015 SCT020 29/14 Q1013 NOSIG
2026-03-24 12:00:00,METAR VOBL 241200Z 05008KT 8000 SCT015 SCT020 30/14 Q1013 NOSIG
2026-03-24 11:30:00,METAR VOBL 241130Z 07006KT 8000 SCT015 SCT020 31/13 Q1012 NOSIG
2026-03-24 11:00:00,METAR VOBL 241100Z 09006KT 8000 SCT015 SCT020 32/13 Q1012 NOSIG
2026-03-24 10:30:00,METAR VOBL 241030Z 09006KT 8000 SCT015 SCT020 32/13 Q1012 NOSIG
2026-03-24 10:00:00,METAR VOBL 241000Z 09006KT 8000 SCT015 SCT020 32/13 Q1012 NOSIG
2026-03-24 09:30:00,METAR VOBL 240930Z 07004KT 8000 SCT015 SCT020 32/13 Q1013 NOSIG
2026-03-24 09:00:00,METAR VOBL 240900Z 07004KT 8000 SCT015 SCT020 32/13 Q1013 NOSIG
2026-03-24 08:30:00,METAR VOBL 240830Z 07006KT 8000 SCT015 SCT020 31/13 Q1013 NOSIG
2026-03-24 08:00:00,METAR VOBL 240800Z 07005KT 8000 SCT015 31/14 Q1014 NOSIG
2026-03-24 07:30:00,METAR VOBL 240730Z 11005KT 8000 SCT015 30/14 Q1014 NOSIG
2026-03-24 07:00:00,METAR VOBL 240700Z 11005KT 8000 FEW015 30/14 Q1015 NOSIG
2026-03-24 06:30:00,METAR VOBL 240630Z 12005KT 8000 FEW015 30/14 Q1016 NOSIG
2026-03-24 06:00:00,METAR VOBL 240600Z 12007KT 8000 FEW015 29/14 Q1016 NOSIG
2026-03-24 05:30:00,METAR VOBL 240530Z 16005KT 8000 FEW015 28/14 Q1017 NOSIG
2026-03-24 05:00:00,METAR VOBL 240500Z 21006KT 6000 NSC 27/14 Q1017 NOSIG
2026-03-24 04:30:00,METAR VOBL 240430Z 26005KT 6000 NSC 27/16 Q1017 NOSIG
2026-03-24 04:00:00,METAR VOBL 240400Z 23007KT 6000 NSC 26/16 Q1017 NOSIG
2026-03-24 03:30:00,METAR VOBL 240330Z 16004KT 5000 HZ NSC 25/17 Q1017 NOSIG
2026-03-24 03:00:00,METAR VOBL 240300Z 16003KT 4000 HZ NSC 24/17 Q1017 BECMG 5000 HZ
2026-03-24 02:30:00,METAR VOBL 240230Z 14003KT 3000 HZ FEW015 23/17 Q1017 BECMG 5000 HZ
2026-03-24 02:00:00,METAR VOBL 240200Z 12003KT 3000 BR FEW012 22/17 Q1017 NOSIG
2026-03-24 01:30:00,METAR VOBL 240130Z 14003KT 3000 BR FEW012 21/17 Q1016 NOSIG
2026-03-24 01:00:00,METAR VOBL 240100Z 14003KT 4000 BR FEW012 20/17 Q1016 TEMPO 3000 BR
2026-03-24 00:30:00,METAR VOBL 240030Z 14003KT 5000 BR FEW012 20/17 Q1016 TEMPO 3000 BR
2026-03-24 00:00:00,METAR VOBL 240000Z 14003KT 5000 BR FEW012 21/17 Q1015 NOSIG
2026-03-23 23:30:00,METAR VOBL 232330Z 15004KT 6000 FEW012 21/17 Q1015 TEMPO 5000 BR
2026-03-23 23:00:00,METAR VOBL 232300Z 15004KT 6000 FEW012 21/17 Q1015 TEMPO 5000 BR
2026-03-23 22:30:00,METAR VOBL 232230Z 15004KT 6000 FEW012 22/17 Q1015 NOSIG
2026-03-23 22:00:00,METAR VOBL 232200Z 15004KT 6000 FEW012 22/16 Q1015 NOSIG
2026-03-23 21:30:00,METAR VOBL 232130Z 14003KT 6000 FEW012 22/16 Q1015 NOSIG
2026-03-23 21:00:00,METAR VOBL 232100Z 14003KT 6000 FEW012 22/16 Q1015 NOSIG
2026-03-23 20:30:00,METAR VOBL 232030Z 14004KT 6000 FEW012 22/16 Q1015 NOSIG
2026-03-23 20:00:00,METAR VOBL 232000Z 12006KT 6000 FEW012 22/17 Q1016 NOSIG
2026-03-23 19:30:00,METAR VOBL 231930Z 12006KT 6000 FEW012 22/17 Q1016 NOSIG
2026-03-23 19:00:00,METAR VOBL 231900Z 13006KT 6000 SCT012 22/16 Q1016 NOSIG
2026-03-23 18:30:00,METAR VOBL 231830Z 13006KT 6000 SCT012 24/16 Q1016 NOSIG
2026-03-23 18:00:00,METAR VOBL 231800Z 13006KT 6000 SCT012 24/16 Q1016 NOSIG
2026-03-23 17:30:00,METAR VOBL 231730Z 13006KT 6000 SCT012 24/15 Q1017 NOSIG
2026-03-23 17:00:00,METAR VOBL 231700Z 11007KT 6000 SCT012 24/15 Q1016 NOSIG
2026-03-23 16:30:00,METAR VOBL 231630Z 11007KT 6000 SCT012 25/14 Q1016 NOSIG
2026-03-23 16:00:00,METAR VOBL 231600Z 12007KT 6000 SCT012 26/13 Q1016 NOSIG
2026-03-23 15:30:00,METAR VOBL 231530Z 12008KT 6000 SCT012 26/13 Q1016 NOSIG
2026-03-23 15:00:00,METAR VOBL 231500Z 12008KT 6000 SCT012 26/13 Q1015 NOSIG
2026-03-23 14:30:00,METAR VOBL 231430Z 12008KT 6000 SCT012 27/13 Q1015 NOSIG
2026-03-23 14:00:00,METAR VOBL 231400Z 12008KT 8000 SCT012 28/13 Q1015 NOSIG
2026-03-23 13:30:00,METAR VOBL 231330Z 10008KT 8000 SCT012 28/13 Q1014 NOSIG
2026-03-23 13:00:00,METAR VOBL 231300Z 10006KT 9999 SCT012 SCT020 29/12 Q1014 NOSIG
2026-03-23 12:30:00,METAR VOBL 231230Z 10006KT 9999 SCT012 SCT020 30/12 Q1014 NOSIG
2026-03-23 12:00:00,METAR VOBL 231200Z 10006KT 9999 SCT012 SCT020 31/11 Q1013 NOSIG
2026-03-23 11:30:00,METAR VOBL 231130Z 10006KT 9999 SCT012 SCT018 31/11 Q1013 NOSIG
2026-03-23 11:00:00,METAR VOBL 231100Z 10006KT 9999 SCT012 SCT018 31/12 Q1013 NOSIG
2026-03-23 10:30:00,METAR VOBL 231030Z 10006KT 9999 SCT012 SCT018 31/12 Q1013 NOSIG
2026-03-23 10:00:00,METAR VOBL 231000Z 10006KT 9999 SCT012 SCT018 31/12 Q1013 NOSIG
2026-03-23 09:30:00,METAR VOBL 230930Z 09006KT 9999 SCT012 SCT018 31/12 Q1013 NOSIG
2026-03-23 09:00:00,METAR VOBL 230900Z 06006KT 8000 SCT012 SCT018 31/12 Q1014 NOSIG
2026-03-23 08:30:00,METAR VOBL 230830Z 10008KT 8000 SCT012 SCT018 31/13 Q1014 NOSIG
2026-03-23 08:00:00,METAR VOBL 230800Z 06007KT 8000 SCT012 SCT018 31/13 Q1015 NOSIG
2026-03-23 07:30:00,METAR VOBL 230730Z 12007KT 8000 SCT012 SCT018 30/13 Q1015 NOSIG
2026-03-23 07:00:00,METAR VOBL 230700Z 11007KT 8000 SCT015 30/13 Q1016 NOSIG
2026-03-23 06:30:00,METAR VOBL 230630Z 16007KT 8000 SCT015 29/14 Q1016 NOSIG
2026-03-23 06:00:00,METAR VOBL 230600Z 16007KT 8000 SCT015 29/13 Q1017 NOSIG
2026-03-23 05:30:00,METAR VOBL 230530Z 16007KT 8000 FEW012 29/14 Q1017 NOSIG
2026-03-23 05:00:00,METAR VOBL 230500Z 15006KT 8000 FEW012 28/15 Q1018 NOSIG
2026-03-23 04:30:00,METAR VOBL 230430Z 16008KT 6000 FEW012 27/16 Q1018 NOSIG
2026-03-23 04:00:00,METAR VOBL 230400Z 16008KT 6000 FEW012 26/17 Q1018 NOSIG
2026-03-23 03:30:00,METAR VOBL 230330Z 16008KT 6000 FEW012 25/17 Q1018 NOSIG
2026-03-23 03:00:00,METAR VOBL 230300Z 16007KT 5000 HZ FEW012 24/17 Q1017 NOSIG
2026-03-23 02:30:00,METAR VOBL 230230Z 16004KT 4000 BR FEW012 23/18 Q1017 BECMG 5000 HZ
2026-03-23 02:00:00,METAR VOBL 230200Z 17005KT 4000 BR FEW012 SCT080 23/17 Q1017 NOSIG
2026-03-23 01:30:00,METAR VOBL 230130Z 14005KT 4000 BR SCT012 SCT080 22/18 Q1016 NOSIG
2026-03-23 01:00:00,METAR VOBL 230100Z 14006KT 4000 BR SCT012 SCT080 22/18 Q1016 TEMPO 3000 BR
2026-03-23 00:30:00,METAR VOBL 230030Z 14006KT 5000 BR SCT012 SCT080 22/17 Q1016 TEMPO 3000 BR
2026-03-23 00:00:00,METAR VOBL 230000Z 13006KT 6000 SCT012 SCT080 22/17 Q1016 TEMPO 5000 BR
2026-03-22 23:30:00,METAR VOBL 222330Z 12006KT 6000 SCT012 SCT080 23/17 Q1015 NOSIG
2026-03-22 23:00:00,METAR VOBL 222300Z 14005KT 6000 SCT012 SCT080 23/17 Q1015 NOSIG
2026-03-22 22:30:00,METAR VOBL 222230Z 15005KT 6000 SCT012 SCT080 23/17 Q1015 NOSIG
2026-03-22 22:00:00,METAR VOBL 222200Z 14006KT 6000 SCT012 SCT080 23/17 Q1015 NOSIG
2026-03-22 21:30:00,METAR VOBL 222130Z 14006KT 6000 SCT012 SCT080 23/17 Q1015 NOSIG
2026-03-22 21:00:00,METAR VOBL 222100Z 14006KT 6000 SCT012 SCT080 24/17 Q1016 NOSIG
2026-03-22 20:30:00,METAR VOBL 222030Z 14008KT 6000 SCT012 SCT080 24/17 Q1016 NOSIG
2026-03-22 20:00:00,METAR VOBL 222000Z 12008KT 6000 SCT012 SCT080 24/17 Q1016 NOSIG
2026-03-22 19:30:00,METAR VOBL 221930Z 11007KT 6000 SCT012 SCT080 24/17 Q1017 NOSIG
2026-03-22 19:00:00,METAR VOBL 221900Z 12006KT 6000 SCT012 SCT080 24/16 Q1017 NOSIG
2026-03-22 18:30:00,METAR VOBL 221830Z 12008KT 6000 SCT012 24/16 Q1017 NOSIG
2026-03-22 18:00:00,METAR VOBL 221800Z 12008KT 6000 SCT012 24/16 Q1017 NOSIG
2026-03-22 17:30:00,METAR VOBL 221730Z 11008KT 6000 SCT012 24/16 Q1017 NOSIG
2026-03-22 17:00:00,METAR VOBL 221700Z 11011KT 6000 SCT012 25/16 Q1017 NOSIG
2026-03-22 16:30:00,METAR VOBL 221630Z 13010KT 6000 SCT012 25/16 Q1017 NOSIG
2026-03-22 16:00:00,METAR VOBL 221600Z 13011KT 6000 SCT012 26/16 Q1017 NOSIG
2026-03-22 15:30:00,METAR VOBL 221530Z 11011KT 6000 SCT012 26/16 Q1016 NOSIG
2026-03-22 15:00:00,METAR VOBL 221500Z 12009KT 6000 SCT012 27/16 Q1016 NOSIG
2026-03-22 14:30:00,METAR VOBL 221430Z 13010KT 6000 SCT012 27/16 Q1015 NOSIG
2026-03-22 14:00:00,METAR VOBL 221400Z 13007KT 6000 SCT012 28/15 Q1015 NOSIG
2026-03-22 13:30:00,METAR VOBL 221330Z 12007KT 6000 SCT012 28/15 Q1014 NOSIG
2026-03-22 13:00:00,METAR VOBL 221300Z 12007KT 6000 SCT012 29/15 Q1014 NOSIG
2026-03-22 12:30:00,METAR VOBL 221230Z 13007KT 8000 SCT012 29/14 Q1014 NOSIG
2026-03-22 12:00:00,METAR VOBL 221200Z 12009KT 8000 SCT012 30/14 Q1014 NOSIG
2026-03-22 11:30:00,METAR VOBL 221130Z 11011KT 8000 SCT012 30/14 Q1013 NOSIG
2026-03-22 11:00:00,METAR VOBL 221100Z 12009KT 8000 SCT012 30/14 Q1013 NOSIG
2026-03-22 10:30:00,METAR VOBL 221030Z 10005KT 8000 SCT012 30/14 Q1013 NOSIG
2026-03-22 10:00:00,METAR VOBL 221000Z 11009KT 8000 SCT012 31/13 Q1013 NOSIG
2026-03-22 09:30:00,METAR VOBL 220930Z VRB02KT 8000 SCT012 31/13 Q1013 NOSIG
2026-03-22 09:00:00,METAR VOBL 220900Z 12005KT 8000 SCT012 30/14 Q1014 NOSIG
2026-03-22 08:30:00,METAR VOBL 220830Z 09005KT 8000 SCT012 30/14 Q1014 NOSIG
2026-03-22 08:00:00,METAR VOBL 220800Z 18005KT 8000 SCT012 30/14 Q1015 NOSIG
2026-03-22 07:30:00,METAR VOBL 220730Z 14005KT 8000 SCT012 30/16 Q1015 NOSIG
2026-03-22 07:00:00,METAR VOBL 220700Z 14007KT 8000 SCT012 29/17 Q1016 NOSIG
2026-03-22 06:30:00,METAR VOBL 220630Z 19006KT 8000 SCT012 29/17 Q1017 NOSIG
2026-03-22 06:00:00,METAR VOBL 220600Z 19006KT 6000 SCT012 29/18 Q1017 NOSIG
2026-03-22 05:30:00,METAR VOBL 220530Z 20008KT 6000 SCT012 28/18 Q1018 NOSIG
2026-03-22 05:00:00,METAR VOBL 220500Z 20006KT 6000 SCT012 28/18 Q1018 NOSIG
2026-03-22 04:30:00,METAR VOBL 220430Z 22006KT 6000 SCT012 27/18 Q1018 NOSIG
2026-03-22 04:00:00,METAR VOBL 220400Z 23006KT 6000 SCT012 25/19 Q1018 NOSIG
2026-03-22 03:30:00,METAR VOBL 220330Z 21006KT 5000 HZ FEW012 25/19 Q1018 NOSIG
2026-03-22 03:00:00,METAR VOBL 220300Z 23005KT 4000 HZ FEW012 25/19 Q1017 BECMG 5000 HZ
2026-03-22 02:30:00,METAR VOBL 220230Z 23006KT 3000 BR FEW012 24/19 Q1017 BECMG 5000 HZ
2026-03-22 02:00:00,METAR VOBL 220200Z 18003KT 3000 BR FEW012 23/19 Q1016 BECMG 5000 HZ
2026-03-22 01:30:00,METAR VOBL 220130Z 17003KT 3000 BR FEW012 23/19 Q1016 NOSIG
2026-03-22 01:00:00,METAR VOBL 220100Z 16004KT 3000 BR FEW012 22/20 Q1016 NOSIG
2026-03-22 00:30:00,METAR VOBL 220030Z 16004KT 3000 BR FEW012 22/19 Q1015 NOSIG
2026-03-22 00:00:00,METAR VOBL 220000Z 16004KT 3000 BR FEW012 22/20 Q1015 NOSIG
2026-03-21 23:30:00,METAR VOBL 212330Z 15004KT 3000 BR FEW012 22/19 Q1014 NOSIG
2026-03-21 23:00:00,METAR VOBL 212300Z 15005KT 3000 BR FEW012 22/19 Q1014 NOSIG
2026-03-21 22:30:00,METAR VOBL 212230Z 15004KT 3000 BR FEW012 23/19 Q1014 NOSIG
2026-03-21 22:00:00,METAR VOBL 212200Z 13005KT 4000 BR FEW012 23/18 Q1014 TEMPO 3000 BR
2026-03-21 21:30:00,METAR VOBL 212130Z 14004KT 4000 BR FEW012 23/19 Q1015 TEMPO 3000 BR
2026-03-21 21:00:00,METAR VOBL 212100Z 12003KT 4000 BR FEW012 23/19 Q1015 TEMPO 3000 BR
2026-03-21 20:30:00,METAR VOBL 212030Z 14004KT 5000 HZ FEW012 23/19 Q1015 TEMPO 3000 BR
2026-03-21 20:00:00,METAR VOBL 212000Z 11003KT 5000 HZ FEW012 24/18 Q1016 NOSIG
2026-03-21 19:30:00,METAR VOBL 211930Z 11004KT 5000 HZ FEW012 24/18 Q1016 NOSIG
2026-03-21 19:00:00,METAR VOBL 211900Z 11004KT 6000 FEW012 24/19 Q1016 TEMPO 5000 HZ
2026-03-21 18:30:00,METAR VOBL 211830Z 11004KT 6000 FEW012 24/18 Q1016 NOSIG
2026-03-21 18:00:00,METAR VOBL 211800Z 12004KT 6000 FEW012 24/18 Q1017 NOSIG
2026-03-21 17:30:00,METAR VOBL 211730Z 12004KT 6000 FEW012 24/18 Q1017 NOSIG
2026-03-21 17:00:00,METAR VOBL 211700Z 12008KT 6000 FEW012 25/17 Q1017 NOSIG
2026-03-21 16:30:00,METAR VOBL 211630Z 12008KT 6000 FEW012 25/17 Q1016 NOSIG
2026-03-21 16:00:00,METAR VOBL 211600Z 11010KT 6000 FEW012 26/17 Q1016 NOSIG
2026-03-21 15:30:00,METAR VOBL 211530Z 09010KT 6000 FEW012 26/17 Q1016 NOSIG
2026-03-21 14:30:00,METAR VOBL 211430Z 11003KT 6000 FEW012 SCT080 27/17 Q1015 NOSIG
2026-03-21 14:00:00,METAR VOBL 211400Z 11003KT 6000 SCT012 SCT080 28/16 Q1014 NOSIG
2026-03-21 13:30:00,METAR VOBL 211330Z 12005KT 6000 SCT012 SCT080 29/15 Q1013 NOSIG
2026-03-21 13:00:00,METAR VOBL 211300Z 12005KT 6000 SCT012 29/14 Q1013 NOSIG
2026-03-21 12:30:00,METAR VOBL 211230Z 12004KT 8000 SCT012 SCT018 30/13 Q1013 NOSIG
2026-03-21 12:00:00,METAR VOBL 211200Z 12004KT 8000 SCT012 SCT018 30/13 Q1013 NOSIG
2026-03-21 11:30:00,METAR VOBL 211130Z 12005KT 8000 SCT012 SCT018 30/13 Q1012 NOSIG
2026-03-21 11:00:00,METAR VOBL 211100Z 07004KT 8000 SCT012 SCT018 30/13 Q1012 NOSIG
2026-03-21 10:30:00,METAR VOBL 211030Z VRB02KT 8000 SCT012 SCT018 31/12 Q1012 NOSIG
2026-03-21 10:00:00,METAR VOBL 211000Z 05004KT 8000 SCT012 SCT018 31/12 Q1013 NOSIG
2026-03-21 09:30:00,METAR VOBL 210930Z 05003KT 8000 SCT012 SCT018 31/13 Q1013 NOSIG
2026-03-21 09:00:00,METAR VOBL 210900Z 05003KT 8000 SCT012 SCT018 31/13 Q1013 NOSIG
2026-03-21 08:30:00,METAR VOBL 210830Z 11005KT 8000 SCT012 SCT018 31/13 Q1014 NOSIG
2026-03-21 08:00:00,METAR VOBL 210800Z 11005KT 8000 SCT012 SCT018 30/13 Q1014 NOSIG
2026-03-21 07:30:00,METAR VOBL 210730Z 09005KT 8000 SCT012 SCT018 30/13 Q1015 NOSIG
2026-03-21 07:00:00,METAR VOBL 210700Z 09005KT 8000 SCT012 SCT018 29/13 Q1015 NOSIG
2026-03-21 06:30:00,METAR VOBL 210630Z 05005KT 6000 SCT012 SCT018 29/12 Q1016 NOSIG
2026-03-21 06:00:00,METAR VOBL 210600Z 21005KT 6000 SCT012 SCT018 28/14 Q1017 NOSIG
2026-03-21 05:30:00,METAR VOBL 210530Z 21005KT 6000 SCT012 SCT018 28/17 Q1017 NOSIG
2026-03-21 05:00:00,METAR VOBL 210500Z 18004KT 6000 SCT012 27/17 Q1017 NOSIG
2026-03-21 04:30:00,METAR VOBL 210430Z 18004KT 5000 HZ FEW012 26/17 Q1017 NOSIG
2026-03-21 04:00:00,METAR VOBL 210400Z 18004KT 5000 HZ FEW012 26/18 Q1017 NOSIG
2026-03-21 03:30:00,METAR VOBL 210330Z 18004KT 5000 HZ FEW012 24/19 Q1017 NOSIG
2026-03-21 03:00:00,METAR VOBL 210300Z 18004KT 4000 BR FEW012 23/18 Q1017 BECMG 5000 HZ
2026-03-21 02:30:00,METAR VOBL 210230Z 18005KT 4000 BR FEW012 22/18 Q1017 BECMG 5000 HZ
2026-03-21 02:00:00,METAR VOBL 210200Z 14005KT 3000 BR FEW012 22/18 Q1016 BECMG 5000 BR
2026-03-21 01:30:00,METAR VOBL 210130Z 14005KT 3000 BR FEW012 21/18 Q1016 NOSIG
2026-03-21 01:00:00,METAR VOBL 210100Z 14005KT 3000 BR FEW012 21/18 Q1015 NOSIG
2026-03-21 00:30:00,METAR VOBL 210030Z 11005KT 5000 BR SCT012 21/18 Q1015 TEMPO 3000 BR
2026-03-21 00:00:00,METAR VOBL 210000Z 09004KT 6000 FEW015 20/18 Q1014 TEMPO 5000 BR
2026-03-20 23:30:00,METAR VOBL 202330Z 11005KT 6000 FEW015 21/18 Q1014 TEMPO 5000 BR
2026-03-20 23:00:00,METAR VOBL 202300Z 12005KT 6000 FEW015 21/18 Q1014 TEMPO 5000 BR
2026-03-20 22:30:00,METAR VOBL 202230Z 14003KT 6000 FEW015 21/17 Q1014 TEMPO 5000 BR
2026-03-20 22:00:00,METAR VOBL 202200Z 15004KT 6000 FEW015 21/17 Q1014 NOSIG
2026-03-20 21:30:00,METAR VOBL 202130Z 14005KT 6000 FEW015 21/17 Q1014 NOSIG
2026-03-20 21:00:00,METAR VOBL 202100Z 15007KT 6000 FEW015 21/17 Q1014 NOSIG
2026-03-20 20:30:00,METAR VOBL 202030Z 14004KT 6000 FEW015 21/17 Q1014 NOSIG
2026-03-20 20:00:00,METAR VOBL 202000Z 10006KT 6000 FEW015 21/18 Q1014 NOSIG
2026-03-20 19:30:00,METAR VOBL 201930Z 11005KT 6000 FEW015 22/18 Q1015 NOSIG
2026-03-20 19:00:00,METAR VOBL 201900Z 11006KT 6000 FEW015 23/17 Q1015 NOSIG
2026-03-20 18:30:00,METAR VOBL 201830Z 10004KT 6000 FEW015 23/17 Q1015 NOSIG
2026-03-20 18:00:00,METAR VOBL 201800Z 07004KT 6000 FEW015 23/17 Q1016 NOSIG
2026-03-20 17:30:00,METAR VOBL 201730Z 08005KT 6000 FEW015 23/17 Q1016 NOSIG
2026-03-20 17:00:00,METAR VOBL 201700Z 12007KT 6000 FEW015 25/16 Q1016 NOSIG
2026-03-20 16:30:00,METAR VOBL 201630Z 11008KT 6000 FEW015 25/16 Q1015 NOSIG
2026-03-20 16:00:00,METAR VOBL 201600Z 12008KT 8000 FEW015 26/15 Q1015 NOSIG
2026-03-20 15:30:00,METAR VOBL 201530Z 12010KT 8000 FEW015 26/15 Q1015 NOSIG
2026-03-20 15:00:00,METAR VOBL 201500Z 10005KT 9999 FEW015 26/15 Q1014 NOSIG
2026-03-20 14:30:00,METAR VOBL 201430Z 04003KT 9999 FEW015 26/15 Q1014 NOSIG
2026-03-20 14:00:00,METAR VOBL 201400Z 02005KT 9999 FEW015 27/15 Q1013 NOSIG
2026-03-20 13:30:00,METAR VOBL 201330Z 02005KT 9999 FEW015 27/15 Q1013 NOSIG
2026-03-20 13:00:00,METAR VOBL 201300Z 34004KT 9999 FEW015 28/13 Q1013 NOSIG
2026-03-20 12:30:00,METAR VOBL 201230Z 34004KT 9999 FEW015 29/13 Q1013 NOSIG
2026-03-20 12:00:00,METAR VOBL 201200Z VRB02KT 9999 FEW015 29/13 Q1012 NOSIG
2026-03-20 11:30:00,METAR VOBL 201130Z 07006KT 9999 SCT015 SCT020 29/13 Q1012 NOSIG
2026-03-20 11:00:00,METAR VOBL 201100Z 33005KT 9999 SCT015 SCT020 30/13 Q1012 NOSIG
2026-03-20 10:30:00,METAR VOBL 201030Z 09003KT 9999 SCT015 SCT020 31/12 Q1012 NOSIG
2026-03-20 10:00:00,METAR VOBL 201000Z 06003KT 9999 SCT015 SCT020 30/12 Q1012 NOSIG
2026-03-20 09:30:00,METAR VOBL 200930Z 13005KT 9999 SCT015 SCT020 30/11 Q1013 NOSIG
2026-03-20 09:00:00,METAR VOBL 200900Z VRB02KT 9999 SCT015 SCT020 30/11 Q1013 NOSIG
2026-03-20 08:30:00,METAR VOBL 200830Z 07007KT 9999 SCT015 SCT020 30/11 Q1013 NOSIG
2026-03-20 08:00:00,METAR VOBL 200800Z 17004KT 9999 SCT015 SCT020 29/12 Q1014 NOSIG
2026-03-20 07:30:00,METAR VOBL 200730Z 05004KT 9999 SCT015 SCT020 28/13 Q1015 NOSIG
2026-03-20 07:00:00,METAR VOBL 200700Z 13005KT 9999 SCT015 SCT020 28/14 Q1015 NOSIG
2026-03-20 06:30:00,METAR VOBL 200630Z VRB02KT 9999 SCT015 SCT020 27/14 Q1016 NOSIG
2026-03-20 06:00:00,METAR VOBL 200600Z VRB02KT 9999 SCT015 27/14 Q1017 NOSIG
2026-03-20 05:30:00,METAR VOBL 200530Z VRB02KT 9999 SCT015 27/15 Q1017 NOSIG
2026-03-20 05:00:00,METAR VOBL 200500Z 08004KT 8000 SCT015 26/15 Q1017 NOSIG
2026-03-20 04:30:00,METAR VOBL 200430Z VRB02KT 8000 FEW015 25/16 Q1018 NOSIG
2026-03-20 04:00:00,METAR VOBL 200400Z 28006KT 6000 NSC 24/17 Q1018 NOSIG
2026-03-20 03:30:00,METAR VOBL 200330Z 28004KT 6000 FEW015 23/18 Q1017 NOSIG
2026-03-20 03:00:00,METAR VOBL 200300Z 27005KT 4000 BR FEW015 22/18 Q1017 BECMG 5000 BR
2026-03-20 02:30:00,METAR VOBL 200230Z VRB02KT 3000 BR FEW015 21/18 Q1017 BECMG 5000 BR
2026-03-20 02:00:00,METAR VOBL 200200Z VRB02KT 3000 BR FEW015 20/18 Q1016 NOSIG
2026-03-20 01:30:00,METAR VOBL 200130Z VRB02KT 3000 BR FEW015 19/18 Q1016 TEMPO 1500 BR
2026-03-20 01:00:00,METAR VOBL 200100Z VRB02KT 3000 BR FEW015 18/17 Q1016 NOSIG
2026-03-20 00:30:00,METAR VOBL 200030Z COR VRB02KT 4000 BR FEW015 19/18 Q1016 NOSIG
2026-03-20 00:00:00,METAR VOBL 200000Z VRB02KT 4000 BR FEW015 20/18 Q1015 NOSIG
2026-03-19 23:30:00,METAR VOBL 192330Z VRB02KT 4000 BR FEW015 20/18 Q1014 NOSIG
2026-03-19 23:00:00,METAR VOBL 192300Z VRB02KT 5000 BR FEW015 20/18 Q1015 NOSIG
2026-03-19 22:30:00,METAR VOBL 192230Z 11003KT 5000 BR FEW015 20/18 Q1015 NOSIG
2026-03-19 22:00:00,METAR VOBL 192200Z 10004KT 5000 HZ FEW015 20/18 Q1015 NOSIG
2026-03-19 21:30:00,METAR VOBL 192130Z 09005KT 6000 FEW015 20/18 Q1015 NOSIG
2026-03-19 21:00:00,METAR VOBL 192100Z 09003KT 6000 FEW015 20/17 Q1015 NOSIG
2026-03-19 20:30:00,METAR VOBL 192030Z 06003KT 6000 FEW015 20/17 Q1015 NOSIG
2026-03-19 20:00:00,METAR VOBL 192000Z 11003KT 6000 FEW015 21/16 Q1015 NOSIG
2026-03-19 19:30:00,METAR VOBL 191930Z 12006KT 6000 FEW015 22/16 Q1015 NOSIG
2026-03-19 19:00:00,METAR VOBL 191900Z 13006KT 6000 FEW015 22/16 Q1015 NOSIG
2026-03-19 18:30:00,METAR VOBL 191830Z 12006KT 6000 FEW015 22/16 Q1016 NOSIG
2026-03-19 18:00:00,METAR VOBL 191800Z 08008KT 6000 FEW015 22/16 Q1017 NOSIG
2026-03-19 17:30:00,METAR VOBL 191730Z 09006KT 6000 FEW015 22/16 Q1017 NOSIG
2026-03-19 17:00:00,METAR VOBL 191700Z 08006KT 6000 FEW015 23/15 Q1017 NOSIG
2026-03-19 16:30:00,METAR VOBL 191630Z 08006KT 020V080 6000 FEW015 23/15 Q1017 NOSIG
2026-03-19 16:00:00,METAR VOBL 191600Z 03005KT 6000 FEW015 24/15 Q1017 NOSIG
2026-03-19 15:30:00,METAR VOBL 191530Z 02005KT 6000 FEW015 24/15 Q1016 NOSIG
2026-03-19 15:00:00,METAR VOBL 191500Z 02003KT 6000 FEW015 24/15 Q1016 NOSIG
2026-03-19 14:30:00,METAR VOBL 191430Z 03003KT 6000 FEW015 25/15 Q1015 NOSIG
2026-03-19 14:00:00,METAR VOBL 191400Z 03003KT 6000 FEW015 25/16 Q1014 NOSIG
2026-03-19 13:30:00,METAR VOBL 191330Z 07005KT 8000 FEW015 26/13 Q1014 NOSIG
2026-03-19 13:00:00,METAR VOBL 191300Z 35003KT 8000 FEW015 27/13 Q1013 NOSIG
2026-03-19 12:30:00,METAR VOBL 191230Z 35003KT 9999 FEW015 28/10 Q1013 NOSIG
2026-03-19 12:00:00,METAR VOBL 191200Z 01004KT 9999 FEW015 29/12 Q1013 NOSIG
2026-03-19 11:30:00,METAR VOBL 191130Z 01004KT 9999 SCT015 29/13 Q1013 NOSIG
2026-03-19 11:00:00,METAR VOBL 191100Z 04008KT 9999 SCT015 29/12 Q1013 NOSIG
2026-03-19 10:30:00,METAR VOBL 191030Z COR 05008KT 9999 SCT015 29/13 Q1013 NOSIG
2026-03-19 10:00:00,METAR VOBL 191000Z COR 02007KT 9999 SCT015 30/12 Q1013 NOSIG
2026-03-19 09:30:00,METAR VOBL 190930Z 32005KT 9999 SCT015 30/12 Q1014 NOSIG
2026-03-19 09:00:00,METAR VOBL 190900Z 30003KT 300V020 9999 SCT015 30/13 Q1014 NOSIG
2026-03-19 08:30:00,METAR VOBL 190830Z 30004KT 9999 SCT015 29/13 Q1015 NOSIG
2026-03-19 08:00:00,METAR VOBL 190800Z 30004KT 9999 FEW015 29/13 Q1016 NOSIG
2026-03-19 07:30:00,METAR VOBL 190730Z 29005KT 9999 FEW012 28/12 Q1016 NOSIG
2026-03-19 07:00:00,METAR VOBL 190700Z 29004KT 9999 FEW012 28/13 Q1017 NOSIG
2026-03-19 06:30:00,METAR VOBL 190630Z 29006KT 9999 FEW012 27/13 Q1017 NOSIG
2026-03-19 06:00:00,METAR VOBL 190600Z 29006KT 8000 FEW012 27/12 Q1018 NOSIG
2026-03-19 05:30:00,METAR VOBL 190530Z 26007KT 8000 FEW012 27/12 Q1018 NOSIG
2026-03-19 05:00:00,METAR VOBL 190500Z 25007KT 8000 FEW012 26/13 Q1018 NOSIG
2026-03-19 04:30:00,METAR VOBL 190430Z 25007KT 8000 FEW012 26/13 Q1018 NOSIG
2026-03-19 04:00:00,METAR VOBL 190400Z 23006KT 6000 FEW012 24/14 Q1018 NOSIG
2026-03-19 03:30:00,METAR VOBL 190330Z 23005KT 6000 FEW012 23/15 Q1018 NOSIG
2026-03-19 03:00:00,METAR VOBL 190300Z 23005KT 6000 FEW012 21/15 Q1018 NOSIG
2026-03-19 02:30:00,METAR VOBL 190230Z 23005KT 6000 VV/// 20/15 Q1018 NOSIG
2026-03-19 02:00:00,METAR VOBL 190200Z 23006KT 6000 SCT012 19/15 Q1017 NOSIG
2026-03-19 01:30:00,METAR VOBL 190130Z 14006KT 6000 SCT012 18/15 Q1017 NOSIG
2026-03-19 01:00:00,METAR VOBL 190100Z 14003KT 6000 SCT012 17/15 Q1017 NOSIG
2026-03-19 00:30:00,METAR VOBL 190030Z 14003KT 6000 SCT012 17/15 Q1017 NOSIG
2026-03-19 00:00:00,METAR VOBL 190000Z 14003KT 6000 SCT012 BKN080 17/15 Q1017 NOSIG
2026-03-18 23:30:00,METAR VOBL 182330Z VRB02KT 6000 SCT012 BKN080 16/15 Q1017 NOSIG
2026-03-18 23:00:00,METAR VOBL 182300Z 09003KT 6000 SCT012 BKN080 17/15 Q1016 NOSIG
2026-03-18 22:30:00,METAR VOBL 182230Z 05004KT 6000 SCT012 BKN080 17/16 Q1017 NOSIG
2026-03-18 22:00:00,METAR VOBL 182200Z 07006KT 6000 SCT012 BKN080 17/16 Q1017 NOSIG
2026-03-18 21:30:00,METAR VOBL 182130Z 07008KT 6000 SCT012 BKN080 17/16 Q1017 NOSIG
2026-03-18 21:00:00,METAR VOBL 182100Z 05010KT 6000 SCT012 BKN080 17/15 Q1017 NOSIG
2026-03-18 20:30:00,METAR VOBL 182030Z 05010KT 6000 SCT012 SCT080 17/15 Q1018 NOSIG
2026-03-18 20:00:00,METAR VOBL 182000Z 08007KT 6000 SCT012 SCT080 17/15 Q1018 NOSIG
2026-03-18 19:30:00,METAR VOBL 181930Z VRB02KT 6000 SCT012 SCT080 17/15 Q1017 NOSIG
2026-03-18 19:00:00,METAR VOBL 181900Z 09005KT 6000 SCT012 SCT080 17/15 Q1017 NOSIG
2026-03-18 18:30:00,METAR VOBL 181830Z 09005KT 6000 SCT012 SCT080 17/15 Q1017 NOSIG
2026-03-18 18:00:00,METAR VOBL 181800Z 09004KT 6000 SCT012 SCT080 17/15 Q1017 NOSIG
2026-03-18 17:30:00,METAR VOBL 181730Z 02010KT 6000 SCT012 SCT080 17/14 Q1018 NOSIG
2026-03-18 17:00:00,METAR VOBL 181700Z COR 01010KT 4000 -DZ SCT012 BKN080 17/14 Q1019 BECMG 5000 BR
2026-03-18 16:30:00,METAR VOBL 181630Z 01015KT 3000 -DZ SCT012 FEW025CB BKN080 17/15 Q1019 NOSIG
2026-03-18 16:00:00,METAR VOBL 181600Z 36015KT 2000 -RA SCT012 FEW025CB BKN080 17/16 Q1020 NOSIG
2026-03-18 15:30:00,METAR VOBL 181530Z 35016KT 2000 -RA SCT012 FEW025CB BKN080 17/17 Q1020 NOSIG
2026-03-18 15:00:00,METAR VOBL 181500Z 26016KT 3000 TSRA SCT012 FEW025CB BKN080 18/16 Q1019 TEMPO 2000 TSRA
2026-03-18 14:30:00,METAR VOBL 181430Z 09012KT 2000 -RA SCT012 FEW025CB BKN080 18/17 Q1015 NOSIG
2026-03-18 14:00:00,METAR VOBL 181400Z 09005KT 2000 TSRA SCT012 FEW025CB BKN080 22/17 Q1015 TEMPO 1500 TSRA
2026-03-18 13:30:00,METAR VOBL 181330Z 09005KT 6000 SCT012 FEW025CB BKN080 26/17 Q1013 TEMPO 5000 -RA
2026-03-18 13:00:00,METAR VOBL 181300Z 11004KT 6000 SCT012 BKN080 27/15 Q1013 NOSIG
2026-03-18 12:30:00,METAR VOBL 181230Z 09004KT 6000 SCT012 BKN080 27/14 Q1013 NOSIG
2026-03-18 12:00:00,METAR VOBL 181200Z 09004KT 6000 SCT012 BKN080 28/15 Q1012 NOSIG
2026-03-18 11:30:00,METAR VOBL 181130Z 16004KT 6000 SCT012 BKN080 29/14 Q1013 NOSIG
2026-03-18 11:00:00,METAR VOBL 181100Z 16003KT 6000 SCT012 BKN080 29/14 Q1012 NOSIG
2026-03-18 10:30:00,METAR VOBL 181030Z 14005KT 6000 SCT012 BKN080 29/15 Q1012 NOSIG
2026-03-18 10:00:00,METAR VOBL 181000Z 16005KT 8000 FEW012 BKN080 28/14 Q1013 NOSIG
2026-03-18 09:30:00,METAR VOBL 180930Z 16003KT 8000 FEW012 BKN080 29/15 Q1013 NOSIG
2026-03-18 09:00:00,METAR VOBL 180900Z 16004KT 8000 FEW012 BKN080 29/16 Q1014 NOSIG
2026-03-18 08:30:00,METAR VOBL 180830Z 16004KT 6000 FEW012 BKN080 28/15 Q1014 NOSIG
2026-03-18 08:00:00,METAR VOBL 180800Z 16004KT 6000 FEW012 BKN080 27/16 Q1015 NOSIG
2026-03-18 07:30:00,METAR VOBL 180730Z 16004KT 6000 FEW012 BKN080 27/16 Q1015 NOSIG
2026-03-18 07:00:00,METAR VOBL 180700Z 16005KT 6000 FEW012 BKN080 27/16 Q1016 NOSIG
2026-03-18 06:30:00,METAR VOBL 180630Z 16004KT 6000 FEW012 BKN080 26/17 Q1016 NOSIG
2026-03-18 06:00:00,METAR VOBL 180600Z 12004KT 6000 FEW012 BKN080 25/17 Q1017 NOSIG
2026-03-18 05:30:00,METAR VOBL 180530Z 12004KT 6000 FEW012 BKN080 25/17 Q1017 NOSIG
2026-03-18 05:00:00,METAR VOBL 180500Z 12004KT 5000 HZ FEW012 BKN080 24/18 Q1018 NOSIG
2026-03-18 04:30:00,METAR VOBL 180430Z 12004KT 4000 BR SCT012 BKN080 23/18 Q1018 BECMG 5000 BR
2026-03-18 04:00:00,METAR VOBL 180400Z 12004KT 3000 BR SCT012 BKN080 22/19 Q1018 BECMG 5000 BR
2026-03-18 03:30:00,METAR VOBL 180330Z 07004KT 3000 BR SCT010 SCT012 BKN080 21/19 Q1018 NOSIG
2026-03-18 03:00:00,METAR VOBL 180300Z 11004KT 3000 BR SCT010 SCT012 BKN080 20/19 Q1018 NOSIG
2026-03-18 02:30:00,METAR VOBL 180230Z 11004KT 3000 BR SCT012 BKN080 20/19 Q1017 NOSIG
2026-03-18 02:00:00,METAR VOBL 180200Z 11004KT 3000 BR SCT012 BKN080 20/19 Q1016 NOSIG
2026-03-18 01:30:00,METAR VOBL 180130Z 11004KT 3000 BR FEW008 20/19 Q1016 NOSIG
2026-03-18 01:00:00,METAR VOBL 180100Z 10005KT 3000 BR FEW008 19/19 Q1015 NOSIG
2026-03-18 00:30:00,METAR VOBL 180030Z 11005KT 3000 BR FEW008 19/18 Q1015 NOSIG
2026-03-18 00:00:00,METAR VOBL 180000Z 12005KT 3500 BR FEW008 20/19 Q1015 TEMPO 3000 BR
2026-03-17 23:30:00,METAR VOBL 172330Z 13005KT 3500 BR FEW008 SCT012 20/19 Q1014 TEMPO 3000 BR
2026-03-17 23:00:00,METAR VOBL 172300Z 12004KT 5000 BR BKN008 SCT012 20/19 Q1014 NOSIG
2026-03-17 22:30:00,METAR VOBL 172230Z 11004KT 5000 BR BKN008 SCT012 20/19 Q1014 NOSIG
2026-03-17 22:00:00,METAR VOBL 172200Z 09004KT 5000 BR SCT008 SCT012 20/18 Q1014 TEMPO BKN008
2026-03-17 21:30:00,METAR VOBL 172130Z 07004KT 6000 SCT012 SCT080 20/17 Q1014 TEMPO 5000 BR
2026-03-17 21:00:00,METAR VOBL 172100Z 05004KT 6000 FEW012 FEW025CB SCT080 20/17 Q1014 NOSIG
2026-03-17 20:30:00,METAR VOBL 172030Z 14004KT 070V160 6000 FEW012 FEW025CB SCT080 21/17 Q1014 NOSIG
2026-03-17 20:00:00,METAR VOBL 172000Z 07003KT 6000 FEW012 FEW025CB SCT080 20/16 Q1015 NOSIG
2026-03-17 19:30:00,METAR VOBL 171930Z 07003KT 6000 FEW012 FEW025CB SCT080 20/16 Q1016 NOSIG
2026-03-17 19:00:00,METAR VOBL 171900Z 05003KT 6000 FEW012 FEW025CB SCT080 20/17 Q1016 NOSIG
2026-03-17 18:30:00,METAR VOBL 171830Z 07003KT 6000 FEW012 FEW025CB SCT080 20/17 Q1016 NOSIG
2026-03-17 18:00:00,METAR VOBL 171800Z 07003KT 6000 FEW012 FEW025CB SCT080 22/13 Q1016 NOSIG
2026-03-17 17:30:00,METAR VOBL 171730Z 05006KT 6000 SCT012 FEW025CB BKN080 21/15 Q1016 NOSIG
2026-03-17 17:00:00,METAR VOBL 171700Z 03004KT 6000 SCT012 FEW025CB BKN080 21/15 Q1016 NOSIG
2026-03-17 16:30:00,METAR VOBL 171630Z 32008KT 320V110 3000 -DZ SCT012 FEW025CB BKN080 20/17 Q1015 NOSIG
2026-03-17 16:00:00,METAR VOBL 171600Z 11010KT 3000 -TSRA SCT012 SCT018 FEW025CB BKN080 20/17 Q1015 NOSIG
2026-03-17 15:30:00,METAR VOBL 171530Z 07009KT 3000 -TSRA SCT012 SCT018 FEW025CB BKN080 20/16 Q1015 NOSIG
2026-03-17 15:00:00,METAR VOBL 171500Z 07014KT 3000 -TSRA SCT012 SCT018 FEW025CB BKN080 20/15 Q1015 NOSIG
2026-03-17 14:30:00,METAR VOBL 171430Z 12025KT 0800 TSRA SCT012 SCT018 FEW025CB BKN080 17/16 Q1015 BECMG 1500 TSRA
2026-03-17 14:00:00,METAR VOBL 171400Z 02025KT 2000 TSRA SCT012 SCT018 FEW025CB 18/17 Q1015 TEMPO 1500 TSRA
2026-03-17 13:30:00,METAR VOBL 171330Z 34010KT 6000 TS SCT012 SCT018 FEW025CB 23/13 Q1013 TEMPO 3000 TSRA
2026-03-17 13:00:00,METAR VOBL 171300Z 11007KT 6000 SCT012 SCT018 FEW025CB 25/13 Q1013 NOSIG
2026-03-17 12:30:00,METAR VOBL 171230Z 11010KT 6000 SCT012 SCT018 28/13 Q1012 NOSIG
2026-03-17 12:00:00,METAR VOBL 171200Z COR 11010KT 6000 -DZ SCT012 SCT018 28/15 Q1012 NOSIG
2026-03-17 11:30:00,METAR VOBL 171130Z 11010KT 6000 SCT012 SCT018 29/13 Q1011 NOSIG
2026-03-17 11:00:00,METAR VOBL 171100Z 11010KT 6000 SCT012 SCT018 29/14 Q1012 NOSIG
2026-03-17 10:30:00,METAR VOBL 171030Z 11010KT 6000 SCT012 SCT018 30/12 Q1012 NOSIG
2026-03-17 10:00:00,METAR VOBL 171000Z 11006KT 6000 SCT012 SCT018 30/12 Q1012 NOSIG
2026-03-17 09:30:00,METAR VOBL 170930Z 11010KT 6000 SCT012 SCT018 31/12 Q1012 NOSIG
2026-03-17 09:00:00,METAR VOBL 170900Z 11005KT 6000 SCT012 SCT018 31/13 Q1012 NOSIG
2026-03-17 08:30:00,METAR VOBL 170830Z 11005KT 6000 SCT012 31/13 Q1013 NOSIG
2026-03-17 08:00:00,METAR VOBL 170800Z 11006KT 6000 FEW012 30/13 Q1013 NOSIG
2026-03-17 07:30:00,METAR VOBL 170730Z 07004KT 6000 FEW012 30/12 Q1014 NOSIG
2026-03-17 07:00:00,METAR VOBL 170700Z VRB02KT 6000 FEW012 29/14 Q1014 NOSIG
2026-03-17 06:30:00,METAR VOBL 170630Z 11004KT 6000 FEW012 29/15 Q1015 NOSIG
2026-03-17 06:00:00,METAR VOBL 170600Z 13005KT 5000 HZ FEW012 28/16 Q1016 NOSIG
2026-03-17 05:30:00,METAR VOBL 170530Z 14004KT 5000 HZ FEW012 26/17 Q1016 NOSIG
2026-03-17 05:00:00,METAR VOBL 170500Z 14004KT 5000 HZ SCT012 25/17 Q1017 NOSIG
2026-03-17 04:30:00,METAR VOBL 170430Z 11003KT 4000 HZ SCT012 25/18 Q1017 BECMG 5000 HZ
2026-03-17 04:00:00,METAR VOBL 170400Z 14004KT 3000 HZ SCT012 24/18 Q1017 BECMG 5000 HZ
2026-03-17 03:30:00,METAR VOBL 170330Z 09005KT 3000 BR FEW012 23/18 Q1017 BECMG 5000 HZ
2026-03-17 03:00:00,METAR VOBL 170300Z COR 13005KT 3000 BR FEW012 23/18 Q1016 BECMG 5000 HZ
2026-03-17 02:30:00,METAR VOBL 170230Z 13005KT 3000 BR SCT012 22/18 Q1016 NOSIG
2026-03-17 02:00:00,METAR VOBL 170200Z 15005KT 2000 BR SCT012 SCT080 21/18 Q1015 NOSIG
2026-03-17 01:30:00,METAR VOBL 170130Z 15005KT 3000 BR SCT012 SCT080 21/18 Q1015 NOSIG
2026-03-17 01:00:00,METAR VOBL 170100Z 15005KT 5000 BR SCT012 SCT080 21/18 Q1014 TEMPO 3000 BR
2026-03-17 00:30:00,METAR VOBL 170030Z 15005KT 6000 SCT012 SCT080 20/18 Q1014 TEMPO 5000 BR
2026-03-17 00:00:00,METAR VOBL 170000Z VRB02KT 6000 SCT012 SCT080 20/15 Q1014 NOSIG
2026-03-16 23:30:00,METAR VOBL 162330Z VRB02KT 6000 SCT012 SCT080 20/14 Q1014 NOSIG
2026-03-16 23:00:00,METAR VOBL 162300Z VRB02KT 6000 SCT012 SCT080 21/14 Q1014 NOSIG
2026-03-16 22:30:00,METAR VOBL 162230Z VRB02KT 6000 SCT012 SCT080 21/14 Q1014 NOSIG
2026-03-16 22:00:00,METAR VOBL 162200Z 29006KT 6000 SCT012 SCT080 21/14 Q1014 NOSIG
2026-03-16 21:30:00,METAR VOBL 162130Z 09004KT 6000 SCT012 SCT080 22/14 Q1013 NOSIG
2026-03-16 21:00:00,METAR VOBL 162100Z 06006KT 6000 SCT012 SCT080 22/14 Q1013 NOSIG
2026-03-16 20:30:00,METAR VOBL 162030Z 11006KT 6000 SCT012 SCT080 21/14 Q1014 NOSIG
2026-03-16 20:00:00,METAR VOBL 162000Z 25012KT 6000 SCT012 FEW025CB BKN080 21/14 Q1014 NOSIG
2026-03-16 19:30:00,METAR VOBL 161930Z 15009KT 6000 SCT012 FEW025CB BKN080 21/15 Q1015 NOSIG
2026-03-16 19:00:00,METAR VOBL 161900Z 23008KT 6000 -DZ SCT012 FEW025CB SCT080 21/16 Q1016 NOSIG
2026-03-16 18:30:00,METAR VOBL 161830Z 27007KT 6000 -TS SCT012 FEW025CB SCT080 21/16 Q1017 NOSIG
2026-03-16 18:00:00,METAR VOBL 161800Z 29006KT 5000 -TS SCT012 FEW025CB SCT080 20/16 Q1017 BECMG 6000
2026-03-16 17:30:00,METAR VOBL 161730Z 28015KT 5000 -TSRA SCT013 FEW025CB 21/16 Q1017 NOSIG
2026-03-16 17:00:00,METAR VOBL 161700Z 27010KT 6000 TS SCT015 FEW025CB 23/15 Q1017 NOSIG
2026-03-16 16:30:00,METAR VOBL 161630Z COR 12008KT 6000 TS SCT015 FEW025CB 25/12 Q1017 NOSIG
2026-03-16 16:00:00,METAR VOBL 161600Z 11010KT 6000 FEW015 FEW025CB 26/11 Q1016 NOSIG
2026-03-16 15:30:00,METAR VOBL 161530Z 11010KT 6000 FEW015 26/10 Q1015 NOSIG
2026-03-16 15:00:00,METAR VOBL 161500Z 09006KT 6000 FEW015 27/08 Q1014 NOSIG
2026-03-16 14:30:00,METAR VOBL 161430Z 09006KT 6000 FEW015 28/07 Q1014 NOSIG
2026-03-16 14:00:00,METAR VOBL 161400Z 09006KT 6000 FEW015 28/08 Q1013 NOSIG
2026-03-16 13:30:00,METAR VOBL 161330Z 09006KT 6000 FEW015 29/09 Q1013 NOSIG
2026-03-16 13:00:00,METAR VOBL 161300Z 09006KT 6000 FEW015 29/10 Q1013 NOSIG
2026-03-16 12:30:00,METAR VOBL 161230Z 09006KT 8000 FEW015 30/09 Q1012 NOSIG
2026-03-16 12:00:00,METAR VOBL 161200Z 09006KT 8000 SCT015 31/10 Q1012 NOSIG
2026-03-16 11:30:00,METAR VOBL 161130Z 09006KT 090V150 8000 SCT015 31/10 Q1012 NOSIG
2026-03-16 11:00:00,METAR VOBL 161100Z 10007KT 8000 SCT015 31/09 Q1012 NOSIG
2026-03-16 10:30:00,METAR VOBL 161030Z 06006KT 8000 SCT015 31/09 Q1012 NOSIG
2026-03-16 10:00:00,METAR VOBL 161000Z 10006KT 8000 SCT015 32/09 Q1012 NOSIG
2026-03-16 09:30:00,METAR VOBL 160930Z 12005KT 8000 SCT015 31/09 Q1012 NOSIG
2026-03-16 09:00:00,METAR VOBL 160900Z 13006KT 8000 FEW015 31/10 Q1013 NOSIG
2026-03-16 08:30:00,METAR VOBL 160830Z 12004KT 8000 FEW015 31/10 Q1013 NOSIG
2026-03-16 08:00:00,METAR VOBL 160800Z 12007KT 8000 FEW015 31/10 Q1014 NOSIG
2026-03-16 07:30:00,METAR VOBL 160730Z VRB02KT 6000 FEW015 30/10 Q1015 NOSIG
2026-03-16 07:00:00,METAR VOBL 160700Z 16004KT 6000 FEW015 30/10 Q1015 NOSIG
2026-03-16 06:30:00,METAR VOBL 160630Z 21004KT 6000 FEW015 29/10 Q1016 NOSIG
2026-03-16 06:00:00,METAR VOBL 160600Z 23005KT 6000 FEW015 28/12 Q1017 NOSIG
2026-03-16 05:30:00,METAR VOBL 160530Z 25007KT 6000 FEW015 28/15 Q1017 NOSIG
2026-03-16 05:00:00,METAR VOBL 160500Z 25007KT 6000 NSC 27/16 Q1018 NOSIG
2026-03-16 04:30:00,METAR VOBL 160430Z 23007KT 6000 NSC 26/16 Q1017 NOSIG
2026-03-16 04:00:00,METAR VOBL 160400Z 23007KT 6000 NSC 25/16 Q1017 NOSIG
2026-03-16 03:30:00,METAR VOBL 160330Z COR 22005KT 6000 NSC 24/16 Q1017 NOSIG
2026-03-16 03:00:00,METAR VOBL 160300Z 22005KT 5000 HZ NSC 23/16 Q1017 NOSIG
2026-03-16 02:30:00,METAR VOBL 160230Z 23007KT 3000 HZ NSC 22/16 Q1017 NOSIG
2026-03-16 02:00:00,METAR VOBL 160200Z 16003KT 3000 BR NSC 20/16 Q1016 NOSIG
2026-03-16 01:30:00,METAR VOBL 160130Z 16003KT 5000 BR NSC 20/16 Q1016 TEMPO 3000 BR
2026-03-16 01:00:00,METAR VOBL 160100Z VRB02KT 6000 NSC 20/15 Q1015 TEMPO 5000 BR
2026-03-16 00:30:00,METAR VOBL 160030Z VRB02KT 6000 NSC 20/16 Q1015 NOSIG
2026-03-16 00:00:00,METAR VOBL 160000Z VRB02KT 6000 NSC 20/15 Q1014 NOSIG
2026-03-15 23:30:00,METAR VOBL 152330Z 14003KT 6000 NSC 19/14 Q1014 NOSIG
2026-03-15 23:00:00,METAR VOBL 152300Z 14004KT 6000 NSC 20/14 Q1014 NOSIG
2026-03-15 22:30:00,METAR VOBL 152230Z 15004KT 6000 NSC 21/14 Q1014 NOSIG
2026-03-15 22:00:00,METAR VOBL 152200Z 15004KT 6000 NSC 21/13 Q1014 NOSIG
2026-03-15 21:30:00,METAR VOBL 152130Z 15003KT 6000 NSC 21/13 Q1014 NOSIG
2026-03-15 21:00:00,METAR VOBL 152100Z 15003KT 6000 NSC 22/13 Q1015 NOSIG
2026-03-15 20:30:00,METAR VOBL 152030Z 17003KT 6000 NSC 22/12 Q1015 NOSIG
2026-03-15 20:00:00,METAR VOBL 152000Z 15004KT 6000 NSC 22/12 Q1015 NOSIG
2026-03-15 19:30:00,METAR VOBL 151930Z 15005KT 6000 NSC 22/12 Q1016 NOSIG
2026-03-15 19:00:00,METAR VOBL 151900Z 14004KT 6000 NSC 22/12 Q1016 NOSIG
2026-03-15 18:30:00,METAR VOBL 151830Z 15004KT 6000 NSC 23/11 Q1016 NOSIG
2026-03-15 18:00:00,METAR VOBL 151800Z 13005KT 6000 NSC 23/11 Q1016 NOSIG
2026-03-15 17:30:00,METAR VOBL 151730Z 13005KT 6000 NSC 23/11 Q1017 NOSIG
2026-03-15 17:00:00,METAR VOBL 151700Z 12006KT 6000 NSC 23/11 Q1017 NOSIG
2026-03-15 16:30:00,METAR VOBL 151630Z 10009KT 6000 NSC 24/11 Q1017 NOSIG
2026-03-15 16:00:00,METAR VOBL 151600Z 09009KT 6000 NSC 24/09 Q1016 NOSIG
2026-03-15 15:30:00,METAR VOBL 151530Z 10009KT 6000 NSC 24/09 Q1016 NOSIG
2026-03-15 15:00:00,METAR VOBL 151500Z 10010KT 6000 NSC 25/08 Q1016 NOSIG
2026-03-15 14:30:00,METAR VOBL 151430Z 10008KT 6000 NSC 26/08 Q1015 NOSIG
2026-03-15 14:00:00,METAR VOBL 151400Z 10009KT 8000 NSC 28/07 Q1015 NOSIG
2026-03-15 13:30:00,METAR VOBL 151330Z 10009KT 8000 NSC 28/07 Q1014 NOSIG
2026-03-15 13:00:00,METAR VOBL 151300Z 10009KT 8000 NSC 29/07 Q1014 NOSIG
2026-03-15 12:30:00,METAR VOBL 151230Z 10010KT CAVOK 30/06 Q1014 NOSIG
2026-03-15 12:00:00,METAR VOBL 151200Z 10009KT CAVOK 31/05 Q1014 NOSIG
2026-03-15 11:30:00,METAR VOBL 151130Z 10009KT CAVOK 31/05 Q1013 NOSIG
2026-03-15 11:00:00,METAR VOBL 151100Z COR 10009KT CAVOK 32/06 Q1013 NOSIG
2026-03-15 10:30:00,METAR VOBL 151030Z 10007KT CAVOK 32/06 Q1013 NOSIG
2026-03-15 10:00:00,METAR VOBL 151000Z 10007KT CAVOK 32/07 Q1013 NOSIG
2026-03-15 09:30:00,METAR VOBL 150930Z 08007KT CAVOK 31/07 Q1014 NOSIG
2026-03-15 09:00:00,METAR VOBL 150900Z 08008KT CAVOK 32/07 Q1014 NOSIG
2026-03-15 08:30:00,METAR VOBL 150830Z 10008KT 8000 NSC 32/07 Q1015 NOSIG
2026-03-15 08:00:00,METAR VOBL 150800Z 09008KT 8000 NSC 31/08 Q1015 NOSIG
