Time_recorded,METAR
2026-05-02 15:30:00,METAR WADD 021530Z 12005KT 9999 FEW017 27/25 Q1010 NOSIG
2026-05-02 15:00:00,METAR WADD 021500Z 14008KT 9999 FEW017 28/25 Q1010 NOSIG
2026-05-02 14:30:00,METAR WADD 021430Z 12008KT 9999 FEW017 28/25 Q1010 NOSIG
2026-05-02 14:00:00,METAR WADD 021400Z 11007KT 9999 FEW017 28/25 Q1011 NOSIG
2026-05-02 13:30:00,METAR WADD 021330Z 12007KT 9999 FEW017 28/25 Q1010 NOSIG
2026-05-02 13:00:00,METAR WADD 021300Z 12008KT 9999 FEW017 28/25 Q1010 NOSIG
2026-05-02 12:30:00,METAR WADD 021230Z 13006KT 9999 FEW017 28/25 Q1009 NOSIG
2026-05-02 12:00:00,METAR WADD 021200Z 13007KT 9999 FEW017 28/25 Q1009 NOSIG
2026-05-02 11:30:00,METAR WADD 021130Z 12008KT 9999 FEW017 28/25 Q1008 NOSIG
2026-05-02 11:00:00,METAR WADD 021100Z 12010KT 9999 FEW017 28/25 Q1008 NOSIG
2026-05-02 10:30:00,METAR WADD 021030Z 12009KT 9999 FEW017 28/25 Q1007 NOSIG
2026-05-02 10:00:00,METAR WADD 021000Z 13012KT 9999 SCT017 29/25 Q1007 NOSIG
2026-05-02 09:30:00,METAR WADD 020930Z 14013KT 9999 FEW017 29/25 Q1007 NOSIG
2026-05-02 09:00:00,METAR WADD 020900Z 12013KT 9999 FEW017 30/24 Q1007 NOSIG
2026-05-02 08:30:00,METAR WADD 020830Z 13013KT 9999 FEW017 30/24 Q1007 NOSIG
2026-05-02 08:00:00,METAR WADD 020800Z 13012KT 9999 FEW017 30/25 Q1007 NOSIG
2026-05-02 07:30:00,METAR WADD 020730Z 13013KT 9999 FEW017 31/25 Q1007 NOSIG
2026-05-02 07:00:00,METAR WADD 020700Z 13015KT 9999 FEW017 30/24 Q1007 NOSIG
2026-05-02 06:30:00,METAR WADD 020630Z 12014KT 9999 FEW017 31/25 Q1007 NOSIG
2026-05-02 06:00:00,METAR WADD 020600Z 13015KT 9999 FEW017 30/25 Q1007 NOSIG
2026-05-02 05:30:00,METAR WADD 020530Z 13013KT 9999 FEW017 31/26 Q1008 NOSIG
2026-05-02 05:00:00,METAR WADD 020500Z 12013KT 9999 FEW017 31/25 Q1008 NOSIG
2026-05-02 04:30:00,METAR WADD 020430Z 12011KT 9999 FEW017 31/25 Q1009 NOSIG
2026-05-02 04:00:00,METAR WADD 020400Z 12012KT 9999 FEW017 31/25 Q1009 NOSIG
2026-05-02 03:30:00,METAR WADD 020330Z 12012KT 9999 FEW017 31/25 Q1009 NOSIG
2026-05-02 03:00:00,METAR WADD 020300Z 11011KT 9999 SCT016 31/25 Q1010 NOSIG
2026-05-02 02:30:00,METAR WADD 020230Z 11010KT 9999 SCT016 31/25 Q1010 NOSIG
2026-05-02 02:00:00,METAR WADD 020200Z 11010KT 9999 SCT016 31/25 Q1010 NOSIG
2026-05-02 01:30:00,METAR WADD 020130Z 11007KT 9999 FEW015CB SCT016 31/26 Q1010 NOSIG
2026-05-02 01:00:00,METAR WADD 020100Z 07005KT 030V120 9999 FEW015CB SCT016 29/26 Q1010 N OSIG
2026-05-02 00:30:00,METAR WADD 020030Z 36003KT 320V040 9999 FEW015CB BKN016 28/25 Q1010 N OSIG
2026-05-02 00:00:00,METAR WADD 020000Z 02004KT 9999 FEW015CB BKN016 26/26 Q1010 RERA NOSI G
2026-05-01 23:30:00,METAR WADD 012330Z 02005KT 350V110 8000 -RA FEW014CB BKN015 26/25 Q10 10 TEMPO TL2430 -RA RMK CB IN APCH
2026-05-01 23:20:00,SPECI WADD 012320Z 15005KT 090V220 8000 -RA FEW015CB BKN015 26/25 Q1009 TEMPO TL2430 8000 -RA RMK CB IN APCH AND CLIMB-OUT
2026-05-01 23:05:00,SPECI WADD 012305Z COR 15005KT 090V220 4000 RA FEW015CB BKN015 26/25 Q1009 TEMPO TL2430 4000 RA RMK CB IN APCH AND CLIMB-OUT
2026-05-01 23:00:00,METAR WADD 012300Z 15005KT 090V220 9999 FEW015CB BKN015 26/25 Q1009 NOSIG RMK CB IN APCH AND CLIMB-OUT
2026-05-01 22:30:00,METAR WADD 012230Z 24003KT SCT015 26/25 Q1009 NOSIG
2026-05-01 22:00:00,METAR WADD 012200Z VRB01KT 9999 SCT015 26/25 Q1009 NOSIG
2026-05-01 21:00:00,METAR WADD 012100Z 18006KT 9999 SCT015 26/25 Q1008 NOSIG
2026-05-01 20:00:00,METAR WADD 012000Z 11002KT 9999 SCT015 26/24 Q1009 NOSIG
2026-05-01 19:30:00,METAR WADD 011930Z 14004KT 9999 SCT016 26/25 Q1009 NOSIG
2026-05-01 19:00:00,METAR WADD 011900Z 15009KT SCT016 26/25 Q1009 NOSIG
2026-05-01 18:30:00,METAR WADD 011830Z 08005KT 9999 SCT016 27/25 Q1009 NOSIG
2026-05-01 18:00:00,METAR WADD 011800Z 07006KT 9999 SCT016 27/25 Q1009 NOSIG
2026-05-01 17:30:00,METAR WADD 011730Z 07007KT 9999 SCT016 28/25 Q1009 NOSIG
2026-05-01 17:00:00,METAR WADD 011700Z 09007KT 9999 SCT016 28/25 Q1010 NOSIG
2026-05-01 16:30:00,METAR WADD 011630Z 09008KT 9999 SCT016 28/25 Q1010 NOSIG
2026-05-01 16:00:00,METAR WADD 011600Z 10008KT 9999 SCT016 28/25 Q1010 NOSIG
2026-05-01 15:30:00,METAR WADD 011530Z 13008KT 9999 SCT016 28/26 Q1010 NOSIG
2026-05-01 15:00:00,METAR WADD 011500Z 13008KT 9999 SCT016 28/26 Q1010 NOSIG
2026-05-01 14:30:00,METAR WADD 011430Z 12009KT 9999 SCT016 28/26 Q1010 NOSIG
2026-05-01 14:00:00,METAR WADD 011400Z 11009KT 9999 SCT016 28/26 Q1010 NOSIG
2026-05-01 13:30:00,METAR WADD 011330Z 12010KT 9999 SCT016 28/26 Q1010 NOSIG
2026-05-01 13:00:00,METAR WADD 011300Z 13010KT 9999 SCT016 28/26 Q1010 NOSIG
2026-05-01 12:30:00,METAR WADD 011230Z 13008KT 9999 FEW016 28/26 Q1010 NOSIG
2026-05-01 12:00:00,METAR WADD 011200Z 15011KT 9999 SCT016 28/26 Q1010 NOSIG
2026-05-01 11:30:00,METAR WADD 011130Z 12009KT 9999 SCT016 28/26 Q1009 NOSIG
2026-05-01 11:00:00,METAR WADD 011100Z 13008KT 9999 SCT016 28/26 Q1009 NOSIG
2026-05-01 10:30:00,METAR WADD 011030Z 14010KT 9999 SCT016 28/26 Q1009 NOSIG
2026-05-01 10:00:00,METAR WADD 011000Z 12011KT 9999 SCT016 29/26 Q1009 NOSIG
2026-05-01 09:30:00,METAR WADD 010930Z 13012KT 9999 SCT016 29/26 Q1009 NOSIG
2026-05-01 09:00:00,METAR WADD 010900Z 14012KT 9999 SCT016 29/26 Q1008 NOSIG
2026-05-01 08:30:00,METAR WADD 010830Z 13015KT 9999 SCT016 30/26 Q1008 NOSIG
2026-05-01 08:00:00,METAR WADD 010800Z 13014KT 9999 SCT016 30/26 Q1008 NOSIG
2026-05-01 07:30:00,METAR WADD 010730Z 12016KT 9999 SCT016 30/26 Q1008 NOSIG
2026-05-01 07:00:00,METAR WADD 010700Z 13014KT 9999 SCT016 30/26 Q1008 RERA NOSIG
2026-05-01 06:30:00,METAR WADD 010630Z 11014KT 8000 -RA SCT016 30/26 Q1009 TEMPO TL0730 -RA
2026-05-01 06:00:00,METAR WADD 010600Z 11014KT 9999 SCT016 31/26 Q1009 NOSIG
2026-05-01 05:30:00,METAR WADD 010530Z 11012KT 9999 SCT016 31/26 Q1009 NOSIG
2026-05-01 05:00:00,METAR WADD 010500Z 12015KT 9999 FEW015CB SCT016 31/26 Q1010 NOSIG
2026-05-01 04:30:00,METAR WADD 010430Z 10014KT 9999 FEW017 31/26 Q1010 NOSIG
2026-05-01 04:00:00,METAR WADD 010400Z 11010KT 9999 FEW017 31/26 Q1011 NOSIG
2026-05-01 03:30:00,METAR WADD 010330Z 12013KT 9999 FEW017 30/26 Q1011 NOSIG
2026-05-01 03:00:00,METAR WADD 010300Z 11013KT 9999 FEW017 29/26 Q1011 NOSIG
2026-05-01 02:30:00,METAR WADD 010230Z 10010KT 9999 FEW016 31/26 Q1011 NOSIG
2026-05-01 02:00:00,METAR WADD 010200Z 10010KT 9999 FEW016 30/26 Q1011 NOSIG
2026-05-01 01:30:00,METAR WADD 010130Z 10008KT 9999 SCT016 30/26 Q1012 NOSIG
2026-05-01 01:00:00,METAR WADD 010100Z 09009KT 9999 FEW017 29/26 Q1012 NOSIG
2026-05-01 00:30:00,METAR WADD 010030Z 08007KT 9999 FEW016CB SCT016 29/26 Q1011 NOSIG
2026-05-01 00:00:00,METAR WADD 010000Z 06008KT 9999 FEW016CB SCT016 27/26 Q1011 NOSIG
2026-04-30 23:30:00,METAR WADD 302330Z 05008KT 9999 FEW016CB SCT016 27/26 Q1011 NOSIG
2026-04-30 23:00:00,METAR WADD 302300Z 08004KT 9999 FEW016CB BKN016 27/26 Q1010 RETS NOSI G
2026-04-30 22:30:00,METAR WADD 302230Z 06003KT 9999 TS FEW016CB BKN016 27/26 Q1010 TEMPO TL2330 TS
2026-04-30 22:00:00,METAR WADD 302200Z 04004KT 9999 TS FEW016CB BKN016 26/26 Q1010 TEMPO TL2300 TS
2026-04-30 21:30:00,METAR WADD 302130Z 09004KT 9999 FEW016CB SCT016 26/26 Q1010 NOSIG
2026-04-30 21:00:00,METAR WADD 302100Z VRB02KT 9999 FEW016CB SCT016 26/26 Q1010 NOSIG
2026-04-30 20:00:00,METAR WADD 302000Z 10004KT 9999 TS FEW016CB BKN016 26/25 Q1009 RERA N OSIG
2026-04-30 19:30:00,METAR WADD 301930Z 05006KT 6000 -TSRA FEW015CB BKN015 25/25 Q1010 TEM PO TL20030 6000 -TSRA RMK CB IN APCH
2026-04-30 19:05:00,SPECI WADD 301905Z 09017KT 1000 +TSRA FEW015CB BKN015 26/25 Q1010 TEMPO TL2005 1000 +RA RMK CB IN APCH AND CLIMB-OUT
2026-04-30 19:00:00,METAR WADD 301900Z 11014KT 1000 +RA FEW015CB BKN015 27/26 Q1010 TEMPO TL2000 1000 +RA RMK CB IN APCH AND CLIMB-OUT
2026-04-30 18:43:00,SPECI WADD 301843Z 10006KT 1000 +RA FEW015CB BKN015 28/26 Q1010 TEMPO TL1943 1000 +RA RMK CB IN CLIMB-OUT
2026-04-30 18:38:00,SPECI WADD 301838Z 14004KT 3000 RA FEW016CB BKN016 28/26 Q1010 TEMPO TL1938 3000 RA
2026-04-30 18:30:00,METAR WADD 301830Z 14004KT 9999 FEW016CB SCT016 28/26 Q1010 NOSIG
2026-04-30 18:00:00,METAR WADD 301800Z 14004KT 9999 FEW016CB SCT016 27/26 Q1010 NOSIG
2026-04-30 17:30:00,METAR WADD 301730Z 13005KT 9999 FEW016CB SCT016 27/25 Q1010 NOSIG
2026-04-30 17:00:00,METAR WADD 301700Z 14009KT 9999 FEW016CB SCT016 27/25 Q1011 RETS NOSI G
2026-04-30 16:30:00,METAR WADD 301630Z 13014KT 9999 TS FEW016CB SCT016 27/26 Q1011 TEMPO TL1730 TS
2026-04-30 16:00:00,METAR WADD 301600Z 12006KT 9999 TS FEW016CB SCT016 27/25 Q1011 TEMPO TL1700 TS
2026-04-28 15:00:00,METAR WADD 281500Z 13008KT 9999 FEW017 29/27 Q1010 NOSIG
2026-04-28 14:30:00,METAR WADD 281430Z 13009KT 9999 FEW017 29/27 Q1010 NOSIG
2026-04-28 14:00:00,METAR WADD 281400Z 13010KT 9999 FEW017 29/27 Q1010 NOSIG
2026-04-28 13:30:00,METAR WADD 281330Z 13009KT 9999 FEW017 29/27 Q1010 NOSIG
2026-04-28 13:00:00,METAR WADD 281300Z 11011KT 9999 FEW017 29/27 Q1009 NOSIG
2026-04-28 12:30:00,METAR WADD 281230Z 12011KT 9999 FEW017 29/27 Q1009 NOSIG
2026-04-28 12:00:00,METAR WADD 281200Z 13011KT 9999 FEW017 29/27 Q1009 NOSIG
2026-04-28 11:30:00,METAR WADD 281130Z 12011KT 9999 FEW017 29/27 Q1008 NOSIG
2026-04-28 11:00:00,METAR WADD 281100Z 12011KT 9999 FEW017 29/27 Q1008 NOSIG
2026-04-28 10:30:00,METAR WADD 281030Z 12010KT 9999 FEW017 29/27 Q1008 NOSIG
2026-04-28 09:30:00,METAR WADD 280930Z 12013KT 9999 FEW017 30/27 Q1007 NOSIG
2026-04-28 09:00:00,METAR WADD 280900Z 12012KT 9999 FEW017 31/26 Q1006 NOSIG
2026-04-28 08:30:00,METAR WADD 280830Z 11011KT 9999 FEW017 31/26 Q1006 NOSIG
2026-04-28 08:00:00,METAR WADD 280800Z 12009KT 9999 FEW017 31/26 Q1006 NOSIG
2026-04-28 07:30:00,METAR WADD 280730Z 12010KT 9999 FEW017 31/26 Q1006 NOSIG
2026-04-28 07:00:00,METAR WADD 280700Z 10009KT 9999 FEW017 32/26 Q1006 NOSIG
2026-04-28 06:30:00,METAR WADD 280630Z 12009KT 9999 FEW017 31/26 Q1007 NOSIG
2026-04-28 06:00:00,METAR WADD 280600Z 11010KT 9999 FEW017 32/26 Q1007 NOSIG
2026-04-28 05:30:00,METAR WADD 280530Z 13008KT 9999 FEW017 32/27 Q1007 NOSIG
2026-04-28 05:00:00,METAR WADD 280500Z 11010KT 9999 FEW017 32/26 Q1008 NOSIG
2026-04-28 04:30:00,METAR WADD 280430Z 12011KT 9999 FEW016 31/26 Q1009 NOSIG
2026-04-28 04:00:00,METAR WADD 280400Z 29004KT 220V320 9999 FEW015 32/26 Q1009 NOSIG
2026-04-28 03:30:00,METAR WADD 280330Z 34008KT 300V080 9999 FEW015 32/26 Q1009 NOSIG
2026-04-28 03:00:00,METAR WADD 280300Z 11007KT 9999 FEW016 31/26 Q1010 NOSIG
2026-04-28 02:30:00,METAR WADD 280230Z 10004KT 040V140 9999 FEW016 31/26 Q1010 NOSIG
2026-04-28 02:00:00,METAR WADD 280200Z 09006KT 9999 SCT015 29/26 Q1010 NOSIG
2026-04-28 01:30:00,METAR WADD 280130Z 11005KT 9999 FEW016 28/26 Q1010 NOSIG
2026-04-28 01:00:00,METAR WADD 280100Z 06005KT 030V100 9999 FEW016 27/26 Q1009 NOSIG
2026-04-28 00:30:00,METAR WADD 280030Z 36003KT 9000 BKN016 26/26 Q1008 RERA NOSIG
2026-04-28 00:00:00,METAR WADD 280000Z 11003KT 8000 -RA BKN015 26/25 Q1009 TEMPO TL0100 - RA
2026-04-27 23:30:00,METAR WADD 272330Z 11004KT 8000 -RA FEW015CB BKN015 25/25 Q1009 TEMPO TL2430 -RA
2026-04-27 23:00:00,METAR WADD 272300Z 05004KT 8000 -RA FEW015CB BKN015 25/24 Q1009 TEMPO TL2400 -RA
2026-04-27 22:30:00,METAR WADD 272230Z 05006KT 7000 -RA FEW015CB BKN015 25/24 Q1009 TEMPO TL2330 -RA
2026-04-27 22:00:00,METAR WADD 272200Z 05006KT 8000 -RA FEW015CB BKN015 26/25 Q1009 TEMPO TL2300 -RA
2026-04-27 21:30:00,METAR WADD 272130Z 05006KT 8000 -RA FEW015CB BKN015 26/25 Q1008 TEMPO TL2230 -RA
2026-04-27 21:00:00,METAR WADD 272100Z 06007KT 8000 -RA FEW015CB BKN015 26/26 Q1009 TEMPO TL2200 -RA
2026-04-27 20:30:00,METAR WADD 272030Z 08007KT 9999 SCT016 26/25 Q1008 NOSIG
2026-04-27 20:00:00,METAR WADD 272000Z 07005KT 9999 SCT016 26/25 Q1008 NOSIG
2026-04-27 19:30:00,METAR WADD 271930Z 08004KT 9999 BKN016 26/25 Q1008 NOSIG
2026-04-27 19:00:00,METAR WADD 271900Z 05004KT 9999 BKN016 26/25 Q1008 RERA NOSIG
2026-04-27 18:30:00,METAR WADD 271830Z 36004KT 7000 -RA FEW015CB BKN015 26/25 Q1009 TEMPO TL1930 -RA
2026-04-27 18:00:00,METAR WADD 271800Z 35006KT 7000 -RA FEW015CB BKN015 26/25 Q1009 TEMPO TL1900 -RA
2026-04-27 17:30:00,METAR WADD 271730Z 35007KT 4000 RA FEW015CB BKN015 26/26 Q1009 TEMPO TL1830 7000 -RA RMK CB IN APCH AND CLIMB-OUT
2026-04-27 17:24:00,SPECI WADD 271724Z 32006KT 300V020 4000 RA FEW015CB BKN015 26/26 Q1009 TEMPO TL1842 7000 -RA
2026-04-27 17:00:00,METAR WADD 271700Z 32006KT 300V020 9999 FEW015CB BKN015 26/26 Q1009 N OSIG
2026-04-27 16:30:00,METAR WADD 271630Z 31005KT 270V360 9999 FEW015CB BKN016 27/26 Q1010 R ERA NOSIG
2026-04-27 16:00:00,METAR WADD 271600Z VRB02KT 8000 -RA FEW015CB BKN015 27/26 Q1010 T EMPO TL1700 -RA RMK CB IN APCH
2026-04-27 15:45:00,SPECI WADD 271545Z COR 30004KT 5000 RA FEW015CB BKN015 27/26 Q1010 TEMPO TL1645 8000 -RA
2026-04-27 15:30:00,METAR WADD 271530Z 32003KT 9999 SCT016 27/26 Q1010 NOSIG
2026-04-27 15:00:00,METAR WADD 271500Z 28002KT 9999 SCT016 27/26 Q1010 NOSIG
2026-04-27 14:30:00,METAR WADD 271430Z VRB03KT 9999 SCT016 27/25 Q1010 NOSIG
2026-04-27 14:00:00,METAR WADD 271400Z VRB02KT 9999 SCT016 27/25 Q1010 NOSIG
2026-04-27 13:30:00,METAR WADD 271330Z 20002KT 9999 SCT016 27/26 Q1010 NOSIG
2026-04-27 13:00:00,METAR WADD 271300Z 02003KT 9999 BKN015 26/25 Q1010 RETSRA NOSIG
2026-04-27 12:30:00,METAR WADD 271230Z 36005KT 340V050 6000 -TSRA FEW015CB BKN015 27/25 Q1010 TEMPO TL1330 -TSRA RMK CB IN APCH AND CLIMB-OUT
2026-04-27 12:15:00,SPECI WADD 271215Z 36006KT 330V050 7000 -TSRA FEW015CB BKN015 26/25 Q1009 TEMPO TL1315 -TSRA RMK CB IN CLIMB-OUT
2026-04-27 12:00:00,METAR WADD 271200Z 33006KT 300V030 9999 FEW015CB BKN015 26/25 Q1009 R ERA NOSIG
2026-04-27 11:30:00,METAR WADD 271130Z 18005KT 7000 -RA FEW015CB BKN015 28/26 Q1009 NOSIG RMK CB IN APCH
2026-04-27 11:00:00,METAR WADD 271100Z 18004KT 7000 -RA FEW015CB BKN015 28/26 Q1009 NOSIG RMK CB IN APCH
2026-04-27 10:30:00,METAR WADD 271030Z VRB02KT 7000 -RA FEW015CB BKN015 28/26 Q1008 NOSIG RMK CB IN APCH
2026-04-27 10:00:00,METAR WADD 271000Z 13005KT 7000 -RA FEW015CB BKN015 28/26 Q1008 NOSIG RMK CB IN APCH
2026-04-27 09:30:00,METAR WADD 270930Z 13009KT 8000 -RA FEW015CB SCT015 29/27 Q1007 NOSIG RMK CB IN APCH
2026-04-27 09:11:00,SPECI WADD 270911Z 14011KT 8000 -RA FEW015CB SCT015 30/27 Q1007 NOSIG RMK CB IN APCH
2026-04-27 09:00:00,METAR WADD 270900Z 14011KT 9999 FEW015CB SCT015 30/27 Q1007 NOSIG
2026-04-27 08:30:00,METAR WADD 270830Z 14014KT 9999 SCT016 30/26 Q1007 NOSIG
2026-04-27 08:00:00,METAR WADD 270800Z 13010KT 9999 SCT016 30/26 Q1006 NOSIG
2026-04-27 07:30:00,METAR WADD 270730Z 14012KT 9999 FEW017 31/26 Q1006 NOSIG
2026-04-27 07:00:00,METAR WADD 270700Z 13011KT 9999 FEW017 31/26 Q1006 NOSIG
2026-04-27 06:30:00,METAR WADD 270630Z 13011KT 9999 FEW017 31/27 Q1007 NOSIG
2026-04-27 06:00:00,METAR WADD 270600Z 13010KT 080V150 9999 FEW017 32/27 Q1007 NOSIG
2026-04-27 05:30:00,METAR WADD 270530Z 12011KT 9999 FEW015 32/27 Q1007 NOSIG
2026-04-27 05:00:00,METAR WADD 270500Z 12010KT 9999 FEW016 32/27 Q1007 NOSIG
2026-04-27 04:30:00,METAR WADD 270430Z 11011KT 9999 FEW016 31/26 Q1007 NOSIG
2026-04-27 04:00:00,METAR WADD 270400Z 11010KT 9999 FEW016 31/26 Q1008 NOSIG
2026-04-27 03:30:00,METAR WADD 270330Z 11008KT 9999 FEW016 32/26 Q1008 NOSIG
2026-04-27 03:00:00,METAR WADD 270300Z 13008KT 9999 FEW016 31/26 Q1008 NOSIG
2026-04-27 02:30:00,METAR WADD 270230Z 11006KT 9999 FEW016 31/26 Q1009 NOSIG
2026-04-27 02:00:00,METAR WADD 270200Z 14005KT 100V180 9999 FEW016 31/26 Q1009 NOSIG
2026-04-27 01:30:00,METAR WADD 270130Z 18004KT 9999 FEW016 30/26 Q1009 NOSIG
2026-04-27 01:00:00,METAR WADD 270100Z 15003KT 9999 FEW016 29/26 Q1009 NOSIG
2026-04-27 00:30:00,METAR WADD 270030Z VRB01KT 9999 FEW016 27/26 Q1009 NOSIG
2026-04-27 00:00:00,METAR WADD 270000Z 03004KT 9999 FEW016 26/25 Q1009 NOSIG
2026-04-26 23:30:00,METAR WADD 262330Z 04006KT 9999 BKN015 25/25 Q1009 NOSIG
2026-04-26 23:00:00,METAR WADD 262300Z 04006KT 9999 BKN015 25/24 Q1009 RERA NOSIG
2026-04-26 22:30:00,METAR WADD 262230Z 08004KT 7000 -RA BKN015 24/24 Q1009 TEMPO TL2330 - RA
2026-04-26 22:00:00,METAR WADD 262200Z 13008KT 7000 -RA FEW015CB BKN015 25/24 Q1009 R ETS TEMPO TL2330 -RA
2026-04-26 21:30:00,METAR WADD 262130Z 10003KT 4000 TSRA FEW015CB BKN015 25/25 Q1009 TEMP O TL2230 6000 -TSRA
2026-04-26 21:00:00,METAR WADD 262100Z 33006KT 6000 -TSRA FEW015CB BKN015 26/25 Q1009 TEMPO TL2230 -TSRA
2026-04-26 20:30:00,METAR WADD 262030Z 32003KT 7000 -RA FEW015CB BKN015 26/25 Q1009 TEMPO TL2130 -RA
2026-04-26 20:00:00,METAR WADD 262000Z 31004KT 7000 -RA BKN015 25/25 Q1009 TEMPO TL2130 -RA
2026-04-26 19:30:00,METAR WADD 261930Z 36002KT 7000 -RA BKN015 26/25 Q1009 TEMPO TL2030 - RA
2026-04-26 19:08:00,SPECI WADD 261908Z VRB01G13KT 6000 -RA BKN015 27/25 Q1009 TEMPO TL2030 -RA
2026-04-26 19:00:00,METAR WADD 261900Z 18005KT 3000 RA BKN015 27/25 Q1009 TEMPO TL2030 6000 -RA
2026-04-26 18:30:00,METAR WADD 261830Z VRB02KT 9999 SCT016 26/25 Q1009 NOSIG
2026-04-26 18:00:00,METAR WADD 261800Z 30003KT 9999 SCT016 26/24 Q1009 NOSIG
2026-04-26 17:30:00,METAR WADD 261730Z VRB01KT 9999 SCT016 25/24 Q1009 NOSIG
2026-04-26 17:00:00,METAR WADD 261700Z VRB01KT 9999 SCT016 25/24 Q1009 NOSIG
2026-04-26 16:30:00,METAR WADD 261630Z VRB01KT 9999 SCT016 26/24 Q1010 NOSIG
2026-04-26 16:00:00,METAR WADD 261600Z 05003KT 9999 SCT016 26/24 Q1010 RERA NOSIG
2026-04-26 15:30:00,METAR WADD 261530Z 03005KT 7000 -RA BKN015 26/25 Q1010 TEMPO TL1630 -RA
2026-04-26 15:00:00,METAR WADD 261500Z 05007KT 7000 -RA FEW015CB BKN015 26/25 Q1011 TEMPO TL1600 -RA RMK CB IN APCH
2026-04-26 14:30:00,METAR WADD 261430Z 02007KT 340V040 5000 -RA FEW015CB BKN015 28/26 Q1011 TEMPO TL1600 -RA RMK CB IN CLIMB-OUT
2026-04-26 14:24:00,SPECI WADD 261424Z COR 10006KT 5000 -RA FEW015CB BKN015 28/26 Q1011 TEMPO TL1600 -RA RMK CB IN CLIMB-OUT
2026-04-26 14:00:00,METAR WADD 261400Z 10006KT 9000 FEW015CB BKN016 28/26 Q1011 NOSIG RMK CB IN APCH
2026-04-26 13:30:00,METAR WADD 261330Z 13010KT 9000 BKN016 29/26 Q1011 NOSIG
2026-04-26 13:00:00,METAR WADD 261300Z 13007KT 9999 SCT016 29/26 Q1010 NOSIG
2026-04-26 12:30:00,METAR WADD 261230Z 13009KT 9999 SCT016 29/26 Q1010 NOSIG
2026-04-26 12:00:00,METAR WADD 261200Z 13009KT 9999 SCT016 29/26 Q1010 NOSIG
2026-04-26 11:30:00,METAR WADD 261130Z 13007KT 9999 SCT016 29/26 Q1009 NOSIG
2026-04-26 11:00:00,METAR WADD 261100Z 14009KT 9999 SCT016 29/26 Q1009 NOSIG
2026-04-26 10:30:00,METAR WADD 261030Z 13009KT 9999 SCT016 29/26 Q1008 NOSIG
2026-04-26 10:00:00,METAR WADD 261000Z 13008KT 9999 SCT016 29/26 Q1008 NOSIG
2026-04-26 09:30:00,METAR WADD 260930Z 14009KT 9999 SCT016 30/26 Q1008 NOSIG
2026-04-26 09:00:00,METAR WADD 260900Z 12010KT 9999 SCT016 30/26 Q1007 NOSIG
2026-04-26 08:30:00,METAR WADD 260830Z 13010KT 9999 FEW015CB SCT016 30/26 Q1007 NOSIG
2026-04-26 08:00:00,METAR WADD 260800Z 12009KT 9999 FEW015CB SCT016 31/26 Q1007 NOSIG
2026-04-26 07:30:00,METAR WADD 260730Z 14011KT 9999 FEW016CB SCT017 31/26 Q1006 NOSIG
2026-04-26 07:00:00,METAR WADD 260700Z 14009KT 9999 FEW017 32/26 Q1007 NOSIG
2026-04-26 06:30:00,METAR WADD 260630Z 16010KT 9999 FEW017 32/26 Q1006 NOSIG
2026-04-26 06:00:00,METAR WADD 260600Z 17010KT 9999 FEW017 32/26 Q1007 NOSIG
2026-04-26 05:30:00,METAR WADD 260530Z 15006KT 100V200 9999 FEW016 33/26 Q1007 NOSIG
2026-04-26 05:00:00,METAR WADD 260500Z 18005KT 080V250 9999 FEW016 33/26 Q1007 NOSIG
2026-04-26 04:30:00,METAR WADD 260430Z 26009KT 9999 FEW016 31/27 Q1008 NOSIG
2026-04-26 04:00:00,METAR WADD 260400Z 25008KT 210V290 9999 FEW016 31/27 Q1008 NOSIG
2026-04-26 03:30:00,METAR WADD 260330Z 26007KT 220V280 9999 FEW016 31/27 Q1009 NOSIG
2026-04-26 03:00:00,METAR WADD 260300Z 26007KT 9999 FEW016 31/27 Q1009 NOSIG
2026-04-26 02:30:00,METAR WADD 260230Z 23004KT 200V280 9999 FEW016 32/26 Q1009 NOSIG
2026-04-26 02:00:00,METAR WADD 260200Z VRB03KT 9999 FEW016 33/27 Q1010 NOSIG
2026-04-26 01:30:00,METAR WADD 260130Z 33003KT 9999 FEW016 31/26 Q1010 NOSIG
2026-04-26 01:00:00,METAR WADD 260100Z 32005KT 300V010 9999 FEW016 31/26 Q1010 NOSIG
2026-04-26 00:30:00,METAR WADD 260030Z 31005KT 9999 FEW016 30/26 Q1010 NOSIG
2026-04-26 00:00:00,METAR WADD 260000Z 33006KT 9999 FEW016 29/26 Q1010 NOSIG
2026-04-25 23:30:00,METAR WADD 252330Z COR 32005KT 9999 SCT016 28/25 Q1009 NOSIG
2026-04-25 23:00:00,METAR WADD 252300Z 32005KT 9999 FEW017 27/25 Q1009 NOSIG
2026-04-25 22:30:00,METAR WADD 252230Z 35004KT 9999 FEW017 27/25 Q1009 NOSIG
2026-04-25 22:00:00,METAR WADD 252200Z 32005KT 9999 FEW017 27/26 Q1009 NOSIG
2026-04-25 21:30:00,METAR WADD 252130Z 06004KT 310V080 9999 FEW017 27/26 Q1008 NOSIG
2026-04-25 21:00:00,METAR WADD 252100Z 10006KT 9999 FEW017 28/26 Q1008 NOSIG
2026-04-25 20:30:00,METAR WADD 252030Z 12006KT 9999 FEW017 28/26 Q1008 NOSIG
2026-04-25 20:00:00,METAR WADD 252000Z 12008KT 9999 FEW017 28/26 Q1008 NOSIG
2026-04-25 19:30:00,METAR WADD 251930Z 10007KT 9999 FEW017 27/26 Q1008 NOSIG
2026-04-25 19:00:00,METAR WADD 251900Z 13006KT 9999 FEW017 28/26 Q1008 NOSIG
2026-04-25 18:30:00,METAR WADD 251830Z 13008KT 9999 FEW017 28/26 Q1008 NOSIG
2026-04-25 18:00:00,METAR WADD 251800Z 12009KT 9999 FEW017 28/26 Q1009 NOSIG
2026-04-25 17:30:00,METAR WADD 251730Z 13009KT 9999 FEW017 28/26 Q1009 NOSIG
2026-04-25 17:00:00,METAR WADD 251700Z 13008KT 9999 FEW017 28/26 Q1009 NOSIG
2026-04-25 16:30:00,METAR WADD 251630Z 13006KT 9999 FEW017 28/26 Q1010 NOSIG
2026-04-25 16:00:00,METAR WADD 251600Z 13006KT 9999 FEW017 28/27 Q1010 NOSIG
2026-04-25 15:30:00,METAR WADD 251530Z 13006KT 9999 FEW017 28/27 Q1010 NOSIG
2026-04-25 15:00:00,METAR WADD 251500Z 12008KT 9999 FEW017 29/27 Q1011 NOSIG
2026-04-25 14:30:00,METAR WADD 251430Z 10008KT 9999 FEW017 29/26 Q1011 NOSIG
2026-04-25 14:00:00,METAR WADD 251400Z 10007KT 9999 FEW017 28/26 Q1011 NOSIG
2026-04-25 13:30:00,METAR WADD 251330Z 10008KT 9999 SCT017 29/27 Q1011 NOSIG
2026-04-25 13:00:00,METAR WADD 251300Z 11010KT 9999 SCT017 29/27 Q1011 NOSIG
2026-04-25 12:30:00,METAR WADD 251230Z 10009KT 9999 SCT017 29/27 Q1011 NOSIG
2026-04-25 12:00:00,METAR WADD 251200Z 11011KT 9999 SCT017 29/27 Q1010 NOSIG
2026-04-25 11:30:00,METAR WADD 251130Z 10011KT 9999 SCT017 29/27 Q1010 NOSIG
2026-04-25 11:00:00,METAR WADD 251100Z 11011KT 9999 SCT017 29/27 Q1009 NOSIG
2026-04-25 10:30:00,METAR WADD 251030Z 11010KT 9999 SCT017 29/27 Q1009 NOSIG
2026-04-25 10:00:00,METAR WADD 251000Z 11011KT 9999 SCT017 29/27 Q1009 NOSIG
2026-04-25 09:30:00,METAR WADD 250930Z 12012KT 9999 FEW017 30/27 Q1008 NOSIG
2026-04-25 09:00:00,METAR WADD 250900Z 13013KT 9999 FEW017 31/27 Q1008 NOSIG
2026-04-25 08:30:00,METAR WADD 250830Z 14014KT 9999 FEW017 31/27 Q1007 NOSIG
2026-04-25 08:00:00,METAR WADD 250800Z 14013KT 9999 FEW017 31/26 Q1007 NOSIG
2026-04-25 07:30:00,METAR WADD 250730Z 14014KT 9999 FEW017 31/26 Q1007 NOSIG
2026-04-25 07:00:00,METAR WADD 250700Z 14014KT 9999 FEW017 32/26 Q1007 NOSIG
2026-04-25 06:30:00,METAR WADD 250630Z 12013KT 9999 FEW017 32/26 Q1008 NOSIG
2026-04-25 06:00:00,METAR WADD 250600Z 13011KT 9999 FEW017 32/26 Q1008 NOSIG
2026-04-25 05:30:00,METAR WADD 250530Z 10010KT 9999 FEW017 32/27 Q1008 NOSIG
2026-04-25 05:00:00,METAR WADD 250500Z 10010KT 9999 FEW017 33/26 Q1009 NOSIG
2026-04-25 04:30:00,METAR WADD 250430Z 11010KT 9999 FEW017 33/26 Q1009 NOSIG
2026-04-25 04:00:00,METAR WADD 250400Z 10010KT 9999 FEW017 32/26 Q1010 NOSIG
2026-04-25 03:30:00,METAR WADD 250330Z 11008KT 9999 FEW017 32/25 Q1010 NOSIG
2026-04-25 03:00:00,METAR WADD 250300Z 11009KT 9999 FEW017 33/26 Q1011 NOSIG
2026-04-25 02:30:00,METAR WADD 250230Z 11007KT 9999 FEW017 33/26 Q1011 NOSIG
2026-04-25 02:00:00,METAR WADD 250200Z 23003KT 9999 FEW017 32/26 Q1011 NOSIG
2026-04-25 01:30:00,METAR WADD 250130Z 32006KT 300V010 9999 FEW017 32/26 Q1012 NOSIG
2026-04-25 01:00:00,METAR WADD 250100Z 31005KT 270V350 9999 FEW017 32/26 Q1012 NOSIG
2026-04-25 00:30:00,METAR WADD 250030Z 31004KT 250V330 9999 FEW017 30/26 Q1012 NOSIG
2026-04-25 00:00:00,METAR WADD 250000Z 35004KT 9999 FEW017 29/25 Q1011 NOSIG
2026-04-24 23:30:00,METAR WADD 242330Z 01004KT 330V050 9999 FEW017 28/25 Q1011 NOSIG
2026-04-24 23:00:00,METAR WADD 242300Z 01005KT 9999 FEW017 27/25 Q1011 NOSIG
2026-04-24 22:30:00,METAR WADD 242230Z 02004KT 9999 FEW017 26/25 Q1010 NOSIG
2026-04-24 22:00:00,METAR WADD 242200Z 01005KT 9999 FEW017 26/25 Q1010 NOSIG
2026-04-24 21:30:00,METAR WADD 242130Z 03003KT 9999 FEW017 27/25 Q1009 NOSIG
2026-04-24 21:00:00,METAR WADD 242100Z 09005KT 9999 FEW017 27/26 Q1009 NOSIG
2026-04-24 20:30:00,METAR WADD 242030Z 11007KT 9999 FEW017 28/27 Q1009 NOSIG
2026-04-24 20:00:00,METAR WADD 242000Z 11007KT 9999 FEW017 28/27 Q1009 NOSIG
2026-04-24 19:30:00,METAR WADD 241930Z 11007KT 9999 FEW017 28/27 Q1009 NOSIG
2026-04-24 19:00:00,METAR WADD 241900Z 12009KT 9999 FEW017 28/27 Q1009 NOSIG
2026-04-24 18:30:00,METAR WADD 241830Z 11008KT 9999 FEW017 28/27 Q1009 NOSIG
2026-04-24 18:00:00,METAR WADD 241800Z 11007KT 9999 FEW017 28/27 Q1009 NOSIG
2026-04-24 17:30:00,METAR WADD 241730Z 09008KT 9999 FEW017 28/26 Q1009 NOSIG
2026-04-24 17:00:00,METAR WADD 241700Z 09007KT 9999 FEW017 28/26 Q1010 NOSIG
2026-04-24 16:30:00,METAR WADD 241630Z 11007KT 9999 FEW017 28/27 Q1010 NOSIG
2026-04-24 16:00:00,METAR WADD 241600Z 09004KT 9999 FEW017 28/26 Q1010 NOSIG
2026-04-24 15:30:00,METAR WADD 241530Z 09006KT 9999 FEW017 28/26 Q1010 NOSIG
2026-04-24 15:00:00,METAR WADD 241500Z 09006KT 9999 FEW017 28/27 Q1010 NOSIG
2026-04-24 14:30:00,METAR WADD 241430Z 06008KT 9999 FEW017 28/27 Q1010 NOSIG
2026-04-24 14:00:00,METAR WADD 241400Z 08008KT 9999 FEW017 28/27 Q1010 NOSIG
2026-04-24 13:30:00,METAR WADD 241330Z 15009KT 9999 FEW017 29/27 Q1010 NOSIG
2026-04-24 13:00:00,METAR WADD 241300Z 14009KT 9999 FEW017 29/27 Q1010 NOSIG
2026-04-24 12:30:00,METAR WADD 241230Z 13008KT 9999 FEW017 29/27 Q1009 NOSIG
2026-04-24 12:00:00,METAR WADD 241200Z 13009KT 9999 FEW017 29/27 Q1009 NOSIG
2026-04-24 11:30:00,METAR WADD 241130Z 14009KT 9999 FEW017 29/27 Q1009 NOSIG
2026-04-24 11:00:00,METAR WADD 241100Z 14009KT 9999 FEW017 29/27 Q1008 NOSIG
2026-04-24 10:30:00,METAR WADD 241030Z 15011KT 9999 FEW017 29/27 Q1008 NOSIG
2026-04-24 10:00:00,METAR WADD 241000Z 15010KT 9999 FEW017 29/27 Q1008 NOSIG
2026-04-24 09:30:00,METAR WADD 240930Z 17010KT 9999 FEW017 30/27 Q1007 NOSIG
2026-04-24 09:00:00,METAR WADD 240900Z 17011KT 9999 FEW017 30/27 Q1007 NOSIG
2026-04-24 08:30:00,METAR WADD 240830Z 17007KT 9999 FEW017 31/26 Q1006 NOSIG
2026-04-24 08:00:00,METAR WADD 240800Z 17006KT 9999 FEW017 32/26 Q1006 NOSIG
2026-04-24 07:30:00,METAR WADD 240730Z 22007KT 170V240 9999 FEW016CB SCT017 32/27 Q1006 N OSIG
2026-04-24 07:00:00,METAR WADD 240700Z 23009KT 9999 FEW017 32/27 Q1006 NOSIG
2026-04-24 06:30:00,METAR WADD 240630Z 24008KT 9999 FEW017 32/27 Q1006 NOSIG
2026-04-24 06:00:00,METAR WADD 240600Z 22005KT 110V290 9999 FEW017 32/26 Q1007 NOSIG
2026-04-24 05:30:00,METAR WADD 240530Z 11008KT 9999 FEW017 33/26 Q1007 NOSIG
2026-04-24 05:00:00,METAR WADD 240500Z 11010KT 9999 FEW017 32/26 Q1007 NOSIG
2026-04-24 04:30:00,METAR WADD 240430Z 12010KT 9999 FEW017 32/26 Q1008 NOSIG
2026-04-24 04:00:00,METAR WADD 240400Z 12009KT 9999 FEW017 32/26 Q1008 NOSIG
2026-04-24 03:30:00,METAR WADD 240330Z 11008KT 9999 FEW017 32/27 Q1008 NOSIG
2026-04-24 03:00:00,METAR WADD 240300Z 12009KT 9999 FEW017 32/26 Q1009 NOSIG
2026-04-24 02:30:00,METAR WADD 240230Z 11006KT 9999 FEW017 33/26 Q1009 NOSIG
2026-04-24 02:00:00,METAR WADD 240200Z VRB03KT 9999 FEW017 32/26 Q1009 NOSIG
2026-04-24 01:30:00,METAR WADD 240130Z VRB02KT 9999 FEW017 31/26 Q1009 NOSIG
2026-04-24 01:00:00,METAR WADD 240100Z 27003KT 9999 FEW017 31/26 Q1009 NOSIG
2026-04-24 00:30:00,METAR WADD 240030Z 34003KT 9999 FEW017 29/26 Q1009 NOSIG
2026-04-24 00:00:00,METAR WADD 240000Z 36005KT 9999 FEW017 28/25 Q1009 NOSIG
2026-04-23 23:30:00,METAR WADD 232330Z 35006KT 320V040 9999 FEW017 27/25 Q1009 NOSIG
2026-04-23 23:00:00,METAR WADD 232300Z 34003KT 9999 FEW017 26/25 Q1009 NOSIG
2026-04-23 22:30:00,METAR WADD 232230Z 01004KT 9999 FEW017 26/25 Q1008 NOSIG
2026-04-23 22:00:00,METAR WADD 232200Z 02003KT 9999 SCT017 26/25 Q1008 NOSIG
2026-04-23 21:30:00,METAR WADD 232130Z 35003KT 9999 SCT017 26/25 Q1008 NOSIG
2026-04-23 21:00:00,METAR WADD 232100Z 35002KT 9999 SCT017 26/25 Q1008 NOSIG
2026-04-23 20:30:00,METAR WADD 232030Z 01004KT 9999 SCT017 26/25 Q1008 NOSIG
2026-04-23 20:00:00,METAR WADD 232000Z 01002KT 9999 SCT017 26/25 Q1008 NOSIG
2026-04-23 19:30:00,METAR WADD 231930Z 09004KT 9999 FEW017 27/25 Q1008 NOSIG
2026-04-23 19:00:00,METAR WADD 231900Z 10005KT 9999 FEW017 27/25 Q1008 NOSIG
2026-04-23 18:30:00,METAR WADD 231830Z 10005KT 9999 FEW017 27/26 Q1008 NOSIG
2026-04-23 18:00:00,METAR WADD 231800Z 15005KT 9999 FEW017 27/26 Q1009 NOSIG
2026-04-23 17:30:00,METAR WADD 231730Z 12003KT 9999 FEW017 27/26 Q1009 NOSIG
2026-04-23 17:00:00,METAR WADD 231700Z 09006KT 9999 FEW017 27/26 Q1009 NOSIG
2026-04-23 16:30:00,METAR WADD 231630Z 11005KT 9999 FEW017 27/26 Q1009 NOSIG
2026-04-23 16:00:00,METAR WADD 231600Z 10006KT 9999 FEW017 28/26 Q1010 NOSIG
2026-04-23 15:30:00,METAR WADD 231530Z 11005KT 9999 FEW017 28/26 Q1010 NOSIG
2026-04-23 15:00:00,METAR WADD 231500Z 11004KT 9999 FEW017 28/26 Q1010 NOSIG
2026-04-23 14:30:00,METAR WADD 231430Z 12006KT 9999 FEW017 28/26 Q1010 NOSIG
2026-04-23 14:00:00,METAR WADD 231400Z 14007KT 9999 FEW017 28/26 Q1010 NOSIG
2026-04-23 13:30:00,METAR WADD 231330Z 11008KT 9999 FEW017 28/26 Q1010 NOSIG
2026-04-23 13:00:00,METAR WADD 231300Z 11007KT 9999 FEW017 28/26 Q1010 NOSIG
2026-04-23 12:30:00,METAR WADD 231230Z 11008KT 9999 FEW017 28/26 Q1009 NOSIG
2026-04-23 12:00:00,METAR WADD 231200Z 12007KT 9999 FEW017 28/26 Q1009 NOSIG
2026-04-23 11:30:00,METAR WADD 231130Z 12007KT 9999 FEW017 28/26 Q1008 NOSIG
2026-04-23 11:00:00,METAR WADD 231100Z 12007KT 9999 FEW017 28/26 Q1008 NOSIG
2026-04-23 10:30:00,METAR WADD 231030Z 12007KT 9999 FEW017 29/26 Q1007 NOSIG
2026-04-23 10:00:00,METAR WADD 231000Z 10007KT 9999 FEW017 29/26 Q1007 NOSIG
2026-04-23 09:30:00,METAR WADD 230930Z 12008KT 9999 FEW017 30/26 Q1007 NOSIG
2026-04-23 09:00:00,METAR WADD 230900Z 11009KT 9999 FEW017 30/26 Q1007 NOSIG
2026-04-23 08:00:00,METAR WADD 230800Z 13009KT 9999 FEW017 31/26 Q1006 NOSIG
2026-04-23 07:30:00,METAR WADD 230730Z 10009KT 9999 FEW017 31/26 Q1006 NOSIG
2026-04-23 07:00:00,METAR WADD 230700Z 09009KT 9999 FEW017 31/25 Q1006 NOSIG
2026-04-23 06:30:00,METAR WADD 230630Z 10009KT FEW016TCU 31/25 Q1007 NOSIG
2026-04-23 06:00:00,METAR WADD 230600Z 11007KT 9999 FEW017TCU 31/26 Q1007 NOSIG
2026-04-23 05:30:00,METAR WADD 230530Z 11008KT 9999 FEW017TCU 32/26 Q1007 NOSIG
2026-04-23 05:00:00,METAR WADD 230500Z 12010KT 9999 FEW017TCU 31/26 Q1008 NOSIG
2026-04-23 04:30:00,METAR WADD 230430Z 12009KT 9999 FEW017 31/26 Q1009 NOSIG
2026-04-23 04:00:00,METAR WADD 230400Z 12009KT 9999 FEW017 31/26 Q1009 NOSIG
2026-04-23 03:30:00,METAR WADD 230330Z 12011KT 9999 FEW017 30/26 Q1009 NOSIG
2026-04-23 03:00:00,METAR WADD 230300Z 11009KT 9999 FEW017 31/26 Q1010 NOSIG
2026-04-23 02:30:00,METAR WADD 230230Z 11009KT 9999 FEW017 30/26 Q1010 NOSIG
2026-04-23 02:00:00,METAR WADD 230200Z 11011KT 9999 FEW018 30/26 Q1010 NOSIG
2026-04-23 01:30:00,METAR WADD 230130Z 10010KT 9999 FEW018 29/25 Q1010 NOSIG
2026-04-23 01:00:00,METAR WADD 230100Z 11008KT 9999 FEW018 29/26 Q1010 NOSIG
2026-04-23 00:30:00,METAR WADD 230030Z 10006KT 9999 FEW018 28/25 Q1010 NOSIG
2026-04-23 00:00:00,METAR WADD 230000Z 08006KT 9999 FEW018 27/25 Q1010 NOSIG
2026-04-22 23:30:00,METAR WADD 222330Z VRB02KT 9999 FEW017 26/24 Q1009 NOSIG
2026-04-22 23:00:00,METAR WADD 222300Z 08003KT 9999 FEW017 25/23 Q1009 NOSIG
2026-04-22 22:30:00,METAR WADD 222230Z 08003KT 9999 FEW017 24/23 Q1009 NOSIG
2026-04-22 22:00:00,METAR WADD 222200Z 07004KT 9999 FEW017 24/23 Q1008 NOSIG
2026-04-22 21:30:00,METAR WADD 222130Z 06003KT 9999 FEW017 25/23 Q1008 NOSIG
2026-04-22 21:00:00,METAR WADD 222100Z 03004KT 9999 FEW017 25/24 Q1008 NOSIG
2026-04-22 20:30:00,METAR WADD 222030Z 06004KT 9999 FEW017 25/24 Q1008 NOSIG
2026-04-22 20:00:00,METAR WADD 222000Z 09005KT 9999 FEW017 25/24 Q1008 NOSIG
2026-04-22 19:30:00,METAR WADD 221930Z 09004KT 9999 FEW017 26/24 Q1008 NOSIG
2026-04-22 19:00:00,METAR WADD 221900Z 13006KT 9999 FEW017 26/25 Q1008 NOSIG
2026-04-22 18:30:00,METAR WADD 221830Z 09003KT 9999 FEW017 26/24 Q1009 NOSIG
2026-04-22 18:00:00,METAR WADD 221800Z 13003KT 9999 FEW017 26/24 Q1009 NOSIG
2026-04-22 17:30:00,METAR WADD 221730Z 09003KT 9999 FEW017 26/24 Q1009 NOSIG
2026-04-22 17:00:00,METAR WADD 221700Z 04003KT 9999 FEW017 26/25 Q1010 NOSIG
2026-04-22 16:30:00,METAR WADD 221630Z 36004KT 9999 FEW017 26/25 Q1010 NOSIG
2026-04-22 16:00:00,METAR WADD 221600Z 01003KT 9999 FEW017 26/25 Q1010 NOSIG
2026-04-22 15:30:00,METAR WADD 221530Z 11005KT 9999 FEW017 26/25 Q1010 NOSIG
2026-04-22 15:00:00,METAR WADD 221500Z 11003KT 9999 FEW017 26/25 Q1010 NOSIG
2026-04-22 14:30:00,METAR WADD 221430Z VRB02KT 9999 FEW017 26/25 Q1010 NOSIG
2026-04-22 14:00:00,METAR WADD 221400Z 14003KT 9999 FEW017 27/25 Q1010 NOSIG
2026-04-22 13:30:00,METAR WADD 221330Z 15003KT 9999 FEW017 27/24 Q1010 NOSIG
2026-04-22 13:00:00,METAR WADD 221300Z 07003KT 9999 FEW017 26/24 Q1010 NOSIG
2026-04-22 12:30:00,METAR WADD 221230Z 04005KT 360V060 9999 FEW017 27/24 Q1009 NOSIG
2026-04-22 12:00:00,METAR WADD 221200Z 01005KT 330V040 9999 FEW017 26/25 Q1009 NOSIG
2026-04-22 11:30:00,METAR WADD 221130Z 06007KT 9999 FEW017 26/24 Q1009 NOSIG
2026-04-22 11:00:00,METAR WADD 221100Z 04005KT 010V080 9999 FEW017 26/25 Q1008 NOSIG
2026-04-22 10:30:00,METAR WADD 221030Z 06004KT 9999 FEW017 26/25 Q1008 NOSIG
2026-04-22 10:00:00,METAR WADD 221000Z 01005KT 310V040 9999 FEW017 27/25 Q1008 NOSIG
2026-04-22 09:30:00,METAR WADD 220930Z 11003KT 9999 FEW017 26/25 Q1008 NOSIG
2026-04-22 09:00:00,METAR WADD 220900Z 21003KT 9999 SCT016 26/25 Q1007 RERA NOSIG
2026-04-22 08:30:00,METAR WADD 220830Z 23005KT 9000 -RA BKN016 25/24 Q1007 RETS TEMPO TL0930 -RA
2026-04-22 08:00:00,METAR WADD 220800Z 25007KT 7000 -TSRA FEW014CB BKN014 24/24 Q1007 TEMPO TL0900 7000 -TSRA RMK CB IN CLIMB-OUT
2026-04-22 07:48:00,SPECI WADD 220748Z 25010KT 3000 TSRA FEW013CB BKN013 24/23 Q1008 TEMPO TL0830 3000 TSRA RMK CB IN CLIMB-OUT
2026-04-22 07:42:00,SPECI WADD 220742Z 26010KT 1800 TSRA FEW013CB BKN013 24/23 Q1008 TEMPO TL0830 2000 TSRA RMK CB IN APCH AND CLIMB-OUT
2026-04-22 07:30:00,METAR WADD 220730Z 35012G25KT 0500 1000E +TSRA FEW013CB BKN013 25/24 Q1008 TEMPO TL0830 VIS 0500 1000E +TSRA RMK CB IN APCH AND CLIMB-OUT
2026-04-22 07:00:00,METAR WADD 220700Z 11008KT 9000 TS FEW014CB BKN014 30/26 Q1007 TEMPO TL0800 TS
2026-04-22 06:30:00,METAR WADD 220630Z 18005KT 9999 TS FEW015CB SCT016 32/26 Q1007 TEMPO TL0730 TS
2026-04-22 06:17:00,SPECI WADD 220617Z 18004KT 9999 TS FEW015CB SCT016 32/26 Q1007 TEMPO TL0730 TS
2026-04-22 06:00:00,METAR WADD 220600Z 15007KT 110V180 9999 FEW016CB FEW017 32/26 Q1007 N OSIG
2026-04-22 05:30:00,METAR WADD 220530Z 13007KT 090V160 9999 FEW017 32/26 Q1007 NOSIG
2026-04-22 05:00:00,METAR WADD 220500Z 11009KT 9999 FEW017 32/26 Q1008 NOSIG
2026-04-22 04:30:00,METAR WADD 220430Z 11007KT 9999 FEW017 31/26 Q1008 NOSIG
2026-04-22 04:00:00,METAR WADD 220400Z 13006KT 9999 FEW017 33/27 Q1008 NOSIG
2026-04-22 03:30:00,METAR WADD 220330Z 12005KT 090V160 9999 FEW017 32/26 Q1009 NOSIG
2026-04-22 03:00:00,METAR WADD 220300Z 13008KT 090V150 9999 FEW017 31/26 Q1009 NOSIG
2026-04-22 02:30:00,METAR WADD 220230Z 25006KT 9999 FEW017 30/26 Q1010 NOSIG
2026-04-22 02:00:00,METAR WADD 220200Z 24004KT 220V280 9999 FEW017 30/26 Q1009 NOSIG
2026-04-22 01:30:00,METAR WADD 220130Z 27004KT 240V310 9999 FEW017 30/25 Q1009 NOSIG
2026-04-22 01:00:00,METAR WADD 220100Z 26003KT 9999 FEW017 31/25 Q1009 NOSIG
2026-04-22 00:30:00,METAR WADD 220030Z VRB02KT 9999 FEW017 29/26 Q1008 NOSIG
2026-04-22 00:00:00,METAR WADD 220000Z 15003KT 9999 FEW017 28/26 Q1008 NOSIG
2026-04-21 23:30:00,METAR WADD 212330Z 02003KT 9999 FEW017 26/25 Q1008 NOSIG
2026-04-21 23:00:00,METAR WADD 212300Z 01003KT 9999 FEW017 26/25 Q1008 NOSIG
2026-04-21 22:30:00,METAR WADD 212230Z VRB01KT 9999 FEW017 25/24 Q1007 NOSIG
2026-04-21 22:00:00,METAR WADD 212200Z VRB02KT 9999 FEW017 25/25 Q1007 NOSIG
2026-04-21 21:30:00,METAR WADD 212130Z VRB01KT 9999 FEW017 25/25 Q1007 NOSIG
2026-04-21 21:00:00,METAR WADD 212100Z VRB01KT 9999 FEW017 25/25 Q1007 NOSIG
2026-04-21 20:30:00,METAR WADD 212030Z 03002KT 9999 FEW017 25/25 Q1007 NOSIG
2026-04-21 20:00:00,METAR WADD 212000Z VRB02KT 9999 FEW017 25/25 Q1007 NOSIG
2026-04-21 19:30:00,METAR WADD 211930Z VRB02KT 9999 FEW017 25/25 Q1007 NOSIG
2026-04-21 19:00:00,METAR WADD 211900Z VRB01KT 9999 FEW017 25/25 Q1007 NOSIG
2026-04-21 18:30:00,METAR WADD 211830Z VRB01KT 9999 FEW017 25/25 Q1007 NOSIG
2026-04-21 18:00:00,METAR WADD 211800Z VRB01KT 9999 FEW017 25/25 Q1008 NOSIG
2026-04-21 17:30:00,METAR WADD 211730Z 15002KT 9999 SCT016 26/26 Q1008 NOSIG
2026-04-21 17:00:00,METAR WADD 211700Z 15003KT 9999 SCT016 26/26 Q1009 NOSIG
2026-04-21 16:30:00,METAR WADD 211630Z VRB02KT 9999 SCT016 26/26 Q1009 NOSIG
2026-04-21 16:00:00,METAR WADD 211600Z VRB02KT 9999 SCT016 26/26 Q1009 NOSIG
2026-04-21 15:30:00,METAR WADD 211530Z VRB01KT 9999 SCT016 27/26 Q1009 NOSIG
2026-04-21 15:00:00,METAR WADD 211500Z 33003KT 9999 SCT016 27/27 Q1009 NOSIG
2026-04-21 14:30:00,METAR WADD 211430Z 31005KT 9999 SCT016 27/27 Q1009 NOSIG
2026-04-21 14:00:00,METAR WADD 211400Z 26005KT 9999 SCT016 27/26 Q1009 NOSIG
2026-04-21 13:30:00,METAR WADD 211330Z 24003KT 9999 SCT016 26/26 Q1009 NOSIG
2026-04-21 13:00:00,METAR WADD 211300Z VRB01KT 9999 SCT016 27/26 Q1009 NOSIG
2026-04-21 12:30:00,METAR WADD 211230Z VRB02KT 9999 SCT016 27/27 Q1008 NOSIG
2026-04-21 12:00:00,METAR WADD 211200Z 26003KT 9999 SCT016 27/26 Q1008 NOSIG
2026-04-21 11:30:00,METAR WADD 211130Z 23005KT 9999 SCT016 27/25 Q1008 RERA NOSIG
2026-04-21 11:00:00,METAR WADD 211100Z 24004KT 8000 -RA SCT016 28/25 Q1008 TEMPO TL1200 -RA
2026-04-21 10:46:00,SPECI WADD 211046Z COR 24003KT 8000 -RA SCT016 28/25 Q1007 TEMPO TL1146 -RA
2026-04-21 10:30:00,METAR WADD 211030Z VRB02KT 9999 SCT016 28/25 Q1007 NOSIG
2026-04-21 10:00:00,METAR WADD 211000Z 11004KT 9999 SCT016 28/25 Q1007 NOSIG
2026-04-21 09:30:00,METAR WADD 210930Z 10003KT 9999 SCT016 28/25 Q1007 NOSIG
2026-04-21 09:00:00,METAR WADD 210900Z 06004KT 9999 SCT016 28/28 Q1006 NOSIG
2026-04-21 08:30:00,METAR WADD 210830Z 10005KT 9999 SCT016 28/28 Q1006 NOSIG
2026-04-21 08:00:00,METAR WADD 210800Z 12004KT 9999 SCT016 28/28 Q1006 NOSIG
2026-04-21 07:30:00,METAR WADD 210730Z 10004KT 9999 FEW015CB SCT016 29/28 Q1006 NOSIG
2026-04-21 07:00:00,METAR WADD 210700Z 09003KT 9999 FEW015CB SCT016 29/29 Q1006 NOSIG
2026-04-21 06:30:00,METAR WADD 210630Z 04003KT 9999 FEW015CB SCT016 28/28 Q1006 NOSIG
2026-04-21 06:00:00,METAR WADD 210600Z VRB03KT 9999 FEW015CB SCT016 27/27 Q1007 RERA NOSI G
2026-04-21 05:30:00,METAR WADD 210530Z VRB01KT 7000 -RA FEW015CB BKN015 26/26 Q1007 TEMPO TL0630 7000 -RA RMK CB IN CLIMB-OUT
2026-04-21 05:16:00,SPECI WADD 210516Z VRB01KT 3000 RA FEW015CB BKN015 25/25 Q1007 RETS TEMPO TL0600 3000 RA RMK CB IN CLIMB-OUT
2026-04-21 05:00:00,METAR WADD 210500Z 34003KT 1500 +TSRA FEW015CB BKN015 26/25 Q1008 TEMPO TL0600 1500 +TSRA RMK CB IN APCH AND CLIMB-OUT
2026-04-21 04:30:00,METAR WADD 210430Z VRB01KT 3000 TSRA FEW015CB BKN015 26/26 Q1008 TEMP O TL0530 3000 TSRA RMK CB IN APCH AND CLIMB-OUT
2026-04-21 04:11:00,SPECI WADD 210411Z 24004KT 210V320 3000 TSRA FEW015CB BKN015 26/26 Q1008 TEMPO TL0500 3000 TSRA RMK CB IN APCH AND CLIMB-OUT
2026-04-21 04:06:00,SPECI WADD 210406Z VRB04KT 1200 +TSRA FEW015CB BKN015 27/26 Q1008 TEMPO TL0500 1200 +TSRA RMK CB IN APCH AND CLIMB-OUT
2026-04-21 04:00:00,METAR WADD 210400Z VRB02KT 0600 +RA FEW015CB BKN015 27/27 Q1009 TEMPO TL0500 0600 +RA RMK CB IN APCH AND CLIMB-OUT
2026-04-21 03:50:00,SPECI WADD 210350Z 02007KT 310V030 0500 +RA FEW015CB BKN015 28/27 Q1009 TEMPO TL0500 0500 +RA RMK CB IN APCH AND CLIMB-OUT
2026-04-21 03:46:00,SPECI WADD 210346Z 02007KT 1500 +RA FEW015CB BKN015 29/29 Q1008 TEMPO TL0500 1500 +RA RMK CB IN APCH AND CLIMB-OUT
2026-04-21 03:42:00,SPECI WADD 210342Z 31008KT 3000 RA FEW015CB BKN015 29/29 Q1008 TEMPO TL0430 3000 RA RMK CB IN APCH AND CLIMB-OUT
2026-04-21 03:39:00,SPECI WADD 210339Z 31008KT 6000 -RA FEW015CB BKN015 29/29 Q1008 TEMPO TL0430 6000 -RA RMK CB IN APCH
2026-04-21 03:30:00,METAR WADD 210330Z 30007KT 8000 FEW015CB BKN015 30/29 Q1008 NOSIG RMK CB IN APCH
2026-04-21 03:00:00,METAR WADD 210300Z 32008KT 9999 FEW015CB SCT016 31/26 Q1009 NOSIG
2026-04-21 02:30:00,METAR WADD 210230Z 34006KT 300V010 9999 SCT016 31/27 Q1009 NOSIG
2026-04-21 02:00:00,METAR WADD 210200Z 31005KT 9999 SCT016 31/27 Q1009 NOSIG
2026-04-21 01:30:00,METAR WADD 210130Z 28005KT 250V320 9999 SCT016 29/27 Q1009 NOSIG
2026-04-21 01:00:00,METAR WADD 210100Z 29005KT 240V310 9999 SCT016 28/26 Q1009 NOSIG
2026-04-21 00:30:00,METAR WADD 210030Z 28004KT 230V310 9999 SCT016 27/26 Q1009 NOSIG
2026-04-21 00:00:00,METAR WADD 210000Z 24003KT 9999 SCT016 27/26 Q1009 NOSIG
2026-04-20 23:30:00,METAR WADD 202330Z 23003KT 9999 SCT016 27/26 Q1009 NOSIG
2026-04-20 23:00:00,METAR WADD 202300Z VRB02KT 9999 FEW015CB SCT015 26/25 Q1008 NOSIG RMK CB IN APCH AND CLIMB-OUT
2026-04-20 22:30:00,METAR WADD 202230Z 26004KT 9999 FEW015CB SCT015 26/25 Q1008 RERA NOSI G RMK CB IN APCH AND CLIMB-OUT
2026-04-20 22:00:00,METAR WADD 202200Z 20004KT 8000 -RA FEW015CB SCT015 26/25 Q1008 TEMPO TL2230 8000 -RA RMK CB IN APCH AND CLIMB-OUT
2026-04-20 21:30:00,METAR WADD 202130Z 28004KT 8000 -RA FEW015CB SCT015 26/25 Q1008 RETS TEMPO TL2230 8000 -RA RMK CB IN APCH AND CLIMB-OUT
2026-04-20 21:00:00,METAR WADD 202100Z 26003KT 8000 -TSRA FEW015CB SCT015 25/25 Q1008 TEMPO TL2130 8000 -TSRA RMK CB IN APCH AND CLIMB-OUT
2026-04-20 20:30:00,METAR WADD 202030Z 27004KT 230V340 8000 -TSRA FEW015CB SCT015 26/26 Q1008 TEMPO TL2130 8000 -TSRA RMK CB IN APCH AND CLIMB-OUT
2026-04-20 20:00:00,METAR WADD 202000Z 01005KT 5000 TSRA FEW015CB SCT015 27/26 Q1008 TEMP O TL2130 5000 TSRA RMK CB IN APCH AND CLIMB-OUT
2026-04-20 19:35:00,SPECI WADD 201935Z 34006KT 8000 TSRA FEW015CB SCT015 27/26 Q1008 NOSIG RMK CB IN APCH AND CLIMB-OUT
2026-04-20 19:30:00,METAR WADD 201930Z 34006KT 9999 FEW015CB SCT015 27/26 Q1008 NOSIG RMK CB IN APCH AND CLIMB-OUT
2026-04-20 19:00:00,METAR WADD 201900Z 33007KT 9999 FEW015CB SCT015 27/26 Q1008 NOSIG RMK CB IN APCH AND CLIMB-OUT
2026-04-20 18:30:00,METAR WADD 201830Z 33006KT 9999 FEW016 27/26 Q1008 NOSIG
2026-04-20 18:00:00,METAR WADD 201800Z 33003KT 9999 FEW016 27/26 Q1009 NOSIG
2026-04-20 17:30:00,METAR WADD 201730Z 33005KT 300V030 9999 FEW016 27/26 Q1009 NOSIG
2026-04-20 17:00:00,METAR WADD 201700Z 24003KT 9999 FEW016 28/27 Q1009 NOSIG
2026-04-20 16:30:00,METAR WADD 201630Z 22003KT 9999 FEW016 28/26 Q1009 NOSIG
2026-04-20 16:00:00,METAR WADD 201600Z VRB01KT 9999 FEW016 28/26 Q1009 NOSIG
2026-04-20 15:30:00,METAR WADD 201530Z 19003KT 9999 FEW016 28/27 Q1009 NOSIG
2026-04-20 15:00:00,METAR WADD 201500Z 16003KT 9999 FEW016 28/26 Q1009 NOSIG
2026-04-20 14:30:00,METAR WADD 201430Z 04003KT 9999 FEW016 28/26 Q1009 NOSIG
2026-04-20 14:00:00,METAR WADD 201400Z 01005KT 350V060 9999 FEW016 28/26 Q1009 NOSIG
2026-04-20 13:30:00,METAR WADD 201330Z 08005KT 9999 FEW016 27/26 Q1010 NOSIG
2026-04-20 13:00:00,METAR WADD 201300Z 10005KT 9999 FEW016 28/26 Q1010 NOSIG
2026-04-20 12:30:00,METAR WADD 201230Z 12006KT 9999 FEW016 28/26 Q1009 NOSIG
2026-04-20 12:00:00,METAR WADD 201200Z 14007KT 9999 FEW016 28/26 Q1009 NOSIG
2026-04-20 11:30:00,METAR WADD 201130Z 15006KT 9999 SCT016 28/26 Q1008 NOSIG
2026-04-20 11:00:00,METAR WADD 201100Z 15008KT 9999 SCT016 29/26 Q1008 NOSIG
2026-04-20 10:30:00,METAR WADD 201030Z 15009KT 9999 SCT016 29/26 Q1008 NOSIG
2026-04-20 10:00:00,METAR WADD 201000Z 15010KT 9999 SCT016 29/26 Q1007 NOSIG
2026-04-20 09:30:00,METAR WADD 200930Z 16011KT 9999 SCT016 30/26 Q1007 NOSIG
2026-04-20 09:00:00,METAR WADD 200900Z 17012KT 9999 SCT016 30/26 Q1007 NOSIG
2026-04-20 08:30:00,METAR WADD 200830Z 17013KT 9999 SCT016 30/26 Q1007 NOSIG
2026-04-20 08:00:00,METAR WADD 200800Z 18012KT 9999 SCT016 31/26 Q1007 NOSIG
2026-04-20 07:30:00,METAR WADD 200730Z 19011KT 9999 SCT016 31/26 Q1007 NOSIG
2026-04-20 07:00:00,METAR WADD 200700Z 19010KT 9999 SCT016 31/26 Q1007 NOSIG
2026-04-20 06:30:00,METAR WADD 200630Z 18008KT 9999 SCT016 31/26 Q1007 NOSIG
2026-04-20 06:00:00,METAR WADD 200600Z 13006KT 090V160 9999 SCT016 33/33 Q1008 NOSIG
2026-04-20 05:30:00,METAR WADD 200530Z VRB05KT 9999 SCT017 32/32 Q1008 NOSIG
2026-04-20 05:00:00,METAR WADD 200500Z 26007KT 9999 SCT017 31/31 Q1009 NOSIG
2026-04-20 04:30:00,METAR WADD 200430Z 25005KT 210V290 9999 FEW017 32/32 Q1009 NOSIG
2026-04-20 04:00:00,METAR WADD 200400Z 25007KT 9999 FEW017 30/27 Q1010 NOSIG
2026-04-20 03:30:00,METAR WADD 200330Z 24006KT 9999 FEW017 31/26 Q1010 NOSIG
2026-04-20 03:00:00,METAR WADD 200300Z 25005KT 9999 FEW017 30/26 Q1011 NOSIG
2026-04-20 02:30:00,METAR WADD 200230Z 24005KT 9999 FEW017 31/27 Q1011 NOSIG
2026-04-20 02:00:00,METAR WADD 200200Z 25004KT 220V290 9999 FEW017 31/26 Q1011 NOSIG
2026-04-20 01:30:00,METAR WADD 200130Z 26004KT 240V320 9999 FEW017 30/26 Q1011 NOSIG
2026-04-20 01:00:00,METAR WADD 200100Z 33003KT 9999 SCT016 29/26 Q1011 NOSIG
2026-04-20 00:30:00,METAR WADD 200030Z VRB03KT 9999 SCT016 28/26 Q1011 NOSIG
2026-04-20 00:00:00,METAR WADD 200000Z VRB01KT 9999 BKN016 27/26 Q1010 NOSIG
2026-04-19 23:30:00,METAR WADD 192330Z VRB02KT 9999 SCT016 27/25 Q1010 NOSIG
2026-04-19 23:12:00,SPECI WADD 192312Z 08005KT 8000 FEW015CB SCT016 26/25 Q1010 RERA NOSIG
2026-04-19 23:00:00,METAR WADD 192300Z 08005KT 5000 -RA FEW015CB SCT016 26/25 Q1010 TEMPO TL2300 5000 -RA
2026-04-19 22:30:00,METAR WADD 192230Z 01004KT 5000 -RA FEW015CB SCT016 26/25 Q1010 TEMPO TL2300 5000 -RA RMK CB IN CLIMB-OUT
2026-04-19 22:20:00,SPECI WADD 192220Z 06004KT 010V070 6000 FEW015CB SCT016 26/24 Q1009 RERA NOSIG RMK CB IN APCH AND CLIMB-OUT
2026-04-19 22:05:00,SPECI WADD 192205Z 06004KT 010V070 3000 RA FEW015CB BKN016 26/24 Q1009 TEMPO TL2300 VIS 3000 RA RMK CB IN APCH
2026-04-19 22:00:00,METAR WADD 192200Z 06004KT 010V070 5000 FBL RA FEW015CB BKN016 26/24 Q1009 TEMPO TL2300 VIS 5KM FBL RA RMK CB IN APCH
2026-04-19 21:30:00,METAR WADD 192130Z 20003KT 6000 FEW015CB BKN016 26/24 Q1009 NOSIG RMK CB IN CLIMB-OUT
2026-04-19 21:00:00,METAR WADD 192100Z 15003KT 8000 BKN016 26/24 Q1009 RERA NOSIG
2026-04-19 20:30:00,METAR WADD 192030Z 03003KT 5000 -RA FEW015CB SCT016 26/24 Q1009 TEMPO TL2100 5000 -RA RMK CB IN CLIMB-OUT
2026-04-19 20:00:00,METAR WADD 192000Z 01002KT 6000 -RA FEW015CB SCT016 27/24 Q1009 RETS TEMPO TL2100 6000 -RA RMK CB IN CLIMB-OUT
2026-04-19 19:30:00,METAR WADD 191930Z 36003KT 8000 TS FEW015CB SCT016 26/23 Q1009 TEMPO TL2000 TS RMK CB IN CLIMB-OUT
2026-04-19 19:00:00,METAR WADD 191900Z 36004KT 9999 TS FEW015CB SCT016 26/23 Q1009 TEMPO TL2000 TS CB IN CLIMB-OUT
2026-04-19 18:30:00,METAR WADD 191830Z 36005KT 9999 FEW016 26/24 Q1009 NOSIG
2026-04-19 18:00:00,METAR WADD 191800Z 36005KT 9999 FEW016 27/24 Q1010 NOSIG
2026-04-19 17:30:00,METAR WADD 191730Z 01004KT 9999 SCT016 27/24 Q1010 NOSIG
2026-04-19 17:00:00,METAR WADD 191700Z 04004KT 010V070 9999 SCT016 27/24 Q1010 NOSIG
2026-04-19 16:30:00,METAR WADD 191630Z VRB02KT 9999 SCT016 27/24 Q1010 NOSIG
2026-04-19 16:00:00,METAR WADD 191600Z 09003KT 9999 BKN016 27/24 Q1011 NOSIG
2026-04-19 15:30:00,METAR WADD 191530Z 09002KT 9999 BKN016 27/24 Q1011 NOSIG
2026-04-19 15:00:00,METAR WADD 191500Z 14003KT 9999 BKN016 27/25 Q1011 NOSIG
2026-04-19 14:30:00,METAR WADD 191430Z 16004KT 9999 FEW017 28/25 Q1011 NOSIG
2026-04-19 14:00:00,METAR WADD 191400Z 12003KT 9999 FEW017 27/25 Q1011 NOSIG
2026-04-19 13:30:00,METAR WADD 191330Z 10004KT 9999 FEW017 27/24 Q1011 NOSIG
2026-04-19 13:00:00,METAR WADD 191300Z 10005KT 9999 FEW017 27/24 Q1010 NOSIG
2026-04-19 12:30:00,METAR WADD 191230Z 11004KT 9999 FEW017 27/24 Q1010 NOSIG
2026-04-19 12:00:00,METAR WADD 191200Z 13007KT 9999 FEW017 28/24 Q1010 NOSIG
2026-04-19 11:30:00,METAR WADD 191130Z 13007KT 9999 FEW017 28/24 Q1009 NOSIG
2026-04-19 11:00:00,METAR WADD 191100Z 14008KT 9999 FEW017 28/24 Q1009 NOSIG
2026-04-19 10:30:00,METAR WADD 191030Z 16010KT 9999 FEW017 28/24 Q1008 NOSIG
2026-04-19 10:00:00,METAR WADD 191000Z 15009KT 9999 FEW017 29/24 Q1008 NOSIG
2026-04-19 09:30:00,METAR WADD 190930Z 16007KT 9999 FEW017 30/24 Q1008 NOSIG
2026-04-19 09:00:00,METAR WADD 190900Z 16011KT 9999 FEW017 30/23 Q1008 NOSIG
2026-04-19 08:30:00,METAR WADD 190830Z 16010KT 9999 FEW017 31/23 Q1008 NOSIG
2026-04-19 08:00:00,METAR WADD 190800Z 16008KT 9999 FEW017 31/23 Q1008 NOSIG
2026-04-19 07:30:00,METAR WADD 190730Z 16009KT 9999 FEW017 32/23 Q1008 NOSIG
2026-04-19 07:00:00,METAR WADD 190700Z 10009KT 9999 FEW017 32/22 Q1008 NOSIG
2026-04-19 06:30:00,METAR WADD 190630Z 10006KT 060V140 9999 FEW017 32/22 Q1009 NOSIG
2026-04-19 06:00:00,METAR WADD 190600Z 10007KT 060V130 9999 FEW017 32/24 Q1009 NOSIG
2026-04-19 05:30:00,METAR WADD 190530Z 11007KT 9999 FEW017 32/23 Q1009 NOSIG
2026-04-19 05:00:00,METAR WADD 190500Z 11008KT 9999 FEW017 32/24 Q1010 NOSIG
2026-04-19 04:30:00,METAR WADD 190430Z 12006KT 080V150 9999 FEW017 33/24 Q1010 NOSIG
2026-04-19 04:00:00,METAR WADD 190400Z 15003KT 9999 FEW017 32/24 Q1011 NOSIG
2026-04-19 03:30:00,METAR WADD 190330Z 16007KT 9999 SCT017 31/24 Q1011 NOSIG
2026-04-19 03:00:00,METAR WADD 190300Z 22004KT 160V230 9999 SCT017 30/24 Q1012 NOSIG
2026-04-19 02:30:00,METAR WADD 190230Z 22003KT 9999 SCT017 31/24 Q1012 NOSIG
2026-04-19 02:00:00,METAR WADD 190200Z 21003KT 9999 FEW017 29/24 Q1012 NOSIG
2026-04-19 01:30:00,METAR WADD 190130Z 25004KT 9999 FEW017 30/24 Q1012 NOSIG
2026-04-19 01:00:00,METAR WADD 190100Z VRB02KT 9999 FEW017 29/24 Q1012 NOSIG
2026-04-19 00:30:00,METAR WADD 190030Z 34004KT 9999 FEW017 29/24 Q1012 NOSIG
2026-04-19 00:00:00,METAR WADD 190000Z 36004KT 9999 FEW017 27/23 Q1012 NOSIG
2026-04-18 23:30:00,METAR WADD 182330Z 01005KT 340V050 9999 FEW017 26/23 Q1011 NOSIG
2026-04-18 23:00:00,METAR WADD 182300Z 01002KT 9999 FEW017 25/23 Q1011 NOSIG
2026-04-18 22:30:00,METAR WADD 182230Z 32001KT 9999 FEW017 25/22 Q1011 NOSIG
2026-04-18 22:00:00,METAR WADD 182200Z VRB02KT 9999 FEW017 25/23 Q1010 NOSIG
2026-04-18 21:30:00,METAR WADD 182130Z 35004KT 9999 FEW017 25/23 Q1010 NOSIG
2026-04-18 21:00:00,METAR WADD 182100Z 01001KT 9999 FEW017 25/23 Q1010 NOSIG
2026-04-18 20:30:00,METAR WADD 182030Z VRB01KT 9999 FEW017 25/23 Q1010 NOSIG
2026-04-18 20:00:00,METAR WADD 182000Z 01004KT 9999 FEW017 25/23 Q1010 NOSIG
2026-04-18 19:30:00,METAR WADD 181930Z 01003KT 9999 FEW017 26/23 Q1010 NOSIG
2026-04-18 19:00:00,METAR WADD 181900Z 36004KT 9999 FEW017 26/23 Q1010 NOSIG
2026-04-18 18:30:00,METAR WADD 181830Z 01003KT 9999 FEW017 26/23 Q1010 NOSIG
2026-04-18 18:00:00,METAR WADD 181800Z 08002KT 9999 FEW017 26/24 Q1010 NOSIG
2026-04-18 17:30:00,METAR WADD 181730Z 08004KT 9999 FEW017 26/24 Q1010 NOSIG
2026-04-18 17:00:00,METAR WADD 181700Z 10003KT 9999 FEW017 26/24 Q1010 NOSIG
2026-04-18 16:30:00,METAR WADD 181630Z 09004KT 9999 FEW017 26/24 Q1011 NOSIG
2026-04-18 16:00:00,METAR WADD 181600Z 09006KT 9999 FEW017 27/24 Q1011 NOSIG
2026-04-18 15:00:00,METAR WADD 181500Z 10005KT 9999 FEW017 27/24 Q1011 NOSIG
2026-04-18 14:30:00,METAR WADD 181430Z 10006KT 9999 FEW017 27/24 Q1011 NOSIG
2026-04-18 14:00:00,METAR WADD 181400Z 11006KT 9999 FEW017 27/24 Q1011 NOSIG
2026-04-18 13:30:00,METAR WADD 181330Z 11007KT 9999 FEW017 28/24 Q1010 NOSIG
2026-04-18 13:00:00,METAR WADD 181300Z 12007KT 9999 FEW017 28/24 Q1010 NOSIG
2026-04-18 12:30:00,METAR WADD 181230Z 12008KT 9999 FEW017 28/24 Q1010 NOSIG
2026-04-18 12:00:00,METAR WADD 181200Z 12008KT 9999 FEW017 28/24 Q1009 NOSIG
2026-04-18 11:30:00,METAR WADD 181130Z 12010KT 9999 FEW017 28/24 Q1009 NOSIG
2026-04-18 11:00:00,METAR WADD 181100Z 12009KT 9999 FEW017 28/24 Q1009 NOSIG
2026-04-18 10:30:00,METAR WADD 181030Z 12011KT 9999 FEW017 28/24 Q1009 NOSIG
2026-04-18 10:00:00,METAR WADD 181000Z 13013KT 9999 FEW017 29/24 Q1008 NOSIG
2026-04-18 09:30:00,METAR WADD 180930Z 13012KT 9999 FEW017 29/23 Q1008 NOSIG
2026-04-18 09:00:00,METAR WADD 180900Z 12012KT 9999 FEW017 30/24 Q1008 NOSIG
2026-04-18 08:30:00,METAR WADD 180830Z 12014KT 9999 FEW017 30/23 Q1008 NOSIG
2026-04-18 08:00:00,METAR WADD 180800Z 13014KT 9999 FEW017 30/24 Q1008 NOSIG
2026-04-18 07:30:00,METAR WADD 180730Z 12014KT 9999 FEW017 30/24 Q1008 NOSIG
2026-04-18 07:00:00,METAR WADD 180700Z 12015KT 9999 FEW017 30/24 Q1008 NOSIG
2026-04-18 06:30:00,METAR WADD 180630Z 11015KT 9999 FEW016 31/24 Q1008 NOSIG
2026-04-18 06:00:00,METAR WADD 180600Z 11015KT 9999 FEW016 31/23 Q1009 NOSIG
2026-04-18 05:30:00,METAR WADD 180530Z 11016KT 9999 FEW016 31/24 Q1009 NOSIG
2026-04-18 05:00:00,METAR WADD 180500Z 12015KT 9999 FEW016 31/24 Q1010 NOSIG
2026-04-18 04:30:00,METAR WADD 180430Z 13015KT 9999 FEW016 31/24 Q1010 NOSIG
2026-04-18 04:00:00,METAR WADD 180400Z 12014KT 9999 SCT016 31/24 Q1010 NOSIG
2026-04-18 03:30:00,METAR WADD 180330Z 13016KT 9999 FEW015CB SCT015 30/24 Q1011 NOSIG RMK CB IN APCH AND CLIMB-OUT
2026-04-18 03:00:00,METAR WADD 180300Z 12014KT 9999 FEW015CB SCT015 31/24 Q1011 NOSIG RMK CB IN APCH AND CLIMB-OUT
2026-04-18 02:30:00,METAR WADD 180230Z 12014KT 9999 FEW015CB SCT015 31/24 Q1011 NOSIG RMK CB IN APCH AND CLIMB-OUT
2026-04-18 02:00:00,METAR WADD 180200Z 11009KT 070V130 9999 FEW015CB SCT015 31/25 Q1011 NOSIG RMK CB IN APCH AND CLIMB-OUT
2026-04-18 01:30:00,METAR WADD 180130Z 11009KT 9999 FEW015CB SCT015 30/25 Q1011 NOSIG RMK CB IN APCH AND CLIMB-OUT
2026-04-18 01:00:00,METAR WADD 180100Z 09007KT 9999 FEW015CB SCT015 29/26 Q1011 NOSIG RMK CB IN APCH AND CLIMB-OUT
2026-04-18 00:30:00,METAR WADD 180030Z 10005KT 060V140 9999 FEW015CB SCT015 30/26 Q1011 NOSIG RMK CB IN APCH AND CLIMB-OUT
2026-04-18 00:00:00,METAR WADD 180000Z 14004KT 9999 FEW015CB SCT015 27/25 Q1010 NOSIG RMK CB IN APCH AND CLIMB-OUT
2026-04-17 23:30:00,METAR WADD 172330Z 11009KT 9999 FEW015CB SCT016 27/25 Q1010 NOSIG RMK CB IN APCH AND CLIMB-OUT
2026-04-17 23:00:00,METAR WADD 172300Z 13006KT 9999 FEW015CB SCT016 26/25 Q1010 NOSIG
2026-04-17 22:30:00,METAR WADD 172230Z 10004KT 9999 FEW015CB SCT016 26/24 Q1009 RERA NOSI G
2026-04-17 22:00:00,METAR WADD 172200Z 13007KT 8000 -RA FEW015CB BKN016 26/24 Q1009 TEMPO TL2300 -RA
2026-04-17 21:30:00,METAR WADD 172130Z 01005KT 9999 SCT017 27/24 Q1009 NOSIG
2026-04-17 21:00:00,METAR WADD 172100Z 04005KT 9999 SCT017 27/24 Q1009 NOSIG
2026-04-17 20:00:00,METAR WADD 172000Z 07006KT 9999 FEW017 27/24 Q1009 NOSIG
2026-04-17 19:30:00,METAR WADD 171930Z 08007KT 9999 FEW017 26/24 Q1009 NOSIG
2026-04-17 19:00:00,METAR WADD 171900Z 08006KT 9999 FEW017 27/24 Q1009 NOSIG
2026-04-17 18:30:00,METAR WADD 171830Z 07007KT 9999 FEW017 27/24 Q1009 NOSIG
2026-04-17 18:00:00,METAR WADD 171800Z 07009KT 9999 FEW017 27/25 Q1009 NOSIG
2026-04-17 17:30:00,METAR WADD 171730Z 10011KT 9999 FEW017 28/25 Q1010 NOSIG
2026-04-17 17:00:00,METAR WADD 171700Z 10011KT 9999 FEW017 28/25 Q1010 NOSIG
2026-04-17 16:30:00,METAR WADD 171630Z 11012KT 9999 FEW017 28/25 Q1010 NOSIG
2026-04-17 16:00:00,METAR WADD 171600Z 10010KT 9999 FEW017 28/25 Q1010 NOSIG
2026-04-17 15:30:00,METAR WADD 171530Z 10009KT 9999 FEW017 28/25 Q1011 NOSIG
2026-04-17 15:00:00,METAR WADD 171500Z 11010KT 9999 FEW017 28/25 Q1011 NOSIG
2026-04-17 14:30:00,METAR WADD 171430Z 11007KT 9999 FEW017 28/25 Q1011 NOSIG
2026-04-17 14:00:00,METAR WADD 171400Z 12009KT 9999 FEW017 28/25 Q1011 NOSIG
2026-04-17 13:30:00,METAR WADD 171330Z 13009KT 9999 FEW017 28/25 Q1011 NOSIG
2026-04-17 13:00:00,METAR WADD 171300Z 13010KT 9999 FEW017 28/25 Q1010 NOSIG
2026-04-17 12:30:00,METAR WADD 171230Z 13009KT 9999 FEW017 28/25 Q1010 NOSIG
2026-04-17 12:00:00,METAR WADD 171200Z 13009KT 9999 FEW017 28/25 Q1010 NOSIG
2026-04-17 11:30:00,METAR WADD 171130Z 13009KT 9999 FEW017 28/25 Q1009 NOSIG
2026-04-17 11:00:00,METAR WADD 171100Z 12007KT 9999 FEW017 28/25 Q1009 NOSIG
2026-04-17 10:30:00,METAR WADD 171030Z 14008KT 9999 FEW017 29/25 Q1009 NOSIG
2026-04-17 10:00:00,METAR WADD 171000Z 15012KT 9999 FEW017 29/25 Q1009 NOSIG
2026-04-17 09:30:00,METAR WADD 170930Z 14012KT 9999 FEW017 30/25 Q1008 NOSIG
2026-04-17 09:00:00,METAR WADD 170900Z 14012KT 9999 FEW017 30/24 Q1008 NOSIG
2026-04-17 08:30:00,METAR WADD 170830Z 14012KT 9999 FEW017 31/24 Q1008 NOSIG
2026-04-17 08:00:00,METAR WADD 170800Z 15013KT 9999 FEW017 31/24 Q1008 NOSIG
2026-04-17 07:30:00,METAR WADD 170730Z 14012KT 9999 FEW017 31/24 Q1008 NOSIG
2026-04-17 07:00:00,METAR WADD 170700Z 14012KT 9999 FEW017 31/24 Q1008 NOSIG
2026-04-17 06:30:00,METAR WADD 170630Z 12012KT 9999 FEW017 31/25 Q1008 NOSIG
2026-04-17 06:00:00,METAR WADD 170600Z 11011KT 9999 FEW017 31/24 Q1009 NOSIG
2026-04-17 05:30:00,METAR WADD 170530Z 11011KT 9999 FEW017 31/25 Q1009 NOSIG
2026-04-17 05:00:00,METAR WADD 170500Z 15011KT 9999 FEW017 31/24 Q1009 NOSIG
2026-04-17 04:30:00,METAR WADD 170430Z 11009KT 9999 FEW017 32/25 Q1010 NOSIG
2026-04-17 04:00:00,METAR WADD 170400Z 11010KT 9999 FEW017 32/25 Q1010 NOSIG
2026-04-17 03:30:00,METAR WADD 170330Z 10009KT 9999 FEW017 32/24 Q1010 NOSIG
2026-04-17 03:00:00,METAR WADD 170300Z 12009KT 9999 FEW017 31/25 Q1011 NOSIG
2026-04-17 02:30:00,METAR WADD 170230Z 12010KT 9999 FEW017 31/25 Q1011 NOSIG
2026-04-17 02:00:00,METAR WADD 170200Z 11008KT 9999 FEW017 31/25 Q1011 NOSIG
2026-04-17 01:30:00,METAR WADD 170130Z 11008KT 9999 FEW017 31/25 Q1011 NOSIG
2026-04-17 01:00:00,METAR WADD 170100Z 09008KT 9999 FEW017 31/25 Q1011 NOSIG
2026-04-17 00:30:00,METAR WADD 170030Z 09005KT 9999 FEW018 30/25 Q1011 NOSIG
2026-04-17 00:00:00,METAR WADD 170000Z VRB03KT 9999 FEW018 28/24 Q1011 NOSIG
2026-04-16 23:30:00,METAR WADD 162330Z 05004KT 350V100 9999 FEW018 27/24 Q1011 NOSIG
2026-04-16 23:00:00,METAR WADD 162300Z VRB02KT 9999 FEW018 26/24 Q1011 NOSIG
2026-04-16 22:30:00,METAR WADD 162230Z 16003KT 9999 FEW017 25/24 Q1010 NOSIG
2026-04-16 22:00:00,METAR WADD 162200Z 04005KT 9999 FEW017 25/23 Q1010 NOSIG
2026-04-16 21:30:00,METAR WADD 162130Z 02005KT 9999 FEW017 25/23 Q1010 NOSIG
2026-04-16 21:00:00,METAR WADD 162100Z 01005KT 9999 FEW017 25/23 Q1010 NOSIG
2026-04-16 20:30:00,METAR WADD 162030Z 02004KT 9999 FEW017 26/23 Q1010 NOSIG
2026-04-16 20:00:00,METAR WADD 162000Z 03004KT 9999 FEW017 26/23 Q1010 NOSIG
2026-04-16 19:30:00,METAR WADD 161930Z 03004KT 9999 FEW017 26/24 Q1010 NOSIG
2026-04-16 19:00:00,METAR WADD 161900Z 06005KT 9999 FEW017 26/24 Q1010 NOSIG
2026-04-16 18:30:00,METAR WADD 161830Z 06005KT 9999 FEW017 27/24 Q1010 NOSIG
2026-04-16 18:00:00,METAR WADD 161800Z 08006KT 9999 FEW017 27/24 Q1010 NOSIG
2026-04-16 17:30:00,METAR WADD 161730Z 08006KT 9999 FEW017 27/24 Q1010 NOSIG
2026-04-16 17:00:00,METAR WADD 161700Z 08007KT 9999 FEW017 27/24 Q1011 NOSIG
2026-04-16 16:30:00,METAR WADD 161630Z 09007KT 9999 FEW017 27/24 Q1011 NOSIG
2026-04-16 16:00:00,METAR WADD 161600Z 08008KT 9999 FEW017 27/24 Q1011 NOSIG
2026-04-16 15:30:00,METAR WADD 161530Z 08008KT 9999 FEW017 27/25 Q1011 NOSIG
2026-04-16 15:00:00,METAR WADD 161500Z 10007KT 9999 FEW017 28/25 Q1011 NOSIG
2026-04-16 14:30:00,METAR WADD 161430Z 11009KT 9999 FEW017 28/25 Q1011 NOSIG
2026-04-16 14:00:00,METAR WADD 161400Z 10008KT 9999 FEW017 28/25 Q1011 NOSIG
2026-04-16 13:30:00,METAR WADD 161330Z 10009KT 9999 FEW017 28/25 Q1011 NOSIG
2026-04-16 13:00:00,METAR WADD 161300Z 12010KT 9999 FEW017 28/25 Q1010 NOSIG
2026-04-16 12:30:00,METAR WADD 161230Z 12009KT 9999 FEW017 28/25 Q1010 NOSIG
2026-04-16 12:00:00,METAR WADD 161200Z 12010KT 9999 FEW017 28/25 Q1010 NOSIG
2026-04-16 11:30:00,METAR WADD 161130Z 13011KT 9999 FEW017 28/25 Q1009 NOSIG
2026-04-16 11:00:00,METAR WADD 161100Z 13011KT 9999 FEW017 29/25 Q1009 NOSIG
2026-04-16 10:30:00,METAR WADD 161030Z 12010KT 9999 FEW017 29/25 Q1009 NOSIG
2026-04-16 10:00:00,METAR WADD 161000Z 13012KT 9999 FEW017 29/25 Q1009 NOSIG
2026-04-16 09:30:00,METAR WADD 160930Z 13012KT 9999 FEW017 30/25 Q1009 NOSIG
2026-04-16 09:00:00,METAR WADD 160900Z 13012KT 9999 FEW017 30/25 Q1008 NOSIG
2026-04-16 08:30:00,METAR WADD 160830Z 14013KT 9999 FEW017 31/25 Q1008 NOSIG
2026-04-16 08:00:00,METAR WADD 160800Z 14015KT 9999 FEW017 31/25 Q1008 NOSIG
2026-04-16 07:30:00,METAR WADD 160730Z 14017KT 9999 FEW017 31/24 Q1008 NOSIG
2026-04-16 07:00:00,METAR WADD 160700Z 13012KT 9999 FEW017 31/24 Q1008 NOSIG
2026-04-16 06:30:00,METAR WADD 160630Z 12012KT 9999 FEW017 31/24 Q1009 NOSIG
2026-04-16 06:00:00,METAR WADD 160600Z 11011KT 9999 FEW017 31/24 Q1009 NOSIG
2026-04-16 05:30:00,METAR WADD 160530Z 12013KT 9999 FEW017 31/25 Q1009 NOSIG
2026-04-16 05:00:00,METAR WADD 160500Z 11012KT 9999 FEW017 32/24 Q1010 NOSIG
2026-04-16 04:30:00,METAR WADD 160430Z 11011KT 9999 FEW017 32/24 Q1010 NOSIG
2026-04-16 04:00:00,METAR WADD 160400Z 11010KT 9999 FEW017 32/24 Q1011 NOSIG
2026-04-16 03:30:00,METAR WADD 160330Z 11011KT 9999 FEW017 31/25 Q1011 NOSIG
2026-04-16 03:00:00,METAR WADD 160300Z 12010KT 9999 FEW017 31/25 Q1011 NOSIG
2026-04-16 02:30:00,METAR WADD 160230Z 11010KT 9999 FEW017 31/25 Q1012 NOSIG
2026-04-16 02:00:00,METAR WADD 160200Z 11009KT 9999 FEW017 31/25 Q1012 NOSIG
2026-04-16 01:30:00,METAR WADD 160130Z 13005KT 090V170 9999 FEW017 31/25 Q1012 NOSIG
2026-04-16 01:00:00,METAR WADD 160100Z 24003KT 9999 FEW017 30/24 Q1011 NOSIG
2026-04-16 00:30:00,METAR WADD 160030Z 32004KT 300V030 9999 FEW017 29/24 Q1011 NOSIG
2026-04-16 00:00:00,METAR WADD 160000Z 35004KT 9999 FEW017 27/23 Q1011 NOSIG
2026-04-15 23:30:00,METAR WADD 152330Z VRB03KT 9999 FEW017 27/24 Q1011 NOSIG
2026-04-15 23:00:00,METAR WADD 152300Z 02003KT 9999 FEW017 26/23 Q1010 NOSIG
2026-04-15 22:30:00,METAR WADD 152230Z 36003KT 9999 SCT017 25/23 Q1010 NOSIG
2026-04-15 22:00:00,METAR WADD 152200Z VRB02KT 9999 SCT017 26/23 Q1010 NOSIG
2026-04-15 21:30:00,METAR WADD 152130Z 36003KT 9999 SCT017 25/23 Q1010 NOSIG
2026-04-15 21:00:00,METAR WADD 152100Z 36004KT 9999 SCT017 25/23 Q1009 NOSIG
2026-04-15 20:30:00,METAR WADD 152030Z 35004KT 9999 SCT017 26/23 Q1009 NOSIG
2026-04-15 20:00:00,METAR WADD 152000Z 34003KT 9999 SCT017 26/24 Q1009 NOSIG
2026-04-15 19:30:00,METAR WADD 151930Z 33004KT 9999 SCT017 26/24 Q1009 NOSIG
2026-04-15 19:00:00,METAR WADD 151900Z 02003KT 9999 SCT017 27/24 Q1009 NOSIG
2026-04-15 18:30:00,METAR WADD 151830Z 08005KT 9999 SCT017 27/24 Q1009 NOSIG
2026-04-15 18:00:00,METAR WADD 151800Z 14006KT 9999 FEW017 27/25 Q1009 NOSIG
2026-04-15 17:30:00,METAR WADD 151730Z 12003KT 9999 FEW017 27/24 Q1010 NOSIG
2026-04-15 17:00:00,METAR WADD 151700Z 12004KT 9999 FEW017 27/24 Q1010 NOSIG
2026-04-15 16:30:00,METAR WADD 151630Z 08006KT 9999 FEW017 27/24 Q1010 NOSIG
2026-04-15 16:00:00,METAR WADD 151600Z 06007KT 9999 FEW017 27/24 Q1010 NOSIG
2026-04-15 15:30:00,METAR WADD 151530Z 08006KT 9999 FEW017 27/24 Q1010 NOSIG
2026-04-15 15:00:00,METAR WADD 151500Z 09006KT 9999 FEW017 27/24 Q1010 NOSIG
2026-04-15 14:30:00,METAR WADD 151430Z 09008KT 9999 FEW017 27/24 Q1011 NOSIG
2026-04-15 14:00:00,METAR WADD 151400Z 09007KT 9999 FEW017 28/24 Q1010 NOSIG
2026-04-15 13:30:00,METAR WADD 151330Z 09008KT 9999 FEW017 28/24 Q1010 NOSIG
2026-04-15 13:00:00,METAR WADD 151300Z 09009KT 9999 FEW017 28/23 Q1010 NOSIG
2026-04-15 12:30:00,METAR WADD 151230Z 10011KT 9999 FEW017 29/24 Q1010 NOSIG
2026-04-15 12:00:00,METAR WADD 151200Z 11011KT 9999 FEW017 29/25 Q1009 NOSIG
2026-04-15 11:30:00,METAR WADD 151130Z 11012KT 9999 FEW017 29/25 Q1009 NOSIG
2026-04-15 11:00:00,METAR WADD 151100Z 11013KT 9999 FEW017 29/24 Q1009 NOSIG
2026-04-15 10:30:00,METAR WADD 151030Z 12012KT 9999 FEW017 29/25 Q1008 NOSIG
2026-04-15 10:00:00,METAR WADD 151000Z 12013KT 9999 FEW017 30/24 Q1008 NOSIG
2026-04-15 09:30:00,METAR WADD 150930Z 12012KT 9999 FEW017 30/24 Q1008 NOSIG
2026-04-15 09:00:00,METAR WADD 150900Z 12014KT 9999 FEW017 30/25 Q1008 NOSIG
2026-04-15 08:30:00,METAR WADD 150830Z 12013KT 9999 FEW017 30/25 Q1008 NOSIG
2026-04-15 08:00:00,METAR WADD 150800Z 13015KT 9999 FEW017 31/25 Q1007 NOSIG
2026-04-15 07:30:00,METAR WADD 150730Z 12015KT 9999 FEW017 31/25 Q1007 NOSIG
2026-04-15 07:00:00,METAR WADD 150700Z 12015KT 9999 FEW017 31/25 Q1007 NOSIG
2026-04-15 06:30:00,METAR WADD 150630Z 14018KT 9999 FEW017 31/26 Q1008 NOSIG
2026-04-15 06:00:00,METAR WADD 150600Z 13016KT 9999 FEW017 31/25 Q1008 NOSIG
2026-04-15 05:30:00,METAR WADD 150530Z 12016KT 9999 FEW017 31/25 Q1008 NOSIG
2026-04-15 05:00:00,METAR WADD 150500Z 13014KT 9999 FEW017 31/25 Q1009 NOSIG
2026-04-15 04:30:00,METAR WADD 150430Z 13016KT 9999 FEW017 31/25 Q1009 NOSIG
2026-04-15 04:00:00,METAR WADD 150400Z 14016KT 9999 FEW017 30/26 Q1009 NOSIG
2026-04-15 03:30:00,METAR WADD 150330Z 14012KT 9999 FEW015CB SCT016 29/26 Q1010 NOSIG
2026-04-15 03:08:00,SPECI WADD 150308Z 15017KT 9999 FEW015CB SCT015 29/26 Q1010 RERA NOSIG
2026-04-15 03:05:00,SPECI WADD 150305Z 13012KT FEW003 SCT014 BKN024 OVC090 29/26 Q1010
2026-04-15 03:00:00,METAR WADD 150300Z 13012G22KT 8000 -RA FEW015CB SCT015 29/26 Q1011 NO SIG
2026-04-15 02:30:00,METAR WADD 150230Z 15013KT 9999 FEW015CB SCT016 31/26 Q1011 NOSIG
2026-04-15 02:00:00,METAR WADD 150200Z 13009KT 9999 FEW015CB SCT016 30/25 Q1011 NOSIG
2026-04-15 01:30:00,METAR WADD 150130Z 15013KT 9999 FEW015CB SCT016 30/25 Q1011 NOSIG
2026-04-15 01:00:00,METAR WADD 150100Z 18003KT 9999 FEW015CB FEW017 30/25 Q1011 NOSIG
2026-04-15 00:30:00,METAR WADD 150030Z 18002KT 9999 FEW018 30/24 Q1011 NOSIG
2026-04-15 00:00:00,METAR WADD 150000Z VRB02KT 9999 FEW018 28/24 Q1010 NOSIG
2026-04-14 23:30:00,METAR WADD 142330Z VRB02KT 9999 FEW017 27/24 Q1010 NOSIG
2026-04-14 23:00:00,METAR WADD 142300Z 36004KT 9999 FEW017 26/23 Q1010 NOSIG
2026-04-14 22:30:00,METAR WADD 142230Z VRB01KT 9999 FEW017 26/24 Q1010 NOSIG
2026-04-14 22:00:00,METAR WADD 142200Z 03003KT 9999 FEW017 26/24 Q1010 NOSIG
2026-04-14 21:30:00,METAR WADD 142130Z 14004KT 9999 SCT016 27/24 Q1010 NOSIG
2026-04-14 21:00:00,METAR WADD 142100Z 19003KT 9999 FEW015CB SCT016 26/24 Q1010 NOSIG
2026-04-14 20:30:00,METAR WADD 142030Z VRB02KT 6000 FEW015CB SCT016 27/24 Q1010 NOSIG RMK CB IN APCH
2026-04-14 20:00:00,METAR WADD 142000Z 31003KT 6000 FEW015CB SCT016 26/24 Q1009 NOSIG RMK CB IN CLIMB-OUT
2026-04-14 19:30:00,METAR WADD 141930Z VRB02KT 6000 FEW015CB SCT016 27/24 Q1009 RERA NOSIG RMK CB IN APCH AND CLIMB-OUT
2026-04-14 19:00:00,METAR WADD 141900Z 09005KT 060V130 4000 -RA FEW016CB SCT016 27/24 Q1009 TEMPO TL2000 4000 RA RMK CB IN APCH AND CLIMB-OUT
2026-04-14 18:51:00,SPECI WADD 141851Z 07006KT 3000 RA FEW015CB SCT016 27/24 Q1010 TEMPO TL2000 3000 RA RMK CB IN APCH AND CLIMB-OUT
2026-04-14 18:30:00,METAR WADD 141830Z 07006KT 8000 FEW016CB SCT017 27/24 Q1010 NOSIG RMK CB IN CLIMB-OUT
2026-04-14 18:00:00,METAR WADD 141800Z 07010KT 8000 FEW016CB SCT017 27/24 Q1010 NOSIG RMK CB IN CLIMB-OUT
2026-04-14 17:30:00,METAR WADD 141730Z 12010KT 8000 FEW016CB SCT017 29/26 Q1010 NOSIG RMK CB IN CLIMB-OUT
2026-04-14 17:00:00,METAR WADD 141700Z 11008KT 9999 FEW017 28/25 Q1011 NOSIG
2026-04-14 16:30:00,METAR WADD 141630Z 12010KT 9999 FEW017 29/25 Q1011 NOSIG
2026-04-14 16:00:00,METAR WADD 141600Z 12010KT 9999 FEW017 29/25 Q1011 NOSIG
2026-04-14 15:30:00,METAR WADD 141530Z 12011KT 9999 FEW017 29/25 Q1011 NOSIG
2026-04-14 15:00:00,METAR WADD 141500Z 13011KT 9999 FEW017 29/25 Q1011 NOSIG
2026-04-14 14:30:00,METAR WADD 141430Z 13011KT 9999 FEW017 29/25 Q1011 NOSIG
2026-04-14 14:00:00,METAR WADD 141400Z 13011KT 9999 FEW017 29/26 Q1011 NOSIG
2026-04-14 13:30:00,METAR WADD 141330Z 12010KT 9999 FEW017 29/25 Q1011 NOSIG
2026-04-14 13:00:00,METAR WADD 141300Z 12013KT 9999 FEW017 29/25 Q1011 NOSIG
2026-04-14 12:30:00,METAR WADD 141230Z 12013KT 9999 FEW017 29/25 Q1010 NOSIG
2026-04-14 12:00:00,METAR WADD 141200Z 12014KT 9999 FEW017 29/25 Q1010 NOSIG
2026-04-14 11:30:00,METAR WADD 141130Z 12012KT 9999 FEW017 29/25 Q1010 NOSIG
2026-04-14 05:00:00,METAR WADD 140500Z 12020KT 9999 FEW017 31/24 Q1009 NOSIG
2026-04-14 04:30:00,METAR WADD 140430Z 13017KT 9999 FEW017 31/24 Q1010 NOSIG
2026-04-14 04:00:00,METAR WADD 140400Z 12017KT 9999 FEW017 31/24 Q1010 NOSIG
2026-04-14 03:30:00,METAR WADD 140330Z 12014KT 9999 FEW017 31/24 Q1011 NOSIG
2026-04-14 03:00:00,METAR WADD 140300Z 11013KT 9999 FEW017 31/23 Q1011 NOSIG
2026-04-14 02:30:00,METAR WADD 140230Z 12010KT 9999 FEW017 31/24 Q1011 NOSIG
2026-04-14 02:00:00,METAR WADD 140200Z 11009KT 9999 FEW017 31/24 Q1012 NOSIG
2026-04-14 01:30:00,METAR WADD 140130Z 12009KT 9999 FEW017 31/24 Q1012 NOSIG
2026-04-14 01:00:00,METAR WADD 140100Z 12008KT 9999 FEW017 31/25 Q1012 NOSIG
2026-04-14 00:30:00,METAR WADD 140030Z 11007KT 9999 FEW017 30/25 Q1012 NOSIG
2026-04-14 00:00:00,METAR WADD 140000Z 10005KT 9999 FEW017 29/25 Q1012 NOSIG
2026-04-13 23:30:00,METAR WADD 132330Z 01005KT 340V050 9999 FEW017 28/25 Q1011 NOSIG
2026-04-13 23:00:00,METAR WADD 132300Z 01004KT 9999 FEW017 27/25 Q1011 NOSIG
2026-04-13 22:30:00,METAR WADD 132230Z 08007KT 9999 FEW017 27/24 Q1011 NOSIG
2026-04-13 22:00:00,METAR WADD 132200Z 07006KT 9999 FEW017 27/24 Q1010 NOSIG
2026-04-13 21:30:00,METAR WADD 132130Z 10005KT 9999 FEW017 27/24 Q1010 NOSIG
2026-04-13 21:00:00,METAR WADD 132100Z 12008KT 9999 FEW017 28/25 Q1010 NOSIG
2026-04-13 20:30:00,METAR WADD 132030Z 13007KT 9999 FEW017 28/24 Q1010 NOSIG
2026-04-13 20:00:00,METAR WADD 132000Z 13008KT 9999 FEW017 28/24 Q1010 NOSIG
2026-04-13 19:30:00,METAR WADD 131930Z 13009KT 9999 FEW017 28/24 Q1010 NOSIG
2026-04-13 19:00:00,METAR WADD 131900Z 12009KT 9999 FEW017 28/25 Q1010 NOSIG
2026-04-13 18:30:00,METAR WADD 131830Z 12011KT 9999 FEW017 28/25 Q1010 NOSIG
2026-04-13 18:00:00,METAR WADD 131800Z 12011KT 9999 FEW017 28/25 Q1010 NOSIG
2026-04-13 17:30:00,METAR WADD 131730Z 11011KT 9999 FEW017 28/25 Q1011 NOSIG
2026-04-13 17:00:00,METAR WADD 131700Z 10011KT 9999 FEW017 28/25 Q1011 NOSIG
2026-04-13 16:30:00,METAR WADD 131630Z 10009KT 9999 FEW017 29/26 Q1011 NOSIG
2026-04-13 16:00:00,METAR WADD 131600Z 11011KT 9999 FEW017 29/26 Q1011 NOSIG
2026-04-13 15:30:00,METAR WADD 131530Z 11012KT 9999 FEW017 29/25 Q1012 NOSIG
2026-04-13 15:00:00,METAR WADD 131500Z 12014KT 9999 FEW017 29/25 Q1011 NOSIG
2026-04-13 14:30:00,METAR WADD 131430Z 11014KT 9999 FEW017 29/24 Q1012 NOSIG
2026-04-13 14:00:00,METAR WADD 131400Z 11014KT 9999 FEW017 29/24 Q1011 NOSIG
2026-04-13 13:30:00,METAR WADD 131330Z 11013KT 9999 FEW017 29/24 Q1011 NOSIG
2026-04-13 13:00:00,METAR WADD 131300Z 12015KT 9999 FEW017 29/24 Q1011 NOSIG
2026-04-13 12:30:00,METAR WADD 131230Z 12015KT 9999 FEW017 29/24 Q1011 NOSIG
2026-04-13 12:00:00,METAR WADD 131200Z 12014KT 9999 FEW017 29/25 Q1010 NOSIG
2026-04-13 11:30:00,METAR WADD 131130Z 12012KT 9999 FEW017 29/25 Q1010 NOSIG
2026-04-13 11:00:00,METAR WADD 131100Z 12014KT 9999 FEW017 29/25 Q1010 NOSIG
2026-04-13 10:30:00,METAR WADD 131030Z 12012KT 9999 FEW017 29/25 Q1010 NOSIG
2026-04-13 10:00:00,METAR WADD 131000Z 12014KT 9999 FEW017 30/25 Q1009 NOSIG
2026-04-13 09:30:00,METAR WADD 130930Z 13016KT 9999 FEW017 30/25 Q1009 NOSIG
2026-04-13 09:00:00,METAR WADD 130900Z 12016KT 9999 FEW017 30/26 Q1009 NOSIG
2026-04-13 08:30:00,METAR WADD 130830Z 12015KT 9999 FEW017 31/25 Q1009 NOSIG
2026-04-13 08:00:00,METAR WADD 130800Z 13016KT 9999 FEW017 31/25 Q1009 NOSIG
2026-04-13 07:30:00,METAR WADD 130730Z 12016KT 9999 FEW017 31/26 Q1009 NOSIG
2026-04-13 07:00:00,METAR WADD 130700Z 12018KT 9999 FEW017 31/25 Q1009 NOSIG
2026-04-13 06:30:00,METAR WADD 130630Z 12015KT 9999 FEW017 31/26 Q1009 NOSIG
2026-04-13 06:00:00,METAR WADD 130600Z 12017KT 9999 FEW016 31/26 Q1009 NOSIG
2026-04-13 05:30:00,METAR WADD 130530Z 13016KT 9999 FEW016 31/26 Q1010 NOSIG
2026-04-13 05:00:00,METAR WADD 130500Z 12014KT 9999 FEW016 32/26 Q1010 NOSIG
2026-04-13 04:30:00,METAR WADD 130430Z 12014KT 9999 FEW016 32/26 Q1011 NOSIG
2026-04-13 04:00:00,METAR WADD 130400Z 12014KT 9999 FEW016 32/26 Q1011 NOSIG
2026-04-13 03:30:00,METAR WADD 130330Z 12013KT 9999 FEW016 32/26 Q1012 NOSIG
2026-04-13 03:00:00,METAR WADD 130300Z 12014KT 9999 FEW016 31/26 Q1012 NOSIG
2026-04-13 02:30:00,METAR WADD 130230Z 11012KT 9999 SCT016 31/25 Q1013 NOSIG
2026-04-13 02:00:00,METAR WADD 130200Z 11011KT 9999 SCT016 31/26 Q1013 NOSIG
2026-04-13 01:30:00,METAR WADD 130130Z 11009KT 9999 SCT016 30/26 Q1013 NOSIG
2026-04-13 01:00:00,METAR WADD 130100Z 10008KT 9999 SCT016 31/26 Q1013 NOSIG
2026-04-13 00:30:00,METAR WADD 130030Z 07005KT 040V120 9999 SCT016 30/26 Q1013 NOSIG
2026-04-13 00:00:00,METAR WADD 130000Z 01005KT 9999 SCT016 29/25 Q1012 NOSIG
2026-04-12 23:30:00,METAR WADD 122330Z 04005KT 9999 SCT016 28/25 Q1012 NOSIG
2026-04-12 23:00:00,METAR WADD 122300Z 07004KT 9999 SCT016 26/25 Q1012 NOSIG
2026-04-12 22:30:00,METAR WADD 122230Z 09004KT 9999 FEW015CB SCT016 26/24 Q1011 RERA NOSI G
2026-04-12 22:07:00,SPECI WADD 122207Z 06004KT 8000 -RA FEW015CB SCT016 26/23 Q1011 TEMPO TL2307 -RA RMK CB IN CLIMB-OUT
2026-04-12 22:00:00,METAR WADD 122200Z 06004KT 9999 FEW015CB SCT016 26/23 Q1011 NOSIG
2026-04-12 21:30:00,METAR WADD 122130Z VRB02KT 9999 FEW016 26/23 Q1011 NOSIG
2026-04-12 21:00:00,METAR WADD 122100Z 03003KT 9999 FEW016 26/23 Q1011 NOSIG
2026-04-12 20:30:00,METAR WADD 122030Z 00000KT 9999 FEW016 26/23 Q1011 NOSIG
2026-04-12 20:00:00,METAR WADD 122000Z VRB01KT 9999 FEW016 26/23 Q1011 NOSIG
2026-04-12 19:30:00,METAR WADD 121930Z 13002KT 9999 FEW016 27/24 Q1011 NOSIG
2026-04-12 19:00:00,METAR WADD 121900Z VRB01KT 9999 FEW016 26/23 Q1011 NOSIG
2026-04-12 18:30:00,METAR WADD 121830Z 03003KT 9999 FEW016 26/23 Q1011 NOSIG
2026-04-12 18:00:00,METAR WADD 121800Z 05005KT 9999 FEW016 27/23 Q1011 NOSIG
2026-04-12 17:30:00,METAR WADD 121730Z 03005KT 010V070 9999 FEW016 27/24 Q1011 NOSIG
2026-04-12 17:00:00,METAR WADD 121700Z 04006KT 350V070 9999 FEW016 28/24 Q1011 NOSIG
2026-04-12 16:30:00,METAR WADD 121630Z 06008KT 9999 FEW016 28/25 Q1012 NOSIG
2026-04-12 16:00:00,METAR WADD 121600Z 10008KT 9999 FEW016 29/26 Q1012 NOSIG
2026-04-12 15:00:00,METAR WADD 121500Z 12008KT 9999 FEW016 29/26 Q1012 NOSIG
2026-04-12 14:30:00,METAR WADD 121430Z 11008KT 9999 SCT016 29/26 Q1012 NOSIG
2026-04-12 14:00:00,METAR WADD 121400Z 13007KT 9999 SCT016 29/26 Q1012 NOSIG
2026-04-12 13:30:00,METAR WADD 121330Z 13007KT 9999 SCT016 29/26 Q1012 NOSIG
2026-04-12 13:00:00,METAR WADD 121300Z 13008KT 9999 SCT016 29/26 Q1012 NOSIG
2026-04-12 12:30:00,METAR WADD 121230Z 13009KT 9999 SCT016 29/26 Q1011 NOSIG
2026-04-12 12:00:00,METAR WADD 121200Z 13008KT 9999 SCT016 29/26 Q1011 NOSIG
2026-04-12 11:30:00,METAR WADD 121130Z 13008KT 9999 SCT016 29/26 Q1010 NOSIG
2026-04-12 11:00:00,METAR WADD 121100Z 13010KT 9999 SCT016 29/26 Q1010 NOSIG
2026-04-12 10:30:00,METAR WADD 121030Z 14011KT 9999 FEW017 29/26 Q1009 NOSIG
2026-04-12 10:00:00,METAR WADD 121000Z 13013KT 9999 FEW017 30/26 Q1009 NOSIG
2026-04-12 09:30:00,METAR WADD 120930Z 14014KT 9999 FEW017 30/26 Q1008 NOSIG
2026-04-12 09:00:00,METAR WADD 120900Z 14015KT 9999 FEW017 31/26 Q1008 NOSIG
2026-04-12 08:30:00,METAR WADD 120830Z 14013KT 9999 FEW017 31/26 Q1008 NOSIG
2026-04-12 08:00:00,METAR WADD 120800Z 14013KT 9999 FEW017 31/26 Q1008 NOSIG
2026-04-12 07:30:00,METAR WADD 120730Z 14010KT 9999 FEW017 32/26 Q1008 NOSIG
2026-04-12 07:00:00,METAR WADD 120700Z 13011KT 9999 FEW017 32/25 Q1008 NOSIG
2026-04-12 06:30:00,METAR WADD 120630Z 12010KT 9999 FEW017 32/25 Q1008 NOSIG
2026-04-12 06:00:00,METAR WADD 120600Z 12010KT 9999 FEW017 32/25 Q1009 NOSIG
2026-04-12 05:30:00,METAR WADD 120530Z 12010KT 9999 FEW017 32/25 Q1009 NOSIG
2026-04-12 05:00:00,METAR WADD 120500Z 11011KT 9999 FEW017 32/26 Q1009 NOSIG
2026-04-12 04:30:00,METAR WADD 120430Z 10010KT 9999 FEW017 32/26 Q1010 NOSIG
2026-04-12 04:00:00,METAR WADD 120400Z 11011KT 9999 FEW017 32/26 Q1010 NOSIG
2026-04-12 03:30:00,METAR WADD 120330Z 11010KT 9999 FEW017 32/26 Q1011 NOSIG
2026-04-12 03:00:00,METAR WADD 120300Z 11011KT 9999 FEW017 31/26 Q1011 NOSIG
2026-04-12 02:30:00,METAR WADD 120230Z 11010KT 9999 FEW017 32/25 Q1012 NOSIG
2026-04-12 02:00:00,METAR WADD 120200Z 11008KT 9999 FEW017 32/26 Q1012 NOSIG
2026-04-12 01:30:00,METAR WADD 120130Z 10007KT 060V130 9999 FEW017 31/26 Q1012 NOSIG
2026-04-12 01:00:00,METAR WADD 120100Z 09007KT 9999 FEW017 31/25 Q1012 NOSIG
2026-04-12 00:30:00,METAR WADD 120030Z 09006KT 9999 FEW017 31/25 Q1012 NOSIG
2026-04-12 00:00:00,METAR WADD 120000Z 06005KT 9999 FEW017 29/25 Q1012 NOSIG
2026-04-11 23:30:00,METAR WADD 112330Z 06006KT 9999 FEW017 28/25 Q1011 NOSIG
2026-04-11 23:00:00,METAR WADD 112300Z 03004KT 9999 FEW017 26/25 Q1011 NOSIG
2026-04-11 22:30:00,METAR WADD 112230Z 06004KT 9999 FEW017 26/24 Q1011 NOSIG
2026-04-11 22:00:00,METAR WADD 112200Z 05002KT 9999 FEW017 26/24 Q1011 NOSIG
2026-04-11 21:30:00,METAR WADD 112130Z 04003KT 9999 FEW017 27/25 Q1010 NOSIG
2026-04-11 21:00:00,METAR WADD 112100Z 10005KT 9999 FEW017 27/25 Q1010 NOSIG
2026-04-11 20:30:00,METAR WADD 112030Z 10006KT 9999 FEW017 27/25 Q1010 NOSIG
2026-04-11 20:00:00,METAR WADD 112000Z 12006KT 9999 FEW017 28/25 Q1010 NOSIG
2026-04-11 19:30:00,METAR WADD 111930Z 10006KT 9999 FEW017 28/25 Q1010 NOSIG
2026-04-11 19:00:00,METAR WADD 111900Z 11006KT 9999 FEW017 28/25 Q1010 NOSIG
2026-04-11 18:30:00,METAR WADD 111830Z 11006KT 9999 FEW017 28/25 Q1010 NOSIG
2026-04-11 18:00:00,METAR WADD 111800Z 12006KT 9999 FEW017 28/26 Q1011 NOSIG
2026-04-11 17:30:00,METAR WADD 111730Z 12007KT 9999 FEW017 28/25 Q1011 NOSIG
2026-04-11 17:00:00,METAR WADD 111700Z 13008KT 9999 FEW017 28/26 Q1011 NOSIG
2026-04-11 16:30:00,METAR WADD 111630Z 12008KT 9999 FEW017 28/26 Q1011 NOSIG
2026-04-11 16:00:00,METAR WADD 111600Z 12009KT 9999 FEW017 28/26 Q1011 NOSIG
2026-04-11 15:30:00,METAR WADD 111530Z 11009KT 9999 FEW017 28/26 Q1012 NOSIG
2026-04-11 15:00:00,METAR WADD 111500Z 11008KT 9999 FEW017 28/26 Q1012 NOSIG
2026-04-11 14:30:00,METAR WADD 111430Z 12009KT 9999 FEW017 28/26 Q1012 NOSIG
2026-04-11 14:00:00,METAR WADD 111400Z 12007KT 9999 FEW017 28/26 Q1012 NOSIG
2026-04-11 13:30:00,METAR WADD 111330Z 13009KT 9999 FEW017 29/26 Q1012 NOSIG
2026-04-11 13:00:00,METAR WADD 111300Z 13009KT 9999 FEW017 29/26 Q1011 NOSIG
2026-04-11 12:30:00,METAR WADD 111230Z 13010KT 9999 FEW017 29/26 Q1011 NOSIG
2026-04-11 12:00:00,METAR WADD 111200Z 12011KT 9999 SCT017 29/26 Q1011 NOSIG
2026-04-11 11:30:00,METAR WADD 111130Z 13010KT 9999 SCT017 29/26 Q1010 NOSIG
2026-04-11 11:00:00,METAR WADD 111100Z 13011KT 9999 SCT017 29/26 Q1010 NOSIG
2026-04-11 10:30:00,METAR WADD 111030Z 12011KT 9999 FEW017 29/26 Q1009 NOSIG
2026-04-11 10:00:00,METAR WADD 111000Z 13012KT 9999 FEW017 30/26 Q1009 NOSIG
2026-04-11 09:30:00,METAR WADD 110930Z 12012KT 9999 FEW017 30/26 Q1009 NOSIG
2026-04-11 09:00:00,METAR WADD 110900Z 14013KT 9999 FEW017 30/25 Q1009 NOSIG
2026-04-11 08:30:00,METAR WADD 110830Z 13012KT 9999 FEW017 31/25 Q1009 NOSIG
2026-04-11 08:00:00,METAR WADD 110800Z 11013KT 9999 FEW017 31/26 Q1008 NOSIG
2026-04-11 07:30:00,METAR WADD 110730Z 11012KT 9999 FEW017 31/26 Q1008 NOSIG
2026-04-11 07:00:00,METAR WADD 110700Z 12013KT 090V150 9999 FEW017 31/26 Q1009 NOSIG
2026-04-11 06:30:00,METAR WADD 110630Z 12012KT 9999 FEW017 31/26 Q1009 NOSIG
2026-04-11 06:00:00,METAR WADD 110600Z 12011KT 9999 FEW017 32/26 Q1009 NOSIG
2026-04-11 05:30:00,METAR WADD 110530Z 12011KT 9999 FEW017 32/26 Q1010 NOSIG
2026-04-11 05:00:00,METAR WADD 110500Z 11010KT 9999 FEW017 32/26 Q1010 NOSIG
2026-04-11 04:30:00,METAR WADD 110430Z 11012KT 9999 FEW017 31/25 Q1011 NOSIG
2026-04-11 04:00:00,METAR WADD 110400Z 11012KT 9999 FEW017 32/26 Q1011 NOSIG
2026-04-11 03:00:00,METAR WADD 110300Z 11009KT 9999 FEW017 32/26 Q1012 NOSIG
2026-04-11 02:30:00,METAR WADD 110230Z 11011KT 9999 SCT016 31/26 Q1012 NOSIG
2026-04-11 02:00:00,METAR WADD 110200Z 11010KT 9999 SCT016 31/26 Q1012 NOSIG
2026-04-11 01:30:00,METAR WADD 110130Z 10011KT 9999 SCT016 31/26 Q1012 NOSIG
2026-04-11 01:00:00,METAR WADD 110100Z 11009KT 9999 SCT016 31/26 Q1012 NOSIG
2026-04-11 00:30:00,METAR WADD 110030Z 09006KT 9999 SCT016 30/26 Q1012 NOSIG
2026-04-11 00:00:00,METAR WADD 110000Z 10006KT 070V130 9999 FEW016 29/26 Q1012 NOSIG
2026-04-10 23:30:00,METAR WADD 102330Z 11005KT 070V150 9999 FEW016 28/26 Q1012 NOSIG
2026-04-10 23:00:00,METAR WADD 102300Z 13006KT 9999 SCT016 27/26 Q1011 NOSIG
2026-04-10 22:30:00,METAR WADD 102230Z 11004KT 9999 SCT016 27/26 Q1011 NOSIG
2026-04-10 22:00:00,METAR WADD 102200Z VRB02KT 9999 SCT016 26/25 Q1011 NOSIG
2026-04-10 21:30:00,METAR WADD 102130Z 10002KT 9999 SCT016 27/25 Q1011 NOSIG
2026-04-10 21:00:00,METAR WADD 102100Z 07003KT 9999 SCT016 26/25 Q1010 NOSIG
2026-04-10 20:30:00,METAR WADD 102030Z 13003KT 9999 FEW016 27/25 Q1010 NOSIG
2026-04-10 20:00:00,METAR WADD 102000Z VRB02KT 9999 FEW016 27/25 Q1010 NOSIG
2026-04-10 19:30:00,METAR WADD 101930Z 06005KT 9999 FEW016 27/25 Q1011 NOSIG
2026-04-10 19:00:00,METAR WADD 101900Z 10007KT 9999 FEW016 28/25 Q1010 NOSIG
2026-04-10 18:30:00,METAR WADD 101830Z 12007KT 9999 FEW016 28/26 Q1011 NOSIG
2026-04-10 18:00:00,METAR WADD 101800Z 13007KT 9999 FEW016 28/26 Q1011 NOSIG
2026-04-10 17:30:00,METAR WADD 101730Z 12005KT 9999 FEW017 28/26 Q1011 NOSIG
2026-04-10 17:00:00,METAR WADD 101700Z 13004KT 9999 FEW017 28/26 Q1012 NOSIG
2026-04-10 16:30:00,METAR WADD 101630Z 11004KT 9999 SCT017 28/26 Q1012 NOSIG
2026-04-10 16:00:00,METAR WADD 101600Z VRB02KT 9999 SCT017 28/26 Q1013 NOSIG
2026-04-10 15:30:00,METAR WADD 101530Z 10004KT 9999 SCT017 28/26 Q1012 NOSIG
2026-04-10 15:00:00,METAR WADD 101500Z 10004KT 9999 SCT017 28/26 Q1013 NOSIG
2026-04-10 14:30:00,METAR WADD 101430Z 10005KT 9999 SCT017 28/26 Q1013 NOSIG
2026-04-10 14:00:00,METAR WADD 101400Z 12006KT 9999 SCT017 29/26 Q1013 NOSIG
2026-04-10 13:30:00,METAR WADD 101330Z 13007KT 9999 SCT017 29/26 Q1013 NOSIG
2026-04-10 13:00:00,METAR WADD 101300Z 13007KT 9999 SCT017 28/26 Q1012 NOSIG
2026-04-10 12:30:00,METAR WADD 101230Z 13007KT 9999 SCT017 28/26 Q1012 NOSIG
2026-04-10 12:00:00,METAR WADD 101200Z 12007KT 9999 SCT017 28/26 Q1012 NOSIG
2026-04-10 11:30:00,METAR WADD 101130Z 14008KT 9999 SCT017 29/26 Q1011 NOSIG
2026-04-10 11:00:00,METAR WADD 101100Z 14008KT 9999 SCT017 29/26 Q1011 NOSIG
2026-04-10 10:30:00,METAR WADD 101030Z 15010KT 9999 FEW016CB SCT017 29/26 Q1010 NOSIG
2026-04-10 10:00:00,METAR WADD 101000Z 14013KT 9999 FEW016CB SCT017 29/26 Q1010 NOSIG
2026-04-10 09:30:00,METAR WADD 100930Z 13012KT 9999 SCT017 30/26 Q1009 NOSIG
2026-04-10 09:00:00,METAR WADD 100900Z 13011KT 9999 SCT017 31/26 Q1009 NOSIG
2026-04-10 08:30:00,METAR WADD 100830Z 13012KT 9999 FEW017 31/26 Q1009 NOSIG
2026-04-10 08:00:00,METAR WADD 100800Z 12013KT 9999 FEW017 31/26 Q1009 NOSIG
2026-04-10 07:30:00,METAR WADD 100730Z 11012KT 9999 FEW017 31/26 Q1009 NOSIG
2026-04-10 07:00:00,METAR WADD 100700Z 11012KT 9999 FEW017 31/25 Q1009 NOSIG
2026-04-10 06:30:00,METAR WADD 100630Z 12011KT 9999 FEW017 32/26 Q1009 NOSIG
2026-04-10 06:00:00,METAR WADD 100600Z 11012KT 9999 FEW017 32/26 Q1009 NOSIG
2026-04-10 05:30:00,METAR WADD 100530Z 11012KT 9999 FEW017 32/26 Q1010 NOSIG
2026-04-10 05:00:00,METAR WADD 100500Z 11011KT 9999 FEW017 32/25 Q1010 NOSIG
2026-04-10 04:30:00,METAR WADD 100430Z 12012KT 9999 FEW017 32/25 Q1011 NOSIG
2026-04-10 04:00:00,METAR WADD 100400Z 12012KT 9999 FEW017 32/25 Q1011 NOSIG
2026-04-10 03:30:00,METAR WADD 100330Z 11010KT 9999 FEW017 32/26 Q1012 NOSIG
2026-04-10 03:00:00,METAR WADD 100300Z 13011KT 9999 FEW017 31/26 Q1012 NOSIG
2026-04-10 02:30:00,METAR WADD 100230Z 11010KT 9999 FEW017 31/26 Q1012 NOSIG
2026-04-10 02:00:00,METAR WADD 100200Z 11011KT 9999 FEW017 31/26 Q1012 NOSIG
2026-04-10 01:30:00,METAR WADD 100130Z 12009KT 9999 FEW017 31/26 Q1012 NOSIG
2026-04-10 01:00:00,METAR WADD 100100Z 10006KT 9999 FEW017 31/26 Q1012 NOSIG
2026-04-10 00:30:00,METAR WADD 100030Z 14005KT 9999 FEW017 30/26 Q1012 NOSIG
2026-04-10 00:00:00,METAR WADD 100000Z 12003KT 9999 FEW017 28/26 Q1012 NOSIG
2026-04-09 23:30:00,METAR WADD 092330Z 08003KT 9999 FEW017 27/25 Q1012 NOSIG
2026-04-09 23:00:00,METAR WADD 092300Z 07003KT 9999 FEW017 26/24 Q1011 NOSIG
2026-04-09 22:30:00,METAR WADD 092230Z 07003KT 9999 FEW017 25/24 Q1011 NOSIG
2026-04-09 22:00:00,METAR WADD 092200Z 02002KT 9999 FEW017 26/25 Q1011 NOSIG
2026-04-09 21:30:00,METAR WADD 092130Z 05002KT 9999 FEW017 26/25 Q1010 NOSIG
2026-04-09 21:00:00,METAR WADD 092100Z 13003KT 9999 FEW017 27/26 Q1010 NOSIG
2026-04-09 20:30:00,METAR WADD 092030Z 08001KT 9999 FEW017 26/25 Q1010 NOSIG
2026-04-09 20:00:00,METAR WADD 092000Z 01001KT 9999 FEW017 26/25 Q1010 NOSIG
2026-04-09 19:30:00,METAR WADD 091930Z 36004KT 9999 FEW017 26/25 Q1010 NOSIG
2026-04-09 19:00:00,METAR WADD 091900Z 34005KT 9999 FEW017 27/26 Q1010 NOSIG
2026-04-09 18:30:00,METAR WADD 091830Z VRB02KT 9999 FEW017 27/25 Q1011 NOSIG
2026-04-09 18:00:00,METAR WADD 091800Z VRB01KT 9999 FEW017 27/26 Q1011 NOSIG
2026-04-09 17:30:00,METAR WADD 091730Z VRB02KT 9999 FEW017 27/26 Q1011 NOSIG
2026-04-09 17:00:00,METAR WADD 091700Z 10004KT 9999 FEW017 27/26 Q1011 NOSIG
2026-04-09 16:30:00,METAR WADD 091630Z 09004KT 9999 FEW017 27/26 Q1012 NOSIG
2026-04-09 16:00:00,METAR WADD 091600Z 09004KT 9999 FEW017 27/25 Q1012 NOSIG
2026-04-09 15:30:00,METAR WADD 091530Z 08005KT 9999 FEW017 27/25 Q1012 NOSIG
2026-04-09 15:00:00,METAR WADD 091500Z 09006KT 9999 FEW017 28/25 Q1012 NOSIG
2026-04-09 14:30:00,METAR WADD 091430Z 12005KT 9999 FEW017 28/26 Q1012 NOSIG
2026-04-09 14:00:00,METAR WADD 091400Z 12007KT 9999 FEW017 28/26 Q1012 NOSIG
2026-04-09 13:30:00,METAR WADD 091330Z 13009KT 9999 FEW017 28/26 Q1012 NOSIG
2026-04-09 13:00:00,METAR WADD 091300Z 12007KT 9999 FEW017 28/26 Q1011 NOSIG
2026-04-09 12:30:00,METAR WADD 091230Z 12007KT 9999 FEW017 28/26 Q1011 NOSIG
2026-04-09 12:00:00,METAR WADD 091200Z 12006KT 9999 FEW017 28/26 Q1011 NOSIG
2026-04-09 11:30:00,METAR WADD 091130Z 12004KT 9999 FEW017 28/26 Q1011 NOSIG
2026-04-09 11:00:00,METAR WADD 091100Z 13006KT 9999 FEW017 28/26 Q1010 NOSIG
2026-04-09 10:30:00,METAR WADD 091030Z 14006KT 9999 FEW017 29/26 Q1010 NOSIG
2026-04-09 10:00:00,METAR WADD 091000Z 14007KT 9999 FEW017 29/26 Q1010 NOSIG
2026-04-09 09:30:00,METAR WADD 090930Z 14008KT 9999 FEW017 29/26 Q1010 NOSIG
2026-04-09 09:00:00,METAR WADD 090900Z 14010KT 9999 FEW017 30/25 Q1009 NOSIG
2026-04-09 08:30:00,METAR WADD 090830Z 13009KT 9999 FEW017 30/25 Q1009 NOSIG
2026-04-09 08:00:00,METAR WADD 090800Z 13012KT 9999 FEW017 31/25 Q1009 NOSIG
2026-04-09 07:30:00,METAR WADD 090730Z 13012KT 9999 FEW017 31/26 Q1009 NOSIG
2026-04-09 07:00:00,METAR WADD 090700Z 13012KT 9999 FEW017 31/26 Q1009 NOSIG
2026-04-09 06:30:00,METAR WADD 090630Z 11013KT 9999 FEW017 31/26 Q1009 NOSIG
2026-04-09 06:00:00,METAR WADD 090600Z 11012KT 9999 FEW017 31/26 Q1009 NOSIG
2026-04-09 05:30:00,METAR WADD 090530Z 10013KT 9999 FEW017 31/26 Q1010 NOSIG
2026-04-09 05:00:00,METAR WADD 090500Z 11012KT 9999 FEW017 32/26 Q1010 NOSIG
2026-04-09 04:30:00,METAR WADD 090430Z 11011KT 9999 FEW017 31/26 Q1011 NOSIG
2026-04-09 04:00:00,METAR WADD 090400Z 11011KT 9999 FEW017 31/26 Q1011 NOSIG
2026-04-09 03:30:00,METAR WADD 090330Z 11011KT 9999 FEW017 31/26 Q1012 NOSIG
2026-04-09 03:00:00,METAR WADD 090300Z 12009KT 9999 FEW017 31/26 Q1012 NOSIG
2026-04-09 02:30:00,METAR WADD 090230Z 11009KT 9999 FEW017 31/26 Q1012 NOSIG
2026-04-09 02:00:00,METAR WADD 090200Z 11008KT 9999 FEW017 31/26 Q1012 NOSIG
2026-04-09 01:30:00,METAR WADD 090130Z 10007KT 9999 FEW017 31/26 Q1012 NOSIG
2026-04-09 01:00:00,METAR WADD 090100Z 14003KT 9999 FEW017 30/26 Q1012 NOSIG
2026-04-09 00:30:00,METAR WADD 090030Z 16004KT 9999 FEW017 29/26 Q1012 NOSIG
2026-04-09 00:00:00,METAR WADD 090000Z VRB02KT 9999 FEW017 28/26 Q1012 NOSIG
2026-04-08 23:30:00,METAR WADD 082330Z 01004KT 320V070 9999 FEW017 26/25 Q1012 NOSIG
2026-04-08 23:00:00,METAR WADD 082300Z 03004KT 9999 FEW017 25/25 Q1011 NOSIG
2026-04-08 22:30:00,METAR WADD 082230Z 02006KT 9999 FEW016 25/25 Q1011 NOSIG
2026-04-08 22:00:00,METAR WADD 082200Z 02004KT 9999 SCT016 25/25 Q1011 NOSIG
2026-04-08 21:30:00,METAR WADD 082130Z 17003KT 9999 SCT016 26/25 Q1011 NOSIG
2026-04-08 21:00:00,METAR WADD 082100Z 15004KT 9999 BKN016 26/25 Q1010 NOSIG
2026-04-08 20:30:00,METAR WADD 082030Z 06003KT 9999 BKN016 25/24 Q1011 NOSIG
2026-04-08 20:00:00,METAR WADD 082000Z 05004KT 8000 BKN016 25/24 Q1011 RERA NOSIG
2026-04-08 19:30:00,METAR WADD 081930Z 08004KT 350V120 7000 -RA BKN016 25/24 Q1011 NOSIG
2026-04-08 19:00:00,METAR WADD 081900Z 04002KT 7000 -RA BKN016 25/24 Q1011 RETS NOSIG
2026-04-08 18:30:00,METAR WADD 081830Z 02003KT 7000 -TSRA FEW015CB BKN016 25/24 Q1011 NOS IG
2026-04-08 18:00:00,METAR WADD 081800Z 09004KT 350V130 7000 -TSRA FEW015CB BKN016 25/24 Q 1012 NOSIG RMK CB IN CLIMB-OUT
2026-04-08 17:30:00,METAR WADD 081730Z 13006KT 5000 TSRA FEW015CB BKN016 25/24 Q1012 TEMPO TL1830 5000 TSRA RMK CB IN CLIMB-OUT
2026-04-08 17:00:00,METAR WADD 081700Z 13007KT 090V160 5000 TSRA FEW015CB BKN016 25/24 Q1012 TEMPO TL1800 5000 TSRA RMK CB IN CLIMB-OUT
2026-04-08 16:30:00,METAR WADD 081630Z 24004KT 210V280 7000 -TSRA FEW015CB BKN016 25/24 Q1012 TEMPO TL1730 -TSRA RMK CB IN APCH AND CLIMB-OUT
2026-04-08 16:00:00,METAR WADD 081600Z 30016KT 7000 -TSRA FEW015CB BKN016 26/24 Q1012 TEM PO TL1700 -TSRA RMK CB IN APCH AND CLIMB-OUT
2026-04-08 15:30:00,METAR WADD 081530Z 14004KT 9999 TS FEW015CB SCT016 28/26 Q1012 TEMPO TL1700 TS RMK CB IN APCH
2026-04-08 15:00:00,METAR WADD 081500Z 12008KT 9999 FEW016CB SCT017 28/26 Q1012 RETS NOSI G RMK CB IN APCH
2026-04-08 14:30:00,METAR WADD 081430Z 13008KT 9999 TS FEW016CB SCT017 28/26 Q1012 TEMPO TL1530 TS RMK CB IN APCH
2026-04-08 14:00:00,METAR WADD 081400Z 13007KT 9999 TS FEW016CB SCT017 28/26 Q1012 TEMPO TL1500 TS RMK CB IN APCH
2026-04-08 13:30:00,METAR WADD 081330Z 12008KT 9999 FEW017 28/26 Q1012 NOSIG
2026-04-08 13:00:00,METAR WADD 081300Z 12010KT 9999 FEW017 29/26 Q1011 NOSIG
2026-04-08 12:30:00,METAR WADD 081230Z 14009KT 9999 FEW016CB SCT017 29/26 Q1011 NOSIG
2026-04-08 12:00:00,METAR WADD 081200Z 14007KT 9999 FEW017 29/26 Q1011 NOSIG
2026-04-08 11:30:00,METAR WADD 081130Z 14008KT 9999 FEW017 29/26 Q1011 NOSIG
2026-04-08 11:00:00,METAR WADD 081100Z 14007KT 9999 FEW017 29/26 Q1010 NOSIG
2026-04-08 10:30:00,METAR WADD 081030Z 14007KT 9999 SCT016 29/25 Q1010 NOSIG
2026-04-08 10:00:00,METAR WADD 081000Z 13007KT 9999 SCT016 29/25 Q1009 NOSIG
2026-04-08 09:30:00,METAR WADD 080930Z 13008KT 9999 SCT016 29/26 Q1009 NOSIG
2026-04-08 09:00:00,METAR WADD 080900Z 13008KT 9999 SCT016 30/26 Q1009 NOSIG
2026-04-08 08:30:00,METAR WADD 080830Z 13008KT 9999 FEW015CB SCT016 30/26 Q1008 NOSIG
2026-04-08 08:00:00,METAR WADD 080800Z 12010KT 9999 FEW015CB SCT016 30/26 Q1008 RETS NOSI G
2026-04-08 07:37:00,SPECI WADD 080737Z 14010KT 9999 TS FEW015CB SCT016 30/26 Q1008 TEMPO TL0830 TS
2026-04-08 07:30:00,METAR WADD 080730Z 14010KT 9999 FEW015CB SCT016 30/26 Q1008 NOSIG
2026-04-08 07:00:00,METAR WADD 080700Z 16010KT 9999 FEW015CB SCT016 31/26 Q1008 NOSIG
2026-04-08 06:30:00,METAR WADD 080630Z 16009KT 9999 FEW015CB SCT016 31/26 Q1008 NOSIG
2026-04-08 06:00:00,METAR WADD 080600Z 16008KT 9999 FEW015CB SCT016 32/26 Q1008 NOSIG
2026-04-08 05:30:00,METAR WADD 080530Z 15007KT 110V190 9999 FEW017 33/26 Q1009 NOSIG
2026-04-08 05:00:00,METAR WADD 080500Z 12008KT 9999 FEW017 33/25 Q1009 NOSIG
2026-04-08 04:30:00,METAR WADD 080430Z 11008KT 9999 FEW017 33/26 Q1010 NOSIG
2026-04-08 04:00:00,METAR WADD 080400Z 11006KT 9999 FEW017 33/25 Q1010 NOSIG
2026-04-08 03:30:00,METAR WADD 080330Z 12008KT 9999 FEW017 33/25 Q1011 NOSIG
2026-04-08 03:00:00,METAR WADD 080300Z 12009KT 9999 FEW017 32/25 Q1011 NOSIG
2026-04-08 02:30:00,METAR WADD 080230Z 12009KT 9999 FEW017 32/25 Q1011 NOSIG
2026-04-08 02:00:00,METAR WADD 080200Z 13007KT 080V150 9999 FEW017 32/25 Q1011 NOSIG
2026-04-08 01:30:00,METAR WADD 080130Z 23003KT 9999 FEW017 32/26 Q1011 NOSIG
2026-04-08 01:00:00,METAR WADD 080100Z 30004KT 230V320 9999 FEW017 31/25 Q1011 NOSIG
2026-04-08 00:30:00,METAR WADD 080030Z 35004KT 270V050 9999 FEW017 30/25 Q1011 NOSIG
2026-04-08 00:00:00,METAR WADD 080000Z 36006KT 9999 FEW017 28/25 Q1011 NOSIG
2026-04-07 23:30:00,METAR WADD 072330Z 36007KT 320V040 9999 FEW017 27/25 Q1011 NOSIG
2026-04-07 23:00:00,METAR WADD 072300Z 34007KT 9999 FEW016 26/24 Q1010 NOSIG
2026-04-07 22:30:00,METAR WADD 072230Z 36002KT 9999 FEW016 26/24 Q1010 NOSIG
2026-04-07 22:00:00,METAR WADD 072200Z VRB01KT 9999 FEW016 26/24 Q1010 NOSIG
2026-04-07 21:30:00,METAR WADD 072130Z 09003KT 9999 FEW016 26/25 Q1009 NOSIG
2026-04-07 21:00:00,METAR WADD 072100Z 09003KT FEW016 26/25 Q1009 NOSIG
2026-04-07 20:30:00,METAR WADD 072030Z 13005KT 9999 FEW016 27/25 Q1009 NOSIG
2026-04-07 20:00:00,METAR WADD 072000Z 10003KT 9999 FEW016 26/25 Q1009 NOSIG
2026-04-07 19:30:00,METAR WADD 071930Z 08004KT 9999 FEW016 26/24 Q1009 NOSIG
2026-04-07 19:00:00,METAR WADD 071900Z 04005KT 9999 FEW016 26/24 Q1010 NOSIG
2026-04-07 18:30:00,METAR WADD 071830Z 01004KT 9999 FEW016 26/24 Q1010 NOSIG
2026-04-07 18:00:00,METAR WADD 071800Z 05004KT 9999 FEW016 27/24 Q1010 NOSIG
2026-04-07 17:30:00,METAR WADD 071730Z 02005KT 9999 FEW016 27/24 Q1010 NOSIG
2026-04-07 17:00:00,METAR WADD 071700Z 03005KT 9999 FEW016 27/25 Q1011 NOSIG
2026-04-07 16:30:00,METAR WADD 071630Z 04005KT 9999 FEW016 27/25 Q1011 NOSIG
2026-04-07 16:00:00,METAR WADD 071600Z 06007KT 9999 FEW016 27/25 Q1011 NOSIG
2026-04-07 15:30:00,METAR WADD 071530Z 07008KT 9999 SCT016 27/25 Q1011 NOSIG
2026-04-07 15:00:00,METAR WADD 071500Z 11007KT 9999 SCT016 28/26 Q1011 NOSIG
2026-04-07 14:30:00,METAR WADD 071430Z 12004KT 9999 SCT016 28/26 Q1011 NOSIG
2026-04-07 14:00:00,METAR WADD 071400Z 11004KT 070V130 9999 FEW015CB SCT016 28/26 Q1012 N OSIG
2026-04-07 13:30:00,METAR WADD 071330Z 11005KT 9999 FEW015CB SCT016 28/25 Q1011 NOSIG
2026-04-07 13:00:00,METAR WADD 071300Z 11007KT 9999 FEW015CB SCT016 28/25 Q1011 NOSIG
2026-04-07 12:30:00,METAR WADD 071230Z 13009KT 9999 FEW015CB BKN016 28/26 Q1011 NOSIG
2026-04-07 12:00:00,METAR WADD 071200Z 13008KT 9999 FEW015CB BKN016 28/26 Q1011 NOSIG
2026-04-07 11:30:00,METAR WADD 071130Z 15008KT 9999 FEW015CB BKN016 29/26 Q1010 NOSIG
2026-04-07 11:00:00,METAR WADD 071100Z 15005KT 9999 FEW015CB BKN016 29/26 Q1010 NOSIG
2026-04-07 10:30:00,METAR WADD 071030Z 14005KT 9999 BKN016 29/26 Q1010 NOSIG
2026-04-07 10:00:00,METAR WADD 071000Z 11003KT 9999 BKN016 29/25 Q1009 NOSIG
2026-04-07 09:30:00,METAR WADD 070930Z 14005KT 9999 SCT016 29/26 Q1009 NOSIG
2026-04-07 09:00:00,METAR WADD 070900Z 12006KT 9999 SCT016 29/26 Q1009 NOSIG
2026-04-07 08:30:00,METAR WADD 070830Z 11007KT 9999 SCT016 29/26 Q1008 NOSIG
2026-04-07 08:00:00,METAR WADD 070800Z 11008KT 9999 FEW015CB SCT016 30/25 Q1008 NOSIG
2026-04-07 07:30:00,METAR WADD 070730Z 12007KT 9999 FEW015CB SCT016 30/26 Q1008 NOSIG
2026-04-07 07:00:00,METAR WADD 070700Z 11009KT 9999 FEW015CB SCT016 30/25 Q1008 NOSIG
2026-04-07 06:30:00,METAR WADD 070630Z 15011KT 9999 FEW015CB SCT017 31/26 Q1008 NOSIG
2026-04-07 06:00:00,METAR WADD 070600Z 14013KT 9999 SCT017 31/26 Q1008 NOSIG
2026-04-07 05:30:00,METAR WADD 070530Z 14013KT 9999 FEW017TCU 31/26 Q1009 NOSIG
2026-04-07 05:00:00,METAR WADD 070500Z 12012KT 9999 FEW017TCU 32/26 Q1009 NOSIG
2026-04-07 04:30:00,METAR WADD 070430Z 11011KT 9999 FEW017TCU 32/26 Q1010 NOSIG
2026-04-07 04:00:00,METAR WADD 070400Z 11009KT 9999 FEW017 32/26 Q1010 NOSIG
2026-04-07 03:30:00,METAR WADD 070330Z 13006KT 9999 FEW017 33/25 Q1010 NOSIG
2026-04-07 03:00:00,METAR WADD 070300Z 13007KT 9999 FEW017 32/26 Q1010 NOSIG
2026-04-07 02:30:00,METAR WADD 070230Z 12009KT 9999 FEW017 31/26 Q1011 NOSIG
2026-04-07 02:00:00,METAR WADD 070200Z 11008KT 070V130 9999 FEW017 31/26 Q1011 NOSIG
2026-04-07 01:30:00,METAR WADD 070130Z 10007KT 070V140 9999 FEW017 32/26 Q1011 NOSIG
2026-04-07 01:00:00,METAR WADD 070100Z 11006KT 9999 FEW017 31/26 Q1011 NOSIG
2026-04-07 00:30:00,METAR WADD 070030Z 12005KT 9999 FEW017 31/26 Q1011 NOSIG
2026-04-07 00:00:00,METAR WADD 070000Z VRB02KT 9999 FEW017 28/25 Q1011 NOSIG
2026-04-06 23:30:00,METAR WADD 062330Z 35004KT 320V050 9999 SCT016 27/25 Q1011 NOSIG
2026-04-06 23:00:00,METAR WADD 062300Z 04002KT 9999 FEW017 26/25 Q1011 NOSIG
2026-04-06 22:30:00,METAR WADD 062230Z 35003KT 9999 FEW017 26/24 Q1010 NOSIG
2026-04-06 22:00:00,METAR WADD 062200Z 35002KT 9999 FEW017 26/24 Q1010 NOSIG
2026-04-06 21:30:00,METAR WADD 062130Z 01004KT FEW017 26/24 Q1010 NOSIG
2026-04-06 21:00:00,METAR WADD 062100Z 02003KT 9999 FEW017 26/24 Q1010 NOSIG
2026-04-06 20:30:00,METAR WADD 062030Z 35003KT 9999 FEW017 26/24 Q1010 NOSIG
2026-04-06 20:00:00,METAR WADD 062000Z 01005KT 9999 FEW017 26/24 Q1010 NOSIG
2026-04-06 19:30:00,METAR WADD 061930Z 36005KT 9999 FEW017 26/25 Q1010 NOSIG
2026-04-06 19:00:00,METAR WADD 061900Z 34005KT 9999 FEW017 26/25 Q1010 NOSIG
2026-04-06 18:30:00,METAR WADD 061830Z 34004KT 9999 FEW017 26/25 Q1010 NOSIG
2026-04-06 18:00:00,METAR WADD 061800Z 33005KT 9999 FEW017 27/25 Q1010 NOSIG
2026-04-06 17:30:00,METAR WADD 061730Z 01004KT 9999 FEW017 27/26 Q1011 NOSIG
2026-04-06 17:00:00,METAR WADD 061700Z 09003KT 9999 FEW017 27/26 Q1011 NOSIG
2026-04-06 16:30:00,METAR WADD 061630Z 09004KT 060V130 9999 FEW017 27/26 Q1011 NOSIG
2026-04-06 16:00:00,METAR WADD 061600Z 10006KT FEW017 28/26 Q1011 NOSIG
2026-04-06 15:30:00,METAR WADD 061530Z 12007KT 9999 FEW017 28/26 Q1012 NOSIG
2026-04-06 15:00:00,METAR WADD 061500Z 12007KT 9999 FEW017 28/26 Q1012 NOSIG
2026-04-06 14:30:00,METAR WADD 061430Z 12005KT 9999 FEW017 28/26 Q1011 NOSIG
2026-04-06 14:00:00,METAR WADD 061400Z 12006KT 9999 FEW017 28/26 Q1012 NOSIG
2026-04-06 13:30:00,METAR WADD 061330Z 13007KT 9999 FEW017 28/26 Q1011 NOSIG
2026-04-06 13:00:00,METAR WADD 061300Z 12008KT 9999 FEW017 28/26 Q1011 NOSIG
2026-04-06 12:30:00,METAR WADD 061230Z 10005KT 9999 SCT016 28/28 Q1011 NOSIG
2026-04-06 12:00:00,METAR WADD 061200Z 10006KT 9999 SCT016 28/26 Q1010 NOSIG
2026-04-06 11:30:00,METAR WADD 061130Z 12007KT 9999 SCT016 28/26 Q1010 NOSIG
2026-04-06 11:00:00,METAR WADD 061100Z 12008KT 9999 SCT016 28/25 Q1009 NOSIG
2026-04-06 10:30:00,METAR WADD 061030Z 11009KT 9999 SCT016 28/26 Q1009 NOSIG
2026-04-06 10:00:00,METAR WADD 061000Z 11009KT 9999 SCT016 29/26 Q1009 NOSIG
2026-04-06 09:30:00,METAR WADD 060930Z 12009KT 9999 BKN016 29/27 Q1009 NOSIG
2026-04-06 09:00:00,METAR WADD 060900Z 10009KT 9999 BKN016 29/26 Q1009 NOSIG
2026-04-06 08:30:00,METAR WADD 060830Z 10008KT 9999 BKN016 29/26 Q1008 NOSIG
2026-04-06 08:00:00,METAR WADD 060800Z 13008KT 9999 BKN016 30/26 Q1008 NOSIG
2026-04-06 07:30:00,METAR WADD 060730Z 11009KT 9999 FEW015CB BKN016 30/26 Q1008 NOSIG
2026-04-06 07:00:00,METAR WADD 060700Z 10008KT 9999 FEW015CB BKN016 30/26 Q1008 RETS NOSI G
2026-04-06 06:30:00,METAR WADD 060630Z 10010KT 9999 TS FEW015CB BKN016 30/26 Q1009 TEMPO TL0730 TS
2026-04-06 06:21:00,SPECI WADD 060621Z COR 15008KT 9999 TS FEW015CB BKN016 32/26 Q1008 TEMPO TL0721 TS
2026-04-06 06:00:00,METAR WADD 060600Z 15008KT 9999 FEW016CB FEW017 32/26 Q1008 NOSIG
2026-04-06 05:30:00,METAR WADD 060530Z 15007KT 9999 FEW017 32/26 Q1008 NOSIG
2026-04-06 05:00:00,METAR WADD 060500Z 14008KT 9999 FEW017 32/26 Q1009 NOSIG
2026-04-06 04:30:00,METAR WADD 060430Z 15009KT 9999 FEW017 32/26 Q1009 NOSIG
2026-04-06 04:00:00,METAR WADD 060400Z 11008KT 9999 FEW017 32/26 Q1010 NOSIG
2026-04-06 03:30:00,METAR WADD 060330Z 12009KT 9999 FEW017 32/26 Q1010 NOSIG
2026-04-06 03:00:00,METAR WADD 060300Z 12009KT 9999 FEW017 32/26 Q1011 NOSIG
2026-04-06 02:30:00,METAR WADD 060230Z 10011KT 9999 FEW017 31/26 Q1011 NOSIG
2026-04-06 02:00:00,METAR WADD 060200Z 12008KT 9999 FEW017 32/26 Q1011 NOSIG
2026-04-06 01:30:00,METAR WADD 060130Z 14006KT 100V160 9999 FEW017 32/26 Q1011 NOSIG
2026-04-06 01:00:00,METAR WADD 060100Z 13004KT 090V160 9999 FEW017 32/26 Q1011 NOSIG
2026-04-06 00:30:00,METAR WADD 060030Z 11004KT 070V130 9999 FEW017 31/26 Q1011 NOSIG
2026-04-06 00:00:00,METAR WADD 060000Z 07006KT 9999 FEW017 29/26 Q1010 NOSIG
2026-04-05 23:30:00,METAR WADD 052330Z VRB02KT 9999 FEW017 28/26 Q1010 NOSIG
2026-04-05 23:00:00,METAR WADD 052300Z 16006KT 9999 FEW016 27/26 Q1010 NOSIG
2026-04-05 22:30:00,METAR WADD 052230Z 14005KT 9999 SCT016 27/25 Q1010 NOSIG
2026-04-05 22:00:00,METAR WADD 052200Z VRB02KT 9999 SCT016 26/25 Q1009 NOSIG
2026-04-05 21:30:00,METAR WADD 052130Z 36002KT 9999 SCT016 26/25 Q1009 NOSIG
2026-04-05 21:00:00,METAR WADD 052100Z 01004KT 9999 SCT016 26/25 Q1009 NOSIG
2026-04-05 20:30:00,METAR WADD 052030Z 01002KT 9999 SCT016 26/25 Q1009 NOSIG
2026-04-05 20:00:00,METAR WADD 052000Z VRB02KT 9999 SCT016 26/25 Q1009 NOSIG
2026-04-05 19:30:00,METAR WADD 051930Z 08004KT 9999 SCT016 27/25 Q1009 NOSIG
2026-04-05 19:00:00,METAR WADD 051900Z 11002KT 9999 SCT016 27/25 Q1009 NOSIG
2026-04-05 18:30:00,METAR WADD 051830Z 09003KT 9999 SCT016 27/25 Q1009 NOSIG
2026-04-05 18:00:00,METAR WADD 051800Z 04004KT 9999 SCT016 27/25 Q1009 NOSIG
2026-04-05 17:30:00,METAR WADD 051730Z 03004KT 9999 SCT016 27/24 Q1010 NOSIG
2026-04-05 17:00:00,METAR WADD 051700Z 02006KT 9999 SCT016 28/25 Q1010 NOSIG
2026-04-05 16:30:00,METAR WADD 051630Z 04005KT 9999 SCT016 27/25 Q1010 NOSIG
2026-04-05 16:00:00,METAR WADD 051600Z 10004KT 9999 SCT016 27/25 Q1010 NOSIG
2026-04-05 15:30:00,METAR WADD 051530Z 08007KT 9999 SCT016 27/25 Q1011 NOSIG
2026-04-05 15:00:00,METAR WADD 051500Z 09007KT 9999 FEW015CB SCT016 28/25 Q1011 NOSIG
2026-04-05 13:00:00,METAR WADD 051300Z 11007KT 9999 FEW015CB SCT016 28/27 Q1010 NOSIG
2026-04-05 12:30:00,METAR WADD 051230Z 10006KT 9999 FEW015CB SCT016 28/26 Q1010 NOSIG
2026-04-05 12:00:00,METAR WADD 051200Z 11007KT 9999 FEW015CB SCT016 28/26 Q1009 NOSIG
2026-04-05 11:30:00,METAR WADD 051130Z 12008KT 9999 FEW016CB FEW016 28/26 Q1009 RETS NOSI G
2026-04-05 11:00:00,METAR WADD 051100Z 12006KT 9999 TS FEW016CB SCT016 29/26 Q1009 TEMPO TL1130 TS
2026-04-05 10:30:00,METAR WADD 051030Z 13010KT 9999 TS FEW016CB SCT016 29/26 Q1008 TEMPO TL1130 TS
2026-04-05 10:18:00,SPECI WADD 051018Z 13006KT 9999 TS FEW016CB SCT016 29/26 Q1008 TEMPO TL1118 TS
2026-04-05 10:00:00,METAR WADD 051000Z 13010KT 9999 SCT016 29/26 Q1008 NOSIG
2026-04-05 09:30:00,METAR WADD 050930Z 13010KT 9999 SCT016 29/26 Q1008 NOSIG
2026-04-05 09:00:00,METAR WADD 050900Z 13007KT 9999 SCT016 29/26 Q1008 NOSIG
2026-04-05 08:30:00,METAR WADD 050830Z 13008KT 9999 SCT016 29/26 Q1007 NOSIG
2026-04-05 08:00:00,METAR WADD 050800Z 14010KT 9999 SCT016 30/26 Q1008 NOSIG
2026-04-05 07:30:00,METAR WADD 050730Z 13009KT 9999 FEW016CB SCT016 30/26 Q1008 NOSIG
2026-04-05 07:00:00,METAR WADD 050700Z 13011KT 9999 FEW016CB SCT016 30/26 Q1008 NOSIG
2026-04-05 06:30:00,METAR WADD 050630Z 12012KT 9999 FEW016CB SCT016 30/26 Q1008 NOSIG
2026-04-05 06:00:00,METAR WADD 050600Z 13016KT 9999 FEW016CB SCT017 31/25 Q1008 NOSIG
2026-04-05 05:30:00,METAR WADD 050530Z 14015KT 9999 SCT017 31/26 Q1008 NOSIG
2026-04-05 05:00:00,METAR WADD 050500Z 12013KT 9999 FEW017 32/26 Q1008 NOSIG
2026-04-05 04:30:00,METAR WADD 050430Z 12012KT 9999 SCT017 32/26 Q1009 NOSIG
2026-04-05 04:00:00,METAR WADD 050400Z 12011KT 9999 SCT016 31/26 Q1009 NOSIG
2026-04-05 03:30:00,METAR WADD 050330Z 11012KT 9999 FEW015CB SCT016 31/26 Q1010 NOSIG
2026-04-05 03:00:00,METAR WADD 050300Z 11010KT 9999 SCT016 31/26 Q1010 NOSIG
2026-04-05 02:30:00,METAR WADD 050230Z 11011KT 9999 SCT016 31/26 Q1010 NOSIG
2026-04-05 02:00:00,METAR WADD 050200Z 10011KT 9999 SCT016 31/26 Q1010 NOSIG
2026-04-05 01:30:00,METAR WADD 050130Z 10009KT 9999 FEW015CB SCT016 31/26 Q1010 NOSIG RMK CB IN APCH
2026-04-05 01:00:00,METAR WADD 050100Z 11008KT 9999 SCT016 30/26 Q1010 NOSIG
2026-04-05 00:30:00,METAR WADD 050030Z 10008KT 9999 SCT016 29/26 Q1010 NOSIG
2026-04-05 00:00:00,METAR WADD 050000Z 10007KT 9999 FEW017 29/26 Q1010 NOSIG
2026-04-04 23:30:00,METAR WADD 042330Z 10005KT 9999 FEW017 28/26 Q1009 NOSIG
2026-04-04 23:00:00,METAR WADD 042300Z 09005KT 9999 FEW017 27/26 Q1009 NOSIG
2026-04-04 22:30:00,METAR WADD 042230Z 10005KT 9999 FEW017 27/26 Q1009 NOSIG
2026-04-04 22:00:00,METAR WADD 042200Z 09005KT 9999 FEW017 27/26 Q1009 NOSIG
2026-04-04 21:30:00,METAR WADD 042130Z 09006KT 9999 FEW017 27/25 Q1009 NOSIG
2026-04-04 21:00:00,METAR WADD 042100Z 10006KT 9999 FEW017 27/26 Q1008 NOSIG
2026-04-04 20:30:00,METAR WADD 042030Z 09005KT 9999 FEW017 27/25 Q1008 NOSIG
2026-04-04 20:00:00,METAR WADD 042000Z 08006KT 9999 FEW017 27/25 Q1008 NOSIG
2026-04-04 19:30:00,METAR WADD 041930Z 08007KT 9999 FEW016CB SCT017 27/26 Q1008 NOSIG
2026-04-04 19:00:00,METAR WADD 041900Z 08008KT 9999 FEW016CB SCT017 27/26 Q1008 NOSIG
2026-04-04 18:30:00,METAR WADD 041830Z 10007KT 9999 FEW016CB SCT017 27/26 Q1008 NOSIG
2026-04-04 18:00:00,METAR WADD 041800Z 10005KT 9999 FEW016CB SCT017 27/26 Q1009 NOSIG
2026-04-04 17:30:00,METAR WADD 041730Z 11007KT 9999 FEW016CB SCT017 28/26 Q1009 NOSIG
2026-04-04 17:00:00,METAR WADD 041700Z 10007KT 9999 FEW016CB SCT017 28/26 Q1009 NOSIG
2026-04-04 16:30:00,METAR WADD 041630Z 11006KT 9999 FEW016CB SCT017 28/26 Q1010 NOSIG
2026-04-04 16:00:00,METAR WADD 041600Z 09005KT 9999 FEW016CB SCT017 28/26 Q1010 NOSIG
2026-04-04 15:30:00,METAR WADD 041530Z 08005KT 9999 FEW016CB SCT017 27/26 Q1010 NOSIG
2026-04-04 15:00:00,METAR WADD 041500Z 09005KT 9999 FEW016CB SCT017 28/26 Q1010 NOSIG
2026-04-04 14:30:00,METAR WADD 041430Z 11005KT 9999 FEW016CB SCT017 28/26 Q1010 NOSIG
2026-04-04 14:00:00,METAR WADD 041400Z 12006KT 9999 FEW017 28/27 Q1010 NOSIG
2026-04-04 13:30:00,METAR WADD 041330Z 12008KT 9999 FEW017 28/27 Q1010 NOSIG
2026-04-04 13:00:00,METAR WADD 041300Z 13008KT 9999 FEW017 28/26 Q1010 NOSIG
2026-04-04 12:30:00,METAR WADD 041230Z 12007KT 9999 SCT016 28/26 Q1009 NOSIG
2026-04-04 12:00:00,METAR WADD 041200Z 13009KT 9999 SCT016 29/26 Q1009 NOSIG
2026-04-04 11:30:00,METAR WADD 041130Z 13008KT 9999 SCT016 29/26 Q1009 NOSIG
2026-04-04 11:00:00,METAR WADD 041100Z 12007KT 9999 SCT016 29/26 Q1008 NOSIG
2026-04-04 10:30:00,METAR WADD 041030Z 13010KT 9999 SCT016 29/26 Q1008 NOSIG
2026-04-04 10:00:00,METAR WADD 041000Z 14011KT 9999 SCT016 29/26 Q1007 NOSIG
2026-04-04 09:30:00,METAR WADD 040930Z 13013KT 9999 SCT016 30/26 Q1007 NOSIG
2026-04-04 09:00:00,METAR WADD 040900Z 13013KT 9999 SCT016 30/26 Q1007 NOSIG
2026-04-04 08:30:00,METAR WADD 040830Z 13016KT 9999 SCT016 30/26 Q1007 NOSIG
2026-04-04 08:00:00,METAR WADD 040800Z 14016KT 9999 FEW016 31/26 Q1007 NOSIG
2026-04-04 07:30:00,METAR WADD 040730Z 15017KT 9999 FEW016 31/26 Q1007 NOSIG
2026-04-04 07:00:00,METAR WADD 040700Z 13015KT 9999 FEW016 31/25 Q1007 NOSIG
2026-04-04 06:30:00,METAR WADD 040630Z 13013KT 9999 FEW016 32/26 Q1007 NOSIG
2026-04-04 06:00:00,METAR WADD 040600Z 12013KT 9999 FEW016 31/25 Q1008 NOSIG
2026-04-04 05:30:00,METAR WADD 040530Z 12012KT 9999 FEW016 31/26 Q1008 NOSIG
2026-04-04 05:00:00,METAR WADD 040500Z 12012KT 9999 FEW016 32/26 Q1008 NOSIG
2026-04-04 04:30:00,METAR WADD 040430Z 11011KT 9999 FEW016 32/25 Q1009 NOSIG
2026-04-04 04:00:00,METAR WADD 040400Z 10012KT 9999 SCT016 31/26 Q1009 NOSIG
2026-04-04 03:30:00,METAR WADD 040330Z 12011KT 9999 SCT016 31/26 Q1009 NOSIG
2026-04-04 03:00:00,METAR WADD 040300Z 12010KT 9999 SCT016 31/26 Q1009 NOSIG
2026-04-04 02:30:00,METAR WADD 040230Z 11011KT 9999 SCT016 31/26 Q1010 NOSIG
2026-04-04 02:00:00,METAR WADD 040200Z 11011KT 9999 SCT016 31/26 Q1010 NOSIG
2026-04-04 01:30:00,METAR WADD 040130Z 11012KT 9999 SCT016 30/26 Q1010 NOSIG
2026-04-04 01:00:00,METAR WADD 040100Z 13012KT 9999 SCT016 29/26 Q1010 NOSIG
2026-04-04 00:30:00,METAR WADD 040030Z 10009KT 9999 SCT016 30/26 Q1010 NOSIG
2026-04-04 00:00:00,METAR WADD 040000Z 09006KT 9999 SCT016 28/26 Q1010 NOSIG
2026-04-03 23:30:00,METAR WADD 032330Z 09006KT 9999 SCT016 28/26 Q1010 NOSIG
2026-04-03 23:00:00,METAR WADD 032300Z 10006KT 9999 SCT016 27/26 Q1009 NOSIG
2026-04-03 22:30:00,METAR WADD 032230Z 11007KT 9999 SCT016 27/26 Q1009 NOSIG
2026-04-03 22:00:00,METAR WADD 032200Z 11006KT 9999 FEW017 27/26 Q1009 NOSIG
2026-04-03 21:30:00,METAR WADD 032130Z 11007KT 9999 FEW017 27/26 Q1009 NOSIG
2026-04-03 21:00:00,METAR WADD 032100Z 11007KT 9999 SCT017 27/26 Q1009 NOSIG
2026-04-03 20:30:00,METAR WADD 032030Z 10007KT 9999 SCT017 27/26 Q1009 NOSIG
2026-04-03 20:00:00,METAR WADD 032000Z 11009KT 9999 SCT017 27/26 Q1009 NOSIG
2026-04-03 19:30:00,METAR WADD 031930Z 11008KT 9999 SCT017 27/26 Q1009 NOSIG
2026-04-03 19:00:00,METAR WADD 031900Z 10007KT 9999 SCT017 27/26 Q1009 NOSIG
2026-04-03 18:30:00,METAR WADD 031830Z 10007KT 9999 FEW017 27/26 Q1010 NOSIG
2026-04-03 18:00:00,METAR WADD 031800Z 10007KT 9999 FEW017 27/26 Q1010 NOSIG
2026-04-03 17:30:00,METAR WADD 031730Z 10009KT 9999 FEW017 27/26 Q1010 NOSIG
2026-04-03 17:00:00,METAR WADD 031700Z 10008KT 9999 FEW017 28/26 Q1011 NOSIG
2026-04-03 16:30:00,METAR WADD 031630Z 10008KT 9999 FEW017 27/26 Q1011 NOSIG
2026-04-03 16:00:00,METAR WADD 031600Z 09008KT 9999 FEW017 28/26 Q1011 NOSIG
2026-04-03 15:30:00,METAR WADD 031530Z 09008KT 9999 FEW017 28/26 Q1011 NOSIG
2026-04-03 15:00:00,METAR WADD 031500Z 10009KT 9999 FEW017 28/26 Q1011 NOSIG
2026-04-03 14:30:00,METAR WADD 031430Z 10010KT 9999 FEW017 28/26 Q1011 NOSIG
2026-04-03 14:00:00,METAR WADD 031400Z 11010KT 9999 FEW017 28/26 Q1011 NOSIG
2026-04-03 13:30:00,METAR WADD 031330Z 11011KT 9999 FEW017 28/26 Q1011 NOSIG
2026-04-03 13:00:00,METAR WADD 031300Z 12010KT 9999 FEW017 28/26 Q1011 NOSIG
2026-04-03 12:30:00,METAR WADD 031230Z 12010KT 9999 FEW017 28/26 Q1010 NOSIG
2026-04-03 12:00:00,METAR WADD 031200Z 12009KT 9999 FEW017 28/26 Q1010 NOSIG
2026-04-03 11:30:00,METAR WADD 031130Z 12008KT 9999 SCT016 28/26 Q1010 NOSIG
2026-04-03 11:00:00,METAR WADD 031100Z 12008KT 9999 SCT016 28/26 Q1009 NOSIG
2026-04-03 10:30:00,METAR WADD 031030Z 12009KT 9999 SCT016 29/26 Q1009 NOSIG
2026-04-03 10:00:00,METAR WADD 031000Z 12007KT 9999 SCT016 29/26 Q1009 NOSIG
2026-04-03 09:30:00,METAR WADD 030930Z 09009KT 9999 SCT016 29/25 Q1008 NOSIG
2026-04-03 09:00:00,METAR WADD 030900Z 06008KT 030V090 9999 SCT016 31/24 Q1008 NOSIG
2026-04-03 08:30:00,METAR WADD 030830Z 02010KT 9999 SCT016 30/23 Q1008 NOSIG
2026-04-03 08:00:00,METAR WADD 030800Z 11009KT 060V130 9999 SCT016 31/25 Q1008 NOSIG
2026-04-03 07:30:00,METAR WADD 030730Z 10009KT 060V130 9999 FEW015CB SCT016 31/25 Q1009 N OSIG
2026-04-03 07:00:00,METAR WADD 030700Z 11012KT 9999 FEW015CB SCT016 31/25 Q1009 NOSIG
2026-04-03 06:30:00,METAR WADD 030630Z 11014KT 9999 FEW017 32/25 Q1009 NOSIG
2026-04-03 06:00:00,METAR WADD 030600Z 11012KT 9999 FEW017 32/25 Q1009 NOSIG
2026-04-03 05:30:00,METAR WADD 030530Z 10012KT 9999 FEW017 32/25 Q1010 NOSIG
2026-04-03 05:00:00,METAR WADD 030500Z 11011KT 9999 FEW016 32/26 Q1010 NOSIG
2026-04-03 04:30:00,METAR WADD 030430Z 11010KT 9999 SCT015 32/26 Q1011 NOSIG
2026-04-03 04:00:00,METAR WADD 030400Z 21003KT 9999 FEW015CB SCT015 31/26 Q1011 NOSIG RMK CB IN APCH
2026-04-03 03:30:00,METAR WADD 030330Z 24005KT 9999 FEW015CB SCT015 31/26 Q1012 NOSIG
2026-04-03 03:00:00,METAR WADD 030300Z 24006KT 9999 FEW015CB SCT016 30/26 Q1012 NOSIG RMK CB IN APCH
2026-04-03 02:30:00,METAR WADD 030230Z 28006KT 9999 FEW015CB SCT016 31/26 Q1012 NOSIG
2026-04-03 02:00:00,METAR WADD 030200Z 28005KT 9999 SCT016 31/26 Q1012 NOSIG
2026-04-03 01:30:00,METAR WADD 030130Z 26004KT 9999 SCT016 30/26 Q1012 NOSIG
2026-04-03 01:00:00,METAR WADD 030100Z 27004KT 9999 FEW016 31/26 Q1012 NOSIG
2026-04-03 00:30:00,METAR WADD 030030Z 33004KT 280V030 9999 FEW016 30/26 Q1012 NOSIG
2026-04-03 00:00:00,METAR WADD 030000Z VRB01KT 9999 FEW017 28/26 Q1012 NOSIG
2026-04-02 23:30:00,METAR WADD 022330Z 10004KT 9999 FEW017 28/26 Q1011 NOSIG
2026-04-02 23:00:00,METAR WADD 022300Z 02003KT 9999 FEW017 26/25 Q1011 NOSIG
2026-04-02 22:30:00,METAR WADD 022230Z 34003KT 9999 FEW017 26/25 Q1010 NOSIG
2026-04-02 22:00:00,METAR WADD 022200Z VRB02KT 9999 SCT017 26/25 Q1010 NOSIG
2026-04-02 21:30:00,METAR WADD 022130Z VRB02KT 9999 SCT017 27/25 Q1010 NOSIG
2026-04-02 21:00:00,METAR WADD 022100Z 12006KT 9999 SCT017 27/25 Q1010 NOSIG
2026-04-02 20:30:00,METAR WADD 022030Z 11004KT 9999 FEW016CB SCT017 27/25 Q1009 NOSIG
2026-04-02 20:00:00,METAR WADD 022000Z VRB02KT 9999 FEW016CB SCT017 27/25 Q1010 NOSIG
2026-04-02 19:30:00,METAR WADD 021930Z 11006KT 9999 FEW016CB SCT017 27/25 Q1010 NOSIG
2026-04-02 19:00:00,METAR WADD 021900Z 13011KT 9999 SCT017 28/26 Q1010 NOSIG
2026-04-02 18:30:00,METAR WADD 021830Z 12007KT 9999 SCT017 28/26 Q1010 NOSIG
2026-04-02 18:00:00,METAR WADD 021800Z 10003KT 9999 SCT017 27/26 Q1010 NOSIG
2026-04-02 17:30:00,METAR WADD 021730Z 13004KT 9999 SCT017 28/26 Q1011 NOSIG
2026-04-02 17:00:00,METAR WADD 021700Z 14003KT 9999 SCT017 28/26 Q1011 NOSIG
2026-04-02 16:30:00,METAR WADD 021630Z 14005KT 9999 FEW017 28/26 Q1011 NOSIG
2026-04-02 16:00:00,METAR WADD 021600Z 10004KT 060V130 9999 FEW017 28/26 Q1011 NOSIG
2026-04-02 15:30:00,METAR WADD 021530Z 12005KT 9999 FEW017 28/26 Q1011 NOSIG
2026-04-02 15:00:00,METAR WADD 021500Z 11005KT 9999 FEW017 28/26 Q1012 NOSIG
2026-04-02 14:30:00,METAR WADD 021430Z 12007KT 9999 FEW017 28/26 Q1012 NOSIG
2026-04-02 14:00:00,METAR WADD 021400Z 11008KT 9999 FEW017 28/26 Q1012 NOSIG
2026-04-02 13:30:00,METAR WADD 021330Z 10008KT 9999 FEW017 28/26 Q1012 NOSIG
2026-04-02 13:00:00,METAR WADD 021300Z 10007KT 9999 SCT017 28/26 Q1011 NOSIG
2026-04-02 12:30:00,METAR WADD 021230Z 10009KT 9999 SCT017 28/26 Q1011 NOSIG
2026-04-02 12:00:00,METAR WADD 021200Z 11011KT 9999 SCT017 29/26 Q1010 NOSIG
2026-04-02 11:30:00,METAR WADD 021130Z 12012KT 9999 SCT017 29/26 Q1010 NOSIG
2026-04-02 11:00:00,METAR WADD 021100Z 12012KT 9999 SCT017 29/26 Q1009 NOSIG
2026-04-02 10:30:00,METAR WADD 021030Z COR 12010KT 9999 SCT017 29/26 Q1009 NOSIG
2026-04-02 10:00:00,METAR WADD 021000Z 12013KT 9999 SCT017 29/26 Q1008 NOSIG
2026-04-02 09:30:00,METAR WADD 020930Z 12016KT 9999 SCT017 29/26 Q1008 NOSIG
2026-04-02 09:00:00,METAR WADD 020900Z 12013KT 9999 SCT017 30/26 Q1008 NOSIG
2026-04-02 08:30:00,METAR WADD 020830Z 12014KT 9999 SCT017 30/26 Q1008 NOSIG
2026-04-02 08:00:00,METAR WADD 020800Z 12014KT 9999 SCT017 31/26 Q1008 NOSIG
2026-04-02 07:30:00,METAR WADD 020730Z 13014KT 9999 FEW017 31/26 Q1008 NOSIG
2026-04-02 07:00:00,METAR WADD 020700Z 13015KT 9999 FEW017 31/26 Q1008 NOSIG
2026-04-02 06:30:00,METAR WADD 020630Z 13013KT 9999 FEW016CB SCT017 31/26 Q1009 NOSIG
2026-04-02 06:00:00,METAR WADD 020600Z 13016KT 9999 SCT017 31/26 Q1009 NOSIG
2026-04-02 05:30:00,METAR WADD 020530Z 13016KT 9999 FEW017 31/26 Q1009 NOSIG
2026-04-02 05:00:00,METAR WADD 020500Z 13015KT 9999 FEW017 32/26 Q1009 NOSIG
2026-04-02 04:30:00,METAR WADD 020430Z 13014KT 9999 FEW017 32/25 Q1010 NOSIG
2026-04-02 04:00:00,METAR WADD 020400Z 11013KT 9999 FEW017 32/25 Q1011 NOSIG
2026-04-02 03:30:00,METAR WADD 020330Z 11012KT 9999 FEW017 32/26 Q1011 NOSIG
2026-04-02 03:00:00,METAR WADD 020300Z 11010KT 9999 FEW017 32/25 Q1011 NOSIG
2026-04-02 02:30:00,METAR WADD 020230Z 12010KT 9999 FEW017 32/25 Q1012 NOSIG
2026-04-02 02:00:00,METAR WADD 020200Z 11008KT 9999 FEW017 31/26 Q1011 NOSIG
2026-04-02 01:30:00,METAR WADD 020130Z 12009KT 9999 FEW017 31/26 Q1012 NOSIG
2026-04-02 01:00:00,METAR WADD 020100Z 11007KT 9999 FEW016CB FEW017 31/26 Q1011 NOSIG
2026-04-02 00:30:00,METAR WADD 020030Z 10006KT 070V130 9999 FEW017 31/26 Q1011 NOSIG
2026-04-02 00:00:00,METAR WADD 020000Z 08005KT 050V110 9999 FEW017 29/26 Q1011 NOSIG
2026-04-01 23:30:00,METAR WADD 012330Z 06006KT 020V090 9999 FEW017 28/26 Q1011 NOSIG
2026-04-01 23:00:00,METAR WADD 012300Z 04005KT 9999 FEW017 27/25 Q1011 NOSIG
2026-04-01 22:30:00,METAR WADD 012230Z 09004KT 9999 SCT017 27/25 Q1010 NOSIG
2026-04-01 21:30:00,METAR WADD 012130Z 10006KT 9999 SCT017 27/26 Q1010 NOSIG
2026-04-01 21:00:00,METAR WADD 012100Z 10005KT 9999 SCT017 27/26 Q1010 NOSIG
2026-04-01 20:30:00,METAR WADD 012030Z 10005KT 9999 SCT017 27/26 Q1009 NOSIG
2026-04-01 20:00:00,METAR WADD 012000Z 10006KT 9999 SCT017 28/26 Q1010 NOSIG
2026-04-01 19:30:00,METAR WADD 011930Z 09007KT 9999 SCT017 27/26 Q1010 NOSIG
2026-04-01 19:00:00,METAR WADD 011900Z 10007KT 9999 SCT017 28/26 Q1010 NOSIG
2026-04-01 18:30:00,METAR WADD 011830Z 10007KT 9999 SCT017 28/26 Q1010 NOSIG
2026-04-01 18:00:00,METAR WADD 011800Z 10006KT 9999 SCT017 28/26 Q1010 NOSIG
2026-04-01 17:30:00,METAR WADD 011730Z 09007KT 9999 SCT017 27/25 Q1011 NOSIG
2026-04-01 17:00:00,METAR WADD 011700Z 09008KT 9999 SCT017 28/25 Q1011 NOSIG
2026-04-01 16:30:00,METAR WADD 011630Z 08007KT 9999 SCT017 28/25 Q1011 NOSIG
2026-04-01 16:00:00,METAR WADD 011600Z 09008KT 9999 SCT017 28/26 Q1011 NOSIG
2026-04-01 15:30:00,METAR WADD 011530Z 09009KT 9999 SCT017 28/26 Q1011 NOSIG
2026-04-01 15:00:00,METAR WADD 011500Z 10007KT 9999 SCT017 28/26 Q1012 NOSIG
2026-04-01 14:00:00,METAR WADD 011400Z 12008KT 9999 FEW017 28/26 Q1012 NOSIG
2026-04-01 13:30:00,METAR WADD 011330Z 12010KT 9999 FEW017 28/26 Q1011 NOSIG
2026-04-01 13:00:00,METAR WADD 011300Z 12009KT 9999 FEW017 28/26 Q1011 NOSIG
2026-04-01 12:30:00,METAR WADD 011230Z 12010KT 9999 FEW017 28/26 Q1011 NOSIG
2026-04-01 12:00:00,METAR WADD 011200Z 13011KT 9999 FEW017 28/26 Q1010 NOSIG
2026-04-01 11:30:00,METAR WADD 011130Z 12012KT 9999 FEW017 28/26 Q1010 NOSIG
2026-04-01 11:00:00,METAR WADD 011100Z 13012KT 9999 FEW017 29/26 Q1009 NOSIG
2026-04-01 10:30:00,METAR WADD 011030Z 12013KT 9999 SCT017 29/26 Q1009 NOSIG
2026-04-01 10:00:00,METAR WADD 011000Z 13014KT 9999 SCT017 29/26 Q1009 NOSIG
2026-04-01 09:30:00,METAR WADD 010930Z 13016KT 9999 FEW017 30/26 Q1009 NOSIG
2026-04-01 09:00:00,METAR WADD 010900Z 14015KT 9999 FEW017 30/26 Q1008 NOSIG
2026-04-01 08:30:00,METAR WADD 010830Z 14016KT 9999 FEW017 30/26 Q1008 NOSIG
2026-04-01 08:00:00,METAR WADD 010800Z 14016KT 9999 FEW017 31/25 Q1008 NOSIG
2026-04-01 07:30:00,METAR WADD 010730Z 14016KT 9999 FEW017 31/25 Q1008 NOSIG
2026-04-01 07:00:00,METAR WADD 010700Z 13015KT 9999 FEW017 31/25 Q1009 NOSIG
2026-04-01 06:30:00,METAR WADD 010630Z 14015KT 9999 FEW017 31/26 Q1009 NOSIG
2026-04-01 06:00:00,METAR WADD 010600Z 11014KT 9999 FEW017 31/25 Q1009 NOSIG
2026-04-01 05:30:00,METAR WADD 010530Z 12013KT 9999 FEW017 31/25 Q1010 NOSIG
2026-04-01 05:00:00,METAR WADD 010500Z 14013KT 9999 FEW017 31/26 Q1010 NOSIG
2026-04-01 04:30:00,METAR WADD 010430Z 11011KT 9999 FEW017 32/26 Q1010 NOSIG
2026-04-01 04:00:00,METAR WADD 010400Z 12010KT 9999 FEW017 32/25 Q1011 NOSIG
2026-04-01 03:30:00,METAR WADD 010330Z 12010KT 9999 FEW017 31/25 Q1011 NOSIG
2026-04-01 03:00:00,METAR WADD 010300Z 12010KT 9999 FEW017 31/25 Q1012 NOSIG
2026-04-01 02:30:00,METAR WADD 010230Z 11010KT 9999 FEW017 31/26 Q1012 NOSIG
2026-04-01 02:00:00,METAR WADD 010200Z 11008KT 9999 FEW017 31/26 Q1012 NOSIG
2026-04-01 01:30:00,METAR WADD 010130Z 11008KT 9999 FEW017 30/26 Q1012 NOSIG
2026-04-01 01:00:00,METAR WADD 010100Z 10008KT 9999 FEW017 30/26 Q1012 NOSIG
2026-04-01 00:30:00,METAR WADD 010030Z 10005KT 070V130 9999 FEW017 29/26 Q1012 NOSIG
2026-04-01 00:00:00,METAR WADD 010000Z 08004KT 040V110 9999 SCT016 27/26 Q1012 NOSIG
2026-03-31 23:30:00,METAR WADD 312330Z 12005KT 9999 FEW015CB BKN015 27/26 Q1012 NOSIG
2026-03-31 23:00:00,METAR WADD 312300Z 14007KT 9999 BKN015 27/26 Q1011 NOSIG
2026-03-31 22:30:00,METAR WADD 312230Z 12004KT 9999 SCT016 27/26 Q1011 NOSIG
2026-03-31 22:00:00,METAR WADD 312200Z 11004KT 9999 SCT016 26/25 Q1011 NOSIG
2026-03-31 21:30:00,METAR WADD 312130Z 10004KT 9999 SCT016 26/25 Q1010 NOSIG
2026-03-31 21:00:00,METAR WADD 312100Z 09005KT 9999 SCT016 26/25 Q1010 NOSIG
2026-03-31 20:30:00,METAR WADD 312030Z 07005KT 9999 SCT016 26/25 Q1010 NOSIG
2026-03-31 20:00:00,METAR WADD 312000Z 07005KT 9999 SCT016 26/25 Q1010 NOSIG
2026-03-31 19:30:00,METAR WADD 311930Z 06005KT 9999 SCT016 27/24 Q1010 NOSIG
2026-03-31 19:00:00,METAR WADD 311900Z 06006KT 9999 SCT016 27/24 Q1010 NOSIG
2026-03-31 18:30:00,METAR WADD 311830Z 08008KT 9999 SCT016 27/24 Q1010 NOSIG
2026-03-31 18:00:00,METAR WADD 311800Z 08008KT 9999 SCT016 27/25 Q1010 NOSIG
2026-03-31 17:30:00,METAR WADD 311730Z 08009KT 9999 SCT016 28/25 Q1011 NOSIG
2026-03-31 17:00:00,METAR WADD 311700Z 11010KT 9999 FEW017 28/25 Q1011 NOSIG
2026-03-31 16:30:00,METAR WADD 311630Z 13012KT 9999 FEW017 28/26 Q1011 NOSIG
2026-03-31 16:00:00,METAR WADD 311600Z 13009KT 9999 FEW017 28/26 Q1011 NOSIG
2026-03-31 15:30:00,METAR WADD 311530Z 13010KT 9999 FEW017 28/26 Q1011 NOSIG
2026-03-31 15:00:00,METAR WADD 311500Z 10007KT 9999 FEW017 28/26 Q1011 NOSIG
2026-03-31 14:30:00,METAR WADD 311430Z 10008KT 9999 FEW017 28/25 Q1011 NOSIG
2026-03-31 14:00:00,METAR WADD 311400Z 10010KT 9999 FEW017 28/25 Q1011 NOSIG
2026-03-31 13:30:00,METAR WADD 311330Z 11010KT 9999 FEW017 28/25 Q1011 NOSIG
2026-03-31 13:00:00,METAR WADD 311300Z 10010KT 9999 FEW017 28/25 Q1011 NOSIG
2026-03-31 12:30:00,METAR WADD 311230Z 11011KT 9999 FEW017 29/25 Q1011 NOSIG
2026-03-31 12:00:00,METAR WADD 311200Z 11013KT 9999 FEW017 29/25 Q1010 NOSIG
2026-03-31 11:30:00,METAR WADD 311130Z 11013KT 9999 FEW017 29/26 Q1010 NOSIG
2026-03-31 11:00:00,METAR WADD 311100Z 12012KT 9999 FEW017 29/26 Q1010 NOSIG
2026-03-31 10:30:00,METAR WADD 311030Z 12012KT 9999 FEW017 29/25 Q1010 NOSIG
2026-03-31 10:00:00,METAR WADD 311000Z 12014KT 9999 FEW017 29/26 Q1009 NOSIG
2026-03-31 09:30:00,METAR WADD 310930Z 12015KT 9999 FEW017 30/26 Q1009 NOSIG
2026-03-31 09:00:00,METAR WADD 310900Z 13016KT 9999 FEW017 30/26 Q1008 NOSIG
2026-03-31 08:30:00,METAR WADD 310830Z 12014KT 9999 FEW017 31/25 Q1008 NOSIG
2026-03-31 08:00:00,METAR WADD 310800Z 11015KT 9999 FEW017 31/25 Q1009 NOSIG
2026-03-31 07:30:00,METAR WADD 310730Z 13016KT 9999 FEW017 31/25 Q1008 NOSIG
2026-03-31 07:00:00,METAR WADD 310700Z 12015KT 9999 FEW017 31/24 Q1009 NOSIG
2026-03-31 06:30:00,METAR WADD 310630Z 12017KT 9999 FEW017 31/25 Q1009 NOSIG
2026-03-31 06:00:00,METAR WADD 310600Z 12015KT 9999 FEW017 31/25 Q1009 NOSIG
2026-03-31 05:30:00,METAR WADD 310530Z 11014KT 9999 FEW017 31/25 Q1009 NOSIG
2026-03-31 05:00:00,METAR WADD 310500Z 12014KT 9999 FEW017 32/25 Q1010 NOSIG
2026-03-31 04:30:00,METAR WADD 310430Z 11012KT 9999 FEW017 32/25 Q1011 NOSIG
2026-03-31 04:00:00,METAR WADD 310400Z 12013KT 9999 FEW017 32/25 Q1011 NOSIG
2026-03-31 03:30:00,METAR WADD 310330Z 11011KT 9999 FEW017 32/25 Q1011 NOSIG
2026-03-31 03:00:00,METAR WADD 310300Z 11010KT 9999 FEW017 31/25 Q1011 NOSIG
2026-03-31 02:30:00,METAR WADD 310230Z 12009KT 9999 FEW017 32/26 Q1012 NOSIG
2026-03-31 02:00:00,METAR WADD 310200Z 12009KT 9999 FEW017 31/25 Q1012 NOSIG
2026-03-31 01:30:00,METAR WADD 310130Z 11007KT 9999 FEW017 31/25 Q1012 NOSIG
2026-03-31 01:00:00,METAR WADD 310100Z 11008KT 9999 FEW017 31/25 Q1012 NOSIG
2026-03-31 00:30:00,METAR WADD 310030Z 10006KT 9999 FEW017 31/25 Q1011 NOSIG
2026-03-31 00:00:00,METAR WADD 310000Z 11004KT 070V150 9999 SCT016 29/25 Q1011 NOSIG
2026-03-30 23:30:00,METAR WADD 302330Z 36005KT 330V040 9999 SCT016 28/25 Q1011 NOSIG
2026-03-30 23:00:00,METAR WADD 302300Z 01004KT 9999 SCT016 27/25 Q1011 NOSIG
2026-03-30 22:30:00,METAR WADD 302230Z 03004KT 9999 SCT016 26/25 Q1010 NOSIG
2026-03-30 22:00:00,METAR WADD 302200Z 07004KT 9999 SCT016 26/25 Q1010 NOSIG
2026-03-30 21:30:00,METAR WADD 302130Z 07004KT 9999 SCT016 26/25 Q1010 NOSIG
2026-03-30 21:00:00,METAR WADD 302100Z 05004KT 9999 SCT016 27/25 Q1010 NOSIG
2026-03-30 20:30:00,METAR WADD 302030Z 04005KT 9999 SCT016 27/25 Q1010 NOSIG
2026-03-30 20:00:00,METAR WADD 302000Z 07004KT 9999 SCT016 26/25 Q1010 NOSIG
2026-03-30 19:30:00,METAR WADD 301930Z 07006KT 9999 SCT016 27/25 Q1010 NOSIG
2026-03-30 19:00:00,METAR WADD 301900Z 07006KT 9999 SCT016 27/25 Q1010 NOSIG
2026-03-30 18:30:00,METAR WADD 301830Z 07007KT 9999 SCT016 27/25 Q1010 NOSIG
2026-03-30 18:00:00,METAR WADD 301800Z 08009KT 9999 SCT015 27/25 Q1010 NOSIG
2026-03-30 17:30:00,METAR WADD 301730Z 08009KT 9999 BKN015 28/25 Q1010 NOSIG
2026-03-30 17:00:00,METAR WADD 301700Z 12011KT 9999 BKN015 28/26 Q1011 NOSIG
2026-03-30 16:30:00,METAR WADD 301630Z 12008KT 9999 SCT015 27/26 Q1011 NOSIG
2026-03-30 16:00:00,METAR WADD 301600Z 14011KT 9999 FEW015CB SCT015 26/24 Q1011 RERA NOSI G
2026-03-30 15:37:00,SPECI WADD 301537Z 13019KT 5000 -RA FEW015CB BKN015 27/25 Q1012 TEMPO TL1637 5000 -RA RMK CB IN APCH AND CLIMB-OUT
2026-03-30 15:30:00,METAR WADD 301530Z 13019KT 9999 FEW015CB BKN015 27/25 Q1012 NOSIG RMK CB IN APCH AND CLIMB-OUT
2026-03-30 15:00:00,METAR WADD 301500Z 13008KT 9999 FEW016CB SCT016 28/26 Q1012 NOSIG
2026-03-30 14:30:00,METAR WADD 301430Z 15009KT 9999 FEW016CB SCT016 28/26 Q1012 NOSIG RMK CB IN APCH
2026-03-30 14:00:00,METAR WADD 301400Z 13007KT 9999 FEW016CB SCT016 29/26 Q1012 NOSIG
2026-03-30 13:30:00,METAR WADD 301330Z 11008KT 9999 FEW016CB FEW017 29/25 Q1011 NOSIG
2026-03-30 13:00:00,METAR WADD 301300Z 10008KT 9999 FEW017 29/26 Q1011 NOSIG
2026-03-30 12:30:00,METAR WADD 301230Z 12009KT 9999 FEW017 29/26 Q1011 NOSIG
2026-03-30 12:00:00,METAR WADD 301200Z 12009KT 9999 FEW017 29/26 Q1010 NOSIG
2026-03-30 11:30:00,METAR WADD 301130Z 12009KT 9999 SCT017 29/26 Q1010 NOSIG
2026-03-30 11:00:00,METAR WADD 301100Z 12010KT 9999 FEW017 29/26 Q1009 NOSIG
2026-03-30 10:30:00,METAR WADD 301030Z 12010KT 9999 FEW017 29/26 Q1009 NOSIG
2026-03-30 10:00:00,METAR WADD 301000Z 13012KT 9999 FEW017 30/25 Q1008 NOSIG
2026-03-30 09:30:00,METAR WADD 300930Z 13013KT 9999 FEW017 30/25 Q1008 NOSIG
2026-03-30 09:00:00,METAR WADD 300900Z 14014KT 9999 FEW017 31/25 Q1008 NOSIG
2026-03-30 08:30:00,METAR WADD 300830Z 14014KT 9999 FEW017 31/25 Q1008 NOSIG
2026-03-30 08:00:00,METAR WADD 300800Z 13016KT 9999 FEW017 31/25 Q1008 NOSIG
2026-03-30 07:30:00,METAR WADD 300730Z 13015KT 9999 FEW016 31/25 Q1008 NOSIG
2026-03-30 07:00:00,METAR WADD 300700Z 13017KT 9999 FEW016 32/25 Q1008 NOSIG
2026-03-30 06:30:00,METAR WADD 300630Z 12016KT 9999 FEW016 32/25 Q1009 NOSIG
2026-03-30 06:00:00,METAR WADD 300600Z 12015KT 9999 FEW016 32/26 Q1009 NOSIG
2026-03-30 05:30:00,METAR WADD 300530Z 11015KT 9999 FEW016 32/26 Q1009 NOSIG
2026-03-30 05:00:00,METAR WADD 300500Z 12017KT 9999 FEW016 32/26 Q1009 NOSIG
2026-03-30 04:30:00,METAR WADD 300430Z 12015KT 9999 FEW016 31/25 Q1010 NOSIG
2026-03-30 04:00:00,METAR WADD 300400Z 12014KT 9999 FEW016 31/26 Q1010 NOSIG
2026-03-30 03:30:00,METAR WADD 300330Z 11014KT 9999 FEW016 31/26 Q1011 NOSIG
2026-03-30 03:00:00,METAR WADD 300300Z 11011KT 9999 FEW016 32/26 Q1011 NOSIG
2026-03-30 02:30:00,METAR WADD 300230Z 11011KT 9999 FEW016 31/26 Q1011 NOSIG
2026-03-30 02:00:00,METAR WADD 300200Z 12011KT 9999 FEW016 31/26 Q1011 NOSIG
2026-03-30 01:30:00,METAR WADD 300130Z 09009KT 060V120 9999 FEW016 32/26 Q1011 NOSIG
2026-03-30 01:00:00,METAR WADD 300100Z 09009KT 9999 FEW016 31/25 Q1010 NOSIG
2026-03-30 00:30:00,METAR WADD 300030Z 08008KT 9999 FEW017 30/25 Q1010 NOSIG
2026-03-30 00:00:00,METAR WADD 300000Z 09007KT 9999 FEW017 29/25 Q1010 NOSIG
2026-03-29 23:30:00,METAR WADD 292330Z 09006KT 9999 FEW017 28/25 Q1010 NOSIG
2026-03-29 23:00:00,METAR WADD 292300Z 08006KT 9999 FEW017 27/25 Q1009 NOSIG
2026-03-29 22:30:00,METAR WADD 292230Z 08005KT 9999 FEW017 27/25 Q1009 NOSIG
2026-03-29 22:00:00,METAR WADD 292200Z 06006KT 9999 SCT017 27/25 Q1009 NOSIG
2026-03-29 21:30:00,METAR WADD 292130Z 07007KT 9999 SCT017 27/25 Q1009 NOSIG
2026-03-29 21:00:00,METAR WADD 292100Z 08006KT 9999 SCT017 27/25 Q1009 NOSIG
2026-03-29 20:30:00,METAR WADD 292030Z 09008KT 9999 SCT017 27/25 Q1009 NOSIG
2026-03-29 20:00:00,METAR WADD 292000Z 09007KT 9999 SCT017 27/25 Q1009 NOSIG
2026-03-29 19:30:00,METAR WADD 291930Z 09007KT 9999 SCT017 27/25 Q1009 NOSIG
2026-03-29 19:00:00,METAR WADD 291900Z 09006KT 9999 SCT017 27/25 Q1009 NOSIG
2026-03-29 18:30:00,METAR WADD 291830Z 08005KT 9999 SCT017 27/25 Q1009 NOSIG
2026-03-29 18:00:00,METAR WADD 291800Z 07007KT 9999 SCT017 28/25 Q1009 NOSIG
2026-03-29 17:30:00,METAR WADD 291730Z 08007KT 9999 SCT017 27/25 Q1009 NOSIG
2026-03-29 17:00:00,METAR WADD 291700Z 07007KT 9999 SCT017 28/25 Q1010 NOSIG
2026-03-29 16:30:00,METAR WADD 291630Z 08009KT 9999 SCT017 28/25 Q1010 NOSIG
2026-03-29 16:00:00,METAR WADD 291600Z 09008KT 9999 SCT017 28/25 Q1010 NOSIG
2026-03-29 15:30:00,METAR WADD 291530Z 08009KT 9999 SCT017 28/25 Q1010 NOSIG
2026-03-29 15:00:00,METAR WADD 291500Z 09009KT 9999 SCT017 28/26 Q1010 NOSIG
2026-03-29 14:30:00,METAR WADD 291430Z 09010KT 9999 SCT017 28/26 Q1010 NOSIG
2026-03-29 14:00:00,METAR WADD 291400Z 09009KT 9999 SCT017 28/26 Q1010 NOSIG
2026-03-29 13:30:00,METAR WADD 291330Z 10009KT 9999 SCT017 29/26 Q1010 NOSIG
2026-03-29 13:00:00,METAR WADD 291300Z 11013KT 9999 SCT017 29/26 Q1009 NOSIG
2026-03-29 12:30:00,METAR WADD 291230Z 12013KT 9999 SCT017 29/27 Q1009 NOSIG
2026-03-29 12:00:00,METAR WADD 291200Z 11012KT 9999 SCT017 29/26 Q1009 NOSIG
2026-03-29 11:30:00,METAR WADD 291130Z 12012KT 9999 SCT014 29/26 Q1008 NOSIG
2026-03-29 11:00:00,METAR WADD 291100Z 13012KT 9999 SCT014 29/26 Q1008 NOSIG
2026-03-29 10:30:00,METAR WADD 291030Z 13013KT 9999 SCT014 29/26 Q1008 NOSIG
2026-03-29 10:00:00,METAR WADD 291000Z 13013KT 9999 SCT013 30/26 Q1008 NOSIG
2026-03-29 09:30:00,METAR WADD 290930Z 14014KT 9999 FEW016 31/26 Q1007 NOSIG
2026-03-29 09:00:00,METAR WADD 290900Z 13013KT 9999 FEW015 31/26 Q1007 NOSIG
2026-03-29 08:30:00,METAR WADD 290830Z 14012KT 9999 FEW015 32/26 Q1007 NOSIG
2026-03-29 08:00:00,METAR WADD 290800Z 13011KT 9999 FEW015 31/26 Q1007 NOSIG
2026-03-29 07:30:00,METAR WADD 290730Z 12012KT 9999 FEW017 32/26 Q1007 NOSIG
2026-03-29 07:00:00,METAR WADD 290700Z 14014KT 9999 FEW017 32/25 Q1007 NOSIG
2026-03-29 06:30:00,METAR WADD 290630Z 15015KT 9999 FEW017 32/25 Q1007 NOSIG
2026-03-29 06:00:00,METAR WADD 290600Z 13013KT 9999 FEW017 32/25 Q1007 NOSIG
2026-03-29 05:30:00,METAR WADD 290530Z 10011KT 9999 FEW017 32/25 Q1008 NOSIG
2026-03-29 05:00:00,METAR WADD 290500Z 11010KT 9999 FEW017 32/25 Q1008 NOSIG
2026-03-29 04:30:00,METAR WADD 290430Z 12010KT 9999 FEW017 32/26 Q1009 NOSIG
2026-03-29 04:00:00,METAR WADD 290400Z 10010KT 9999 FEW017 32/26 Q1009 NOSIG
2026-03-29 03:30:00,METAR WADD 290330Z 10010KT 9999 FEW017 32/25 Q1010 NOSIG
2026-03-29 03:00:00,METAR WADD 290300Z 12009KT 070V140 9999 FEW017 32/25 Q1010 NOSIG
2026-03-29 02:30:00,METAR WADD 290230Z 11009KT 9999 FEW017 32/25 Q1010 NOSIG
2026-03-29 02:00:00,METAR WADD 290200Z 11007KT 9999 FEW017 32/25 Q1010 NOSIG
2026-03-29 01:30:00,METAR WADD 290130Z 08006KT 040V120 9999 FEW017 32/25 Q1010 NOSIG
2026-03-29 01:00:00,METAR WADD 290100Z VRB02KT 9999 FEW017 31/26 Q1010 NOSIG
2026-03-29 00:30:00,METAR WADD 290030Z 32003KT 9999 FEW017 31/26 Q1010 NOSIG
2026-03-29 00:00:00,METAR WADD 290000Z 35003KT 9999 FEW017 29/25 Q1010 NOSIG
2026-03-28 23:30:00,METAR WADD 282330Z VRB02KT 9999 FEW017 28/25 Q1010 NOSIG
2026-03-28 23:00:00,METAR WADD 282300Z VRB01KT 9999 FEW017 27/25 Q1009 NOSIG
2026-03-28 22:30:00,METAR WADD 282230Z 35002KT 9999 SCT017 26/24 Q1009 NOSIG
2026-03-28 22:00:00,METAR WADD 282200Z 03003KT 9999 SCT017 26/24 Q1009 NOSIG
2026-03-28 21:30:00,METAR WADD 282130Z 36003KT 9999 SCT017 26/24 Q1008 NOSIG
2026-03-28 21:00:00,METAR WADD 282100Z 05002KT 9999 SCT017 26/24 Q1008 NOSIG
2026-03-28 20:30:00,METAR WADD 282030Z 01004KT 9999 FEW017 26/24 Q1008 NOSIG
2026-03-28 20:00:00,METAR WADD 282000Z 35005KT 9999 FEW017 26/24 Q1008 NOSIG
2026-03-28 19:30:00,METAR WADD 281930Z 36005KT 9999 FEW017 26/24 Q1009 NOSIG
2026-03-28 19:00:00,METAR WADD 281900Z 36007KT 9999 FEW017 27/24 Q1009 NOSIG
2026-03-28 18:30:00,METAR WADD 281830Z 04004KT 9999 FEW017 27/25 Q1009 NOSIG
2026-03-28 18:00:00,METAR WADD 281800Z 08005KT 9999 FEW017 27/25 Q1009 NOSIG
2026-03-28 17:30:00,METAR WADD 281730Z 09003KT 050V110 9999 FEW017 27/25 Q1009 NOSIG
2026-03-28 17:00:00,METAR WADD 281700Z 05006KT 9999 FEW017 27/25 Q1009 NOSIG
2026-03-28 16:30:00,METAR WADD 281630Z 09007KT 9999 FEW017 27/25 Q1010 NOSIG
2026-03-28 16:00:00,METAR WADD 281600Z 10004KT 9999 FEW017 28/26 Q1010 NOSIG
2026-03-28 15:30:00,METAR WADD 281530Z 10004KT 9999 FEW017 28/25 Q1010 NOSIG
2026-03-28 15:00:00,METAR WADD 281500Z 06004KT 9999 FEW017 28/25 Q1010 NOSIG
2026-03-28 14:30:00,METAR WADD 281430Z 12003KT 9999 FEW017 29/26 Q1010 NOSIG
2026-03-28 14:00:00,METAR WADD 281400Z 13003KT 9999 FEW017 28/26 Q1010 NOSIG
2026-03-28 13:30:00,METAR WADD 281330Z 14004KT 9999 FEW017 29/26 Q1010 NOSIG
2026-03-28 13:00:00,METAR WADD 281300Z 13005KT 9999 FEW017 29/26 Q1009 NOSIG
2026-03-28 12:30:00,METAR WADD 281230Z 13005KT 9999 FEW017 29/26 Q1009 NOSIG
2026-03-28 12:00:00,METAR WADD 281200Z 10007KT 9999 FEW017 29/25 Q1009 NOSIG
2026-03-28 11:30:00,METAR WADD 281130Z 09006KT 9999 FEW016 29/25 Q1008 NOSIG
2026-03-28 11:00:00,METAR WADD 281100Z 11005KT 9999 FEW016 29/25 Q1008 NOSIG
2026-03-28 10:30:00,METAR WADD 281030Z 13007KT 9999 SCT015 29/26 Q1007 NOSIG
2026-03-28 10:00:00,METAR WADD 281000Z 12006KT 9999 SCT015 29/25 Q1007 NOSIG
2026-03-28 09:30:00,METAR WADD 280930Z 09005KT 9999 SCT015 30/25 Q1007 NOSIG
2026-03-28 09:00:00,METAR WADD 280900Z 10007KT 9999 SCT015 30/25 Q1007 RETS NOSIG
2026-03-28 08:30:00,METAR WADD 280830Z 10009KT 9999 TS FEW015CB SCT016 30/25 Q1007 NOSIG
2026-03-28 08:00:00,METAR WADD 280800Z 11008KT 9999 TS FEW015CB SCT016 31/25 Q1007 NOSIG
2026-03-28 07:30:00,METAR WADD 280730Z 14010KT 9999 TS FEW015CB SCT016 32/26 Q1006 NOSIG
2026-03-28 07:00:00,METAR WADD 280700Z 10010KT 9999 FEW016CB FEW017 33/26 Q1006 NOSIG
2026-03-28 06:30:00,METAR WADD 280630Z 11007KT 9999 FEW017 33/25 Q1006 NOSIG
2026-03-28 06:00:00,METAR WADD 280600Z 12008KT 9999 FEW017 33/25 Q1007 NOSIG
2026-03-28 05:30:00,METAR WADD 280530Z 12008KT 9999 FEW017 33/24 Q1007 NOSIG
2026-03-28 05:00:00,METAR WADD 280500Z 11010KT 9999 FEW017 33/24 Q1007 NOSIG
2026-03-28 04:30:00,METAR WADD 280430Z 11008KT 9999 FEW017 33/24 Q1008 NOSIG
2026-03-28 04:00:00,METAR WADD 280400Z 11009KT 9999 FEW017 33/25 Q1009 NOSIG
2026-03-28 03:30:00,METAR WADD 280330Z 17007KT 110V180 9999 FEW017 33/26 Q1009 NOSIG
2026-03-28 03:00:00,METAR WADD 280300Z 11006KT 080V140 9999 FEW017 33/24 Q1010 NOSIG
2026-03-28 02:30:00,METAR WADD 280230Z 12005KT 080V170 9999 FEW017 33/25 Q1010 NOSIG
2026-03-28 02:00:00,METAR WADD 280200Z VRB03KT 9999 FEW017 33/27 Q1010 NOSIG
2026-03-28 01:30:00,METAR WADD 280130Z 32005KT 270V360 9999 FEW017 32/28 Q1010 NOSIG
2026-03-28 01:00:00,METAR WADD 280100Z 32004KT 270V350 9999 FEW017 31/28 Q1010 NOSIG
2026-03-28 00:30:00,METAR WADD 280030Z 33003KT 9999 FEW017 31/28 Q1010 NOSIG
2026-03-28 00:00:00,METAR WADD 280000Z 30004KT 270V340 9999 FEW017 29/28 Q1010 NOSIG
2026-03-27 23:30:00,METAR WADD 272330Z 32005KT 300V360 9999 FEW017 28/25 Q1009 NOSIG
2026-03-27 23:00:00,METAR WADD 272300Z 34004KT 9999 FEW017 27/25 Q1009 NOSIG
2026-03-27 22:30:00,METAR WADD 272230Z 04005KT 360V060 9999 FEW016 26/25 Q1008 NOSIG
2026-03-27 22:00:00,METAR WADD 272200Z 09006KT 9999 SCT016 26/25 Q1008 NOSIG
2026-03-27 21:30:00,METAR WADD 272130Z 08004KT 9999 SCT016 27/25 Q1007 NOSIG
2026-03-27 21:00:00,METAR WADD 272100Z 08006KT 9999 SCT016 27/25 Q1007 NOSIG
2026-03-27 20:30:00,METAR WADD 272030Z 11003KT 9999 FEW016CB SCT016 27/25 Q1008 NOSIG
2026-03-27 20:00:00,METAR WADD 272000Z 24010KT 9999 FEW016CB SCT016 28/25 Q1008 NOSIG RMK CB IN APCH
2026-03-27 19:30:00,METAR WADD 271930Z 28009KT 9999 FEW016CB SCT016 28/25 Q1009 NOSIG RMK CB IN APCH
2026-03-27 19:00:00,METAR WADD 271900Z 34007KT 9999 FEW016CB SCT016 28/25 Q1009 NOSIG RMK CB IN APCH
2026-03-27 18:30:00,METAR WADD 271830Z VRB02KT 9999 FEW016CB SCT016 27/25 Q1009 NOSIG
2026-03-27 18:00:00,METAR WADD 271800Z 07004KT 040V110 9999 SCT016 28/26 Q1008 NOSIG
2026-03-27 17:30:00,METAR WADD 271730Z 12003KT 9999 SCT016 28/26 Q1009 NOSIG
2026-03-27 17:00:00,METAR WADD 271700Z 13005KT 9999 SCT016 28/26 Q1009 NOSIG
2026-03-27 16:30:00,METAR WADD 271630Z 12005KT 9999 SCT016 28/27 Q1009 NOSIG
2026-03-27 16:00:00,METAR WADD 271600Z 12004KT 9999 SCT016 28/26 Q1009 NOSIG
2026-03-25 15:00:00,METAR WADD 251500Z 27008KT 9999 FEW017 28/26 Q1008 NOSIG
2026-03-25 14:30:00,METAR WADD 251430Z 27010KT 9999 FEW017 29/26 Q1008 NOSIG
2026-03-25 14:00:00,METAR WADD 251400Z 26009KT 9999 FEW017 28/26 Q1008 NOSIG
2026-03-25 13:30:00,METAR WADD 251330Z 25006KT 9999 FEW017 29/26 Q1008 NOSIG
2026-03-25 13:00:00,METAR WADD 251300Z 26006KT 9999 FEW017 29/26 Q1008 NOSIG
2026-03-25 12:30:00,METAR WADD 251230Z 26006KT 9999 FEW016 29/25 Q1007 NOSIG
2026-03-25 12:00:00,METAR WADD 251200Z 26007KT 9999 FEW016 28/25 Q1007 NOSIG
2026-03-25 11:30:00,METAR WADD 251130Z 26008KT 9999 FEW016 28/24 Q1007 NOSIG
2026-03-25 11:00:00,METAR WADD 251100Z 26007KT 9999 FEW016 28/23 Q1007 NOSIG
2026-03-25 10:30:00,METAR WADD 251030Z 27009KT 9999 FEW016 29/23 Q1007 NOSIG
2026-03-25 10:00:00,METAR WADD 251000Z 26008KT 9999 SCT016 30/24 Q1006 NOSIG
2026-03-25 09:30:00,METAR WADD 250930Z 26009KT 9999 FEW016 30/25 Q1006 NOSIG
2026-03-25 09:00:00,METAR WADD 250900Z 27012KT 9999 FEW016 31/24 Q1005 NOSIG
2026-03-25 08:30:00,METAR WADD 250830Z 26012KT 9999 FEW017 31/24 Q1005 NOSIG
2026-03-25 08:00:00,METAR WADD 250800Z 26013KT 9999 FEW017 32/25 Q1005 NOSIG
2026-03-25 07:30:00,METAR WADD 250730Z 26013KT 9999 FEW017 32/24 Q1005 NOSIG
2026-03-25 07:00:00,METAR WADD 250700Z 26012KT 9999 FEW017 32/26 Q1005 NOSIG
2026-03-25 06:30:00,METAR WADD 250630Z 25009KT 210V270 9999 FEW017 32/26 Q1006 NOSIG
2026-03-25 06:00:00,METAR WADD 250600Z 25010KT 9999 FEW017 32/26 Q1006 NOSIG
2026-03-25 05:30:00,METAR WADD 250530Z 27012KT 9999 FEW017 32/26 Q1006 NOSIG
2026-03-25 05:00:00,METAR WADD 250500Z 27010KT 9999 FEW017 32/26 Q1006 NOSIG
2026-03-25 04:30:00,METAR WADD 250430Z 29011KT 9999 FEW017 31/26 Q1006 NOSIG
2026-03-25 04:00:00,METAR WADD 250400Z 28012KT 240V300 9999 FEW017 31/26 Q1006 NOSIG
2026-03-25 03:30:00,METAR WADD 250330Z 29012KT 9999 SCT017 32/27 Q1007 NOSIG
2026-03-25 03:00:00,METAR WADD 250300Z 29012KT 9999 SCT017 32/27 Q1007 NOSIG
2026-03-25 02:30:00,METAR WADD 250230Z 29012KT 9999 FEW017 31/27 Q1008 NOSIG
2026-03-25 02:00:00,METAR WADD 250200Z 29011KT 9999 FEW017 31/27 Q1008 NOSIG
2026-03-25 01:30:00,METAR WADD 250130Z 31010KT 9999 FEW017 31/27 Q1008 NOSIG
2026-03-25 01:00:00,METAR WADD 250100Z 30009KT 9999 FEW017 30/26 Q1008 NOSIG
2026-03-25 00:30:00,METAR WADD 250030Z 31008KT 9999 FEW017 30/26 Q1008 NOSIG
2026-03-25 00:00:00,METAR WADD 250000Z 32008KT 9999 FEW017 29/26 Q1007 NOSIG
2026-03-24 23:30:00,METAR WADD 242330Z 31006KT 9999 FEW017 29/26 Q1007 NOSIG
2026-03-24 23:00:00,METAR WADD 242300Z 28008KT 270V330 9999 FEW017 28/25 Q1007 NOSIG
2026-03-24 22:30:00,METAR WADD 242230Z 28010KT 9999 FEW017 27/25 Q1006 NOSIG
2026-03-24 22:00:00,METAR WADD 242200Z 28010KT 9999 FEW017 27/25 Q1006 NOSIG
2026-03-24 21:30:00,METAR WADD 242130Z 28010KT 9999 FEW017 27/25 Q1006 NOSIG
2026-03-24 21:00:00,METAR WADD 242100Z 28011KT 9999 FEW017 27/25 Q1005 NOSIG
2026-03-24 20:30:00,METAR WADD 242030Z 27010KT 9999 FEW017 27/25 Q1005 NOSIG
2026-03-24 20:00:00,METAR WADD 242000Z 26009KT 9999 FEW017 27/25 Q1006 NOSIG
2026-03-24 19:30:00,METAR WADD 241930Z 27009KT 9999 FEW017 27/25 Q1006 NOSIG
2026-03-24 19:00:00,METAR WADD 241900Z 27009KT 9999 FEW017 28/25 Q1006 NOSIG
2026-03-24 18:30:00,METAR WADD 241830Z 27010KT 9999 FEW017 28/26 Q1006 NOSIG
2026-03-24 18:00:00,METAR WADD 241800Z 26010KT 9999 FEW017 28/26 Q1006 NOSIG
2026-03-24 17:30:00,METAR WADD 241730Z 26009KT 9999 FEW017 28/26 Q1006 NOSIG
2026-03-24 17:00:00,METAR WADD 241700Z 27011KT 9999 FEW017 28/25 Q1007 NOSIG
2026-03-24 16:30:00,METAR WADD 241630Z 27011KT 9999 FEW017 28/25 Q1007 NOSIG
2026-03-24 16:00:00,METAR WADD 241600Z 26007KT 9999 FEW017 28/25 Q1007 NOSIG
2026-03-24 15:30:00,METAR WADD 241530Z 26007KT 9999 FEW017 28/26 Q1007 NOSIG
2026-03-24 15:00:00,METAR WADD 241500Z 27011KT 9999 FEW017 28/26 Q1007 NOSIG
2026-03-24 14:30:00,METAR WADD 241430Z 27011KT 9999 FEW017 28/26 Q1007 NOSIG
2026-03-24 14:00:00,METAR WADD 241400Z 27011KT 9999 FEW017 28/26 Q1007 NOSIG
2026-03-24 13:30:00,METAR WADD 241330Z 27011KT 9999 FEW017 28/26 Q1007 NOSIG
2026-03-24 13:00:00,METAR WADD 241300Z 27010KT 9999 FEW017 28/26 Q1007 NOSIG
2026-03-24 12:30:00,METAR WADD 241230Z 27008KT 9999 SCT017 28/26 Q1007 NOSIG
2026-03-24 12:00:00,METAR WADD 241200Z 26008KT 9999 FEW017 28/26 Q1006 NOSIG
2026-03-24 11:30:00,METAR WADD 241130Z 26007KT 9999 FEW017 28/26 Q1006 NOSIG
2026-03-24 11:00:00,METAR WADD 241100Z 25007KT 9999 FEW017 29/26 Q1006 NOSIG
2026-03-24 10:30:00,METAR WADD 241030Z 25007KT 9999 FEW017 29/26 Q1006 NOSIG
2026-03-24 10:00:00,METAR WADD 241000Z 25008KT 9999 FEW017 29/26 Q1005 NOSIG
2026-03-24 09:30:00,METAR WADD 240930Z 26009KT 9999 FEW017 30/26 Q1005 NOSIG
2026-03-24 09:00:00,METAR WADD 240900Z 26010KT 9999 FEW017 30/26 Q1005 NOSIG
2026-03-24 08:30:00,METAR WADD 240830Z 26011KT 9999 FEW017 31/26 Q1005 NOSIG
2026-03-24 08:00:00,METAR WADD 240800Z 25010KT 9999 FEW017 31/26 Q1005 NOSIG
2026-03-24 07:30:00,METAR WADD 240730Z 26010KT 220V290 9999 FEW017 32/26 Q1005 NOSIG
2026-03-24 07:00:00,METAR WADD 240700Z 25010KT 9999 FEW017 32/26 Q1005 NOSIG
2026-03-24 06:30:00,METAR WADD 240630Z 26010KT 9999 FEW017 32/26 Q1005 NOSIG
2026-03-24 06:00:00,METAR WADD 240600Z 26011KT 9999 FEW017 32/27 Q1006 NOSIG
2026-03-24 05:30:00,METAR WADD 240530Z 26010KT 220V280 9999 FEW017 32/27 Q1006 NOSIG
2026-03-24 05:00:00,METAR WADD 240500Z 26010KT 220V290 9999 FEW017 32/26 Q1007 NOSIG
2026-03-24 04:30:00,METAR WADD 240430Z 25010KT 9999 FEW017 31/27 Q1007 NOSIG
2026-03-24 03:30:00,METAR WADD 240330Z 28010KT 240V310 9999 FEW017 31/27 Q1008 NOSIG
2026-03-24 03:00:00,METAR WADD 240300Z 29011KT 9999 FEW017 31/27 Q1008 NOSIG
2026-03-24 02:30:00,METAR WADD 240230Z 29011KT 9999 FEW015CB SCT016 31/27 Q1008 NOSIG
2026-03-24 02:00:00,METAR WADD 240200Z 29009KT 9999 FEW015CB SCT016 31/27 Q1008 NOSIG
2026-03-24 01:30:00,METAR WADD 240130Z 30010KT 9999 SCT016 30/27 Q1008 NOSIG
2026-03-24 01:00:00,METAR WADD 240100Z COR 30009KT 9999 SCT016 30/27 Q1008 NOSIG
2026-03-24 00:30:00,METAR WADD 240030Z 31009KT 9999 FEW017 30/27 Q1008 NOSIG
2026-03-24 00:00:00,METAR WADD 240000Z 31007KT 9999 FEW017 29/27 Q1008 NOSIG
2026-03-23 23:30:00,METAR WADD 232330Z 31006KT 280V340 9999 FEW017 28/27 Q1008 NOSIG
2026-03-23 23:00:00,METAR WADD 232300Z 32004KT 9999 FEW017 27/26 Q1007 NOSIG
2026-03-23 22:30:00,METAR WADD 232230Z 30006KT 9999 FEW017 26/26 Q1007 NOSIG
2026-03-23 22:00:00,METAR WADD 232200Z 32005KT 9999 FEW017 26/26 Q1007 NOSIG
2026-03-23 21:30:00,METAR WADD 232130Z 28006KT 9999 FEW017 26/25 Q1007 NOSIG
2026-03-23 21:00:00,METAR WADD 232100Z 27007KT 9999 FEW017 26/25 Q1006 NOSIG
2026-03-23 20:30:00,METAR WADD 232030Z 31005KT 9999 FEW017 27/26 Q1006 NOSIG
2026-03-23 20:00:00,METAR WADD 232000Z 32005KT 9999 FEW017 27/26 Q1006 NOSIG
2026-03-23 19:30:00,METAR WADD 231930Z 32005KT 9999 FEW017 27/26 Q1006 NOSIG
2026-03-23 19:00:00,METAR WADD 231900Z 27007KT 9999 FEW017 27/25 Q1007 NOSIG
2026-03-23 18:30:00,METAR WADD 231830Z 27008KT 9999 FEW017 27/24 Q1007 NOSIG
2026-03-23 18:00:00,METAR WADD 231800Z 27007KT 9999 FEW017 27/25 Q1007 NOSIG
2026-03-23 17:30:00,METAR WADD 231730Z 26006KT 9999 FEW017 27/25 Q1007 NOSIG
2026-03-23 17:00:00,METAR WADD 231700Z 26004KT 9999 FEW017 27/25 Q1008 NOSIG
2026-03-23 16:30:00,METAR WADD 231630Z 26004KT 9999 FEW017 27/25 Q1008 NOSIG
2026-03-23 16:00:00,METAR WADD 231600Z 26006KT 9999 FEW017 27/25 Q1008 NOSIG
2026-03-23 15:30:00,METAR WADD 231530Z 26007KT 9999 FEW017 27/25 Q1008 NOSIG
2026-03-23 15:00:00,METAR WADD 231500Z 26008KT 9999 FEW017 28/25 Q1009 NOSIG
2026-03-23 14:30:00,METAR WADD 231430Z 27007KT 9999 FEW017 28/25 Q1008 NOSIG
2026-03-23 14:00:00,METAR WADD 231400Z 27007KT 9999 FEW017 27/25 Q1008 NOSIG
2026-03-23 13:30:00,METAR WADD 231330Z 26006KT 9999 FEW017 27/25 Q1008 NOSIG
2026-03-23 13:00:00,METAR WADD 231300Z 27007KT 9999 FEW017 27/25 Q1008 NOSIG
2026-03-23 12:30:00,METAR WADD 231230Z 26005KT 9999 FEW017 28/26 Q1008 NOSIG
2026-03-23 12:00:00,METAR WADD 231200Z 25005KT 9999 FEW017 28/25 Q1008 NOSIG
2026-03-23 11:30:00,METAR WADD 231130Z 26006KT 9999 FEW017 28/25 Q1008 NOSIG
2026-03-23 11:00:00,METAR WADD 231100Z 26006KT 9999 FEW017 28/25 Q1008 NOSIG
2026-03-23 10:30:00,METAR WADD 231030Z 25006KT 210V270 9999 FEW017 29/25 Q1007 NOSIG
2026-03-23 10:00:00,METAR WADD 231000Z 25007KT 9999 FEW017 29/25 Q1007 NOSIG
2026-03-23 09:30:00,METAR WADD 230930Z 26008KT 9999 FEW017 30/25 Q1007 NOSIG
2026-03-23 09:00:00,METAR WADD 230900Z 26008KT 9999 FEW017 30/26 Q1007 NOSIG
2026-03-23 08:30:00,METAR WADD 230830Z 26009KT 9999 FEW017 30/26 Q1006 NOSIG
2026-03-23 08:00:00,METAR WADD 230800Z 26010KT 9999 FEW017 31/26 Q1006 NOSIG
2026-03-23 07:30:00,METAR WADD 230730Z 27010KT 9999 FEW017 31/26 Q1006 NOSIG
2026-03-23 07:00:00,METAR WADD 230700Z 26012KT 9999 FEW017 32/26 Q1006 NOSIG
2026-03-23 06:30:00,METAR WADD 230630Z 26010KT 220V290 9999 FEW017 32/26 Q1006 NOSIG
2026-03-23 06:00:00,METAR WADD 230600Z 27010KT 9999 FEW017 32/27 Q1007 NOSIG
2026-03-23 05:30:00,METAR WADD 230530Z 28010KT 9999 FEW017 31/27 Q1007 NOSIG
2026-03-23 05:00:00,METAR WADD 230500Z 28011KT 9999 FEW017 31/27 Q1007 NOSIG
2026-03-23 04:30:00,METAR WADD 230430Z 27009KT 240V300 9999 FEW016 31/26 Q1008 NOSIG
2026-03-23 04:00:00,METAR WADD 230400Z 28010KT 240V310 9999 FEW016 31/27 Q1008 NOSIG
2026-03-23 03:30:00,METAR WADD 230330Z 29012KT 9999 SCT016 30/26 Q1009 NOSIG
2026-03-23 03:00:00,METAR WADD 230300Z 27008KT 240V310 9999 SCT015 31/26 Q1009 NOSIG
2026-03-23 02:30:00,METAR WADD 230230Z 26008KT 220V300 9999 SCT015 31/26 Q1009 NOSIG
2026-03-23 02:00:00,METAR WADD 230200Z 30008KT 270V330 9999 FEW015 31/26 Q1009 NOSIG
2026-03-23 01:30:00,METAR WADD 230130Z 29008KT 260V330 9999 SCT015 31/26 Q1009 NOSIG
2026-03-23 01:00:00,METAR WADD 230100Z 30007KT 260V320 9999 SCT015 30/26 Q1009 NOSIG
2026-03-23 00:30:00,METAR WADD 230030Z 31007KT 9999 FEW015 29/26 Q1009 NOSIG
2026-03-23 00:00:00,METAR WADD 230000Z 31006KT 9999 FEW016 29/26 Q1009 NOSIG
2026-03-22 23:30:00,METAR WADD 222330Z 31005KT 9999 SCT016 28/26 Q1009 NOSIG
2026-03-22 23:00:00,METAR WADD 222300Z 34005KT 300V010 9999 SCT016 27/26 Q1009 NOSIG
2026-03-22 22:30:00,METAR WADD 222230Z 33004KT 9999 SCT016 27/26 Q1008 NOSIG
2026-03-22 22:00:00,METAR WADD 222200Z 31006KT 9999 SCT016 27/26 Q1008 NOSIG
2026-03-22 21:30:00,METAR WADD 222130Z 32008KT 9999 SCT016 27/26 Q1008 NOSIG
2026-03-22 21:00:00,METAR WADD 222100Z 32008KT 9999 SCT016 27/26 Q1008 NOSIG
2026-03-22 20:30:00,METAR WADD 222030Z 32006KT 9999 SCT016 27/26 Q1008 NOSIG
2026-03-22 20:00:00,METAR WADD 222000Z 31006KT 9999 SCT016 27/26 Q1008 NOSIG
2026-03-22 19:30:00,METAR WADD 221930Z 27008KT 9999 SCT016 27/25 Q1008 NOSIG
2026-03-22 19:00:00,METAR WADD 221900Z 27006KT 9999 SCT016 27/25 Q1008 NOSIG
2026-03-22 18:30:00,METAR WADD 221830Z 26007KT 9999 SCT016 27/25 Q1008 NOSIG
2026-03-22 18:00:00,METAR WADD 221800Z 26005KT 9999 SCT016 27/25 Q1009 NOSIG
2026-03-22 17:30:00,METAR WADD 221730Z 25005KT 9999 SCT016 27/25 Q1009 NOSIG
2026-03-22 17:00:00,METAR WADD 221700Z 25004KT 9999 SCT016 28/25 Q1009 NOSIG
2026-03-22 16:30:00,METAR WADD 221630Z 22004KT 190V260 9999 SCT016 28/25 Q1009 NOSIG
2026-03-22 16:00:00,METAR WADD 221600Z 23004KT 9999 SCT016 28/25 Q1010 NOSIG
2026-03-22 15:30:00,METAR WADD 221530Z 23003KT 9999 SCT016 28/25 Q1010 NOSIG
2026-03-22 15:00:00,METAR WADD 221500Z VRB02KT 9999 SCT016 28/26 Q1010 NOSIG
2026-03-22 14:30:00,METAR WADD 221430Z 23003KT 9999 SCT016 28/26 Q1010 NOSIG
2026-03-22 14:00:00,METAR WADD 221400Z 23003KT 9999 SCT016 28/26 Q1010 NOSIG
2026-03-22 13:30:00,METAR WADD 221330Z VRB02KT 9999 SCT016 28/26 Q1010 NOSIG
2026-03-22 13:00:00,METAR WADD 221300Z 23003KT 9999 SCT016 28/26 Q1010 NOSIG
2026-03-22 12:30:00,METAR WADD 221230Z 22004KT 180V240 9999 SCT016 28/26 Q1009 NOSIG
2026-03-22 11:30:00,METAR WADD 221130Z 21003KT 9999 SCT016 29/25 Q1009 NOSIG
2026-03-22 11:00:00,METAR WADD 221100Z 22004KT 180V250 9999 SCT016 29/25 Q1009 NOSIG
2026-03-22 10:30:00,METAR WADD 221030Z 23005KT 180V260 9999 SCT016 29/25 Q1008 NOSIG
2026-03-22 10:00:00,METAR WADD 221000Z 25006KT 210V280 9999 SCT016 30/25 Q1008 NOSIG
2026-03-22 09:30:00,METAR WADD 220930Z 25007KT 9999 FEW016 31/25 Q1007 NOSIG
2026-03-22 08:30:00,METAR WADD 220830Z 26007KT 200V270 9999 FEW016 31/24 Q1007 NOSIG
2026-03-22 08:00:00,METAR WADD 220800Z 26007KT 9999 FEW016 31/24 Q1008 NOSIG
2026-03-22 07:30:00,METAR WADD 220730Z 25007KT 9999 SCT016 31/25 Q1008 NOSIG
2026-03-22 06:30:00,METAR WADD 220630Z 26009KT 9999 SCT016 32/25 Q1008 NOSIG
2026-03-22 05:30:00,METAR WADD 220530Z 27009KT 9999 FEW016 32/26 Q1008 NOSIG
2026-03-22 05:00:00,METAR WADD 220500Z 25009KT 210V290 9999 FEW014 31/26 Q1009 NOSIG
2026-03-22 04:30:00,METAR WADD 220430Z 25008KT 210V280 9999 SCT014 32/27 Q1009 NOSIG
2026-03-22 04:00:00,METAR WADD 220400Z 27008KT 9999 SCT016 32/26 Q1010 NOSIG
2026-03-22 03:30:00,METAR WADD 220330Z 26007KT 9999 SCT016 32/27 Q1010 NOSIG
2026-03-22 03:00:00,METAR WADD 220300Z 25006KT 220V290 9999 SCT016 31/26 Q1010 NOSIG
2026-03-22 02:30:00,METAR WADD 220230Z 25005KT 200V280 9999 SCT016 30/26 Q1010 NOSIG
2026-03-22 02:00:00,METAR WADD 220200Z 25004KT 190V280 9999 SCT016 32/26 Q1010 NOSIG
2026-03-22 01:30:00,METAR WADD 220130Z 08003KT 9999 SCT014 30/26 Q1010 NOSIG
2026-03-22 01:00:00,METAR WADD 220100Z 12004KT 080V150 9999 SCT014 31/26 Q1010 NOSIG
2026-03-22 00:30:00,METAR WADD 220030Z COR VRB01KT 9999 SCT014 31/27 Q1010 NOSIG
2026-03-22 00:00:00,METAR WADD 220000Z VRB02KT 9999 FEW015 28/27 Q1010 NOSIG
2026-03-21 23:30:00,METAR WADD 212330Z VRB01KT 9999 SCT015 26/26 Q1010 NOSIG
2026-03-21 23:00:00,METAR WADD 212300Z VRB02KT 9999 FEW017 25/25 Q1009 NOSIG
2026-03-21 22:30:00,METAR WADD 212230Z VRB01KT 9999 FEW017 25/25 Q1009 NOSIG
2026-03-21 22:00:00,METAR WADD 212200Z 13002KT 9999 FEW017 25/25 Q1009 NOSIG
2026-03-21 21:30:00,METAR WADD 212130Z VRB02KT 9999 FEW017 25/25 Q1009 NOSIG
2026-03-21 21:00:00,METAR WADD 212100Z 36003KT 9999 FEW017 25/25 Q1009 NOSIG
2026-03-21 20:30:00,METAR WADD 212030Z 01005KT 9999 FEW017 25/25 Q1008 NOSIG
2026-03-21 19:30:00,METAR WADD 211930Z VRB02KT 9999 FEW017 26/26 Q1008 NOSIG
2026-03-21 19:00:00,METAR WADD 211900Z 05002KT 9999 FEW017 26/26 Q1009 NOSIG
2026-03-21 18:30:00,METAR WADD 211830Z 15002KT 9999 FEW017 26/26 Q1009 NOSIG
2026-03-21 18:00:00,METAR WADD 211800Z VRB01KT 9999 FEW017 26/26 Q1009 NOSIG
2026-03-21 17:30:00,METAR WADD 211730Z 12001KT 9999 FEW017 26/26 Q1009 NOSIG
2026-03-21 17:00:00,METAR WADD 211700Z 11001KT 9999 FEW017 26/26 Q1009 NOSIG
2026-03-21 16:30:00,METAR WADD 211630Z VRB01KT 9999 FEW017 26/26 Q1009 NOSIG
2026-03-21 16:00:00,METAR WADD 211600Z 00000KT 9999 FEW017 26/25 Q1010 NOSIG
2026-03-21 15:30:00,METAR WADD 211530Z VRB01KT 9999 FEW017 27/26 Q1010 NOSIG
2026-03-21 14:30:00,METAR WADD 211430Z VRB01KT 9999 FEW017 26/25 Q1010 NOSIG
2026-03-21 14:00:00,METAR WADD 211400Z VRB01KT 9999 FEW017 27/25 Q1010 NOSIG
2026-03-21 13:30:00,METAR WADD 211330Z VRB02KT 9999 FEW017 27/25 Q1010 NOSIG
2026-03-21 13:00:00,METAR WADD 211300Z VRB01KT 9999 FEW017 27/25 Q1010 NOSIG
2026-03-21 12:30:00,METAR WADD 211230Z VRB01KT 9999 SCT016 28/25 Q1009 NOSIG
2026-03-21 12:00:00,METAR WADD 211200Z VRB02KT 9999 SCT016 28/25 Q1009 NOSIG
2026-03-21 11:30:00,METAR WADD 211130Z 16003KT 9999 SCT017 28/25 Q1009 NOSIG
2026-03-21 11:00:00,METAR WADD 211100Z VRB02KT 9999 SCT017 28/25 Q1009 NOSIG
2026-03-21 10:30:00,METAR WADD 211030Z 20003KT 140V240 9999 SCT017 29/25 Q1009 NOSIG
2026-03-21 10:00:00,METAR WADD 211000Z 22005KT 150V270 9999 SCT017 30/25 Q1008 NOSIG
2026-03-21 09:30:00,METAR WADD 210930Z 23006KT 200V270 9999 SCT017 30/25 Q1008 NOSIG
2026-03-21 09:00:00,METAR WADD 210900Z 23006KT 170V270 9999 SCT017 31/25 Q1008 NOSIG
2026-03-21 08:30:00,METAR WADD 210830Z 22005KT 130V250 9999 FEW017 32/24 Q1008 NOSIG
2026-03-21 08:00:00,METAR WADD 210800Z 20005KT 140V290 9999 FEW017 33/25 Q1008 NOSIG
2026-03-21 07:30:00,METAR WADD 210730Z 23007KT 190V270 9999 SCT017 32/25 Q1007 NOSIG
2026-03-21 07:00:00,METAR WADD 210700Z 25008KT 9999 SCT017 32/25 Q1008 NOSIG
2026-03-21 06:30:00,METAR WADD 210630Z 26009KT 9999 SCT017 32/25 Q1008 NOSIG
2026-03-21 06:00:00,METAR WADD 210600Z 25011KT 9999 SCT017 32/26 Q1008 NOSIG
2026-03-21 05:30:00,METAR WADD 210530Z 25009KT 9999 FEW017 32/26 Q1009 NOSIG
2026-03-21 04:30:00,METAR WADD 210430Z 27010KT 9999 FEW017 31/26 Q1009 NOSIG
2026-03-21 04:00:00,METAR WADD 210400Z 27008KT 220V300 9999 FEW017 31/27 Q1009 NOSIG
2026-03-21 03:30:00,METAR WADD 210330Z 26008KT 220V290 9999 FEW017 31/26 Q1010 NOSIG
2026-03-21 03:00:00,METAR WADD 210300Z 26008KT 9999 FEW017 31/26 Q1010 NOSIG
2026-03-21 02:30:00,METAR WADD 210230Z 27007KT 9999 FEW017 31/26 Q1010 NOSIG
2026-03-21 02:00:00,METAR WADD 210200Z 27005KT 220V010 9999 FEW017 31/26 Q1010 NOSIG
2026-03-21 01:30:00,METAR WADD 210130Z 30004KT 240V040 9999 FEW017 30/27 Q1010 NOSIG
2026-03-21 01:00:00,METAR WADD 210100Z 02003KT 9999 FEW016 31/27 Q1011 NOSIG
2026-03-21 00:30:00,METAR WADD 210030Z 36004KT 9999 FEW016 28/27 Q1011 NOSIG
2026-03-21 00:00:00,METAR WADD 210000Z 35004KT 9999 SCT016 26/26 Q1010 NOSIG
2026-03-20 23:30:00,METAR WADD 202330Z VRB02KT 9999 FEW015CB SCT016 26/26 Q1010 NOSIG RMK CB IN APCH
2026-03-20 23:00:00,METAR WADD 202300Z 02003KT 9999 FEW015CB SCT016 26/26 Q1010 NOSIG RMK CB IN APCH
2026-03-20 22:30:00,METAR WADD 202230Z VRB02KT 9999 FEW015CB SCT016 25/25 Q1010 NOSIG
2026-03-20 21:30:00,METAR WADD 202130Z VRB01KT 8000 FEW015CB SCT016 25/25 Q1009 RERA NOSI G
2026-03-20 21:00:00,METAR WADD 202100Z 19002KT 6000 -RA FEW015CB BKN016 25/25 Q1009 NOSIG
2026-03-20 20:30:00,METAR WADD 202030Z VRB01KT 9999 FEW015CB SCT016 25/25 Q1009 NOSIG
2026-03-20 20:00:00,METAR WADD 202000Z 13002KT 9999 FEW016 25/25 Q1009 NOSIG
2026-03-20 19:30:00,METAR WADD 201930Z VRB01KT 9999 FEW016 25/25 Q1009 NOSIG
2026-03-20 18:30:00,METAR WADD 201830Z 36003KT 9999 FEW017 26/25 Q1010 NOSIG
2026-03-20 18:00:00,METAR WADD 201800Z 01004KT 310V030 9999 FEW017 26/25 Q1010 NOSIG
2026-03-20 17:30:00,METAR WADD 201730Z 36003KT 9999 FEW017 27/25 Q1010 NOSIG
2026-03-20 16:30:00,METAR WADD 201630Z 32003KT 9999 FEW017 27/26 Q1010 NOSIG
2026-03-20 16:00:00,METAR WADD 201600Z VRB03KT 9999 FEW017 27/26 Q1010 NOSIG
2026-03-20 15:30:00,METAR WADD 201530Z 34003KT 9999 FEW017 26/26 Q1010 NOSIG
2026-03-20 15:00:00,METAR WADD 201500Z VRB01KT 9999 FEW017 26/26 Q1010 NOSIG
2026-03-20 14:30:00,METAR WADD 201430Z 15001KT 9999 FEW017 26/26 Q1010 NOSIG
2026-03-20 14:00:00,METAR WADD 201400Z 15001KT 9999 FEW017 26/25 Q1010 NOSIG
2026-03-20 13:30:00,METAR WADD 201330Z 14001KT 9999 FEW017 26/25 Q1010 NOSIG
2026-03-20 12:30:00,METAR WADD 201230Z 00000KT 9999 FEW017 26/25 Q1010 NOSIG
2026-03-20 11:30:00,METAR WADD 201130Z VRB02KT 9999 FEW016 27/25 Q1009 NOSIG
2026-03-20 10:30:00,METAR WADD 201030Z 24003KT 9999 FEW016 28/25 Q1008 NOSIG
2026-03-20 10:00:00,METAR WADD 201000Z 25004KT 9999 FEW016 29/25 Q1008 NOSIG
2026-03-20 09:30:00,METAR WADD 200930Z 24004KT 200V290 9999 FEW016 30/25 Q1007 NOSIG
2026-03-20 09:00:00,METAR WADD 200900Z 25005KT 9999 FEW016 30/25 Q1007 NOSIG
2026-03-20 08:30:00,METAR WADD 200830Z 26006KT 9999 FEW016 29/25 Q1007 NOSIG
2026-03-20 08:00:00,METAR WADD 200800Z 26008KT 9999 FEW016 30/25 Q1007 NOSIG
2026-03-20 07:30:00,METAR WADD 200730Z 26007KT 9999 FEW016 30/26 Q1007 NOSIG
2026-03-20 06:30:00,METAR WADD 200630Z 27009KT 9999 FEW016 30/26 Q1007 NOSIG
2026-03-20 06:00:00,METAR WADD 200600Z 27007KT 9999 FEW016 30/26 Q1007 NOSIG
2026-03-20 05:30:00,METAR WADD 200530Z 27008KT 9999 FEW016 30/26 Q1008 NOSIG
2026-03-20 05:00:00,METAR WADD 200500Z 27009KT 240V310 9999 FEW016 30/26 Q1009 NOSIG
2026-03-20 04:30:00,METAR WADD 200430Z 26008KT 210V300 9999 FEW016 30/26 Q1009 NOSIG
2026-03-20 04:00:00,METAR WADD 200400Z 27009KT 9999 FEW016 30/26 Q1010 NOSIG
2026-03-20 03:30:00,METAR WADD 200330Z 27009KT 9999 FEW016 31/26 Q1010 NOSIG
2026-03-20 03:00:00,METAR WADD 200300Z 26007KT 230V300 9999 FEW016 31/26 Q1010 NOSIG
2026-03-20 02:30:00,METAR WADD 200230Z 25007KT 220V290 9999 SCT016 30/26 Q1011 NOSIG
2026-03-20 02:00:00,METAR WADD 200200Z 28006KT 190V320 9999 SCT015 31/26 Q1011 NOSIG
2026-03-20 01:30:00,METAR WADD 200130Z 28005KT 240V320 9999 FEW015CB BKN015 29/26 Q1011 N OSIG
2026-03-20 01:00:00,METAR WADD 200100Z VRB02KT 9999 FEW015CB BKN015 27/27 Q1011 RERA NOSIG RMK CB IN APCH AND CLIMB-OUT
2026-03-20 00:30:00,METAR WADD 200030Z 33005KT 8000 -RA FEW015CB BKN015 27/26 Q1011 TEMPO TL0130 8000 -RA RMK CB IN APCH AND CLIMB-OUT
2026-03-20 00:00:00,METAR WADD 200000Z 33006KT 8000 -RA FEW015CB BKN015 26/26 Q1010 TEMPO TL2430 8000 -RA RMK CB IN APCH AND CLIMB-OUT
2026-03-19 23:43:00,SPECI WADD 192343Z 33008KT 8000 -RA FEW015CB BKN015 26/26 Q1010 TEMPO TL2430 8000 -RA RMK CB IN APCH AND CLIMB-OUT
2026-03-19 23:30:00,METAR WADD 192330Z 33009KT 9999 FEW015CB SCT016 26/26 Q1010 NOSIG
2026-03-19 23:00:00,METAR WADD 192300Z 33009KT 9999 FEW015CB BKN016 26/26 Q1010 RERA NOSI G
2026-03-19 22:30:00,METAR WADD 192230Z 36005KT 310V040 7000 -RA FEW015CB BKN016 26/26 Q1010 TEMPO TL2330 -RA
2026-03-19 22:10:00,SPECI WADD 192210Z 31005KT 4000 RA FEW015CB BKN016 26/26 Q1010 TEMPO TL2310 4000 -RA
2026-03-19 22:00:00,METAR WADD 192200Z 31006KT 270V340 7000 -RA FEW015CB BKN016 26/26 Q1009 TEMPO TL2300 -RA
2026-03-19 21:30:00,METAR WADD 192130Z 32009KT 9999 FEW015CB SCT016 26/26 Q1009 NOSIG
2026-03-19 21:00:00,METAR WADD 192100Z 33007KT 9999 FEW015CB SCT016 26/26 Q1008 NOSIG
2026-03-19 20:30:00,METAR WADD 192030Z 32008KT 9999 SCT016 27/26 Q1009 NOSIG
2026-03-19 20:00:00,METAR WADD 192000Z 02003KT 9999 SCT016 26/26 Q1008 NOSIG
2026-03-19 19:30:00,METAR WADD 191930Z VRB01KT 9999 SCT016 26/26 Q1009 NOSIG
2026-03-19 19:00:00,METAR WADD 191900Z VRB01KT 9999 SCT016 26/26 Q1009 NOSIG
2026-03-19 18:30:00,METAR WADD 191830Z VRB02KT 9999 SCT016 26/26 Q1009 NOSIG
2026-03-19 18:00:00,METAR WADD 191800Z 26001KT 9999 SCT016 26/25 Q1009 NOSIG
2026-03-19 17:30:00,METAR WADD 191730Z COR VRB02KT 9999 SCT016 26/26 Q1009 NOSIG
2026-03-19 17:00:00,METAR WADD 191700Z 13001KT 9999 SCT016 26/26 Q1009 NOSIG
2026-03-19 16:30:00,METAR WADD 191630Z VRB01KT 9999 SCT015 26/25 Q1009 NOSIG
2026-03-19 16:00:00,METAR WADD 191600Z 00000KT 9999 FEW015CB SCT015 27/26 Q1010 NOSIG
2026-03-19 15:30:00,METAR WADD 191530Z VRB02KT 9999 FEW015CB SCT015 27/25 Q1010 RETS NOSI G
2026-03-19 15:00:00,METAR WADD 191500Z VRB01KT 9999 TS FEW015CB FEW015 27/25 Q1010 NOSIG
2026-03-19 14:30:00,METAR WADD 191430Z VRB01KT 9999 FEW015CB FEW015 27/26 Q1010 NOSIG
2026-03-19 14:00:00,METAR WADD 191400Z VRB01KT 9999 FEW015CB FEW015 27/26 Q1010 NOSIG
2026-03-19 13:30:00,METAR WADD 191330Z VRB02KT 9999 FEW015CB FEW015 28/26 Q1010 NOSIG
2026-03-19 13:00:00,METAR WADD 191300Z VRB01KT 9999 FEW015CB FEW015 28/26 Q1010 NOSIG
2026-03-19 12:30:00,METAR WADD 191230Z VRB01KT 9999 SCT015 28/26 Q1009 NOSIG
2026-03-19 12:00:00,METAR WADD 191200Z VRB02KT 9999 FEW015CB SCT015 28/26 Q1009 NOSIG
2026-03-19 11:30:00,METAR WADD 191130Z 24003KT 9999 FEW016CB SCT016 28/27 Q1009 NOSIG
2026-03-19 11:00:00,METAR WADD 191100Z 23005KT 190V260 9999 FEW016CB SCT016 28/27 Q1009 N OSIG
2026-03-19 10:30:00,METAR WADD 191030Z 24005KT 190V280 9999 FEW016CB SCT016 29/26 Q1008 N OSIG
2026-03-19 10:00:00,METAR WADD 191000Z 23005KT 190V270 9999 FEW016CB SCT016 30/27 Q1008 N OSIG
2026-03-19 09:30:00,METAR WADD 190930Z 23006KT 190V260 9999 FEW016CB SCT016 30/26 Q1008 N OSIG
2026-03-19 09:00:00,METAR WADD 190900Z 22006KT 110V290 9999 FEW016CB SCT016 31/26 Q1007 N OSIG
2026-03-19 08:30:00,METAR WADD 190830Z 21004KT 120V250 9999 FEW016CB SCT016 33/26 Q1007 N OSIG
2026-03-19 07:30:00,METAR WADD 190730Z 23005KT 140V300 9999 FEW016CB SCT016 33/26 Q1007 N OSIG
2026-03-19 07:00:00,METAR WADD 190700Z 25010KT 9999 FEW016CB SCT016 32/27 Q1007 NOSIG
2026-03-19 06:30:00,METAR WADD 190630Z 26009KT 9999 SCT016 32/28 Q1007 NOSIG
2026-03-19 06:00:00,METAR WADD 190600Z 26009KT 230V290 9999 SCT016 32/28 Q1007 NOSIG
2026-03-19 05:30:00,METAR WADD 190530Z 25007KT 220V290 9999 SCT016 32/27 Q1008 NOSIG
2026-03-19 05:00:00,METAR WADD 190500Z 26008KT 220V300 9999 SCT016 31/27 Q1009 NOSIG
2026-03-19 04:30:00,METAR WADD 190430Z 27007KT 240V300 9999 SCT016 31/27 Q1009 NOSIG
2026-03-19 04:00:00,METAR WADD 190400Z 27007KT 9999 SCT016 31/27 Q1010 NOSIG
2026-03-19 03:30:00,METAR WADD 190330Z 26007KT 220V280 9999 SCT016 30/27 Q1010 NOSIG
2026-03-19 03:00:00,METAR WADD 190300Z 27007KT 9999 SCT016 30/27 Q1011 NOSIG
2026-03-19 02:30:00,METAR WADD 190230Z 29007KT 260V320 9999 SCT016 31/27 Q1011 NOSIG
2026-03-19 02:00:00,METAR WADD 190200Z 29008KT 240V320 9999 SCT016 31/26 Q1011 NOSIG
2026-03-19 01:30:00,METAR WADD 190130Z 29008KT 9999 BKN016 30/26 Q1011 NOSIG
2026-03-19 01:00:00,METAR WADD 190100Z 29007KT 9999 BKN016 29/27 Q1011 NOSIG
2026-03-19 00:30:00,METAR WADD 190030Z 31006KT 9999 BKN016 28/26 Q1011 NOSIG
2026-03-19 00:00:00,METAR WADD 190000Z 33006KT 9999 BKN016 27/26 Q1010 NOSIG
2026-03-18 23:30:00,METAR WADD 182330Z 35004KT 9999 FEW015CB BKN016 26/26 Q1010 NOSIG
2026-03-18 23:00:00,METAR WADD 182300Z COR 28006KT 9999 FEW015CB BKN015 26/26 Q1010 NOSIG
2026-03-18 22:30:00,METAR WADD 182230Z 26005KT 9999 FEW015CB BKN015 26/26 Q1009 NOSIG
2026-03-18 22:00:00,METAR WADD 182200Z 24005KT 9999 FEW015CB BKN015 26/26 Q1009 NOSIG
2026-03-18 21:30:00,METAR WADD 182130Z 27007KT 9999 FEW015CB BKN015 26/26 Q1009 NOSIG
2026-03-18 21:00:00,METAR WADD 182100Z 26007KT 9999 FEW015CB BKN015 27/27 Q1009 NOSIG RMK CB IN APCH
2026-03-18 20:30:00,METAR WADD 182030Z 28006KT 9999 BKN015 27/26 Q1009 NOSIG
2026-03-18 20:00:00,METAR WADD 182000Z 27008KT 9999 SCT015 26/26 Q1009 NOSIG
2026-03-18 19:30:00,METAR WADD 181930Z 27007KT 9999 SCT015 27/26 Q1009 NOSIG
2026-03-18 19:00:00,METAR WADD 181900Z 26004KT 220V290 9999 FEW015CB SCT015 27/26 Q1009 N OSIG
2026-03-18 18:30:00,METAR WADD 181830Z VRB02KT 9999 FEW015CB SCT015 27/26 Q1009 NOSIG
2026-03-18 18:00:00,METAR WADD 181800Z 26004KT 210V290 9999 FEW015CB BKN015 27/26 Q1010 N OSIG RMK CB IN CLIMB-OUT
2026-03-18 17:30:00,METAR WADD 181730Z 25004KT 210V270 9999 FEW015CB SCT015 27/26 Q1010 N OSIG
2026-03-18 16:30:00,METAR WADD 181630Z 25005KT 9999 FEW015CB SCT015 27/27 Q1010 NOSIG
2026-03-18 15:30:00,METAR WADD 181530Z 27006KT 9999 FEW015CB SCT015 27/26 Q1011 NOSIG
2026-03-18 15:00:00,METAR WADD 181500Z 26004KT 9999 FEW015CB SCT015 27/26 Q1011 NOSIG
2026-03-18 14:30:00,METAR WADD 181430Z 24002KT 9999 FEW015CB FEW015 27/26 Q1011 NOSIG
2026-03-18 14:00:00,METAR WADD 181400Z 24003KT 9999 FEW016 28/27 Q1011 NOSIG
2026-03-18 13:30:00,METAR WADD 181330Z 23003KT 9999 SCT015 28/27 Q1011 NOSIG
2026-03-18 13:00:00,METAR WADD 181300Z 24003KT 9999 SCT015 28/26 Q1011 NOSIG
2026-03-18 12:30:00,METAR WADD 181230Z 23003KT 9999 SCT014 28/26 Q1011 NOSIG
2026-03-18 12:00:00,METAR WADD 181200Z 24003KT 9999 FEW017 28/26 Q1010 NOSIG
2026-03-18 11:30:00,METAR WADD 181130Z 24004KT 9999 SCT016 28/26 Q1010 NOSIG
2026-03-18 10:30:00,METAR WADD 181030Z 24005KT 9999 SCT016 29/25 Q1010 NOSIG
2026-03-18 10:00:00,METAR WADD 181000Z 24005KT 180V260 9999 SCT016 31/26 Q1009 NOSIG
2026-03-18 09:30:00,METAR WADD 180930Z 25006KT 210V280 9999 SCT016 31/27 Q1009 NOSIG
2026-03-18 09:00:00,METAR WADD 180900Z 25007KT 9999 FEW015CB SCT016 31/26 Q1009 NOSIG
2026-03-18 08:30:00,METAR WADD 180830Z 26009KT 9999 SCT016 31/26 Q1009 NOSIG
2026-03-18 08:00:00,METAR WADD 180800Z 25008KT 220V280 9999 SCT016 32/27 Q1008 NOSIG
2026-03-18 07:30:00,METAR WADD 180730Z 27009KT 9999 SCT016 31/27 Q1008 NOSIG
2026-03-18 07:00:00,METAR WADD 180700Z 26008KT 9999 SCT016 31/27 Q1008 NOSIG
2026-03-18 06:30:00,METAR WADD 180630Z 26008KT 210V290 9999 SCT016 31/27 Q1009 NOSIG
2026-03-18 06:00:00,METAR WADD 180600Z 26007KT 9999 SCT016 31/27 Q1009 NOSIG
2026-03-18 05:30:00,METAR WADD 180530Z 28007KT 250V330 9999 FEW015CB BKN015 31/27 Q1010 N OSIG
2026-03-18 05:00:00,METAR WADD 180500Z 29006KT 220V330 9999 FEW015CB BKN015 30/27 Q1010 N OSIG
2026-03-18 04:30:00,METAR WADD 180430Z 28006KT 260V320 9999 FEW015CB BKN015 30/27 Q1011 N OSIG
2026-03-18 04:00:00,METAR WADD 180400Z 31006KT 9999 FEW015CB BKN015 29/27 Q1011 NOSIG
2026-03-18 03:30:00,METAR WADD 180330Z 32006KT 9999 FEW015CB BKN015 29/27 Q1011 NOSIG
2026-03-18 03:00:00,METAR WADD 180300Z 29004KT 230V350 9999 FEW014CB BKN014 28/28 Q1012 N OSIG
2026-03-18 02:30:00,METAR WADD 180230Z VRB02KT 9999 FEW014CB BKN014 26/26 Q1012 RERA NOSIG RMK CB IN APCH AND CLIMB-OUT
2026-03-18 02:00:00,METAR WADD 180200Z VRB01KT 8000 -RA FEW014CB BKN014 26/26 Q1012 TEMPO TL0230 8000 -RA RMK CB IN APCH AND CLIMB-OUT
2026-03-18 01:30:00,METAR WADD 180130Z 25004KT 8000 -RA FEW014CB BKN014 25/25 Q1012 RETS TEMPO TL0230 8000 -RA RMK CB IN APCH AND CLIMB-OUT
2026-03-18 01:00:00,METAR WADD 180100Z 26005KT 8000 -TSRA SCT014CB BKN014 25/25 Q1012 TEMPO TL0230 8000 -TSRA RMK CB IN APCH AND CLIMB-OUT
2026-03-18 00:30:00,METAR WADD 180030Z 28004KT 240V320 8000 -TSRA SCT014CB BKN014 24/24 Q 1012 TEMPO TL0230 8000 -TSRA RMK CB IN APCH AND CLIMB-OUT
2026-03-18 00:12:00,SPECI WADD 180012Z 33003KT 4000 +TSRA SCT013CB BKN013 25/25 Q1012 TEMPO TL0100 2000 +TSRA RMK CB IN APCH AND CLIMB-OUT
2026-03-18 00:00:00,METAR WADD 180000Z 33003KT 2000 +TSRA SCT010CB BKN010 25/25 Q1012 TEM PO TL0100 2000 +TSRA RMK CB IN APCH AND CLIMB-OUT
2026-03-17 23:50:00,SPECI WADD 172350Z VRB02KT 1000 +TSRA SCT010CB BKN010 25/25 Q1012 TEMPO TL0100 2000 +TSRA RMK CB IN APCH AND CLIMB-OUT
2026-03-17 23:40:00,SPECI WADD 172340Z COR 31004KT 290V030 0200 +TSRA SCT010CB BKN010 25/25 Q1012 TEMPO TL0100 2000 +TSRA RMK CB IN APCH AND CLIMB-OUT
2026-03-17 23:30:00,METAR WADD 172330Z 32004KT 270V010 0500 +TSRA FEW010CB BKN010 25/25 Q 1012 TEMPO TL0100 2000 +TSRA RMK CB IN APCH AND CLIMB-OUT
2026-03-17 23:21:00,SPECI WADD 172321Z 31004KT 270V360 1200 +TSRA FEW015CB BKN016 25/25 Q1011 TEMPO TL2421 1200 +TSRA RMK CB IN APCH AND CLIMB-OUT
2026-03-17 23:00:00,METAR WADD 172300Z 04004KT 1200 +RA FEW015CB BKN016 25/25 Q1011 TEMPO TL2400 1200 +RA
2026-03-17 22:52:00,SPECI WADD 172252Z 04003KT 1200 +RA FEW015CB BKN016 25/25 Q1011 TEMPO TL2352 1200 +RA
2026-03-17 22:45:00,SPECI WADD 172245Z 07005KT 3000 RA FEW015CB BKN016 25/25 Q1011 TEMPO TL2345 3000 RA
2026-03-17 22:30:00,METAR WADD 172230Z VRB02KT 6000 -RA FEW015CB BKN016 25/25 Q1010 TEMPO TL2330 6000 -RA
2026-03-17 22:00:00,METAR WADD 172200Z 36003KT 6000 -RA FEW015CB BKN016 25/25 Q1010 TEMPO TL2300 6000 -RA
2026-03-17 21:39:00,SPECI WADD 172139Z 12004KT 6000 -RA FEW015CB BKN016 25/25 Q1010 TEMPO TL2239 6000 -RA
2026-03-17 21:30:00,METAR WADD 172130Z VRB03KT 9999 FEW015CB BKN016 25/25 Q1010 NOSIG
2026-03-17 21:00:00,METAR WADD 172100Z 32005KT 9999 FEW015CB BKN016 25/25 Q1010 RETS NOSI G
2026-03-17 20:30:00,METAR WADD 172030Z 30005KT 9999 TS FEW015CB BKN016 25/25 Q1009 RERA TEMPO TL2130 TS
2026-03-17 20:00:00,METAR WADD 172000Z 29007KT 8000 -TSRA FEW015CB BKN016 25/25 Q1009 TEM PO TL2100 -TSRA
2026-03-17 19:30:00,METAR WADD 171930Z 29008KT 8000 -TSRA FEW015CB BKN016 25/25 Q1010 TEM PO TL2030 -TSRA
2026-03-17 19:00:00,METAR WADD 171900Z 30004KT 6000 -TSRA FEW015CB BKN016 25/25 Q1010 TEMPO TL2000 6000 -TSRA RMK CB IN CLIMB-OUT
2026-03-17 18:30:00,METAR WADD 171830Z 33005KT 6000 -TSRA FEW015CB BKN016 25/25 Q1010 TEMPO TL1930 6000 -TSRA RMK CB IN CLIMB-OUT
2026-03-17 18:00:00,METAR WADD 171800Z 31005KT 6000 -TSRA FEW015CB BKN016 25/25 Q1010 TEM PO TL1900 6000 -TSRA RMK CB IN APCH AND CLIMB-OUT
2026-03-17 17:40:00,SPECI WADD 171740Z 29005KT 6000 -TSRA FEW015CB BKN016 25/25 Q1011 TEMPO TL1840 6000 -TSRA RMK CB IN APCH AND CLIMB-OUT
2026-03-17 17:30:00,METAR WADD 171730Z 25006KT 230V300 3000 RA FEW015CB BKN016 25/25 Q1011 TEMPO TL1830 3000 RA RMK CB IN APCH AND CLIMB-OUT
2026-03-17 17:00:00,METAR WADD 171700Z COR VRB02KT 2000 +RA FEW015CB BKN016 25/25 Q1011 T EMPO TL1800 2000 +RA RMK CB IN CLIMB-OUT
2026-03-17 16:42:00,SPECI WADD 171642Z 26010KT 240V350 1300 +RA FEW015CB BKN016 26/26 Q1011 TEMPO TL1742 1300 +RA RMK CB IN CLIMB-OUT
2026-03-17 16:30:00,METAR WADD 171630Z 35005KT 6000 -RA FEW015CB BKN016 26/26 Q1011 TEMPO TL1730 6000 -RA RMK CB IN CLIMB-OUT
2026-03-17 16:10:00,SPECI WADD 171610Z 33004KT 4000 RA FEW015CB BKN016 27/26 Q1011 TEMPO TL1710 4000 RA RMK CB IN CLIMB-OUT
2026-03-17 16:00:00,METAR WADD 171600Z 33005KT 9999 FEW015CB SCT016 27/26 Q1011 NOSIG RMK CB IN CLIMB-OUT
2026-03-17 15:30:00,METAR WADD 171530Z 33004KT 300V010 9999 SCT016 27/26 Q1011 NOSIG
2026-03-17 15:00:00,METAR WADD 171500Z 35004KT 9999 SCT016 27/26 Q1011 NOSIG
2026-03-17 14:30:00,METAR WADD 171430Z VRB01KT 9999 SCT016 27/25 Q1011 NOSIG
2026-03-17 14:00:00,METAR WADD 171400Z VRB01KT 9999 SCT016 27/26 Q1011 NOSIG
2026-03-17 13:30:00,METAR WADD 171330Z 25002KT 9999 SCT016 28/26 Q1011 NOSIG
2026-03-17 13:00:00,METAR WADD 171300Z VRB02KT 9999 SCT016 28/26 Q1011 NOSIG
2026-03-17 12:30:00,METAR WADD 171230Z VRB01KT 9999 SCT016 28/26 Q1011 NOSIG
2026-03-17 12:00:00,METAR WADD 171200Z VRB02KT 9999 SCT016 28/26 Q1010 NOSIG
2026-03-17 11:30:00,METAR WADD 171130Z 23004KT 130V250 9999 SCT016 28/26 Q1010 NOSIG
2026-03-17 11:00:00,METAR WADD 171100Z 24004KT 210V270 9999 SCT016 28/26 Q1009 NOSIG
2026-03-17 10:30:00,METAR WADD 171030Z 22004KT 170V260 9999 SCT016 29/26 Q1009 NOSIG
2026-03-17 10:00:00,METAR WADD 171000Z 25006KT 9999 SCT016 29/26 Q1009 NOSIG
2026-03-17 09:30:00,METAR WADD 170930Z 25006KT 9999 SCT016 31/27 Q1008 NOSIG
2026-03-17 09:00:00,METAR WADD 170900Z 26007KT 9999 SCT016 30/27 Q1008 NOSIG
2026-03-17 08:30:00,METAR WADD 170830Z 26008KT 9999 SCT016 30/26 Q1008 NOSIG
2026-03-17 08:00:00,METAR WADD 170800Z 27010KT 9999 SCT016 31/26 Q1008 NOSIG
2026-03-17 07:30:00,METAR WADD 170730Z 27011KT 9999 SCT016 31/26 Q1008 NOSIG
2026-03-17 07:00:00,METAR WADD 170700Z 25009KT 210V280 9999 SCT016 32/26 Q1008 NOSIG
2026-03-17 06:30:00,METAR WADD 170630Z 26010KT 9999 SCT016 32/27 Q1008 NOSIG
2026-03-17 06:00:00,METAR WADD 170600Z 25009KT 9999 SCT016 32/26 Q1008 NOSIG
2026-03-17 05:30:00,METAR WADD 170530Z 26010KT 9999 SCT016 31/27 Q1009 NOSIG
2026-03-17 05:00:00,METAR WADD 170500Z 26010KT 9999 SCT016 31/27 Q1009 NOSIG
2026-03-17 04:30:00,METAR WADD 170430Z 26009KT 220V280 9999 SCT016 31/27 Q1010 NOSIG
2026-03-17 04:00:00,METAR WADD 170400Z 27010KT 9999 SCT016 31/27 Q1010 NOSIG
2026-03-17 03:30:00,METAR WADD 170330Z 27011KT 9999 SCT016 31/26 Q1011 NOSIG
2026-03-17 03:00:00,METAR WADD 170300Z 26009KT 210V300 9999 SCT016 31/27 Q1011 NOSIG
2026-03-17 02:30:00,METAR WADD 170230Z 27009KT 230V300 9999 SCT016 30/27 Q1011 NOSIG
2026-03-17 02:00:00,METAR WADD 170200Z 29008KT 260V320 9999 SCT016 30/26 Q1011 NOSIG
2026-03-17 01:30:00,METAR WADD 170130Z 29009KT 9999 SCT016 30/26 Q1011 NOSIG
2026-03-17 01:00:00,METAR WADD 170100Z 29010KT 9999 SCT016 30/26 Q1011 NOSIG
2026-03-17 00:30:00,METAR WADD 170030Z 29009KT 9999 SCT016 30/26 Q1011 NOSIG
2026-03-17 00:00:00,METAR WADD 170000Z 28007KT 9999 SCT016 29/26 Q1010 NOSIG
2026-03-16 23:30:00,METAR WADD 162330Z 28006KT 9999 SCT016 28/26 Q1010 NOSIG
2026-03-16 23:00:00,METAR WADD 162300Z 28007KT 9999 SCT016 27/26 Q1010 NOSIG
2026-03-16 22:30:00,METAR WADD 162230Z 28006KT 9999 SCT016 26/26 Q1010 NOSIG
2026-03-16 22:00:00,METAR WADD 162200Z 26006KT 9999 SCT016 27/26 Q1009 NOSIG
2026-03-16 21:30:00,METAR WADD 162130Z 26006KT 9999 SCT016 27/26 Q1009 NOSIG
2026-03-16 21:00:00,METAR WADD 162100Z 27008KT 9999 SCT016 27/26 Q1009 NOSIG
2026-03-16 20:30:00,METAR WADD 162030Z 34004KT 260V030 9999 SCT016 26/26 Q1009 NOSIG
2026-03-16 20:00:00,METAR WADD 162000Z 32006KT 9999 SCT016 26/26 Q1009 RETS NOSIG
2026-03-16 19:30:00,METAR WADD 161930Z 27008KT 9999 TS FEW016CB SCT016 27/26 Q1009 NOSIG
2026-03-16 19:14:00,SPECI WADD 161914Z 27006KT 9999 TS FEW016CB SCT016 27/26 Q1009 RERA NOSIG RMK CB IN APCH
2026-03-16 19:00:00,METAR WADD 161900Z 28006KT 8000 -RA FEW016CB SCT016 27/27 Q1009 NOSIG
2026-03-16 18:30:00,METAR WADD 161830Z 34004KT 9999 FEW016CB SCT016 27/26 Q1010 NOSIG
2026-03-16 18:00:00,METAR WADD 161800Z 34004KT 9999 SCT016 27/26 Q1010 NOSIG
2026-03-16 17:30:00,METAR WADD 161730Z VRB01KT 9999 SCT016 26/26 Q1010 NOSIG
2026-03-16 17:00:00,METAR WADD 161700Z VRB01KT 9999 SCT016 26/26 Q1010 NOSIG
2026-03-16 16:30:00,METAR WADD 161630Z VRB02KT 9999 BKN016 27/26 Q1011 RERA NOSIG
2026-03-16 16:00:00,METAR WADD 161600Z 29004KT 8000 -RA BKN016 27/26 Q1011 NOSIG
2026-03-16 15:30:00,METAR WADD 161530Z 23003KT 9999 FEW016CB SCT016 27/26 Q1011 NOSIG
2026-03-16 15:00:00,METAR WADD 161500Z 12003KT 9999 FEW016CB SCT016 27/26 Q1011 NOSIG RMK CB IN APCH
2026-03-16 14:30:00,METAR WADD 161430Z 35003KT 9999 FEW016CB SCT016 27/25 Q1011 RERA NOSI G RMK CB IN APCH
2026-03-16 14:10:00,SPECI WADD 161410Z COR 30005KT 280V360 7000 -RA FEW016CB SCT016 28/26 Q1011 NOSIG RMK CB IN APCH
2026-03-16 14:00:00,METAR WADD 161400Z 26004KT 240V310 9999 FEW016CB SCT016 28/26 Q1011 NOSIG RMK CB IN APCH
2026-03-16 13:30:00,METAR WADD 161330Z 25005KT 9999 FEW016CB FEW016 28/26 Q1011 NOSIG
2026-03-16 13:00:00,METAR WADD 161300Z 24003KT 9999 FEW016CB FEW016 28/26 Q1010 NOSIG
2026-03-16 12:30:00,METAR WADD 161230Z 23003KT 9999 FEW016 28/26 Q1010 NOSIG
2026-03-16 12:00:00,METAR WADD 161200Z 25005KT 220V280 9999 FEW016 28/26 Q1010 NOSIG
2026-03-16 11:30:00,METAR WADD 161130Z 26005KT 9999 FEW016 28/27 Q1009 NOSIG
2026-03-16 11:00:00,METAR WADD 161100Z 25006KT 9999 FEW016 28/26 Q1009 NOSIG
2026-03-16 10:30:00,METAR WADD 161030Z 25006KT 9999 FEW016 29/26 Q1009 NOSIG
2026-03-16 10:00:00,METAR WADD 161000Z 25007KT 9999 FEW017 30/26 Q1008 NOSIG
2026-03-16 09:30:00,METAR WADD 160930Z 26009KT 9999 FEW017 30/26 Q1008 NOSIG
2026-03-16 09:00:00,METAR WADD 160900Z 26009KT 9999 FEW016 31/26 Q1008 NOSIG
2026-03-16 08:30:00,METAR WADD 160830Z 26009KT 9999 FEW017 31/26 Q1008 NOSIG
2026-03-16 08:00:00,METAR WADD 160800Z 25009KT 9999 NCD 31/26 Q1007 NOSIG
2026-03-16 07:30:00,METAR WADD 160730Z 25009KT 9999 FEW016 32/26 Q1008 NOSIG
2026-03-16 07:00:00,METAR WADD 160700Z 25010KT 9999 FEW016 31/26 Q1008 NOSIG
2026-03-16 06:30:00,METAR WADD 160630Z 24008KT 9999 FEW016 31/26 Q1008 NOSIG
2026-03-16 06:00:00,METAR WADD 160600Z 25008KT 9999 SCT016 31/26 Q1008 NOSIG
2026-03-16 05:30:00,METAR WADD 160530Z 26010KT 220V280 9999 FEW017 31/26 Q1009 NOSIG
2026-03-16 05:00:00,METAR WADD 160500Z 25009KT 220V280 9999 FEW017 31/27 Q1009 NOSIG
2026-03-16 04:30:00,METAR WADD 160430Z 26009KT 9999 FEW017 30/27 Q1010 NOSIG
2026-03-16 04:00:00,METAR WADD 160400Z 26009KT 220V280 9999 SCT016 31/26 Q1010 NOSIG
2026-03-16 03:30:00,METAR WADD 160330Z 26008KT 220V290 9999 SCT016 31/26 Q1010 NOSIG
2026-03-16 03:00:00,METAR WADD 160300Z 26007KT 210V290 9999 SCT016 30/26 Q1010 NOSIG
2026-03-16 02:30:00,METAR WADD 160230Z 27007KT 9999 SCT016 30/26 Q1010 NOSIG
2026-03-16 02:00:00,METAR WADD 160200Z 27005KT 9999 FEW016CB SCT016 29/26 Q1011 NOSIG
2026-03-16 01:30:00,METAR WADD 160130Z 23005KT 210V280 9999 FEW016CB SCT016 28/26 Q1011 R ERA NOSIG RMK CB IN APCH AND CLIMB-OUT
2026-03-16 01:00:00,METAR WADD 160100Z 24003KT 8000 -RA FEW016CB FEW016 27/26 Q1011 TEMPO TL0230 8000 -RA RMK CB IN APCH AND CLIMB-OUT
2026-03-16 00:46:00,SPECI WADD 160046Z 25008KT 220V300 8000 -RA FEW016CB FEW016 29/26 Q1011 NOSIG RMK CB IN APCH
2026-03-16 00:30:00,METAR WADD 160030Z 29004KT 260V320 9999 FEW016CB FEW016 30/26 Q1010 NOSIG RMK CB IN APCH
2026-03-16 00:00:00,METAR WADD 160000Z VRB02KT 9999 FEW016CB FEW016 30/27 Q1010 NOSIG RMK CB IN APCH
2026-03-15 23:30:00,METAR WADD 152330Z 01003KT 9999 FEW016 28/27 Q1010 NOSIG
2026-03-15 23:00:00,METAR WADD 152300Z VRB02KT 9999 FEW017 25/25 Q1010 NOSIG
2026-03-15 22:30:00,METAR WADD 152230Z 05002KT 9999 FEW016 25/25 Q1009 NOSIG
2026-03-15 22:00:00,METAR WADD 152200Z VRB01KT 9999 FEW016 25/24 Q1009 NOSIG
2026-03-15 21:30:00,METAR WADD 152130Z VRB01KT 9999 SCT016 25/24 Q1009 NOSIG
2026-03-15 21:00:00,METAR WADD 152100Z VRB02KT 9999 FEW015CB SCT016 25/25 Q1009 NOSIG CB IN CLIMB-OUT
2026-03-15 20:30:00,METAR WADD 152030Z VRB04KT 9999 FEW015CB SCT016 25/25 Q1009 NOSIG RMK CB TO S
2026-03-15 20:00:00,METAR WADD 152000Z 02003KT 9999 FEW015CB SCT016 26/25 Q1009 NOSIG RMK CB TO S
2026-03-15 19:30:00,METAR WADD 151930Z VRB02KT 9999 FEW015CB SCT016 26/25 Q1009 NOSIG RMK CB TO S
2026-03-15 19:00:00,METAR WADD 151900Z 28003KT 9999 SCT015 26/25 Q1009 NOSIG
2026-03-15 18:30:00,METAR WADD 151830Z 28009KT 9999 SCT015 26/25 Q1010 NOSIG
2026-03-15 18:00:00,METAR WADD 151800Z 25008KT 9999 SCT015 25/24 Q1010 NOSIG
2026-03-15 17:30:00,METAR WADD 151730Z 25006KT 9999 FEW013CB SCT014 25/25 Q1010 RETS NOSIG RMK CB TO SW
2026-03-15 17:00:00,METAR WADD 151700Z 24005KT 200V260 9999 TS FEW013CB SCT014 25/25 Q101 1 NOSIG RMK CB IN CLIMB-OUT AND APCH
2026-03-15 16:30:00,METAR WADD 151630Z 24011KT 9999 TS FEW013CB SCT014 25/24 Q1011 NOSIG RMK CB IN CLIMB-OUT AND APCH
2026-03-15 16:15:00,SPECI WADD 151615Z VRB02KT 9999 TS FEW013CB SCT014 26/25 Q1011 NOSIG RMK CB IN CLIMB-OUT AND SW
2026-03-15 16:00:00,METAR WADD 151600Z VRB02KT 9999 FEW014CB SCT015 26/25 Q1011 NOSIG RMK CB TO S AND SW
2026-03-15 15:30:00,METAR WADD 151530Z VRB02KT 9999 FEW014CB SCT015 26/26 Q1012 CB TO S NOSIG
2026-03-15 15:00:00,METAR WADD 151500Z VRB02KT 9999 FEW014CB SCT015 26/26 Q1012 RETSRA NO SIG
2026-03-15 14:30:00,METAR WADD 151430Z 34004KT 290V360 7000 -TSRA FEW013CB BKN014 26/25 Q 1012 TEMPO TL1530 7000 -TSRA RMK CB IN APCH AND CB TO SE
2026-03-15 14:00:00,METAR WADD 151400Z 33007KT 7000 -TSRA FEW013CB BKN014 26/26 Q1012 TEMPO TL1500 7000 -TSRA RMK CB IN APCH AND CLIMB-OUT
2026-03-15 13:30:00,METAR WADD 151330Z 30011G20KT 7000 -TSRA FEW013CB BKN014 25/25 Q1011 TEMPO TL1430 7000 -TSRA RMK CB IN APCH AND CLIMB-OUT
2026-03-15 13:00:00,METAR WADD 151300Z 34009KT 310V010 1500 TSRA FEW013CB BKN014 26/26 Q1011 TEMPO TL1400 1500 TSRA RMK CB IN APCH AND CLIMB-OUT
2026-03-15 12:30:00,METAR WADD 151230Z 28008KT 270V340 1200 TSRA FEW013CB BKN014 27/26 Q1011 TEMPO TL1330 1200 TSRA RMK CB INAPCH AND CLIMB-OUT
2026-03-15 12:22:00,SPECI WADD 151222Z 36004KT 330V030 1200 TSRA FEW013CB BKN014 27/26 Q1010 TEMPO TL1330 1200 TSRA RMK CB IN APCH AND CLIMB-OUT
2026-03-15 12:05:00,SPECI WADD 151205Z 02007KT 330V030 7000 -TSRA FEW014CB BKN015 28/25 Q1010 TEMPO TL1300 7000 -TSRA RMK CB IN APCH AND CLIMB-OUT
2026-03-15 12:00:00,METAR WADD 151200Z 02007KT 320V040 9999 TS FEW014CB SCT015 28/25 Q1010 NOSIG RMK CB IN APCH
2026-03-15 11:30:00,METAR WADD 151130Z 26007KT 9999 TS FEW015CB SCT015 28/26 Q1010 NOSIG RMK CB IN APCH
2026-03-15 11:00:00,METAR WADD 151100Z 27010KT 9999 FEW015CB SCT015 28/26 Q1009 NOSIG RMK CB IN APCH
2026-03-15 10:30:00,METAR WADD 151030Z 26008KT 9999 FEW015CB SCT015 29/27 Q1009 RETS NOSI G RMK CB IN APCH
2026-03-15 10:00:00,METAR WADD 151000Z 25009KT 9999 TS FEW015CB SCT015 29/26 Q1008 NOSIG RMK CB IN APCH
2026-03-15 09:30:00,METAR WADD 150930Z 25009KT 9999 FEW015CB SCT016 29/26 Q1008 NOSIG RMK CB IN APCH
2026-03-15 09:00:00,METAR WADD 150900Z 24007KT 9999 FEW015CB SCT016 30/26 Q1008 NOSIG
2026-03-15 08:30:00,METAR WADD 150830Z 26010KT 9999 SCT016 31/27 Q1008 NOSIG
2026-03-15 08:00:00,METAR WADD 150800Z 25009KT 9999 SCT016 32/26 Q1008 NOSIG
