Time_recorded,METAR
2026-05-02 15:53:00,METAR KFOK 021553Z 23005KT 10SM BKN007 OVC075 11/08 A2990 RMK AO2 SLP124 T01060083
2026-05-02 15:00:00,SPECI KFOK 021500Z 21006KT 10SM BKN008 BKN015 OVC065 10/08 A2990 RMK AO2 T01000083
2026-05-02 14:53:00,METAR KFOK 021453Z 21006KT 10SM BKN010 BKN016 OVC065 10/08 A2990 RMK AO2 SLP126 T01000078 56004
2026-05-02 14:03:00,SPECI KFOK 021403Z 21007KT 10SM BKN010 BKN016 OVC065 11/08 A2991 RMK AO2 T01060078
2026-05-02 13:53:00,METAR KFOK 021353Z 21007KT 10SM SCT010 BKN016 OVC065 10/08 A2991 RMK AO2 SLP129 T01000078
2026-05-02 13:46:00,SPECI KFOK 021346Z 19004KT 10SM SCT011 BKN016 OVC080 11/08 A2991 RMK AO2 T01060078
2026-05-02 12:53:00,METAR KFOK 021253Z 19005KT 10SM SCT085 11/08 A2990 RMK AO2 SLP125 T01110078
2026-05-02 11:53:00,METAR KFOK 021153Z 24004KT 10SM BKN090 BKN110 11/07 A2991 RMK AO2 SLP130 T01060072 10111 20089 53006
2026-05-02 10:53:00,METAR KFOK 021053Z 23005KT 10SM OVC110 10/07 A2990 RMK AO2 SLP125 T01000067
2026-05-02 09:53:00,METAR KFOK 020953Z AUTO 21007KT 10SM FEW100 09/07 A2990 RMK AO2 SLP125 T00940067
2026-05-02 08:53:00,METAR KFOK 020853Z AUTO 21006KT 10SM BKN100 09/07 A2990 RMK AO2 SLP123 T00940067 58005
2026-05-02 07:53:00,METAR KFOK 020753Z AUTO 21008KT 10SM CLR 09/07 A2990 RMK AO2 SLP124 T00940067
2026-05-02 06:53:00,METAR KFOK 020653Z AUTO 21006KT 10SM SCT110 09/07 A2991 RMK AO2 SLP126 T00940067
2026-05-02 05:53:00,METAR KFOK 020553Z AUTO 20005KT 10SM CLR 09/06 A2991 RMK AO2 SLP128 T00940056 10100 20089 56008
2026-05-02 04:53:00,METAR KFOK 020453Z AUTO 21004KT 10SM FEW120 09/06 A2992 RMK AO2 SLP130 T00890061 401560000
2026-05-02 03:53:00,METAR KFOK 020353Z AUTO 21005KT 10SM CLR 09/06 A2992 RMK AO2 SLP132 T00940061
2026-05-02 02:53:00,METAR KFOK 020253Z AUTO 21007G18KT 10SM CLR 10/05 A2994 RMK AO2 SLP137 T01000050 51012
2026-05-02 01:53:00,METAR KFOK 020153Z 21005KT 10SM CLR 09/05 A2992 RMK AO2 SLP133 T00940050
2026-05-02 00:53:00,METAR KFOK 020053Z 23006KT 10SM CLR 09/06 A2992 RMK AO2 SLP131 T00940056
2026-05-01 23:53:00,METAR KFOK 012353Z 22007KT 10SM CLR 10/05 A2990 RMK AO2 SLP125 T01000050 10150 20100 51010
2026-05-01 22:53:00,METAR KFOK 012253Z 23010G20KT 10SM CLR 11/04 A2989 RMK AO2 PK WND 24026/2215 SLP121 T01110039
2026-05-01 21:53:00,METAR KFOK 012153Z 22011G19KT 10SM CLR 12/03 A2988 RMK AO2 SLP119 T01220033
2026-05-01 20:53:00,METAR KFOK 012053Z 21011G18KT 190V250 10SM CLR 14/02 A2987 RMK AO2 SLP114 T01390017 58005
2026-05-01 19:53:00,METAR KFOK 011953Z 23014G21KT 10SM CLR 14/01 A2987 RMK AO2 SLP117 T01440006
2026-05-01 18:53:00,METAR KFOK 011853Z 23010G21KT 10SM CLR 14/01 A2988 RMK AO2 SLP119 T01390011
2026-05-01 17:53:00,METAR KFOK 011753Z 21007G15KT 10SM CLR 14/02 A2988 RMK AO2 SLP120 T01390022 10156 20094 58007
2026-05-01 16:53:00,METAR KFOK 011653Z 34009G20KT 10SM CLR 14/M01 A2990 RMK AO2 SLP124 T01391006
2026-05-01 15:53:00,METAR KFOK 011553Z 33015KT 10SM CLR 13/01 A2991 RMK AO2 SLP129 T01280006
2026-05-01 14:53:00,METAR KFOK 011453Z 35011G18KT 10SM CLR 12/02 A2991 RMK AO2 SLP127 T01220017 51002
2026-05-01 13:53:00,METAR KFOK 011353Z 33009G19KT 10SM CLR 11/02 A2991 RMK AO2 SLP127 T01110017
2026-05-01 12:53:00,METAR KFOK 011253Z 32014G21KT 10SM CLR 11/02 A2990 RMK AO2 SLP126 T01060017
2026-05-01 11:53:00,METAR KFOK 011153Z 32011G18KT 10SM CLR 09/02 A2990 RMK AO2 SLP125 70001 T00940022 10094 20000 53014
2026-05-01 10:53:00,METAR KFOK 011053Z 00000KT 10SM CLR 04/02 A2989 RMK AO2 SLP123 T00390017
2026-05-01 09:53:00,METAR KFOK 010953Z AUTO 32003KT 10SM CLR 01/00 A2987 RMK AO2 SLP114 T00110000
2026-05-01 08:53:00,METAR KFOK 010853Z AUTO 31004KT 10SM CLR 03/01 A2986 RMK AO2 SLP111 T00280006 53008
2026-05-01 07:53:00,METAR KFOK 010753Z AUTO 34003KT 10SM CLR 03/02 A2985 RMK AO2 SLP108 T00330022
2026-05-01 06:53:00,METAR KFOK 010653Z AUTO 32005KT 10SM FEW090 06/03 A2984 RMK AO2 SLP104 T00560028
2026-05-01 05:53:00,METAR KFOK 010553Z AUTO 33006KT 10SM FEW100 08/04 A2983 RMK AO2 SLP103 T00780039 10106 20033 50012
2026-05-01 04:53:00,METAR KFOK 010453Z AUTO 33005KT 10SM FEW110 06/04 A2984 RMK AO2 SLP104 T00560044 401220033
2026-05-01 03:53:00,METAR KFOK 010353Z AUTO 00000KT 10SM CLR 04/04 A2982 RMK AO2 SLP098 T00440039
2026-05-01 03:38:00,SPECI KFOK 010338Z AUTO 00000KT 10SM CLR 05/04 A2981 RMK AO2 T00500044
2026-05-01 03:31:00,SPECI KFOK 010331Z AUTO 00000KT 2SM BR CLR 06/05 A2981 RMK AO2 T00560050
2026-05-01 03:06:00,SPECI KFOK 010306Z AUTO 00000KT 1/2SM FG CLR 06/06 A2980 RMK AO2 T00560056
2026-05-01 02:53:00,METAR KFOK 010253Z 00000KT 1 1/4SM BR CLR 06/06 A2980 RMK AO2 SLP091 T00610061 51012
2026-05-01 02:51:00,SPECI KFOK 010251Z 00000KT 1 3/4SM BR CLR 06/06 A2980 RMK AO2
2026-05-01 01:53:00,METAR KFOK 010153Z 33004KT 10SM CLR 10/09 A2979 RMK AO2 SLP087 T01000089
2026-05-01 00:53:00,METAR KFOK 010053Z 00000KT 10SM OVC060 09/08 A2978 RMK AO2 SLP085 T00890083
2026-04-30 23:53:00,METAR KFOK 302353Z 26003KT 10SM SCT029 SCT034 BKN095 10/09 A2976 RMK AO2 SLP079 T01000089 10122 20100 51008
2026-04-30 22:53:00,METAR KFOK 302253Z 23004KT 10SM FEW013 SCT021 12/09 A2976 RMK AO2 SLP077 T01170094
2026-04-30 22:35:00,SPECI KFOK 302235Z 21005KT 10SM FEW013 SCT020 BKN030 11/09 A2975 RMK AO2 T01110094
2026-04-30 22:15:00,SPECI KFOK 302215Z 21004KT 10SM BKN027 12/09 A2975 RMK AO2 T01170094
2026-04-30 22:04:00,SPECI KFOK 302204Z 24007KT 10SM SCT025 SCT030 BKN075 11/09 A2975 RMK AO2 T01110094
2026-04-30 21:53:00,METAR KFOK 302153Z 20006KT 10SM BKN024 BKN039 OVC075 12/09 A2975 RMK AO2 SLP075 T01170094
2026-04-30 21:43:00,SPECI KFOK 302143Z 22005KT 10SM SCT024 SCT039 BKN075 12/09 A2975 RMK AO2 T01220094
2026-04-30 21:26:00,SPECI KFOK 302126Z 21005KT 10SM SCT010 OVC024 11/09 A2974 RMK AO2 T01110094
2026-04-30 21:13:00,SPECI KFOK 302113Z 23004KT 10SM BKN010 OVC026 11/09 A2974 RMK AO2 CIG 008V013 T01110094
2026-04-30 20:53:00,METAR KFOK 302053Z 19003KT 10SM OVC009 11/09 A2974 RMK AO2 SLP071 T01110089 55002
2026-04-30 19:53:00,METAR KFOK 301953Z AUTO 24004KT 10SM OVC007 11/09 A2973 RMK AO2 SLP068 T01060089
2026-04-30 18:53:00,METAR KFOK 301853Z 21005KT 10SM OVC007 10/08 A2974 RMK AO2 SLP071 T01000083
2026-04-30 17:53:00,METAR KFOK 301753Z 19004KT 10SM OVC009 10/08 A2975 RMK AO2 SLP073 60001 T01000083 10111 20083 55009
2026-04-30 16:53:00,METAR KFOK 301653Z 00000KT 10SM OVC009 11/09 A2974 RMK AO2 SLP072 T01060089
2026-04-30 14:53:00,METAR KFOK 301453Z VRB03KT 3SM BR OVC006 09/08 A2977 RMK AO2 SLP082 60001 T00940083 55001
2026-04-30 13:53:00,METAR KFOK 301353Z 18004KT 5SM BR OVC005 09/08 A2977 RMK AO2 RAE04 SLP081 P0000 T00890083
2026-04-30 13:42:00,SPECI KFOK 301342Z 15004KT 3SM BR OVC005 09/08 A2977 RMK AO2 RAE04 P0000 T00890083
2026-04-30 12:53:00,METAR KFOK 301253Z 13003KT 2SM -RA BR BKN005 OVC011 09/08 A2977 RMK AO2 RAB48 SLP083 P0001 T00890078
2026-04-30 12:51:00,SPECI KFOK 301251Z 00000KT 2SM -RA BR BKN004 OVC011 09/08 A2978 RMK AO2 RAB48 P0001
2026-04-30 12:39:00,SPECI KFOK 301239Z 00000KT 2 1/2SM BR SCT004 OVC011 09/08 A2978 RMK AO2 T00890083
2026-04-30 12:18:00,SPECI KFOK 301218Z 16003KT 1 3/4SM BR FEW004 BKN011 OVC028 09/08 A2979 RMK AO2 T00890083
2026-04-30 12:08:00,SPECI KFOK 301208Z 00000KT 2SM BR FEW004 BKN013 OVC028 09/08 A2979 RMK AO2 T00890083
2026-04-30 11:53:00,METAR KFOK 301153Z 16003KT 2SM BR SCT004 OVC029 08/08 A2979 RMK AO2 RAE44 SLP088 P0006 60026 70036 T00830078 10083 20078 51004
2026-04-30 11:45:00,SPECI KFOK 301145Z 14003KT 2 1/2SM BR SCT004 BKN011 OVC029 08/08 A2979 RMK AO2 RAE44 P0005 T00830078
2026-04-30 11:36:00,SPECI KFOK 301136Z 00000KT 2 1/2SM -RA BR SCT004 BKN008 OVC027 08/08 A2979 RMK AO2 P0005 T00830078
2026-04-30 11:18:00,SPECI KFOK 301118Z 00000KT 1 1/2SM -RA BR FEW008 BKN011 OVC025 08/08 A2980 RMK AO2 P0004 T00830078
2026-04-30 11:00:00,SPECI KFOK 301100Z 00000KT 1 1/4SM -RA BR SCT008 OVC015 08/08 A2979 RMK AO2 P0001 T00830078
2026-04-30 10:53:00,METAR KFOK 301053Z 00000KT 2 1/2SM -RA BR FEW010 OVC015 08/08 A2979 RMK AO2 SLP088 P0006 T00830078
2026-04-30 10:43:00,SPECI KFOK 301043Z AUTO 00000KT 6SM -RA BR FEW003 BKN015 OVC034 08/08 A2978 RMK AO2 P0005 T00830078
2026-04-30 10:32:00,SPECI KFOK 301032Z AUTO 00000KT 3SM -RA BR BKN015 OVC033 08/08 A2978 RMK AO2 P0004 T00830078
2026-04-30 10:17:00,SPECI KFOK 301017Z AUTO 00000KT 6SM RA BR SCT005 SCT017 OVC035 08/08 A2977 RMK AO2 P0002 T00830078
2026-04-30 10:10:00,SPECI KFOK 301010Z AUTO 00000KT 9SM -RA BKN005 BKN017 OVC035 08/08 A2977 RMK AO2 P0001 T00830078
2026-04-30 09:53:00,METAR KFOK 300953Z AUTO 00000KT 9SM -RA BKN004 OVC021 08/08 A2978 RMK AO2 RAE38B47 SLP083 P0004 T00830078
2026-04-30 09:45:00,SPECI KFOK 300945Z AUTO 29003KT 10SM BKN004 OVC021 08/08 A2978 RMK AO2 RAE38 P0004 T00830078
2026-04-30 09:35:00,SPECI KFOK 300935Z AUTO 00000KT 9SM -RA SCT004 OVC021 08/08 A2977 RMK AO2 P0003 T00830078
2026-04-30 09:05:00,SPECI KFOK 300905Z AUTO 33003KT 5SM -RA BR OVC004 08/08 A2978 RMK AO2 P0001 T00830078
2026-04-30 08:53:00,METAR KFOK 300853Z AUTO 00000KT 7SM -RA OVC005 08/08 A2977 RMK AO2 RAB10 SLP082 P0004 60010 T00830078 58003
2026-04-30 07:53:00,METAR KFOK 300753Z AUTO 23003KT 10SM OVC005 08/07 A2979 RMK AO2 RAE33 SLP088 P0002 T00830072
2026-04-30 07:32:00,SPECI KFOK 300732Z AUTO 00000KT 10SM -RA OVC005 08/07 A2979 RMK AO2 P0002 T00780072
2026-04-30 06:53:00,METAR KFOK 300653Z AUTO 11006KT 6SM -RA BR BKN004 OVC049 08/07 A2978 RMK AO2 PRESFR SLP084 P0004 T00780072
2026-04-30 06:50:00,SPECI KFOK 300650Z AUTO 12006KT 6SM -RA BR BKN004 OVC049 08/07 A2978 RMK AO2 PRESFR P0003
2026-04-30 06:03:00,SPECI KFOK 300603Z AUTO 19006KT 9SM -RA BKN005 OVC055 08/07 A2984 RMK AO2 P0000 T00780072
2026-04-30 05:53:00,METAR KFOK 300553Z AUTO 16004KT 6SM -RA BR BKN004 BKN060 OVC075 08/07 A2983 RMK AO2 SLP100 P0008 60010 T00780072 10083 20078 58019
2026-04-30 05:25:00,SPECI KFOK 300525Z AUTO 00000KT 7SM -RA SCT004 OVC070 08/07 A2983 RMK AO2 P0004 T00780072
2026-04-30 04:53:00,METAR KFOK 300453Z AUTO 00000KT 8SM -RA OVC004 08/07 A2986 RMK AO2 SLP110 P0002 T00780072 401280000
2026-04-30 03:53:00,METAR KFOK 300353Z AUTO 17003KT 10SM -RA BKN004 OVC095 08/07 A2987 RMK AO2 RAB38 SLP115 P0000 T00780072
2026-04-30 02:53:00,METAR KFOK 300253Z AUTO 00000KT 10SM OVC005 08/07 A2988 RMK AO2 SLP119 T00830067 50007
2026-04-30 02:26:00,SPECI KFOK 300226Z 22003KT 10SM BKN005 08/07 A2989 RMK AO2 T00780067
2026-04-30 02:17:00,SPECI KFOK 300217Z 00000KT 10SM SCT005 08/07 A2989 RMK AO2 T00780067
2026-04-30 01:53:00,METAR KFOK 300153Z 00000KT 10SM BKN005 08/07 A2990 RMK AO2 SLP124 T00780067
2026-04-30 01:37:00,SPECI KFOK 300137Z 00000KT 10SM SCT006 08/07 A2989 RMK AO2 T00780067
2026-04-30 00:53:00,METAR KFOK 300053Z 14003KT 10SM CLR 08/07 A2988 RMK AO2 SLP120 T00780067
2026-04-29 23:53:00,METAR KFOK 292353Z 09003KT 10SM CLR 08/07 A2986 RMK AO2 SLP112 T00830067 10122 20083 58023
2026-04-29 22:53:00,METAR KFOK 292253Z 23007KT 10SM CLR 08/07 A2988 RMK AO2 SLP120 T00830067
2026-04-29 21:53:00,METAR KFOK 292153Z 21004KT 10SM CLR 09/07 A2991 RMK AO2 SLP129 T00940067
2026-04-29 20:53:00,METAR KFOK 292053Z 19005KT 10SM CLR 09/07 A2993 RMK AO2 SLP134 T00940067 58022
2026-04-29 19:53:00,METAR KFOK 291953Z VRB06KT 10SM CLR 11/07 A2995 RMK AO2 SLP143 T01060067
2026-04-29 18:53:00,METAR KFOK 291853Z 16007KT 10SM CLR 12/07 A2998 RMK AO2 SLP151 T01170067
2026-04-29 17:53:00,METAR KFOK 291753Z 13007KT 10SM CLR 11/07 A2999 RMK AO2 SLP156 T01060067 10128 20094 58004
2026-04-29 16:53:00,METAR KFOK 291653Z 15011G16KT 10SM FEW010 09/06 A3001 RMK AO2 SLP164 T00940061
2026-04-29 15:53:00,METAR KFOK 291553Z 12010KT 10SM CLR 11/06 A3002 RMK AO2 SLP165 T01110061
2026-04-29 14:53:00,METAR KFOK 291453Z 14008KT 10SM CLR 11/06 A3000 RMK AO2 SLP161 T01110061 55014
2026-04-29 13:53:00,METAR KFOK 291353Z 12008KT 10SM CLR 11/06 A3000 RMK AO2 SLP160 T01060061
2026-04-29 12:53:00,METAR KFOK 291253Z 03006KT 10SM CLR 12/04 A3002 RMK AO2 SLP166 T01220044
2026-04-29 11:53:00,METAR KFOK 291153Z 10SM CLR 11/04 A3005 RMK AO2 SLP175 T01060044 10106 20000 51002
2026-04-29 10:53:00,METAR KFOK 291053Z 02003KT 10SM CLR 04/02 A3005 RMK AO2 SLP174 T00390022
2026-04-29 09:53:00,METAR KFOK 290953Z AUTO 00000KT 10SM CLR 00/M02 A3005 RMK AO2 SLP176 T00001017
2026-04-29 08:53:00,METAR KFOK 290853Z AUTO 00000KT 10SM CLR 01/M01 A3004 RMK AO2 SLP173 T00111006 56012
2026-04-29 07:53:00,METAR KFOK 290753Z AUTO 00000KT 10SM CLR 02/01 A3004 RMK AO2 SLP174 T00220006
2026-04-29 06:53:00,METAR KFOK 290653Z AUTO 00000KT 10SM CLR 03/02 A3005 RMK AO2 SLP177 T00330017
2026-04-29 05:53:00,METAR KFOK 290553Z AUTO 00000KT 10SM BKN110 06/04 A3008 RMK AO2 SLP185 T00610044 10100 20061 58000
2026-04-29 04:53:00,METAR KFOK 290453Z AUTO 00000KT 10SM OVC120 08/04 A3010 RMK AO2 SLP191 T00780044 401721006
2026-04-29 03:53:00,METAR KFOK 290353Z AUTO 00000KT 10SM OVC110 10/05 A3009 RMK AO2 SLP187 T01000050
2026-04-29 02:53:00,METAR KFOK 290253Z 00000KT 10SM OVC110 09/04 A3008 RMK AO2 SLP184 T00940044 58010
2026-04-29 01:53:00,METAR KFOK 290153Z 00000KT 10SM BKN120 09/05 A3011 RMK AO2 SLP196 T00940050
2026-04-29 00:53:00,METAR KFOK 290053Z 11003KT 10SM CLR 09/04 A3011 RMK AO2 SLP195 T00940044
2026-04-28 23:53:00,METAR KFOK 282353Z 00000KT 10SM CLR 10/04 A3011 RMK AO2 SLP195 T01000044 10156 20100 55005
2026-04-28 22:53:00,METAR KFOK 282253Z 11005KT 10SM CLR 11/04 A3011 RMK AO2 SLP195 T01060039
2026-04-28 21:53:00,METAR KFOK 282153Z 12005KT 10SM CLR 12/03 A3010 RMK AO2 SLP195 T01170028
2026-04-28 20:53:00,METAR KFOK 282053Z 15007KT 10SM CLR 13/03 A3012 RMK AO2 SLP200 T01280033 58018
2026-04-28 19:53:00,METAR KFOK 281953Z 17005KT 10SM CLR 15/03 A3014 RMK AO2 SLP206 T01500028
2026-04-28 18:53:00,METAR KFOK 281853Z VRB04KT 10SM CLR 14/03 A3016 RMK AO2 SLP214 T01390028
2026-04-28 17:53:00,METAR KFOK 281753Z 15007KT 130V190 10SM CLR 16/01 A3017 RMK AO2 SLP218 T01560011 10172 20117 55004
2026-04-28 16:53:00,METAR KFOK 281653Z 13009KT 10SM CLR 16/00 A3017 RMK AO2 SLP218 T01560000
2026-04-28 15:53:00,METAR KFOK 281553Z 16010KT 10SM CLR 16/01 A3018 RMK AO2 SLP219 T01610006
2026-04-28 14:53:00,METAR KFOK 281453Z 04006KT 10SM CLR 17/02 A3019 RMK AO2 SLP222 T01670022 56005
2026-04-28 13:53:00,METAR KFOK 281353Z 05007KT 10SM CLR 16/02 A3019 RMK AO2 SLP223 T01610017
2026-04-28 12:53:00,METAR KFOK 281253Z 03006KT 10SM CLR 15/02 A3019 RMK AO2 SLP223 T01500022
2026-04-28 11:53:00,METAR KFOK 281153Z 00000KT 10SM CLR 12/05 A3020 RMK AO2 SLP226 T01170050 10117 21006 56002
2026-04-28 10:53:00,METAR KFOK 281053Z 00000KT 10SM CLR 03/02 A3020 RMK AO2 SLP228 T00280022
2026-04-28 09:53:00,METAR KFOK 280953Z AUTO 00000KT 10SM CLR 00/M01 A3020 RMK AO2 SLP228 T00001011
2026-04-28 08:53:00,METAR KFOK 280853Z AUTO 33003KT 10SM CLR 00/M02 A3021 RMK AO2 SLP230 T00001017 51003
2026-04-28 07:53:00,METAR KFOK 280753Z AUTO 00000KT 10SM CLR M01/M02 A3020 RMK AO2 SLP228 T10061017
2026-04-28 06:53:00,METAR KFOK 280653Z AUTO 00000KT 10SM CLR 00/M02 A3021 RMK AO2 SLP230 T00001022
2026-04-28 05:53:00,METAR KFOK 280553Z AUTO 00000KT 10SM CLR M01/M02 A3020 RMK AO2 SLP227 T10061022 10117 21006 58022
2026-04-28 04:53:00,METAR KFOK 280453Z AUTO 03003KT 10SM CLR 01/M02 A3023 RMK AO2 SLP237 T00061017 401781006
2026-04-28 03:53:00,METAR KFOK 280353Z AUTO 00000KT 10SM CLR 02/M01 A3026 RMK AO2 SLP248 T00171011
2026-04-28 02:53:00,METAR KFOK 280253Z AUTO 03003KT 10SM CLR 03/M01 A3026 RMK AO2 SLP249 T00281006 50004
2026-04-28 01:53:00,METAR KFOK 280153Z 00000KT 10SM CLR 04/01 A3028 RMK AO2 SLP254 T00390006
2026-04-28 00:53:00,METAR KFOK 280053Z 05003KT 10SM CLR 06/02 A3027 RMK AO2 SLP251 T00610022
2026-04-27 23:53:00,METAR KFOK 272353Z 13003KT 10SM CLR 12/02 A3025 RMK AO2 SLP244 T01170022 10161 20117 55001
2026-04-27 22:53:00,METAR KFOK 272253Z 09007KT 10SM CLR 14/01 A3024 RMK AO2 SLP242 T01390011
2026-04-27 21:53:00,METAR KFOK 272153Z 09006KT 10SM CLR 15/02 A3025 RMK AO2 SLP244 T01500022
2026-04-27 20:53:00,METAR KFOK 272053Z 13006KT 10SM CLR 14/03 A3025 RMK AO2 SLP245 T01440028 55001
2026-04-27 19:53:00,METAR KFOK 271953Z 09012KT 10SM CLR 15/03 A3023 RMK AO2 SLP236 T01500028
2026-04-27 18:53:00,METAR KFOK 271853Z 11009KT 080V150 10SM CLR 16/03 A3025 RMK AO2 SLP244 T01560028
2026-04-27 17:53:00,METAR KFOK 271753Z 12010G16KT 10SM CLR 15/04 A3026 RMK AO2 SLP247 T01500039 10178 20100 52003
2026-04-27 16:53:00,METAR KFOK 271653Z 08009G18KT 030V150 10SM CLR 18/02 A3025 RMK AO2 SLP245 T01780017
2026-04-27 15:53:00,METAR KFOK 271553Z 03012KT 10SM CLR 17/01 A3025 RMK AO2 SLP245 T01670011
2026-04-27 14:53:00,METAR KFOK 271453Z 05010G21KT 10SM CLR 16/01 A3025 RMK AO2 SLP244 T01560011 51008
2026-04-27 13:53:00,METAR KFOK 271353Z 05012G20KT 10SM CLR 14/01 A3024 RMK AO2 SLP241 T01440011
2026-04-27 12:53:00,METAR KFOK 271253Z 05010KT 10SM CLR 13/04 A3024 RMK AO2 SLP239 T01280039
2026-04-27 11:53:00,METAR KFOK 271153Z 02007KT 10SM CLR 10/05 A3023 RMK AO2 SLP236 T01000050 10100 21006 53009
2026-04-27 10:53:00,METAR KFOK 271053Z 33006KT 10SM CLR 04/03 A3022 RMK AO2 SLP232 T00440033
2026-04-27 09:53:00,METAR KFOK 270953Z AUTO 35006KT 10SM CLR 03/02 A3021 RMK AO2 SLP230 T00280022
2026-04-27 08:53:00,METAR KFOK 270853Z AUTO 35006KT 10SM CLR 03/02 A3020 RMK AO2 SLP227 T00330022 53005
2026-04-27 07:53:00,METAR KFOK 270753Z AUTO 34007KT 10SM CLR 03/03 A3019 RMK AO2 SLP224 T00330028
2026-04-27 06:53:00,METAR KFOK 270653Z AUTO 32004KT 10SM CLR 00/M01 A3018 RMK AO2 SLP221 T00001011
2026-04-27 05:53:00,METAR KFOK 270553Z AUTO 00000KT 10SM CLR 00/M01 A3018 RMK AO2 SLP222 T00001011 10067 21006 58001
2026-04-27 04:53:00,METAR KFOK 270453Z AUTO 33004KT 10SM CLR 01/00 A3019 RMK AO2 SLP224 T00110000 401280000
2026-04-27 03:53:00,METAR KFOK 270353Z AUTO 35003KT 10SM CLR 03/01 A3019 RMK AO2 SLP223 T00280006
2026-04-27 02:53:00,METAR KFOK 270253Z 02003KT 10SM CLR 00/M01 A3019 RMK AO2 SLP223 T00001011 51007
2026-04-27 01:53:00,METAR KFOK 270153Z 00000KT 10SM CLR 01/00 A3019 RMK AO2 SLP222 T00110000
2026-04-27 00:53:00,METAR KFOK 270053Z 00000KT 10SM CLR 03/01 A3018 RMK AO2 SLP220 T00280011
2026-04-26 23:53:00,METAR KFOK 262353Z 00000KT 10SM CLR 07/03 A3017 RMK AO2 SLP216 T00670028 10128 20067 53010
2026-04-26 22:53:00,METAR KFOK 262253Z 12004KT 10SM CLR 10/02 A3015 RMK AO2 SLP211 T01000022
2026-04-26 21:53:00,METAR KFOK 262153Z VRB06KT 10SM CLR 11/03 A3015 RMK AO2 SLP210 T01060028
2026-04-26 20:53:00,METAR KFOK 262053Z 09006KT 10SM CLR 11/03 A3014 RMK AO2 SLP206 T01110033 50001
2026-04-26 19:53:00,METAR KFOK 261953Z 04011KT 10SM CLR 11/04 A3014 RMK AO2 SLP207 T01110039
2026-04-26 19:17:00,SPECI KFOK 261917Z 06011G19KT 10SM SCT027 11/04 A3014 RMK AO2 T01110044
2026-04-26 18:53:00,METAR KFOK 261853Z 04013KT 10SM OVC026 11/04 A3014 RMK AO2 SLP206 T01060044
2026-04-26 17:53:00,METAR KFOK 261753Z 05014G21KT 10SM OVC021 10/04 A3014 RMK AO2 SLP205 60000 T01000044 10106 20056 50003
2026-04-26 16:53:00,METAR KFOK 261653Z 05012KT 10SM OVC018 09/04 A3014 RMK AO2 SLP206 T00890044
2026-04-26 15:53:00,METAR KFOK 261553Z 05010KT 10SM OVC017 08/04 A3014 RMK AO2 RAE01 SLP207 P0000 T00830044
2026-04-26 15:13:00,SPECI KFOK 261513Z 05012G17KT 10SM BKN018 OVC044 08/04 A3013 RMK AO2 RAE01 P0000 T00780044
2026-04-26 14:53:00,METAR KFOK 261453Z 06009KT 10SM -RA FEW018 OVC044 07/04 A3013 RMK AO2 RAB45 SLP202 P0000 60000 T00720044 52013
2026-04-26 13:53:00,METAR KFOK 261353Z 04009KT 10SM FEW018 OVC036 07/04 A3012 RMK AO2 SLP198 T00720039
2026-04-26 13:34:00,SPECI KFOK 261334Z 05009KT 10SM SCT019 OVC037 07/04 A3011 RMK AO2 T00720039
2026-04-26 13:17:00,SPECI KFOK 261317Z 06010KT 10SM BKN018 OVC037 07/04 A3011 RMK AO2 T00670039
2026-04-26 12:53:00,METAR KFOK 261253Z 06009G15KT 10SM OVC036 07/04 A3010 RMK AO2 RAE13 SLP194 P0000 T00670044
2026-04-26 12:26:00,SPECI KFOK 261226Z 05007KT 10SM FEW013 SCT018 OVC034 06/04 A3010 RMK AO2 RAE13 P0000 T00560044
2026-04-26 11:53:00,METAR KFOK 261153Z 05008KT 7SM -RA BKN015 OVC037 06/04 A3009 RMK AO2 RAB44 SLP190 P0000 60009 70083 T00560039 10056 20039 51009
2026-04-26 10:53:00,METAR KFOK 261053Z 06008KT 10SM FEW017 OVC060 05/03 A3007 RMK AO2 RAB01E18 SLP184 P0000 T00500028
2026-04-26 09:53:00,METAR KFOK 260953Z AUTO 06007KT 10SM OVC060 04/03 A3006 RMK AO2 RAE14 SLP180 P0001 T00440028
2026-04-26 08:53:00,METAR KFOK 260853Z AUTO 05006KT 10SM -RA FEW018 FEW037 OVC075 04/03 A3006 RMK AO2 SLP179 P0001 60008 T00440028 56004
2026-04-26 07:53:00,METAR KFOK 260753Z AUTO 07004KT 10SM -RA OVC080 04/03 A3006 RMK AO2 SLP180 P0001 T00440028
2026-04-26 06:53:00,METAR KFOK 260653Z AUTO 05006KT 9SM -RA OVC080 04/03 A3005 RMK AO2 SLP177 P0006 T00440028
2026-04-26 05:53:00,METAR KFOK 260553Z AUTO 04006KT 7SM RA OVC060 04/03 A3007 RMK AO2 SLP183 P0009 60069 T00440033 10056 20044 58006
2026-04-26 04:53:00,METAR KFOK 260453Z AUTO 07005KT 6SM -RA BR FEW006 OVC060 04/03 A3008 RMK AO2 SLP187 P0014 T00440033 400891022
2026-04-26 04:48:00,SPECI KFOK 260448Z AUTO 07006KT 5SM RA BR FEW006 OVC060 04/03 A3008 RMK AO2 P0013
2026-04-26 03:53:00,METAR KFOK 260353Z AUTO 00000KT 3SM RA BR OVC007 04/04 A3009 RMK AO2 SLP189 P0021 T00440039
2026-04-26 03:36:00,SPECI KFOK 260336Z AUTO VRB03KT 5SM RA BR BKN007 BKN041 OVC049 04/04 A3009 RMK AO2 P0015 T00440039
2026-04-26 03:27:00,SPECI KFOK 260327Z AUTO VRB03KT 4SM RA BR SCT009 BKN041 OVC049 04/04 A3009 RMK AO2 P0013 T00440039
2026-04-26 03:20:00,SPECI KFOK 260320Z AUTO 08005KT 4SM RA BR BKN008 OVC044 04/04 A3008 RMK AO2 P0010 T00440039
2026-04-26 03:09:00,SPECI KFOK 260309Z AUTO VRB04KT 3SM +RA BR SCT008 BKN041 OVC055 04/04 A3009 RMK AO2 P0006 T00440039
2026-04-26 02:53:00,METAR KFOK 260253Z 08004KT 5SM RA BR FEW010 BKN041 OVC070 04/03 A3008 RMK AO2 SLP186 P0012 60025 T00440033 58003
2026-04-26 02:02:00,SPECI KFOK 260202Z 11006KT 5SM RA BR SCT011 SCT045 OVC065 05/03 A3009 RMK AO2 P0002 T00500033
2026-04-26 01:53:00,METAR KFOK 260153Z 12008KT 5SM -RA BR BKN011 BKN046 OVC060 05/03 A3009 RMK AO2 SLP189 P0007 T00500033
2026-04-26 01:09:00,SPECI KFOK 260109Z 11007KT 080V140 6SM -RA BR SCT013 BKN047 OVC070 06/04 A3009 RMK AO2 P0002 T00560044
2026-04-26 00:53:00,METAR KFOK 260053Z 12004KT 5SM -RA BR FEW010 BKN015 OVC060 06/04 A3009 RMK AO2 SLP189 P0006 T00560044
2026-04-26 00:45:00,SPECI KFOK 260045Z 13005KT 5SM -RA BR BKN013 BKN049 OVC065 06/04 A3009 RMK AO2 P0005 T00560044
2026-04-25 23:53:00,METAR KFOK 252353Z VRB04KT 9SM -RA SCT015 OVC065 06/04 A3006 RMK AO2 SLP180 P0002 60005 T00560039 10072 20056 55004
2026-04-25 22:53:00,METAR KFOK 252253Z 13005KT 10SM -RA OVC080 06/03 A3005 RMK AO2 SLP177 P0001 T00610028
2026-04-25 21:53:00,METAR KFOK 252153Z 13006KT 10SM -RA OVC095 07/02 A3006 RMK AO2 RAE04B53 SLP180 P0000 T00670017
2026-04-25 20:53:00,METAR KFOK 252053Z 15005KT 10SM -RA OVC090 07/01 A3007 RMK AO2 RAE02B41 SLP184 P0000 60002 T00670011 56008
2026-04-25 19:53:00,METAR KFOK 251953Z 13005KT 10SM -RA SCT070 OVC090 07/02 A3007 RMK AO2 SLP184 P0000 T00720022
2026-04-25 18:53:00,METAR KFOK 251853Z VRB05KT 10SM -RA OVC090 07/03 A3007 RMK AO2 SLP183 P0002 T00720028
2026-04-25 17:53:00,METAR KFOK 251753Z 14007KT 10SM -RA FEW026 OVC080 07/02 A3010 RMK AO2 RAB22 SLP192 P0000 60000 T00720022 10089 20072 50003
2026-04-25 16:53:00,METAR KFOK 251653Z 12005KT 10SM OVC090 08/01 A3010 RMK AO2 SLP192 T00780006
2026-04-25 15:53:00,METAR KFOK 251553Z 12010G18KT 10SM OVC100 08/00 A3009 RMK AO2 SLP191 T00830000
2026-04-25 14:53:00,METAR KFOK 251453Z 11009G17KT 080V150 10SM FEW120 08/01 A3009 RMK AO2 SLP189 T00830011 50006
2026-04-25 13:53:00,METAR KFOK 251353Z 12008G19KT 090V150 10SM CLR 08/01 A3009 RMK AO2 SLP191 T00830006
2026-04-25 12:53:00,METAR KFOK 251253Z 12010G19KT 10SM CLR 08/00 A3007 RMK AO2 SLP184 T00830000
2026-04-25 11:53:00,METAR KFOK 251153Z 11008KT 060V130 10SM CLR 08/01 A3007 RMK AO2 SLP182 T00780006 10078 21022 51013
2026-04-25 10:53:00,METAR KFOK 251053Z 09004KT 10SM CLR 05/02 A3006 RMK AO2 SLP178 T00500017
2026-04-25 09:53:00,METAR KFOK 250953Z AUTO 00000KT 10SM CLR M02/M03 A3005 RMK AO2 SLP177 T10171033
2026-04-25 08:53:00,METAR KFOK 250853Z AUTO 09004KT 10SM CLR M02/M03 A3003 RMK AO2 SLP169 T10171033 51007
2026-04-25 07:53:00,METAR KFOK 250753Z AUTO 00000KT 10SM CLR M01/M03 A3003 RMK AO2 SLP168 T10111028
2026-04-25 06:53:00,METAR KFOK 250653Z AUTO 04003KT 10SM CLR 00/M01 A3002 RMK AO2 SLP165 T00001011
2026-04-25 05:53:00,METAR KFOK 250553Z AUTO 11003KT 10SM CLR 06/02 A3001 RMK AO2 SLP162 T00610022 10078 20050 51011
2026-04-25 04:53:00,METAR KFOK 250453Z AUTO VRB04KT 10SM CLR 07/03 A3000 RMK AO2 SLP160 T00720028 401440050
2026-04-25 03:53:00,METAR KFOK 250353Z AUTO 12004KT 10SM CLR 06/02 A2999 RMK AO2 SLP156 T00560022
2026-04-25 02:53:00,METAR KFOK 250253Z 15005KT 10SM CLR 07/02 A2998 RMK AO2 SLP151 T00670017 51019
2026-04-25 01:53:00,METAR KFOK 250153Z 14004KT 10SM CLR 07/03 A2997 RMK AO2 SLP148 T00670028
2026-04-25 00:53:00,METAR KFOK 250053Z 14005KT 10SM CLR 07/02 A2993 RMK AO2 SLP136 T00720022
2026-04-24 23:53:00,METAR KFOK 242353Z 14005KT 10SM CLR 08/03 A2992 RMK AO2 SLP132 T00780033 10122 20072 53023
2026-04-24 22:53:00,METAR KFOK 242253Z VRB05G18KT 10SM CLR 08/03 A2989 RMK AO2 SLP121 T00830033
2026-04-24 21:53:00,METAR KFOK 242153Z 14010KT 10SM CLR 09/03 A2987 RMK AO2 SLP115 T00940028
2026-04-24 20:53:00,METAR KFOK 242053Z 16008KT 10SM CLR 10/01 A2985 RMK AO2 SLP110 T01000011 51006
2026-04-24 19:53:00,METAR KFOK 241953Z 17010KT 10SM CLR 11/02 A2985 RMK AO2 SLP108 T01110017
2026-04-24 18:53:00,METAR KFOK 241853Z 16008KT 130V200 10SM CLR 12/01 A2984 RMK AO2 SLP106 T01170011
2026-04-24 17:53:00,METAR KFOK 241753Z 18009G18KT 10SM CLR 12/02 A2984 RMK AO2 SLP103 60000 T01170022 10144 20078 58005
2026-04-24 16:53:00,METAR KFOK 241653Z 13005KT 10SM CLR 12/01 A2984 RMK AO2 SLP104 T01220011
2026-04-24 15:53:00,METAR KFOK 241553Z 06006KT 10SM CLR 13/01 A2985 RMK AO2 SLP107 T01330006
2026-04-24 14:53:00,METAR KFOK 241453Z 04009KT 10SM SCT100 13/04 A2985 RMK AO2 SLP107 60000 T01280039 58001
2026-04-24 13:53:00,METAR KFOK 241353Z 05010KT 10SM FEW022 BKN095 11/04 A2986 RMK AO2 SLP111 T01060044
2026-04-24 12:53:00,METAR KFOK 241253Z 08003KT 10SM BKN100 09/04 A2985 RMK AO2 RAB07E17 SLP109 P0000 T00890039
2026-04-24 11:53:00,METAR KFOK 241153Z 05007KT 10SM SCT070 OVC090 08/04 A2985 RMK AO2 RAB44E53 SLP110 P0000 60000 T00780044 10089 20078 53015
2026-04-24 10:53:00,METAR KFOK 241053Z 05005KT 10SM OVC090 08/04 A2983 RMK AO2 SLP100 T00780039
2026-04-24 09:53:00,METAR KFOK 240953Z AUTO VRB03KT 10SM OVC090 08/04 A2982 RMK AO2 RAB0855E05 SLP096 P0000 T00780039
2026-04-24 08:53:00,METAR KFOK 240853Z AUTO 10006KT 10SM BKN075 OVC100 08/03 A2981 RMK AO2 RAE02 SLP093 P0000 60000 T00780028 56007
2026-04-24 07:53:00,METAR KFOK 240753Z AUTO 08007KT 10SM -RA BKN080 OVC100 08/03 A2981 RMK AO2 RAB52 SLP094 P0000 T00830028
2026-04-24 06:53:00,METAR KFOK 240653Z AUTO 09008KT 10SM OVC110 08/02 A2983 RMK AO2 SLP099 T00830022
2026-04-24 05:53:00,METAR KFOK 240553Z AUTO 09007KT 060V120 10SM FEW075 OVC100 09/03 A2983 RMK AO2 SLP100 T00890028 10133 20089 56007
2026-04-24 04:53:00,METAR KFOK 240453Z AUTO 11007KT 10SM OVC100 11/04 A2984 RMK AO2 SLP103 T01110039 402060011
2026-04-24 03:53:00,METAR KFOK 240353Z AUTO 34003KT 10SM OVC100 11/08 A2984 RMK AO2 SLP103 T01060078
2026-04-24 02:53:00,METAR KFOK 240253Z AUTO 00000KT 10SM OVC100 12/08 A2985 RMK AO2 SLP107 T01170083 51006
2026-04-24 01:53:00,METAR KFOK 240153Z 00000KT 10SM SCT110 12/08 A2985 RMK AO2 SLP107 T01170083
2026-04-24 00:53:00,METAR KFOK 240053Z 24004KT 10SM BKN120 12/08 A2985 RMK AO2 SLP107 T01170083
2026-04-23 23:53:00,METAR KFOK 232353Z 24007KT 10SM FEW120 12/08 A2983 RMK AO2 SLP102 T01170083 10206 20117 55000
2026-04-23 22:53:00,METAR KFOK 232253Z 25008KT 10SM FEW120 14/07 A2983 RMK AO2 SLP102 T01390067
2026-04-23 21:53:00,METAR KFOK 232153Z 10SM CLR 17/07 A2983 RMK AO2 SLP100 T01670067
2026-04-23 20:53:00,METAR KFOK 232053Z 24010G17KT 10SM CLR 17/07 A2983 RMK AO2 SLP102 T01720072 56019
2026-04-23 19:53:00,METAR KFOK 231953Z 30008G20KT 10SM CLR 20/01 A2984 RMK AO2 SLP103 T02000011
2026-04-23 18:53:00,METAR KFOK 231853Z 31015G26KT 10SM CLR 19/01 A2986 RMK AO2 PK WND 30026/1800 SLP112 T01940006
2026-04-23 17:53:00,METAR KFOK 231753Z 32018G28KT 10SM CLR 19/01 A2989 RMK AO2 PK WND 33029/1712 SLP120 T01940006 10194 20072 56017 $
2026-04-23 16:53:00,METAR KFOK 231653Z 31018G26KT 10SM CLR 18/03 A2990 RMK AO2 PK WND 33026/1648 SLP125 T01830028 $
2026-04-23 15:53:00,METAR KFOK 231553Z 32016G23KT 10SM CLR 18/03 A2991 RMK AO2 SLP128 T01780033 $
2026-04-23 14:53:00,METAR KFOK 231453Z 34013KT 10SM CLR 17/06 A2994 RMK AO2 SLP137 T01670061 58011 $
2026-04-23 13:53:00,METAR KFOK 231353Z 33007KT 10SM CLR 14/07 A2995 RMK AO2 SLP141 T01440072 $
2026-04-23 12:53:00,METAR KFOK 231253Z 31004KT 10SM CLR 11/07 A2997 RMK AO2 SLP148 T01110067 $
2026-04-23 11:53:00,METAR KFOK 231153Z 34003KT 10SM CLR 07/06 A2997 RMK AO2 SLP149 70003 T00720061 10072 20011 53008 $
2026-04-23 11:19:00,SPECI KFOK 231119Z 00000KT 6SM BR SCT007 05/04 A2997 RMK AO2 T00500044 $
2026-04-23 11:10:00,SPECI KFOK 231110Z 00000KT 3SM BR BKN007 04/04 A2997 RMK AO2 T00390039 $
2026-04-23 11:08:00,SPECI KFOK 231108Z 00000KT 1 1/2SM BR BKN007 03/03 A2997 RMK AO2 T00330033 $
2026-04-23 10:53:00,METAR KFOK 231053Z 32003KT 3/4SM BR VV006 02/01 A2996 RMK AO2 SLP145 T00170011 $
2026-04-23 10:44:00,SPECI KFOK 231044Z 00000KT 2SM BR BKN007 01/01 A2995 RMK AO2 T00110011 $
2026-04-23 10:34:00,SPECI KFOK 231034Z AUTO 00000KT 1/2SM FG VV008 01/01 A2995 RMK AO2 T00110011 $
2026-04-23 10:27:00,SPECI KFOK 231027Z AUTO 00000KT 3/4SM BR VV010 02/01 A2995 RMK AO2 T00170011 $
2026-04-23 10:25:00,SPECI KFOK 231025Z AUTO 00000KT 1 1/2SM BR BKN009 01/01 A2994 RMK AO2 T00110006 $
2026-04-23 10:17:00,SPECI KFOK 231017Z AUTO 00000KT 4SM BR BKN009 01/01 A2994 RMK AO2 T00110006 $
2026-04-23 10:09:00,SPECI KFOK 231009Z AUTO 00000KT 2SM BR BKN009 01/01 A2995 RMK AO2 T00110006 $
2026-04-23 09:53:00,METAR KFOK 230953Z AUTO 32003KT 3/4SM BR VV008 02/01 A2995 RMK AO2 SLP142 T00170011 $
2026-04-23 09:51:00,SPECI KFOK 230951Z AUTO 00000KT 1SM BR VV008 02/02 A2995 RMK AO2 $
2026-04-23 09:44:00,SPECI KFOK 230944Z AUTO 00000KT 2 1/2SM BR FEW007 02/02 A2994 RMK AO2 VIS 1V5 T00220022 $
2026-04-23 09:20:00,SPECI KFOK 230920Z AUTO 31003KT 3SM BR CLR 02/02 A2994 RMK AO2 T00220022 $
2026-04-23 09:06:00,SPECI KFOK 230906Z AUTO 35004KT 1 3/4SM BR CLR 03/02 A2994 RMK AO2 T00280022 $
2026-04-23 08:53:00,METAR KFOK 230853Z AUTO 35003KT 5SM BR CLR 02/02 A2995 RMK AO2 SLP141 T00220022 56007 $
2026-04-23 08:43:00,SPECI KFOK 230843Z AUTO 36004KT 4SM BR FEW006 02/02 A2995 RMK AO2 T00220022 $
2026-04-23 08:35:00,SPECI KFOK 230835Z AUTO 35004KT 2SM BR SCT006 03/03 A2995 RMK AO2 VIS 1V4 T00330028 $
2026-04-23 08:14:00,SPECI KFOK 230814Z AUTO 00000KT 3/4SM BR VV007 03/03 A2995 RMK AO2 T00330033 $
2026-04-23 08:08:00,SPECI KFOK 230808Z AUTO 00000KT 1 1/4SM BR SCT008 04/04 A2995 RMK AO2 T00440044 $
2026-04-23 08:00:00,SPECI KFOK 230800Z AUTO 00000KT 1 3/4SM BR FEW070 04/04 A2995 RMK AO2 T00440039 $
2026-04-23 07:53:00,METAR KFOK 230753Z AUTO 34003KT 3SM BR FEW070 05/04 A2995 RMK AO2 SLP141 T00500044 $
2026-04-23 06:53:00,METAR KFOK 230653Z AUTO 00000KT 8SM OVC055 06/06 A2995 RMK AO2 SLP142 T00610056 $
2026-04-23 05:53:00,METAR KFOK 230553Z AUTO 30005KT 8SM BKN080 OVC110 06/06 A2997 RMK AO2 RAE00 SLP148 P0000 60000 T00610056 10083 20061 55013 $
2026-04-23 04:53:00,METAR KFOK 230453Z AUTO 00000KT 9SM -RA FEW070 BKN090 OVC110 07/06 A2996 RMK AO2 RAB48 SLP147 P0000 T00670061 400890044 $
2026-04-23 03:53:00,METAR KFOK 230353Z AUTO 34004KT 10SM BKN095 07/06 A3000 RMK AO2 SLP160 T00670056 $
2026-04-23 03:11:00,SPECI KFOK 230311Z AUTO 00000KT 10SM SCT021 OVC100 08/06 A2999 RMK AO2 T00780061 $
2026-04-23 02:53:00,METAR KFOK 230253Z 00000KT 10SM OVC021 08/06 A3001 RMK AO2 SLP161 T00780061 58002 $
2026-04-23 01:53:00,METAR KFOK 230153Z 07003KT 10SM OVC021 08/06 A3001 RMK AO2 SLP162 T00830061 $
2026-04-23 00:53:00,METAR KFOK 230053Z 10003KT 10SM OVC023 08/06 A3002 RMK AO2 SLP166 T00830061 $
2026-04-22 23:53:00,METAR KFOK 222353Z 14004KT 10SM OVC023 08/06 A3001 RMK AO2 SLP164 T00830061 10089 20083 56010 $
2026-04-22 22:53:00,METAR KFOK 222253Z VRB03KT 10SM OVC025 08/06 A3002 RMK AO2 SLP164 T00830061 $
2026-04-22 22:09:00,SPECI KFOK 222209Z VRB06KT 10SM OVC029 08/06 A3003 RMK AO2 T00830056 $
2026-04-22 21:53:00,METAR KFOK 222153Z 13008G15KT 10SM OVC030 08/06 A3003 RMK AO2 SLP168 T00830056 $
2026-04-22 20:53:00,METAR KFOK 222053Z 14006KT 10SM OVC031 09/05 A3004 RMK AO2 SLP174 T00890050 56028 $
2026-04-22 19:53:00,METAR KFOK 221953Z VRB06KT 10SM OVC034 08/05 A3007 RMK AO2 SLP181 T00830050 $
2026-04-22 18:53:00,METAR KFOK 221853Z 16011KT 10SM OVC035 08/05 A3009 RMK AO2 SLP191 T00830050 $
2026-04-22 17:53:00,METAR KFOK 221753Z 13008KT 10SM OVC039 08/04 A3013 RMK AO2 SLP202 60003 T00830044 10083 20050 58016 $
2026-04-22 16:53:00,METAR KFOK 221653Z 14009G17KT 10SM OVC043 08/04 A3014 RMK AO2 SLP207 T00780039 $
2026-04-22 15:53:00,METAR KFOK 221553Z 16007G18KT 10SM OVC045 07/04 A3016 RMK AO2 RAE11 SLP215 P0000 T00720039 $
2026-04-22 14:53:00,METAR KFOK 221453Z 17013G21KT 10SM -RA FEW017 SCT045 OVC080 07/04 A3018 RMK AO2 RAB51 SLP218 P0000 60003 T00670044 56014 $
2026-04-22 13:53:00,METAR KFOK 221353Z 16008KT 10SM FEW065 OVC085 06/03 A3019 RMK AO2 RAE43 SLP223 P0002 T00560033 $
2026-04-22 12:53:00,METAR KFOK 221253Z 15011G19KT 9SM -RA OVC070 05/03 A3020 RMK AO2 SLP227 P0001 T00500028 $
2026-04-22 11:53:00,METAR KFOK 221153Z 17008G18KT 10SM -RA SCT039 OVC060 05/01 A3022 RMK AO2 RAB03 SLP232 P0001 60012 70012 T00500006 10067 20044 55006 $
2026-04-22 10:53:00,METAR KFOK 221053Z 15006KT 10SM SCT037 BKN055 OVC070 05/03 A3021 RMK AO2 RAB21E35 SLP232 P0000 T00500028 $
2026-04-22 10:15:00,SPECI KFOK 221015Z AUTO 17006KT 10SM SCT025 OVC065 04/03 A3023 RMK AO2 T00440028 $
2026-04-22 09:53:00,METAR KFOK 220953Z AUTO 20004KT 10SM BKN023 OVC055 04/03 A3023 RMK AO2 RAE44 SLP237 P0005 T00440033 $
2026-04-22 08:53:00,METAR KFOK 220853Z AUTO 23005KT 6SM -RA BR BKN040 OVC049 05/03 A3023 RMK AO2 SLP238 P0005 60006 T00500033 56007 $
2026-04-22 07:53:00,METAR KFOK 220753Z AUTO 22005KT 10SM -RA OVC042 05/03 A3023 RMK AO2 RAB16 SLP238 P0001 T00500028 $
2026-04-22 06:53:00,METAR KFOK 220653Z AUTO 21007KT 10SM OVC085 06/M01 A3023 RMK AO2 SLP238 T00611011 $
2026-04-22 05:53:00,METAR KFOK 220553Z AUTO 22005KT 10SM OVC100 06/M02 A3025 RMK AO2 SLP245 T00611022 10061 20044 58014 $
2026-04-22 04:53:00,METAR KFOK 220453Z AUTO 21004KT 10SM OVC100 06/M02 A3030 RMK AO2 SLP259 T00611017 400831056 $
2026-04-22 03:53:00,METAR KFOK 220353Z AUTO 19007KT 10SM SCT120 06/M02 A3029 RMK AO2 SLP258 T00561017 $
2026-04-22 02:53:00,METAR KFOK 220253Z 19006KT 10SM CLR 05/M01 A3030 RMK AO2 SLP260 T00501011 50002 $
2026-04-22 01:53:00,METAR KFOK 220153Z 19007KT 10SM BKN110 05/M03 A3030 RMK AO2 SLP262 T00501028 $
2026-04-22 00:53:00,METAR KFOK 220053Z 18006KT 10SM CLR 04/M02 A3029 RMK AO2 SLP258 T00441017 $
2026-04-21 23:53:00,METAR KFOK 212353Z 19005KT 10SM FEW110 04/M02 A3029 RMK AO2 SLP258 T00441022 10083 20044 55005 $
2026-04-21 22:53:00,METAR KFOK 212253Z 18005KT 10SM CLR 05/M03 A3029 RMK AO2 SLP256 T00501028 $
2026-04-21 21:53:00,METAR KFOK 212153Z 19007KT 10SM BKN120 06/M02 A3030 RMK AO2 SLP260 T00561022 $
2026-04-21 20:53:00,METAR KFOK 212053Z 22006KT 10SM FEW040 06/M02 A3031 RMK AO2 SLP263 T00611022 56011 $
2026-04-21 19:53:00,METAR KFOK 211953Z 20008KT 10SM FEW035 OVC043 07/M02 A3031 RMK AO2 SLP266 T00671022 $
2026-04-21 18:53:00,METAR KFOK 211853Z 17009KT 10SM OVC041 07/M03 A3033 RMK AO2 SLP270 T00721028 $
2026-04-21 17:53:00,METAR KFOK 211753Z 15008G14KT 120V180 10SM BKN040 07/M03 A3034 RMK AO2 SLP274 T00721028 10078 20044 58016 $
2026-04-21 16:53:00,METAR KFOK 211653Z VRB05KT 10SM BKN041 OVC049 06/M04 A3037 RMK AO2 SLP284 T00611039
2026-04-21 15:53:00,METAR KFOK 211553Z 09007KT 10SM BKN045 OVC055 06/M04 A3038 RMK AO2 SLP287 T00611039
2026-04-21 14:53:00,METAR KFOK 211453Z VRB05KT 10SM SCT039 07/M04 A3039 RMK AO2 SLP290 T00671039 58003
2026-04-21 13:53:00,METAR KFOK 211353Z 00000KT 10SM BKN043 OVC060 06/M04 A3040 RMK AO2 SLP293 T00561044
2026-04-21 12:53:00,METAR KFOK 211253Z 09004KT 10SM CLR 06/M04 A3039 RMK AO2 SLP291 T00611039
2026-04-21 11:53:00,METAR KFOK 211153Z 02007KT 10SM CLR 04/M04 A3039 RMK AO2 SLP293 70016 T00441039 10044 21056 53018
2026-04-21 10:53:00,METAR KFOK 211053Z 00000KT 10SM CLR M02/M06 A3038 RMK AO2 SLP288 T10221061
2026-04-21 09:53:00,METAR KFOK 210953Z AUTO 32003KT 10SM CLR M04/M08 A3035 RMK AO2 SLP279 T10391078
2026-04-21 08:53:00,METAR KFOK 210853Z AUTO 33004KT 10SM CLR M02/M08 A3034 RMK AO2 SLP275 T10171078 53002
2026-04-21 07:53:00,METAR KFOK 210753Z AUTO 34005KT 10SM CLR 01/M08 A3034 RMK AO2 SLP273 T00061078
2026-04-21 06:53:00,METAR KFOK 210653Z AUTO 34006KT 10SM CLR 02/M08 A3033 RMK AO2 SLP271 T00221083
2026-04-21 05:53:00,METAR KFOK 210553Z AUTO 35007KT 10SM CLR 03/M09 A3033 RMK AO2 SLP272 T00281089 10061 20022 51011
2026-04-21 04:53:00,METAR KFOK 210453Z AUTO 35008KT 10SM CLR 03/M08 A3033 RMK AO2 SLP271 T00281083 401061067
2026-04-21 03:53:00,METAR KFOK 210353Z AUTO 35007KT 10SM CLR 04/M08 A3032 RMK AO2 SLP266 T00391078
2026-04-21 02:53:00,METAR KFOK 210253Z 35005KT 10SM CLR 04/M06 A3030 RMK AO2 SLP262 T00391061 51025
2026-04-21 01:53:00,METAR KFOK 210153Z 34007KT 10SM CLR 03/M06 A3029 RMK AO2 SLP256 T00281061
2026-04-21 00:53:00,METAR KFOK 210053Z 33005KT 10SM CLR 04/M06 A3026 RMK AO2 SLP248 T00441056
2026-04-20 23:53:00,METAR KFOK 202353Z 33008KT 10SM BKN070 06/M05 A3023 RMK AO2 SLP236 T00611050 10106 20061 53026
2026-04-20 22:53:00,METAR KFOK 202253Z 32010G15KT 10SM BKN075 08/M04 A3020 RMK AO2 SLP225 T00831039
2026-04-20 21:53:00,METAR KFOK 202153Z 33010G17KT 10SM BKN085 09/M01 A3018 RMK AO2 SLP218 T00891011
2026-04-20 20:53:00,METAR KFOK 202053Z 32010G15KT 10SM BKN085 09/M01 A3015 RMK AO2 SLP210 T00941011 53003
2026-04-20 19:53:00,METAR KFOK 201953Z 32010G16KT 10SM FEW039 BKN090 09/M01 A3014 RMK AO2 SLP207 T00941006
2026-04-20 18:53:00,METAR KFOK 201853Z 34010KT 10SM BKN070 OVC085 09/02 A3014 RMK AO2 SLP206 T00890017
2026-04-20 17:53:00,METAR KFOK 201753Z 03005KT 10SM FEW026 BKN037 BKN048 08/02 A3014 RMK AO2 SLP208 60016 T00830017 10100 20022 58005
2026-04-20 16:53:00,METAR KFOK 201653Z 3SM HZ FEW023 BKN037 BKN090 07/03 A3015 RMK AO2 RAE37 SLP211 P0016 T00720028 $
2026-04-20 16:45:00,SPECI KFOK 201645Z 00000KT 3SM HZ SCT021 SCT037 BKN060 06/03 A3016 RMK AO2 RAE37 P0016 T00610028 $
2026-04-20 16:29:00,SPECI KFOK 201629Z 00000KT 3SM -RA BR BKN020 BKN027 OVC035 05/03 A3016 RMK AO2 P0016 T00500028 $
2026-04-20 16:14:00,SPECI KFOK 201614Z 32009KT 1SM +RA BR OVC022 04/03 A3017 RMK AO2 P0012 T00440028 $
2026-04-20 16:03:00,SPECI KFOK 201603Z 29010KT 2 1/2SM +RA BKN024 BKN029 OVC037 06/03 A3017 RMK AO2 P0003 T00610033 $
2026-04-20 15:53:00,METAR KFOK 201553Z 19004KT 7SM -RA FEW024 BKN039 OVC060 07/03 A3016 RMK AO2 RAB26 SLP214 P0000 T00670028 $
2026-04-20 14:53:00,METAR KFOK 201453Z VRB06KT 10SM FEW048 BKN060 OVC075 09/00 A3016 RMK AO2 SLP213 T00890000 50000 $
2026-04-20 13:53:00,METAR KFOK 201353Z 22007KT 190V250 10SM OVC080 09/M01 A3016 RMK AO2 SLP213 T00941011 $
2026-04-20 12:53:00,METAR KFOK 201253Z 00000KT 10SM OVC080 07/01 A3016 RMK AO2 SLP215 T00720006 $
2026-04-20 11:53:00,METAR KFOK 201153Z 00000KT 10SM BKN100 02/M01 A3016 RMK AO2 SLP213 70003 T00221006 10022 21067 53014 $
2026-04-20 10:53:00,METAR KFOK 201053Z 00000KT 10SM CLR M04/M06 A3015 RMK AO2 SLP209 T10391061 $
2026-04-20 09:53:00,METAR KFOK 200953Z AUTO 00000KT 10SM CLR M06/M08 A3012 RMK AO2 SLP200 T10611083 $
2026-04-20 08:53:00,METAR KFOK 200853Z AUTO 00000KT 10SM CLR M06/M08 A3012 RMK AO2 SLP199 T10611083 53002 $
2026-04-20 07:53:00,METAR KFOK 200753Z AUTO 00000KT 10SM CLR M05/M07 A3011 RMK AO2 SLP196 T10501072 $
2026-04-20 06:53:00,METAR KFOK 200653Z AUTO 00000KT 10SM CLR M05/M07 A3011 RMK AO2 SLP195 T10501067 $
2026-04-20 05:53:00,METAR KFOK 200553Z AUTO 00000KT 10SM CLR M04/M06 A3011 RMK AO2 SLP197 T10441056 10044 21044 51009 $
2026-04-20 04:53:00,METAR KFOK 200453Z AUTO 00000KT 10SM CLR M03/M04 A3011 RMK AO2 SLP197 T10281044 401001033 $
2026-04-20 03:53:00,METAR KFOK 200353Z AUTO 00000KT 10SM CLR M02/M03 A3010 RMK AO2 SLP193 T10221033 $
2026-04-20 02:53:00,METAR KFOK 200253Z 00000KT 10SM CLR M01/M02 A3009 RMK AO2 SLP188 T10111017 51029 $
2026-04-20 01:53:00,METAR KFOK 200153Z 00000KT 10SM CLR M01/M02 A3007 RMK AO2 SLP184 T10061017 $
2026-04-20 00:53:00,METAR KFOK 200053Z 29003KT 10SM CLR 03/01 A3004 RMK AO2 SLP172 T00280006 $
2026-04-19 23:53:00,METAR KFOK 192353Z 31006KT 10SM CLR 04/01 A3000 RMK AO2 SLP159 60003 T00440011 10100 20044 51035 $
2026-04-19 22:53:00,METAR KFOK 192253Z 32012G18KT 10SM FEW022 06/02 A2997 RMK AO2 SLP150 T00560017 $
2026-04-19 21:53:00,METAR KFOK 192153Z 32015G24KT 10SM FEW016 SCT021 SCT110 06/03 A2995 RMK AO2 RAE29 SLP142 P0002 T00560028 $
2026-04-19 21:41:00,SPECI KFOK 192141Z 32011G18KT 10SM BKN019 BKN032 BKN110 05/03 A2994 RMK AO2 RAE29 P0002 T00500028 $
2026-04-19 20:53:00,METAR KFOK 192053Z 33016G24KT 9SM -RA SCT017 BKN050 OVC075 06/03 A2990 RMK AO2 PK WND 31029/2012 RAB38 SLP124 P0001 60001 T00560028 53024 $
2026-04-19 19:53:00,METAR KFOK 191953Z 33016G30KT 10SM OVC070 07/02 A2987 RMK AO2 PK WND 32031/1910 SLP117 T00720017 $
2026-04-19 18:53:00,METAR KFOK 191853Z 32018G32KT 10SM OVC060 09/03 A2984 RMK AO2 PK WND 30032/1846 SLP106 T00890028 $
2026-04-19 17:53:00,METAR KFOK 191753Z 33019G27KT 10SM OVC044 10/04 A2982 RMK AO2 PK WND 31031/1717 SLP099 T01000039 10100 20089 51019 $
2026-04-19 16:53:00,METAR KFOK 191653Z 33015G23KT 10SM OVC038 09/07 A2981 RMK AO2 SLP094 T00940067 $
2026-04-19 16:41:00,SPECI KFOK 191641Z 32011G21KT 10SM FEW010 FEW024 OVC038 10/08 A2979 RMK AO2 LTG DSNT E T01000083 $
2026-04-19 16:32:00,SPECI KFOK 191632Z 34014G21KT 10SM FEW010 BKN024 OVC038 09/08 A2980 RMK AO2 LTG DSNT E T00940083 $
2026-04-19 16:24:00,SPECI KFOK 191624Z 34015G21KT 7SM BKN010 BKN016 OVC036 09/09 A2980 RMK AO2 LTG DSNT NE AND E CIG 007V014 T00940089 $
2026-04-19 15:53:00,METAR KFOK 191553Z 32014G22KT 9SM BKN006 OVC010 10/09 A2979 RMK AO2 LTG DSNT N AND S CIG 004V007 SLP089 T01000094 $
2026-04-19 15:29:00,SPECI KFOK 191529Z 32011KT 6SM BR OVC004 09/09 A2980 RMK AO2 T00940089 $
2026-04-19 15:04:00,SPECI KFOK 191504Z 33009KT 2 1/2SM BR OVC003 09/08 A2979 RMK AO2 PRESRR T00890083 $
2026-04-19 14:53:00,METAR KFOK 191453Z 35010KT 1 1/2SM BR OVC003 09/08 A2977 RMK AO2 SLP081 T00890083 53004 $
2026-04-19 13:53:00,METAR KFOK 191353Z 33009KT 1 1/2SM BR OVC002 10/10 A2976 RMK AO2 SLP076 T01000100 $
2026-04-19 12:53:00,METAR KFOK 191253Z 00000KT 1/2SM FG VV002 09/09 A2976 RMK AO2 SLP076 T00940094 $
2026-04-19 12:00:00,SPECI KFOK 191200Z 12005KT 1/4SM FG VV002 09/08 A2976 RMK AO2 T00890083 $
2026-04-19 11:53:00,METAR KFOK 191153Z 11005KT 1/2SM FG VV002 09/08 A2977 RMK AO2 SLP080 T00890083 10089 20078 58027 $
2026-04-19 11:05:00,SPECI KFOK 191105Z 11007KT 3/4SM BR OVC002 08/08 A2978 RMK AO2 T00830078 $
2026-04-19 10:53:00,METAR KFOK 191053Z 12005KT 1 1/4SM BR OVC002 08/08 A2979 RMK AO2 SLP089 T00830078 $
2026-04-19 09:53:00,METAR KFOK 190953Z AUTO 15003KT 1 1/4SM BR OVC002 08/08 A2983 RMK AO2 SLP101 T00780078 $
2026-04-19 09:06:00,SPECI KFOK 190906Z AUTO 12004KT 1SM BR OVC002 08/08 A2984 RMK AO2 T00780078 $
2026-04-19 08:53:00,METAR KFOK 190853Z AUTO 11004KT 3/4SM BR VV002 08/08 A2984 RMK AO2 SLP106 T00780078 56030 $
2026-04-19 08:23:00,SPECI KFOK 190823Z AUTO 12005KT 3/4SM BR VV002 08/08 A2986 RMK AO2 T00780078 $
2026-04-19 08:16:00,SPECI KFOK 190816Z AUTO 13005KT 2SM BR OVC002 08/08 A2987 RMK AO2 T00780078 $
2026-04-19 08:09:00,SPECI KFOK 190809Z AUTO 14004KT 1 3/4SM BR OVC002 08/08 A2987 RMK AO2 T00780078 $
2026-04-19 07:53:00,METAR KFOK 190753Z AUTO 13003KT 1/2SM FG VV002 08/08 A2987 RMK AO2 SLP116 T00780078 $
2026-04-19 07:43:00,SPECI KFOK 190743Z AUTO 15004KT 1/2SM FG VV002 08/08 A2988 RMK AO2 T00780078 $
2026-04-19 07:05:00,SPECI KFOK 190705Z AUTO VRB03KT 1SM BR VV002 08/08 A2989 RMK AO2 T00780078 $
2026-04-19 06:53:00,METAR KFOK 190653Z AUTO 14004KT 3/4SM BR VV002 08/08 A2990 RMK AO2 SLP124 T00780078 $
2026-04-19 06:36:00,SPECI KFOK 190636Z AUTO 15007KT 3/4SM BR VV002 08/08 A2990 RMK AO2 T00780078 $
2026-04-19 05:53:00,METAR KFOK 190553Z AUTO 14005KT 1 1/2SM BR OVC002 08/07 A2993 RMK AO2 SLP137 T00780072 10089 20078 58015 $
2026-04-19 05:14:00,SPECI KFOK 190514Z AUTO 14005KT 1SM BR VV002 08/08 A2996 RMK AO2 T00780078 $
2026-04-19 04:53:00,METAR KFOK 190453Z AUTO 14004KT 3/4SM BR VV002 08/08 A2997 RMK AO2 SLP148 T00780078 401390033 $
2026-04-19 04:15:00,SPECI KFOK 190415Z AUTO 13007KT 3/4SM BR OVC002 08/07 A2996 RMK AO2 T00780072 $
2026-04-19 03:53:00,METAR KFOK 190353Z AUTO 14006KT 1SM BR OVC002 08/08 A2996 RMK AO2 SLP146 T00780078 $
2026-04-19 03:26:00,SPECI KFOK 190326Z AUTO 13007KT 1 1/4SM BR OVC002 08/08 A2997 RMK AO2 T00780078 $
2026-04-19 03:08:00,SPECI KFOK 190308Z AUTO 13008G15KT 2SM BR OVC002 08/08 A2997 RMK AO2 T00830078 $
2026-04-19 02:53:00,METAR KFOK 190253Z 14008KT 4SM BR OVC002 08/08 A2998 RMK AO2 SLP152 T00830078 58015 $
2026-04-19 02:44:00,SPECI KFOK 190244Z 13004KT 3SM BR OVC002 08/08 A2998 RMK AO2 T00830078 $
2026-04-19 02:06:00,SPECI KFOK 190206Z VRB05KT 1 1/2SM BR OVC002 08/08 A3001 RMK AO2 T00830078 $
2026-04-19 01:53:00,METAR KFOK 190153Z 12005KT 2SM BR OVC003 08/08 A3001 RMK AO2 SLP162 T00830078 $
2026-04-19 00:53:00,METAR KFOK 190053Z VRB05KT 2SM BR OVC003 08/08 A3003 RMK AO2 SLP168 T00830078 $
2026-04-19 00:50:00,SPECI KFOK 190050Z 13004KT 2 1/2SM BR OVC003 08/08 A3002 RMK AO2 $
2026-04-19 00:00:00,SPECI KFOK 190000Z 12003KT 6SM BR OVC004 09/08 A3001 RMK AO2 T00890078 $
2026-04-18 23:53:00,METAR KFOK 182353Z 11005KT 6SM BR OVC005 09/07 A3000 RMK AO2 SLP161 T00890072 10128 20089 58012 $
2026-04-18 23:17:00,SPECI KFOK 182317Z 13008KT 5SM BR BKN007 OVC013 09/07 A3001 RMK AO2 CIG 005V010 T00890072 $
2026-04-18 22:53:00,METAR KFOK 182253Z 12008G16KT 10SM FEW008 OVC013 09/07 A3002 RMK AO2 SLP164 T00940072 $
2026-04-18 22:30:00,SPECI KFOK 182230Z 12006G15KT 10SM FEW008 OVC014 09/08 A3003 RMK AO2 T00940078 $
2026-04-18 21:53:00,METAR KFOK 182153Z 10008G16KT 10SM FEW008 OVC017 10/08 A3003 RMK AO2 SLP170 T01000078 $
2026-04-18 21:32:00,SPECI KFOK 182132Z 13006KT 10SM FEW008 OVC018 11/08 A3003 RMK AO2 T01060078 $
2026-04-18 20:53:00,METAR KFOK 182053Z 13006KT 10SM OVC018 12/08 A3004 RMK AO2 SLP173 T01170078 56019 $
2026-04-18 19:53:00,METAR KFOK 181953Z 11008KT 10SM OVC018 12/08 A3005 RMK AO2 SLP177 T01220083 $
2026-04-18 18:53:00,METAR KFOK 181853Z 11008KT 10SM OVC015 12/09 A3008 RMK AO2 SLP186 T01220089 $
2026-04-18 18:46:00,SPECI KFOK 181846Z 13006KT 10SM OVC015 12/09 A3008 RMK AO2 T01220089 $
2026-04-18 18:28:00,SPECI KFOK 181828Z 10008KT 10SM OVC014 12/09 A3009 RMK AO2 T01220094 $
2026-04-18 18:20:00,SPECI KFOK 181820Z 10008KT 10SM OVC016 12/09 A3009 RMK AO2 T01220094 $
2026-04-18 18:10:00,SPECI KFOK 181810Z 12008KT 10SM OVC013 12/09 A3009 RMK AO2 T01220094 $
2026-04-18 17:53:00,METAR KFOK 181753Z 12008KT 10SM OVC015 13/09 A3010 RMK AO2 SLP191 T01280094 10139 20106 55005 $
2026-04-18 16:53:00,METAR KFOK 181653Z 12008KT 10SM OVC012 12/09 A3009 RMK AO2 SLP191 T01170094 $
2026-04-18 14:53:00,METAR KFOK 181453Z 06009KT 10SM OVC010 13/10 A3011 RMK AO2 SLP196 T01280100 51009 $
2026-04-18 14:21:00,SPECI KFOK 181421Z 03010KT 10SM OVC010 13/10 A3011 RMK AO2 T01280100 $
2026-04-18 13:53:00,METAR KFOK 181353Z 07006KT 10SM OVC009 12/10 A3011 RMK AO2 SLP195 T01220100 $
2026-04-18 12:53:00,METAR KFOK 181253Z 05008KT 10SM OVC007 11/09 A3010 RMK AO2 SLP192 T01110094 $
2026-04-18 11:53:00,METAR KFOK 181153Z 07005KT 10SM OVC009 11/09 A3008 RMK AO2 SLP187 T01110094 10111 20033 53010 $
2026-04-18 11:46:00,SPECI KFOK 181146Z 07005KT 10SM OVC009 11/09 A3009 RMK AO2 T01110094 $
2026-04-18 11:13:00,SPECI KFOK 181113Z 07009G14KT 10SM BKN012 11/09 A3007 RMK AO2 T01060094 $
2026-04-18 10:53:00,METAR KFOK 181053Z 07005KT 10SM CLR 11/09 A3007 RMK AO2 SLP181 T01060094 $
2026-04-18 09:53:00,METAR KFOK 180953Z AUTO 01006KT 10SM CLR 09/08 A3007 RMK AO2 SLP182 T00890083 $
2026-04-18 08:53:00,METAR KFOK 180853Z AUTO 36004KT 9SM CLR 08/07 A3005 RMK AO2 SLP177 T00780072 51004 $
2026-04-18 08:20:00,SPECI KFOK 180820Z AUTO 36004KT 3SM BR CLR 06/06 A3005 RMK AO2 T00610056 $
2026-04-18 08:11:00,SPECI KFOK 180811Z AUTO 36004KT 1 3/4SM BR CLR 06/06 A3005 RMK AO2 T00560056 $
2026-04-18 07:53:00,METAR KFOK 180753Z AUTO 35005KT 5SM BR SCT001 04/04 A3005 RMK AO2 SLP176 T00440039 $
2026-04-18 07:34:00,SPECI KFOK 180734Z AUTO 00000KT 10SM BKN001 04/03 A3005 RMK AO2 T00390028 $
2026-04-18 07:07:00,SPECI KFOK 180707Z AUTO 00000KT 7SM SCT001 04/03 A3005 RMK AO2 T00390028 $
2026-04-18 07:04:00,SPECI KFOK 180704Z AUTO 00000KT 2SM BR BKN001 04/03 A3005 RMK AO2 T00390033 $
2026-04-18 06:53:00,METAR KFOK 180653Z AUTO 00000KT 3/4SM BR VV001 05/04 A3005 RMK AO2 SLP175 T00500039 $
2026-04-18 06:49:00,SPECI KFOK 180649Z AUTO 00000KT 1SM BR VV001 05/04 A3005 RMK AO2 VIS 3/4V5 $
2026-04-18 06:44:00,SPECI KFOK 180644Z AUTO 00000KT 2 1/2SM BR SCT002 04/03 A3006 RMK AO2 T00440033 $
2026-04-18 05:53:00,METAR KFOK 180553Z AUTO 00000KT 10SM CLR 06/04 A3004 RMK AO2 SLP173 T00560044 10128 20050 53003 $
2026-04-18 05:15:00,SPECI KFOK 180515Z AUTO 00000KT 10SM FEW001 06/06 A3004 RMK AO2 T00610056 $
2026-04-18 05:07:00,SPECI KFOK 180507Z AUTO 00000KT 2SM BR SCT001 06/05 A3003 RMK AO2 T00610050 $
2026-04-18 04:53:00,METAR KFOK 180453Z AUTO 00000KT 10SM FEW001 07/06 A3003 RMK AO2 SLP170 T00670061 402560067 $
2026-04-18 04:39:00,SPECI KFOK 180439Z AUTO 00000KT 9SM SCT001 07/06 A3003 RMK AO2 T00670061 $
2026-04-18 03:53:00,METAR KFOK 180353Z AUTO 00000KT 5SM BR CLR 08/08 A3003 RMK AO2 SLP168 T00830078 $
2026-04-18 02:53:00,METAR KFOK 180253Z 00000KT 10SM CLR 10/09 A3004 RMK AO2 SLP170 T01000094 50014 $
2026-04-18 01:53:00,METAR KFOK 180153Z 00000KT 10SM CLR 11/10 A3004 RMK AO2 SLP171 T01110100 $
2026-04-18 01:02:00,SPECI KFOK 180102Z 10004KT 10SM SCT007 BKN065 OVC085 11/10 A3003 RMK AO2 T01110100 $
2026-04-18 00:53:00,METAR KFOK 180053Z 10005KT 10SM BKN006 BKN070 OVC090 11/10 A3003 RMK AO2 SLP167 T01110100 $
2026-04-17 23:53:00,METAR KFOK 172353Z VRB03KT 10SM OVC006 13/12 A2999 RMK AO2 RAB37E51 SLP156 P0000 60000 T01280117 10239 20128 51040 $
2026-04-17 23:29:00,SPECI KFOK 172329Z 10007KT 10SM BKN006 OVC050 13/11 A2998 RMK AO2 T01280111 $
2026-04-17 23:06:00,SPECI KFOK 172306Z 10006KT 10SM SCT006 BKN045 OVC085 13/11 A2996 RMK AO2 T01330111 $
2026-04-17 22:53:00,METAR KFOK 172253Z 11008G15KT 10SM BKN044 BKN070 BKN085 13/11 A2996 RMK AO2 SLP144 T01330111 $
2026-04-17 21:53:00,METAR KFOK 172153Z 07009G19KT 10SM BKN040 OVC050 19/14 A2992 RMK AO2 PK WND 04026/2138 LTG DSNT S PRESRR SLP130 T01940144 $
2026-04-17 20:53:00,METAR KFOK 172053Z 20003KT 10SM FEW055 SCT070 22/14 A2988 RMK AO2 SLP116 T02170144 53009 $
2026-04-17 19:53:00,METAR KFOK 171953Z 22007KT 10SM SCT060 21/14 A2985 RMK AO2 SLP106 T02110144 $
2026-04-17 18:53:00,METAR KFOK 171853Z 21008KT 10SM BKN055 24/15 A2985 RMK AO2 SLP107 T02390150 $
2026-04-17 17:53:00,METAR KFOK 171753Z 21009KT 10SM SCT046 23/14 A2985 RMK AO2 SLP106 T02330144 10256 20161 51001 $
2026-04-17 16:53:00,METAR KFOK 171653Z 35006KT 10SM BKN060 24/13 A2985 RMK AO2 SLP106 T02440133 $
2026-04-17 15:53:00,METAR KFOK 171553Z 33010G20KT 300V010 10SM FEW042 24/14 A2985 RMK AO2 SLP106 T02390139 $
2026-04-17 14:53:00,METAR KFOK 171453Z 34008KT 10SM FEW036 24/14 A2984 RMK AO2 SLP105 T02390139 50006 $
2026-04-17 13:53:00,METAR KFOK 171353Z 00000KT 10SM FEW040 BKN060 20/16 A2986 RMK AO2 SLP110 T02000156 $
2026-04-17 12:53:00,METAR KFOK 171253Z 00000KT 10SM BKN047 OVC100 18/14 A2984 RMK AO2 SLP105 T01830144 $
2026-04-17 11:53:00,METAR KFOK 171153Z 34003KT 10SM BKN110 16/14 A2983 RMK AO2 RAE1056 SLP099 P0000 60000 T01610139 10161 20106 53027 $
2026-04-17 10:53:00,METAR KFOK 171053Z 00000KT 9SM -RA FEW065 SCT095 BKN120 13/11 A2980 RMK AO2 RAB47 SLP091 P0000 T01280111 $
2026-04-17 09:53:00,METAR KFOK 170953Z AUTO 00000KT 8SM FEW110 11/09 A2977 RMK AO2 SLP079 T01060094 $
2026-04-17 08:53:00,METAR KFOK 170853Z AUTO 00000KT 8SM CLR 11/10 A2975 RMK AO2 SLP073 T01110100 $
2026-04-17 07:53:00,METAR KFOK 170753Z AUTO 00000KT 7SM CLR 12/11 A2976 RMK AO2 SLP078 T01170106 $
2026-04-17 06:53:00,METAR KFOK 170653Z AUTO 00000KT 8SM 13/12 A2976 RMK AO2 SLP076 T01280117 $
2026-04-17 05:53:00,METAR KFOK 170553Z AUTO 24010KT 9SM CLR 14/12 A2977 RMK AO2 SLP079 T01390117 10144 20133 55003 $
2026-04-17 04:53:00,METAR KFOK 170453Z AUTO 23010G17KT 10SM CLR 14/12 A2976 RMK AO2 SLP077 T01440117 402610106 $
2026-04-17 03:53:00,METAR KFOK 170353Z AUTO 22009KT 10SM CLR 14/12 A2976 RMK AO2 SLP078 T01440117 $
2026-04-17 02:53:00,METAR KFOK 170253Z AUTO 21006KT 10SM CLR 13/11 A2977 RMK AO2 SLP082 T01330111 58008 $
2026-04-17 01:53:00,METAR KFOK 170153Z 21005KT 10SM CLR 13/11 A2979 RMK AO2 SLP087 T01330106 $
2026-04-17 00:53:00,METAR KFOK 170053Z 21005KT 10SM CLR 13/11 A2980 RMK AO2 SLP089 T01330106 $
2026-04-16 23:53:00,METAR KFOK 162353Z 21005KT 10SM CLR 14/11 A2980 RMK AO2 SLP089 T01390106 10261 20139 56005 $
2026-04-16 22:53:00,METAR KFOK 162253Z 21004KT 10SM CLR 15/11 A2980 RMK AO2 SLP089 T01500106 $
2026-04-16 21:53:00,METAR KFOK 162153Z 22009KT 10SM CLR 18/13 A2981 RMK AO2 SLP092 T01830128 $
2026-04-16 20:53:00,METAR KFOK 162053Z 22007KT 10SM CLR 21/13 A2981 RMK AO2 SLP095 T02060133 56022 $
2026-04-16 19:53:00,METAR KFOK 161953Z 20005KT 10SM CLR 24/14 A2983 RMK AO2 SLP100 T02440144 $
2026-04-16 18:53:00,METAR KFOK 161853Z 22007G17KT 170V250 10SM CLR 25/15 A2985 RMK AO2 SLP107 T02500150 $
2026-04-16 17:53:00,METAR KFOK 161753Z 21012G18KT 10SM CLR 26/14 A2988 RMK AO2 SLP116 T02610144 10261 20161 58015 $
2026-04-16 16:53:00,METAR KFOK 161653Z 24011KT 10SM CLR 24/14 A2990 RMK AO2 SLP123 T02440144 $
2026-04-16 15:53:00,METAR KFOK 161553Z 23009KT 10SM CLR 23/14 A2991 RMK AO2 SLP129 T02330144 $
2026-04-16 14:53:00,METAR KFOK 161453Z 21010KT 10SM CLR 22/14 A2992 RMK AO2 SLP132 T02220139 50000 $
2026-04-16 13:53:00,METAR KFOK 161353Z 23007KT 10SM CLR 21/13 A2993 RMK AO2 SLP133 T02110133 $
2026-04-16 12:53:00,METAR KFOK 161253Z 22005KT 10SM CLR 19/13 A2992 RMK AO2 SLP133 T01940128 $
2026-04-16 11:53:00,METAR KFOK 161153Z 20003KT 10SM CLR 16/12 A2992 RMK AO2 SLP131 T01610117 10161 20106 53007 $
2026-04-16 10:53:00,METAR KFOK 161053Z 00000KT 8SM CLR 12/09 A2992 RMK AO2 SLP130 T01170094 $
2026-04-16 09:53:00,METAR KFOK 160953Z AUTO 00000KT 8SM CLR 12/10 A2990 RMK AO2 SLP124 T01170100 $
2026-04-16 08:53:00,METAR KFOK 160853Z AUTO 00000KT 10SM CLR 13/11 A2990 RMK AO2 SLP124 T01330106 51004 $
2026-04-16 07:53:00,METAR KFOK 160753Z AUTO 00000KT 10SM CLR 14/11 A2989 RMK AO2 SLP122 T01390106 $
2026-04-16 06:53:00,METAR KFOK 160653Z AUTO 10SM BKN090 14/11 A2991 RMK AO2 PRESRR SLP129 T01440106 $
2026-04-16 05:53:00,METAR KFOK 160553Z AUTO 00000KT 10SM CLR 14/11 A2989 RMK AO2 SLP121 T01440106 10178 20144 58008 $
2026-04-16 04:53:00,METAR KFOK 160453Z AUTO 23004KT 10SM CLR 15/11 A2991 RMK AO2 SLP127 T01500106 402610089 $
2026-04-16 03:53:00,METAR KFOK 160353Z AUTO 21005KT 10SM CLR 16/11 A2990 RMK AO2 SLP125 T01560111 $
2026-04-16 02:53:00,METAR KFOK 160253Z 22007KT 10SM CLR 16/11 A2991 RMK AO2 SLP129 T01610111 50007 $
2026-04-16 01:53:00,METAR KFOK 160153Z 24010KT 10SM CLR 17/11 A2992 RMK AO2 SLP131 T01720106 $
2026-04-16 00:53:00,METAR KFOK 160053Z 23010G22KT 10SM CLR 18/11 A2991 RMK AO2 SLP127 T01780111 $
2026-04-15 23:53:00,METAR KFOK 152353Z 23009G16KT 10SM CLR 17/11 A2989 RMK AO2 SLP122 T01670106 10239 20161 50002 $
2026-04-15 22:53:00,METAR KFOK 152253Z 22008KT 10SM CLR 17/11 A2990 RMK AO2 SLP124 T01720111 $
2026-04-15 21:53:00,METAR KFOK 152153Z 22011G19KT 10SM CLR 20/12 A2989 RMK AO2 SLP122 T02000122 $
2026-04-15 20:53:00,METAR KFOK 152053Z 22008G14KT 10SM CLR 23/13 A2989 RMK AO2 SLP120 T02280133 58006 $
2026-04-15 19:53:00,METAR KFOK 151953Z 23010G17KT 10SM CLR 23/14 A2989 RMK AO2 SLP121 T02280144 $
2026-04-15 18:53:00,METAR KFOK 151853Z 23008KT 10SM CLR 22/14 A2990 RMK AO2 SLP125 T02220144 $
2026-04-15 17:53:00,METAR KFOK 151753Z 22009KT 10SM CLR 22/14 A2991 RMK AO2 SLP126 T02170144 10261 20156 58019 $
2026-04-15 16:53:00,METAR KFOK 151653Z 23011G20KT 10SM CLR 26/14 A2992 RMK AO2 SLP132 T02560139 $
2026-04-15 15:53:00,METAR KFOK 151553Z 24008KT 200V270 10SM CLR 26/14 A2995 RMK AO2 SLP140 T02560139 $
2026-04-15 14:53:00,METAR KFOK 151453Z 21007KT 10SM CLR 25/14 A2996 RMK AO2 SLP145 T02500144 51010 $
2026-04-15 13:53:00,METAR KFOK 151353Z 24003KT 10SM CLR 24/14 A2995 RMK AO2 SLP142 T02440144
2026-04-15 12:53:00,METAR KFOK 151253Z 23005KT 10SM CLR 20/14 A2996 RMK AO2 SLP144 T02000139 $
2026-04-15 11:53:00,METAR KFOK 151153Z 00000KT 9SM CLR 16/12 A2993 RMK AO2 SLP135 T01560117 10156 20089 51014 $
2026-04-15 10:53:00,METAR KFOK 151053Z 00000KT 8SM CLR 11/09 A2993 RMK AO2 SLP133 T01060089 $
2026-04-15 09:53:00,METAR KFOK 150953Z AUTO 00000KT 8SM CLR 09/08 A2991 RMK AO2 SLP127 T00940083 $
2026-04-15 08:53:00,METAR KFOK 150853Z AUTO 00000KT 9SM CLR 11/09 A2989 RMK AO2 SLP122 T01060089 51001 $
2026-04-15 07:53:00,METAR KFOK 150753Z AUTO 00000KT 8SM CLR 11/09 A2989 RMK AO2 SLP121 T01060089 $
2026-04-15 06:53:00,METAR KFOK 150653Z AUTO 00000KT 8SM CLR 12/10 A2990 RMK AO2 SLP125 T01220100 $
2026-04-15 05:53:00,METAR KFOK 150553Z AUTO 00000KT 7SM CLR 13/10 A2989 RMK AO2 SLP120 T01330100 10161 20122 58004 $
2026-04-15 04:53:00,METAR KFOK 150453Z AUTO 18003KT 10SM CLR 13/10 A2991 RMK AO2 SLP128 T01280100 402440067 $
2026-04-15 03:53:00,METAR KFOK 150353Z AUTO 00000KT 10SM BKN110 14/10 A2992 RMK AO2 SLP130 T01440100 $
2026-04-15 02:53:00,METAR KFOK 150253Z 23008KT 10SM CLR 14/10 A2990 RMK AO2 SLP124 T01390100 51012 $
2026-04-15 01:53:00,METAR KFOK 150153Z 21009G21KT 10SM CLR 14/10 A2990 RMK AO2 SLP123 T01440100 $
2026-04-15 00:53:00,METAR KFOK 150053Z 23012G21KT 10SM CLR 15/09 A2989 RMK AO2 SLP121 T01500089 $
2026-04-14 23:53:00,METAR KFOK 142353Z 24014G24KT 10SM CLR 16/09 A2987 RMK AO2 PK WND 24027/2326 SLP112 T01610089 10233 20150 56008 $
2026-04-14 22:53:00,METAR KFOK 142253Z 23011G25KT 10SM CLR 16/09 A2987 RMK AO2 SLP113 T01610094 $
2026-04-14 21:53:00,METAR KFOK 142153Z 22008KT 10SM CLR 18/10 A2987 RMK AO2 SLP113 T01780100 $
2026-04-14 20:53:00,METAR KFOK 142053Z 23010G18KT 10SM CLR 19/12 A2989 RMK AO2 SLP121 T01890117 56025 $
2026-04-14 19:53:00,METAR KFOK 141953Z 21009KT 10SM CLR 18/11 A2991 RMK AO2 SLP129 T01780111 $
2026-04-14 18:53:00,METAR KFOK 141853Z 17007KT 10SM CLR 21/12 A2994 RMK AO2 SLP137 T02110117 $
2026-04-14 17:53:00,METAR KFOK 141753Z 18009KT 10SM CLR 23/13 A2996 RMK AO2 SLP146 T02280133 10244 20122 58017 $
2026-04-14 16:53:00,METAR KFOK 141653Z 22009KT 10SM CLR 22/13 A2999 RMK AO2 SLP153 T02220128 $
2026-04-14 15:53:00,METAR KFOK 141553Z 15007KT 10SM CLR 22/13 A3001 RMK AO2 SLP162 T02220128
2026-04-14 14:53:00,METAR KFOK 141453Z 22008KT 10SM CLR 22/13 A3002 RMK AO2 SLP163 T02220128 56004
2026-04-14 13:53:00,METAR KFOK 141353Z 23005KT 10SM CLR 22/13 A3002 RMK AO2 SLP164 T02220133
2026-04-14 12:53:00,METAR KFOK 141253Z 00000KT 10SM CLR 19/13 A3002 RMK AO2 SLP166 T01890128
2026-04-14 11:53:00,METAR KFOK 141153Z 00000KT 10SM CLR 12/09 A3003 RMK AO2 SLP168 T01220094 10122 20067 53017
2026-04-14 10:53:00,METAR KFOK 141053Z 00000KT 5SM BR CLR 08/07 A3001 RMK AO2 SLP163 T00780072
2026-04-14 09:53:00,METAR KFOK 140953Z AUTO 22003KT 5SM BR CLR 08/07 A2999 RMK AO2 SLP156 T00830072
2026-04-14 08:53:00,METAR KFOK 140853Z AUTO 00000KT 7SM CLR 09/08 A2998 RMK AO2 SLP152 T00890078 55004
2026-04-14 07:53:00,METAR KFOK 140753Z AUTO 00000KT 7SM CLR 08/07 A2998 RMK AO2 SLP151 T00830072
2026-04-14 06:53:00,METAR KFOK 140653Z AUTO 00000KT 7SM CLR 09/08 A2998 RMK AO2 SLP151 T00940083
2026-04-14 05:53:00,METAR KFOK 140553Z AUTO 00000KT 6SM BR FEW120 11/10 A2999 RMK AO2 SLP155 60000 T01060100 10128 20100 58005
2026-04-14 04:53:00,METAR KFOK 140453Z AUTO 00000KT 8SM FEW110 12/10 A3000 RMK AO2 RAB08E19 SLP159 P0000 T01170100 401440072
2026-04-14 03:53:00,METAR KFOK 140353Z AUTO 00000KT 9SM OVC110 12/09 A3001 RMK AO2 SLP160 T01220094
2026-04-14 02:53:00,METAR KFOK 140253Z 21003KT 10SM FEW120 12/09 A3000 RMK AO2 SLP160 T01170089 51015
2026-04-14 01:53:00,METAR KFOK 140153Z 22006KT 10SM CLR 13/09 A2999 RMK AO2 SLP154 T01280094
2026-04-14 00:53:00,METAR KFOK 140053Z 22005KT 10SM BKN080 OVC110 12/09 A2999 RMK AO2 SLP153 T01220089
2026-04-13 23:53:00,METAR KFOK 132353Z 23009KT 9SM CLR 12/09 A2996 RMK AO2 SLP145 T01170089 10144 20117 53000
2026-04-13 22:53:00,METAR KFOK 132253Z 22010G18KT 9SM CLR 13/09 A2995 RMK AO2 SLP141 T01330094
2026-04-13 21:53:00,METAR KFOK 132153Z 23010G19KT 10SM CLR 14/09 A2995 RMK AO2 SLP142 T01440094
2026-04-13 20:53:00,METAR KFOK 132053Z 23008G22KT 9SM CLR 12/09 A2996 RMK AO2 SLP145 T01220094 56023 $
2026-04-13 19:53:00,METAR KFOK 131953Z 23010G19KT 8SM OVC110 12/ A2998 RMK AO2 SLP152 T0122 $
2026-04-13 19:07:00,SPECI KFOK 131907Z 23014G22KT 9SM SCT007 12/09 A3000 RMK AO2 T01220094 $
2026-04-13 18:53:00,METAR KFOK 131853Z 24014G22KT 9SM BKN007 12/09 A3000 RMK AO2 PK WND 25028/1810 SLP159 T01220094 $
2026-04-13 17:53:00,METAR KFOK 131753Z 22015G28KT 10SM OVC007 13/09 A3003 RMK AO2 PK WND 24029/1703 SLP168 T01330094 10133 20111 56029 $
2026-04-13 16:53:00,METAR KFOK 131653Z 22015G28KT 10SM OVC006 13/10 A3005 RMK AO2 PK WND 25029/1622 SLP176 T01330100 $
2026-04-13 15:53:00,METAR KFOK 131553Z 22013G28KT 9SM OVC006 12/09 A3008 RMK AO2 PK WND 21028/1545 SLP186 T01220094 $
2026-04-13 14:53:00,METAR KFOK 131453Z 22012G23KT 9SM BKN007 OVC018 11/09 A3011 RMK AO2 PK WND 22026/1416 SLP197 T01110094 58022 $
2026-04-13 13:53:00,METAR KFOK 131353Z 22011G21KT 10SM BKN007 OVC019 12/09 A3015 RMK AO2 SLP209 T01170094 $
2026-04-13 13:00:00,SPECI KFOK 131300Z 22010G20KT 10SM BKN008 OVC021 11/09 A3018 RMK AO2 CIG 007V011 T01110089 $
2026-04-13 12:53:00,METAR KFOK 131253Z 21008G23KT 10SM SCT008 OVC023 11/09 A3018 RMK AO2 SLP220 T01110089 $
2026-04-13 12:48:00,SPECI KFOK 131248Z 22011G20KT 10SM SCT010 OVC023 11/09 A3018 RMK AO2 $
2026-04-13 12:41:00,SPECI KFOK 131241Z 22010G19KT 10SM SCT008 BKN012 OVC023 11/09 A3018 RMK AO2 T01110089 $
2026-04-13 12:17:00,SPECI KFOK 131217Z 22011G20KT 10SM SCT013 BKN026 11/09 A3019 RMK AO2 T01110089 $
2026-04-13 11:53:00,METAR KFOK 131153Z 22011G20KT 10SM CLR 11/09 A3020 RMK AO2 SLP226 T01110089 10111 20072 56014 $
2026-04-13 10:53:00,METAR KFOK 131053Z 21008G18KT 10SM OVC032 10/08 A3020 RMK AO2 SLP228 T01000078 $
2026-04-13 09:53:00,METAR KFOK 130953Z AUTO 20006KT 10SM OVC030 09/07 A3022 RMK AO2 SLP234 T00940067 $
2026-04-13 08:53:00,METAR KFOK 130853Z AUTO 21009G16KT 170V240 10SM OVC042 09/06 A3024 RMK AO2 SLP241 T00940061 56023 $
2026-04-13 07:53:00,METAR KFOK 130753Z AUTO 19009G18KT 10SM CLR 09/06 A3026 RMK AO2 SLP246 T00890056 $
2026-04-13 06:53:00,METAR KFOK 130653Z AUTO 19004KT 10SM CLR 08/05 A3028 RMK AO2 SLP253 T00780050 $
2026-04-13 05:53:00,METAR KFOK 130553Z AUTO 19004KT 10SM CLR 08/04 A3031 RMK AO2 SLP264 T00780044 10078 20061 58021 $
2026-04-13 04:53:00,METAR KFOK 130453Z AUTO 18005KT 10SM FEW120 08/04 A3034 RMK AO2 SLP274 T00780044 401111022 $
2026-04-13 03:53:00,METAR KFOK 130353Z AUTO 18007KT 10SM SCT120 08/06 A3036 RMK AO2 SLP280 T00780056 $
2026-04-13 03:28:00,SPECI KFOK 130328Z AUTO 18005KT 10SM SCT006 OVC120 08/07 A3036 RMK AO2 T00780067 $
2026-04-13 03:05:00,SPECI KFOK 130305Z AUTO 17005KT 10SM BKN006 07/06 A3037 RMK AO2 T00720061 $
2026-04-13 02:53:00,METAR KFOK 130253Z 16005KT 10SM SCT006 07/06 A3037 RMK AO2 SLP284 T00720056 56016 $
2026-04-13 01:53:00,METAR KFOK 130153Z 16004KT 10SM CLR 06/04 A3040 RMK AO2 SLP295 T00610044 $
2026-04-13 00:53:00,METAR KFOK 130053Z 16005KT 10SM CLR 06/03 A3042 RMK AO2 SLP301 T00610033 $
2026-04-12 23:53:00,METAR KFOK 122353Z 16004KT 10SM CLR 06/03 A3042 RMK AO2 SLP303 T00610028 10100 20061 56013 $
2026-04-12 22:53:00,METAR KFOK 122253Z 15006KT 10SM CLR 07/03 A3042 RMK AO2 SLP303 T00720028 $
2026-04-12 21:53:00,METAR KFOK 122153Z 16010G15KT 10SM CLR 08/02 A3045 RMK AO2 SLP311 T00830022 $
2026-04-12 20:53:00,METAR KFOK 122053Z 17009G17KT 10SM CLR 09/01 A3046 RMK AO2 SLP315 T00890011 56018 $
2026-04-12 19:53:00,METAR KFOK 121953Z 15009G18KT 10SM CLR 09/M01 A3047 RMK AO2 SLP318 T00941011 $
2026-04-12 18:53:00,METAR KFOK 121853Z 16007G19KT 10SM CLR 09/M04 A3050 RMK AO2 SLP329 T00941044 $
2026-04-12 17:53:00,METAR KFOK 121753Z 14010G18KT 10SM CLR 09/M06 A3051 RMK AO2 SLP333 T00941056 10111 20078 58014 $
2026-04-12 16:53:00,METAR KFOK 121653Z 15008KT 10SM CLR 10/M05 A3054 RMK AO2 SLP341 T01001050 $
2026-04-12 15:53:00,METAR KFOK 121553Z VRB06KT 10SM CLR 11/M05 A3055 RMK AO2 SLP345 T01061050 $
2026-04-12 14:53:00,METAR KFOK 121453Z 13007KT 090V160 10SM CLR 10/M05 A3056 RMK AO2 SLP347 T01001050 52008 $
2026-04-12 13:53:00,METAR KFOK 121353Z 08006KT 10SM CLR 09/M06 A3054 RMK AO2 SLP343 T00941056 $
2026-04-12 12:53:00,METAR KFOK 121253Z VRB05KT 10SM CLR 09/M07 A3054 RMK AO2 SLP344 T00891067 $
2026-04-12 11:53:00,METAR KFOK 121153Z 04005KT 10SM CLR 08/M02 A3053 RMK AO2 SLP339 T00781017 10078 21022 51020 $
2026-04-12 10:53:00,METAR KFOK 121053Z 00000KT 10SM CLR M01/M04 A3052 RMK AO2 SLP334 T10111044 $
2026-04-12 09:53:00,METAR KFOK 120953Z AUTO 00000KT 10SM CLR M01/M04 A3050 RMK AO2 SLP327 T10061039 $
2026-04-12 08:53:00,METAR KFOK 120853Z AUTO 00000KT 10SM CLR 02/M02 A3047 RMK AO2 SLP319 T00221022 53015 $
2026-04-12 07:53:00,METAR KFOK 120753Z AUTO 36007KT 10SM CLR 05/M02 A3044 RMK AO2 SLP309 T00501022 $
2026-04-12 06:53:00,METAR KFOK 120653Z AUTO 01004KT 10SM CLR 06/M02 A3043 RMK AO2 SLP305 T00561022 $
2026-04-12 05:53:00,METAR KFOK 120553Z AUTO 36007KT 10SM CLR 07/M03 A3043 RMK AO2 SLP304 T00671028 10111 20067 51016 $
2026-04-12 04:53:00,METAR KFOK 120453Z AUTO 35008KT 10SM CLR 07/M02 A3042 RMK AO2 SLP302 T00721022 401610072 $
2026-04-12 03:53:00,METAR KFOK 120353Z AUTO 34010KT 10SM CLR 08/M02 A3040 RMK AO2 SLP294 T00781022 $
2026-04-12 02:53:00,METAR KFOK 120253Z AUTO 36007KT 10SM CLR 08/M02 A3038 RMK AO2 SLP288 T00831022 51029 $
2026-04-12 01:53:00,METAR KFOK 120153Z 36008KT 10SM CLR 09/M03 A3036 RMK AO2 SLP280 T00941033 $
2026-04-12 00:53:00,METAR KFOK 120053Z 36010G16KT 10SM CLR 11/M03 A3033 RMK AO2 SLP271 T01061028 $
2026-04-11 23:53:00,METAR KFOK 112353Z 35007KT 10SM CLR 11/M02 A3029 RMK AO2 SLP257 T01111022 10161 20111 53024 $
2026-04-11 22:53:00,METAR KFOK 112253Z 33007KT 10SM CLR 14/M02 A3026 RMK AO2 SLP247 T01391022 $
2026-04-11 21:53:00,METAR KFOK 112153Z 33008G19KT 10SM CLR 16/M03 A3024 RMK AO2 SLP239 T01561028 $
2026-04-11 20:53:00,METAR KFOK 112053Z 34014G24KT 10SM CLR 16/M03 A3022 RMK AO2 SLP233 T01611028 55000 $
2026-04-11 19:53:00,METAR KFOK 111953Z 32016G26KT 10SM CLR 15/M02 A3021 RMK AO2 PK WND 35029/1937 SLP230 T01501022 $
2026-04-11 18:53:00,METAR KFOK 111853Z 31015G25KT 10SM CLR 16/M02 A3022 RMK AO2 PK WND 34026/1832 SLP232 T01561022 $
2026-04-11 17:53:00,METAR KFOK 111753Z 34012G25KT 10SM CLR 15/M02 A3022 RMK AO2 PK WND 30026/1726 SLP233 T01501022 10150 20117 51002 $
2026-04-11 16:53:00,METAR KFOK 111653Z 33017G28KT 10SM CLR 14/M02 A3022 RMK AO2 PK WND 34031/1555 SLP233 T01441022 $
2026-04-11 15:53:00,METAR KFOK 111553Z 32017G26KT 10SM CLR 13/M01 A3023 RMK AO2 PK WND 30028/1537 SLP236 T01331006 $
2026-04-11 14:53:00,METAR KFOK 111453Z 35015G26KT 10SM CLR 13/01 A3022 RMK AO2 PK WND 33026/1447 SLP232 T01280011 51018 $
2026-04-11 13:53:00,METAR KFOK 111353Z 33011G23KT 290V350 10SM CLR 13/03 A3020 RMK AO2 PK WND 34026/1338 SLP228 T01330028 $
2026-04-11 12:53:00,METAR KFOK 111253Z 34013G23KT 10SM CLR 12/03 A3018 RMK AO2 PK WND 35029/1230 SLP221 T01220033 $
2026-04-11 11:53:00,METAR KFOK 111153Z 34009KT 10SM CLR 12/06 A3016 RMK AO2 SLP214 T01170056 10117 20072 51028 $
2026-04-11 10:53:00,METAR KFOK 111053Z 00000KT 10SM BKN031 08/05 A3014 RMK AO2 SLP205 T00780050 $
2026-04-11 09:53:00,METAR KFOK 110953Z AUTO 31004KT 10SM BKN030 07/05 A3011 RMK AO2 SLP196 T00720050 $
2026-04-11 08:53:00,METAR KFOK 110853Z AUTO 22004KT 10SM FEW120 08/05 A3008 RMK AO2 SLP186 T00780050 55012 $
2026-04-11 07:53:00,METAR KFOK 110753Z AUTO 23006KT 10SM OVC110 08/04 A3007 RMK AO2 SLP184 T00780044 $
2026-04-11 06:53:00,METAR KFOK 110653Z AUTO 23005KT 10SM BKN100 08/04 A3009 RMK AO2 SLP191 T00780044 $
2026-04-11 05:53:00,METAR KFOK 110553Z AUTO 23006G15KT 10SM FEW110 08/04 A3012 RMK AO2 SLP198 T00780039 10078 20056 58014 $
2026-04-11 04:53:00,METAR KFOK 110453Z AUTO 20004KT 10SM BKN100 07/04 A3015 RMK AO2 SLP210 T00670039 401001050 $
2026-04-11 03:53:00,METAR KFOK 110353Z AUTO 28007KT 10SM BKN110 07/05 A3018 RMK AO2 SLP220 T00720050 $
2026-04-11 02:53:00,METAR KFOK 110253Z 21005KT 10SM CLR 06/05 A3016 RMK AO2 SLP212 T00610050 58010 $
2026-04-11 01:53:00,METAR KFOK 110153Z 20008KT 10SM CLR 06/05 A3017 RMK AO2 SLP217 T00610050 $
2026-04-11 01:29:00,SPECI KFOK 110129Z 19006KT 10SM SCT003 06/05 A3018 RMK AO2 T00560050 $
2026-04-11 00:53:00,METAR KFOK 110053Z 19006KT 10SM BKN003 06/05 A3018 RMK AO2 SLP221 T00560050 $
2026-04-10 23:53:00,METAR KFOK 102353Z 19007G15KT 170V230 9SM OVC003 06/04 A3019 RMK AO2 SLP222 T00560044 10100 20056 56017 $
2026-04-10 23:13:00,SPECI KFOK 102313Z 19008KT 4SM BR OVC002 06/05 A3019 RMK AO2 T00560050 $
2026-04-10 23:05:00,SPECI KFOK 102305Z 19007KT 2 1/2SM BR OVC003 06/05 A3020 RMK AO2 T00560050 $
2026-04-10 22:53:00,METAR KFOK 102253Z 18007KT 6SM BR OVC002 06/05 A3020 RMK AO2 SLP227 T00610050 $
2026-04-10 22:38:00,SPECI KFOK 102238Z 20010G16KT 4SM BR OVC002 06/05 A3021 RMK AO2 T00560050 $
2026-04-10 22:27:00,SPECI KFOK 102227Z 19006G16KT 2SM BR OVC002 06/05 A3021 RMK AO2 T00560050 $
2026-04-10 22:15:00,SPECI KFOK 102215Z 19007G17KT 3SM BR OVC003 06/05 A3021 RMK AO2 T00610050 $
2026-04-10 21:53:00,METAR KFOK 102153Z 20007KT 2SM BR OVC003 06/05 A3022 RMK AO2 VIS 3/4V3 SLP232 T00610050 $
2026-04-10 21:48:00,SPECI KFOK 102148Z 18008KT 1 3/4SM BR OVC003 06/05 A3022 RMK AO2 $
2026-04-10 21:28:00,SPECI KFOK 102128Z 19008KT 7SM BKN003 07/05 A3023 RMK AO2 T00670050 $
2026-04-10 21:00:00,SPECI KFOK 102100Z 20011G17KT 10SM SCT005 08/05 A3023 RMK AO2 T00780050 $
2026-04-10 20:53:00,METAR KFOK 102053Z 20008KT 3SM HZ BKN006 08/05 A3024 RMK AO2 SLP239 T00780050 56028 $
2026-04-10 20:01:00,SPECI KFOK 102001Z 18007KT 3SM HZ BKN006 07/04 A3025 RMK AO2 T00720044 $
2026-04-10 19:53:00,METAR KFOK 101953Z 18009KT 5SM HZ FEW004 08/04 A3025 RMK AO2 SLP245 T00780044 $
2026-04-10 18:53:00,METAR KFOK 101853Z 20009KT 10SM CLR 08/04 A3028 RMK AO2 SLP255 T00830039 $
2026-04-10 17:53:00,METAR KFOK 101753Z 20008KT 10SM CLR 09/04 A3032 RMK AO2 SLP267 T00890039 10094 20017 56019 $
2026-04-10 16:53:00,METAR KFOK 101653Z 20010KT 10SM CLR 09/04 A3033 RMK AO2 SLP271 T00890039 $
2026-04-10 15:53:00,METAR KFOK 101553Z 21011KT 10SM CLR 09/04 A3036 RMK AO2 SLP279 T00890044 $
2026-04-10 14:53:00,METAR KFOK 101453Z 22009KT 10SM SCT008 08/04 A3037 RMK AO2 SLP286 T00830044 58009 $
2026-04-10 14:29:00,SPECI KFOK 101429Z 21007KT 10SM SCT008 07/04 A3038 RMK AO2 T00720044 $
2026-04-10 13:53:00,METAR KFOK 101353Z 25005KT 10SM OVC007 06/04 A3039 RMK AO2 SLP291 T00610044 $
2026-04-10 13:17:00,SPECI KFOK 101317Z 24005KT 10SM BKN009 06/04 A3039 RMK AO2 T00610039 $
2026-04-10 12:53:00,METAR KFOK 101253Z 25004KT 10SM SCT007 06/04 A3039 RMK AO2 SLP292 T00560039 $
2026-04-10 12:01:00,SPECI KFOK 101201Z 00000KT 9SM SCT005 03/02 A3040 RMK AO2 T00280017 $
2026-04-10 11:53:00,METAR KFOK 101153Z 00000KT 9SM BKN004 02/01 A3040 RMK AO2 SLP295 I6000 T00170006 10017 21050 56003 $
2026-04-10 11:45:00,SPECI KFOK 101145Z 00000KT 2SM BR OVC004 00/M01 A3040 RMK AO2 T00001006 $
2026-04-10 11:35:00,SPECI KFOK 101135Z 33003KT 1/2SM FZFG VV003 M01/M02 A3040 RMK AO2 T10111017 $
2026-04-10 11:19:00,SPECI KFOK 101119Z 00000KT 1/4SM FZFG VV003 M02/M03 A3040 RMK AO2 T10221033 $
2026-04-10 11:15:00,SPECI KFOK 101115Z 00000KT 1SM BR VV003 M03/M03 A3040 RMK AO2 T10281033 $
2026-04-10 11:05:00,SPECI KFOK 101105Z 00000KT 5SM BR OVC003 M03/M04 A3040 RMK AO2 T10331039 $
2026-04-10 10:58:00,SPECI KFOK 101058Z 00000KT 2SM BR OVC003 M03/M04 A3040 RMK AO2 T10331044 $
2026-04-10 10:53:00,METAR KFOK 101053Z 00000KT 1/2SM FZFG VV003 M04/M04 A3040 RMK AO2 SLP296 I1000 T10391044 $
2026-04-10 10:32:00,SPECI KFOK 101032Z 00000KT 1/4SM FZFG VV002 M04/M06 A3041 RMK AO2 I1000 T10441056 $
2026-04-10 10:23:00,SPECI KFOK 101023Z 00000KT 3/4SM BR VV002 M04/M05 A3041 RMK AO2 T10441050 $
2026-04-10 10:16:00,SPECI KFOK 101016Z 00000KT 2SM BR OVC002 M04/M06 A3041 RMK AO2 T10441056 $
2026-04-10 10:02:00,SPECI KFOK 101002Z 00000KT 1/2SM FZFG VV002 M05/M06 A3041 RMK AO2 T10501056 $
2026-04-10 09:53:00,METAR KFOK 100953Z 00000KT 1 1/4SM BR OVC002 M05/M06 A3041 RMK AO2 SLP298 I1000 T10501056 $
2026-04-10 09:21:00,SPECI KFOK 100921Z 00000KT 1/4SM FZFG VV004 M04/M06 A3042 RMK AO2 I1000 T10441056 $
2026-04-10 09:17:00,SPECI KFOK 100917Z 00000KT 1SM BR VV005 M04/M06 A3042 RMK AO2 T10441061 $
2026-04-10 09:15:00,SPECI KFOK 100915Z 00000KT 2 1/2SM BR BKN004 M05/M06 A3042 RMK AO2 T10501061 $
2026-04-10 09:10:00,SPECI KFOK 100910Z 00000KT 10SM SCT004 M05/M07 A3042 RMK AO2 T10501067 $
2026-04-10 08:53:00,METAR KFOK 100853Z 00000KT 6SM BR BKN004 M04/M06 A3041 RMK AO2 SLP300 I3000 T10441056 56017 $
2026-04-10 08:44:00,SPECI KFOK 100844Z 34003KT 2 1/2SM BR BKN004 M04/M06 A3042 RMK AO2 T10441056 $
2026-04-10 08:41:00,SPECI KFOK 100841Z 34003KT 6SM BR SCT004 M04/M06 A3042 RMK AO2 T10441061 $
2026-04-10 08:30:00,SPECI KFOK 100830Z 00000KT 10SM BKN004 M04/M06 A3042 RMK AO2 T10441061 $
2026-04-10 08:22:00,SPECI KFOK 100822Z 00000KT 10SM SCT004 M04/M06 A3042 RMK AO2 T10391056 $
2026-04-10 07:53:00,METAR KFOK 100753Z 00000KT 10SM CLR M03/M04 A3042 RMK AO2 SLP301 I1000 T10331044 $
2026-04-10 06:53:00,METAR KFOK 100653Z 00000KT 10SM CLR M02/M02 A3044 RMK AO2 SLP307 I1000 T10171022 $
2026-04-10 06:16:00,SPECI KFOK 100616Z 00000KT 9SM SCT005 M03/M04 A3045 RMK AO2 T10281039 $
2026-04-10 06:08:00,SPECI KFOK 100608Z 00000KT 10SM BKN005 M03/M04 A3046 RMK AO2 T10281039 $
2026-04-10 05:53:00,METAR KFOK 100553Z 00000KT 10SM OVC004 M04/M05 A3047 RMK AO2 SLP317 T10391050 10039 21039 56005 $
2026-04-10 05:49:00,SPECI KFOK 100549Z 33004KT 8SM BKN004 M03/M04 A3047 RMK AO2 $
2026-04-10 05:42:00,SPECI KFOK 100542Z 00000KT 2SM BR BKN004 M03/M05 A3047 RMK AO2 VIS 3/4V5 T10331050 $
2026-04-10 05:39:00,SPECI KFOK 100539Z 00000KT 3/4SM BR VV004 M04/M05 A3047 RMK AO2 VIS 1/4V5 T10391050 $
2026-04-10 05:32:00,SPECI KFOK 100532Z 00000KT 1SM BR VV004 M03/M05 A3047 RMK AO2 T10331050 $
2026-04-10 05:30:00,SPECI KFOK 100530Z 00000KT 2SM BR FEW005 M03/M05 A3047 RMK AO2 T10331050 $
2026-04-10 04:53:00,METAR KFOK 100453Z 00000KT 10SM CLR M03/M04 A3048 RMK AO2 SLP320 T10331044 400781072 $
2026-04-10 03:53:00,METAR KFOK 100353Z 00000KT 10SM CLR M02/M03 A3048 RMK AO2 SLP322 T10221033 $
2026-04-10 02:53:00,METAR KFOK 100253Z 00000KT 10SM CLR M01/M03 A3050 RMK AO2 SLP327 T10111028 56007 $
2026-04-10 01:53:00,METAR KFOK 100153Z 16004KT 10SM CLR 02/01 A3050 RMK AO2 SLP328 T00220011 $
2026-04-10 00:53:00,METAR KFOK 100053Z 16004KT 10SM CLR 03/01 A3051 RMK AO2 SLP332 T00280011 $
2026-04-09 23:53:00,METAR KFOK 092353Z 15005KT 10SM FEW012 04/02 A3052 RMK AO2 SLP334 T00390017 10078 20039 56012 $
2026-04-09 22:53:00,METAR KFOK 092253Z 14007KT 10SM CLR 06/02 A3052 RMK AO2 SLP335 T00560017 $
2026-04-09 21:53:00,METAR KFOK 092153Z VRB05KT 10SM CLR 07/01 A3053 RMK AO2 SLP339 T00670011 $
2026-04-09 20:53:00,METAR KFOK 092053Z 16007KT 10SM FEW018 07/01 A3055 RMK AO2 SLP346 T00720011 56020 $
2026-04-09 19:53:00,METAR KFOK 091953Z 17009KT 10SM CLR 07/01 A3057 RMK AO2 SLP351 T00720011 $
2026-04-09 18:53:00,METAR KFOK 091853Z 15008KT 10SM CLR 07/01 A3059 RMK AO2 SLP360 T00720011 $
2026-04-09 17:53:00,METAR KFOK 091753Z 15008KT 10SM FEW018 07/01 A3061 RMK AO2 SLP366 T00670006 10072 21011 58011 $
2026-04-09 16:53:00,METAR KFOK 091653Z 13010G17KT 10SM CLR 07/01 A3063 RMK AO2 SLP371 T00670006 $
2026-04-09 15:53:00,METAR KFOK 091553Z 18007G15KT 150V210 10SM CLR 06/00 A3064 RMK AO2 SLP376 T00610000 $
2026-04-09 14:53:00,METAR KFOK 091453Z 18007KT 150V210 10SM CLR 06/00 A3065 RMK AO2 SLP378 T00610000 56003 $
2026-04-09 13:53:00,METAR KFOK 091353Z 19006KT 10SM CLR 06/M01 A3065 RMK AO2 SLP379 T00561006 $
2026-04-09 12:53:00,METAR KFOK 091253Z 20005KT 10SM FEW017 04/M01 A3065 RMK AO2 SLP379 T00441006 $
2026-04-09 12:42:00,SPECI KFOK 091242Z VRB04KT 10SM SCT017 04/M01 A3065 RMK AO2 T00441006 $
2026-04-09 11:53:00,METAR KFOK 091153Z 00000KT 10SM OVC018 M01/M03 A3065 RMK AO2 SLP381 T10111033 11011 21072 53013 $
2026-04-09 10:53:00,METAR KFOK 091053Z 00000KT 10SM OVC017 M06/M08 A3064 RMK AO2 SLP377 T10611078 $
2026-04-09 10:26:00,SPECI KFOK 091026Z AUTO 00000KT 10SM BKN017 M07/M08 A3063 RMK AO2 T10671083 $
2026-04-09 10:00:00,SPECI KFOK 091000Z AUTO 00000KT 10SM SCT017 M07/M09 A3063 RMK AO2 T10721089 $
2026-04-09 09:53:00,METAR KFOK 090953Z AUTO 00000KT 10SM BKN017 M07/M08 A3062 RMK AO2 SLP370 T10671083 $
2026-04-09 09:29:00,SPECI KFOK 090929Z AUTO 00000KT 10SM BKN017 M07/M09 A3062 RMK AO2 T10721089 $
2026-04-09 08:53:00,METAR KFOK 090853Z AUTO 00000KT 10SM CLR M07/M09 A3062 RMK AO2 SLP368 T10721089 56004 $
2026-04-09 07:53:00,METAR KFOK 090753Z AUTO 00000KT 10SM CLR M07/M09 A3062 RMK AO2 SLP369 T10721089 $
2026-04-09 06:53:00,METAR KFOK 090653Z AUTO 00000KT 10SM CLR M07/M09 A3061 RMK AO2 SLP367 T10721089 $
2026-04-09 05:53:00,METAR KFOK 090553Z AUTO 00000KT 10SM CLR M07/M09 A3063 RMK AO2 SLP372 T10671089 11006 21067 58005 $
2026-04-09 04:53:00,METAR KFOK 090453Z AUTO 00000KT 10SM CLR M06/M08 A3064 RMK AO2 SLP377 T10611083 400611061 $
2026-04-09 03:53:00,METAR KFOK 090353Z AUTO 00000KT 10SM CLR M06/M08 A3064 RMK AO2 SLP377 T10561078 $
2026-04-09 02:53:00,METAR KFOK 090253Z 00000KT 10SM CLR M04/M08 A3064 RMK AO2 SLP377 T10441078 $
2026-04-09 01:53:00,METAR KFOK 090153Z 00000KT 10SM CLR M04/M07 A3064 RMK AO2 SLP376 T10391072 $
2026-04-09 00:53:00,METAR KFOK 090053Z 00000KT 10SM CLR M03/M06 A3063 RMK AO2 SLP373 T10281061
2026-04-08 23:53:00,METAR KFOK 082353Z 00000KT 10SM CLR 00/M05 A3061 RMK AO2 SLP365 T00001050 10061 20000 50001
2026-04-08 22:53:00,METAR KFOK 082253Z 18004KT 10SM CLR 03/M04 A3061 RMK AO2 SLP366 T00331039
2026-04-08 21:53:00,METAR KFOK 082153Z 14006KT 10SM CLR 05/M04 A3061 RMK AO2 SLP367 T00501039
2026-04-08 20:53:00,METAR KFOK 082053Z 13005KT 10SM CLR 05/M04 A3061 RMK AO2 SLP365 T00501044 55003
2026-04-08 19:53:00,METAR KFOK 081953Z 11008KT 10SM CLR 06/M06 A3061 RMK AO2 SLP364 T00561056
2026-04-08 18:53:00,METAR KFOK 081853Z 13008KT 10SM CLR 05/M05 A3061 RMK AO2 SLP366 T00501050
2026-04-08 17:53:00,METAR KFOK 081753Z 10008KT 070V140 10SM CLR 06/M05 A3062 RMK AO2 SLP367 T00561050 10061 20006 56009
2026-04-08 16:53:00,METAR KFOK 081653Z 06005KT 10SM CLR 06/M09 A3062 RMK AO2 SLP369 T00561089
2026-04-08 15:53:00,METAR KFOK 081553Z 03010KT 10SM CLR 04/M08 A3063 RMK AO2 SLP374 T00441083
2026-04-08 14:53:00,METAR KFOK 081453Z 04014G19KT 10SM CLR 04/M08 A3064 RMK AO2 SLP376 T00441083 51011
2026-04-08 13:53:00,METAR KFOK 081353Z 02013KT 10SM CLR 03/M09 A3063 RMK AO2 SLP373 T00281089
2026-04-08 12:53:00,METAR KFOK 081253Z 05014G20KT 10SM CLR 02/M09 A3063 RMK AO2 SLP373 T00171089
2026-04-08 11:53:00,METAR KFOK 081153Z 01015G23KT 10SM CLR 01/M09 A3061 RMK AO2 SLP366 T00061094 10006 21011 53023
2026-04-08 10:53:00,METAR KFOK 081053Z 36009KT 10SM CLR M01/M09 A3059 RMK AO2 SLP359 T10061089
2026-04-08 09:53:00,METAR KFOK 080953Z AUTO 01007KT 10SM CLR M01/M09 A3056 RMK AO2 SLP348 T10111089
2026-04-08 08:53:00,METAR KFOK 080853Z AUTO 36007KT 10SM CLR M01/M09 A3054 RMK AO2 SLP342 T10111089 53011
2026-04-08 07:53:00,METAR KFOK 080753Z AUTO 36007KT 10SM CLR M01/M09 A3052 RMK AO2 SLP336 T10111089
2026-04-08 06:53:00,METAR KFOK 080653Z AUTO 35008KT 10SM CLR M01/M09 A3051 RMK AO2 SLP333 T10111094
2026-04-08 05:53:00,METAR KFOK 080553Z AUTO 34007KT 10SM CLR M01/M09 A3051 RMK AO2 SLP331 T10061094 10050 21006 51019
2026-04-08 04:53:00,METAR KFOK 080453Z AUTO 34009KT 10SM CLR M01/M09 A3050 RMK AO2 SLP327 T10061089 401391033
2026-04-08 03:53:00,METAR KFOK 080353Z AUTO 35012G21KT 10SM CLR 01/M09 A3048 RMK AO2 SLP321 T00061089
2026-04-08 02:53:00,METAR KFOK 080253Z 34011G23KT 10SM CLR 02/M09 A3045 RMK AO2 PK WND 32026/0222 SLP313 T00171089 51041
2026-04-08 01:53:00,METAR KFOK 080153Z 34014G21KT 10SM CLR 03/M08 A3042 RMK AO2 SLP301 T00281083
2026-04-08 00:53:00,METAR KFOK 080053Z 34010KT 10SM CLR 04/M10 A3038 RMK AO2 SLP288 T00441100
2026-04-07 23:53:00,METAR KFOK 072353Z 33012KT 10SM CLR 05/M08 A3033 RMK AO2 SLP272 T00501083 10133 20050 51044
2026-04-07 22:53:00,METAR KFOK 072253Z 32011G22KT 10SM CLR 07/M10 A3029 RMK AO2 PK WND 30026/2209 SLP258 T00671100
2026-04-07 21:53:00,METAR KFOK 072153Z 30017G29KT 10SM CLR 08/M11 A3025 RMK AO2 PK WND 32032/2106 SLP245 T00831111
2026-04-07 20:53:00,METAR KFOK 072053Z 31018G30KT 10SM CLR 11/M08 A3020 RMK AO2 PK WND 31035/2036 SLP227 T01061083 53021
2026-04-07 19:53:00,METAR KFOK 071953Z 27020G30KT 10SM CLR 12/M09 A3016 RMK AO2 PK WND 32031/1918 SLP215 T01221089
2026-04-07 18:53:00,METAR KFOK 071853Z 29018G31KT 10SM FEW075 12/M08 A3015 RMK AO2 PK WND 32032/1813 SLP210 T01221078
2026-04-07 17:53:00,METAR KFOK 071753Z 32016G25KT 10SM BKN065 BKN080 12/M02 A3014 RMK AO2 PK WND 30026/1740 SLP206 T01221022 10139 20061 53005
2026-04-07 16:53:00,METAR KFOK 071653Z 28015KT 10SM BKN075 12/M04 A3013 RMK AO2 SLP203 T01171039
2026-04-07 15:53:00,METAR KFOK 071553Z 30016G23KT 10SM SCT060 12/M03 A3013 RMK AO2 SLP202 T01171033
2026-04-07 14:53:00,METAR KFOK 071453Z 29013G20KT 10SM FEW050 SCT085 12/M01 A3012 RMK AO2 SLP201 T01221006 53002
2026-04-07 13:53:00,METAR KFOK 071353Z 29013G20KT 10SM FEW035 BKN080 11/03 A3012 RMK AO2 SLP200 T01060028
2026-04-07 12:53:00,METAR KFOK 071253Z 23006KT 10SM OVC070 07/06 A3012 RMK AO2 SLP200 T00720056
2026-04-07 12:16:00,SPECI KFOK 071216Z 20006KT 10SM FEW006 OVC070 07/06 A3012 RMK AO2 T00670056
2026-04-07 11:53:00,METAR KFOK 071153Z VRB04KT 10SM OVC070 06/05 A3012 RMK AO2 SLP199 T00610050 10061 21022 53005
2026-04-07 10:53:00,METAR KFOK 071053Z 14004KT 10SM BKN060 OVC080 06/04 A3010 RMK AO2 SLP194 T00560044
2026-04-07 09:53:00,METAR KFOK 070953Z AUTO 13004KT 10SM FEW060 SCT095 BKN120 05/04 A3009 RMK AO2 SLP189 T00500039
2026-04-07 08:53:00,METAR KFOK 070853Z AUTO 00000KT 10SM BKN070 BKN085 OVC120 04/03 A3010 RMK AO2 SLP194 T00390028 58002
2026-04-07 07:53:00,METAR KFOK 070753Z AUTO 10003KT 10SM OVC120 03/02 A3010 RMK AO2 SLP194 T00330017
2026-04-07 06:53:00,METAR KFOK 070653Z AUTO 00000KT 10SM OVC055 01/00 A3014 RMK AO2 SLP207 T00110000
2026-04-07 05:53:00,METAR KFOK 070553Z AUTO 00000KT 10SM BKN100 M02/M04 A3011 RMK AO2 SLP196 T10221039 10056 21033 58005
2026-04-07 04:53:00,METAR KFOK 070453Z AUTO 00000KT 10SM FEW100 M03/M04 A3013 RMK AO2 SLP202 T10281044 401111028
2026-04-07 03:53:00,METAR KFOK 070353Z AUTO 00000KT 10SM CLR M03/M04 A3013 RMK AO2 SLP202 T10281044
2026-04-07 02:53:00,METAR KFOK 070253Z 00000KT 10SM CLR M02/M04 A3012 RMK AO2 SLP201 T10171039 50012
2026-04-07 01:53:00,METAR KFOK 070153Z 00000KT 10SM FEW080 00/M03 A3013 RMK AO2 SLP203 T00001028
2026-04-07 00:53:00,METAR KFOK 070053Z 00000KT 10SM SCT090 02/M01 A3012 RMK AO2 SLP199 T00221006
2026-04-06 23:53:00,METAR KFOK 062353Z 21003KT 10SM CLR 06/01 A3009 RMK AO2 SLP189 T00560011 10111 20056 53026
2026-04-06 22:53:00,METAR KFOK 062253Z 21005KT 10SM CLR 08/M04 A3006 RMK AO2 SLP180 T00831044
2026-04-06 21:53:00,METAR KFOK 062153Z 30012KT 10SM CLR 10/M06 A3003 RMK AO2 SLP170 T01001056
2026-04-06 20:53:00,METAR KFOK 062053Z 29015G25KT 10SM CLR 11/M05 A3001 RMK AO2 PK WND 30028/2043 SLP164 T01061050 56000
2026-04-06 19:53:00,METAR KFOK 061953Z 27008G19KT 10SM FEW060 11/M04 A3001 RMK AO2 SLP164 T01111039
2026-04-06 18:53:00,METAR KFOK 061853Z 29012G20KT 10SM CLR 11/M03 A3001 RMK AO2 PK WND 28028/1809 SLP163 T01061033
2026-04-06 17:53:00,METAR KFOK 061753Z 30014G20KT 10SM FEW050 10/M04 A3002 RMK AO2 SLP164 T01001039 10106 20056 56010
2026-04-06 16:53:00,METAR KFOK 061653Z 31015G24KT 10SM SCT050 09/M04 A3002 RMK AO2 SLP167 T00891044
2026-04-06 15:53:00,METAR KFOK 061553Z 28015G25KT 10SM BKN050 09/M04 A3004 RMK AO2 SLP171 T00891044
2026-04-06 14:53:00,METAR KFOK 061453Z 30012G21KT 10SM BKN049 07/M05 A3005 RMK AO2 PK WND 33026/1404 SLP175 T00671050 53010
2026-04-06 13:53:00,METAR KFOK 061353Z 33013G25KT 10SM SCT048 07/M04 A3003 RMK AO2 SLP171 T00721044
2026-04-06 12:53:00,METAR KFOK 061253Z 30013G19KT 10SM CLR 07/M04 A3002 RMK AO2 SLP166 T00671044
2026-04-06 11:53:00,METAR KFOK 061153Z 30011KT 10SM CLR 06/M04 A3002 RMK AO2 SLP164 70019 T00561039 10072 20044 53028
2026-04-06 10:53:00,METAR KFOK 061053Z 30011KT 10SM CLR 04/M04 A2999 RMK AO2 SLP156 T00441044
2026-04-06 09:53:00,METAR KFOK 060953Z AUTO 31009G20KT 10SM FEW043 04/M03 A2995 RMK AO2 PK WND 30026/0914 SLP142 T00441028
2026-04-06 08:53:00,METAR KFOK 060853Z AUTO 31016G25KT 10SM BKN055 06/M01 A2993 RMK AO2 SLP136 T00611006 53009
2026-04-06 07:53:00,METAR KFOK 060753Z AUTO 28007KT 10SM CLR 06/M01 A2991 RMK AO2 SLP130 T00561011
2026-04-06 06:53:00,METAR KFOK 060653Z AUTO 28007KT 10SM CLR 06/M01 A2991 RMK AO2 SLP127 T00611011
2026-04-06 05:53:00,METAR KFOK 060553Z AUTO 30010G18KT 10SM BKN060 07/01 A2991 RMK AO2 SLP127 T00720006 10106 20067 53010
2026-04-06 04:53:00,METAR KFOK 060453Z AUTO 29014G23KT 10SM FEW060 08/02 A2990 RMK AO2 SLP125 T00780022 401110050
2026-04-06 03:53:00,METAR KFOK 060353Z AUTO 31008KT 10SM OVC055 08/05 A2987 RMK AO2 SLP115 T00780050
2026-04-06 02:53:00,METAR KFOK 060253Z 33005KT 10SM OVC055 08/07 A2988 RMK AO2 SLP117 T00830067 51022
2026-04-06 02:03:00,SPECI KFOK 060203Z 34008KT 10SM SCT023 BKN038 08/07 A2987 RMK AO2 T00830067
2026-04-06 01:53:00,METAR KFOK 060153Z 34010KT 10SM BKN023 BKN029 OVC036 09/07 A2987 RMK AO2 PK WND 32030/0116 SLP115 T00890072
2026-04-06 01:32:00,SPECI KFOK 060132Z 35012G22KT 10SM SCT013 BKN023 OVC029 09/07 A2987 RMK AO2 PK WND 32030/0116 T00890072
2026-04-06 01:21:00,SPECI KFOK 060121Z 34016G30KT 10SM BKN013 BKN018 OVC060 09/08 A2986 RMK AO2 PK WND 32030/0116 T00940078
2026-04-06 01:06:00,SPECI KFOK 060106Z 30018G25KT 10SM BKN015 BKN021 BKN060 11/09 A2984 RMK AO2 T01060094
2026-04-06 00:53:00,METAR KFOK 060053Z 26004KT 6SM BR SCT015 SCT060 09/08 A2984 RMK AO2 SLP104 T00890083
2026-04-05 23:53:00,METAR KFOK 052353Z 21005KT 5SM BR FEW002 09/09 A2981 RMK AO2 SLP095 60012 T00940089 10111 20094 53013
2026-04-05 22:53:00,METAR KFOK 052253Z 25008KT 10SM FEW100 10/09 A2980 RMK AO2 RAE10 SLP091 P0000 T01000094
2026-04-05 22:40:00,SPECI KFOK 052240Z 24009KT 9SM SCT003 BKN100 10/09 A2980 RMK AO2 RAE10 P0000 T01000094
2026-04-05 22:08:00,SPECI KFOK 052208Z 23007KT 4SM -RA BR BKN002 OVC018 09/09 A2979 RMK AO2 P0000 T00940089
2026-04-05 21:53:00,METAR KFOK 052153Z 21007KT 2SM -RA BR OVC002 10/09 A2978 RMK AO2 SLP086 P0006 T01000094
2026-04-05 21:35:00,SPECI KFOK 052135Z 22005KT 1 1/2SM RA BR OVC002 10/10 A2978 RMK AO2 P0004 T01000100
2026-04-05 21:02:00,SPECI KFOK 052102Z 22005KT 2 1/2SM -RA BR BKN003 BKN060 OVC090 10/09 A2978 RMK AO2 P0000 T01000094
2026-04-05 20:53:00,METAR KFOK 052053Z 22005KT 2 1/2SM -RA BR SCT003 BKN060 OVC085 10/10 A2977 RMK AO2 RAB08 SLP082 P0004 60006 T01000100 56003
2026-04-05 20:48:00,SPECI KFOK 052048Z 23004KT 2 1/2SM -RA BR SCT003 BKN075 OVC090 10/10 A2977 RMK AO2 RAB08 P0003
2026-04-05 20:25:00,SPECI KFOK 052025Z 23004KT 2SM -RA BR OVC075 11/10 A2978 RMK AO2 RAB08 P0002 T01060100
2026-04-05 20:15:00,SPECI KFOK 052015Z 22006KT 3SM -RA BR FEW002 OVC070 11/10 A2979 RMK AO2 RAB08 P0001 T01060100
2026-04-05 20:08:00,SPECI KFOK 052008Z 23005KT 2 1/2SM -RA BR SCT002 OVC070 11/10 A2979 RMK AO2 RAB08 P0000 T01060100
2026-04-05 19:53:00,METAR KFOK 051953Z 22004KT 2 1/2SM BR BKN002 OVC070 11/10 A2978 RMK AO2 RAE18B21E35 SLP084 P0001 T01060100
2026-04-05 19:51:00,SPECI KFOK 051951Z 22004KT 2 1/2SM BR OVC002 11/10 A2978 RMK AO2 RAE18B21E35 P0001
2026-04-05 19:20:00,SPECI KFOK 051920Z 23004KT 3SM BR OVC002 10/09 A2981 RMK AO2 RAE18 P0001 T01000094
2026-04-05 19:04:00,SPECI KFOK 051904Z 23006KT 2SM -RA BR OVC002 09/09 A2983 RMK AO2 P0001 T00940094
2026-04-05 18:53:00,METAR KFOK 051853Z 22009G15KT 3SM -RA BR BKN002 OVC060 10/09 A2983 RMK AO2 RAE24B52 PRESRR SLP102 P0001 T01000094
2026-04-05 18:21:00,SPECI KFOK 051821Z 21005KT 5SM -RA BR BKN002 OVC050 11/11 A2980 RMK AO2 P0000 T01110106
2026-04-05 17:57:00,SPECI KFOK 051757Z 20005KT 7SM -RA SCT003 SCT029 OVC050 11/11 A2982 RMK AO2 P0000 T01110106
2026-04-05 17:53:00,METAR KFOK 051753Z 21006KT 4SM -RA BR BKN003 BKN029 OVC048 11/11 A2982 RMK AO2 PK WND 26027/1717 RAB20 PRESFR SLP099 P0007 60007 T01110106 10111 20100 56013
2026-04-05 17:51:00,SPECI KFOK 051751Z 23006KT 3SM -RA BR BKN003 BKN029 OVC048 11/11 A2983 RMK AO2 PK WND 26027/1717 RAB20 P0007
2026-04-05 17:39:00,SPECI KFOK 051739Z 23008KT 1 3/4SM RA BR OVC003 11/11 A2984 RMK AO2 PK WND 26027/1717 RAB20 P0005 T01110106
2026-04-05 17:25:00,SPECI KFOK 051725Z 26012G27KT 4SM -RA BR OVC002 11/11 A2985 RMK AO2 PK WND 26027/1717 RAB20 P0001 T01110106
2026-04-05 17:17:00,SPECI KFOK 051717Z 24018G27KT 2SM BR OVC002 11/11 A2985 RMK AO2 PK WND 26027/1717 T01110106
2026-04-05 17:13:00,SPECI KFOK 051713Z 25017G25KT 3/4SM BR VV002 11/11 A2985 RMK AO2 T01110106
2026-04-05 16:53:00,METAR KFOK 051653Z 24012KT 1/4SM FG VV002 11/10 A2983 RMK AO2 RAB02E34 SLP102 P0000 T01060100
2026-04-05 15:53:00,METAR KFOK 051553Z 22010G19KT 1/4SM FG VV002 11/10 A2984 RMK AO2 RAB09E18 SLP106 P0000 T01060100
2026-04-05 14:53:00,METAR KFOK 051453Z 22008KT 1/4SM FG VV002 10/10 A2986 RMK AO2 SLP112 T01000100 56020
2026-04-05 12:53:00,METAR KFOK 051253Z 23007G17KT 3SM BR OVC004 10/09 A2990 RMK AO2 SLP124 T01000094
2026-04-05 11:53:00,METAR KFOK 051153Z 20008KT 3SM BR OVC003 10/09 A2992 RMK AO2 SLP132 60000 T01000094 10100 20050 56015
2026-04-05 11:22:00,SPECI KFOK 051122Z 19008G14KT 6SM BR OVC002 09/09 A2993 RMK AO2 T00940094
2026-04-05 11:12:00,SPECI KFOK 051112Z 19008KT 2SM BR OVC002 09/09 A2993 RMK AO2 VIS 1V3 T00890089
2026-04-05 10:53:00,METAR KFOK 051053Z 18006KT 1/4SM FG VV002 08/08 A2994 RMK AO2 SLP138 T00830083
2026-04-05 10:48:00,SPECI KFOK 051048Z 18005KT 1/4SM FG VV002 08/08 A2994 RMK AO2
2026-04-05 10:37:00,SPECI KFOK 051037Z AUTO VRB06KT 1/2SM FG VV002 08/08 A2994 RMK AO2 T00780078
2026-04-05 10:20:00,SPECI KFOK 051020Z AUTO VRB06KT 1/4SM FG VV002 08/08 A2995 RMK AO2 T00780078
2026-04-05 09:53:00,METAR KFOK 050953Z AUTO 13007KT 1/2SM FG VV002 07/07 A2996 RMK AO2 SLP147 T00720067
2026-04-05 09:21:00,SPECI KFOK 050921Z AUTO VRB06KT 1/2SM FG VV002 06/06 A2999 RMK AO2 T00610061
2026-04-05 09:05:00,SPECI KFOK 050905Z AUTO 13006KT 1/4SM FG VV002 06/06 A3001 RMK AO2 T00610056
2026-04-05 08:53:00,METAR KFOK 050853Z AUTO 12007KT 1/2SM FG VV002 06/06 A3001 RMK AO2 SLP163 60000 T00610056 58030
2026-04-05 08:02:00,SPECI KFOK 050802Z AUTO 10007KT 3/4SM BR OVC002 06/06 A3005 RMK AO2 T00560056
2026-04-05 07:53:00,METAR KFOK 050753Z AUTO VRB05KT 1SM BR OVC002 06/05 A3006 RMK AO2 RAB22E32 SLP179 P0000 T00560050
2026-04-05 07:40:00,SPECI KFOK 050740Z AUTO 11006KT 2 1/2SM BR OVC002 06/05 A3007 RMK AO2 RAB22E32 P0000 T00560050
2026-04-05 07:31:00,SPECI KFOK 050731Z AUTO 09008KT 1 1/2SM -RA BR OVC002 06/05 A3008 RMK AO2 RAB22 P0000 T00560050
2026-04-05 07:16:00,SPECI KFOK 050716Z AUTO VRB05G16KT 3/4SM BR OVC002 06/05 A3009 RMK AO2 T00560050
2026-04-05 06:53:00,METAR KFOK 050653Z AUTO 10008G16KT 1SM BR OVC002 06/05 A3010 RMK AO2 SLP194 T00560050
2026-04-05 05:53:00,METAR KFOK 050553Z AUTO 11008G18KT 1 1/4SM BR OVC002 06/05 A3015 RMK AO2 SLP212 60000 T00560050 10056 20044 58024
2026-04-05 05:04:00,SPECI KFOK 050504Z AUTO 09010G19KT 1 3/4SM BR OVC003 05/04 A3019 RMK AO2 T00500044
2026-04-05 04:53:00,METAR KFOK 050453Z AUTO 10007KT 2SM BR OVC003 05/04 A3020 RMK AO2 RAB0357E06 SLP225 P0000 T00500044 402000044
2026-04-05 04:14:00,SPECI KFOK 050414Z AUTO 09008G23KT 060V130 2 1/2SM BR OVC004 05/04 A3021 RMK AO2 RAB0357E06 P0000 T00500039
2026-04-05 03:53:00,METAR KFOK 050353Z AUTO 10009G23KT 1 1/2SM BR OVC004 04/04 A3022 RMK AO2 SLP234 T00440039
2026-04-05 03:50:00,SPECI KFOK 050350Z AUTO 10010G23KT 1 1/2SM BR OVC005 04/04 A3023 RMK AO2
2026-04-05 03:16:00,SPECI KFOK 050316Z AUTO 08010G19KT 2 1/2SM BR OVC007 04/03 A3024 RMK AO2 CIG 006V010 PRESFR T00440033
2026-04-05 03:04:00,SPECI KFOK 050304Z AUTO 09009G20KT 3SM BR OVC009 04/03 A3026 RMK AO2 T00440028
2026-04-05 02:53:00,METAR KFOK 050253Z 10010G24KT 060V140 7SM OVC010 05/03 A3027 RMK AO2 SLP250 T00500028 58004
2026-04-05 01:53:00,METAR KFOK 050153Z 09010G27KT 060V130 10SM BKN011 OVC030 05/02 A3028 RMK AO2 PK WND 10029/0111 SLP253 T00500022
2026-04-05 00:53:00,METAR KFOK 050053Z 08013G22KT 10SM OVC035 06/02 A3028 RMK AO2 PK WND 10031/0000 SLP255 T00560022
2026-04-04 23:53:00,METAR KFOK 042353Z 09016G28KT 10SM OVC036 06/02 A3027 RMK AO2 PK WND 12028/2312 SLP252 T00560022 10139 20056 50001
2026-04-04 22:53:00,METAR KFOK 042253Z 09011G23KT 10SM OVC043 06/03 A3029 RMK AO2 PK WND 07027/2204 SLP259 T00610028
2026-04-04 21:53:00,METAR KFOK 042153Z 09013G27KT 070V130 10SM OVC043 07/03 A3029 RMK AO2 PK WND 06029/2057 SLP258 T00670033
2026-04-04 20:53:00,METAR KFOK 042053Z 10014G24KT 10SM OVC044 08/03 A3027 RMK AO2 PK WND 10032/2039 SLP251 T00780033 50006
2026-04-04 19:53:00,METAR KFOK 041953Z 09013G26KT 10SM OVC047 09/04 A3028 RMK AO2 PK WND 10030/1856 SLP253 T00890044
2026-04-04 18:53:00,METAR KFOK 041853Z 10016G33KT 10SM BKN050 OVC060 11/06 A3027 RMK AO2 PK WND 08033/1850 SLP250 T01060056
2026-04-04 17:53:00,METAR KFOK 041753Z 10013G28KT 10SM FEW120 14/06 A3025 RMK AO2 PK WND 12030/1722 SLP244 T01390061 10200 20094 50008
2026-04-04 16:53:00,METAR KFOK 041653Z 10013G29KT 070V130 10SM CLR 16/07 A3026 RMK AO2 PK WND 07030/1643 SLP245 T01560072
2026-04-04 15:53:00,METAR KFOK 041553Z 06010KT 10SM BKN120 18/06 A3024 RMK AO2 SLP238 T01830061
2026-04-04 14:53:00,METAR KFOK 041453Z 04010KT 10SM OVC110 18/09 A3023 RMK AO2 SLP236 T01780094 51021
2026-04-04 13:53:00,METAR KFOK 041353Z 02012G18KT 10SM CLR 17/11 A3021 RMK AO2 SLP229 T01720106
2026-04-04 12:53:00,METAR KFOK 041253Z 01007KT 10SM CLR 16/12 A3019 RMK AO2 SLP224 T01560117
2026-04-04 11:53:00,METAR KFOK 041153Z 00000KT 6SM BR CLR 09/08 A3017 RMK AO2 SLP216 T00940083 10100 20067 53023
2026-04-04 10:53:00,METAR KFOK 041053Z 00000KT 3SM BR CLR 07/07 A3013 RMK AO2 SLP204 T00720067
2026-04-04 09:53:00,METAR KFOK 040953Z AUTO 00000KT 6SM BR CLR 08/08 A3012 RMK AO2 SLP199 T00830078
2026-04-04 08:53:00,METAR KFOK 040853Z AUTO 23003KT 7SM CLR 09/08 A3010 RMK AO2 SLP194 T00890078 55010
2026-04-04 07:53:00,METAR KFOK 040753Z AUTO 22006KT 7SM CLR 09/08 A3010 RMK AO2 SLP193 T00940083
2026-04-04 06:53:00,METAR KFOK 040653Z AUTO 22005KT 8SM BKN100 09/08 A3011 RMK AO2 SLP197 T00940083
2026-04-04 05:53:00,METAR KFOK 040553Z AUTO 23009G15KT 9SM CLR 10/08 A3013 RMK AO2 SLP203 T01000083 10117 20089 55005
2026-04-04 04:53:00,METAR KFOK 040453Z AUTO 23009KT 10SM CLR 11/09 A3013 RMK AO2 SLP202 T01060089 401330039
2026-04-04 03:53:00,METAR KFOK 040353Z AUTO 23008KT 10SM CLR 11/09 A3014 RMK AO2 SLP205 T01060089
2026-04-04 02:53:00,METAR KFOK 040253Z 23013G23KT 10SM FEW120 12/09 A3015 RMK AO2 SLP208 T01170094 50001
2026-04-04 01:53:00,METAR KFOK 040153Z 23011KT 10SM BKN120 10/09 A3015 RMK AO2 SLP210 T01000094
2026-04-04 01:24:00,SPECI KFOK 040124Z 24010G17KT 10SM SCT004 OVC120 09/09 A3015 RMK AO2 T00940089
2026-04-04 00:53:00,METAR KFOK 040053Z 21007KT 3SM BR OVC002 09/09 A3014 RMK AO2 SLP208 T00890089
2026-04-03 23:53:00,METAR KFOK 032353Z 22007KT 1/2SM FG OVC002 09/08 A3015 RMK AO2 SLP209 T00890083 10128 20089 58009
2026-04-03 23:31:00,SPECI KFOK 032331Z 21006KT 1/2SM FG OVC002 09/09 A3015 RMK AO2 T00890089
2026-04-03 23:24:00,SPECI KFOK 032324Z 22005KT 1 3/4SM BR OVC002 09/08 A3016 RMK AO2 T00890083
2026-04-03 22:53:00,METAR KFOK 032253Z 23006KT 1/2SM FG OVC003 09/08 A3016 RMK AO2 SLP214 T00890083
2026-04-03 22:00:00,SPECI KFOK 032200Z 23007KT 5SM BR OVC003 10/08 A3017 RMK AO2 T01000083
2026-04-03 21:53:00,METAR KFOK 032153Z 24009KT 2SM BR OVC003 10/08 A3017 RMK AO2 SLP216 T01000083
2026-04-03 21:45:00,SPECI KFOK 032145Z 23007KT 2SM BR OVC003 09/08 A3017 RMK AO2 T00940083
2026-04-03 21:25:00,SPECI KFOK 032125Z 24009G17KT 1SM BR OVC004 10/09 A3017 RMK AO2 T01000089
2026-04-03 21:12:00,SPECI KFOK 032112Z 23008KT 2SM BR OVC004 10/09 A3017 RMK AO2 T01000089
2026-04-03 20:53:00,METAR KFOK 032053Z 21006KT 10SM OVC005 09/08 A3018 RMK AO2 SLP219 T00940078 56020
2026-04-03 20:12:00,SPECI KFOK 032012Z 22011G20KT 10SM OVC009 11/08 A3018 RMK AO2 T01110083
2026-04-03 19:53:00,METAR KFOK 031953Z 22007KT 10SM OVC010 12/08 A3019 RMK AO2 SLP224 T01170083
2026-04-03 19:22:00,SPECI KFOK 031922Z 23009KT 10SM OVC009 12/09 A3020 RMK AO2 T01220089
2026-04-03 18:53:00,METAR KFOK 031853Z 22009KT 190V250 10SM OVC011 12/08 A3021 RMK AO2 SLP230 T01220083
2026-04-03 18:31:00,SPECI KFOK 031831Z 22010G17KT 10SM OVC014 12/08 A3022 RMK AO2 T01220083
2026-04-03 18:22:00,SPECI KFOK 031822Z 22009G18KT 10SM BKN015 13/08 A3022 RMK AO2 T01280083
2026-04-03 17:53:00,METAR KFOK 031753Z 23011G19KT 10SM CLR 13/09 A3023 RMK AO2 SLP238 T01330089 10133 20050 56021
2026-04-03 16:53:00,METAR KFOK 031653Z 21007KT 10SM FEW007 12/08 A3025 RMK AO2 SLP243 T01170083
2026-04-03 16:37:00,SPECI KFOK 031637Z 22009KT 10SM SCT006 12/09 A3025 RMK AO2 T01170089
2026-04-03 16:01:00,SPECI KFOK 031601Z 24010G17KT 10SM OVC005 11/09 A3027 RMK AO2 T01060094
2026-04-03 15:53:00,METAR KFOK 031553Z 23008KT 10SM OVC004 11/09 A3027 RMK AO2 SLP252 T01060094
2026-04-03 15:13:00,SPECI KFOK 031513Z 22007KT 3SM BR OVC003 09/09 A3029 RMK AO2 T00940089
2026-04-03 15:05:00,SPECI KFOK 031505Z 22005KT 2 1/2SM BR OVC002 09/09 A3029 RMK AO2 T00940089
2026-04-03 14:53:00,METAR KFOK 031453Z 24005KT 1 1/2SM BR OVC002 09/09 A3029 RMK AO2 SLP259 T00940089 56016
2026-04-03 14:43:00,SPECI KFOK 031443Z VRB03KT 1SM BR OVC002 09/08 A3029 RMK AO2 T00890083
2026-04-03 13:53:00,METAR KFOK 031353Z 13003KT 3/4SM BR OVC002 07/07 A3031 RMK AO2 SLP265 T00720067
2026-04-03 12:53:00,METAR KFOK 031253Z 00000KT 3/4SM BR OVC004 06/06 A3032 RMK AO2 SLP266 T00610056
2026-04-03 12:32:00,SPECI KFOK 031232Z 13004KT 1SM BR OVC004 06/06 A3032 RMK AO2 T00610056
2026-04-03 11:53:00,METAR KFOK 031153Z 11004KT 3/4SM BR OVC003 05/04 A3034 RMK AO2 SLP275 T00500044 10050 20044 57011
2026-04-03 11:22:00,SPECI KFOK 031122Z 12006KT 1 1/2SM BR BKN003 OVC010 05/04 A3034 RMK AO2 T00500044
2026-04-03 08:53:00,METAR KFOK 030853Z AUTO 09005KT 2SM BR OVC004 04/04 A3037 RMK AO2 SLP286 T00440039 56019
2026-04-03 08:49:00,SPECI KFOK 030849Z AUTO 09005KT 1 3/4SM BR OVC004 04/04 A3038 RMK AO2
2026-04-03 05:53:00,METAR KFOK 030553Z AUTO 08004KT 4SM BR BKN005 OVC009 04/03 A3044 RMK AO2 SLP309 T00440033 10050 20039 58011
2026-04-03 05:26:00,SPECI KFOK 030526Z AUTO 07004KT 3SM BR BKN005 OVC009 04/03 A3044 RMK AO2 T00390033
2026-04-03 04:53:00,METAR KFOK 030453Z AUTO 07005KT 2 1/2SM BR OVC005 04/03 A3046 RMK AO2 SLP314 T00390033 400830039
2026-04-03 03:53:00,METAR KFOK 030353Z AUTO 08006KT 2 1/2SM BR OVC006 04/03 A3047 RMK AO2 SLP318 T00390028
2026-04-03 03:42:00,SPECI KFOK 030342Z AUTO 08007KT 040V100 2 1/2SM BR OVC006 04/03 A3047 RMK AO2 CIG 005V009 T00390028
2026-04-03 02:53:00,METAR KFOK 030253Z 08008KT 3SM BR OVC006 04/03 A3048 RMK AO2 CIG 005V010 SLP320 T00390028 50002
2026-04-03 01:53:00,METAR KFOK 030153Z 07007KT 5SM BR OVC008 04/03 A3048 RMK AO2 SLP321 T00390028
2026-04-03 01:20:00,SPECI KFOK 030120Z VRB05G19KT 6SM BR OVC009 04/03 A3048 RMK AO2 T00440028
2026-04-03 00:53:00,METAR KFOK 030053Z 07008G17KT 10SM OVC011 04/02 A3048 RMK AO2 SLP323 T00440022
2026-04-02 23:53:00,METAR KFOK 022353Z 08009G18KT 10SM OVC012 05/02 A3047 RMK AO2 SLP318 T00500022 10061 20050 56006
2026-04-02 22:53:00,METAR KFOK 022253Z 06010G16KT 10SM OVC013 05/02 A3048 RMK AO2 SLP321 T00500022
2026-04-02 21:53:00,METAR KFOK 022153Z 07010G18KT 10SM OVC012 05/02 A3048 RMK AO2 SLP321 T00500022
2026-04-02 20:53:00,METAR KFOK 022053Z 06012G17KT 10SM OVC013 06/03 A3049 RMK AO2 SLP324 T00560028 53003
2026-04-02 19:53:00,METAR KFOK 021953Z 08009G18KT 10SM OVC014 06/03 A3046 RMK AO2 SLP315 T00560028
2026-04-02 18:53:00,METAR KFOK 021853Z 07012G19KT 030V100 10SM OVC013 06/03 A3047 RMK AO2 SLP317 T00560028
2026-04-02 17:53:00,METAR KFOK 021753Z 07010G23KT 10SM OVC014 06/03 A3048 RMK AO2 SLP321 60000 T00610028 10061 20050 53002
2026-04-02 16:53:00,METAR KFOK 021653Z 06013G23KT 10SM OVC012 06/03 A3046 RMK AO2 SLP316 T00560028
2026-04-02 15:53:00,METAR KFOK 021553Z 07012G19KT 10SM OVC011 05/03 A3047 RMK AO2 RAE03 SLP317 P0000 T00500028
2026-04-02 14:53:00,METAR KFOK 021453Z 06010G20KT 10SM -RA OVC011 05/03 A3047 RMK AO2 RAB44 SLP319 P0000 60000 T00500033 51021
2026-04-02 13:53:00,METAR KFOK 021353Z 07014G22KT 10SM OVC013 05/02 A3045 RMK AO2 SLP310 T00500022
2026-04-02 13:38:00,SPECI KFOK 021338Z 07008G18KT 10SM OVC014 06/03 A3045 RMK AO2 T00560028
2026-04-02 12:53:00,METAR KFOK 021253Z 06011G24KT 10SM OVC021 05/02 A3043 RMK AO2 PK WND 06028/1233 SLP306 T00500022
2026-04-02 11:53:00,METAR KFOK 021153Z 06012G26KT 10SM BKN015 OVC025 05/03 A3041 RMK AO2 PK WND 06026/1148 SLP297 60013 70014 T00500028 10083 20050 53021
2026-04-02 10:53:00,METAR KFOK 021053Z 06012G23KT 10SM OVC012 06/03 A3037 RMK AO2 SLP286 T00560033
2026-04-02 09:53:00,METAR KFOK 020953Z AUTO 06010G22KT 10SM OVC011 06/04 A3037 RMK AO2 RAE13 SLP284 P0000 T00560039
2026-04-02 08:53:00,METAR KFOK 020853Z AUTO 07008G19KT 10SM -RA OVC012 06/04 A3035 RMK AO2 RAB41 SLP277 P0001 60013 T00610044 53007
2026-04-02 07:53:00,METAR KFOK 020753Z AUTO 07008G16KT 10SM OVC012 07/06 A3033 RMK AO2 RAE44 SLP270 P0001 T00670056
2026-04-02 06:53:00,METAR KFOK 020653Z AUTO 08015G26KT 7SM RA BKN014 OVC020 07/06 A3031 RMK AO2 PK WND 07026/0652 SLP263 P0011 T00720056
2026-04-02 06:09:00,SPECI KFOK 020609Z AUTO 05010G20KT 7SM -RA BKN015 OVC031 08/06 A3033 RMK AO2 P0002 T00780061
2026-04-02 05:53:00,METAR KFOK 020553Z AUTO 06013G21KT 9SM -RA FEW015 OVC031 08/06 A3033 RMK AO2 PK WND 05026/0505 RAB49 SLP269 P0001 60001 T00830056 10156 20083 53010
2026-04-02 04:53:00,METAR KFOK 020453Z AUTO 05014G25KT 10SM FEW014 OVC030 08/06 A3029 RMK AO2 SLP258 T00830056 401720083
2026-04-02 04:48:00,SPECI KFOK 020448Z AUTO 05012G23KT 10SM SCT014 OVC030 08/06 A3030 RMK AO2
2026-04-02 04:04:00,SPECI KFOK 020404Z AUTO 05011KT 10SM BKN014 OVC027 09/07 A3030 RMK AO2 T00890067
2026-04-02 03:53:00,METAR KFOK 020353Z AUTO 05011G18KT 10SM SCT014 OVC026 09/07 A3030 RMK AO2 SLP258 T00940067
2026-04-02 02:53:00,METAR KFOK 020253Z 07009G19KT 10SM FEW014 OVC023 10/07 A3027 RMK AO2 SLP250 60000 T01000072 51030
2026-04-02 02:28:00,SPECI KFOK 020228Z 06010G17KT 10SM SCT014 OVC022 11/08 A3027 RMK AO2 T01110083
2026-04-02 01:53:00,METAR KFOK 020153Z 06011G21KT 10SM SCT009 BKN014 OVC019 12/09 A3025 RMK AO2 SLP244 T01220094
2026-04-02 00:58:00,SPECI KFOK 020058Z 05009KT 10SM BKN012 BKN020 OVC037 13/11 A3022 RMK AO2 T01330111
2026-04-02 00:53:00,METAR KFOK 020053Z 03009KT 10SM SCT015 BKN037 OVC046 14/11 A3022 RMK AO2 RAE14 SLP233 P0000 T01390106
2026-04-01 23:53:00,METAR KFOK 012353Z 36011KT 10SM -RA FEW038 BKN048 OVC060 16/11 A3018 RMK AO2 RAB51 SLP219 P0000 60000 T01560106 10172 20128 53031
2026-04-01 22:53:00,METAR KFOK 012253Z 36010KT 10SM BKN050 OVC075 17/13 A3015 RMK AO2 SLP207 T01670128
2026-04-01 21:53:00,METAR KFOK 012153Z 00000KT 10SM OVC050 14/10 A3011 RMK AO2 SLP197 T01440100
2026-04-01 20:53:00,METAR KFOK 012053Z 19007KT 10SM FEW060 SCT090 OVC110 14/09 A3009 RMK AO2 SLP188 T01390094 53007
2026-04-01 19:53:00,METAR KFOK 011953Z 21006KT 7SM OVC100 15/10 A3007 RMK AO2 SLP182 T01500100
2026-04-01 18:53:00,METAR KFOK 011853Z 23004KT 9SM OVC095 14/10 A3006 RMK AO2 SLP179 T01390100
2026-04-01 17:53:00,METAR KFOK 011753Z 23007KT 10SM BKN110 14/10 A3007 RMK AO2 SLP180 T01390100 10150 20117 53011
2026-04-01 16:53:00,METAR KFOK 011653Z 21007KT 8SM BKN110 12/09 A3005 RMK AO2 SLP176 T01220089
2026-04-01 15:53:00,METAR KFOK 011553Z 20007KT 8SM FEW095 14/10 A3004 RMK AO2 SLP172 T01390100
2026-04-01 14:53:00,METAR KFOK 011453Z 21008KT 8SM CLR 14/10 A3003 RMK AO2 SLP169 T01440100 53013
2026-04-01 13:53:00,METAR KFOK 011353Z 22006KT 7SM SCT080 13/10 A3002 RMK AO2 SLP163 T01330100
2026-04-01 12:53:00,METAR KFOK 011253Z 23006KT 6SM BR FEW090 SCT120 12/10 A3001 RMK AO2 SLP160 T01220100
2026-04-01 11:53:00,METAR KFOK 011153Z 24007KT 8SM BKN120 12/09 A2999 RMK AO2 SLP157 T01170094 10122 20100 53021
2026-04-01 10:53:00,METAR KFOK 011053Z AUTO 21005KT 9SM BKN095 OVC110 11/09 A2997 RMK AO2 SLP149 T01110089
2026-04-01 09:53:00,METAR KFOK 010953Z AUTO 24011G22KT 9SM OVC110 11/09 A2995 RMK AO2 SLP141 T01110089
2026-04-01 08:53:00,METAR KFOK 010853Z AUTO 23011G26KT 8SM CLR 11/08 A2993 RMK AO2 PK WND 25026/0850 SLP136 T01060083 57000
2026-04-01 07:53:00,METAR KFOK 010753Z AUTO 23014G24KT 8SM FEW100 11/08 A2994 RMK AO2 SLP136 T01060083
2026-04-01 06:53:00,METAR KFOK 010653Z AUTO 23011G23KT 8SM CLR 11/08 A2993 RMK AO2 SLP134 T01110083
2026-04-01 05:53:00,METAR KFOK 010553Z AUTO 23012G24KT 8SM CLR 11/08 A2993 RMK AO2 SLP135 T01060083 10111 20100 56011
2026-04-01 04:53:00,METAR KFOK 010453Z AUTO 22010G21KT 8SM CLR 11/08 A2994 RMK AO2 SLP138 T01060083 401560083
2026-04-01 03:53:00,METAR KFOK 010353Z AUTO 23010G20KT 9SM CLR 11/08 A2995 RMK AO2 SLP141 T01060083
2026-04-01 02:53:00,METAR KFOK 010253Z 23010G18KT 8SM CLR 10/08 A2997 RMK AO2 SLP146 T01000078 50005
2026-04-01 01:53:00,METAR KFOK 010153Z 23010G18KT 8SM CLR 10/08 A2998 RMK AO2 SLP151 T01000078
2026-04-01 00:53:00,METAR KFOK 010053Z 23012G26KT 9SM CLR 11/08 A2997 RMK AO2 PK WND 24026/0048 SLP149 T01110083
2026-03-31 23:53:00,METAR KFOK 312353Z 23008G17KT 9SM CLR 11/08 A2995 RMK AO2 SLP143 T01060083 10144 20100 53004
2026-03-31 22:53:00,METAR KFOK 312253Z 22012G22KT 9SM CLR 11/08 A2994 RMK AO2 SLP139 T01060083
2026-03-31 21:53:00,METAR KFOK 312153Z 22010G22KT 9SM CLR 11/08 A2994 RMK AO2 SLP139 T01110078
2026-03-31 20:53:00,METAR KFOK 312053Z 22011G20KT 10SM CLR 12/08 A2994 RMK AO2 SLP139 T01170083 57030
2026-03-31 19:53:00,METAR KFOK 311953Z 22013G20KT 10SM CLR 13/08 A2997 RMK AO2 SLP149 T01280083
2026-03-31 18:53:00,METAR KFOK 311853Z 23010KT 10SM FEW080 14/08 A3000 RMK AO2 SLP158 T01390083
2026-03-31 17:53:00,METAR KFOK 311753Z 22008G20KT 10SM OVC085 13/08 A3003 RMK AO2 SLP169 T01330083 10156 20100 56006
2026-03-31 16:53:00,METAR KFOK 311653Z 22013G25KT 10SM CLR 14/08 A3004 RMK AO2 PK WND 24028/1614 SLP170 T01390083
2026-03-31 15:53:00,METAR KFOK 311553Z 24014G22KT 10SM CLR 14/08 A3003 RMK AO2 SLP167 T01390078
2026-03-31 14:53:00,METAR KFOK 311453Z 23010G25KT 10SM CLR 14/08 A3005 RMK AO2 SLP174 T01390078 58004
2026-03-31 13:53:00,METAR KFOK 311353Z 22012G25KT 10SM CLR 12/07 A3005 RMK AO2 SLP177 T01220072
2026-03-31 12:53:00,METAR KFOK 311253Z 22010G20KT 10SM SCT100 10/07 A3006 RMK AO2 SLP179 T01000067
2026-03-31 11:53:00,METAR KFOK 311153Z 23010G19KT 10SM FEW120 11/07 A3006 RMK AO2 SLP179 T01060072 10106 20083 53000
2026-03-31 10:53:00,METAR KFOK 311053Z 23008G15KT 9SM BKN065 BKN075 OVC090 09/07 A3007 RMK AO2 SLP181 T00940072
2026-03-31 09:53:00,METAR KFOK 310953Z AUTO 22006KT 8SM BKN085 OVC110 09/07 A3005 RMK AO2 SLP175 T00890067
2026-03-31 08:53:00,METAR KFOK 310853Z AUTO 23004KT 8SM BKN070 BKN090 08/07 A3006 RMK AO2 SLP179 T00830067 56012
2026-03-31 07:53:00,METAR KFOK 310753Z AUTO 22006KT 9SM CLR 08/06 A3006 RMK AO2 SLP179 T00830061
2026-03-31 06:53:00,METAR KFOK 310653Z AUTO 22008G16KT 9SM CLR 08/06 A3007 RMK AO2 SLP184 T00830061
2026-03-31 05:53:00,METAR KFOK 310553Z AUTO 23009KT 9SM BKN085 OVC100 09/06 A3009 RMK AO2 SLP191 60000 T00890061 10106 20089 58011
2026-03-31 04:53:00,METAR KFOK 310453Z AUTO 23009G18KT 10SM BKN080 BKN120 09/06 A3011 RMK AO2 SLP196 T00890061 401280056
2026-03-31 03:53:00,METAR KFOK 310353Z AUTO 22009G16KT 9SM BKN085 OVC110 09/06 A3012 RMK AO2 SLP200 T00890061
2026-03-31 02:53:00,METAR KFOK 310253Z 23010G19KT 10SM FEW085 OVC110 09/06 A3013 RMK AO2 SLP202 60000 T00940061 51017
2026-03-31 01:53:00,METAR KFOK 310153Z 23011G21KT 10SM OVC095 10/07 A3013 RMK AO2 SLP202 T01000067
2026-03-31 00:53:00,METAR KFOK 310053Z 24012G20KT 10SM CLR 11/07 A3012 RMK AO2 PK WND 24031/0035 RAE2357 SLP199 P0000 T01060067
2026-03-30 23:53:00,METAR KFOK 302353Z 24014G22KT 8SM -RA FEW070 BKN100 09/07 A3008 RMK AO2 RAB44 SLP184 P0000 60000 T00890067 10128 20089 58007
2026-03-30 22:53:00,METAR KFOK 302253Z 23013G22KT 10SM CLR 11/07 A3011 RMK AO2 PK WND 25026/2202 SLP196 T01060067
2026-03-30 21:53:00,METAR KFOK 302153Z 24013G23KT 10SM CLR 12/07 A3010 RMK AO2 PK WND 24028/2109 SLP193 T01170067
2026-03-30 20:53:00,METAR KFOK 302053Z 24015G24KT 10SM CLR 12/07 A3009 RMK AO2 SLP191 T01170067 56021
2026-03-30 19:53:00,METAR KFOK 301953Z 23013G24KT 10SM CLR 12/07 A3010 RMK AO2 SLP195 T01220067
2026-03-30 18:53:00,METAR KFOK 301853Z 23015G27KT 10SM CLR 12/07 A3013 RMK AO2 PK WND 24031/1805 SLP202 T01220067
2026-03-30 17:53:00,METAR KFOK 301753Z 24011G22KT 10SM CLR 12/06 A3016 RMK AO2 PK WND 23027/1731 SLP212 T01170061 10122 20078 56023 $
2026-03-30 16:53:00,METAR KFOK 301653Z 23012G23KT 10SM CLR 11/06 A3018 RMK AO2 PK WND 24031/1626 SLP219 T01110061
2026-03-30 15:53:00,METAR KFOK 301553Z 22012G32KT 10SM BKN110 10/06 A3020 RMK AO2 PK WND 25032/1545 SLP227 T01000061
2026-03-30 14:53:00,METAR KFOK 301453Z 22013G27KT 10SM BKN090 OVC120 09/06 A3023 RMK AO2 PK WND 23031/1417 SLP235 T00940056 56010
2026-03-30 13:53:00,METAR KFOK 301353Z 23016G26KT 10SM BKN095 09/06 A3023 RMK AO2 PK WND 24029/1329 SLP238 T00940056
2026-03-30 12:53:00,METAR KFOK 301253Z 23013G24KT 10SM CLR 09/05 A3024 RMK AO2 PK WND 23026/1222 SLP242 T00890050
2026-03-30 11:53:00,METAR KFOK 301153Z 23012G21KT 10SM CLR 08/05 A3025 RMK AO2 SLP245 T00780050 10078 20056 56013
2026-03-30 10:53:00,METAR KFOK 301053Z AUTO 23011G17KT 10SM CLR 07/05 A3026 RMK AO2 SLP246 T00720050
2026-03-30 09:53:00,METAR KFOK 300953Z AUTO 22007KT 10SM CLR 06/04 A3027 RMK AO2 SLP251 T00610044
2026-03-30 08:53:00,METAR KFOK 300853Z AUTO 21007KT 10SM CLR 07/04 A3029 RMK AO2 SLP258 T00670044 56032
2026-03-30 07:53:00,METAR KFOK 300753Z AUTO 20005KT 10SM CLR 06/04 A3032 RMK AO2 SLP267 T00610039
2026-03-30 06:53:00,METAR KFOK 300653Z AUTO 20007KT 10SM CLR 07/04 A3035 RMK AO2 SLP278 T00670039
2026-03-30 05:53:00,METAR KFOK 300553Z AUTO 22005KT 10SM CLR 06/03 A3039 RMK AO2 SLP290 T00610033 10067 20056 58014
2026-03-30 04:53:00,METAR KFOK 300453Z AUTO 23007KT 10SM BKN120 06/03 A3041 RMK AO2 SLP297 T00610028 400831106
2026-03-30 03:53:00,METAR KFOK 300353Z AUTO 22010G18KT 10SM SCT120 06/02 A3042 RMK AO2 SLP302 T00610022
2026-03-30 02:53:00,METAR KFOK 300253Z 21008G17KT 10SM CLR 06/01 A3043 RMK AO2 SLP304 T00610011 58006
2026-03-30 01:53:00,METAR KFOK 300153Z 22008G17KT 10SM CLR 06/01 A3043 RMK AO2 SLP305 T00560006
2026-03-30 00:53:00,METAR KFOK 300053Z 22008G19KT 10SM CLR 06/00 A3045 RMK AO2 SLP310 T00560000
2026-03-29 23:53:00,METAR KFOK 292353Z 22010G18KT 10SM CLR 06/M01 A3045 RMK AO2 SLP310 T00561006 10083 20056 58007
2026-03-29 22:53:00,METAR KFOK 292253Z 22009KT 10SM CLR 06/M01 A3047 RMK AO2 SLP317 T00611011
2026-03-29 21:53:00,METAR KFOK 292153Z 23013G22KT 10SM CLR 07/M01 A3046 RMK AO2 SLP317 T00721006
2026-03-29 20:53:00,METAR KFOK 292053Z 22012G25KT 10SM CLR 08/M02 A3047 RMK AO2 PK WND 20026/2018 SLP317 T00781017 56023
2026-03-29 19:53:00,METAR KFOK 291953Z 22012G22KT 10SM CLR 08/M02 A3048 RMK AO2 PK WND 25026/1917 SLP321 T00781022
2026-03-29 18:53:00,METAR KFOK 291853Z 23016G25KT 10SM CLR 08/M04 A3050 RMK AO2 PK WND 19027/1836 SLP329 T00781044
2026-03-29 17:53:00,METAR KFOK 291753Z 20010G24KT 10SM CLR 07/M01 A3053 RMK AO2 SLP340 T00721011 10072 21072 58031
2026-03-29 16:53:00,METAR KFOK 291653Z 20011G17KT 10SM CLR 07/M03 A3057 RMK AO2 SLP353 T00671028
2026-03-29 15:53:00,METAR KFOK 291553Z 19010G16KT 10SM CLR 07/M05 A3060 RMK AO2 SLP363 T00671050
2026-03-29 14:53:00,METAR KFOK 291453Z 20010G18KT 10SM CLR 06/M07 A3063 RMK AO2 SLP371 T00561067 52003
2026-03-29 13:53:00,METAR KFOK 291353Z VRB05KT 10SM CLR 05/M09 A3063 RMK AO2 SLP371 T00501089
2026-03-29 12:53:00,METAR KFOK 291253Z 19006KT 10SM FEW080 04/M07 A3062 RMK AO2 SLP368 T00391072
2026-03-29 11:53:00,METAR KFOK 291153Z 00000KT 10SM FEW100 M07/M11 A3062 RMK AO2 SLP368 T10721106 11072 21106 53013
2026-03-29 10:53:00,METAR KFOK 291053Z 00000KT 10SM FEW100 M09/M13 A3060 RMK AO2 SLP364 T10941128
2026-03-29 09:53:00,METAR KFOK 290953Z AUTO 00000KT 10SM CLR M10/M13 A3059 RMK AO2 SLP358 T11001133
2026-03-29 08:53:00,METAR KFOK 290853Z AUTO 00000KT 10SM CLR M10/M13 A3058 RMK AO2 SLP355 T11001133 53004
2026-03-29 07:53:00,METAR KFOK 290753Z AUTO 00000KT 10SM CLR M10/M13 A3057 RMK AO2 SLP353 T11001133
2026-03-29 06:53:00,METAR KFOK 290653Z AUTO 00000KT 10SM CLR M09/M13 A3057 RMK AO2 SLP352 T10891128
2026-03-29 05:53:00,METAR KFOK 290553Z AUTO 00000KT 10SM CLR M09/M13 A3057 RMK AO2 SLP351 T10891133 10011 21089 51016
2026-03-29 04:53:00,METAR KFOK 290453Z AUTO 00000KT 10SM CLR M07/M13 A3056 RMK AO2 SLP348 T10721128 400501078
2026-03-29 03:53:00,METAR KFOK 290353Z AUTO 00000KT 10SM CLR M08/M13 A3054 RMK AO2 SLP343 T10781128
2026-03-29 02:53:00,METAR KFOK 290253Z 00000KT 10SM CLR M06/M12 A3052 RMK AO2 SLP335 T10611122 51022
2026-03-29 01:53:00,METAR KFOK 290153Z 00000KT 10SM CLR M04/M13 A3051 RMK AO2 SLP331 T10441128
2026-03-29 00:53:00,METAR KFOK 290053Z 00000KT 10SM CLR M04/M11 A3049 RMK AO2 SLP325 T10391111
2026-03-28 23:53:00,METAR KFOK 282353Z 33003KT 10SM CLR 02/M13 A3045 RMK AO2 SLP313 T00171128 10050 20017 53013
2026-03-28 22:53:00,METAR KFOK 282253Z 31008KT 10SM FEW080 03/M13 A3044 RMK AO2 SLP307 T00331128
2026-03-28 21:53:00,METAR KFOK 282153Z 31010KT 10SM CLR 04/M14 A3042 RMK AO2 SLP301 T00391139
2026-03-28 20:53:00,METAR KFOK 282053Z 33008G16KT 10SM FEW070 04/M14 A3042 RMK AO2 SLP300 T00441139 53001
2026-03-28 19:53:00,METAR KFOK 281953Z 30010G21KT 10SM CLR 04/M14 A3041 RMK AO2 PK WND 30027/1914 SLP300 T00391139
2026-03-28 18:53:00,METAR KFOK 281853Z 31014G26KT 10SM CLR 04/M14 A3041 RMK AO2 PK WND 29030/1756 SLP299 T00441144
2026-03-28 17:53:00,METAR KFOK 281753Z 33011G24KT 10SM CLR 04/M14 A3041 RMK AO2 SLP300 T00391144 10044 20006 50001
2026-03-28 16:53:00,METAR KFOK 281653Z 35008G24KT 10SM CLR 03/M15 A3042 RMK AO2 PK WND 33027/1605 SLP303 T00281150
2026-03-28 15:53:00,METAR KFOK 281553Z 34012G21KT 310V010 10SM CLR 03/M13 A3042 RMK AO2 SLP301 T00281128
2026-03-28 14:53:00,METAR KFOK 281453Z 36014G21KT 10SM CLR 02/M11 A3041 RMK AO2 SLP299 T00171106 51029
2026-03-28 13:53:00,METAR KFOK 281353Z 36012G24KT 10SM OVC070 02/M11 A3039 RMK AO2 SLP293 T00171111
2026-03-28 12:53:00,METAR KFOK 281253Z 35012G19KT 10SM OVC070 02/M11 A3035 RMK AO2 SLP279 T00171106
2026-03-28 11:53:00,METAR KFOK 281153Z 01011KT 10SM OVC070 01/M11 A3032 RMK AO2 SLP269 T00111111 10017 21033 53034
2026-03-28 10:53:00,METAR KFOK 281053Z 02009KT 10SM OVC070 00/M11 A3029 RMK AO2 SLP256 T00001111
2026-03-28 09:53:00,METAR KFOK 280953Z AUTO 02006KT 10SM BKN070 00/M10 A3025 RMK AO2 SLP243 T00001100
2026-03-28 08:53:00,METAR KFOK 280853Z AUTO 02009KT 10SM BKN035 01/M09 A3022 RMK AO2 SLP235 T00111094 53013
2026-03-28 08:27:00,SPECI KFOK 280827Z AUTO 02009KT 10SM SCT024 OVC038 02/M09 A3021 RMK AO2 T00171089
2026-03-28 07:53:00,METAR KFOK 280753Z AUTO 36008KT 10SM BKN016 BKN020 OVC037 01/M03 A3020 RMK AO2 SLP227 T00061028
2026-03-28 06:53:00,METAR KFOK 280653Z AUTO 00000KT 10SM BKN015 M02/M04 A3019 RMK AO2 SLP222 T10171039
2026-03-28 05:53:00,METAR KFOK 280553Z AUTO 00000KT 10SM OVC065 M03/M06 A3020 RMK AO2 SLP227 T10331056 10056 21044 51008
2026-03-28 04:53:00,METAR KFOK 280453Z AUTO 00000KT 10SM CLR M04/M07 A3020 RMK AO2 SLP226 T10441067 401281044
2026-03-28 03:53:00,METAR KFOK 280353Z AUTO 00000KT 10SM CLR M04/M07 A3019 RMK AO2 SLP222 T10391067
2026-03-28 02:53:00,METAR KFOK 280253Z 00000KT 10SM CLR M03/M06 A3018 RMK AO2 SLP219 T10281061 51020
2026-03-28 01:53:00,METAR KFOK 280153Z 00000KT 10SM CLR M02/M06 A3016 RMK AO2 SLP215 T10171056
2026-03-28 00:53:00,METAR KFOK 280053Z 00000KT 10SM CLR 01/M04 A3016 RMK AO2 SLP214 T00111039
2026-03-27 23:53:00,METAR KFOK 272353Z 00000KT 10SM CLR 06/M05 A3012 RMK AO2 SLP199 T00561050 10100 20056 51021
2026-03-27 22:53:00,METAR KFOK 272253Z 01008KT 10SM SCT120 07/M06 A3009 RMK AO2 SLP191 T00671061
2026-03-27 21:53:00,METAR KFOK 272153Z 01007KT 10SM CLR 08/M06 A3008 RMK AO2 SLP188 T00781061
2026-03-27 20:53:00,METAR KFOK 272053Z 01010KT 10SM SCT110 08/M04 A3005 RMK AO2 SLP177 T00831039 51005
2026-03-27 19:53:00,METAR KFOK 271953Z 01011G17KT 10SM BKN120 08/M03 A3005 RMK AO2 SLP177 T00831033
2026-03-27 18:53:00,METAR KFOK 271853Z 36010KT 10SM FEW049 BKN120 09/M02 A3005 RMK AO2 SLP175 T00891017
2026-03-27 17:53:00,METAR KFOK 271753Z 36010G20KT 10SM OVC120 10/M02 A3004 RMK AO2 PK WND 34027/1711 SLP172 T01001022 10122 20089 51023
2026-03-27 16:53:00,METAR KFOK 271653Z 35017G23KT 10SM FEW095 OVC110 10/M01 A3002 RMK AO2 PK WND 35028/1607 SLP164 T01001006
2026-03-25 14:53:00,METAR KFOK 251453Z 09004KT 10SM CLR 07/M03 A3043 RMK AO2 SLP304 T00671033 50004
2026-03-25 13:53:00,METAR KFOK 251353Z 02006KT 10SM CLR 06/M04 A3043 RMK AO2 SLP304 T00561039
2026-03-25 12:53:00,METAR KFOK 251253Z 33005KT 10SM CLR 05/M02 A3042 RMK AO2 SLP303 T00501022
2026-03-25 11:53:00,METAR KFOK 251153Z 00000KT 10SM CLR 00/M02 A3041 RMK AO2 SLP299 T00001022 10039 21022 53014
2026-03-25 10:53:00,METAR KFOK 251053Z 00000KT 10SM CLR M02/M03 A3040 RMK AO2 SLP294 T10221033
2026-03-25 09:53:00,METAR KFOK 250953Z AUTO 27003KT 10SM CLR 01/M02 A3038 RMK AO2 SLP289 T00111022
2026-03-25 08:53:00,METAR KFOK 250853Z AUTO 25007KT 10SM CLR 02/M01 A3037 RMK AO2 SLP285 T00221011 55000
2026-03-25 07:53:00,METAR KFOK 250753Z AUTO 24011KT 10SM CLR 03/00 A3035 RMK AO2 SLP279 T00330000
2026-03-25 06:53:00,METAR KFOK 250653Z AUTO 23011G19KT 10SM CLR 04/M01 A3035 RMK AO2 SLP278 T00391006
2026-03-25 05:53:00,METAR KFOK 250553Z AUTO 23007G16KT 10SM FEW120 04/M01 A3037 RMK AO2 SLP286 T00391011 10039 20022 56003
2026-03-25 04:53:00,METAR KFOK 250453Z AUTO 22010G16KT 10SM CLR 03/M02 A3038 RMK AO2 SLP287 T00331022 400781006
2026-03-25 03:53:00,METAR KFOK 250353Z AUTO 22006KT 10SM CLR 03/M04 A3037 RMK AO2 SLP286 T00331039
2026-03-25 02:53:00,METAR KFOK 250253Z 22007G16KT 10SM CLR 03/M04 A3038 RMK AO2 SLP288 T00331039 51005
2026-03-25 01:53:00,METAR KFOK 250153Z 21005G15KT 10SM CLR 03/M04 A3038 RMK AO2 SLP287 T00331039
2026-03-25 00:53:00,METAR KFOK 250053Z 22007KT 10SM CLR 03/M04 A3038 RMK AO2 SLP289 T00281044
2026-03-24 23:53:00,METAR KFOK 242353Z 19004KT 10SM CLR 03/M07 A3037 RMK AO2 SLP283 T00281067 10078 20028 50007
2026-03-24 22:53:00,METAR KFOK 242253Z 23009G17KT 10SM CLR 03/M06 A3037 RMK AO2 SLP284 T00331056
2026-03-24 21:53:00,METAR KFOK 242153Z 23009G21KT 10SM CLR 05/M06 A3036 RMK AO2 SLP282 T00501056
2026-03-24 20:53:00,METAR KFOK 242053Z 21009G16KT 10SM CLR 06/M06 A3035 RMK AO2 SLP276 T00561061 55011
2026-03-24 19:53:00,METAR KFOK 241953Z 20010KT 10SM CLR 07/M07 A3034 RMK AO2 SLP275 T00671067
2026-03-24 18:53:00,METAR KFOK 241853Z 36015KT 10SM CLR 07/M10 A3035 RMK AO2 SLP276 T00671100
2026-03-24 17:53:00,METAR KFOK 241753Z 35015KT 10SM CLR 07/M10 A3038 RMK AO2 SLP287 T00671100 10067 20011 58003
2026-03-24 16:53:00,METAR KFOK 241653Z 31013G20KT 10SM CLR 06/M09 A3040 RMK AO2 SLP294 T00611089
2026-03-24 15:53:00,METAR KFOK 241553Z 36014G21KT 10SM CLR 06/M08 A3039 RMK AO2 SLP292 T00561078
2026-03-24 14:53:00,METAR KFOK 241453Z 35011G19KT 10SM CLR 04/M07 A3039 RMK AO2 SLP290 T00441067 53016
2026-03-24 13:53:00,METAR KFOK 241353Z 35014G21KT 10SM CLR 03/M07 A3038 RMK AO2 SLP287 T00331067
2026-03-24 12:53:00,METAR KFOK 241253Z 34014G24KT 10SM CLR 02/M07 A3034 RMK AO2 SLP275 T00221067
2026-03-24 11:53:00,METAR KFOK 241153Z 34011G18KT 10SM CLR 01/M07 A3034 RMK AO2 SLP274 70006 T00111067 10011 21006 53025
2026-03-24 10:53:00,METAR KFOK 241053Z 34007KT 10SM CLR M01/M07 A3031 RMK AO2 SLP264 T10061067
2026-03-24 09:53:00,METAR KFOK 240953Z AUTO 34007KT 10SM CLR 00/M07 A3029 RMK AO2 SLP257 T00001067
2026-03-24 08:53:00,METAR KFOK 240853Z AUTO 34009KT 10SM CLR 00/M06 A3027 RMK AO2 SLP249 T00001061 53019
2026-03-24 07:53:00,METAR KFOK 240753Z AUTO 34012KT 10SM CLR 00/M06 A3024 RMK AO2 SLP240 T00001061
2026-03-24 06:53:00,METAR KFOK 240653Z AUTO 34014G21KT 10SM CLR 01/M06 A3022 RMK AO2 PK WND 32028/0557 SLP235 T00061056
2026-03-24 05:53:00,METAR KFOK 240553Z AUTO 34012G21KT 10SM CLR 01/M04 A3021 RMK AO2 SLP230 T00111044 10033 20011 53024
2026-03-24 04:53:00,METAR KFOK 240453Z AUTO 34013G23KT 10SM BKN039 02/M04 A3019 RMK AO2 SLP222 T00171039 400890011
2026-03-24 03:53:00,METAR KFOK 240353Z AUTO 33015G25KT 10SM BKN034 02/M03 A3016 RMK AO2 SLP213 T00221028
2026-03-24 02:53:00,METAR KFOK 240253Z 33010G20KT 10SM OVC030 03/M02 A3014 RMK AO2 SLP206 T00281017 51030
2026-03-24 01:53:00,METAR KFOK 240153Z 33008KT 10SM OVC050 03/M01 A3011 RMK AO2 SLP198 T00281006
2026-03-24 00:53:00,METAR KFOK 240053Z 33009KT 10SM OVC040 03/01 A3009 RMK AO2 SLP191 T00330006
2026-03-24 00:06:00,SPECI KFOK 240006Z 33009KT 9SM FEW018 SCT029 OVC036 03/02 A3006 RMK AO2 T00330017
2026-03-23 23:53:00,METAR KFOK 232353Z 33007KT 8SM FEW010 BKN017 OVC038 03/02 A3005 RMK AO2 RAB17E44 SLP176 P0000 60000 T00330017 10039 20033 52042
2026-03-23 23:40:00,SPECI KFOK 232340Z 32007KT 7SM -RA SCT012 OVC017 03/02 A3004 RMK AO2 RAB17 P0000 T00330017
2026-03-23 23:29:00,SPECI KFOK 232329Z 32010KT 5SM -RA BR BKN012 OVC020 03/02 A3004 RMK AO2 RAB17 P0000 T00330022
2026-03-23 22:53:00,METAR KFOK 232253Z 32007KT 10SM OVC029 03/02 A3001 RMK AO2 SLP163 T00330017
2026-03-23 22:41:00,SPECI KFOK 232241Z 35006KT 10SM OVC029 03/02 A3000 RMK AO2 T00330017
2026-03-23 21:53:00,METAR KFOK 232153Z 36006KT 10SM FEW012 BKN037 OVC046 03/02 A2997 RMK AO2 RAE04 SLP147 P0000 T00330017
2026-03-23 21:44:00,SPECI KFOK 232144Z 35008KT 10SM FEW010 BKN029 OVC034 03/02 A2996 RMK AO2 RAE04 P0000 T00330017
2026-03-23 21:32:00,SPECI KFOK 232132Z 36009KT 10SM SCT008 BKN013 OVC030 03/02 A2996 RMK AO2 RAE04 P0000 T00330017
2026-03-23 20:53:00,METAR KFOK 232053Z 36008KT 7SM -RA OVC008 03/02 A2993 RMK AO2 RAB52 CIG 005V013 SLP134 P0000 60000 T00330017 53020
2026-03-23 20:33:00,SPECI KFOK 232033Z 01011G16KT 7SM BKN008 OVC014 03/02 A2992 RMK AO2 CIG 005V010 T00330022
2026-03-23 19:53:00,METAR KFOK 231953Z 34008KT 6SM BR BKN010 OVC014 04/02 A2990 RMK AO2 CIG 007V012 SLP124 T00390022
2026-03-23 19:24:00,SPECI KFOK 231924Z 36011KT 10SM BKN011 BKN019 OVC029 04/02 A2989 RMK AO2 T00390022
2026-03-23 19:04:00,SPECI KFOK 231904Z 34010KT 4SM BR BKN007 BKN014 OVC024 04/02 A2989 RMK AO2 T00390022
2026-03-23 19:00:00,SPECI KFOK 231900Z 35007KT 4SM BR BKN010 BKN013 OVC021 04/02 A2989 RMK AO2 PRESRR T00390022
2026-03-23 18:53:00,METAR KFOK 231853Z 36010KT 4SM BR BKN007 BKN010 OVC026 04/02 A2988 RMK AO2 RAB30E31 SLP118 P0000 T00390022
2026-03-23 18:48:00,SPECI KFOK 231848Z 36012G19KT 4SM BR BKN007 BKN010 OVC026 04/02 A2987 RMK AO2 RAB30E31 P0000
2026-03-23 17:53:00,METAR KFOK 231753Z 36008G17KT 5SM BR OVC010 04/02 A2987 RMK AO2 SLP114 60006 T00390022 10044 20033 53023 $
2026-03-23 17:17:00,SPECI KFOK 231717Z 36011G20KT 5SM BR OVC010 04/02 A2985 RMK AO2 T00390022 $
2026-03-23 17:00:00,SPECI KFOK 231700Z 01009G18KT 10SM OVC009 04/02 A2984 RMK AO2 CIG 007V012 T00390022
2026-03-23 16:53:00,METAR KFOK 231653Z 36009G19KT 10SM BKN010 OVC015 04/02 A2984 RMK AO2 RAB37E51 SLP104 P0000 T00390022
2026-03-23 16:25:00,SPECI KFOK 231625Z 01012G19KT 10SM BKN010 OVC015 04/02 A2983 RMK AO2 T00390022
2026-03-23 15:53:00,METAR KFOK 231553Z 36010KT 7SM OVC008 04/03 A2982 RMK AO2 RAE26 CIG 006V013 SLP099 P0001 T00390028
2026-03-23 15:11:00,SPECI KFOK 231511Z 01012G19KT 3SM -RA BR BKN008 BKN022 OVC029 04/03 A2980 RMK AO2 P0001 T00390028
2026-03-23 14:53:00,METAR KFOK 231453Z 01012G19KT 2 1/2SM -RA BR BKN009 BKN013 OVC026 03/02 A2980 RMK AO2 RAB24 SLP091 P0000 60005 T00330022 51023
2026-03-23 14:48:00,SPECI KFOK 231448Z 01011G20KT 2 1/2SM -RA BR BKN009 BKN013 OVC026 03/02 A2980 RMK AO2 RAB24 P0000
2026-03-23 14:32:00,SPECI KFOK 231432Z 01011G18KT 4SM -RA BR BKN009 OVC013 03/02 A2979 RMK AO2 RAB24 P0000 T00330022
2026-03-23 14:21:00,SPECI KFOK 231421Z 01012G16KT 10SM OVC011 03/02 A2980 RMK AO2 T00330022
2026-03-23 14:10:00,SPECI KFOK 231410Z 01008KT 10SM BKN009 OVC014 03/02 A2980 RMK AO2 T00330022
2026-03-23 13:53:00,METAR KFOK 231353Z 02014KT 10SM OVC012 03/02 A2979 RMK AO2 RAE03B21E43 SLP087 P0000 T00330022
2026-03-23 13:30:00,SPECI KFOK 231330Z 02014G20KT 10SM -RA OVC009 03/02 A2976 RMK AO2 RAE03B21 CIG 007V014 P0000 T00330022
2026-03-23 13:15:00,SPECI KFOK 231315Z 02014G19KT 10SM VCTS OVC009 04/02 A2975 RMK AO2 LTG DSNT SE RAE03 TS SE P0000 T00390022
2026-03-23 12:53:00,METAR KFOK 231253Z 03015G21KT 9SM -RA OVC009 04/03 A2973 RMK AO2 LTG DSNT E SLP067 P0005 T00390028
2026-03-23 11:53:00,METAR KFOK 231153Z 03016G23KT 7SM -RA BKN008 OVC012 04/03 A2974 RMK AO2 CIG 005V011 SLP072 P0005 60011 70032 T00440033 10089 20044 53007
2026-03-23 10:53:00,METAR KFOK 231053Z 04014G21KT 8SM -RA OVC008 05/04 A2972 RMK AO2 PK WND 04026/1017 SLP064 P0004 T00500039
2026-03-23 10:13:00,SPECI KFOK 231013Z AUTO 04014G21KT 10SM -RA BKN007 OVC070 06/04 A2972 RMK AO2 CIG 004V009 P0001 T00560044
2026-03-23 10:03:00,SPECI KFOK 231003Z AUTO 03013KT 10SM -RA SCT007 BKN060 OVC070 06/04 A2973 RMK AO2 P0000 T00560044
2026-03-23 09:53:00,METAR KFOK 230953Z AUTO 04017G25KT 10SM -RA BKN005 BKN060 OVC075 06/04 A2972 RMK AO2 RAB0856E23B41 SLP064 P0002 T00560044
2026-03-23 09:33:00,SPECI KFOK 230933Z AUTO 03014G20KT 10SM BKN005 BKN043 OVC055 06/05 A2973 RMK AO2 RAB0856E23 P0001 T00610050
2026-03-23 09:13:00,SPECI KFOK 230913Z AUTO 05011G24KT 7SM -RA SCT004 OVC042 07/06 A2971 RMK AO2 RAB0856 P0001 T00670056
2026-03-23 08:53:00,METAR KFOK 230853Z AUTO 04017G24KT 5SM BR OVC004 07/07 A2972 RMK AO2 RAE26 CIG 003V008 SLP064 P0000 60000 T00720067 58004
2026-03-23 07:53:00,METAR KFOK 230753Z AUTO 04010G19KT 5SM -RA BR OVC004 08/07 A2973 RMK AO2 RAB50 SLP066 P0000 T00780072
2026-03-23 06:53:00,METAR KFOK 230653Z AUTO 02003KT 10SM BKN004 OVC020 09/08 A2973 RMK AO2 SLP069 T00890083
2026-03-23 06:51:00,SPECI KFOK 230651Z AUTO 03003KT 9SM BKN004 OVC020 09/08 A2973 RMK AO2
2026-03-23 05:53:00,METAR KFOK 230553Z AUTO 00000KT 8SM SCT003 OVC023 08/08 A2970 RMK AO2 RAE36 SLP058 P0002 60021 T00830083 10089 20072 56023
2026-03-23 05:05:00,SPECI KFOK 230505Z AUTO 03008KT 6SM -RA BR BKN003 OVC100 08/08 A2973 RMK AO2 P0000 T00830078
2026-03-23 04:53:00,METAR KFOK 230453Z AUTO 36008KT 5SM -RA BR FEW003 OVC100 08/08 A2972 RMK AO2 SLP064 P0006 T00830078 400940050
2026-03-23 04:31:00,SPECI KFOK 230431Z AUTO 00000KT 4SM -RA BR BKN085 OVC100 08/08 A2973 RMK AO2 P0005 T00830078
2026-03-23 04:23:00,SPECI KFOK 230423Z AUTO 15003KT 2 1/2SM -RA BR OVC090 08/08 A2974 RMK AO2 P0005 T00830078
2026-03-23 03:53:00,METAR KFOK 230353Z AUTO 00000KT 3SM RA BR OVC090 08/07 A2973 RMK AO2 SLP069 P0007 T00780072
2026-03-23 02:53:00,METAR KFOK 230253Z 00000KT 4SM -RA BR OVC090 08/08 A2977 RMK AO2 RAB00 SLP081 P0004 60006 T00830078 50020
2026-03-23 01:53:00,METAR KFOK 230153Z 00000KT 5SM BR FEW075 OVC100 08/08 A2978 RMK AO2 RAB0059E53 SLP083 P0002 T00780078
2026-03-23 01:16:00,SPECI KFOK 230116Z 00000KT 7SM -RA SCT003 SCT065 OVC095 08/07 A2980 RMK AO2 RAB0059 P0001 T00780072
2026-03-23 00:53:00,METAR KFOK 230053Z 30004KT 8SM OVC002 08/07 A2979 RMK AO2 PRESRR SLP088 T00780067
2026-03-23 00:30:00,SPECI KFOK 230030Z 00000KT 4SM BR OVC002 07/07 A2972 RMK AO2 T00720067
2026-03-23 00:20:00,SPECI KFOK 230020Z 13003KT 2 1/2SM BR OVC002 07/07 A2971 RMK AO2 T00720067
2026-03-22 23:53:00,METAR KFOK 222353Z 13003KT 6SM BR BKN002 BKN120 08/07 A2971 RMK AO2 SLP061 T00780072 10094 20078 51003
2026-03-22 23:49:00,SPECI KFOK 222349Z 13004KT 6SM BR SCT002 BKN120 08/07 A2971 RMK AO2 PRESFR
2026-03-22 22:53:00,METAR KFOK 222253Z 00000KT 5SM BR OVC002 08/07 A2973 RMK AO2 SLP069 T00780072
2026-03-22 21:53:00,METAR KFOK 222153Z 21003KT 8SM OVC003 09/08 A2970 RMK AO2 SLP059 T00890078
2026-03-22 20:53:00,METAR KFOK 222053Z 25005KT 7SM OVC003 09/08 A2974 RMK AO2 SLP071 T00890083 58017
2026-03-22 20:35:00,SPECI KFOK 222035Z 28007KT 4SM BR OVC003 09/08 A2975 RMK AO2 T00890083
2026-03-22 20:20:00,SPECI KFOK 222020Z 21005KT 2SM BR OVC003 09/08 A2974 RMK AO2 T00890083
2026-03-22 19:53:00,METAR KFOK 221953Z 22005KT 4SM BR OVC004 09/08 A2974 RMK AO2 SLP072 T00940083
2026-03-22 18:53:00,METAR KFOK 221853Z 30006KT 10SM OVC008 08/07 A2979 RMK AO2 SLP087 T00830067
2026-03-22 18:27:00,SPECI KFOK 221827Z 26008KT 10SM OVC008 08/06 A2979 RMK AO2 T00830061
2026-03-22 18:01:00,SPECI KFOK 221801Z 20005G17KT 10SM BKN010 OVC015 08/06 A2978 RMK AO2 PRESFR T00830061
2026-03-22 17:53:00,METAR KFOK 221753Z 21009KT 10SM OVC015 08/06 A2979 RMK AO2 SLP087 T00830061 10089 20061 58029
2026-03-22 16:53:00,METAR KFOK 221653Z 19006KT 10SM OVC016 08/06 A2983 RMK AO2 SLP103 T00780056
2026-03-22 16:14:00,SPECI KFOK 221614Z 17010G18KT 10SM FEW015 OVC028 08/05 A2983 RMK AO2 T00830050
2026-03-22 15:53:00,METAR KFOK 221553Z 17009G23KT 10SM OVC032 08/05 A2984 RMK AO2 SLP104 T00830050
2026-03-22 15:40:00,SPECI KFOK 221540Z 17010G20KT 10SM SCT016 OVC032 09/05 A2984 RMK AO2 T00890050
2026-03-22 14:53:00,METAR KFOK 221453Z 17008G18KT 10SM OVC016 08/04 A2987 RMK AO2 SLP116 T00780044 58013
2026-03-22 13:53:00,METAR KFOK 221353Z 17009G17KT 10SM OVC018 07/04 A2989 RMK AO2 SLP123 T00670039
2026-03-22 12:53:00,METAR KFOK 221253Z 16009G17KT 10SM BKN017 OVC041 06/04 A2991 RMK AO2 SLP128 T00610039
2026-03-22 12:51:00,SPECI KFOK 221251Z 17007G17KT 10SM BKN017 OVC041 06/04 A2991 RMK AO2
2026-03-22 12:14:00,SPECI KFOK 221214Z 16009G18KT 10SM SCT017 BKN043 BKN100 06/03 A2994 RMK AO2 T00610033
2026-03-22 11:53:00,METAR KFOK 221153Z 15013G21KT 10SM OVC017 06/03 A2994 RMK AO2 SLP138 60000 T00610033 10061 20050 56030
2026-03-22 11:41:00,SPECI KFOK 221141Z 16009G19KT 10SM BKN017 BKN046 OVC090 06/03 A2996 RMK AO2 T00610028
2026-03-22 11:14:00,SPECI KFOK 221114Z 16011G23KT 10SM SCT016 OVC090 06/02 A2995 RMK AO2 T00560022
2026-03-22 10:53:00,METAR KFOK 221053Z 15010G18KT 10SM OVC016 06/02 A2996 RMK AO2 RAB0958E30 SLP146 P0000 T00560022
2026-03-22 09:53:00,METAR KFOK 220953Z AUTO 14010KT 10SM OVC017 06/02 A2998 RMK AO2 PRESFR SLP153 T00560017
2026-03-22 08:53:00,METAR KFOK 220853Z AUTO 13006KT 10SM OVC022 06/02 A3003 RMK AO2 SLP169 T00560022 53003
2026-03-22 07:53:00,METAR KFOK 220753Z AUTO 13006KT 10SM OVC025 05/03 A3000 RMK AO2 SLP160 T00500028
2026-03-22 07:24:00,SPECI KFOK 220724Z AUTO 13006KT 10SM BKN023 OVC100 06/03 A3002 RMK AO2 T00560033
2026-03-22 06:53:00,METAR KFOK 220653Z AUTO 13008KT 10SM OVC110 05/03 A3001 RMK AO2 SLP162 T00500033
2026-03-22 05:53:00,METAR KFOK 220553Z AUTO 13006KT 10SM BKN110 05/03 A3002 RMK AO2 SLP166 T00500033 10083 20050 53003
2026-03-22 04:53:00,METAR KFOK 220453Z AUTO 13005G18KT 10SM BKN120 06/03 A3000 RMK AO2 SLP157 T00560033 401220017
2026-03-22 04:17:00,SPECI KFOK 220417Z AUTO 11006KT 10SM FEW006 05/03 A2998 RMK AO2 T00500033
2026-03-22 03:53:00,METAR KFOK 220353Z AUTO 12008KT 10SM BKN007 06/04 A2998 RMK AO2 SLP152 T00560039
2026-03-22 03:45:00,SPECI KFOK 220345Z AUTO 11008KT 10SM BKN007 06/04 A2999 RMK AO2 PRESFR T00560039
2026-03-22 03:27:00,SPECI KFOK 220327Z AUTO 10007KT 070V140 10SM FEW007 06/04 A3001 RMK AO2 T00560039
2026-03-22 02:53:00,METAR KFOK 220253Z 11008KT 10SM CLR 07/02 A3001 RMK AO2 SLP163 T00670022 51011
2026-03-22 01:53:00,METAR KFOK 220153Z 02003KT 10SM CLR 06/M02 A3000 RMK AO2 SLP161 T00611017
2026-03-22 00:53:00,METAR KFOK 220053Z 03005KT 10SM CLR 07/M02 A2999 RMK AO2 SLP155 T00721017
2026-03-21 23:53:00,METAR KFOK 212353Z 03006KT 10SM CLR 08/M02 A2998 RMK AO2 SLP152 T00831022 10122 20083 51017
2026-03-21 22:53:00,METAR KFOK 212253Z 35010G18KT 10SM CLR 09/M02 A2997 RMK AO2 SLP148 T00891022
2026-03-21 21:53:00,METAR KFOK 212153Z 36006KT 10SM CLR 10/M02 A2995 RMK AO2 SLP142 T01001022
2026-03-21 20:53:00,METAR KFOK 212053Z 34014G20KT 10SM CLR 12/M02 A2993 RMK AO2 SLP135 T01171022 53015
2026-03-21 19:53:00,METAR KFOK 211953Z 33015G23KT 10SM CLR 12/M01 A2991 RMK AO2 SLP128 T01171006
2026-03-21 18:53:00,METAR KFOK 211853Z 35015G23KT 10SM CLR 12/00 A2988 RMK AO2 SLP119 T01170000
2026-03-21 17:53:00,METAR KFOK 211753Z 32014G25KT 10SM CLR 12/00 A2988 RMK AO2 PK WND 35027/1737 SLP120 T01170000 10122 20061 50003
2026-03-21 16:53:00,METAR KFOK 211653Z 36014G22KT 10SM CLR 12/02 A2989 RMK AO2 SLP121 T01220017
2026-03-21 15:53:00,METAR KFOK 211553Z 02013G22KT 10SM FEW027 12/04 A2988 RMK AO2 SLP119 T01170039
2026-03-21 14:53:00,METAR KFOK 211453Z 36014G21KT 10SM CLR 12/05 A2988 RMK AO2 SLP117 T01170050 53018
2026-03-21 13:53:00,METAR KFOK 211353Z 34013G22KT 10SM SCT030 11/06 A2986 RMK AO2 SLP110 T01060056
2026-03-21 12:53:00,METAR KFOK 211253Z 35009KT 10SM FEW003 08/07 A2982 RMK AO2 SLP099 T00830072
2026-03-21 12:48:00,SPECI KFOK 211248Z 34008KT 9SM SCT003 08/07 A2982 RMK AO2
2026-03-21 12:11:00,SPECI KFOK 211211Z 31004KT 3SM BR BKN002 OVC060 07/06 A2981 RMK AO2 T00670061
2026-03-21 12:05:00,SPECI KFOK 211205Z 33003KT 1 1/4SM BR BKN002 OVC060 07/06 A2981 RMK AO2 T00670061
2026-03-21 11:53:00,METAR KFOK 211153Z 00000KT 1/2SM FG VV002 06/06 A2980 RMK AO2 SLP091 70021 T00610056 10061 20017 53016
2026-03-21 11:26:00,SPECI KFOK 211126Z 32003KT 1/4SM FG VV002 06/06 A2979 RMK AO2 T00560056
2026-03-21 11:14:00,SPECI KFOK 211114Z 35003KT 3/4SM BR OVC002 06/05 A2979 RMK AO2 T00560050
2026-03-21 11:09:00,SPECI KFOK 211109Z 34004KT 2 1/2SM BR OVC002 06/05 A2978 RMK AO2 VIS 1V5 CIG 002V005 T00560050
2026-03-21 10:53:00,METAR KFOK 211053Z 33004KT 8SM OVC005 06/05 A2978 RMK AO2 CIG 003V008 SLP084 T00560050
2026-03-21 10:18:00,SPECI KFOK 211018Z AUTO 34007KT 7SM BKN007 05/05 A2978 RMK AO2 T00500050
2026-03-21 09:59:00,SPECI KFOK 210959Z AUTO 34005KT 3SM BR FEW004 SCT085 02/02 A2976 RMK AO2 T00170017
2026-03-21 09:53:00,METAR KFOK 210953Z AUTO 36004KT 1 3/4SM BR FEW004 BKN085 02/02 A2975 RMK AO2 VIS 1V3 SLP075 T00220022
2026-03-21 09:17:00,SPECI KFOK 210917Z AUTO 00000KT 3/4SM BR FEW004 BKN090 03/03 A2974 RMK AO2 T00330033
2026-03-21 09:13:00,SPECI KFOK 210913Z AUTO 00000KT 1 3/4SM BR FEW050 SCT090 04/04 A2974 RMK AO2 T00390039
2026-03-21 08:53:00,METAR KFOK 210853Z AUTO 00000KT 5SM BR BKN050 OVC090 04/04 A2975 RMK AO2 SLP075 T00440039 55008
2026-03-21 07:53:00,METAR KFOK 210753Z AUTO 22003KT 6SM BR CLR 05/04 A2975 RMK AO2 SLP074 T00500044
2026-03-21 07:26:00,SPECI KFOK 210726Z AUTO 22005KT 8SM FEW012 FEW027 06/05 A2975 RMK AO2 T00560050
2026-03-21 06:53:00,METAR KFOK 210653Z AUTO 23004KT 9SM FEW014 BKN027 06/05 A2976 RMK AO2 SLP078 T00610050
2026-03-21 06:13:00,SPECI KFOK 210613Z AUTO 24009G17KT 8SM SCT005 BKN038 06/06 A2976 RMK AO2 T00610056
2026-03-21 05:53:00,METAR KFOK 210553Z AUTO 24010G19KT 7SM OVC004 06/06 A2978 RMK AO2 SLP083 60021 T00610056 10067 20061 56023
2026-03-21 05:09:00,SPECI KFOK 210509Z AUTO 24013G23KT 8SM OVC004 06/06 A2978 RMK AO2 T00610056
2026-03-21 04:53:00,METAR KFOK 210453Z AUTO 23010G18KT 8SM OVC005 07/06 A2979 RMK AO2 RAE47 SLP088 P0002 T00670056 400891006
2026-03-21 04:16:00,SPECI KFOK 210416Z AUTO 21010G19KT 7SM -RA BKN005 BKN047 OVC060 06/06 A2980 RMK AO2 P0001 T00610056
2026-03-21 04:01:00,SPECI KFOK 210401Z AUTO 20010KT 5SM -RA BR FEW005 SCT050 OVC065 06/06 A2981 RMK AO2 P0001 T00610056
2026-03-21 03:53:00,METAR KFOK 210353Z AUTO 20007KT 6SM -RA BR FEW049 OVC065 06/05 A2981 RMK AO2 SLP096 P0003 T00610050
2026-03-21 02:53:00,METAR KFOK 210253Z 21010G18KT 6SM -RA BR OVC060 07/05 A2985 RMK AO2 SLP107 P0005 60016 T00670050 58010
2026-03-21 01:53:00,METAR KFOK 210153Z 22008G15KT 8SM -RA OVC060 07/05 A2988 RMK AO2 SLP118 P0006 T00670050
2026-03-21 00:53:00,METAR KFOK 210053Z 21010G17KT 6SM -RA BR OVC060 07/05 A2988 RMK AO2 RAB00 SLP118 P0005 T00670050
2026-03-20 23:53:00,METAR KFOK 202353Z 22009G21KT 10SM SCT075 OVC090 07/04 A2988 RMK AO2 SLP117 T00670039 10089 20067 55004
2026-03-20 22:53:00,METAR KFOK 202253Z 21012G19KT 10SM BKN110 07/04 A2986 RMK AO2 SLP113 T00670039
2026-03-20 21:53:00,METAR KFOK 202153Z 20010G25KT 10SM CLR 07/03 A2986 RMK AO2 PK WND 20032/2055 SLP113 T00720033
2026-03-20 20:53:00,METAR KFOK 202053Z 20017G29KT 10SM CLR 08/02 A2989 RMK AO2 PK WND 18029/2009 SLP121 T00780022 56048
2026-03-20 19:53:00,METAR KFOK 201953Z 19010G24KT 160V230 10SM CLR 09/01 A2993 RMK AO2 PK WND 18028/1916 SLP136 T00890011
2026-03-20 18:53:00,METAR KFOK 201853Z 20014G26KT 10SM CLR 09/02 A2998 RMK AO2 PK WND 20026/1846 SLP153 T00890017
2026-03-20 17:53:00,METAR KFOK 201753Z 21015G24KT 10SM CLR 09/03 A3003 RMK AO2 PK WND 18028/1731 SLP169 T00890028 10089 20039 58030
2026-03-20 16:53:00,METAR KFOK 201653Z 19011G23KT 10SM CLR 08/02 A3007 RMK AO2 SLP183 T00830022
2026-03-20 15:53:00,METAR KFOK 201553Z 21012G20KT 10SM BKN055 08/01 A3011 RMK AO2 SLP195 T00780011
2026-03-20 14:53:00,METAR KFOK 201453Z 21010G18KT 10SM CLR 07/02 A3012 RMK AO2 SLP200 T00720017 58014
2026-03-20 13:53:00,METAR KFOK 201353Z 22009G17KT 10SM CLR 06/02 A3014 RMK AO2 SLP206 T00610017
2026-03-20 12:53:00,METAR KFOK 201253Z 23008KT 10SM CLR 06/02 A3015 RMK AO2 SLP210 T00560022
2026-03-20 11:53:00,METAR KFOK 201153Z VRB04KT 10SM CLR 04/02 A3016 RMK AO2 SLP214 T00390022 10039 20022 53007
2026-03-20 10:53:00,METAR KFOK 201053Z 22004KT 10SM CLR 03/01 A3014 RMK AO2 SLP205 T00280011
2026-03-20 09:53:00,METAR KFOK 200953Z AUTO 24005KT 10SM FEW055 02/01 A3013 RMK AO2 SLP204 T00220011
2026-03-20 08:53:00,METAR KFOK 200853Z AUTO 23006KT 10SM BKN060 03/01 A3014 RMK AO2 SLP206 T00330011 58022
2026-03-20 07:53:00,METAR KFOK 200753Z AUTO 23007KT 10SM OVC065 03/01 A3016 RMK AO2 SLP212 T00330011
2026-03-20 06:53:00,METAR KFOK 200653Z AUTO 22005KT 10SM BKN070 03/01 A3019 RMK AO2 SLP222 T00330006
2026-03-20 05:53:00,METAR KFOK 200553Z AUTO 20003KT 10SM BKN065 OVC085 03/00 A3020 RMK AO2 SLP228 T00280000 10028 21033 56006
2026-03-20 04:53:00,METAR KFOK 200453Z AUTO 15003KT 10SM OVC080 M01/M02 A3021 RMK AO2 SLP230 T10061022 400501094
2026-03-20 03:53:00,METAR KFOK 200353Z AUTO 13003KT 10SM OVC080 M01/M03 A3021 RMK AO2 SLP231 T10111033
2026-03-20 02:53:00,METAR KFOK 200253Z AUTO 00000KT 10SM OVC080 M01/M03 A3022 RMK AO2 SLP235 T10111028 50002
2026-03-20 01:53:00,METAR KFOK 200153Z 00000KT 10SM OVC075 M02/M03 A3023 RMK AO2 SLP236 T10221033
2026-03-20 00:53:00,METAR KFOK 200053Z 00000KT 10SM CLR M03/M04 A3023 RMK AO2 SLP238 T10281044
2026-03-19 23:53:00,METAR KFOK 192353Z 00000KT 10SM FEW050 M01/M02 A3022 RMK AO2 SLP233 T10111022 10044 21011 53003
2026-03-19 22:53:00,METAR KFOK 192253Z 25005KT 10SM OVC065 03/00 A3021 RMK AO2 SLP229 T00330000
2026-03-19 21:53:00,METAR KFOK 192153Z VRB03KT 10SM FEW018 OVC060 04/01 A3020 RMK AO2 SLP227 T00390006
2026-03-19 21:42:00,SPECI KFOK 192142Z 19005KT 10SM SCT018 OVC060 04/01 A3020 RMK AO2 T00390006
2026-03-19 21:35:00,SPECI KFOK 192135Z 16005KT 10SM BKN017 OVC060 04/00 A3020 RMK AO2 T00390000
2026-03-19 20:53:00,METAR KFOK 192053Z 16006KT 10SM FEW017 OVC065 04/M01 A3021 RMK AO2 SLP230 T00441006 57026
2026-03-19 20:25:00,SPECI KFOK 192025Z 17007KT 10SM SCT020 OVC070 04/M01 A3022 RMK AO2 T00441006
2026-03-19 19:53:00,METAR KFOK 191953Z 18006KT 10SM BKN020 OVC070 04/M01 A3024 RMK AO2 SLP239 T00441011
2026-03-19 18:53:00,METAR KFOK 191853Z 16007KT 10SM OVC022 04/M02 A3026 RMK AO2 SLP246 T00391017
2026-03-19 18:35:00,SPECI KFOK 191835Z 16007KT 130V200 10SM BKN022 OVC055 04/M02 A3026 RMK AO2 T00441017
2026-03-19 18:25:00,SPECI KFOK 191825Z 19008KT 10SM SCT020 BKN055 OVC075 04/M02 A3027 RMK AO2 T00391017
2026-03-19 17:53:00,METAR KFOK 191753Z 19006KT 10SM BKN022 OVC075 04/M02 A3029 RMK AO2 SLP256 T00391017 10050 21039 56017
2026-03-19 16:53:00,METAR KFOK 191653Z 15007KT 10SM BKN022 OVC050 04/M02 A3031 RMK AO2 SLP262 T00391017
2026-03-19 15:53:00,METAR KFOK 191553Z 15008KT 10SM BKN020 BKN065 OVC080 04/M02 A3031 RMK AO2 SLP264 T00441017
2026-03-19 14:53:00,METAR KFOK 191453Z 11006KT 10SM BKN020 OVC065 03/M02 A3033 RMK AO2 SLP272 T00331022 51003
2026-03-19 13:53:00,METAR KFOK 191353Z 14007G14KT 110V170 10SM BKN110 03/M03 A3034 RMK AO2 SLP273 T00331033
2026-03-19 12:53:00,METAR KFOK 191253Z 08004KT 10SM CLR 02/M05 A3033 RMK AO2 SLP270 T00171050
2026-03-19 11:53:00,METAR KFOK 191153Z 00000KT 10SM CLR M04/M07 A3034 RMK AO2 SLP275 T10391067 11039 21094 55005
2026-03-19 10:53:00,METAR KFOK 191053Z 00000KT 10SM CLR M04/M07 A3034 RMK AO2 SLP274 T10441072
2026-03-19 09:53:00,METAR KFOK 190953Z AUTO 00000KT 10SM FEW037 M04/M07 A3035 RMK AO2 SLP276 T10441072
2026-03-19 08:53:00,METAR KFOK 190853Z AUTO 00000KT 10SM OVC120 M04/M07 A3036 RMK AO2 SLP280 T10441072 55010
2026-03-19 07:53:00,METAR KFOK 190753Z AUTO 00000KT 10SM OVC120 M06/M08 A3035 RMK AO2 SLP278 T10561083
2026-03-19 06:53:00,METAR KFOK 190653Z AUTO 00000KT 10SM OVC110 M08/M10 A3037 RMK AO2 SLP283 T10781100
2026-03-19 05:53:00,METAR KFOK 190553Z AUTO 00000KT 10SM CLR M09/M12 A3038 RMK AO2 SLP289 T10891117 11039 21089 56010
2026-03-19 04:53:00,METAR KFOK 190453Z AUTO 00000KT 10SM CLR M08/M11 A3039 RMK AO2 SLP290 T10831111 400111089
2026-03-19 03:53:00,METAR KFOK 190353Z AUTO 00000KT 10SM CLR M08/M12 A3040 RMK AO2 SLP296 T10831117
2026-03-19 02:53:00,METAR KFOK 190253Z 00000KT 10SM CLR M08/M11 A3042 RMK AO2 SLP300 T10781111 50002
2026-03-19 01:53:00,METAR KFOK 190153Z 00000KT 10SM CLR M07/M11 A3042 RMK AO2 SLP302 T10671106
2026-03-19 00:53:00,METAR KFOK 190053Z 00000KT 10SM CLR M05/M10 A3042 RMK AO2 SLP302 T10501100
2026-03-18 23:53:00,METAR KFOK 182353Z 00000KT 10SM CLR M04/M09 A3041 RMK AO2 SLP298 T10391094 10011 21039 56005
2026-03-18 22:53:00,METAR KFOK 182253Z 22003KT 10SM CLR M01/M10 A3041 RMK AO2 SLP299 T10111100
2026-03-18 21:53:00,METAR KFOK 182153Z 22008KT 10SM CLR 00/M10 A3042 RMK AO2 SLP301 T00001100
2026-03-18 20:53:00,METAR KFOK 182053Z VRB05KT 10SM CLR 01/M11 A3043 RMK AO2 SLP303 T00061106 52001
2026-03-18 19:53:00,METAR KFOK 181953Z VRB05KT 10SM CLR 01/M12 A3042 RMK AO2 SLP303 T00061117
2026-03-18 18:53:00,METAR KFOK 181853Z 20009KT 10SM CLR 00/M12 A3042 RMK AO2 SLP303 T00001122
2026-03-18 17:53:00,METAR KFOK 181753Z 19004KT 10SM CLR 00/M15 A3042 RMK AO2 SLP303 T00001150 10006 21050 53009
2026-03-18 16:53:00,METAR KFOK 181653Z 03008KT 10SM CLR 00/M13 A3041 RMK AO2 SLP297 T00001133
2026-03-18 15:53:00,METAR KFOK 181553Z 34008KT 10SM CLR M01/M14 A3040 RMK AO2 SLP294 T10061139
2026-03-18 14:53:00,METAR KFOK 181453Z 32012KT 10SM CLR M01/M13 A3040 RMK AO2 SLP294 T10111133 50002
2026-03-18 13:53:00,METAR KFOK 181353Z 31011KT 10SM CLR M01/M13 A3043 RMK AO2 SLP304 T10111133
2026-03-18 12:53:00,METAR KFOK 181253Z 30007KT 10SM CLR M02/M13 A3042 RMK AO2 SLP300 T10171133
2026-03-18 11:53:00,METAR KFOK 181153Z 00000KT 10SM CLR M06/M11 A3039 RMK AO2 SLP292 T10561111 11011 21083 53039 $
2026-03-18 10:53:00,METAR KFOK 181053Z 00000KT 10SM CLR M06/M13 A3033 RMK AO2 SLP272 T10611133 $
2026-03-18 09:53:00,METAR KFOK 180953Z AUTO 29005KT 10SM CLR M04/M14 A3032 RMK AO2 SLP267 T10391139 $
2026-03-18 08:53:00,METAR KFOK 180853Z AUTO 00000KT 10SM CLR M04/M13 A3028 RMK AO2 SLP253 T10391133 53024 $
2026-03-18 07:53:00,METAR KFOK 180753Z AUTO 30013G19KT 10SM CLR M02/M13 A3025 RMK AO2 SLP243 T10221133 $
2026-03-18 06:53:00,METAR KFOK 180653Z AUTO 32007KT 10SM CLR M02/M12 A3022 RMK AO2 SLP235 T10171122 $
2026-03-18 05:53:00,METAR KFOK 180553Z AUTO 31008KT 10SM BKN050 M01/M10 A3020 RMK AO2 SLP228 T10111100 10022 21017 51032 $
2026-03-18 04:53:00,METAR KFOK 180453Z AUTO 28007KT 10SM CLR M01/M11 A3017 RMK AO2 SLP218 T10061106 401171006 $
2026-03-18 03:53:00,METAR KFOK 180353Z AUTO 29011G21KT 10SM BKN055 BKN070 OVC090 01/M10 A3015 RMK AO2 SLP209 T00061100 $
2026-03-18 02:53:00,METAR KFOK 180253Z AUTO 29009KT 10SM FEW075 OVC090 01/M11 A3011 RMK AO2 SLP196 T00111111 53034 $
2026-03-18 01:53:00,METAR KFOK 180153Z AUTO 29009KT 10SM OVC085 02/M12 A3007 RMK AO2 SLP184 T00171122 $
2026-03-17 22:53:00,METAR KFOK 172253Z 03/M13 A2996
2026-03-17 20:53:00,METAR KFOK 172053Z 30018G28KT 10SM CLR 06/M12 A2988
2026-03-17 19:53:00,METAR KFOK 171953Z 32016G27KT 10SM CLR 06/M12 A2985
2026-03-17 17:53:00,METAR KFOK 171753Z 29015G27KT 10SM CLR 05/M10 A2983 RMK AO2 PK WND 28030/1724 SLP103 T00501100 10056 20022 50008
2026-03-17 16:53:00,METAR KFOK 171653Z 28014G27KT 10SM CLR 05/M09 A2984 RMK AO2 PK WND 28031/1631 SLP104 T00501094
2026-03-17 15:53:00,METAR KFOK 171553Z 28018G30KT 10SM FEW050 04/M09 A2983 RMK AO2 PK WND 28031/1507 SLP101 T00441089
2026-03-17 14:53:00,METAR KFOK 171453Z 28017G25KT 10SM CLR 04/M09 A2981 RMK AO2 PK WND 26028/1356 SLP095 T00391094 51034
2026-03-17 13:53:00,METAR KFOK 171353Z 27019G27KT 10SM FEW047 04/M09 A2978 RMK AO2 PK WND 26027/1352 SLP085 T00391089
2026-03-17 12:53:00,METAR KFOK 171253Z 28014G27KT 10SM CLR 03/M08 A2975 RMK AO2 PK WND 25027/1246 SLP074 T00281078
2026-03-17 11:53:00,METAR KFOK 171153Z 27015G26KT 10SM BKN039 02/M07 A2971 RMK AO2 PK WND 27026/1147 SLP061 60000 70051 T00221072 10111 20022 51058
2026-03-17 10:53:00,METAR KFOK 171053Z 28011KT 10SM BKN037 03/M05 A2966 RMK AO2 PK WND 28029/1007 SLP043 T00281050
2026-03-17 09:53:00,METAR KFOK 170953Z AUTO 27017G27KT 10SM FEW031 04/M03 A2960 RMK AO2 PK WND 27029/0906 SLP023 T00391028
2026-03-17 09:31:00,SPECI KFOK 170931Z AUTO 26018G26KT 10SM SCT027 04/M01 A2958 RMK AO2 PK WND 27029/0906 T00441006
2026-03-17 08:53:00,METAR KFOK 170853Z AUTO 25012KT 10SM BKN024 OVC065 06/03 A2954 RMK AO2 PK WND 25027/0756 SLP003 60000 T00560028 51047
2026-03-17 07:53:00,METAR KFOK 170753Z AUTO 24017G26KT 10SM OVC055 06/04 A2949 RMK AO2 PK WND 24033/0731 SLP986 T00610039
2026-03-17 06:53:00,METAR KFOK 170653Z AUTO 23014G27KT 10SM OVC044 07/04 A2946 RMK AO2 PK WND 20038/0556 RAB0555E05 PRESRR SLP975 P0000 T00670044
2026-03-17 06:14:00,SPECI KFOK 170614Z AUTO 24014G27KT 10SM SCT005 SCT021 OVC035 09/07 A2941 RMK AO2 PK WND 20038/0556 RAB0555E05 P0000 T00890067
2026-03-17 05:53:00,METAR KFOK 170553Z AUTO 22017G37KT 5SM BR OVC006 11/11 A2940 RMK AO2 PK WND 22040/0533 RAB38E53 CIG 005V009 SLP955 P0000 60037 T01110106 10117 20106 55017
2026-03-17 04:53:00,METAR KFOK 170453Z AUTO 18019G34KT 7SM BKN005 OVC110 12/11 A2934 RMK AO2 PK WND 16034/0359 CIG 003V008 SLP936 T01170106 401220056
2026-03-17 04:28:00,SPECI KFOK 170428Z AUTO 18016G28KT 4SM BR OVC002 12/11 A2937 RMK AO2 PK WND 16034/0359 T01170111
2026-03-17 04:06:00,SPECI KFOK 170406Z AUTO 17019G34KT 2SM BR OVC002 12/11 A2937 RMK AO2 PK WND 16034/0359 T01170111
2026-03-17 03:53:00,METAR KFOK 170353Z AUTO 18017G35KT 1SM BR VV002 12/12 A2938 RMK AO2 PK WND 18035/0344 RAB06E16 SLP948 P0002 T01170117
2026-03-17 02:53:00,METAR KFOK 170253Z 18015G31KT 3/4SM BR VV002 11/11 A2945 RMK AO2 PK WND 18032/0225 SLP973 60035 T01110111 56035
2026-03-17 01:53:00,METAR KFOK 170153Z 17011G27KT 3/4SM BR VV002 11/11 A2946 RMK AO2 PK WND 17027/0148 RAE30 PRESFR SLP975 P0001 T01060106
2026-03-17 01:41:00,SPECI KFOK 170141Z 17012G24KT 1 3/4SM BR OVC002 11/10 A2948 RMK AO2 PK WND 17026/0058 RAE30 P0001 T01060100
2026-03-17 00:53:00,METAR KFOK 170053Z 17013G29KT 6SM -RA BR BKN004 OVC015 11/11 A2954 RMK AO2 PK WND 18031/0042 SLP004 P0034 T01110106
2026-03-17 00:44:00,SPECI KFOK 170044Z 19014G31KT 5SM RA BR BKN002 OVC015 12/11 A2955 RMK AO2 PK WND 18031/0042 TS W MOV E P0033 T01170111
2026-03-17 00:34:00,SPECI KFOK 170034Z 18015G29KT 2SM +RA BR BKN002 OVC007 11/11 A2956 RMK AO2 PK WND 17029/0029 TS W MOV E P0029 T01110106
2026-03-17 00:22:00,SPECI KFOK 170022Z 20011G25KT 1 3/4SM VCTS RA BR OVC002 11/11 A2957 RMK AO2 PK WND 18027/0012 VIS 1 1/4V2 1/2 LTG DSNT SW TS W MOV E P0015 T01060106
2026-03-17 00:05:00,SPECI KFOK 170005Z 17011G27KT 3SM VCTS -RA BR OVC002 11/11 A2955 RMK AO2 PK WND 18027/0001 LTG DSNT SW P0008 T01110111
2026-03-16 23:53:00,METAR KFOK 162353Z 17012G25KT 2 1/2SM -RA BR OVC002 11/11 A2955 RMK AO2 PK WND 19032/2321 LTG DSNT W RAB31 SLP008 P0008 60010 T01110106 10117 20111 58030
2026-03-16 23:42:00,SPECI KFOK 162342Z 16015G28KT 2 1/2SM RA BR OVC002 11/11 A2955 RMK AO2 PK WND 19032/2321 RAB31 P0006 T01110111
2026-03-16 23:27:00,SPECI KFOK 162327Z 17013G32KT 1 1/4SM BR OVC002 11/11 A2957 RMK AO2 PK WND 19032/2321 T01110106
2026-03-16 22:53:00,METAR KFOK 162253Z 17015G30KT 3/4SM BR VV002 11/11 A2959 RMK AO2 PK WND 18032/2205 SLP022 T01110111
2026-03-16 22:34:00,SPECI KFOK 162234Z 17010G25KT 1/2SM FG VV002 11/11 A2960 RMK AO2 PK WND 18032/2205 T01110111
2026-03-16 21:53:00,METAR KFOK 162153Z 18014G29KT 1/4SM FG VV002 11/11 A2961 RMK AO2 PK WND 17029/2117 RAB16E33 SLP026 P0002 T01110111
2026-03-16 21:44:00,SPECI KFOK 162144Z 17011G22KT 1/4SM FG VV002 12/11 A2961 RMK AO2 PK WND 17029/2117 RAB16E33 P0002 T01170111
2026-03-16 21:34:00,SPECI KFOK 162134Z 17012G28KT 1/2SM FG OVC002 12/11 A2961 RMK AO2 PK WND 17029/2117 RAB16E33 P0002 T01170111
2026-03-16 21:25:00,SPECI KFOK 162125Z 17014G29KT 1SM -RA BR OVC002 12/11 A2962 RMK AO2 PK WND 17029/2117 RAB16 P0002 T01170111
2026-03-16 20:53:00,METAR KFOK 162053Z 18014G26KT 1/2SM FG VV002 12/11 A2964 RMK AO2 PK WND 17030/2025 SLP039 T01170111 58021
2026-03-16 20:28:00,SPECI KFOK 162028Z 18016G30KT 1/4SM FG VV002 12/11 A2966 RMK AO2 PK WND 17030/2025 T01170111
2026-03-16 20:18:00,SPECI KFOK 162018Z 17016G27KT 1/2SM FG VV002 12/11 A2966 RMK AO2 PK WND 17029/2002 T01170111
2026-03-16 19:53:00,METAR KFOK 161953Z 18014G27KT 1/4SM FG VV002 11/11 A2967 RMK AO2 PK WND 17027/1951 SLP048 T01110106
2026-03-16 19:23:00,SPECI KFOK 161923Z 17012G27KT 1/4SM FG VV002 11/11 A2969 RMK AO2 PK WND 18027/1906 T01110111
2026-03-16 19:11:00,SPECI KFOK 161911Z 18013G27KT 3/4SM BR OVC002 11/11 A2969 RMK AO2 PK WND 18027/1906 T01110106
2026-03-16 18:53:00,METAR KFOK 161853Z 18013G25KT 2 1/2SM BR OVC002 11/11 A2970 RMK AO2 PK WND 19031/1806 SLP059 T01110106
2026-03-16 18:50:00,SPECI KFOK 161850Z 18012G25KT 2SM BR OVC002 11/11 A2971 RMK AO2 PK WND 19031/1806
2026-03-16 17:53:00,METAR KFOK 161753Z 18014G26KT 1/2SM FG VV002 12/12 A2973 RMK AO2 PK WND 18030/1730 SLP068 60004 T01170117 10122 20094 56025
2026-03-16 17:39:00,SPECI KFOK 161739Z 18015G30KT 1/2SM FG VV002 12/11 A2973 RMK AO2 PK WND 18030/1730 T01170111
2026-03-16 16:53:00,METAR KFOK 161653Z 18014G24KT 1/4SM FG VV002 11/11 A2974 RMK AO2 PK WND 16026/1642 SLP071 T01110111
2026-03-16 15:53:00,METAR KFOK 161553Z 18011G27KT 1/4SM FG VV002 12/11 A2978 RMK AO2 PK WND 18028/1543 SLP083 T01170111
2026-03-16 15:00:00,SPECI KFOK 161500Z 17011G23KT 1/2SM FG OVC002 11/11 A2980 RMK AO2 T01110111
2026-03-16 14:53:00,METAR KFOK 161453Z 17011G22KT 1/4SM FG OVC002 11/11 A2981 RMK AO2 PK WND 18026/1442 SLP093 60004 T01110111 56020
2026-03-16 13:53:00,METAR KFOK 161353Z 16013G24KT 1/4SM FG VV002 12/12 A2982 RMK AO2 PK WND 17028/1337 RAB16E40 SLP099 P0004 T01170117
2026-03-16 13:22:00,SPECI KFOK 161322Z 16011G27KT 1/2SM -RA FG VV002 11/11 A2983 RMK AO2 PK WND 16027/1315 RAB16 P0003 T01110111
2026-03-16 12:53:00,METAR KFOK 161253Z 16011G21KT 1/4SM FG VV002 11/11 A2984 RMK AO2 PK WND 14027/1242 SLP105 T01060106
2026-03-16 11:53:00,METAR KFOK 161153Z 16013G22KT 1/4SM FG VV002 09/09 A2987 RMK AO2 RAB39E49 SLP114 P0000 60024 70024 T00940094 10100 20061 58029
2026-03-16 10:53:00,METAR KFOK 161053Z 14010G23KT 1/4SM FG VV002 09/09 A2990 RMK AO2 PK WND 16028/1019 RAB04E14 SLP124 P0002 T00890089
2026-03-16 10:40:00,SPECI KFOK 161040Z AUTO 15013G22KT 1 3/4SM BR OVC002 09/09 A2991 RMK AO2 PK WND 16028/1019 RAB04E14 P0002 T00890089
2026-03-16 09:53:00,METAR KFOK 160953Z AUTO 14015G27KT 5SM BR OVC003 09/08 A2993 RMK AO2 PK WND 14030/0938 RAE40 SLP136 P0007 T00890083
2026-03-16 09:23:00,SPECI KFOK 160923Z AUTO 13011G30KT 5SM -RA BR BKN004 OVC012 09/08 A2994 RMK AO2 PK WND 13030/0918 P0007 T00890083
2026-03-16 09:07:00,SPECI KFOK 160907Z AUTO 13011G26KT 2 1/2SM -RA BR OVC004 08/08 A2994 RMK AO2 PK WND 13026/0856 P0003 T00830078
2026-03-16 08:53:00,METAR KFOK 160853Z AUTO 13012G20KT 3SM -RA BR OVC004 08/07 A2995 RMK AO2 PK WND 14027/0832 RAE07B30 SLP143 P0006 60015 T00780072 56062
2026-03-16 07:53:00,METAR KFOK 160753Z AUTO 11010G22KT 5SM -RA BR OVC004 06/06 A2999 RMK AO2 RAB19 SLP156 P0009 T00610056
2026-03-16 07:44:00,SPECI KFOK 160744Z AUTO 10009G16KT 3SM -RA BR OVC004 06/06 A3000 RMK AO2 RAB19 P0009 T00610056
2026-03-16 07:40:00,SPECI KFOK 160740Z AUTO 11009KT 2SM RA BR OVC006 06/06 A3001 RMK AO2 RAB19 P0009 T00610056
2026-03-16 07:30:00,SPECI KFOK 160730Z AUTO 11009G19KT 5SM -RA BR BKN007 BKN049 OVC055 06/05 A3002 RMK AO2 RAB19 P0002 T00610050
2026-03-16 07:18:00,SPECI KFOK 160718Z AUTO 11011G20KT 8SM SCT009 BKN055 OVC070 07/05 A3003 RMK AO2 T00670050
2026-03-16 06:53:00,METAR KFOK 160653Z AUTO 11009G23KT 9SM OVC070 06/05 A3006 RMK AO2 PRESFR SLP180 T00610050
2026-03-16 05:53:00,METAR KFOK 160553Z AUTO 12008G19KT 9SM FEW022 OVC075 06/05 A3013 RMK AO2 SLP204 T00610050 10061 20044 56049
2026-03-16 05:25:00,SPECI KFOK 160525Z AUTO 12010G19KT 10SM BKN026 06/04 A3015 RMK AO2 T00560044
2026-03-16 04:53:00,METAR KFOK 160453Z AUTO 12010G21KT 10SM BKN034 06/04 A3018 RMK AO2 PRESFR SLP219 T00560039 400561056
2026-03-16 03:53:00,METAR KFOK 160353Z AUTO 11010G20KT 10SM FEW023 05/04 A3022 RMK AO2 SLP235 T00500039
2026-03-16 03:00:00,SPECI KFOK 160300Z AUTO 11009G18KT 10SM FEW006 SCT028 04/03 A3028 RMK AO2 T00440033
2026-03-16 02:53:00,METAR KFOK 160253Z 11010G21KT 10SM FEW026 04/03 A3028 RMK AO2 SLP253 T00440033 58034
2026-03-16 01:53:00,METAR KFOK 160153Z 11009G15KT 10SM FEW120 04/03 A3033 RMK AO2 SLP272 T00440028
2026-03-16 00:53:00,METAR KFOK 160053Z 11009G18KT 10SM FEW035 04/02 A3036 RMK AO2 SLP282 T00440022
2026-03-15 23:53:00,METAR KFOK 152353Z 11008KT 10SM CLR 04/02 A3038 RMK AO2 SLP287 T00390017 10044 20033 58017
2026-03-15 22:53:00,METAR KFOK 152253Z 10006KT 10SM OVC070 04/01 A3040 RMK AO2 SLP293 T00390011
2026-03-15 21:53:00,METAR KFOK 152153Z 10007KT 10SM OVC060 04/01 A3042 RMK AO2 SLP301 T00440006
2026-03-15 20:53:00,METAR KFOK 152053Z 11008G18KT 10SM BKN055 OVC080 04/00 A3043 RMK AO2 SLP304 T00440000 58018
2026-03-15 19:53:00,METAR KFOK 151953Z 12010G17KT 10SM OVC060 04/M01 A3045 RMK AO2 SLP312 T00441011
2026-03-15 18:53:00,METAR KFOK 151853Z 12009G16KT 10SM OVC060 04/M02 A3048 RMK AO2 SLP320 T00391022
2026-03-15 17:53:00,METAR KFOK 151753Z 13010G18KT 10SM OVC065 03/M03 A3048 RMK AO2 SLP323 T00331033 10050 20006 58003
2026-03-15 16:53:00,METAR KFOK 151653Z 12009G17KT 10SM OVC065 04/M04 A3050 RMK AO2 SLP330 T00391039
2026-03-15 15:53:00,METAR KFOK 151553Z 10009G19KT 10SM BKN070 BKN100 04/M06 A3050 RMK AO2 SLP330 T00441061
2026-03-15 14:53:00,METAR KFOK 151453Z 11007G17KT 090V150 10SM BKN110 05/M07 A3049 RMK AO2 SLP326 T00501072 50000
2026-03-15 13:53:00,METAR KFOK 151353Z 05007KT 10SM OVC110 03/M07 A3051 RMK AO2 SLP331 T00331067
2026-03-15 12:53:00,METAR KFOK 151253Z 03008KT 10SM OVC110 03/M07 A3050 RMK AO2 SLP330 T00281072
2026-03-15 11:53:00,METAR KFOK 151153Z 03003KT 10SM SCT120 01/M07 A3049 RMK AO2 SLP326 T00111067 10011 21056 51020
2026-03-15 10:53:00,METAR KFOK 151053Z 05004KT 10SM OVC120 01/M06 A3048 RMK AO2 SLP322 T00111061
2026-03-15 09:53:00,METAR KFOK 150953Z AUTO 04003KT 10SM FEW085 OVC110 01/M06 A3046 RMK AO2 SLP315 T00061056
2026-03-15 08:53:00,METAR KFOK 150853Z AUTO 03004KT 10SM OVC110 M03/M08 A3043 RMK AO2 SLP306 T10331078 51013
