Time_recorded,METAR
2026-05-02 15:39:00,SPECI KSNA 021539Z VRB03KT 7SM OVC010 16/14 A2997 RMK AO2 DZE25 P0000 T01610139 $
2026-05-02 15:14:00,SPECI KSNA 021514Z 33003KT 6SM DZ BR OVC009 16/14 A2997 RMK AO2 P0000 T01610139 $
2026-05-02 14:53:00,METAR KSNA 021453Z 24003KT 6SM DZ BR OVC010 16/14 A2997 RMK AO2 DZB51 SLP150 P0000 60000 T01610139 53014 $
2026-05-02 14:29:00,SPECI KSNA 021429Z 25003KT 7SM OVC010 16/14 A2997 RMK AO2 T01610139 $
2026-05-02 13:53:00,METAR KSNA 021353Z 00000KT 7SM OVC009 16/14 A2995 RMK AO2 DZB29E49 SLP143 P0000 T01610139 $
2026-05-02 12:53:00,METAR KSNA 021253Z 22005KT 8SM OVC009 16/14 A2995 RMK AO2 SLP140 T01610139 $
2026-05-02 10:53:00,METAR KSNA 021053Z AUTO 17003KT 9SM OVC009 16/14 A2993 RMK AO2 SLP133 T01610139 $
2026-05-02 10:14:00,SPECI KSNA 021014Z AUTO 00000KT 9SM OVC009 16/14 A2992 RMK AO2 T01610139 $
2026-05-02 09:53:00,METAR KSNA 020953Z AUTO 21003KT 10SM OVC010 16/14 A2992 RMK AO2 SLP131 T01610139 $
2026-05-02 08:53:00,METAR KSNA 020853Z AUTO 21004KT 10SM OVC013 16/14 A2993 RMK AO2 SLP134 T01610139 58004 $
2026-05-02 08:44:00,SPECI KSNA 020844Z AUTO 23004KT 10SM OVC013 16/14 A2993 RMK AO2 T01610139 $
2026-05-02 07:53:00,METAR KSNA 020753Z AUTO 20003KT 10SM OVC017 16/14 A2994 RMK AO2 SLP137 T01610139 402220161 $
2026-05-02 06:53:00,METAR KSNA 020653Z AUTO 22003KT 10SM OVC018 16/14 A2995 RMK AO2 SLP140 T01610139 $
2026-05-02 05:53:00,METAR KSNA 020553Z VRB03KT 5SM HZ BKN020 17/14 A2994 RMK AO2 SLP140 LAST T01670139 10200 20167 51013 $
2026-05-02 05:12:00,SPECI KSNA 020512Z 20004KT 5SM HZ BKN023 17/14 A2995 RMK AO2 T01670139 $
2026-05-02 04:53:00,METAR KSNA 020453Z 23003KT 6SM HZ SCT022 17/14 A2994 RMK AO2 SLP139 T01670139 $
2026-05-02 03:53:00,METAR KSNA 020353Z 25003KT 8SM FEW024 17/14 A2992 RMK AO2 SLP132 T01720139 $
2026-05-02 02:53:00,METAR KSNA 020253Z 24005KT 10SM CLR 18/14 A2991 RMK AO2 SLP126 T01830139 53007 $
2026-05-02 01:53:00,METAR KSNA 020153Z 24007KT 10SM FEW026 19/14 A2989 RMK AO2 SLP121 T01890139 $
2026-05-02 00:53:00,METAR KSNA 020053Z 23008KT 10SM FEW026 20/13 A2988 RMK AO2 SLP118 T02000133 $
2026-05-01 23:53:00,METAR KSNA 012353Z 27008KT 10SM FEW029 20/13 A2989 RMK AO2 SLP120 T02000133 10222 20183 56014 $
2026-05-01 22:53:00,METAR KSNA 012253Z 25008KT 10SM CLR 21/13 A2989 RMK AO2 SLP120 T02110128 $
2026-05-01 21:53:00,METAR KSNA 012153Z 23007KT 10SM FEW055 21/13 A2991 RMK AO2 SLP126 T02110128
2026-05-01 20:53:00,METAR KSNA 012053Z 21009G15KT 10SM FEW030 21/13 A2993 RMK AO2 SLP133 T02110133 56016
2026-05-01 19:53:00,METAR KSNA 011953Z 25006KT 10SM CLR 21/13 A2993 RMK AO2 SLP133 T02110133
2026-05-01 19:18:00,SPECI KSNA 011918Z 25003KT 10SM SCT025 SCT031 20/13 A2994 RMK AO2 T02000128
2026-05-01 18:53:00,METAR KSNA 011853Z 25003KT 10SM BKN025 20/13 A2996 RMK AO2 SLP143 T02000128
2026-05-01 17:53:00,METAR KSNA 011753Z 25003KT 10SM OVC022 18/12 A2997 RMK AO2 SLP150 T01780122 10189 20161 50002
2026-05-01 16:53:00,METAR KSNA 011653Z 00000KT 10SM OVC021 18/12 A2998 RMK AO2 SLP152 T01780122
2026-05-01 15:53:00,METAR KSNA 011553Z 13005KT 10SM OVC020 17/12 A2998 RMK AO2 SLP150 T01720122
2026-05-01 14:53:00,METAR KSNA 011453Z 14005KT 10SM OVC020 17/12 A2997 RMK AO2 SLP147 T01670117 53014
2026-05-01 13:53:00,METAR KSNA 011353Z 12006KT 10SM OVC020 17/12 A2995 RMK AO2 SLP141 T01670117
2026-05-01 12:53:00,METAR KSNA 011253Z 12006KT 10SM OVC020 17/12 A2994 RMK AO2 SLP138 T01670117
2026-05-01 11:53:00,METAR KSNA 011153Z AUTO 13007KT 10SM OVC019 17/12 A2993 RMK AO2 SLP134 T01670117 10172 20167 55002
2026-05-01 10:53:00,METAR KSNA 011053Z AUTO 13005KT 10SM OVC019 17/12 A2993 RMK AO2 SLP133 T01670117
2026-05-01 09:53:00,METAR KSNA 010953Z AUTO 11005KT 10SM OVC019 17/12 A2992 RMK AO2 SLP130 T01670122
2026-05-01 08:53:00,METAR KSNA 010853Z AUTO 11005KT 10SM OVC019 17/12 A2993 RMK AO2 SLP134 T01670122 50001
2026-05-01 07:53:00,METAR KSNA 010753Z AUTO 14005KT 10SM OVC018 17/12 A2994 RMK AO2 SLP137 T01670122 402110144
2026-05-01 06:53:00,METAR KSNA 010653Z AUTO 13006KT 10SM OVC017 17/13 A2993 RMK AO2 SLP134 T01670128
2026-05-01 06:00:00,SPECI KSNA 010600Z 15007KT 10SM OVC016 17/13 A2993 RMK AO2 T01720133
2026-05-01 05:53:00,METAR KSNA 010553Z 17005KT 10SM BKN014 BKN022 17/14 A2993 RMK AO2 SLP135 LAST T01720139 10200 20172 51015
2026-05-01 04:53:00,METAR KSNA 010453Z VRB03KT 10SM BKN014 BKN023 17/14 A2992 RMK AO2 SLP130 T01720139
2026-05-01 03:53:00,METAR KSNA 010353Z 22003KT 10SM SCT014 BKN023 17/14 A2990 RMK AO2 SLP126 T01720139
2026-05-01 02:53:00,METAR KSNA 010253Z 20005KT 10SM FEW017 17/14 A2989 RMK AO2 SLP120 T01720139 53010
2026-05-01 01:53:00,METAR KSNA 010153Z COR 20007KT 10SM FEW018 18/13 A2987 RMK AO2 SLP114 T01830133
2026-05-01 00:53:00,METAR KSNA 010053Z 20008KT 10SM FEW022 FEW150 19/13 A2986 RMK AO2 SLP112 T01940133
2026-04-30 23:53:00,METAR KSNA 302353Z 18009KT 10SM FEW022 SCT150 20/13 A2986 RMK AO2 SLP109 T02000128 10211 20189 58005
2026-04-30 22:53:00,METAR KSNA 302253Z 18011KT 10SM FEW024 SCT150 20/13 A2986 RMK AO2 SLP111 T02000133
2026-04-30 21:53:00,METAR KSNA 302153Z 20013KT 10SM FEW025 SCT150 21/13 A2987 RMK AO2 SLP115 T02060128
2026-04-30 20:53:00,METAR KSNA 302053Z 21014KT 10SM FEW027 SCT180 21/12 A2987 RMK AO2 SLP114 T02110122 56012
2026-04-30 19:53:00,METAR KSNA 301953Z 22010KT 10SM FEW028 SCT180 21/12 A2988 RMK AO2 SLP116 T02060122
2026-04-30 18:53:00,METAR KSNA 301853Z 20009G16KT 10SM FEW026 SCT180 21/13 A2989 RMK AO2 SLP122 T02060128
2026-04-30 17:53:00,METAR KSNA 301753Z 00000KT 10SM SCT026 BKN180 19/12 A2991 RMK AO2 SLP127 T01940122 10194 20144 58006
2026-04-30 16:53:00,METAR KSNA 301653Z 19004KT 10SM BKN023 BKN170 18/12 A2991 RMK AO2 SLP129 T01830117
2026-04-30 14:53:00,METAR KSNA 301453Z 13004KT 10SM SCT021 BKN170 16/11 A2993 RMK AO2 SLP134 T01610111 53002
2026-04-30 13:53:00,METAR KSNA 301353Z 08006KT 10SM SCT021 SCT180 15/11 A2992 RMK AO2 SLP133 T01500111
2026-04-30 12:53:00,METAR KSNA 301253Z 10003KT 10SM BKN018 BKN200 15/12 A2992 RMK AO2 SLP131 T01500117
2026-04-30 11:53:00,METAR KSNA 301153Z AUTO 11003KT 10SM BKN017 14/12 A2992 RMK AO2 SLP131 T01440117 10161 20144 56007
2026-04-30 11:45:00,SPECI KSNA 301145Z AUTO 11005KT 10SM BKN018 14/12 A2992 RMK AO2 T01440117
2026-04-30 10:53:00,METAR KSNA 301053Z AUTO 00000KT 10SM FEW015 15/11 A2993 RMK AO2 SLP134 T01500111
2026-04-30 10:50:00,SPECI KSNA 301050Z AUTO 00000KT 10SM FEW015 15/11 A2993 RMK AO2
2026-04-30 09:53:00,METAR KSNA 300953Z AUTO 09004KT 10SM OVC017 16/11 A2994 RMK AO2 SLP139 T01560106
2026-04-30 09:18:00,SPECI KSNA 300918Z AUTO 06003KT 10SM OVC016 16/10 A2995 RMK AO2 T01610100
2026-04-30 08:53:00,METAR KSNA 300853Z AUTO 00000KT 10SM BKN014 16/11 A2996 RMK AO2 SLP144 T01610106 58010
2026-04-30 08:32:00,SPECI KSNA 300832Z AUTO 00000KT 10SM BKN014 16/11 A2996 RMK AO2 T01610106
2026-04-30 08:24:00,SPECI KSNA 300824Z AUTO 00000KT 10SM SCT014 16/10 A2997 RMK AO2 T01610100
2026-04-30 08:17:00,SPECI KSNA 300817Z AUTO 00000KT 10SM BKN012 16/10 A2996 RMK AO2 T01610100
2026-04-30 08:00:00,SPECI KSNA 300800Z AUTO 18003KT 10SM SCT012 16/10 A2998 RMK AO2 T01610100
2026-04-30 07:53:00,METAR KSNA 300753Z AUTO 16003KT 10SM BKN013 16/11 A2998 RMK AO2 SLP149 T01610106 402170128
2026-04-30 06:53:00,METAR KSNA 300653Z AUTO 00000KT 10SM CLR 16/13 A2998 RMK AO2 SLP153 T01610133
2026-04-30 05:53:00,METAR KSNA 300553Z 18003KT 10SM FEW020 16/14 A2999 RMK AO2 SLP155 LAST T01610139 10200 20161 50004
2026-04-30 04:53:00,METAR KSNA 300453Z 19004KT 10SM FEW020 16/13 A3000 RMK AO2 SLP158 T01610133
2026-04-30 03:53:00,METAR KSNA 300353Z 22005KT 10SM FEW020 17/13 A2999 RMK AO2 SLP156 T01670128
2026-04-30 02:53:00,METAR KSNA 300253Z 21008KT 10SM FEW250 18/12 A2998 RMK AO2 SLP151 T01780122 53004
2026-04-30 01:53:00,METAR KSNA 300153Z 23008KT 10SM FEW160 FEW250 19/11 A2996 RMK AO2 SLP145 T01890111
2026-04-30 00:53:00,METAR KSNA 300053Z 23004KT 10SM FEW250 19/11 A2995 RMK AO2 SLP142 T01940111
2026-04-29 23:53:00,METAR KSNA 292353Z 25008KT 10SM FEW250 19/13 A2996 RMK AO2 SLP146 T01940128 10217 20194 55006
2026-04-29 22:53:00,METAR KSNA 292253Z 21008KT 10SM FEW160 FEW250 21/12 A2996 RMK AO2 SLP145 T02060117
2026-04-29 21:53:00,METAR KSNA 292153Z 24006KT 10SM SCT160 SCT250 21/11 A2998 RMK AO2 SLP151 T02060106
2026-04-29 20:53:00,METAR KSNA 292053Z 22008G14KT 190V270 10SM FEW020 BKN160 BKN250 21/10 A2998 RMK AO2 SLP153 T02110100 56014
2026-04-29 19:53:00,METAR KSNA 291953Z 20010G15KT 10SM FEW020 SCT250 21/11 A2999 RMK AO2 SLP156 T02110106
2026-04-29 18:53:00,METAR KSNA 291853Z 22009KT 10SM FEW020 20/11 A3001 RMK AO2 SLP161 T02000106
2026-04-29 17:53:00,METAR KSNA 291753Z 20009G16KT 10SM FEW020 20/12 A3002 RMK AO2 SLP167 T02000117 10200 20128 57007
2026-04-29 16:53:00,METAR KSNA 291653Z 00000KT 10SM FEW020 18/10 A3003 RMK AO2 SLP169 T01830100
2026-04-29 15:53:00,METAR KSNA 291553Z 00000KT 10SM FEW020 17/11 A3004 RMK AO2 SLP172 T01670111
2026-04-29 14:53:00,METAR KSNA 291453Z 13003KT 10SM CLR 16/09 A3005 RMK AO2 SLP174 T01560094 51002
2026-04-29 13:53:00,METAR KSNA 291353Z 00000KT 10SM CLR 14/09 A3005 RMK AO2 SLP174 T01390089
2026-04-29 12:53:00,METAR KSNA 291253Z 06003KT 10SM CLR 13/09 A3004 RMK AO2 SLP174 T01280089
2026-04-29 11:53:00,METAR KSNA 291153Z 00000KT 10SM CLR 13/09 A3004 RMK AO2 SLP172 T01330089 10161 20128 53002
2026-04-29 10:53:00,METAR KSNA 291053Z 00000KT 10SM CLR 14/11 A3003 RMK AO2 SLP168 T01390106
2026-04-29 09:53:00,METAR KSNA 290953Z 00000KT 10SM CLR 14/10 A3002 RMK AO2 SLP166 T01390100
2026-04-29 08:53:00,METAR KSNA 290853Z 00000KT 10SM CLR 15/11 A3004 RMK AO2 SLP170 T01500111 58006
2026-04-29 07:53:00,METAR KSNA 290753Z 00000KT 10SM CLR 15/11 A3005 RMK AO2 SLP176 T01500111 402170122
2026-04-29 06:53:00,METAR KSNA 290653Z 26003KT 10SM CLR 16/11 A3004 RMK AO2 SLP173 T01560111
2026-04-29 05:53:00,METAR KSNA 290553Z 00000KT 10SM CLR 16/11 A3005 RMK AO2 SLP176 LAST T01610111 10206 20161 51014
2026-04-29 04:53:00,METAR KSNA 290453Z 23003KT 10SM CLR 16/12 A3005 RMK AO2 SLP176 T01610117
2026-04-29 03:53:00,METAR KSNA 290353Z 25003KT 10SM CLR 17/11 A3004 RMK AO2 SLP172 T01670106
2026-04-29 02:53:00,METAR KSNA 290253Z 27005KT 10SM CLR 17/09 A3001 RMK AO2 SLP162 T01720089 53001
2026-04-29 01:53:00,METAR KSNA 290153Z 26007KT 10SM CLR 19/07 A3001 RMK AO2 SLP161 T01890072
2026-04-29 00:53:00,METAR KSNA 290053Z 26008KT 230V300 10SM FEW180 19/07 A3001 RMK AO2 SLP160 T01940067
2026-04-28 23:53:00,METAR KSNA 282353Z 26006KT 10SM CLR 21/08 A3001 RMK AO2 SLP162 T02060078 10217 20189 56006
2026-04-28 22:53:00,METAR KSNA 282253Z 24010KT 10SM FEW180 21/06 A3001 RMK AO2 SLP163 T02060061
2026-04-28 21:53:00,METAR KSNA 282153Z 24009KT 10SM FEW180 21/08 A3002 RMK AO2 SLP164 T02060078
2026-04-28 20:53:00,METAR KSNA 282053Z 23011G18KT 10SM FEW180 21/08 A3003 RMK AO2 SLP168 T02060078 55009
2026-04-28 19:53:00,METAR KSNA 281953Z 22010G17KT 10SM SCT250 21/07 A3003 RMK AO2 SLP167 T02110072
2026-04-28 18:53:00,METAR KSNA 281853Z 00000KT 10SM FEW250 21/06 A3004 RMK AO2 SLP172 T02060056
2026-04-28 17:53:00,METAR KSNA 281753Z 24006KT 10SM FEW250 19/06 A3005 RMK AO2 SLP177 T01890061 10194 20122 58005
2026-04-28 16:53:00,METAR KSNA 281653Z VRB03KT 10SM FEW025 SCT250 18/08 A3006 RMK AO2 SLP178 T01780078
2026-04-28 15:53:00,METAR KSNA 281553Z 00000KT 10SM FEW025 SCT180 BKN250 16/09 A3007 RMK AO2 SLP183 T01610094
2026-04-28 14:53:00,METAR KSNA 281453Z 00000KT 10SM FEW020 SCT180 BKN250 15/07 A3007 RMK AO2 SLP182 T01500072 51013
2026-04-28 13:53:00,METAR KSNA 281353Z 03004KT 10SM FEW020 BKN250 13/08 A3006 RMK AO2 SLP179 T01280078
2026-04-28 12:53:00,METAR KSNA 281253Z 00000KT 10SM SCT250 12/08 A3004 RMK AO2 SLP173 T01220078
2026-04-28 11:53:00,METAR KSNA 281153Z 08004KT 10SM CLR 13/08 A3003 RMK AO2 SLP169 T01280083 10156 20128 55007
2026-04-28 10:53:00,METAR KSNA 281053Z 00000KT 10SM CLR 13/09 A3003 RMK AO2 SLP167 T01330089
2026-04-28 09:53:00,METAR KSNA 280953Z 00000KT 10SM CLR 13/09 A3003 RMK AO2 SLP167 T01330089
2026-04-28 08:53:00,METAR KSNA 280853Z 08006KT 10SM CLR 14/09 A3005 RMK AO2 SLP176 T01390089 58002
2026-04-28 07:53:00,METAR KSNA 280753Z 13004KT 10SM CLR 14/09 A3007 RMK AO2 SLP182 T01390094 401940139
2026-04-28 06:53:00,METAR KSNA 280653Z 11003KT 10SM CLR 15/10 A3007 RMK AO2 SLP181 T01500100
2026-04-28 05:53:00,METAR KSNA 280553Z 00000KT 10SM CLR 16/09 A3006 RMK AO2 SLP178 LAST T01560094 10189 20156 51011
2026-04-28 04:53:00,METAR KSNA 280453Z 26004KT 10SM CLR 16/09 A3006 RMK AO2 SLP177 T01560094
2026-04-28 03:53:00,METAR KSNA 280353Z 25005KT 10SM CLR 16/09 A3004 RMK AO2 SLP173 T01560094
2026-04-28 02:53:00,METAR KSNA 280253Z 24007KT 10SM FEW025 FEW050 16/09 A3003 RMK AO2 SLP167 T01610089 53008
2026-04-28 01:53:00,METAR KSNA 280153Z 26008KT 10SM FEW045 17/07 A3001 RMK AO2 SLP161 T01720067
2026-04-28 00:53:00,METAR KSNA 280053Z 24008KT 10SM FEW050 18/08 A3001 RMK AO2 SLP160 T01780078
2026-04-27 23:53:00,METAR KSNA 272353Z 23008G16KT 10SM FEW050 FEW095 18/05 A3000 RMK AO2 SLP159 T01830050 10194 20178 55008
2026-04-27 22:53:00,METAR KSNA 272253Z 26008G14KT 230V290 10SM FEW049 FEW095 19/04 A3000 RMK AO2 SLP158 T01890039
2026-04-27 21:53:00,METAR KSNA 272153Z 25006G16KT 10SM FEW038 FEW095 19/04 A3002 RMK AO2 SLP164 T01890044
2026-04-27 20:53:00,METAR KSNA 272053Z 20008KT 10SM FEW038 FEW060 SCT100 19/03 A3002 RMK AO2 SLP167 T01940028 50001
2026-04-27 19:53:00,METAR KSNA 271953Z 22011G18KT 10SM FEW036 SCT055 SCT080 19/03 A3003 RMK AO2 SLP168 T01940033
2026-04-27 18:53:00,METAR KSNA 271853Z VRB06KT 10SM SCT055 BKN070 18/02 A3003 RMK AO2 SLP168 T01830017
2026-04-27 17:53:00,METAR KSNA 271753Z 24006KT 10SM FEW035 SCT055 BKN070 18/06 A3002 RMK AO2 SLP166 T01780056 10178 20150 51008
2026-04-27 16:53:00,METAR KSNA 271653Z 10SM SCT033 SCT075 17/06 A3002 RMK AO2 SLP164 T01720056
2026-04-27 15:53:00,METAR KSNA 271553Z VRB03KT 10SM SCT031 BKN070 16/08 A3001 RMK AO2 SLP160 T01610078
2026-04-27 14:53:00,METAR KSNA 271453Z 33003KT 10SM SCT029 BKN070 16/08 A3000 RMK AO2 SLP158 T01560083 53009
2026-04-27 13:53:00,METAR KSNA 271353Z 00000KT 10SM SCT027 BKN070 16/09 A2999 RMK AO2 SLP154 T01560089
2026-04-27 12:53:00,METAR KSNA 271253Z 00000KT 10SM SCT024 BKN065 15/08 A2997 RMK AO2 SLP149 T01500083
2026-04-27 11:53:00,METAR KSNA 271153Z AUTO 00000KT 10SM SCT070 15/08 A2997 RMK AO2 SLP149 70001 T01500083 10156 20150 56007
2026-04-27 10:53:00,METAR KSNA 271053Z AUTO 27004KT 10SM OVC070 16/09 A2998 RMK AO2 SLP151 T01560089
2026-04-27 09:53:00,METAR KSNA 270953Z AUTO 25005KT 10SM OVC070 16/09 A2998 RMK AO2 SLP151 T01560094
2026-04-27 08:53:00,METAR KSNA 270853Z AUTO 24005KT 10SM FEW036 OVC070 16/09 A2999 RMK AO2 SLP156 T01560089 58004
2026-04-27 07:53:00,METAR KSNA 270753Z AUTO 24003KT 10SM FEW047 OVC060 16/09 A3001 RMK AO2 SLP160 T01560089 401890133
2026-04-27 06:53:00,METAR KSNA 270653Z AUTO 00000KT 10SM OVC060 16/08 A3001 RMK AO2 SLP161 T01560078
2026-04-27 05:53:00,METAR KSNA 270553Z 00000KT 10SM FEW040 BKN055 16/08 A3000 RMK AO2 SLP160 LAST T01560078 10183 20156 51008
2026-04-27 04:53:00,METAR KSNA 270453Z VRB04KT 10SM FEW040 BKN055 16/08 A3000 RMK AO2 SLP159 T01610083
2026-04-27 03:53:00,METAR KSNA 270353Z 25004KT 10SM FEW055 16/08 A2999 RMK AO2 SLP155 T01560083
2026-04-27 02:53:00,METAR KSNA 270253Z VRB06KT 10SM FEW055 16/08 A2998 RMK AO2 SLP151 T01610083 53005
2026-04-27 01:53:00,METAR KSNA 270153Z COR 26006KT 10SM SCT055 17/07 A2998 RMK AO2 SLP150 T01670072
2026-04-27 00:53:00,METAR KSNA 270053Z 23007KT 10SM FEW039 SCT048 17/06 A2997 RMK AO2 SLP147 T01720061
2026-04-26 23:53:00,METAR KSNA 262353Z 22012KT 10SM FEW045 18/06 A2996 RMK AO2 SLP146 60000 T01830061 10189 20167 57003
2026-04-26 22:53:00,METAR KSNA 262253Z 22009G18KT 10SM SCT045 19/06 A2996 RMK AO2 SLP146 T01890061
2026-04-26 21:53:00,METAR KSNA 262153Z 23011G17KT 10SM FEW044 FEW075 19/07 A2997 RMK AO2 SLP148 T01890067
2026-04-26 20:53:00,METAR KSNA 262053Z 23010G18KT 200V260 10SM SCT044 SCT075 19/08 A2997 RMK AO2 RAE22 SLP149 P0000 60000 T01890078 53002
2026-04-26 19:53:00,METAR KSNA 261953Z 23008G16KT 10SM -RA FEW033 SCT040 BKN060 18/07 A2997 RMK AO2 SLP147 P0000 T01830072
2026-04-26 18:53:00,METAR KSNA 261853Z 22010G19KT 10SM -RA SCT031 SCT039 BKN055 18/09 A2997 RMK AO2 RAE09B25 SLP147 P0000 T01780094
2026-04-26 17:53:00,METAR KSNA 261753Z VRB06KT 10SM -RA SCT028 BKN035 BKN048 17/09 A2997 RMK AO2 SLP147 P0000 60001 T01670094 10167 20133 53013
2026-04-26 16:53:00,METAR KSNA 261653Z 24006KT 10SM -RA FEW027 SCT030 BKN050 16/09 A2995 RMK AO2 RAB41 SLP140 P0000 T01610094
2026-04-26 15:53:00,METAR KSNA 261553Z VRB05KT 10SM FEW022 SCT029 OVC047 14/10 A2994 RMK AO2 RAB02E29 SLP137 P0001 T01440100
2026-04-26 14:53:00,METAR KSNA 261453Z 32005KT 10SM FEW014 BKN033 BKN060 14/10 A2993 RMK AO2 SLP134 60000 T01440100 53017
2026-04-26 13:53:00,METAR KSNA 261353Z 00000KT 10SM FEW008 BKN035 BKN090 14/11 A2991 RMK AO2 SLP129 T01390106
2026-04-26 12:53:00,METAR KSNA 261253Z 00000KT 10SM FEW007 BKN037 OVC100 13/12 A2989 RMK AO2 RAE16 SLP120 P0000 T01330117
2026-04-26 12:27:00,SPECI KSNA 261227Z 00000KT 10SM FEW006 BKN070 OVC100 13/12 A2988 RMK AO2 RAE16 P0000 T01330122
2026-04-26 11:53:00,METAR KSNA 261153Z 00000KT 10SM -RA BKN032 OVC045 13/12 A2988 RMK AO2 RAB1056 SLP117 P0001 60006 70006 T01330117 10156 20133 53000
2026-04-26 11:35:00,SPECI KSNA 261135Z 00000KT 10SM -RA FEW022 BKN042 OVC050 13/12 A2988 RMK AO2 RAB1056 P0001 T01330117
2026-04-26 11:22:00,SPECI KSNA 261122Z 00000KT 9SM -RA SCT009 BKN023 OVC065 13/12 A2988 RMK AO2 RAB1056 P0001 T01330117
2026-04-26 11:09:00,SPECI KSNA 261109Z 31004KT 5SM -RA BR BKN007 BKN018 OVC034 13/12 A2987 RMK AO2 RAB1056 P0001 T01330122
2026-04-26 11:02:00,SPECI KSNA 261102Z 00000KT 4SM RA BR SCT007 BKN010 OVC032 13/12 A2987 RMK AO2 RAB1056 P0001 T01330122
2026-04-26 10:53:00,METAR KSNA 261053Z 00000KT 10SM SCT014 BKN019 OVC070 13/12 A2987 RMK AO2 RAE35 SLP115 P0000 T01330122
2026-04-26 09:53:00,METAR KSNA 260953Z 25005KT 4SM -RA BR FEW009 BKN035 OVC043 13/12 A2987 RMK AO2 RAB0854 SLP116 P0002 T01330117
2026-04-26 09:42:00,SPECI KSNA 260942Z 25006KT 5SM -RA BR SCT009 OVC037 13/12 A2988 RMK AO2 RAB0854 P0001 T01330117
2026-04-26 08:53:00,METAR KSNA 260853Z 24005KT 10SM OVC070 14/11 A2988 RMK AO2 RAB20E39 SLP116 P0000 60003 T01440111 58010
2026-04-26 07:53:00,METAR KSNA 260753Z 18003KT 10SM BKN055 BKN075 OVC110 14/12 A2989 RMK AO2 RAE32 SLP122 P0000 T01390117 401940139
2026-04-26 06:53:00,METAR KSNA 260653Z 22008KT 5SM RA BR SCT025 BKN037 OVC060 14/12 A2991 RMK AO2 SLP126 P0003 T01440122
2026-04-26 05:53:00,METAR KSNA 260553Z 25005KT 10SM -RA FEW038 SCT050 OVC065 16/10 A2991 RMK AO2 RAB51 SLP126 LAST P0000 60000 T01560100 10167 20150 50003
2026-04-26 04:53:00,METAR KSNA 260453Z 24006KT 10SM FEW049 BKN085 BKN100 16/11 A2991 RMK AO2 RAE01B17E52 SLP127 P0000 T01560106
2026-04-26 04:18:00,SPECI KSNA 260418Z 25006KT 10SM -RA SCT024 BKN049 OVC090 16/11 A2991 RMK AO2 RAE01B17 P0000 T01560106
2026-04-26 03:53:00,METAR KSNA 260353Z 31003KT 6SM -RA BR BKN023 BKN030 OVC038 15/12 A2991 RMK AO2 RAE0255B39 SLP127 P0000 T01500117
2026-04-26 02:53:00,METAR KSNA 260253Z COR 23004KT 10SM SCT033 OVC043 16/10 A2990 RMK AO2 RAB0154 SLP124 P0000 60000 T01560100 53001
2026-04-26 01:53:00,METAR KSNA 260153Z 23006KT 10SM SCT022 BKN033 OVC041 16/10 A2989 RMK AO2 RAE53 SLP122 P0000 T01560100
2026-04-26 01:48:00,SPECI KSNA 260148Z 26005KT 10SM -RA SCT022 SCT033 OVC041 16/11 A2989 RMK AO2 P0000
2026-04-26 01:33:00,SPECI KSNA 260133Z 24006KT 10SM -RA BKN022 BKN039 OVC080 16/11 A2989 RMK AO2 P0000 T01560106
2026-04-26 00:53:00,METAR KSNA 260053Z 22007KT 10SM -RA BKN075 OVC090 16/11 A2989 RMK AO2 RAB50 SLP123 P0000 T01560111
2026-04-25 23:53:00,METAR KSNA 252353Z VRB06KT 10SM FEW029 SCT048 OVC100 17/09 A2989 RMK AO2 SLP122 T01670094 10194 20167 58003
2026-04-25 22:53:00,METAR KSNA 252253Z 25008G18KT 200V280 10SM SCT031 BKN047 OVC110 17/09 A2990 RMK AO2 SLP124 T01720089
2026-04-25 21:53:00,METAR KSNA 252153Z 23011G19KT 10SM FEW031 BKN041 BKN110 18/09 A2990 RMK AO2 SLP125 T01830089
2026-04-25 20:53:00,METAR KSNA 252053Z 20013G19KT 10SM SCT030 BKN038 BKN046 18/10 A2990 RMK AO2 SLP125 T01830100 56007
2026-04-25 19:53:00,METAR KSNA 251953Z 21012G17KT 10SM FEW029 BKN044 BKN100 18/10 A2990 RMK AO2 SLP126 T01830100
2026-04-25 18:53:00,METAR KSNA 251853Z 24007KT 10SM BKN036 BKN045 18/10 A2992 RMK AO2 SLP132 T01780100
2026-04-25 17:53:00,METAR KSNA 251753Z 21006KT 10SM SCT029 BKN038 BKN100 17/10 A2992 RMK AO2 SLP132 60000 T01720100 10172 20150 51000
2026-04-25 16:53:00,METAR KSNA 251653Z 25003KT 10SM SCT026 BKN036 17/10 A2992 RMK AO2 SLP131 T01670100
2026-04-25 16:37:00,SPECI KSNA 251637Z 25003KT 10SM SCT026 BKN036 17/10 A2991 RMK AO2 T01670100
2026-04-25 15:53:00,METAR KSNA 251553Z 25005KT 10SM BKN025 OVC032 16/11 A2993 RMK AO2 RAB51E53 SLP134 P0000 T01610106
2026-04-25 14:53:00,METAR KSNA 251453Z 23006KT 10SM BKN019 OVC032 16/11 A2992 RMK AO2 RAB02E33 SLP132 P0000 60000 T01610111 53013
2026-04-25 13:53:00,METAR KSNA 251353Z 22006KT 10SM BKN020 OVC025 16/11 A2990 RMK AO2 SLP125 T01560111
2026-04-25 12:53:00,METAR KSNA 251253Z 29003KT 10SM BKN024 OVC048 16/11 A2989 RMK AO2 SLP120 T01560111
2026-04-25 12:43:00,SPECI KSNA 251243Z AUTO VRB03KT 10SM BKN025 OVC048 16/11 A2988 RMK AO2 T01560111
2026-04-25 11:53:00,METAR KSNA 251153Z AUTO VRB04KT 10SM SCT020 BKN035 OVC043 16/12 A2988 RMK AO2 SLP119 60000 T01560117 10172 20156 53001
2026-04-25 11:46:00,SPECI KSNA 251146Z AUTO 00000KT 10SM SCT020 BKN033 OVC043 16/12 A2988 RMK AO2 T01560117
2026-04-25 10:53:00,METAR KSNA 251053Z AUTO 23004KT 10SM OVC020 16/12 A2988 RMK AO2 SLP117 T01560122
2026-04-25 10:14:00,SPECI KSNA 251014Z AUTO 24003KT 10SM SCT020 BKN024 OVC037 16/12 A2987 RMK AO2 T01610122
2026-04-25 09:53:00,METAR KSNA 250953Z AUTO 00000KT 10SM OVC037 16/13 A2987 RMK AO2 SLP116 T01610128
2026-04-25 09:05:00,SPECI KSNA 250905Z AUTO 00000KT 10SM SCT018 OVC035 16/13 A2988 RMK AO2 T01610128
2026-04-25 08:53:00,METAR KSNA 250853Z AUTO 25003KT 10SM BKN018 OVC037 16/13 A2988 RMK AO2 SLP117 60000 T01610128 58007
2026-04-25 08:09:00,SPECI KSNA 250809Z AUTO 17004KT 10SM SCT025 OVC034 17/12 A2989 RMK AO2 T01720117
2026-04-25 07:53:00,METAR KSNA 250753Z AUTO 13004KT 10SM BKN026 OVC033 17/11 A2989 RMK AO2 SLP121 T01670111 402220150
2026-04-25 07:08:00,SPECI KSNA 250708Z AUTO 12005KT 10SM BKN026 17/11 A2989 RMK AO2 T01670111
2026-04-25 07:00:00,SPECI KSNA 250700Z AUTO 12004KT 10SM SCT026 BKN036 17/11 A2989 RMK AO2 T01670111
2026-04-25 06:53:00,METAR KSNA 250653Z AUTO 13004KT 10SM BKN028 BKN036 17/11 A2990 RMK AO2 RAB0558E14 SLP122 P0000 T01670111
2026-04-25 05:53:00,METAR KSNA 250553Z 13005KT 10SM BKN028 BKN036 17/11 A2990 RMK AO2 SLP124 LAST T01720111 10194 20172 50009
2026-04-25 04:53:00,METAR KSNA 250453Z 12008KT 10SM BKN023 18/11 A2991 RMK AO2 SLP129 T01780111
2026-04-25 03:53:00,METAR KSNA 250353Z 16007KT 10SM BKN020 17/12 A2989 RMK AO2 SLP122 T01720117
2026-04-25 02:53:00,METAR KSNA 250253Z VRB04KT 10SM BKN028 BKN250 18/13 A2988 RMK AO2 SLP116 T01830128 51007
2026-04-25 01:53:00,METAR KSNA 250153Z 22009KT 10SM BKN022 BKN250 18/13 A2987 RMK AO2 SLP115 T01780128
2026-04-25 01:17:00,SPECI KSNA 250117Z 23007KT 10SM BKN022 BKN250 19/13 A2986 RMK AO2 T01890128
2026-04-25 00:53:00,METAR KSNA 250053Z 18011G18KT 10SM FEW027 SCT090 SCT250 19/13 A2986 RMK AO2 SLP111 T01890133
2026-04-24 23:53:00,METAR KSNA 242353Z 19013G22KT 10SM FEW027 FEW050 SCT090 SCT250 19/12 A2986 RMK AO2 SLP109 60000 T01940122 10222 20194 56012
2026-04-24 22:53:00,METAR KSNA 242253Z 19013KT 10SM FEW025 FEW050 SCT090 SCT250 20/12 A2986 RMK AO2 PK WND 22026/2219 SLP112 T02000122
2026-04-24 21:53:00,METAR KSNA 242153Z 19012KT 10SM FEW045 FEW080 SCT250 21/12 A2988 RMK AO2 SLP118 T02060122
2026-04-24 20:53:00,METAR KSNA 242053Z 20014G22KT 10SM FEW045 FEW250 21/13 A2989 RMK AO2 PK WND 19026/2033 RAB46E49 SLP121 P0000 60000 T02110128 56016
2026-04-24 19:53:00,METAR KSNA 241953Z 21014G23KT 10SM FEW045 FEW250 22/11 A2990 RMK AO2 SLP122 T02220106
2026-04-24 18:53:00,METAR KSNA 241853Z 28009G19KT 10SM FEW025 FEW250 21/11 A2992 RMK AO2 SLP130 T02110111
2026-04-24 17:53:00,METAR KSNA 241753Z 21009KT 10SM FEW025 FEW250 21/13 A2994 RMK AO2 SLP136 T02060128 10206 20150 55000
2026-04-24 17:10:00,SPECI KSNA 241710Z 22004KT 10SM SCT027 BKN250 19/12 A2994 RMK AO2 T01940117
2026-04-24 16:53:00,METAR KSNA 241653Z 19006KT 10SM BKN025 19/12 A2994 RMK AO2 SLP137 T01890117
2026-04-24 15:53:00,METAR KSNA 241553Z 19006KT 10SM BKN019 BKN026 18/13 A2994 RMK AO2 SLP137 T01780128
2026-04-24 15:22:00,SPECI KSNA 241522Z 09005KT 10SM BKN018 BKN250 17/13 A2993 RMK AO2 T01720128
2026-04-24 14:53:00,METAR KSNA 241453Z 11007KT 10SM FEW018 FEW250 15/12 A2992 RMK AO2 T01500118
2026-04-24 13:53:00,METAR KSNA 241353Z AUTO 12006KT 10SM CLR 16/12 A2992 RMK AO2 SLP133 T01560117 $
2026-04-24 12:53:00,METAR KSNA 241253Z AUTO 10005KT 10SM CLR 15/12 A2990 RMK AO2 SLP126 T01500122 $
2026-04-24 11:53:00,METAR KSNA 241153Z AUTO 10005KT 10SM CLR 15/12 A2990 RMK AO2 SLP124 T01500122 10172 20150 58007 $
2026-04-24 10:53:00,METAR KSNA 241053Z AUTO 09004KT 10SM CLR 15/10 A2991 RMK AO2 SLP128 T01500100 $
2026-04-24 09:53:00,METAR KSNA 240953Z AUTO 00000KT 10SM CLR 16/10 A2991 RMK AO2 SLP127 T01560100 $
2026-04-24 08:53:00,METAR KSNA 240853Z AUTO 00000KT 10SM CLR 16/09 A2992 RMK AO2 SLP131 T01610094 $
2026-04-24 07:53:00,METAR KSNA 240753Z AUTO 10004KT 10SM CLR 16/10 A2993 RMK AO2 SLP135 T01610100 402220139 $
2026-04-24 06:53:00,METAR KSNA 240653Z AUTO 00000KT 10SM CLR 17/12 A2994 RMK AO2 SLP139 T01720117
2026-04-24 05:53:00,METAR KSNA 240553Z 15003KT 10SM CLR 17/13 A2994 RMK AO2 SLP139 LAST T01670128 10211 20167 50012
2026-04-24 04:53:00,METAR KSNA 240453Z 18005KT 10SM FEW250 17/13 A2995 RMK AO2 SLP140 T01720128
2026-04-24 03:53:00,METAR KSNA 240353Z 22004KT 10SM FEW250 18/12 A2993 RMK AO2 SLP133 T01780117
2026-04-24 02:53:00,METAR KSNA 240253Z 25004KT 10SM FEW250 18/11 A2991 RMK AO2 SLP127 T01830111 53001 $
2026-04-24 01:53:00,METAR KSNA 240153Z 23008KT 10SM FEW250 19/10 A2990 RMK AO2 SLP126 T01940100 $
2026-04-24 00:53:00,METAR KSNA 240053Z 24006KT 10SM FEW050 FEW250 21/10 A2990 RMK AO2 SLP125 T02060100 $
2026-04-23 23:53:00,METAR KSNA 232353Z 24005KT 10SM FEW050 21/11 A2990 RMK AO2 SLP126 T02060106 10222 20189 56017 $
2026-04-23 22:53:00,METAR KSNA 232253Z 23008KT 10SM FEW050 21/08 A2991 RMK AO2 SLP128 T02110083 $
2026-04-23 21:53:00,METAR KSNA 232153Z 21009KT 10SM CLR 22/09 A2994 RMK AO2 SLP137 T02170094 $
2026-04-23 20:53:00,METAR KSNA 232053Z 23009G15KT 160V280 10SM FEW029 FEW250 21/12 A2996 RMK AO2 SLP143 T02060117 58017 $
2026-04-23 19:53:00,METAR KSNA 231953Z 20010G17KT 10SM FEW029 SCT180 21/12 A2997 RMK AO2 SLP149 T02060122 $
2026-04-23 18:53:00,METAR KSNA 231853Z 21010KT 10SM SCT026 SCT150 20/11 A2999 RMK AO2 SLP156 T02000111 $
2026-04-23 17:53:00,METAR KSNA 231753Z VRB03KT 10SM SCT027 SCT150 19/11 A3000 RMK AO2 SLP160 T01890106 10194 20139 58005 $
2026-04-23 16:53:00,METAR KSNA 231653Z 20005KT 10SM SCT026 SCT150 18/11 A3002 RMK AO2 SLP164 T01830106 $
2026-04-23 15:53:00,METAR KSNA 231553Z VRB04KT 10SM FEW018 SCT029 BKN150 18/11 A3002 RMK AO2 SLP164 T01780106 $
2026-04-23 14:53:00,METAR KSNA 231453Z 11006KT 10SM FEW017 FEW024 SCT050 SCT150 16/08 A3002 RMK AO2 SLP165 T01560083 51010 $
2026-04-23 13:53:00,METAR KSNA 231353Z 13003KT 10SM FEW015 SCT023 SCT050 BKN150 15/09 A3001 RMK AO2 SLP163 T01500094 $
2026-04-23 12:53:00,METAR KSNA 231253Z 11006KT 10SM BKN022 14/10 A3000 RMK AO2 SLP158 T01390100 $
2026-04-23 12:13:00,SPECI KSNA 231213Z AUTO 08004KT 10SM BKN019 14/10 A2999 RMK AO2 T01390100 $
2026-04-23 11:53:00,METAR KSNA 231153Z AUTO 00000KT 10SM CLR 14/10 A2999 RMK AO2 SLP155 T01390100 10167 20139 57003 $
2026-04-23 10:53:00,METAR KSNA 231053Z AUTO 06003KT 10SM SCT020 14/09 A2999 RMK AO2 SLP156 T01440089 $
2026-04-23 10:48:00,SPECI KSNA 231048Z AUTO 10003KT 10SM SCT020 14/09 A2999 RMK AO2 $
2026-04-23 09:53:00,METAR KSNA 230953Z AUTO 12004KT 10SM BKN021 14/09 A3000 RMK AO2 SLP158 T01440089 $
2026-04-23 09:43:00,SPECI KSNA 230943Z AUTO 08003KT 10SM BKN021 14/09 A3001 RMK AO2 T01440089 $
2026-04-23 08:53:00,METAR KSNA 230853Z AUTO 00000KT 10SM CLR 15/09 A3002 RMK AO2 SLP165 T01500094 58011 $
2026-04-23 07:53:00,METAR KSNA 230753Z AUTO 11004KT 10SM CLR 15/09 A3003 RMK AO2 SLP170 T01500094 402060139 $
2026-04-23 06:53:00,METAR KSNA 230653Z AUTO 00000KT 10SM CLR 16/10 A3005 RMK AO2 SLP174 T01610100 $
2026-04-23 05:53:00,METAR KSNA 230553Z 22003KT 10SM CLR 17/09 A3005 RMK AO2 SLP176 LAST T01670094 10194 20167 51005 $
2026-04-23 04:53:00,METAR KSNA 230453Z 00000KT 10SM CLR 17/09 A3005 RMK AO2 SLP176 T01720089 $
2026-04-23 03:53:00,METAR KSNA 230353Z 28003KT 10SM CLR 17/09 A3005 RMK AO2 SLP174 T01720094 $
2026-04-23 02:53:00,METAR KSNA 230253Z 25004KT 10SM FEW020 17/09 A3003 RMK AO2 SLP170 T01720094 56005 $
2026-04-23 01:53:00,METAR KSNA 230153Z 26006KT 10SM CLR 18/08 A3004 RMK AO2 SLP171 T01780078 $
2026-04-23 00:53:00,METAR KSNA 230053Z 23010KT 10SM FEW250 18/08 A3004 RMK AO2 SLP171 T01830083 $
2026-04-22 23:53:00,METAR KSNA 222353Z 27008G16KT 10SM FEW045 FEW250 19/05 A3005 RMK AO2 SLP175 T01940050 10206 20183 56021 $
2026-04-22 22:53:00,METAR KSNA 222253Z 26011G20KT 10SM FEW045 FEW250 19/05 A3007 RMK AO2 SLP181 T01890050 $
2026-04-22 21:53:00,METAR KSNA 222153Z 24008KT 10SM FEW045 SCT250 20/07 A3009 RMK AO2 SLP188 T02000067 $
2026-04-22 20:53:00,METAR KSNA 222053Z 25009G16KT 220V280 10SM FEW045 SCT250 20/08 A3011 RMK AO2 SLP195 T02000078 58017 $
2026-04-22 19:53:00,METAR KSNA 221953Z 25006G17KT 10SM FEW022 SCT045 BKN250 20/08 A3013 RMK AO2 SLP202 T02000078 $
2026-04-22 18:53:00,METAR KSNA 221853Z 28004KT 10SM FEW022 SCT040 BKN250 19/08 A3015 RMK AO2 SLP208 T01940078 $
2026-04-22 17:53:00,METAR KSNA 221753Z 30006KT 10SM SCT035 SCT050 BKN250 19/08 A3016 RMK AO2 SLP212 T01890078 10189 20139 51005 $
2026-04-22 16:53:00,METAR KSNA 221653Z 30004KT 10SM FEW017 SCT032 BKN045 BKN250 17/09 A3015 RMK AO2 SLP211 T01720089 $
2026-04-22 15:53:00,METAR KSNA 221553Z 33004KT 10SM FEW017 FEW026 SCT044 SCT150 17/10 A3015 RMK AO2 SLP209 T01720100 $
2026-04-20 15:53:00,METAR KSNA 201553Z 24003KT 10SM BKN015 BKN250 17/13 A3001 RMK AO2 SLP162 T01720128 $
2026-04-20 15:45:00,SPECI KSNA 201545Z 21005KT 10SM BKN015 BKN250 17/13 A3001 RMK AO2 T01720128 $
2026-04-20 14:53:00,METAR KSNA 201453Z 00000KT 10SM FEW018 FEW250 16/13 A3000 RMK AO2 SLP159 T01610128 53014 $
2026-04-20 13:53:00,METAR KSNA 201353Z 00000KT 10SM SCT018 SCT250 14/12 A2998 RMK AO2 SLP151 T01440122 $
2026-04-20 12:53:00,METAR KSNA 201253Z 00000KT 10SM SCT018 14/12 A2996 RMK AO2 SLP146 T01440122 $
2026-04-20 11:53:00,METAR KSNA 201153Z AUTO 00000KT 10SM CLR 15/13 A2996 RMK AO2 SLP145 T01500128 10172 20144 55002 $
2026-04-20 10:53:00,METAR KSNA 201053Z AUTO 00000KT 10SM CLR 15/13 A2996 RMK AO2 SLP143 T01500128 $
2026-04-20 09:53:00,METAR KSNA 200953Z AUTO 10003KT 10SM CLR 16/13 A2996 RMK AO2 SLP145 T01560128 $
2026-04-20 08:53:00,METAR KSNA 200853Z AUTO 00000KT 10SM CLR 16/14 A2997 RMK AO2 SLP146 T01610139 50005 $
2026-04-20 07:53:00,METAR KSNA 200753Z AUTO 21004KT 10SM CLR 17/14 A2997 RMK AO2 SLP146 T01670139 402390156 $
2026-04-20 06:53:00,METAR KSNA 200653Z AUTO 21003KT 10SM CLR 17/14 A2995 RMK AO2 SLP142 T01670139 $
2026-04-20 05:53:00,METAR KSNA 200553Z COR 22005KT 10SM FEW014 17/14 A2995 RMK AO2 SLP141 LAST T01720144 10217 20172 51018 $
2026-04-20 04:53:00,METAR KSNA 200453Z 23005KT 10SM FEW013 17/14 A2994 RMK AO2 SLP137 T01720144 $
2026-04-20 03:53:00,METAR KSNA 200353Z 22005KT 10SM CLR 18/14 A2992 RMK AO2 SLP130 T01780144 $
2026-04-20 02:53:00,METAR KSNA 200253Z 22005KT 10SM FEW013 18/13 A2990 RMK AO2 SLP124 T01830128 53007 $
2026-04-20 00:53:00,METAR KSNA 200053Z 22007KT 10SM FEW250 21/13 A2988 RMK AO2 SLP119 T02110133 $
2026-04-19 23:53:00,METAR KSNA 192353Z 23008KT 10SM FEW060 FEW250 21/13 A2988 RMK AO2 SLP116 T02110133 10239 20211 56012 $
2026-04-19 22:53:00,METAR KSNA 192253Z 23009KT 10SM FEW045 FEW250 22/14 A2988 RMK AO2 SLP117 T02220139 $
2026-04-19 21:53:00,METAR KSNA 192153Z COR 23009KT 10SM FEW065 FEW250 23/12 A2990 RMK AO2 SLP122 T02280122 $
2026-04-19 20:53:00,METAR KSNA 192053Z 20013KT 10SM FEW250 22/13 A2991 RMK AO2 SLP127 T02220133 58006 $
2026-04-19 19:53:00,METAR KSNA 191953Z 21009KT 10SM FEW250 24/12 A2992 RMK AO2 SLP131 T02390117 $
2026-04-19 18:53:00,METAR KSNA 191853Z 20009KT 10SM FEW250 22/12 A2993 RMK AO2 SLP135 T02220122 $
2026-04-19 17:53:00,METAR KSNA 191753Z 15004KT 10SM FEW250 22/10 A2993 RMK AO2 SLP133 T02220100 10222 20156 51009 $
2026-04-19 16:53:00,METAR KSNA 191653Z 18003KT 10SM SCT250 20/12 A2992 RMK AO2 SLP131 T02000122 $
2026-04-19 15:53:00,METAR KSNA 191553Z VRB03KT 10SM BKN250 19/13 A2992 RMK AO2 SLP130 T01890133 $
2026-04-19 14:53:00,METAR KSNA 191453Z COR 00000KT 10SM BKN250 18/13 A2990 RMK AO2 SLP124 T01780128 53011 $
2026-04-19 13:53:00,METAR KSNA 191353Z 00000KT 10SM BKN260 16/12 A2988 RMK AO2 SLP116 T01560117 $
2026-04-19 12:53:00,METAR KSNA 191253Z 05003KT 10SM BKN250 16/12 A2986 RMK AO2 SLP110 T01560122 $
2026-04-19 11:53:00,METAR KSNA 191153Z AUTO 00000KT 10SM CLR 16/12 A2987 RMK AO2 SLP113 T01610122 10183 20161 56015 $
2026-04-19 10:53:00,METAR KSNA 191053Z AUTO 00000KT 10SM CLR 17/12 A2988 RMK AO2 SLP118 T01670122 $
2026-04-19 09:53:00,METAR KSNA 190953Z AUTO 00000KT 10SM CLR 17/12 A2990 RMK AO2 SLP123 T01670122 $
2026-04-19 08:53:00,METAR KSNA 190853Z AUTO 15003KT 10SM CLR 17/14 A2991 RMK AO2 SLP128 T01720139 58011 $
2026-04-19 07:53:00,METAR KSNA 190753Z AUTO 00000KT 10SM CLR 18/14 A2994 RMK AO2 SLP135 T01780139 402560139 $
2026-04-19 06:53:00,METAR KSNA 190653Z AUTO 10004KT 10SM CLR 18/13 A2994 RMK AO2 SLP137 T01780133 $
2026-04-19 05:53:00,METAR KSNA 190553Z 00000KT 9SM CLR 18/14 A2995 RMK AO2 SLP139 LAST T01830144 10250 20183 50011 $
2026-04-19 04:53:00,METAR KSNA 190453Z 15004KT 10SM FEW250 19/14 A2995 RMK AO2 SLP140 T01890144 $
2026-04-19 03:53:00,METAR KSNA 190353Z 16005KT 10SM FEW250 19/15 A2993 RMK AO2 SLP135 T01890150 $
2026-04-19 02:53:00,METAR KSNA 190253Z 20007KT 9SM FEW250 19/14 A2991 RMK AO2 SLP129 T01940139 53008 $
2026-04-19 01:53:00,METAR KSNA 190153Z 20013KT 10SM FEW250 21/13 A2990 RMK AO2 SLP126 T02060133 $
2026-04-19 00:53:00,METAR KSNA 190053Z 22008KT 10SM CLR 24/09 A2989 RMK AO2 SLP120 T02390094 $
2026-04-18 23:53:00,METAR KSNA 182353Z 22008KT 10SM CLR 24/09 A2989 RMK AO2 SLP120 T02440094 10256 20217 56017 $
2026-04-18 22:53:00,METAR KSNA 182253Z 21006KT 10SM FEW060 FEW250 26/02 A2990 RMK AO2 SLP122 T02560017 $
2026-04-18 21:53:00,METAR KSNA 182153Z 22007KT 10SM CLR 25/07 A2992 RMK AO2 SLP130 T02500067 $
2026-04-18 20:53:00,METAR KSNA 182053Z 22007KT 10SM FEW250 24/10 A2994 RMK AO2 SLP137 T02440100 58012
2026-04-18 19:53:00,METAR KSNA 181953Z 23007KT 10SM FEW250 23/12 A2996 RMK AO2 SLP142 T02280122
2026-04-18 18:53:00,METAR KSNA 181853Z 23007KT 10SM FEW250 22/13 A2997 RMK AO2 SLP148 T02220133
2026-04-18 17:53:00,METAR KSNA 181753Z 20005KT 10SM FEW090 FEW250 22/13 A2997 RMK AO2 SLP148 T02170133 10217 20139 50006
2026-04-18 16:53:00,METAR KSNA 181653Z 20004KT 10SM FEW080 FEW250 20/13 A2997 RMK AO2 SLP149 T02000128
2026-04-18 15:53:00,METAR KSNA 181553Z 19003KT 10SM FEW250 18/13 A2996 RMK AO2 SLP145 T01780133
2026-04-18 14:53:00,METAR KSNA 181453Z 00000KT 10SM FEW250 16/12 A2996 RMK AO2 SLP144 T01610122 53007
2026-04-18 13:53:00,METAR KSNA 181353Z 00000KT 10SM FEW250 14/12 A2994 RMK AO2 SLP139 T01440117
2026-04-18 12:53:00,METAR KSNA 181253Z 03004KT 10SM FEW080 14/12 A2994 RMK AO2 SLP139 T01440117
2026-04-18 11:53:00,METAR KSNA 181153Z AUTO 00000KT 10SM CLR 15/12 A2994 RMK AO2 SLP136 T01500122 10178 20150 56010
2026-04-18 10:53:00,METAR KSNA 181053Z AUTO 09003KT 10SM CLR 16/13 A2994 RMK AO2 SLP138 T01560133
2026-04-18 09:53:00,METAR KSNA 180953Z AUTO 07004KT 10SM CLR 16/13 A2995 RMK AO2 SLP140 T01610128
2026-04-18 08:53:00,METAR KSNA 180853Z AUTO 09003KT 10SM CLR 17/13 A2997 RMK AO2 SLP146 T01670128 58003
2026-04-18 07:53:00,METAR KSNA 180753Z AUTO 12004KT 10SM CLR 17/13 A2998 RMK AO2 SLP149 T01670128 402280139
2026-04-18 06:53:00,METAR KSNA 180653Z AUTO 10004KT 10SM CLR 17/13 A2998 RMK AO2 SLP150 T01720128
2026-04-18 05:53:00,METAR KSNA 180553Z 15005KT 10SM CLR 18/13 A2998 RMK AO2 SLP149 LAST T01780133 10222 20178 52017
2026-04-18 04:53:00,METAR KSNA 180453Z 00000KT 10SM CLR 18/13 A2996 RMK AO2 SLP145 T01830128
2026-04-18 03:53:00,METAR KSNA 180353Z 22004KT 10SM CLR 19/13 A2994 RMK AO2 SLP138 T01890133
2026-04-18 02:53:00,METAR KSNA 180253Z 22005KT 10SM CLR 19/13 A2993 RMK AO2 SLP133 T01890128 55001
2026-04-18 01:53:00,METAR KSNA 180153Z 22007KT 10SM CLR 20/12 A2992 RMK AO2 SLP132 T02000122
2026-04-18 00:53:00,METAR KSNA 180053Z 23007KT 10SM CLR 21/11 A2992 RMK AO2 SLP133 T02110111
2026-04-17 23:53:00,METAR KSNA 172353Z 21008KT 10SM CLR 22/12 A2993 RMK AO2 SLP134 T02220117 10228 20200 58015
2026-04-17 22:53:00,METAR KSNA 172253Z 25003KT 10SM CLR 22/11 A2994 RMK AO2 SLP139 T02170106
2026-04-17 21:53:00,METAR KSNA 172153Z 21008KT 10SM CLR 21/11 A2996 RMK AO2 SLP146 T02110111
2026-04-17 20:53:00,METAR KSNA 172053Z 20011KT 10SM CLR 21/12 A2997 RMK AO2 SLP149 T02110117 58011
2026-04-17 19:53:00,METAR KSNA 171953Z 20011KT 10SM CLR 21/12 A2999 RMK AO2 SLP154 T02110117
2026-04-17 18:53:00,METAR KSNA 171853Z 20010KT 10SM FEW025 21/12 A2999 RMK AO2 SLP156 T02060117
2026-04-17 17:53:00,METAR KSNA 171753Z VRB03KT 10SM FEW025 21/09 A3001 RMK AO2 SLP160 T02060094 10206 20139 51008
2026-04-17 16:53:00,METAR KSNA 171653Z VRB03KT 10SM FEW025 18/10 A3000 RMK AO2 SLP159 T01830100
2026-04-17 15:53:00,METAR KSNA 171553Z 08007KT 10SM FEW015 FEW025 17/10 A2999 RMK AO2 SLP157 T01720100
2026-04-17 14:53:00,METAR KSNA 171453Z VRB05KT 10SM FEW015 16/09 A2998 RMK AO2 SLP152 T01560094 53020
2026-04-17 13:53:00,METAR KSNA 171353Z 08005KT 10SM FEW015 14/10 A2996 RMK AO2 SLP144 T01440100
2026-04-17 12:53:00,METAR KSNA 171253Z 09006KT 10SM FEW015 14/10 A2994 RMK AO2 SLP137 T01390100
2026-04-17 11:53:00,METAR KSNA 171153Z AUTO 11006KT 10SM CLR 14/11 A2992 RMK AO2 SLP132 T01440106 10167 20144 51002
2026-04-17 10:53:00,METAR KSNA 171053Z AUTO 09005KT 10SM CLR 15/11 A2992 RMK AO2 SLP131 T01500106
2026-04-17 09:53:00,METAR KSNA 170953Z AUTO 10005KT 10SM CLR 15/11 A2992 RMK AO2 SLP132 T01500111
2026-04-17 08:53:00,METAR KSNA 170853Z AUTO 15005KT 10SM CLR 16/12 A2992 RMK AO2 SLP130 T01560122 51003
2026-04-17 07:53:00,METAR KSNA 170753Z AUTO 13003KT 10SM CLR 16/12 A2992 RMK AO2 SLP130 T01560122 402110144
2026-04-17 06:53:00,METAR KSNA 170653Z AUTO 12005KT 10SM CLR 16/12 A2991 RMK AO2 SLP128 T01610122
2026-04-17 05:53:00,METAR KSNA 170553Z 13005KT 10SM CLR 17/13 A2991 RMK AO2 SLP127 LAST T01670128 10206 20167 51010
2026-04-17 04:53:00,METAR KSNA 170453Z 15005KT 10SM FEW015 17/13 A2990 RMK AO2 SLP126 T01720133
2026-04-17 03:53:00,METAR KSNA 170353Z 19007KT 10SM SCT020 17/14 A2989 RMK AO2 SLP122 T01720139
2026-04-17 02:53:00,METAR KSNA 170253Z 18008KT 10SM FEW020 SCT200 17/13 A2988 RMK AO2 SLP116 T01720133 53001
2026-04-17 01:53:00,METAR KSNA 170153Z 20010KT 10SM FEW035 SCT200 18/13 A2987 RMK AO2 SLP114 T01830133
2026-04-17 00:53:00,METAR KSNA 170053Z 21010KT 10SM FEW040 BKN200 19/11 A2987 RMK AO2 SLP115 T01940111
2026-04-16 23:53:00,METAR KSNA 162353Z 20011KT 10SM FEW055 BKN200 21/12 A2987 RMK AO2 SLP116 T02110117 10211 20189 56015
2026-04-16 22:53:00,METAR KSNA 162253Z 20010KT 10SM FEW050 BKN200 20/13 A2988 RMK AO2 SLP119 T02000128
2026-04-16 21:53:00,METAR KSNA 162153Z 21012KT 10SM FEW050 BKN180 21/13 A2990 RMK AO2 SLP124 T02110128
2026-04-16 20:53:00,METAR KSNA 162053Z 21012KT 10SM FEW060 OVC180 21/12 A2992 RMK AO2 SLP130 T02060122 56015
2026-04-16 19:53:00,METAR KSNA 161953Z 20011KT 10SM SCT020 BKN180 21/13 A2993 RMK AO2 SLP135 T02110128
2026-04-16 18:53:00,METAR KSNA 161853Z 20006KT 10SM FEW015 SCT021 BKN180 21/12 A2994 RMK AO2 SLP138 T02060122
2026-04-16 17:53:00,METAR KSNA 161753Z 21006KT 10SM FEW015 SCT019 BKN180 19/12 A2996 RMK AO2 SLP145 T01890122 10194 20144 50007
2026-04-16 16:53:00,METAR KSNA 161653Z 22004KT 10SM FEW014 SCT019 BKN180 18/13 A2996 RMK AO2 SLP146 T01780128
2026-04-16 15:53:00,METAR KSNA 161553Z VRB03KT 10SM FEW013 BKN018 BKN180 17/13 A2995 RMK AO2 SLP142 T01670128
2026-04-16 12:53:00,METAR KSNA 161253Z 00000KT 10SM FEW010 SCT019 BKN200 14/12 A2991 RMK AO2 SLP126 T01440117 $
2026-04-16 11:53:00,METAR KSNA 161153Z 00000KT 10SM CLR 14/12 A2991 RMK AO2 SLP128 T01440117 10161 20144 56011 $
2026-04-16 10:53:00,METAR KSNA 161053Z 09003KT 10SM CLR 14/12 A2991 RMK AO2 SLP127 T01440117 $
2026-04-16 07:53:00,METAR KSNA 160753Z 14004KT 10SM CLR 16/13 A2996 RMK AO2 SLP146 T01560133 402220133 $
2026-04-16 06:53:00,METAR KSNA 160653Z 00000KT 10SM CLR 16/13 A2998 RMK AO2 SLP153 T01610133 $
2026-04-16 05:53:00,METAR KSNA 160553Z 25003KT 10SM CLR 16/13 A2999 RMK AO2 SLP154 LAST T01610133 10211 20161 50007 $
2026-04-16 04:53:00,METAR KSNA 160453Z 20003KT 10SM CLR 17/14 A2999 RMK AO2 SLP155 T01670139 $
2026-04-16 03:53:00,METAR KSNA 160353Z 22004KT 10SM CLR 17/13 A2998 RMK AO2 SLP153 T01670133 $
2026-04-16 02:53:00,METAR KSNA 160253Z 22006KT 10SM FEW020 FEW200 18/13 A2997 RMK AO2 SLP147 T01780133 55002 $
2026-04-16 01:53:00,METAR KSNA 160153Z 24007KT 10SM FEW020 FEW200 19/12 A2995 RMK AO2 SLP143 T01940122 $
2026-04-16 00:53:00,METAR KSNA 160053Z 24006KT 10SM FEW035 FEW180 21/11 A2996 RMK AO2 SLP145 T02060111 $
2026-04-15 22:53:00,METAR KSNA 152253Z 24006KT 10SM FEW025 FEW180 21/12 A2998 RMK AO2 SLP152 T02110117 $
2026-04-15 21:53:00,METAR KSNA 152153Z 20010KT 10SM FEW020 FEW180 22/09 A3000 RMK AO2 SLP159 VIRGA N AND W T02220094 $
2026-04-15 20:53:00,METAR KSNA 152053Z 21008KT 190V250 10SM FEW020 SCT180 22/12 A3002 RMK AO2 SLP165 VIRGA OHD T02170117 58010 $
2026-04-15 19:53:00,METAR KSNA 151953Z 23009KT 10SM FEW020 SCT180 21/12 A3003 RMK AO2 SLP168 T02060117 $
2026-04-15 18:53:00,METAR KSNA 151853Z 20008KT 10SM FEW018 FEW200 20/12 A3004 RMK AO2 SLP172 T02000122 $
2026-04-15 17:53:00,METAR KSNA 151753Z 22003KT 10SM FEW018 FEW200 19/12 A3005 RMK AO2 SLP175 T01890122 10194 20133 51004 $
2026-04-15 16:53:00,METAR KSNA 151653Z 22006KT 10SM SCT018 18/13 A3005 RMK AO2 SLP175 T01830128 $
2026-04-15 16:29:00,SPECI KSNA 151629Z 21006KT 10SM BKN018 18/12 A3004 RMK AO2 T01780122 $
2026-04-15 15:53:00,METAR KSNA 151553Z 21005KT 10SM SCT017 17/13 A3004 RMK AO2 SLP173 T01720128 $
2026-04-15 14:53:00,METAR KSNA 151453Z 19003KT 10SM FEW015 16/13 A3004 RMK AO2 SLP171 T01560128 53012 $
2026-04-15 13:53:00,METAR KSNA 151353Z 00000KT 10SM FEW015 14/11 A3002 RMK AO2 SLP167 T01390106 $
2026-04-15 12:53:00,METAR KSNA 151253Z 06004KT 10SM CLR 13/11 A3001 RMK AO2 SLP160 T01330106 $
2026-04-15 11:53:00,METAR KSNA 151153Z AUTO 06004KT 10SM CLR 13/11 A3000 RMK AO2 SLP160 T01330106 10172 20133 56008 $
2026-04-15 10:53:00,METAR KSNA 151053Z AUTO 00000KT 10SM CLR 14/11 A3000 RMK AO2 SLP160 T01390106 $
2026-04-15 09:53:00,METAR KSNA 150953Z AUTO 08004KT 10SM CLR 14/11 A3002 RMK AO2 SLP165 T01440111 $
2026-04-15 08:53:00,METAR KSNA 150853Z AUTO 10003KT 10SM CLR 15/11 A3003 RMK AO2 SLP168 T01500106 58005 $
2026-04-15 07:53:00,METAR KSNA 150753Z AUTO 20003KT 10SM CLR 16/12 A3004 RMK AO2 SLP171 T01560117 402110128 $
2026-04-15 06:53:00,METAR KSNA 150653Z AUTO 18003KT 10SM CLR 16/12 A3004 RMK AO2 SLP172 T01610117 $
2026-04-15 05:53:00,METAR KSNA 150553Z 00000KT 10SM FEW020 17/09 A3004 RMK AO2 SLP173 LAST T01720094 10200 20172 50008 $
2026-04-15 04:53:00,METAR KSNA 150453Z 00000KT 10SM CLR 17/11 A3005 RMK AO2 SLP175 T01720111 $
2026-04-15 03:53:00,METAR KSNA 150353Z 22004KT 10SM CLR 17/12 A3004 RMK AO2 SLP171 T01720122 $
2026-04-15 01:53:00,METAR KSNA 150153Z 24006KT 10SM CLR 18/11 A3001 RMK AO2 SLP163 T01830111 $
2026-04-15 00:53:00,METAR KSNA 150053Z 24007KT 10SM FEW034 19/12 A3002 RMK AO2 SLP167 T01940117 $
2026-04-14 23:53:00,METAR KSNA 142353Z 25008G15KT 10SM FEW036 20/11 A3003 RMK AO2 SLP169 T02000106 10211 20183 56015 $
2026-04-14 22:53:00,METAR KSNA 142253Z 27008KT 220V290 10SM FEW039 20/10 A3004 RMK AO2 SLP171 T02000100 $
2026-04-14 21:53:00,METAR KSNA 142153Z VRB05KT 10SM FEW037 21/09 A3006 RMK AO2 SLP177 T02060094 $
2026-04-14 20:53:00,METAR KSNA 142053Z 19010G17KT 10SM SCT038 20/11 A3008 RMK AO2 SLP184 T02000111 58014 $
2026-04-14 19:53:00,METAR KSNA 141953Z 20007KT 10SM BKN038 20/10 A3009 RMK AO2 SLP190 T02000100 $
2026-04-14 18:53:00,METAR KSNA 141853Z 20006KT 10SM SCT039 19/11 A3011 RMK AO2 SLP196 T01940106 $
2026-04-14 17:53:00,METAR KSNA 141753Z 20003KT 10SM BKN037 18/09 A3012 RMK AO2 SLP198 T01830094 10189 20128 51007 $
2026-04-14 16:53:00,METAR KSNA 141653Z 18005KT 10SM FEW015 BKN034 18/09 A3011 RMK AO2 SLP197 T01780094 $
2026-04-14 15:53:00,METAR KSNA 141553Z 00000KT 10SM FEW015 SCT024 17/10 A3011 RMK AO2 SLP196 T01670100 $
2026-04-14 14:53:00,METAR KSNA 141453Z 10006KT 10SM FEW015 SCT024 15/09 A3010 RMK AO2 SLP191 T01500094 51010 $
2026-04-14 13:53:00,METAR KSNA 141353Z 00000KT 10SM SCT023 13/09 A3009 RMK AO2 SLP188 T01330094 $
2026-04-14 12:53:00,METAR KSNA 141253Z 00000KT 10SM BKN023 13/09 A3008 RMK AO2 SLP185 T01330089 $
2026-04-14 12:01:00,SPECI KSNA 141201Z AUTO 08004KT 10SM SCT025 13/09 A3007 RMK AO2 T01330089 $
2026-04-14 11:53:00,METAR KSNA 141153Z AUTO 00000KT 10SM BKN023 13/09 A3007 RMK AO2 SLP181 T01330089 10156 20133 55005 $
2026-04-14 10:53:00,METAR KSNA 141053Z AUTO 00000KT 10SM BKN021 13/09 A3007 RMK AO2 SLP181 T01330089 $
2026-04-14 09:53:00,METAR KSNA 140953Z AUTO 12004KT 10SM CLR 14/09 A3007 RMK AO2 SLP181 T01390089 $
2026-04-14 08:53:00,METAR KSNA 140853Z AUTO 12006KT 10SM CLR 14/09 A3008 RMK AO2 SLP186 T01390089 50001 $
2026-04-14 07:53:00,METAR KSNA 140753Z AUTO 12004KT 10SM CLR 14/09 A3008 RMK AO2 SLP187 T01440094 401890139 $
2026-04-14 06:53:00,METAR KSNA 140653Z AUTO 00000KT 10SM CLR 16/10 A3008 RMK AO2 SLP186 T01560100 $
2026-04-14 05:53:00,METAR KSNA 140553Z 16005KT 10SM FEW024 SCT050 16/10 A3008 RMK AO2 SLP184 LAST T01560100 10183 20156 51014 $
2026-04-14 04:53:00,METAR KSNA 140453Z 00000KT 10SM FEW025 SCT060 16/09 A3007 RMK AO2 SLP183 T01610094 $
2026-04-14 03:53:00,METAR KSNA 140353Z 24004KT 10SM FEW025 FEW035 SCT080 16/09 A3006 RMK AO2 SLP178 T01610089 $
2026-04-14 02:53:00,METAR KSNA 140253Z 26006KT 10SM FEW027 FEW040 SCT080 17/07 A3004 RMK AO2 SLP171 T01670072 53006 $
2026-04-14 01:53:00,METAR KSNA 140153Z 24008KT 10SM FEW029 SCT045 SCT090 17/08 A3003 RMK AO2 SLP167 T01670078 $
2026-04-14 00:53:00,METAR KSNA 140053Z 24008KT 10SM FEW031 FEW050 SCT095 18/06 A3002 RMK AO2 SLP165 T01780061 $
2026-04-13 23:53:00,METAR KSNA 132353Z 24009G18KT 10SM FEW035 FEW050 SCT065 18/06 A3002 RMK AO2 SLP164 T01830056 10189 20161 56012 $
2026-04-13 22:53:00,METAR KSNA 132253Z 23011G19KT 10SM FEW037 FEW055 SCT060 18/07 A3002 RMK AO2 SLP166 T01830072 $
2026-04-13 21:53:00,METAR KSNA 132153Z 25010G18KT 10SM FEW035 FEW050 SCT060 18/07 A3003 RMK AO2 SLP170 T01830072 $
2026-04-13 20:53:00,METAR KSNA 132053Z 21010G18KT 10SM FEW034 SCT049 SCT060 18/07 A3005 RMK AO2 SLP176 T01830067 58008 $
2026-04-13 19:53:00,METAR KSNA 131953Z 22011KT 10SM FEW033 SCT047 SCT055 18/07 A3006 RMK AO2 SLP179 T01780067 $
2026-04-13 18:53:00,METAR KSNA 131853Z 23005KT 10SM FEW031 SCT048 SCT055 17/07 A3007 RMK AO2 SLP182 T01720067 $
2026-04-13 17:53:00,METAR KSNA 131753Z 24003KT 10SM FEW023 BKN055 BKN070 16/07 A3008 RMK AO2 RAE18 SLP184 P0000 60000 T01610072 10161 20139 53010 $
2026-04-13 16:53:00,METAR KSNA 131653Z 00000KT 10SM -RA SCT019 BKN055 OVC070 16/09 A3006 RMK AO2 RAB21 SLP180 P0000 T01560089 $
2026-04-13 15:53:00,METAR KSNA 131553Z 20004KT 10SM FEW019 BKN050 OVC080 14/11 A3005 RMK AO2 RAE46 SLP177 P0000 T01440106 $
2026-04-13 14:53:00,METAR KSNA 131453Z 19004KT 10SM -RA FEW019 BKN045 OVC060 14/10 A3005 RMK AO2 RAB45 SLP174 P0000 60000 T01440100 53011 $
2026-04-13 13:53:00,METAR KSNA 131353Z 06004KT 10SM FEW025 BKN050 BKN070 14/11 A3002 RMK AO2 SLP165 T01440111 $
2026-04-13 12:53:00,METAR KSNA 131253Z 14005KT 10SM FEW042 BKN055 BKN070 14/11 A3001 RMK AO2 RAB12E25 SLP162 P0000 T01390111 $
2026-04-13 11:53:00,METAR KSNA 131153Z AUTO 00000KT 10SM FEW042 OVC060 14/11 A3001 RMK AO2 RAB26E51 SLP163 P0000 60000 70031 T01390106 10161 20139 56007 $
2026-04-13 10:53:00,METAR KSNA 131053Z AUTO 09004KT 10SM BKN075 14/10 A3002 RMK AO2 SLP164 T01390100 $
2026-04-13 09:53:00,METAR KSNA 130953Z AUTO 00000KT 10SM FEW028 SCT040 BKN050 14/10 A3002 RMK AO2 SLP166 T01440100 $
2026-04-13 08:53:00,METAR KSNA 130853Z AUTO 00000KT 10SM CLR 15/09 A3003 RMK AO2 SLP170 T01500094 58003 $
2026-04-13 07:53:00,METAR KSNA 130753Z AUTO 00000KT 10SM BKN050 BKN060 16/09 A3005 RMK AO2 SLP175 T01560094 402000150 $
2026-04-13 06:53:00,METAR KSNA 130653Z AUTO 00000KT 10SM FEW031 SCT050 16/09 A3005 RMK AO2 SLP175 T01560089 $
2026-04-13 05:53:00,METAR KSNA 130553Z 00000KT 10SM FEW039 16/09 A3004 RMK AO2 SLP173 LAST 60000 T01610089 10183 20156 51011 $
2026-04-13 04:53:00,METAR KSNA 130453Z 27003KT 10SM FEW038 16/09 A3004 RMK AO2 SLP171 T01610089 $
2026-04-13 03:53:00,METAR KSNA 130353Z 26004KT 10SM FEW020 FEW055 SCT080 17/08 A3003 RMK AO2 SLP168 T01670083 $
2026-04-13 02:53:00,METAR KSNA 130253Z 26005KT 10SM FEW025 BKN035 17/09 A3001 RMK AO2 SLP162 60000 T01720094 53005 $
2026-04-13 01:53:00,METAR KSNA 130153Z 22006KT 10SM BKN035 BKN080 18/09 A3000 RMK AO2 SLP159 T01780089 $
2026-04-13 00:53:00,METAR KSNA 130053Z 25007KT 10SM SCT035 BKN065 18/07 A2999 RMK AO2 RAE2358 SLP156 P0000 T01830067 $
2026-04-12 23:53:00,METAR KSNA 122353Z 00000KT 6SM -RA BR BKN047 BKN060 16/11 A3000 RMK AO2 RAE24B40 SLP157 P0000 60000 T01610106 10200 20161 51001 $
2026-04-12 22:53:00,METAR KSNA 122253Z 26007KT 10SM -RA SCT040 OVC060 18/09 A3000 RMK AO2 RAB49 SLP158 P0000 T01830089 $
2026-04-12 21:53:00,METAR KSNA 122153Z 22011G18KT 10SM SCT038 BKN060 BKN110 19/09 A2999 RMK AO2 SLP157 VIRGA S T01890089 $
2026-04-12 20:53:00,METAR KSNA 122053Z 25009KT 10SM SCT038 SCT055 BKN070 19/09 A2999 RMK AO2 SLP156 T01940094 58003 $
2026-04-12 19:53:00,METAR KSNA 121953Z VRB05KT 10SM FEW022 SCT030 BKN050 19/09 A3000 RMK AO2 SLP157 T01940094 $
2026-04-12 18:53:00,METAR KSNA 121853Z 24006KT 10SM FEW022 BKN031 OVC070 18/12 A3001 RMK AO2 SLP161 T01780122 $
2026-04-12 17:53:00,METAR KSNA 121753Z 23007KT 7SM SCT010 BKN050 OVC085 17/13 A3000 RMK AO2 RAB11E25 SLP160 P0000 60031 T01720133 10172 20150 $
2026-04-12 17:44:00,SPECI KSNA 121744Z 25007KT 7SM SCT014 BKN023 OVC050 17/13 A3000 RMK AO2 RAB11E25 P0000 T01670133 $
2026-04-12 17:29:00,SPECI KSNA 121729Z 22007KT 8SM SCT014 BKN042 OVC060 16/14 A3000 RMK AO2 RAB11E25 P0000 T01610144 $
2026-04-12 17:11:00,SPECI KSNA 121711Z VRB05KT 8SM -RA SCT014 BKN020 OVC060 17/14 A3000 RMK AO2 RAB11 P0000 T01720144 $
2026-04-12 16:53:00,METAR KSNA 121653Z 25006KT 10SM SCT014 BKN047 OVC055 16/14 A2999 RMK AO2 RAB06E11 SLP156 P0001 T01610139 $
2026-04-12 16:44:00,SPECI KSNA 121644Z 25006KT 10SM FEW014 SCT038 OVC055 16/14 A2999 RMK AO2 RAB06E11 P0001 T01610139 $
2026-04-12 16:11:00,SPECI KSNA 121611Z VRB05KT 6SM BR SCT011 BKN023 15/13 A2999 RMK AO2 RAB06E11 P0001 T01500133 $
2026-04-12 15:53:00,METAR KSNA 121553Z 26004G19KT 1SM R20R/2200VP6000FT +RA BR BKN011 OVC018 16/14 A2998 RMK AO2 RAB13 SLP153 P0030 T01560139 $
2026-04-12 15:51:00,SPECI KSNA 121551Z 24008G19KT 3/4SM R20R/2200VP6000FT +RA BR BKN011 BKN018 OVC027 16/13 A2999 RMK AO2 RAB13 P0025 $
2026-04-12 15:49:00,SPECI KSNA 121549Z 21009KT 2SM R20R/3000VP6000FT +RA BR BKN011 BKN018 OVC027 16/13 A2999 RMK AO2 RAB13 PRESRR P0017 $
2026-04-12 15:44:00,SPECI KSNA 121544Z 00000KT 5SM R20R/4000VP6000FT RA BR SCT015 BKN020 OVC025 16/13 A2998 RMK AO2 RAB13 P0007 T01560133 $
2026-04-10 14:53:00,METAR KSNA 101453Z 13005KT 10SM BKN017 18/13 A2996 RMK AO2 SLP145 T01780133 53014 $
2026-04-10 13:53:00,METAR KSNA 101353Z 15004KT 10SM BKN017 17/13 A2994 RMK AO2 SLP139 T01720133 $
2026-04-10 12:53:00,METAR KSNA 101253Z 00000KT 10SM OVC015 17/14 A2993 RMK AO2 SLP132 T01720139 $
2026-04-10 11:53:00,METAR KSNA 101153Z AUTO 00000KT 10SM OVC015 17/14 A2992 RMK AO2 SLP130 T01720139 10172 20172 56012 $
2026-04-10 10:53:00,METAR KSNA 101053Z AUTO 00000KT 10SM OVC015 17/14 A2993 RMK AO2 SLP132 T01720139 $
2026-04-10 09:53:00,METAR KSNA 100953Z AUTO 24004KT 10SM OVC015 17/14 A2994 RMK AO2 SLP138 T01720144 $
2026-04-10 08:53:00,METAR KSNA 100853Z AUTO 20004KT 10SM OVC011 17/15 A2995 RMK AO2 SLP142 T01720150 58003 $
2026-04-10 08:21:00,SPECI KSNA 100821Z AUTO 21004KT 10SM OVC010 17/15 A2996 RMK AO2 T01720150 $
2026-04-10 07:53:00,METAR KSNA 100753Z AUTO 23003KT 10SM OVC009 17/15 A2996 RMK AO2 SLP144 T01720150 402280161 $
2026-04-10 06:53:00,METAR KSNA 100653Z AUTO 22004KT 10SM OVC009 17/16 A2997 RMK AO2 SLP146 T01720156 $
2026-04-10 06:42:00,SPECI KSNA 100642Z AUTO 22004KT 10SM BKN009 17/16 A2997 RMK AO2 T01720156 $
2026-04-10 06:07:00,SPECI KSNA 100607Z AUTO 18004KT 10SM FEW009 17/16 A2996 RMK AO2 T01720156 $
2026-04-10 05:53:00,METAR KSNA 100553Z 21004KT 10SM SCT010 SCT200 17/16 A2996 RMK AO2 SLP145 LAST T01720156 10206 20172 51014 $
2026-04-10 04:53:00,METAR KSNA 100453Z 21004KT 10SM FEW010 SCT220 18/16 A2996 RMK AO2 SLP144 T01830161 $
2026-04-10 03:53:00,METAR KSNA 100353Z 16004KT 10SM SCT010 BKN250 18/16 A2994 RMK AO2 SLP138 T01830161 $
2026-04-10 03:14:00,SPECI KSNA 100314Z 22006KT 10SM BKN010 19/17 A2993 RMK AO2 T01890167 $
2026-04-10 02:53:00,METAR KSNA 100253Z 18005KT 10SM SCT010 BKN150 BKN220 19/17 A2992 RMK AO2 SLP132 T01890167 55001 $
2026-04-10 01:53:00,METAR KSNA 100153Z 20006KT 10SM FEW050 BKN180 BKN240 19/16 A2992 RMK AO2 SLP131 T01940161 $
2026-04-10 00:53:00,METAR KSNA 100053Z 22007KT 10SM FEW050 BKN200 OVC240 20/16 A2992 RMK AO2 SLP132 T02000161 $
2026-04-09 23:53:00,METAR KSNA 092353Z 21010KT 10SM FEW060 BKN200 OVC250 21/15 A2993 RMK AO2 SLP132 T02060150 10228 20206 56006 $
2026-04-09 22:53:00,METAR KSNA 092253Z 22010KT 10SM FEW070 BKN200 BKN250 22/14 A2993 RMK AO2 SLP134 T02220144 $
2026-04-09 21:53:00,METAR KSNA 092153Z 19007KT 10SM BKN220 OVC280 22/15 A2993 RMK AO2 SLP135 T02170150 $
2026-04-09 20:53:00,METAR KSNA 092053Z 22011KT 10SM BKN240 OVC280 22/16 A2994 RMK AO2 SLP138 T02170156 58007 $
2026-04-09 19:53:00,METAR KSNA 091953Z 22011KT 10SM SCT210 SCT260 BKN290 22/15 A2995 RMK AO2 SLP141 T02170150 $
2026-04-09 18:53:00,METAR KSNA 091853Z 22010KT 10SM FEW019 SCT210 BKN270 22/15 A2996 RMK AO2 SLP145 T02170150 $
2026-04-09 17:53:00,METAR KSNA 091753Z 18008KT 10SM SCT018 BKN220 BKN260 21/14 A2997 RMK AO2 SLP146 T02110144 10211 20161 51006 $
2026-04-09 17:11:00,SPECI KSNA 091711Z 18007KT 10SM SCT017 BKN220 BKN260 20/14 A2996 RMK AO2 T02000144 $
2026-04-09 16:53:00,METAR KSNA 091653Z 22005KT 10SM BKN016 BKN220 BKN260 20/14 A2996 RMK AO2 SLP145 T02000144 $
2026-04-09 16:19:00,SPECI KSNA 091619Z 20005KT 10SM BKN015 BKN200 BKN260 19/14 A2996 RMK AO2 T01890144 $
2026-04-09 15:53:00,METAR KSNA 091553Z 25003KT 10SM BKN013 BKN200 BKN260 18/14 A2996 RMK AO2 SLP143 T01830144 $
2026-04-09 15:06:00,SPECI KSNA 091506Z 09004KT 10SM BKN012 BKN200 BKN230 OVC270 18/14 A2995 RMK AO2 T01780144 $
2026-04-09 14:53:00,METAR KSNA 091453Z 00000KT 10SM SCT012 BKN200 BKN230 OVC270 17/14 A2995 RMK AO2 SLP141 T01720144 53013 $
2026-04-09 13:53:00,METAR KSNA 091353Z 00000KT 10SM SCT012 SCT220 BKN280 17/14 A2993 RMK AO2 SLP134 T01670144 $
2026-04-09 12:53:00,METAR KSNA 091253Z 00000KT 10SM FEW011 SCT220 BKN280 17/14 A2992 RMK AO2 SLP129 T01670144 $
2026-04-09 11:53:00,METAR KSNA 091153Z AUTO 16003KT 10SM CLR 17/14 A2991 RMK AO2 SLP127 T01670144 10183 20167 55004 $
2026-04-09 10:53:00,METAR KSNA 091053Z AUTO 00000KT 10SM CLR 17/14 A2991 RMK AO2 SLP127 T01670144 $
2026-04-09 09:53:00,METAR KSNA 090953Z AUTO 11003KT 10SM CLR 17/15 A2991 RMK AO2 SLP128 T01670150 $
2026-04-09 08:53:00,METAR KSNA 090853Z AUTO 10007KT 10SM CLR 17/14 A2992 RMK AO2 SLP131 T01720144 50000 $
2026-04-09 08:06:00,SPECI KSNA 090806Z AUTO 00000KT 10SM SCT011 18/15 A2994 RMK AO2 T01780150 $
2026-04-09 07:53:00,METAR KSNA 090753Z AUTO 18004KT 10SM BKN011 18/15 A2994 RMK AO2 SLP136 T01780150 402330156 $
2026-04-09 07:43:00,SPECI KSNA 090743Z AUTO 00000KT 10SM BKN011 18/14 A2993 RMK AO2 T01830139 $
2026-04-09 06:53:00,METAR KSNA 090653Z AUTO 21003KT 10SM CLR 18/14 A2993 RMK AO2 SLP133 T01780139 $
2026-04-09 05:53:00,METAR KSNA 090553Z 21003KT 10SM FEW250 18/14 A2992 RMK AO2 SLP131 LAST T01830139 10222 20183 51015 $
2026-04-09 04:53:00,METAR KSNA 090453Z 22004KT 10SM FEW250 18/13 A2991 RMK AO2 SLP128 T01830133 $
2026-04-09 03:53:00,METAR KSNA 090353Z 20004KT 10SM CLR 19/13 A2990 RMK AO2 SLP124 T01890133 $
2026-04-09 02:53:00,METAR KSNA 090253Z 18003KT 10SM SCT250 19/14 A2988 RMK AO2 SLP117 T01890139 52002 $
2026-04-09 01:53:00,METAR KSNA 090153Z 22007KT 10SM FEW120 SCT250 19/15 A2988 RMK AO2 SLP117 T01940150 $
2026-04-09 00:53:00,METAR KSNA 090053Z 22009KT 10SM FEW250 21/15 A2987 RMK AO2 SLP115 T02060150 $
2026-04-08 23:53:00,METAR KSNA 082353Z 22009KT 10SM FEW250 22/14 A2987 RMK AO2 SLP114 T02220144 10233 20200 56010 $
2026-04-08 22:53:00,METAR KSNA 082253Z 21011KT 10SM FEW050 FEW250 23/13 A2988 RMK AO2 SLP116 T02330128 $
2026-04-08 21:53:00,METAR KSNA 082153Z 20010KT 10SM FEW050 FEW250 23/14 A2989 RMK AO2 SLP120 T02280139 $
2026-04-08 20:53:00,METAR KSNA 082053Z 20010KT 10SM FEW250 22/14 A2990 RMK AO2 SLP125 T02220144 56016 $
2026-04-08 19:53:00,METAR KSNA 081953Z 20011KT 10SM FEW250 22/14 A2991 RMK AO2 SLP127 T02170144 $
2026-04-08 18:53:00,METAR KSNA 081853Z 20007KT 10SM FEW018 SCT250 22/14 A2993 RMK AO2 SLP132 T02220144 $
2026-04-08 17:53:00,METAR KSNA 081753Z 00000KT 10SM SCT016 SCT250 20/14 A2995 RMK AO2 SLP141 T02000139 10200 20156 50002 $
2026-04-08 17:42:00,SPECI KSNA 081742Z VRB04KT 10SM SCT016 SCT250 19/14 A2995 RMK AO2 T01940139 $
2026-04-08 16:53:00,METAR KSNA 081653Z 16003KT 10SM BKN014 18/14 A2995 RMK AO2 SLP143 T01780139 $
2026-04-08 15:53:00,METAR KSNA 081553Z 12004KT 10SM BKN012 17/14 A2995 RMK AO2 SLP142 T01720139 $
2026-04-08 14:53:00,METAR KSNA 081453Z 00000KT 10SM OVC010 16/14 A2994 RMK AO2 SLP140 T01610139 53016 $
2026-04-08 14:33:00,SPECI KSNA 081433Z VRB05KT 10SM OVC010 17/14 A2994 RMK AO2 T01670144 $
2026-04-08 13:53:00,METAR KSNA 081353Z 14003KT 10SM BKN007 BKN015 16/14 A2992 RMK AO2 SLP132 T01560144 $
2026-04-08 12:53:00,METAR KSNA 081253Z 10004KT 10SM OVC007 16/14 A2991 RMK AO2 SLP127 T01610144 $
2026-04-08 11:53:00,METAR KSNA 081153Z AUTO 17003KT 10SM OVC008 17/14 A2990 RMK AO2 SLP123 T01670144 10172 20161 56006 $
2026-04-08 11:06:00,SPECI KSNA 081106Z AUTO 19003KT 10SM BKN008 16/14 A2991 RMK AO2 T01610139 $
2026-04-08 10:53:00,METAR KSNA 081053Z AUTO 00000KT 10SM FEW008 16/14 A2991 RMK AO2 SLP125 T01610139 $
2026-04-08 09:53:00,METAR KSNA 080953Z AUTO 00000KT 10SM CLR 17/14 A2991 RMK AO2 SLP126 T01670139 $
2026-04-08 08:53:00,METAR KSNA 080853Z AUTO 00000KT 10SM CLR 17/14 A2992 RMK AO2 SLP129 T01670144 56005 $
2026-04-08 07:53:00,METAR KSNA 080753Z AUTO 11003KT 10SM CLR 17/14 A2992 RMK AO2 SLP130 T01720139 402280144 $
2026-04-08 06:53:00,METAR KSNA 080653Z AUTO 00000KT 10SM CLR 17/14 A2993 RMK AO2 SLP133 T01720139 $
2026-04-08 05:53:00,METAR KSNA 080553Z 18003KT 10SM CLR 17/14 A2993 RMK AO2 SLP134 LAST T01720139 10217 20172 50007 $
2026-04-08 04:53:00,METAR KSNA 080453Z 24003KT 10SM CLR 18/14 A2993 RMK AO2 SLP136 T01780139 $
2026-04-08 03:53:00,METAR KSNA 080353Z 24003KT 10SM CLR 18/14 A2992 RMK AO2 SLP132 T01780144 $
2026-04-08 02:53:00,METAR KSNA 080253Z 27004KT 10SM CLR 18/14 A2991 RMK AO2 SLP128 T01830144 53001 $
2026-04-08 01:53:00,METAR KSNA 080153Z 21009KT 10SM FEW018 FEW250 19/14 A2991 RMK AO2 SLP128 T01890144 $
2026-04-08 00:53:00,METAR KSNA 080053Z 23008KT 10SM FEW020 FEW250 21/14 A2991 RMK AO2 SLP127 T02060144 $
2026-04-07 23:53:00,METAR KSNA 072353Z 23007KT 10SM FEW250 22/13 A2991 RMK AO2 SLP127 T02170133 10228 20200 56017 $
2026-04-07 22:53:00,METAR KSNA 072253Z 19010G15KT 10SM FEW045 FEW250 23/13 A2992 RMK AO2 SLP130 T02280128 $
2026-04-07 21:53:00,METAR KSNA 072153Z 20010KT 10SM FEW045 FEW250 22/13 A2994 RMK AO2 SLP136 T02220133 $
2026-04-07 20:53:00,METAR KSNA 072053Z 20010KT 10SM FEW250 22/13 A2996 RMK AO2 SLP144 T02170133 56017 $
2026-04-07 19:53:00,METAR KSNA 071953Z 21011KT 10SM FEW250 22/13 A2997 RMK AO2 SLP147 T02170133 $
2026-04-07 18:53:00,METAR KSNA 071853Z 19008KT 10SM FEW250 22/13 A2999 RMK AO2 SLP153 T02170128 $
2026-04-07 17:53:00,METAR KSNA 071753Z 00000KT 10SM FEW018 FEW250 20/12 A3001 RMK AO2 SLP160 T02000122 10200 20144 50001 $
2026-04-07 16:53:00,METAR KSNA 071653Z 00000KT 10SM SCT018 SCT250 18/13 A3001 RMK AO2 SLP163 T01830128 $
2026-04-07 16:43:00,SPECI KSNA 071643Z 00000KT 10SM SCT018 SCT250 18/13 A3001 RMK AO2 T01780128 $
2026-04-07 15:53:00,METAR KSNA 071553Z VRB03KT 10SM BKN017 17/13 A3001 RMK AO2 SLP161 T01720128 $
2026-04-07 14:53:00,METAR KSNA 071453Z 00000KT 10SM SCT015 17/13 A3001 RMK AO2 SLP160 T01670133 53007 $
2026-04-07 14:26:00,SPECI KSNA 071426Z 00000KT 10SM SCT011 16/13 A3000 RMK AO2 T01610133 $
2026-04-07 14:11:00,SPECI KSNA 071411Z 27003KT 10SM BKN010 16/13 A3000 RMK AO2 T01610133 $
2026-04-07 13:53:00,METAR KSNA 071353Z 00000KT 10SM BKN008 16/13 A3000 RMK AO2 SLP157 T01560128 $
2026-04-07 13:09:00,SPECI KSNA 071309Z 00000KT 10SM BKN008 14/13 A2999 RMK AO2 T01440128 $
2026-04-07 12:53:00,METAR KSNA 071253Z 00000KT 10SM SCT012 14/13 A2999 RMK AO2 SLP155 T01440128 $
2026-04-07 11:53:00,METAR KSNA 071153Z AUTO 11005KT 10SM CLR 15/13 A2999 RMK AO2 SLP154 T01500133 10172 20150 58010 $
2026-04-07 11:30:00,SPECI KSNA 071130Z AUTO 10004KT 10SM SCT011 15/13 A2999 RMK AO2 T01500133 $
2026-04-07 10:53:00,METAR KSNA 071053Z AUTO 12006KT 10SM OVC012 16/13 A3000 RMK AO2 SLP157 T01560133 $
2026-04-07 10:25:00,SPECI KSNA 071025Z AUTO 12003KT 10SM BKN013 16/13 A3000 RMK AO2 T01560133 $
2026-04-07 09:53:00,METAR KSNA 070953Z AUTO 00000KT 10SM CLR 16/14 A3000 RMK AO2 SLP159 T01560139 $
2026-04-07 08:53:00,METAR KSNA 070853Z AUTO 00000KT 10SM SCT012 17/14 A3001 RMK AO2 SLP162 T01670139 58004 $
2026-04-07 08:04:00,SPECI KSNA 070804Z AUTO 00000KT 10SM BKN012 17/14 A3002 RMK AO2 T01670139 $
2026-04-07 07:53:00,METAR KSNA 070753Z AUTO 00000KT 10SM SCT012 17/14 A3003 RMK AO2 SLP167 T01670139 402390167 $
2026-04-07 06:53:00,METAR KSNA 070653Z AUTO 25003KT 10SM FEW010 17/14 A3003 RMK AO2 SLP167 T01670144 $
2026-04-07 06:30:00,SPECI KSNA 070630Z AUTO 24003KT 10SM BKN011 17/14 A3003 RMK AO2 T01670144 $
2026-04-07 05:53:00,METAR KSNA 070553Z 00000KT 10SM SCT009 SCT013 17/14 A3003 RMK AO2 SLP166 LAST T01720144 10217 20167 51006 $
2026-04-07 05:47:00,SPECI KSNA 070547Z 24003KT 10SM SCT009 SCT013 17/15 A3003 RMK AO2 $
2026-04-07 05:42:00,SPECI KSNA 070542Z 00000KT 10SM BKN009 BKN013 17/15 A3003 RMK AO2 T01720150 $
2026-04-07 04:53:00,METAR KSNA 070453Z 00000KT 10SM SCT009 17/15 A3002 RMK AO2 SLP167 T01720150 $
2026-04-07 04:06:00,SPECI KSNA 070406Z 22005KT 10SM BKN009 BKN015 17/14 A3001 RMK AO2 T01720144 $
2026-04-07 03:53:00,METAR KSNA 070353Z 23005KT 10SM FEW009 SCT015 17/14 A3001 RMK AO2 SLP161 T01720144 $
2026-04-07 02:53:00,METAR KSNA 070253Z 25004KT 10SM CLR 18/14 A2999 RMK AO2 SLP153 T01780139 53002 $
2026-04-07 01:53:00,METAR KSNA 070153Z 24007KT 10SM FEW018 19/13 A2998 RMK AO2 SLP150 T01890133 $
2026-04-07 00:53:00,METAR KSNA 070053Z 27006KT 10SM CLR 21/13 A2997 RMK AO2 SLP148 T02060133 $
2026-04-06 23:53:00,METAR KSNA 062353Z 23006KT 10SM FEW025 FEW250 21/13 A2998 RMK AO2 SLP150 T02110133 10239 20206 56011 $
2026-04-06 22:53:00,METAR KSNA 062253Z 26009KT 10SM FEW025 FEW250 21/14 A2998 RMK AO2 SLP152 T02110144 $
2026-04-06 21:53:00,METAR KSNA 062153Z 21010KT 10SM FEW020 FEW090 SCT250 22/14 A2999 RMK AO2 SLP153 T02220139 $
2026-04-06 20:53:00,METAR KSNA 062053Z 22013G22KT 10SM FEW025 FEW080 SCT250 23/14 A3001 RMK AO2 SLP161 T02280144 55011 $
2026-04-06 19:53:00,METAR KSNA 061953Z 21012KT 10SM FEW250 23/12 A3001 RMK AO2 SLP160 T02330122 $
2026-04-06 18:53:00,METAR KSNA 061853Z VRB05KT 10SM FEW110 SCT210 23/13 A3003 RMK AO2 SLP166 T02330133 $
2026-04-06 17:53:00,METAR KSNA 061753Z VRB06KT 10SM FEW025 SCT170 BKN250 21/15 A3004 RMK AO2 SLP172 60000 T02110150 10211 20178 51009 $
2026-04-06 16:53:00,METAR KSNA 061653Z 18005KT 10SM FEW024 FEW090 BKN110 19/15 A3004 RMK AO2 RAB08E26 SLP170 VIRGA OHD P0000 T01890150 $
2026-04-06 15:53:00,METAR KSNA 061553Z 24004KT 10SM FEW029 SCT110 BKN170 19/15 A3003 RMK AO2 SLP167 VIRGA OHD T01890150 $
2026-04-06 14:53:00,METAR KSNA 061453Z 22004KT 10SM SCT170 BKN250 18/13 A3001 RMK AO2 SLP162 T01830133 53014 $
2026-04-06 13:53:00,METAR KSNA 061353Z 11005KT 10SM SCT170 BKN250 18/12 A2999 RMK AO2 SLP155 T01830122 $
2026-04-06 12:53:00,METAR KSNA 061253Z 00000KT 10SM BKN170 BKN250 18/11 A2998 RMK AO2 SLP152 T01830106 $
2026-04-06 11:53:00,METAR KSNA 061153Z AUTO 00000KT 10SM CLR 18/13 A2997 RMK AO2 SLP149 T01830133 10189 20183 55003 $
2026-04-06 10:53:00,METAR KSNA 061053Z AUTO 01003KT 10SM CLR 18/10 A2996 RMK AO2 SLP144 T01830100 $
2026-04-06 09:53:00,METAR KSNA 060953Z AUTO 00000KT 10SM CLR 18/09 A2997 RMK AO2 SLP147 T01830089 $
2026-04-06 08:53:00,METAR KSNA 060853Z AUTO 09003KT 10SM CLR 18/10 A2998 RMK AO2 SLP152 T01830100 53002 $
2026-04-06 07:53:00,METAR KSNA 060753Z AUTO 00000KT 10SM CLR 18/14 A2998 RMK AO2 SLP152 T01830139 402610144 $
2026-04-06 06:53:00,METAR KSNA 060653Z AUTO 21004KT 10SM CLR 18/14 A2998 RMK AO2 SLP149 T01830144 $
2026-04-06 05:53:00,METAR KSNA 060553Z 20005KT 10SM BKN160 BKN250 18/15 A2998 RMK AO2 SLP150 T01830150 10239 20183 50007 $
2026-04-06 04:53:00,METAR KSNA 060453Z 21006KT 10SM BKN160 BKN250 20/12 A2999 RMK AO2 SLP152 T02000117 $
2026-04-06 03:53:00,METAR KSNA 060353Z COR 18003KT 10SM BKN160 BKN250 21/09 A2998 RMK AO2 SLP150 T02110094 $
2026-04-06 02:53:00,METAR KSNA 060253Z 24003KT 10SM BKN160 BKN250 22/08 A2996 RMK AO2 SLP142 T02170078 55000 $
2026-04-06 01:53:00,METAR KSNA 060153Z COR 23005KT 10SM SCT160 BKN250 23/05 A2995 RMK AO2 SLP142 T02330050 $
2026-04-06 00:53:00,METAR KSNA 060053Z 23004KT 10SM BKN250 24/06 A2995 RMK AO2 SLP142 T02390056 $
2026-04-05 23:53:00,METAR KSNA 052353Z 22007KT 10SM BKN250 24/05 A2996 RMK AO2 SLP143 T02390050 10261 20233 56009 $
2026-04-05 22:53:00,METAR KSNA 052253Z 26006KT 10SM BKN250 24/04 A2996 RMK AO2 SLP145 T02390039 $
2026-04-05 21:53:00,METAR KSNA 052153Z 25008KT 220V290 10SM BKN250 24/07 A2997 RMK AO2 SLP149 T02440067 $
2026-04-05 20:53:00,METAR KSNA 052053Z 20012KT 10SM FEW060 BKN250 25/13 A2998 RMK AO2 SLP152 T02500128 58006 $
2026-04-05 19:53:00,METAR KSNA 051953Z 19009KT 10SM FEW190 SCT250 25/08 A2999 RMK AO2 SLP155 T02500083 $
2026-04-05 18:53:00,METAR KSNA 051853Z 19004KT 10SM FEW250 25/08 A3001 RMK AO2 SLP159 T02500078 $
2026-04-05 17:53:00,METAR KSNA 051753Z VRB03KT 10SM SCT250 23/08 A3000 RMK AO2 SLP159 T02330078 10239 20144 53004 $
2026-04-05 16:53:00,METAR KSNA 051653Z 00000KT 10SM SCT200 21/06 A3000 RMK AO2 SLP156 T02110061 $
2026-04-05 15:53:00,METAR KSNA 051553Z 00000KT 10SM CLR 19/06 A3000 RMK AO2 SLP156 T01890061 $
2026-04-05 14:53:00,METAR KSNA 051453Z 03003KT 10SM CLR 16/06 A2999 RMK AO2 SLP154 T01560056 53008 $
2026-04-05 12:53:00,METAR KSNA 051253Z 00000KT 10SM FEW250 15/04 A2997 RMK AO2 SLP148 T01500044 $
2026-04-05 11:53:00,METAR KSNA 051153Z AUTO 02003KT 10SM CLR 15/03 A2997 RMK AO2 SLP146 T01500033 10194 20150 58011 $
2026-04-05 10:53:00,METAR KSNA 051053Z AUTO 07005KT 10SM CLR 16/03 A2998 RMK AO2 SLP150 T01610028 $
2026-04-05 09:53:00,METAR KSNA 050953Z AUTO 05003KT 10SM CLR 16/04 A2999 RMK AO2 SLP155 T01610039 $
2026-04-05 08:53:00,METAR KSNA 050853Z AUTO 20003KT 10SM CLR 17/10 A3000 RMK AO2 SLP157 T01720100 50000 $
2026-04-05 07:53:00,METAR KSNA 050753Z AUTO 00000KT 10SM CLR 18/07 A3001 RMK AO2 SLP159 T01780072 403000128 $
2026-04-05 06:53:00,METAR KSNA 050653Z AUTO 00000KT 10SM CLR 18/11 A3001 RMK AO2 SLP159 T01780111 $
2026-04-05 05:53:00,METAR KSNA 050553Z 20005KT 10SM CLR 19/05 A3000 RMK AO2 SLP157 LAST T01940050 10278 20194 51012 $
2026-04-05 04:53:00,METAR KSNA 050453Z 00000KT 10SM CLR 22/02 A2999 RMK AO2 SLP156 T02170022 $
2026-04-05 03:53:00,METAR KSNA 050353Z 00000KT 10SM FEW250 23/01 A2998 RMK AO2 SLP151 T02280006 $
2026-04-05 02:53:00,METAR KSNA 050253Z 00000KT 10SM FEW250 23/01 A2996 RMK AO2 SLP145 T02280006 53012 $
2026-04-05 01:53:00,METAR KSNA 050153Z VRB04KT 10SM SCT250 24/M02 A2995 RMK AO2 SLP141 T02441022 $
2026-04-05 00:53:00,METAR KSNA 050053Z COR 25008KT 10SM BKN250 27/M03 A2993 RMK AO2 SLP135 T02671033 $
2026-04-04 23:53:00,METAR KSNA 042353Z 25010G19KT 10SM BKN250 28/M03 A2993 RMK AO2 SLP133 T02781028 10300 20239 56014 $
2026-04-04 22:53:00,METAR KSNA 042253Z 24009KT 10SM BKN250 29/M01 A2993 RMK AO2 SLP134 T02891011 $
2026-04-04 21:53:00,METAR KSNA 042153Z 24008KT 10SM SCT250 29/M01 A2994 RMK AO2 SLP138 T02941011 $
2026-04-04 20:53:00,METAR KSNA 042053Z 25007KT 10SM BKN250 27/07 A2997 RMK AO2 SLP146 T02720067 58020 $
2026-04-04 19:53:00,METAR KSNA 041953Z 20009KT 10SM FEW250 28/09 A2999 RMK AO2 SLP153 T02830089 $
2026-04-04 18:53:00,METAR KSNA 041853Z 20007KT 10SM FEW250 26/12 A3001 RMK AO2 SLP161 T02610117 $
2026-04-04 17:53:00,METAR KSNA 041753Z 21008KT 10SM CLR 24/11 A3003 RMK AO2 SLP166 T02440106 10244 20128 51005 $
2026-04-04 16:53:00,METAR KSNA 041653Z 20005KT 10SM FEW250 23/12 A3002 RMK AO2 SLP166 T02280117 $
2026-04-04 15:53:00,METAR KSNA 041553Z 20006KT 10SM FEW250 19/15 A3002 RMK AO2 SLP165 T01890150 $
2026-04-04 14:53:00,METAR KSNA 041453Z 00000KT 10SM FEW250 15/13 A3001 RMK AO2 SLP161 T01500133 53015 $
2026-04-04 13:53:00,METAR KSNA 041353Z 20004KT 8SM FEW002 FEW250 13/13 A2999 RMK AO2 SLP155 T01280128 $
2026-04-04 12:53:00,METAR KSNA 041253Z 20005KT 5SM BR FEW002 13/13 A2997 RMK AO2 SLP149 VIS E-SE-S 1/2 T01330128 $
2026-04-04 12:50:00,SPECI KSNA 041250Z 20005KT 5SM BR FEW002 13/13 A2997 RMK AO2 VIS E-SE-S 1/2 $
2026-04-04 11:53:00,METAR KSNA 041153Z AUTO 21005KT 10SM CLR 15/14 A2997 RMK AO2 SLP147 T01500139 10183 20150 58018 $
2026-04-04 10:53:00,METAR KSNA 041053Z AUTO 00000KT 10SM CLR 16/14 A2999 RMK AO2 SLP153 T01560144 $
2026-04-04 09:53:00,METAR KSNA 040953Z AUTO 00000KT 10SM CLR 16/15 A3001 RMK AO2 SLP160 T01610150 $
2026-04-04 08:53:00,METAR KSNA 040853Z AUTO 24003KT 10SM CLR 17/14 A3002 RMK AO2 SLP165 T01670144 58003 $
2026-04-04 07:53:00,METAR KSNA 040753Z AUTO 00000KT 10SM CLR 17/13 A3003 RMK AO2 SLP168 T01720133 402890139 $
2026-04-04 06:53:00,METAR KSNA 040653Z AUTO 19004KT 10SM CLR 18/14 A3004 RMK AO2 SLP169 T01780144 $
2026-04-04 05:53:00,METAR KSNA 040553Z 21008KT 10SM FEW020 SCT250 18/15 A3003 RMK AO2 SLP168 LAST T01830150 10289 20183 51021 $
2026-04-04 04:53:00,METAR KSNA 040453Z 21008KT 10SM FEW020 BKN250 21/11 A3002 RMK AO2 SLP164 T02110106 $
2026-04-04 03:53:00,METAR KSNA 040353Z 05007KT 10SM SCT250 25/M13 A2999 RMK AO2 SLP154 T02501133 $
2026-04-04 02:53:00,METAR KSNA 040253Z 06006KT 10SM BKN250 26/M12 A2997 RMK AO2 SLP147 T02561122 53013 $
2026-04-04 01:53:00,METAR KSNA 040153Z 05007KT 10SM BKN250 27/M12 A2996 RMK AO2 SLP143 T02721117 $
2026-04-04 00:53:00,METAR KSNA 040053Z 10009KT 10SM FEW050 BKN250 28/M09 A2994 RMK AO2 SLP136 FU FEW050 T02831094
2026-04-03 23:53:00,METAR KSNA 032353Z 00000KT 10SM FEW040 FEW180 BKN250 27/06 A2993 RMK AO2 SLP134 FU FEW040 T02720061 10272 20206 58014
2026-04-03 22:53:00,METAR KSNA 032253Z 22004KT 10SM FEW180 BKN250 24/13 A2995 RMK AO2 SLP140 T02440133
2026-04-03 21:53:00,METAR KSNA 032153Z 23007KT 10SM FEW180 BKN250 23/13 A2997 RMK AO2 SLP147 T02330133
2026-04-03 20:53:00,METAR KSNA 032053Z 23010KT 10SM SCT180 BKN250 23/13 A2997 RMK AO2 SLP148 T02330128 57005
2026-04-03 19:53:00,METAR KSNA 031953Z 22011KT 10SM FEW180 BKN250 24/12 A2998 RMK AO2 SLP150 T02390122
2026-04-03 18:53:00,METAR KSNA 031853Z VRB03KT 10SM SCT180 BKN250 24/07 A2998 RMK AO2 SLP151 T02440072
2026-04-03 17:53:00,METAR KSNA 031753Z 33005KT 10SM SCT180 BKN250 21/11 A2999 RMK AO2 SLP153 T02110111 10211 20139 58002
2026-04-03 16:53:00,METAR KSNA 031653Z 00000KT 10SM SCT200 18/12 A3001 RMK AO2 SLP160 T01830122
2026-04-03 15:53:00,METAR KSNA 031553Z 00000KT 10SM FEW018 SCT200 17/12 A3000 RMK AO2 SLP160 T01720117
2026-04-03 14:53:00,METAR KSNA 031453Z 00000KT 10SM FEW016 SCT200 16/12 A2999 RMK AO2 SLP156 T01560117 53018
2026-04-03 13:53:00,METAR KSNA 031353Z 00000KT 10SM FEW018 SCT200 14/11 A2996 RMK AO2 SLP146 T01390111
2026-04-03 12:53:00,METAR KSNA 031253Z 00000KT 10SM SCT017 14/11 A2995 RMK AO2 SLP140 T01440111
2026-04-03 12:30:00,SPECI KSNA 031230Z AUTO 00000KT 10SM SCT019 14/11 A2994 RMK AO2 T01440111
2026-04-03 12:11:00,SPECI KSNA 031211Z AUTO 00000KT 10SM BKN019 14/12 A2994 RMK AO2 T01440117
2026-04-03 11:53:00,METAR KSNA 031153Z AUTO 04003KT 10SM CLR 14/12 A2994 RMK AO2 SLP138 T01440117 10167 20144 57006
2026-04-03 08:53:00,METAR KSNA 030853Z AUTO 00000KT 10SM CLR 16/12 A2996 RMK AO2 SLP144 T01560122 58003
2026-04-03 05:53:00,METAR KSNA 030553Z 00000KT 10SM SCT025 SCT050 17/13 A2997 RMK AO2 SLP148 LAST T01670128 10194 20167 51013
2026-04-03 04:53:00,METAR KSNA 030453Z 00000KT 10SM FEW025 SCT054 17/13 A2996 RMK AO2 SLP145 T01670128
2026-04-03 03:53:00,METAR KSNA 030353Z 20004KT 10SM FEW026 SCT055 17/13 A2995 RMK AO2 SLP142 T01670128
2026-04-03 01:53:00,METAR KSNA 030153Z 22006KT 10SM FEW028 SCT042 SCT180 18/12 A2993 RMK AO2 SLP134 T01780117
2026-04-03 00:53:00,METAR KSNA 030053Z 21008KT 10SM FEW030 SCT042 SCT180 18/11 A2992 RMK AO2 SLP132 T01830106
2026-04-02 23:53:00,METAR KSNA 022353Z 21008KT 10SM FEW030 SCT045 SCT200 19/11 A2992 RMK AO2 SLP131 T01940111 10206 20178 56014
2026-04-02 22:53:00,METAR KSNA 022253Z 21008G15KT 10SM FEW032 SCT046 BKN200 19/11 A2992 RMK AO2 SLP132 T01940111
2026-04-02 21:53:00,METAR KSNA 022153Z 20008G17KT 10SM FEW036 SCT048 BKN200 20/11 A2995 RMK AO2 SLP140 T02000111
2026-04-02 20:53:00,METAR KSNA 022053Z 19010KT 10SM FEW037 SCT048 BKN200 20/11 A2996 RMK AO2 SLP145 T02000111 56018
2026-04-02 19:53:00,METAR KSNA 021953Z 21009G16KT 10SM FEW038 BKN050 BKN200 19/12 A2998 RMK AO2 SLP150 T01940117
2026-04-02 18:53:00,METAR KSNA 021853Z 17006KT 10SM FEW022 BKN039 BKN250 19/11 A3000 RMK AO2 SLP157 T01890111
2026-04-02 17:53:00,METAR KSNA 021753Z 23004KT 10SM SCT026 BKN035 BKN250 18/12 A3001 RMK AO2 SLP163 T01780117 10178 20161 51012
2026-04-02 16:53:00,METAR KSNA 021653Z 24005KT 10SM BKN024 OVC038 17/12 A3000 RMK AO2 SLP160 T01720117
2026-04-02 15:53:00,METAR KSNA 021553Z 27004KT 10SM SCT018 BKN025 BKN036 17/12 A3000 RMK AO2 SLP157 T01670117
2026-04-02 15:21:00,SPECI KSNA 021521Z 25003KT 10SM BKN020 BKN031 BKN250 17/12 A2998 RMK AO2 T01670122
2026-04-02 14:53:00,METAR KSNA 021453Z 00000KT 10SM SCT022 BKN038 BKN250 17/12 A2998 RMK AO2 SLP150 T01670122 53007
2026-04-02 14:13:00,SPECI KSNA 021413Z 00000KT 10SM SCT019 BKN040 16/12 A2997 RMK AO2 T01610117
2026-04-02 13:53:00,METAR KSNA 021353Z 33003KT 10SM BKN019 BKN040 16/12 A2995 RMK AO2 SLP143 T01610117
2026-04-02 12:53:00,METAR KSNA 021253Z VRB03KT 10SM FEW018 BKN029 BKN035 16/13 A2996 RMK AO2 SLP144 T01610128
2026-04-02 12:26:00,SPECI KSNA 021226Z AUTO 00000KT 10SM BKN027 16/12 A2996 RMK AO2 T01610122
2026-04-02 12:06:00,SPECI KSNA 021206Z AUTO 00000KT 10SM SCT029 16/12 A2996 RMK AO2 T01610122
2026-04-02 11:53:00,METAR KSNA 021153Z AUTO 26003KT 10SM BKN029 16/12 A2996 RMK AO2 SLP143 T01610122 10172 20161 56013
2026-04-02 10:53:00,METAR KSNA 021053Z AUTO 29003KT 10SM BKN027 OVC033 17/12 A2996 RMK AO2 SLP145 T01670122
2026-04-02 10:27:00,SPECI KSNA 021027Z AUTO 26003KT 10SM OVC030 17/12 A2997 RMK AO2 T01670122
2026-04-02 09:53:00,METAR KSNA 020953Z AUTO 25004KT 10SM OVC025 17/12 A2998 RMK AO2 SLP150 T01670122
2026-04-02 09:23:00,SPECI KSNA 020923Z AUTO 25003KT 10SM BKN025 OVC031 17/13 A2999 RMK AO2 T01670128
2026-04-02 08:53:00,METAR KSNA 020853Z AUTO 22004KT 10SM SCT031 OVC049 17/13 A2999 RMK AO2 SLP155 T01670133 58002
2026-04-02 08:01:00,SPECI KSNA 020801Z AUTO 00000KT 10SM FEW022 SCT029 BKN044 17/14 A3000 RMK AO2 T01670139
2026-04-02 07:53:00,METAR KSNA 020753Z AUTO 00000KT 10SM SCT022 BKN029 OVC044 17/14 A3001 RMK AO2 SLP161 T01720139 402220161
2026-04-02 06:53:00,METAR KSNA 020653Z AUTO 22004KT 10SM BKN025 17/14 A3001 RMK AO2 SLP161 T01720139
2026-04-02 05:53:00,METAR KSNA 020553Z 23003KT 10SM BKN025 17/14 A3000 RMK AO2 SLP158 LAST T01670139 10200 20167 50007
2026-04-02 04:53:00,METAR KSNA 020453Z 26004KT 10SM FEW025 17/13 A3001 RMK AO2 SLP162 T01670133
2026-04-02 03:53:00,METAR KSNA 020353Z 25005KT 10SM SCT025 17/13 A2999 RMK AO2 SLP155 T01720133
2026-04-02 02:53:00,METAR KSNA 020253Z 25005KT 10SM SCT017 17/13 A2998 RMK AO2 SLP151 T01720133 53009
2026-04-02 01:53:00,METAR KSNA 020153Z 22006KT 10SM FEW025 SCT070 18/13 A2997 RMK AO2 SLP147 T01780128
2026-04-02 00:53:00,METAR KSNA 020053Z 24010KT 10SM FEW030 FEW050 19/11 A2996 RMK AO2 SLP144 T01890111
2026-04-01 23:53:00,METAR KSNA 012353Z 23008KT 10SM FEW035 FEW065 20/08 A2995 RMK AO2 SLP142 T02000083 10222 20194 56011
2026-04-01 22:53:00,METAR KSNA 012253Z 23008G15KT 210V270 10SM FEW035 FEW065 21/09 A2996 RMK AO2 SLP144 T02060089
2026-04-01 21:53:00,METAR KSNA 012153Z 24010G21KT 10SM FEW035 FEW060 21/08 A2997 RMK AO2 SLP148 T02060078
2026-04-01 20:53:00,METAR KSNA 012053Z 23008KT 200V290 10SM FEW035 FEW060 22/06 A2999 RMK AO2 SLP152 T02170061 58005
2026-04-01 19:53:00,METAR KSNA 011953Z 25007G16KT 10SM SCT035 SCT065 21/08 A3000 RMK AO2 SLP158 T02110078
2026-04-01 19:15:00,SPECI KSNA 011915Z COR 27007KT 10SM SCT027 BKN065 21/12 A3000 RMK AO2 T02060117
2026-04-01 18:53:00,METAR KSNA 011853Z VRB06G15KT 10SM SCT027 BKN045 BKN070 21/12 A3001 RMK AO2 SLP159 T02060122
2026-04-01 17:53:00,METAR KSNA 011753Z 23005KT 10SM SCT023 BKN030 BKN065 20/13 A3000 RMK AO2 SLP158 T02000128 10200 20161 52010
2026-04-01 16:53:00,METAR KSNA 011653Z 00000KT 10SM SCT023 BKN035 BKN065 19/12 A2999 RMK AO2 SLP154 T01890122
2026-04-01 15:53:00,METAR KSNA 011553Z 00000KT 10SM SCT019 BKN030 BKN065 18/14 A2998 RMK AO2 SLP153 T01780139
2026-04-01 14:53:00,METAR KSNA 011453Z 00000KT 10SM FEW019 BKN035 BKN085 17/14 A2997 RMK AO2 SLP148 T01720144 53010
2026-04-01 13:53:00,METAR KSNA 011353Z 00000KT 10SM BKN024 BKN033 BKN080 16/14 A2995 RMK AO2 SLP141 T01610144
2026-04-01 13:48:00,SPECI KSNA 011348Z 00000KT 10SM BKN024 BKN033 BKN080 16/15 A2995 RMK AO2
2026-04-01 12:53:00,METAR KSNA 011253Z 00000KT 10SM SCT014 SCT022 BKN085 17/15 A2994 RMK AO2 SLP138 T01670150
2026-04-01 12:31:00,SPECI KSNA 011231Z AUTO 00000KT 10SM FEW015 SCT020 OVC085 17/15 A2994 RMK AO2 T01670150
2026-04-01 12:23:00,SPECI KSNA 011223Z AUTO 00000KT 10SM SCT014 BKN019 OVC085 17/15 A2993 RMK AO2 T01670150
2026-04-01 11:53:00,METAR KSNA 011153Z AUTO 00000KT 10SM OVC012 16/15 A2992 RMK AO2 SLP132 60001 70002 T01610150 10183 20161 55005
2026-04-01 11:34:00,SPECI KSNA 011134Z AUTO 00000KT 10SM BKN011 16/15 A2992 RMK AO2 T01610150
2026-04-01 10:53:00,METAR KSNA 011053Z AUTO 19003KT 10SM CLR 17/15 A2991 RMK AO2 SLP127 T01670150
2026-04-01 09:53:00,METAR KSNA 010953Z AUTO 26003KT 10SM FEW075 BKN095 17/15 A2992 RMK AO2 RAE48 SLP130 P0000 T01670150
2026-04-01 09:07:00,SPECI KSNA 010907Z AUTO 26004KT 10SM -RA FEW009 SCT021 OVC090 17/16 A2993 RMK AO2 P0000 T01720156
2026-04-01 08:53:00,METAR KSNA 010853Z AUTO 25004KT 10SM -RA SCT011 BKN019 OVC100 17/16 A2994 RMK AO2 RAE14B44 SLP136 P0000 60001 T01720156 50010
2026-04-01 08:36:00,SPECI KSNA 010836Z AUTO VRB04KT 10SM BKN011 OVC060 18/16 A2994 RMK AO2 RAE14 P0000 T01780161
2026-04-01 07:53:00,METAR KSNA 010753Z AUTO 25003KT 10SM -RA SCT060 OVC100 18/17 A2995 RMK AO2 SLP139 P0001 T01780167 402170178
2026-04-01 06:53:00,METAR KSNA 010653Z AUTO VRB03KT 10SM -RA OVC090 18/16 A2994 RMK AO2 SLP138 P0000 T01830161
2026-04-01 05:53:00,METAR KSNA 010553Z 00000KT 8SM -RA FEW017 BKN095 OVC110 18/16 A2991 RMK AO2 SLP126 LAST P0000 60001 T01830156 10200 20183 58007
2026-04-01 04:53:00,METAR KSNA 010453Z 09005KT 8SM -RA FEW017 SCT036 BKN110 18/16 A2993 RMK AO2 SLP133 P0001 T01830156
2026-04-01 03:53:00,METAR KSNA 010353Z 26005KT 7SM -RA FEW008 FEW036 OVC095 19/15 A2995 RMK AO2 SLP140 P0000 T01890150
2026-04-01 03:14:00,SPECI KSNA 010314Z 26005KT 7SM -RA FEW008 FEW018 BKN036 19/15 A2994 RMK AO2 P0000 T01890150
2026-04-01 02:53:00,METAR KSNA 010253Z 24005KT 9SM -RA FEW010 SCT015 OVC110 19/16 A2993 RMK AO2 RAB42 SLP133 P0000 60000 T01890156 55005
2026-04-01 02:42:00,SPECI KSNA 010242Z 24005KT 8SM -RA BKN015 BKN032 OVC110 19/16 A2993 RMK AO2 RAB42 P0000 T01890156
2026-04-01 01:53:00,METAR KSNA 010153Z 16004KT 10SM FEW017 SCT041 BKN120 19/15 A2993 RMK AO2 SLP133 T01940150
2026-04-01 00:53:00,METAR KSNA 010053Z 28003KT 10SM FEW017 SCT035 BKN120 19/14 A2993 RMK AO2 SLP132 T01940144
2026-03-31 23:53:00,METAR KSNA 312353Z 21007KT 10SM SCT017 SCT035 BKN120 20/15 A2994 RMK AO2 SLP139 60000 T02000150 10217 20194 56010
2026-03-31 22:53:00,METAR KSNA 312253Z 18007KT 10SM SCT022 BKN036 BKN120 20/16 A2996 RMK AO2 RAE16 SLP144 P0000 T02000161
2026-03-31 21:53:00,METAR KSNA 312153Z 19007KT 10SM -RA SCT020 SCT026 BKN035 21/15 A2994 RMK AO2 RAB42 SLP137 P0000 T02060150
2026-03-31 20:53:00,METAR KSNA 312053Z 18010KT 10SM FEW022 BKN036 OVC140 21/15 A2998 RMK AO2 SLP149 T02060150 55006
2026-03-31 19:53:00,METAR KSNA 311953Z 19010G18KT 10SM SCT037 OVC150 22/15 A2997 RMK AO2 SLP146 T02170150
2026-03-31 18:53:00,METAR KSNA 311853Z 18009G17KT 10SM FEW025 SCT034 OVC150 21/14 A2998 RMK AO2 SLP150 T02110144
2026-03-31 17:53:00,METAR KSNA 311753Z 20009KT 10SM SCT026 BKN034 OVC150 21/14 A2999 RMK AO2 SLP155 T02110144 10211 20189 51022
2026-03-31 16:53:00,METAR KSNA 311653Z 13004KT 10SM FEW022 BKN030 OVC140 20/14 A2998 RMK AO2 SLP152 T02000144
2026-03-31 16:19:00,SPECI KSNA 311619Z VRB05KT 10SM SCT022 BKN029 OVC140 20/14 A3000 RMK AO2 T02000144
2026-03-31 15:53:00,METAR KSNA 311553Z 17004KT 10SM FEW027 SCT032 OVC140 19/14 A2998 RMK AO2 SLP150 T01940144
2026-03-31 14:53:00,METAR KSNA 311453Z 08008KT 10SM SCT032 OVC150 19/15 A2993 RMK AO2 SLP133 T01890150 58001
2026-03-31 13:53:00,METAR KSNA 311353Z 15006KT 10SM FEW032 OVC150 19/15 A2994 RMK AO2 SLP138 T01890150
2026-03-31 12:53:00,METAR KSNA 311253Z 00000KT 10SM BKN031 OVC150 19/16 A2996 RMK AO2 SLP144 T01890156
2026-03-31 11:53:00,METAR KSNA 311153Z AUTO 13005KT 10SM OVC026 19/16 A2993 RMK AO2 SLP134 T01890156 10189 20189 56012
2026-03-31 10:53:00,METAR KSNA 311053Z AUTO 00000KT 10SM OVC018 19/16 A2995 RMK AO2 SLP139 T01890156
2026-03-31 09:53:00,METAR KSNA 310953Z AUTO 11005KT 10SM OVC016 19/15 A2994 RMK AO2 SLP138 T01890150
2026-03-31 08:53:00,METAR KSNA 310853Z AUTO 17009KT 10SM OVC016 19/16 A2997 RMK AO2 SLP146 T01890156 53004
2026-03-31 07:53:00,METAR KSNA 310753Z AUTO 18005KT 10SM OVC016 19/15 A2996 RMK AO2 SLP143 T01890150 402110139
2026-03-31 06:53:00,METAR KSNA 310653Z AUTO 00000KT 10SM OVC016 19/15 A2995 RMK AO2 SLP141 T01890150
2026-03-31 05:53:00,METAR KSNA 310553Z 18005KT 10SM OVC015 19/15 A2995 RMK AO2 SLP142 LAST T01890150 10200 20189 58006
2026-03-31 04:53:00,METAR KSNA 310453Z VRB03KT 10SM OVC015 19/15 A2998 RMK AO2 SLP153 T01890150
2026-03-31 03:53:00,METAR KSNA 310353Z 19006KT 10SM OVC015 19/15 A2998 RMK AO2 SLP150 T01890150
2026-03-31 02:53:00,METAR KSNA 310253Z 18006KT 10SM OVC016 19/15 A2997 RMK AO2 SLP149 T01890150 51001
2026-03-31 01:53:00,METAR KSNA 310153Z 17008KT 10SM BKN017 BKN100 BKN220 19/14 A2997 RMK AO2 SLP148 T01890144
2026-03-31 00:53:00,METAR KSNA 310053Z 17010KT 10SM SCT012 SCT120 SCT220 19/15 A2997 RMK AO2 SLP149 T01940150
2026-03-30 23:53:00,METAR KSNA 302353Z 18011KT 10SM SCT010 SCT140 BKN220 20/14 A2997 RMK AO2 SLP147 T02000144 10211 20194 57013
2026-03-30 22:53:00,METAR KSNA 302253Z 19012KT 10SM SCT010 SCT150 BKN230 21/14 A2998 RMK AO2 SLP151 T02060144
2026-03-30 21:53:00,METAR KSNA 302153Z 20012G20KT 10SM SCT010 SCT150 BKN240 21/14 A2999 RMK AO2 SLP156 T02060144
2026-03-30 20:53:00,METAR KSNA 302053Z 19013G21KT 10SM FEW010 SCT180 BKN250 21/14 A3001 RMK AO2 SLP160 T02060144 58009
2026-03-30 19:53:00,METAR KSNA 301953Z 22009KT 10SM SCT180 BKN220 21/14 A3002 RMK AO2 SLP164 T02110144
2026-03-30 18:53:00,METAR KSNA 301853Z 21011KT 10SM FEW018 SCT180 BKN220 21/14 A3003 RMK AO2 SLP168 T02110139
2026-03-30 17:53:00,METAR KSNA 301753Z 16005KT 10SM SCT018 BKN220 20/14 A3003 RMK AO2 SLP169 T02000144 10200 20139 51020
2026-03-30 17:31:00,SPECI KSNA 301731Z 12003KT 10SM BKN016 BKN200 19/14 A3003 RMK AO2 T01890139
2026-03-30 16:53:00,METAR KSNA 301653Z 00000KT 9SM BKN012 OVC200 17/14 A3003 RMK AO2 SLP169 T01720139
2026-03-30 16:32:00,SPECI KSNA 301632Z 08003KT 10SM BKN011 BKN200 17/13 A3002 RMK AO2 T01670133
2026-03-30 15:53:00,METAR KSNA 301553Z 15006G15KT 10SM SCT008 BKN200 16/13 A3000 RMK AO2 SLP160 T01610128
2026-03-30 15:10:00,SPECI KSNA 301510Z 19003KT 8SM BKN006 BKN200 14/13 A2998 RMK AO2 T01440133
2026-03-30 14:53:00,METAR KSNA 301453Z 00000KT 5SM BR OVC004 14/13 A2997 RMK AO2 SLP150 T01440133 53017
2026-03-30 13:53:00,METAR KSNA 301353Z 19003KT 3SM BR OVC002 14/13 A2996 RMK AO2 SLP144 VIS E-SE 1 T01440133
2026-03-30 12:53:00,METAR KSNA 301253Z 00000KT 5SM BR OVC004 14/14 A2994 RMK AO2 SLP138 T01440139
2026-03-30 11:53:00,METAR KSNA 301153Z AUTO 00000KT 6SM BR OVC004 14/14 A2993 RMK AO2 SLP132 T01440139 10167 20144 58002
2026-03-30 11:01:00,SPECI KSNA 301101Z AUTO 00000KT 3SM BR OVC002 15/14 A2994 RMK AO2 T01500144
2026-03-30 10:49:00,METAR KSNA 301049Z AUTO 00000KT 1 1/2SM R20R/6000VP6000FT BR OVC002 15/14 A2993 RMK AO2 SLP134 T01500144
2026-03-30 10:48:00,SPECI KSNA 301048Z AUTO 00000KT 1 3/4SM BR OVC002 15/14 A2993 RMK AO2
2026-03-30 10:25:00,SPECI KSNA 301025Z AUTO 00000KT 3SM BR OVC002 15/14 A2994 RMK AO2 T01500144
2026-03-30 10:08:00,SPECI KSNA 301008Z AUTO 25003KT 1 3/4SM R20R/3500VP6000FT BR OVC003 15/14 A2994 RMK AO2 VIS 1V4 T01500139
2026-03-30 09:53:00,METAR KSNA 300953Z AUTO 00000KT 5SM BR OVC003 15/14 A2993 RMK AO2 SLP134 T01500144
2026-03-30 08:53:00,METAR KSNA 300853Z AUTO 20003KT 5SM BR OVC003 16/14 A2993 RMK AO2 SLP134 T01560144 58001
2026-03-30 07:53:00,METAR KSNA 300753Z AUTO 19005KT 6SM BR BKN004 16/14 A2995 RMK AO2 SLP140 T01560144 402610144
2026-03-30 07:48:00,SPECI KSNA 300748Z AUTO 19005KT 8SM SCT004 16/14 A2995 RMK AO2
2026-03-30 06:53:00,METAR KSNA 300653Z AUTO 19003KT 9SM CLR 16/15 A2993 RMK AO2 SLP135 T01610150
2026-03-30 05:53:00,METAR KSNA 300553Z 00000KT 6SM BR SCT005 17/15 A2994 RMK AO2 SLP137 LAST T01670150 10228 20167 50009
2026-03-30 04:53:00,METAR KSNA 300453Z 22003KT 7SM FEW006 17/15 A2994 RMK AO2 SLP140 T01670150
2026-03-30 03:53:00,METAR KSNA 300353Z 21004KT 8SM FEW006 17/15 A2993 RMK AO2 SLP136 T01720150
2026-03-30 02:53:00,METAR KSNA 300253Z 22005KT 8SM FEW006 18/15 A2991 RMK AO2 SLP129 T01780150 51007
2026-03-30 01:53:00,METAR KSNA 300153Z 21008KT 10SM FEW006 FEW180 19/15 A2991 RMK AO2 SLP127 T01890150
2026-03-30 00:53:00,METAR KSNA 300053Z 19009KT 10SM FEW006 FEW180 21/14 A2990 RMK AO2 SLP125 ACSL NE T02060144
2026-03-29 23:53:00,METAR KSNA 292353Z 21012KT 10SM FEW006 FEW180 23/13 A2989 RMK AO2 SLP121 ACSL NE T02280128 10261 20211 56014
2026-03-29 23:28:00,SPECI KSNA 292328Z 20010KT 10SM FEW006 FEW180 23/13 A2989 RMK AO2 ACSL N T02280128
2026-03-29 22:53:00,METAR KSNA 292253Z 20010KT 10SM FEW150 FEW220 24/12 A2990 RMK AO2 SLP123 T02390122
2026-03-29 21:53:00,METAR KSNA 292153Z 19012KT 10SM FEW210 24/13 A2992 RMK AO2 SLP131 T02390128
2026-03-29 20:53:00,METAR KSNA 292053Z 22006KT 10SM FEW180 SCT210 25/13 A2993 RMK AO2 SLP135 T02500128 58006
2026-03-29 19:53:00,METAR KSNA 291953Z 23006KT 10SM FEW180 SCT250 26/12 A2994 RMK AO2 SLP138 T02560122
2026-03-29 18:53:00,METAR KSNA 291853Z 22005KT 7SM FEW180 SCT250 23/13 A2995 RMK AO2 SLP141 T02280133
2026-03-29 17:53:00,METAR KSNA 291753Z VRB05KT 7SM SCT250 21/14 A2995 RMK AO2 SLP141 T02110139 10217 20144 53016
2026-03-29 14:53:00,METAR KSNA 291453Z VRB03KT 10SM BKN250 16/12 A2990 RMK AO2 SLP126 T01560122 53012
2026-03-29 13:53:00,METAR KSNA 291353Z 00000KT 7SM BKN250 14/13 A2989 RMK AO2 SLP120 T01440128
2026-03-29 12:53:00,METAR KSNA 291253Z 00000KT 9SM SCT250 15/13 A2987 RMK AO2 SLP114 T01500133
2026-03-29 11:53:00,METAR KSNA 291153Z AUTO 00000KT 9SM CLR 16/13 A2987 RMK AO2 SLP113 T01560133 10172 20156 56018
2026-03-29 10:53:00,METAR KSNA 291053Z AUTO 00000KT 10SM CLR 16/13 A2988 RMK AO2 SLP118 T01560133
2026-03-29 09:53:00,METAR KSNA 290953Z AUTO 00000KT 10SM CLR 16/14 A2990 RMK AO2 SLP124 T01610139
2026-03-29 08:53:00,METAR KSNA 290853Z AUTO 00000KT 10SM CLR 16/14 A2992 RMK AO2 SLP131 T01610139 58009
2026-03-29 07:53:00,METAR KSNA 290753Z AUTO 00000KT 10SM CLR 17/14 A2994 RMK AO2 SLP138 T01670139 402560150
2026-03-29 06:53:00,METAR KSNA 290653Z AUTO 00000KT 10SM CLR 17/14 A2995 RMK AO2 SLP141 T01720144
2026-03-29 05:53:00,METAR KSNA 290553Z 00000KT 8SM FEW250 17/14 A2995 RMK AO2 SLP141 LAST T01720144 10239 20172 50003
2026-03-29 04:53:00,METAR KSNA 290453Z 00000KT 7SM FEW250 18/14 A2996 RMK AO2 SLP143 T01780144
2026-03-29 03:53:00,METAR KSNA 290353Z 00000KT 8SM FEW250 18/14 A2995 RMK AO2 SLP143 T01780144
2026-03-29 02:53:00,METAR KSNA 290253Z 23004KT 8SM FEW250 18/14 A2994 RMK AO2 SLP138 T01830144 53011
2026-03-29 01:53:00,METAR KSNA 290153Z 25006KT 10SM FEW120 FEW160 BKN250 20/14 A2992 RMK AO2 SLP131 VIRGA NW ACSL N-NE-E T02000144
2026-03-29 00:53:00,METAR KSNA 290053Z 22006KT 10SM FEW110 FEW150 BKN250 22/13 A2991 RMK AO2 SLP127 VIRGA W ACSL N-NE T02220133
2026-03-28 23:53:00,METAR KSNA 282353Z 22005KT 10SM FEW150 BKN250 24/13 A2991 RMK AO2 SLP127 VIRGA W ACSL NE-E T02390128 10256 20200 56013
2026-03-28 22:53:00,METAR KSNA 282253Z 22006KT 10SM FEW190 BKN250 23/14 A2992 RMK AO2 SLP130 T02330144
2026-03-28 21:53:00,METAR KSNA 282153Z 25007KT 10SM BKN250 24/14 A2993 RMK AO2 SLP134 T02440144
2026-03-28 20:53:00,METAR KSNA 282053Z 24005KT 8SM BKN065 BKN250 25/14 A2995 RMK AO2 SLP139 T02500144 58022
2026-03-28 19:53:00,METAR KSNA 281953Z 27004KT 9SM FEW070 BKN250 26/14 A2997 RMK AO2 SLP147 T02560139
2026-03-28 18:53:00,METAR KSNA 281853Z 27004KT 8SM FEW060 BKN250 23/13 A2999 RMK AO2 SLP155 T02330128
2026-03-28 17:53:00,METAR KSNA 281753Z 00000KT 7SM SCT250 20/13 A3001 RMK AO2 SLP162 T02000128 10200 20150 50003
2026-03-28 16:53:00,METAR KSNA 281653Z 00000KT 6SM HZ FEW090 SCT250 18/13 A3001 RMK AO2 SLP163 T01780133
2026-03-28 16:23:00,SPECI KSNA 281623Z 00000KT 5SM HZ FEW010 SCT250 17/13 A3001 RMK AO2 T01670133
2026-03-28 15:53:00,METAR KSNA 281553Z 31003KT 5SM HZ BKN010 16/13 A3001 RMK AO2 SLP163 T01610133
2026-03-28 14:53:00,METAR KSNA 281453Z 30004KT 4SM BR OVC007 16/13 A3000 RMK AO2 SLP159 T01560133 53013
2026-03-28 13:53:00,METAR KSNA 281353Z 00000KT 5SM BR OVC005 15/14 A2999 RMK AO2 SLP154 T01500139
2026-03-28 12:53:00,METAR KSNA 281253Z 34003KT 6SM BR OVC007 16/14 A2997 RMK AO2 SLP149 T01560139
2026-03-28 11:53:00,METAR KSNA 281153Z AUTO 32003KT 8SM OVC008 16/14 A2996 RMK AO2 SLP146 T01610139 10167 20161 57005
2026-03-28 10:53:00,METAR KSNA 281053Z AUTO 00000KT 9SM OVC009 16/14 A2997 RMK AO2 SLP147 T01610139
2026-03-28 09:53:00,METAR KSNA 280953Z AUTO 27003KT 10SM OVC009 16/14 A2997 RMK AO2 SLP149 T01610139
2026-03-28 08:53:00,METAR KSNA 280853Z AUTO 00000KT 9SM OVC008 16/14 A2998 RMK AO2 SLP150 T01610144 58003
2026-03-28 08:08:00,SPECI KSNA 280808Z AUTO 00000KT 9SM OVC009 16/14 A2999 RMK AO2 T01610144
2026-03-28 07:53:00,METAR KSNA 280753Z AUTO 00000KT 9SM OVC010 16/14 A2999 RMK AO2 SLP153 T01610144 402440144
2026-03-28 07:06:00,SPECI KSNA 280706Z AUTO 00000KT 10SM BKN010 16/14 A2999 RMK AO2 T01610144
2026-03-28 06:53:00,METAR KSNA 280653Z AUTO 00000KT 9SM FEW008 FEW012 16/14 A2999 RMK AO2 SLP155 T01610144
2026-03-28 05:53:00,METAR KSNA 280553Z 22003KT 5SM BR SCT007 17/14 A2999 RMK AO2 SLP154 LAST T01670144 10211 20167 51013
2026-03-28 04:53:00,METAR KSNA 280453Z 25003KT 6SM BR SCT007 17/14 A2998 RMK AO2 SLP153 T01670144
2026-03-28 04:40:00,SPECI KSNA 280440Z 00000KT 6SM BR SCT007 17/14 A2998 RMK AO2 T01670144
2026-03-28 03:53:00,METAR KSNA 280353Z 22005KT 8SM FEW010 17/14 A2997 RMK AO2 SLP148 T01720144
2026-03-28 02:53:00,METAR KSNA 280253Z 21006KT 8SM FEW012 BKN250 18/14 A2995 RMK AO2 SLP141 T01780144 53013
2026-03-28 01:53:00,METAR KSNA 280153Z COR 10SM 21005KT FEW015 BKN250 18/15 A2993 RMK AO2 SLP135 T01830150
2026-03-28 00:53:00,METAR KSNA 280053Z 23007KT 10SM BKN250 19/14 A2992 RMK AO2 SLP131 T01940144
2026-03-27 23:53:00,METAR KSNA 272353Z 21008KT 10SM SCT250 21/14 A2991 RMK AO2 SLP129 T02060144 10244 20194 55007
2026-03-27 22:53:00,METAR KSNA 272253Z 20009KT 10SM SCT250 23/15 A2991 RMK AO2 SLP127 T02280150
2026-03-27 21:53:00,METAR KSNA 272153Z 22009KT 10SM FEW250 24/14 A2991 RMK AO2 SLP128 T02390144
2026-03-27 20:53:00,METAR KSNA 272053Z 21007KT 10SM SCT250 23/14 A2993 RMK AO2 SLP135 T02280144 58015
2026-03-27 19:53:00,METAR KSNA 271953Z 19007KT 160V220 10SM SCT250 22/14 A2995 RMK AO2 SLP141 T02170139
2026-03-27 18:53:00,METAR KSNA 271853Z 29008KT 10SM SCT250 19/14 A2997 RMK AO2 SLP147 T01940144
2026-03-27 17:53:00,METAR KSNA 271753Z 22003KT 9SM SCT250 20/14 A2998 RMK AO2 SLP150 T02000139 10200 20144 50002
2026-03-27 17:03:00,SPECI KSNA 271703Z 12003KT 8SM SCT011 BKN250 17/13 A2998 RMK AO2 T01720133
2026-03-27 16:53:00,METAR KSNA 271653Z 12004KT 8SM BKN011 17/13 A2998 RMK AO2 SLP153 T01720133
2026-03-27 16:37:00,SPECI KSNA 271637Z 00000KT 6SM HZ BKN010 16/13 A2998 RMK AO2 T01610133
2026-03-27 16:11:00,SPECI KSNA 271611Z 00000KT 5SM BR OVC008 16/13 A2998 RMK AO2 T01560133
2026-03-25 14:53:00,METAR KSNA 251453Z 31004KT 7SM OVC010 17/14 A3000 RMK AO2 SLP158 T01720144
2026-03-25 14:32:00,SPECI KSNA 251432Z 33004KT 7SM OVC010 17/14 A2999 RMK AO2 T01670144
2026-03-25 13:53:00,METAR KSNA 251353Z 00000KT 8SM OVC008 17/14 A2999 RMK AO2 SLP156 T01670144
2026-03-25 12:53:00,METAR KSNA 251253Z 00000KT 9SM OVC009 17/14 A2999 RMK AO2 SLP154 T01670144
2026-03-25 10:53:00,METAR KSNA 251053Z AUTO 00000KT 9SM OVC008 17/14 A2999 RMK AO2 SLP152 T01670144
2026-03-25 09:53:00,METAR KSNA 250953Z AUTO VRB04KT 10SM OVC009 17/14 A3000 RMK AO2 SLP157 T01670144
2026-03-25 09:37:00,SPECI KSNA 250937Z AUTO 00000KT 10SM OVC009 17/14 A3000 RMK AO2 T01670144
2026-03-25 08:53:00,METAR KSNA 250853Z AUTO 00000KT 10SM OVC010 17/14 A3001 RMK AO2 SLP160 T01670144 58003
2026-03-25 07:53:00,METAR KSNA 250753Z AUTO 00000KT 10SM OVC011 17/14 A3001 RMK AO2 SLP162 T01720144 402220167
2026-03-25 07:00:00,SPECI KSNA 250700Z AUTO 00000KT 10SM OVC013 17/14 A3001 RMK AO2 T01720144
2026-03-25 06:53:00,METAR KSNA 250653Z AUTO 15003KT 10SM BKN016 17/14 A3001 RMK AO2 SLP162 T01720144
2026-03-25 05:53:00,METAR KSNA 250553Z 20005KT 10SM FEW010 BKN015 17/14 A3002 RMK AO2 SLP163 LAST T01720144 10211 20172 53011
2026-03-25 04:53:00,METAR KSNA 250453Z 20006KT 10SM FEW010 17/14 A3001 RMK AO2 SLP160 T01720144
2026-03-25 03:53:00,METAR KSNA 250353Z COR 19004KT 10SM FEW012 17/14 A2999 RMK AO2 SLP155 T01720144
2026-03-25 02:53:00,METAR KSNA 250253Z 20006KT 10SM FEW010 FEW015 18/15 A2998 RMK AO2 SLP153 T01780150 53008
2026-03-25 01:53:00,METAR KSNA 250153Z 21009KT 10SM FEW017 19/15 A2997 RMK AO2 SLP149 T01890150
2026-03-25 00:53:00,METAR KSNA 250053Z 20009KT 10SM FEW018 FEW250 20/15 A2996 RMK AO2 SLP144 T02000150
2026-03-24 23:53:00,METAR KSNA 242353Z 20010KT 10SM FEW015 FEW250 21/14 A2996 RMK AO2 SLP144 T02110144 10222 20194 56008
2026-03-24 22:53:00,METAR KSNA 242253Z 21009KT 10SM FEW250 21/14 A2997 RMK AO2 SLP146 T02110144
2026-03-24 21:53:00,METAR KSNA 242153Z 20009KT 10SM FEW015 FEW250 21/16 A2997 RMK AO2 SLP147 T02110156
2026-03-24 20:53:00,METAR KSNA 242053Z 21008KT 10SM FEW012 FEW250 21/16 A2998 RMK AO2 SLP152 T02110156 58010
2026-03-24 19:53:00,METAR KSNA 241953Z 20007KT 10SM FEW012 FEW250 21/16 A3000 RMK AO2 SLP159 T02110156
2026-03-24 18:53:00,METAR KSNA 241853Z 20007KT 9SM FEW012 FEW250 21/16 A3001 RMK AO2 SLP162 T02110156
2026-03-24 17:53:00,METAR KSNA 241753Z 26004KT 8SM SCT012 SCT250 20/15 A3002 RMK AO2 SLP163 T02000150 10200 20167 52007
2026-03-24 17:24:00,SPECI KSNA 241724Z 15003KT 8SM SCT012 BKN250 19/15 A3001 RMK AO2 T01890150
2026-03-24 16:53:00,METAR KSNA 241653Z 25004KT 7SM OVC012 18/14 A3001 RMK AO2 SLP162 T01780144
2026-03-24 15:53:00,METAR KSNA 241553Z 12003KT 7SM OVC010 17/14 A3000 RMK AO2 SLP158 T01720144
2026-03-24 15:45:00,SPECI KSNA 241545Z 00000KT 7SM OVC010 17/14 A3000 RMK AO2 T01720144
2026-03-24 14:53:00,METAR KSNA 241453Z 24003KT 8SM OVC009 17/14 A2999 RMK AO2 SLP156 T01670144 53014
2026-03-24 14:37:00,SPECI KSNA 241437Z 20004KT 8SM OVC009 17/14 A2999 RMK AO2 T01670144
2026-03-24 13:53:00,METAR KSNA 241353Z VRB03KT 8SM OVC010 17/14 A2998 RMK AO2 SLP151 T01670144
2026-03-24 12:53:00,METAR KSNA 241253Z 19004KT 9SM OVC011 17/14 A2996 RMK AO2 SLP146 T01670144
2026-03-24 11:53:00,METAR KSNA 241153Z AUTO 00000KT 9SM OVC012 17/14 A2995 RMK AO2 SLP142 T01670144 10172 20167 56006
2026-03-24 10:53:00,METAR KSNA 241053Z AUTO 00000KT 10SM OVC011 17/14 A2995 RMK AO2 SLP142 T01670144
2026-03-24 09:53:00,METAR KSNA 240953Z AUTO 00000KT 10SM OVC011 17/14 A2996 RMK AO2 SLP145 T01670144
2026-03-24 08:53:00,METAR KSNA 240853Z AUTO 11003KT 10SM OVC011 17/14 A2997 RMK AO2 SLP148 T01720144 58000
2026-03-24 07:53:00,METAR KSNA 240753Z AUTO 10003KT 10SM OVC011 17/14 A2998 RMK AO2 SLP149 T01720144 402280156
2026-03-24 06:53:00,METAR KSNA 240653Z AUTO 00000KT 10SM OVC012 17/14 A2997 RMK AO2 SLP149 T01720144
2026-03-24 05:53:00,METAR KSNA 240553Z 18003KT 10SM BKN013 17/14 A2997 RMK AO2 SLP149 LAST T01720144 10217 20172 51014
2026-03-24 04:53:00,METAR KSNA 240453Z 17005KT 10SM FEW011 17/15 A2997 RMK AO2 SLP148 T01720150
2026-03-24 03:53:00,METAR KSNA 240353Z 19008KT 10SM FEW012 18/15 A2996 RMK AO2 SLP145 T01780150
2026-03-24 02:53:00,METAR KSNA 240253Z 21007KT 10SM FEW015 18/15 A2993 RMK AO2 SLP135 T01780150 53010
2026-03-24 01:53:00,METAR KSNA 240153Z 22007KT 10SM FEW015 BKN220 18/15 A2992 RMK AO2 SLP131 T01830150
2026-03-24 00:53:00,METAR KSNA 240053Z 20010KT 10SM FEW015 BKN220 20/15 A2991 RMK AO2 SLP127 T02000150
2026-03-23 23:53:00,METAR KSNA 232353Z 22007KT 10SM SCT220 21/14 A2990 RMK AO2 SLP124 T02110144 10228 20194 56008
2026-03-23 22:53:00,METAR KSNA 232253Z COR 22007KT 10SM FEW200 22/14 A2990 RMK AO2 SLP124 T02170144
2026-03-23 21:53:00,METAR KSNA 232153Z 24007G16KT 10SM FEW025 FEW200 22/14 A2991 RMK AO2 SLP127 T02220144
2026-03-23 20:53:00,METAR KSNA 232053Z 22008KT 10SM FEW025 FEW200 22/14 A2993 RMK AO2 SLP132 T02170144 56009
2026-03-23 19:53:00,METAR KSNA 231953Z 22006KT 10SM FEW060 FEW150 22/14 A2993 RMK AO2 SLP134 T02170144
2026-03-23 18:53:00,METAR KSNA 231853Z 21008KT 10SM FEW028 FEW150 21/14 A2994 RMK AO2 SLP137 T02110144
2026-03-23 17:53:00,METAR KSNA 231753Z 16003KT 10SM FEW025 19/14 A2995 RMK AO2 SLP142 T01940139 10194 20156 50004
2026-03-23 17:16:00,SPECI KSNA 231716Z 00000KT 10SM SCT014 18/14 A2996 RMK AO2 T01830139
2026-03-23 16:53:00,METAR KSNA 231653Z 23003KT 8SM BKN012 18/14 A2996 RMK AO2 SLP145 T01780139
2026-03-23 16:02:00,SPECI KSNA 231602Z 00000KT 9SM OVC010 17/14 A2996 RMK AO2 T01670139
2026-03-23 15:53:00,METAR KSNA 231553Z 00000KT 9SM OVC009 17/14 A2996 RMK AO2 SLP144 T01670139
2026-03-23 14:53:00,METAR KSNA 231453Z 00000KT 7SM OVC008 16/14 A2994 RMK AO2 SLP138 T01610139 53016
2026-03-23 13:53:00,METAR KSNA 231353Z 00000KT 8SM OVC005 16/14 A2992 RMK AO2 SLP130 T01560144
2026-03-23 13:07:00,SPECI KSNA 231307Z 19003KT 7SM OVC004 16/14 A2990 RMK AO2 VIS E 2 1/2 T01560144
2026-03-23 12:53:00,METAR KSNA 231253Z 12003KT 7SM OVC005 16/14 A2990 RMK AO2 SLP123 T01560144
2026-03-23 11:53:00,METAR KSNA 231153Z AUTO 13004KT 9SM OVC007 16/14 A2989 RMK AO2 SLP121 T01610144 10167 20161 58002
2026-03-23 10:53:00,METAR KSNA 231053Z AUTO 00000KT 9SM OVC007 16/14 A2990 RMK AO2 SLP125 T01610144
2026-03-23 09:53:00,METAR KSNA 230953Z AUTO 00000KT 9SM OVC007 16/14 A2990 RMK AO2 SLP124 T01610144
2026-03-23 09:01:00,SPECI KSNA 230901Z AUTO 00000KT 10SM BKN009 16/14 A2990 RMK AO2 T01610144
2026-03-23 08:53:00,METAR KSNA 230853Z AUTO 00000KT 10SM SCT009 16/14 A2990 RMK AO2 SLP123 T01610144 58004
2026-03-23 07:53:00,METAR KSNA 230753Z AUTO 00000KT 10SM FEW009 16/14 A2990 RMK AO2 SLP122 T01610144 402220144
2026-03-23 07:22:00,SPECI KSNA 230722Z AUTO 00000KT 10SM FEW008 16/14 A2990 RMK AO2 T01610144
2026-03-23 06:53:00,METAR KSNA 230653Z AUTO 00000KT 10SM BKN009 17/14 A2991 RMK AO2 SLP127 T01670144
2026-03-23 06:50:00,SPECI KSNA 230650Z AUTO 00000KT 10SM BKN009 17/14 A2991 RMK AO2
2026-03-23 06:39:00,SPECI KSNA 230639Z AUTO 00000KT 10SM SCT008 17/14 A2991 RMK AO2 T01670144
2026-03-23 05:53:00,METAR KSNA 230553Z 23003KT 10SM FEW010 17/14 A2991 RMK AO2 SLP127 LAST T01670144 10211 20167 50009
2026-03-23 04:53:00,METAR KSNA 230453Z 25003KT 10SM FEW010 17/14 A2991 RMK AO2 SLP129 T01670144
2026-03-23 03:53:00,METAR KSNA 230353Z 25003KT 10SM SCT009 17/14 A2990 RMK AO2 SLP124 T01670144
2026-03-23 03:34:00,SPECI KSNA 230334Z 24004KT 10SM FEW009 FEW014 17/14 A2989 RMK AO2 T01670144
2026-03-23 02:53:00,METAR KSNA 230253Z 23005KT 10SM FEW015 FEW160 17/14 A2988 RMK AO2 SLP118 T01720144 53005
2026-03-23 01:53:00,METAR KSNA 230153Z 24005KT 10SM FEW018 FEW160 18/14 A2986 RMK AO2 SLP112 T01830144
2026-03-23 00:53:00,METAR KSNA 230053Z 19009KT 10SM FEW020 SCT160 19/14 A2986 RMK AO2 SLP112 T01890139
2026-03-22 23:53:00,METAR KSNA 222353Z 22008KT 10SM FEW020 SCT160 21/14 A2986 RMK AO2 SLP112 T02060139 10222 20183 56014
2026-03-22 22:53:00,METAR KSNA 222253Z 20009KT 10SM FEW020 SCT160 SCT250 21/14 A2987 RMK AO2 SLP115 T02060144
2026-03-22 21:53:00,METAR KSNA 222153Z 19010KT 10SM FEW020 FEW160 SCT250 21/14 A2988 RMK AO2 SLP118 T02060144
2026-03-22 20:53:00,METAR KSNA 222053Z 24008KT 10SM FEW020 FEW160 SCT250 21/15 A2990 RMK AO2 SLP126 VIRGA OVHD T02060150 56010
2026-03-22 19:53:00,METAR KSNA 221953Z 24004KT 10SM FEW160 FEW210 SCT250 21/15 A2991 RMK AO2 SLP126 VIRGA W-NW ACC W-NW T02110150
2026-03-22 18:53:00,METAR KSNA 221853Z 23007KT 10SM FEW013 SCT160 SCT250 20/14 A2992 RMK AO2 SLP131 VIRGA W-NW ACC W-NW T02000144
2026-03-22 17:53:00,METAR KSNA 221753Z 00000KT 10SM SCT012 SCT180 BKN250 18/14 A2993 RMK AO2 SLP136 T01830139 10183 20144 50003
2026-03-22 17:40:00,SPECI KSNA 221740Z 00000KT 10SM SCT012 SCT180 BKN250 18/14 A2994 RMK AO2 T01780139
2026-03-22 17:15:00,SPECI KSNA 221715Z 00000KT 10SM OVC010 17/14 A2994 RMK AO2 T01720139
2026-03-22 16:53:00,METAR KSNA 221653Z 00000KT 5SM BR OVC008 16/14 A2994 RMK AO2 SLP139 T01610139
2026-03-22 15:53:00,METAR KSNA 221553Z 13004KT 4SM BR OVC008 16/14 A2993 RMK AO2 SLP135 T01560139
2026-03-22 14:53:00,METAR KSNA 221453Z 00000KT 3SM BR OVC005 15/14 A2992 RMK AO2 SLP133 T01500139 53015
2026-03-22 13:53:00,METAR KSNA 221353Z 14005KT 3SM BR OVC006 15/13 A2990 RMK AO2 SLP123 T01500133
2026-03-22 12:53:00,METAR KSNA 221253Z 17003KT 4SM BR OVC006 15/13 A2989 RMK AO2 SLP121 T01500133
2026-03-22 11:53:00,METAR KSNA 221153Z AUTO 16004KT 7SM OVC004 15/14 A2988 RMK AO2 SLP116 T01500139 10161 20150 56009
2026-03-22 11:25:00,SPECI KSNA 221125Z AUTO 16003KT 6SM BR OVC004 15/14 A2989 RMK AO2 T01500144
2026-03-22 10:53:00,METAR KSNA 221053Z AUTO 16004KT 7SM OVC005 16/14 A2988 RMK AO2 SLP118 T01560144
2026-03-22 09:53:00,METAR KSNA 220953Z AUTO 16003KT 7SM OVC005 16/14 A2989 RMK AO2 SLP121 T01560144
2026-03-22 08:53:00,METAR KSNA 220853Z AUTO 10003KT 5SM BR OVC003 16/14 A2991 RMK AO2 SLP125 T01560144 58006
2026-03-22 07:53:00,METAR KSNA 220753Z AUTO 00000KT 7SM OVC003 16/15 A2992 RMK AO2 SLP131 T01560150 402610156
2026-03-22 07:00:00,SPECI KSNA 220700Z AUTO 22004KT 6SM BR OVC002 16/15 A2993 RMK AO2 T01610150
2026-03-22 06:53:00,METAR KSNA 220653Z AUTO 00000KT 1SM R20R/P6000FT BR OVC002 16/15 A2993 RMK AO2 SLP133 T01610150
2026-03-22 05:53:00,METAR KSNA 220553Z 20004KT 1SM R20R/P6000FT BR OVC002 16/15 A2992 RMK AO2 SLP131 LAST T01610150 10239 20156 51009
2026-03-22 04:53:00,METAR KSNA 220453Z 21007KT 1SM R20R/6000VP6000FT BR OVC002 16/16 A2991 RMK AO2 SLP129 T01610156
2026-03-22 03:53:00,METAR KSNA 220353Z 21007KT 1SM R20R/P6000FT BR OVC003 16/16 A2991 RMK AO2 SLP127 T01610156
2026-03-22 03:27:00,SPECI KSNA 220327Z COR 21006KT 1SM R20R/P6000FT BR OVC002 17/16 A2990 RMK AO2 SFC VIS 1 1/2 T01670156
2026-03-22 02:58:00,SPECI KSNA 220258Z 22007KT 10SM BKN004 BKN250 17/15 A2990 RMK AO2 T01670150
2026-03-22 01:53:00,METAR KSNA 220153Z 21007KT 10SM FEW015 BKN250 18/16 A2989 RMK AO2 SLP120 T01830156
2026-03-22 00:53:00,METAR KSNA 220053Z 20007KT 10SM FEW015 BKN250 21/16 A2988 RMK AO2 SLP117 T02110156
2026-03-21 23:53:00,METAR KSNA 212353Z 22007KT 10SM FEW015 BKN250 24/15 A2988 RMK AO2 SLP118 T02390150 10261 20228 58012
2026-03-21 22:53:00,METAR KSNA 212253Z 25006KT 10SM FEW014 BKN250 23/13 A2990 RMK AO2 SLP122 T02330128
2026-03-21 21:53:00,METAR KSNA 212153Z 25008KT 10SM BKN250 23/14 A2991 RMK AO2 SLP126 T02280144
2026-03-21 20:53:00,METAR KSNA 212053Z 24007KT 10SM BKN250 25/14 A2992 RMK AO2 SLP130 T02500144 58012
2026-03-21 19:53:00,METAR KSNA 211953Z 23007KT 190V260 10SM FEW250 26/14 A2993 RMK AO2 SLP134 T02560144
2026-03-21 18:53:00,METAR KSNA 211853Z 22007KT 10SM FEW250 25/15 A2995 RMK AO2 SLP139 T02500150
2026-03-21 17:53:00,METAR KSNA 211753Z VRB04KT 10SM FEW250 24/16 A2995 RMK AO2 SLP142 T02390161 10239 20167 51006
2026-03-21 16:53:00,METAR KSNA 211653Z 00000KT 10SM CLR 22/15 A2995 RMK AO2 SLP141 T02170150
2026-03-21 15:53:00,METAR KSNA 211553Z 00000KT 10SM FEW250 19/15 A2995 RMK AO2 SLP139 T01940150
2026-03-21 14:53:00,METAR KSNA 211453Z 00000KT 10SM FEW250 18/14 A2994 RMK AO2 SLP136 T01780144 53010
2026-03-21 13:53:00,METAR KSNA 211353Z 00000KT 8SM FEW250 17/15 A2993 RMK AO2 SLP134 T01720150
2026-03-21 12:53:00,METAR KSNA 211253Z 00000KT 7SM FEW006 17/16 A2991 RMK AO2 SLP127 T01720156
2026-03-21 11:53:00,METAR KSNA 211153Z AUTO 23003KT 10SM CLR 18/16 A2991 RMK AO2 SLP126 T01780161 10200 20172 56005
2026-03-21 10:53:00,METAR KSNA 211053Z AUTO 20004KT 10SM CLR 18/16 A2991 RMK AO2 SLP127 T01780161
2026-03-21 09:53:00,METAR KSNA 210953Z AUTO 00000KT 10SM CLR 18/16 A2991 RMK AO2 SLP128 T01780161
2026-03-21 08:53:00,METAR KSNA 210853Z AUTO 00000KT 10SM CLR 18/16 A2992 RMK AO2 SLP131 T01830161 56006
2026-03-21 07:53:00,METAR KSNA 210753Z AUTO 22004KT 10SM CLR 18/16 A2992 RMK AO2 SLP131 T01830161 403060178
2026-03-21 06:53:00,METAR KSNA 210653Z AUTO 20003KT 10SM CLR 19/16 A2993 RMK AO2 SLP134 T01940161
2026-03-21 05:53:00,METAR KSNA 210553Z 00000KT 10SM CLR 19/16 A2994 RMK AO2 SLP137 LAST T01940161 10283 20194 51015
2026-03-21 04:53:00,METAR KSNA 210453Z 20006KT 10SM CLR 20/16 A2993 RMK AO2 SLP135 T02000161
2026-03-21 02:53:00,METAR KSNA 210253Z 23006KT 10SM CLR 22/14 A2990 RMK AO2 SLP123 T02220144 53003
2026-03-21 01:53:00,METAR KSNA 210153Z 22006KT 10SM FEW025 25/13 A2989 RMK AO2 SLP120 FU FEW025 T02500128
2026-03-21 00:53:00,METAR KSNA 210053Z 21006KT 10SM FEW020 27/12 A2988 RMK AO2 SLP118 FU FEW020 T02670117
2026-03-20 23:53:00,METAR KSNA 202353Z 25006KT 10SM CLR 28/12 A2989 RMK AO2 SLP119 T02780117 10306 20267 56014
2026-03-20 22:53:00,METAR KSNA 202253Z 23005KT 10SM CLR 28/14 A2990 RMK AO2 SLP123 T02830139
2026-03-20 21:53:00,METAR KSNA 202153Z 22008KT 10SM CLR 28/14 A2991 RMK AO2 SLP128 T02830139
2026-03-20 20:53:00,METAR KSNA 202053Z 21010KT 10SM CLR 30/16 A2993 RMK AO2 SLP133 T03000156 58014
2026-03-20 19:53:00,METAR KSNA 201953Z 20006KT 10SM CLR 30/14 A2994 RMK AO2 SLP139 T03000144
2026-03-20 18:53:00,METAR KSNA 201853Z 20007KT 10SM CLR 28/16 A2996 RMK AO2 SLP143 T02830156
2026-03-20 17:53:00,METAR KSNA 201753Z 20003KT 10SM CLR 27/14 A2997 RMK AO2 SLP147 T02670144 10267 20178 50001
2026-03-20 16:53:00,METAR KSNA 201653Z 00000KT 10SM CLR 23/14 A2997 RMK AO2 SLP148 T02330144
2026-03-20 15:53:00,METAR KSNA 201553Z 00000KT 10SM CLR 21/14 A2997 RMK AO2 SLP147 T02060144
2026-03-20 14:53:00,METAR KSNA 201453Z 00000KT 10SM CLR 19/14 A2997 RMK AO2 SLP146 T01890144 53005
2026-03-20 13:53:00,METAR KSNA 201353Z 00000KT 10SM CLR 18/14 A2996 RMK AO2 SLP143 T01780144
2026-03-20 12:53:00,METAR KSNA 201253Z 00000KT 10SM CLR 18/14 A2995 RMK AO2 SLP141 T01780144
2026-03-20 11:53:00,METAR KSNA 201153Z AUTO 00000KT 10SM CLR 18/16 A2995 RMK AO2 SLP141 T01830156 10206 20183 56011
2026-03-20 10:53:00,METAR KSNA 201053Z AUTO 00000KT 10SM CLR 19/16 A2996 RMK AO2 SLP142 T01890161
2026-03-20 09:53:00,METAR KSNA 200953Z AUTO 00000KT 10SM CLR 19/15 A2997 RMK AO2 SLP147 T01890150
2026-03-20 08:53:00,METAR KSNA 200853Z AUTO 00000KT 10SM CLR 19/16 A2998 RMK AO2 SLP152 T01940161 50000
2026-03-20 07:53:00,METAR KSNA 200753Z AUTO 00000KT 10SM CLR 20/16 A2999 RMK AO2 SLP154 T02000161 403110172
2026-03-20 06:53:00,METAR KSNA 200653Z AUTO 00000KT 10SM CLR 20/17 A2999 RMK AO2 SLP153 T02000167
2026-03-20 05:53:00,METAR KSNA 200553Z 22005KT 10SM CLR 20/17 A2998 RMK AO2 SLP152 LAST T02000167 10289 20200 51015
2026-03-20 04:53:00,METAR KSNA 200453Z 23004KT 10SM CLR 21/15 A2997 RMK AO2 SLP148 T02110150
2026-03-20 03:53:00,METAR KSNA 200353Z 21006KT 10SM CLR 21/16 A2996 RMK AO2 SLP142 T02110161
2026-03-20 02:53:00,METAR KSNA 200253Z 21008KT 10SM CLR 23/16 A2994 RMK AO2 SLP137 T02280156 53003
2026-03-20 01:53:00,METAR KSNA 200153Z 22004KT 10SM CLR 26/13 A2993 RMK AO2 SLP133 T02560133
2026-03-20 00:53:00,METAR KSNA 200053Z 24004KT 10SM CLR 28/12 A2992 RMK AO2 SLP130 T02780117
2026-03-19 23:53:00,METAR KSNA 192353Z 25007KT 10SM CLR 29/12 A2993 RMK AO2 SLP134 T02890117 10311 20261 56022
2026-03-19 22:53:00,METAR KSNA 192253Z VRB04KT 10SM CLR 31/12 A2994 RMK AO2 SLP138 T03110117
2026-03-19 21:53:00,METAR KSNA 192153Z 22006KT 10SM CLR 30/13 A2996 RMK AO2 SLP145 T03000128
2026-03-19 20:53:00,METAR KSNA 192053Z 20007KT 10SM CLR 29/14 A2999 RMK AO2 SLP156 T02890139 58021
2026-03-19 19:53:00,METAR KSNA 191953Z 21007KT 10SM CLR 29/14 A3002 RMK AO2 SLP164 T02890144
2026-03-19 18:53:00,METAR KSNA 191853Z 20007KT 10SM CLR 28/16 A3004 RMK AO2 SLP171 T02780156
2026-03-19 17:53:00,METAR KSNA 191753Z 00000KT 10SM CLR 26/11 A3006 RMK AO2 SLP177 T02610111 10261 20172 50003
2026-03-19 16:53:00,METAR KSNA 191653Z 00000KT 10SM CLR 23/13 A3006 RMK AO2 SLP179 T02330133
2026-03-19 15:53:00,METAR KSNA 191553Z 00000KT 10SM CLR 21/14 A3006 RMK AO2 SLP178 T02110144
2026-03-19 14:53:00,METAR KSNA 191453Z COR 00000KT 10SM CLR 18/14 A3005 RMK AO2 SLP174 T01830139 53012
2026-03-19 13:53:00,METAR KSNA 191353Z 03004KT 10SM CLR 18/14 A3003 RMK AO2 SLP168 T01780139
2026-03-19 12:53:00,METAR KSNA 191253Z 05003KT 10SM CLR 17/14 A3002 RMK AO2 SLP164 T01720139
2026-03-19 11:53:00,METAR KSNA 191153Z AUTO 00000KT 10SM CLR 18/13 A3001 RMK AO2 SLP162 T01780128 10211 20178 55007
2026-03-19 10:53:00,METAR KSNA 191053Z AUTO 00000KT 10SM CLR 19/13 A3001 RMK AO2 SLP161 T01890128
2026-03-19 09:53:00,METAR KSNA 190953Z AUTO 00000KT 10SM CLR 19/14 A3002 RMK AO2 SLP165 T01940139
2026-03-19 08:53:00,METAR KSNA 190853Z AUTO 22004KT 10SM CLR 19/13 A3004 RMK AO2 SLP169 T01940133 58001
2026-03-19 07:53:00,METAR KSNA 190753Z AUTO 00000KT 10SM CLR 21/15 A3004 RMK AO2 SLP171 T02060150 403170178
2026-03-19 06:53:00,METAR KSNA 190653Z AUTO 00000KT 10SM CLR 21/14 A3004 RMK AO2 SLP171 T02110139
2026-03-19 05:53:00,METAR KSNA 190553Z 00000KT 10SM CLR 21/14 A3004 RMK AO2 SLP170 LAST T02110139 10289 20211 51017
2026-03-19 04:53:00,METAR KSNA 190453Z 21005KT 10SM CLR 22/13 A3003 RMK AO2 SLP169 T02170133
2026-03-19 03:53:00,METAR KSNA 190353Z 19005KT 10SM CLR 23/12 A3002 RMK AO2 SLP164 T02280117
2026-03-19 02:53:00,METAR KSNA 190253Z 19005KT 10SM CLR 25/09 A2999 RMK AO2 SLP154 T02500094 53009
2026-03-19 01:53:00,METAR KSNA 190153Z 04003KT 10SM FEW250 27/08 A2997 RMK AO2 SLP147 T02670083
2026-03-19 00:53:00,METAR KSNA 190053Z 22007KT 10SM FEW250 29/08 A2996 RMK AO2 SLP143 T02890083
2026-03-18 23:53:00,METAR KSNA 182353Z 25006KT 10SM FEW250 28/09 A2996 RMK AO2 SLP145 T02830089 10317 20267 56012
2026-03-18 22:53:00,METAR KSNA 182253Z 25007KT 10SM FEW250 30/08 A2997 RMK AO2 SLP147 T03000078
2026-03-18 21:53:00,METAR KSNA 182153Z 21007KT 10SM CLR 31/09 A2997 RMK AO2 SLP149 T03110094
2026-03-18 20:53:00,METAR KSNA 182053Z 23006KT 10SM CLR 30/08 A3000 RMK AO2 SLP157 T03000078 58009
2026-03-18 19:53:00,METAR KSNA 181953Z 21006KT 10SM CLR 30/08 A3002 RMK AO2 SLP164 T03000078
2026-03-18 18:53:00,METAR KSNA 181853Z COR 21005KT 10SM CLR 29/11 A3002 RMK AO2 SLP165 T02890106 $
2026-03-18 17:53:00,METAR KSNA 181753Z 21004KT 10SM CLR 27/11 A3002 RMK AO2 SLP166 T02670106 10267 20178 51013 $
2026-03-18 16:53:00,METAR KSNA 181653Z 21004KT 10SM FEW260 24/13 A3002 RMK AO2 SLP165 T02440133 $
2026-03-18 15:53:00,METAR KSNA 181553Z 00000KT 10SM FEW260 22/11 A3000 RMK AO2 SLP159 T02220106 $
2026-03-18 14:53:00,METAR KSNA 181453Z 00000KT 10SM FEW280 19/11 A2999 RMK AO2 SLP153 T01940111 53008 $
2026-03-18 13:53:00,METAR KSNA 181353Z 03004KT 10SM FEW280 18/12 A2997 RMK AO2 SLP149 T01780122 $
2026-03-18 12:53:00,METAR KSNA 181253Z 00000KT 10SM CLR 18/13 A2997 RMK AO2 SLP146 T01830133 $
2026-03-18 11:53:00,METAR KSNA 181153Z AUTO 00000KT 10SM CLR 19/13 A2996 RMK AO2 SLP144 T01890128 10217 20183 58002 $
2026-03-18 10:53:00,METAR KSNA 181053Z AUTO 00000KT 10SM CLR 19/13 A2996 RMK AO2 SLP145 T01890133 $
2026-03-18 09:53:00,METAR KSNA 180953Z AUTO 00000KT 10SM CLR 19/14 A2997 RMK AO2 SLP148 T01940139 $
2026-03-18 08:53:00,METAR KSNA 180853Z AUTO 00000KT 10SM CLR 20/14 A2997 RMK AO2 SLP147 T02000139 50003 $
2026-03-18 07:53:00,METAR KSNA 180753Z AUTO 00000KT 10SM CLR 21/15 A2997 RMK AO2 SLP148 T02060150 403500167 $
2026-03-18 06:53:00,METAR KSNA 180653Z AUTO 23003KT 10SM CLR 21/16 A2997 RMK AO2 SLP148 T02060156 $
2026-03-18 05:53:00,METAR KSNA 180553Z 21007KT 10SM CLR 22/16 A2996 RMK AO2 SLP144 LAST T02170156 10311 20217 51021 $
2026-03-18 04:53:00,METAR KSNA 180453Z 22008KT 10SM FEW250 22/14 A2994 RMK AO2 SLP138 T02220144 $
2026-03-18 03:53:00,METAR KSNA 180353Z 20003KT 10SM CLR 26/12 A2992 RMK AO2 SLP130 T02560117 $
2026-03-18 02:53:00,METAR KSNA 180253Z 00000KT 10SM FEW250 26/12 A2990 RMK AO2 SLP123 T02610117 53008 $
2026-03-18 01:53:00,METAR KSNA 180153Z 20004KT 10SM FEW250 27/12 A2988 RMK AO2 SLP117 T02670122 $
2026-03-18 00:53:00,METAR KSNA 180053Z 20005KT 10SM FEW250 29/12 A2987 RMK AO2 SLP113 T02940117 $
2026-03-17 23:53:00,METAR KSNA 172353Z 25004KT 10SM FEW250 31/09 A2987 RMK AO2 SLP114 T03110089 10350 20267 58008 $
2026-03-17 22:53:00,METAR KSNA 172253Z 21009KT 10SM FEW250 29/12 A2989 RMK AO2 SLP119 T02940117 $
2026-03-17 21:53:00,METAR KSNA 172153Z 20012KT 10SM FEW250 28/13 A2989 RMK AO2 SLP120 T02830133 $
2026-03-17 20:53:00,METAR KSNA 172053Z 20013G17KT 10SM FEW250 29/15 A2990 RMK AO2 SLP123 T02890150 58010 $
2026-03-17 19:53:00,METAR KSNA 171953Z 23006KT 10SM FEW055 SCT250 34/07 A2991 RMK AO2 SLP126 T03440067 $
2026-03-17 18:53:00,METAR KSNA 171853Z 28005KT 10SM FEW055 SCT250 32/12 A2992 RMK AO2 SLP131 T03170122 $
2026-03-17 17:53:00,METAR KSNA 171753Z 00000KT 10SM FEW032 FEW250 29/12 A2993 RMK AO2 SLP133 T02890117 10289 20167 50005 $
2026-03-17 16:53:00,METAR KSNA 171653Z 00000KT 10SM FEW055 FEW250 24/13 A2993 RMK AO2 SLP134 T02440133 $
2026-03-17 15:53:00,METAR KSNA 171553Z 00000KT 10SM FEW060 FEW250 21/13 A2992 RMK AO2 SLP132 T02110128 $
2026-03-17 14:53:00,METAR KSNA 171453Z 00000KT 10SM FEW055 FEW250 18/13 A2991 RMK AO2 SLP127 T01780128 53006
2026-03-17 13:53:00,METAR KSNA 171353Z 00000KT 10SM FEW025 FEW070 17/13 A2990 RMK AO2 SLP122 T01720128
2026-03-17 12:53:00,METAR KSNA 171253Z 00000KT 10SM CLR 17/13 A2989 RMK AO2 SLP121 T01720128
2026-03-17 11:53:00,METAR KSNA 171153Z AUTO 02004KT 10SM CLR 17/14 A2989 RMK AO2 SLP121 T01670139 10206 20167 56011
2026-03-17 10:53:00,METAR KSNA 171053Z AUTO 00000KT 10SM CLR 17/14 A2990 RMK AO2 SLP122 T01720144
2026-03-17 09:53:00,METAR KSNA 170953Z AUTO 00000KT 10SM CLR 17/14 A2991 RMK AO2 SLP126 T01720144
2026-03-17 08:53:00,METAR KSNA 170853Z AUTO 21006KT 10SM CLR 17/15 A2993 RMK AO2 SLP133 T01720150 55002
2026-03-17 07:53:00,METAR KSNA 170753Z AUTO 00000KT 10SM CLR 18/15 A2992 RMK AO2 SLP132 T01780150 402830144
2026-03-17 06:53:00,METAR KSNA 170653Z AUTO 23004KT 10SM CLR 19/14 A2993 RMK AO2 SLP133 T01890139
2026-03-17 05:53:00,METAR KSNA 170553Z 00000KT 10SM FEW250 21/14 A2993 RMK AO2 SLP135 LAST T02060139 10272 20200 53008
2026-03-17 04:53:00,METAR KSNA 170453Z 18003KT 10SM FEW250 21/14 A2993 RMK AO2 SLP132 T02060139
2026-03-17 03:53:00,METAR KSNA 170353Z 00000KT 10SM FEW250 21/14 A2991 RMK AO2 SLP129 T02060144
2026-03-17 02:53:00,METAR KSNA 170253Z 00000KT 10SM FEW250 20/14 A2991 RMK AO2 SLP128 T02000144 53010
2026-03-17 01:53:00,METAR KSNA 170153Z 21009KT 10SM FEW080 SCT250 21/14 A2990 RMK AO2 SLP125 T02060144
2026-03-17 00:53:00,METAR KSNA 170053Z 21009KT 10SM FU FEW230 23/14 A2989 RMK AO2 SLP119 FU DSNT W T02280144
2026-03-16 23:53:00,METAR KSNA 162353Z 22006KT 10SM FU FEW045 FEW065 SCT250 27/14 A2988 RMK AO2 SLP117 FU DSNT NW-W T02720144 10283 20206 56017
2026-03-16 22:53:00,METAR KSNA 162253Z 23006KT 10SM FEW080 SCT250 28/15 A2989 RMK AO2 SLP119 T02780150
2026-03-16 21:53:00,METAR KSNA 162153Z 24005KT 8SM FEW020 SCT250 27/16 A2991 RMK AO2 SLP125 T02670156
2026-03-16 20:53:00,METAR KSNA 162053Z 22004KT 8SM FEW020 BKN250 25/15 A2993 RMK AO2 SLP133 T02500150 58022
2026-03-16 19:53:00,METAR KSNA 161953Z 22005KT 8SM FEW200 BKN250 24/15 A2996 RMK AO2 SLP144 T02390150
2026-03-16 18:53:00,METAR KSNA 161853Z 22005KT 6SM HZ SCT250 22/16 A2998 RMK AO2 SLP151 T02220156
2026-03-16 17:53:00,METAR KSNA 161753Z 00000KT 8SM FEW008 SCT250 21/14 A2999 RMK AO2 SLP155 T02060144 10206 20144 50003
2026-03-16 16:53:00,METAR KSNA 161653Z 29003KT 6SM BR SCT007 SCT250 17/14 A2999 RMK AO2 SLP157 T01670144
2026-03-16 16:07:00,SPECI KSNA 161607Z 32003KT 4SM BR SCT006 BKN250 16/14 A2999 RMK AO2 T01560144
2026-03-16 15:53:00,METAR KSNA 161553Z 00000KT 3SM BR BKN006 15/14 A3000 RMK AO2 SLP157 T01500144
2026-03-16 15:35:00,SPECI KSNA 161535Z 16004KT 3SM BR OVC006 15/14 A3000 RMK AO2 T01500144
2026-03-16 15:19:00,SPECI KSNA 161519Z 00000KT 2SM BR OVC004 14/14 A2999 RMK AO2 T01440144
2026-03-16 14:53:00,METAR KSNA 161453Z 00000KT 1 3/4SM R20R/6000VP6000FT BR OVC003 14/14 A2999 RMK AO2 SLP153 T01440144 53003
2026-03-16 13:53:00,METAR KSNA 161353Z 00000KT 1 1/2SM R20R/5500VP6000FT BR OVC002 14/14 A2998 RMK AO2 SLP152 T01440144
2026-03-16 12:53:00,METAR KSNA 161253Z 00000KT 2SM R20R/5000VP6000FT BR OVC003 15/14 A2997 RMK AO2 SLP148 T01500144
2026-03-16 12:33:00,SPECI KSNA 161233Z AUTO 00000KT 1 3/4SM BR OVC003 15/14 A2997 RMK AO2 T01500144
2026-03-16 12:00:00,SPECI KSNA 161200Z AUTO 00000KT 5SM BR OVC004 15/14 A2998 RMK AO2 T01500144
2026-03-16 11:53:00,METAR KSNA 161153Z AUTO 02003KT 7SM OVC006 16/14 A2998 RMK AO2 SLP150 T01560144 10167 20150 56008
2026-03-16 11:02:00,SPECI KSNA 161102Z AUTO 00000KT 10SM BKN007 16/13 A2998 RMK AO2 T01560128
2026-03-16 10:53:00,METAR KSNA 161053Z AUTO 00000KT 10SM SCT006 15/13 A2998 RMK AO2 SLP150 T01500128
2026-03-16 09:53:00,METAR KSNA 160953Z AUTO 00000KT 10SM CLR 16/14 A2999 RMK AO2 SLP155 T01610139
2026-03-16 08:53:00,METAR KSNA 160853Z AUTO 00000KT 10SM CLR 16/14 A3000 RMK AO2 SLP159 T01560139 50004
2026-03-16 07:53:00,METAR KSNA 160753Z AUTO 00000KT 10SM CLR 17/14 A3001 RMK AO2 SLP162 T01670144 402390139
2026-03-16 06:53:00,METAR KSNA 160653Z AUTO 00000KT 10SM CLR 17/14 A3000 RMK AO2 SLP159 T01670139
2026-03-16 05:53:00,METAR KSNA 160553Z 00000KT 8SM CLR 17/14 A2999 RMK AO2 SLP155 LAST T01670144 10217 20167 51012
2026-03-16 04:53:00,METAR KSNA 160453Z 20003KT 7SM FEW250 18/14 A2998 RMK AO2 SLP153 T01780139
2026-03-16 03:53:00,METAR KSNA 160353Z 20006KT 7SM FEW250 17/14 A2998 RMK AO2 SLP150 T01720144
2026-03-16 02:53:00,METAR KSNA 160253Z 21007KT 7SM FEW250 18/15 A2996 RMK AO2 SLP143 T01780150 53007
2026-03-16 01:53:00,METAR KSNA 160153Z 20008KT 10SM CLR 19/14 A2994 RMK AO2 SLP137 T01890139
2026-03-16 00:53:00,METAR KSNA 160053Z 22007KT 10SM FEW250 20/13 A2993 RMK AO2 SLP135 T02000133
2026-03-15 23:53:00,METAR KSNA 152353Z 24007KT 10SM FEW250 22/13 A2993 RMK AO2 SLP136 T02170128 10239 20178 56014
2026-03-15 22:53:00,METAR KSNA 152253Z VRB05KT 10SM FEW250 24/13 A2995 RMK AO2 SLP139 T02390133
2026-03-15 21:53:00,METAR KSNA 152153Z 25004KT 10SM FEW250 22/12 A2995 RMK AO2 SLP142 T02220117
2026-03-15 20:53:00,METAR KSNA 152053Z VRB06KT 10SM FEW250 21/13 A2997 RMK AO2 SLP150 T02110128 58014
2026-03-15 19:53:00,METAR KSNA 151953Z 19010KT 10SM FEW250 21/13 A2999 RMK AO2 SLP155 T02110133
2026-03-15 18:53:00,METAR KSNA 151853Z 00000KT 10SM CLR 21/12 A3000 RMK AO2 SLP159 T02060122
2026-03-15 17:53:00,METAR KSNA 151753Z 19004KT 10SM FEW250 18/12 A3002 RMK AO2 SLP164 T01780122 10178 20139 50009
2026-03-15 16:53:00,METAR KSNA 151653Z 00000KT 9SM SCT012 SCT250 16/12 A3002 RMK AO2 SLP164 T01610122
2026-03-15 15:53:00,METAR KSNA 151553Z 00000KT 9SM BKN012 OVC250 15/12 A3001 RMK AO2 SLP161 T01500122
2026-03-15 14:53:00,METAR KSNA 151453Z 34003KT 9SM OVC011 14/12 A2999 RMK AO2 SLP155 T01440122 51016
2026-03-15 13:53:00,METAR KSNA 151353Z 34004KT 10SM OVC009 14/12 A2997 RMK AO2 SLP149 T01440122
2026-03-15 12:53:00,METAR KSNA 151253Z 00000KT 10SM OVC009 14/12 A2996 RMK AO2 SLP145 T01440122
2026-03-15 11:53:00,METAR KSNA 151153Z AUTO 13004KT 9SM OVC009 14/13 A2994 RMK AO2 SLP139 T01390128 10156 20139 56008
2026-03-15 11:34:00,SPECI KSNA 151134Z AUTO 11004KT 10SM BKN009 14/12 A2994 RMK AO2 T01390122
2026-03-15 11:11:00,SPECI KSNA 151111Z AUTO 00000KT 10SM SCT009 14/12 A2995 RMK AO2 T01390122
2026-03-15 10:53:00,METAR KSNA 151053Z AUTO 00000KT 10SM CLR 14/12 A2995 RMK AO2 SLP140 T01440122
2026-03-15 09:53:00,METAR KSNA 150953Z AUTO 00000KT 10SM CLR 14/13 A2995 RMK AO2 SLP143 T01440128
2026-03-15 08:53:00,METAR KSNA 150853Z AUTO 00000KT 10SM CLR 14/13 A2997 RMK AO2 SLP147 T01440128 51003
