Time_recorded,METAR
2026-05-02 15:44:00,SPECI KCHS 021544Z 35006KT 5SM RA BR FEW008 BKN010 OVC060 15/14 A2988 RMK AO2 P0007 T01500139
2026-05-02 15:30:00,SPECI KCHS 021530Z 03006KT 4SM RA BR BKN010 BKN042 OVC055 15/14 A2987 RMK AO2 P0004 T01500139
2026-05-02 15:12:00,SPECI KCHS 021512Z 02006KT 6SM -RA BR SCT010 BKN025 OVC065 16/14 A2987 RMK AO2 P0002 T01560144
2026-05-02 14:56:00,METAR KCHS 021456Z 02007KT 9SM -RA SCT013 BKN070 OVC095 15/14 A2988 RMK AO2 SLP118 P0007 60030 T01500139 51019
2026-05-02 14:35:00,SPECI KCHS 021435Z 04007KT 5SM -RA BR SCT013 BKN055 OVC100 15/14 A2987 RMK AO2 P0006 T01500139
2026-05-02 14:23:00,SPECI KCHS 021423Z 03008KT 5SM RA BR SCT006 BKN016 OVC035 15/13 A2988 RMK AO2 P0004 T01500133
2026-05-02 13:56:00,METAR KCHS 021356Z 03012G17KT 4SM RA BR BKN006 BKN016 OVC060 16/15 A2987 RMK AO2 SLP115 P0016 T01560150
2026-05-02 12:56:00,METAR KCHS 021256Z 01006KT 4SM RA BR BKN006 BKN060 OVC090 16/16 A2986 RMK AO2 SLP110 P0007 T01610156
2026-05-02 12:08:00,SPECI KCHS 021208Z 01006KT 9SM -RA BKN006 BKN040 OVC075 17/16 A2983 RMK AO2 P0000 T01670156
2026-05-02 11:56:00,METAR KCHS 021156Z 04006KT 9SM -RA BKN004 BKN070 OVC100 17/16 A2983 RMK AO2 RAE05B51 SLP099 P0001 60029 70046 T01670156 10172 20167 55010
2026-05-02 10:56:00,METAR KCHS 021056Z 02007KT 5SM -RA BR BKN004 BKN025 OVC038 17/17 A2982 RMK AO2 SLP098 P0005 T01720167
2026-05-02 09:56:00,METAR KCHS 020956Z 35005KT 5SM -RA BR BKN004 OVC027 17/17 A2985 RMK AO2 SLP107 P0007 T01720167
2026-05-02 09:09:00,SPECI KCHS 020909Z 33003KT 5SM RA BR SCT004 BKN029 OVC095 17/17 A2986 RMK AO2 P0001 T01720167
2026-05-02 08:56:00,METAR KCHS 020856Z 33003KT 5SM -RA BR FEW004 SCT027 OVC047 17/17 A2985 RMK AO2 SLP109 P0007 60016 T01720167 55001
2026-05-02 08:54:00,SPECI KCHS 020854Z 34004KT 5SM -RA BR FEW004 SCT027 OVC047 17/17 A2985 RMK AO2 P0007
2026-05-02 07:56:00,METAR KCHS 020756Z 00000KT 3SM -RA BR SCT037 OVC049 17/17 A2986 RMK AO2 SLP110 P0006 T01720167
2026-05-02 06:56:00,METAR KCHS 020656Z 29003KT 6SM -RA BR FEW004 OVC044 17/17 A2986 RMK AO2 SLP110 P0003 T01720167
2026-05-02 06:45:00,SPECI KCHS 020645Z 27003KT 7SM -RA FEW004 OVC044 17/17 A2987 RMK AO2 P0003 T01720167
2026-05-02 05:56:00,METAR KCHS 020556Z 00000KT 8SM -RA FEW028 OVC044 17/17 A2987 RMK AO2 RAE06B24 SLP113 P0000 60004 T01720167 10178 20172 56012
2026-05-02 04:56:00,METAR KCHS 020456Z 01005KT 10SM -RA FEW028 OVC046 17/17 A2987 RMK AO2 RAB42 SLP114 P0000 T01720167 402170144
2026-05-02 03:56:00,METAR KCHS 020356Z 06003KT 10SM FEW010 OVC050 17/17 A2988 RMK AO2 SLP117 T01720167
2026-05-02 03:17:00,SPECI KCHS 020317Z 04004KT 10SM FEW004 SCT010 OVC055 18/17 A2989 RMK AO2 T01780172 
2026-05-02 02:56:00,METAR KCHS 020256Z 08003KT 10SM SCT007 BKN010 OVC060 18/17 A2990 RMK AO2 RAB10E48 SLP124 P0001 60004 T01780172 50007
2026-05-02 02:36:00,SPECI KCHS 020236Z 07004KT 7SM -RA BKN007 OVC055 18/17 A2991 RMK AO2 RAB10 P0001 T01780172
2026-05-02 01:56:00,METAR KCHS 020156Z 00000KT 10SM FEW006 SCT050 OVC060 18/17 A2992 RMK AO2 RAE27 SLP131 P0001 T01780172
2026-05-02 00:56:00,METAR KCHS 020056Z 05005KT 9SM -RA SCT005 BKN050 OVC070 18/17 A2988 RMK AO2 SLP118 P0002 T01780172
2026-05-02 00:03:00,SPECI KCHS 020003Z 02004KT 3SM -RA BR SCT005 BKN040 OVC070 18/17 A2988 RMK AO2 P0001 T01780172
2026-05-01 23:56:00,METAR KCHS 012356Z 36004KT 2 1/2SM -RA BR SCT005 BKN040 OVC070 18/17 A2988 RMK AO2 RAB00 SLP117 P0006 60013 T01780172 10206 20178 53003
2026-05-01 23:48:00,SPECI KCHS 012348Z 01004KT 2SM RA BR SCT005 BKN040 OVC055 18/17 A2988 RMK AO2 RAB00 P0005 T01780172
2026-05-01 22:56:00,METAR KCHS 012256Z 36007KT 9SM BKN008 BKN012 OVC060 18/17 A2987 RMK AO2 RAE53 SLP114 P0003 T01780172
2026-05-01 22:30:00,SPECI KCHS 012230Z 02004KT 8SM -RA SCT008 BKN011 OVC070 18/17 A2987 RMK AO2 P0003 T01830172
2026-05-01 22:09:00,SPECI KCHS 012209Z 01005KT 5SM RA BR BKN008 BKN035 OVC070 18/17 A2987 RMK AO2 P0001 T01830172
2026-05-01 21:56:00,METAR KCHS 012156Z 04004KT 8SM -RA SCT008 BKN035 OVC070 18/17 A2987 RMK AO2 SLP113 P0001 T01830172
2026-05-01 21:46:00,SPECI KCHS 012146Z 04003KT 6SM -RA BR SCT008 BKN050 OVC080 18/17 A2987 RMK AO2 P0001 T01830172
2026-05-01 20:56:00,METAR KCHS 012056Z 04006KT 10SM -RA FEW025 OVC060 18/17 A2987 RMK AO2 RAE16B33 SLP114 P0002 60003 T01830172 56017
2026-05-01 19:56:00,METAR KCHS 011956Z 04008KT 7SM -RA FEW025 BKN050 OVC065 19/17 A2988 RMK AO2 RAB24 SLP118 P0001 T01890167
2026-05-01 19:15:00,SPECI KCHS 011915Z 07005KT 10SM SCT025 OVC070 19/15 A2991 RMK AO2 T01940150
2026-05-01 18:56:00,METAR KCHS 011856Z 05007KT 10SM BKN020 BKN030 OVC070 20/15 A2990 RMK AO2 RAB12E32 SLP125 P0000 T02000150
2026-05-01 18:17:00,SPECI KCHS 011817Z 06007KT 10SM -RA BKN020 OVC030 20/16 A2991 RMK AO2 RAB12 P0000 T02000156
2026-05-01 17:56:00,METAR KCHS 011756Z 08007KT 10SM SCT022 BKN030 OVC090 20/15 A2992 RMK AO2 SLP131 60000 T02000150 10217 20178 55005
2026-05-01 16:56:00,METAR KCHS 011656Z 09008KT 10SM SCT028 BKN035 OVC095 21/16 A2992 RMK AO2 RAB23E40 SLP130 P0000 T02060156
2026-05-01 15:56:00,METAR KCHS 011556Z 09008KT 10SM SCT020 BKN030 OVC120 21/16 A2993 RMK AO2 SLP133 T02110161
2026-05-01 15:10:00,SPECI KCHS 011510Z 10010KT 10SM SCT017 BKN035 OVC120 21/16 A2993 RMK AO2 SCT V BKN T02110161
2026-05-01 14:56:00,METAR KCHS 011456Z 08008KT 10SM BKN017 OVC060 21/17 A2994 RMK AO2 SLP136 T02110167 53007
2026-05-01 14:45:00,SPECI KCHS 011445Z 08008KT 10SM BKN017 OVC060 22/17 A2993 RMK AO2 T02170167
2026-05-01 13:56:00,METAR KCHS 011356Z 06006KT 10SM SCT015 BKN050 21/17 A2992 RMK AO2 SLP131 T02110172
2026-05-01 12:56:00,METAR KCHS 011256Z 05009KT 10SM SCT060 BKN120 BKN250 19/17 A2991 RMK AO2 SLP128 T01940167
2026-05-01 11:56:00,METAR KCHS 011156Z 03009KT 10SM SCT035 BKN055 BKN120 18/17 A2992 RMK AO2 SLP130 70004 T01780167 10178 20144 53014
2026-05-01 10:56:00,METAR KCHS 011056Z 05005KT 10SM SCT035 BKN060 BKN150 17/16 A2989 RMK AO2 SLP121 T01720161
2026-05-01 09:56:00,METAR KCHS 010956Z 00000KT 10SM SCT040 BKN200 16/16 A2988 RMK AO2 SLP116 T01610156 $
2026-05-01 08:56:00,METAR KCHS 010856Z 34003KT 7SM R15/3500VP6000FT MIFG FEW050 FEW070 14/14 A2988 RMK AO2 SLP116 T01440144 53004 $
2026-05-01 07:56:00,METAR KCHS 010756Z 00000KT 7SM MIFG SCT075 SCT200 16/16 A2987 RMK AO2 SLP114 T01560156 $
2026-05-01 06:56:00,METAR KCHS 010656Z 01003KT 10SM FEW075 FEW200 14/14 A2986 RMK AO2 SLP110 T01440144 $
2026-05-01 05:56:00,METAR KCHS 010556Z 00000KT 10SM FEW080 SCT200 17/16 A2986 RMK AO2 SLP111 T01720156 10200 20161 57006 $
2026-05-01 04:56:00,METAR KCHS 010456Z 16004KT 10SM SCT040 SCT200 17/16 A2987 RMK AO2 SLP114 T01720156 402500161 $
2026-05-01 03:56:00,METAR KCHS 010356Z 14003KT 10SM FEW040 FEW200 17/16 A2987 RMK AO2 SLP114 T01720156 $
2026-05-01 02:56:00,METAR KCHS 010256Z 07003KT 10SM FEW040 SCT200 18/16 A2988 RMK AO2 SLP117 T01780161 51018 $
2026-05-01 01:56:00,METAR KCHS 010156Z 13003KT 10SM FEW040 SCT250 18/16 A2987 RMK AO2 SLP113 T01780161 $
2026-05-01 00:56:00,METAR KCHS 010056Z 11006KT 10SM FEW080 BKN250 19/16 A2985 RMK AO2 SLP106 T01940161
2026-04-30 23:56:00,METAR KCHS 302356Z 12006KT 10SM FEW040 FEW080 BKN250 20/16 A2983 RMK AO2 SLP099 60002 T02000156 10250 20200 53012
2026-04-30 22:56:00,METAR KCHS 302256Z 13006KT 10SM SCT080 BKN200 21/17 A2980 RMK AO2 SLP089 T02110167
2026-04-30 21:56:00,METAR KCHS 302156Z 13008KT 10SM SCT040 SCT055 OVC200 22/17 A2980 RMK AO2 SLP090 T02170167
2026-04-30 20:56:00,METAR KCHS 302056Z 12010KT 10SM SCT030 BKN040 BKN045 21/18 A2979 RMK AO2 SLP087 60002 T02110178 58001
2026-04-30 20:22:00,SPECI KCHS 302022Z 13010KT 10SM SCT020 BKN035 BKN045 21/18 A2979 RMK AO2 T02110183
2026-04-30 19:56:00,METAR KCHS 301956Z 13010KT 10SM SCT015 BKN020 OVC035 21/19 A2980 RMK AO2 RAB1858E42 SLP091 P0002 T02110189
2026-04-30 18:56:00,METAR KCHS 301856Z 03006KT 10SM SCT025 BKN045 OVC060 24/18 A2981 RMK AO2 SLP093 T02390178
2026-04-30 17:56:00,METAR KCHS 301756Z 03006KT 10SM SCT021 BKN030 OVC100 24/18 A2980 RMK AO2 SLP089 60002 T02440178 10244 20206 56008
2026-04-30 16:56:00,METAR KCHS 301656Z 11005KT 10SM SCT017 BKN100 OVC200 23/18 A2980 RMK AO2 SLP089 T02330183
2026-04-30 15:56:00,METAR KCHS 301556Z 02008KT 10SM SCT015 BKN060 BKN200 23/18 A2981 RMK AO2 SLP093 T02280183
2026-04-30 14:56:00,METAR KCHS 301456Z 35010KT 10SM SCT015 BKN050 BKN100 22/19 A2982 RMK AO2 RAE1359 SLP096 P0000 60002 T02220194 51012
2026-04-30 13:56:00,METAR KCHS 301356Z 34010KT 7SM -RA FEW011 BKN060 BKN100 OVC200 21/19 A2981 RMK AO2 RAE13B39 SLP094 P0001 T02060189
2026-04-30 12:56:00,METAR KCHS 301256Z 29006KT 6SM -RA BR SCT035 BKN060 OVC100 21/19 A2982 RMK AO2 SLP098 P0001 T02060189
2026-04-30 11:56:00,METAR KCHS 301156Z 31013KT 5SM -RA BR SCT020 BKN050 OVC100 21/19 A2978 RMK AO2 RAB16 TSB15E46 SLP085 P0014 60014 70018 T02060194 10222 20206 53009
2026-04-30 11:47:00,SPECI KCHS 301147Z 32015G21KT 5SM -RA BR SCT022 BKN050 OVC120 21/19 A2977 RMK AO2 RAB16 TSB15E46 TS OHD MOV E P0014 T02110194
2026-04-30 11:30:00,SPECI KCHS 301130Z 28009G25KT 2SM R15/1800VP6000FT TSRA BR SCT020 BKN030CB BKN070 21/19 A2978 RMK AO2 RAB16 TSB15 OCNL LTGIC OHD TS OHD MOV E P0006 T02110194
2026-04-30 11:15:00,SPECI KCHS 301115Z 27005KT 10SM TS FEW035CB BKN080 OVC120 22/19 A2976 RMK AO2 TSB15 OCNL LTGIC W TS W MOV E T02170194
2026-04-30 10:56:00,METAR KCHS 301056Z 27005KT 10SM FEW035 BKN080 OVC200 22/19 A2976 RMK AO2 SLP078 T02170194
2026-04-30 09:56:00,METAR KCHS 300956Z 23005KT 10SM SCT080 OVC200 21/19 A2974 RMK AO2 SLP071 T02110194 $
2026-04-30 08:56:00,METAR KCHS 300856Z 25006KT 10SM SCT080 BKN200 22/20 A2976 RMK AO2 SLP075 T02170200 55017 $
2026-04-30 07:56:00,METAR KCHS 300756Z 23004KT 10SM SCT080 BKN200 22/20 A2975 RMK AO2 SLP074 T02170200 $
2026-04-30 06:56:00,METAR KCHS 300656Z 22005KT 10SM OVC200 22/20 A2976 RMK AO2 SLP077 T02170200 $
2026-04-30 05:56:00,METAR KCHS 300556Z 22008KT 10SM FEW080 OVC200 22/20 A2981 RMK AO2 SLP092 T02220200 10233 20211 58016 $
2026-04-30 04:56:00,METAR KCHS 300456Z 22008KT 10SM FEW080 OVC200 22/19 A2984 RMK AO2 SLP102 T02220194 402890161 $
2026-04-30 03:56:00,METAR KCHS 300356Z 21011KT 10SM FEW080 OVC200 22/19 A2983 RMK AO2 SLP102 T02220194 $
2026-04-30 02:56:00,METAR KCHS 300256Z 21008KT 10SM FEW080 OVC200 22/19 A2985 RMK AO2 SLP108 T02170189 51015 $
2026-04-30 01:56:00,METAR KCHS 300156Z 21007KT 10SM SCT080 SCT200 21/19 A2985 RMK AO2 SLP106 T02110189 $
2026-04-30 00:56:00,METAR KCHS 300056Z 21006KT 10SM FEW080 22/18 A2983 RMK AO2 SLP101 T02170178 $
2026-04-29 23:56:00,METAR KCHS 292356Z 21009KT 10SM FEW060 BKN080 23/18 A2981 RMK AO2 SLP094 T02330183 10289 20233 56007 $
2026-04-29 22:56:00,METAR KCHS 292256Z 20009KT 10SM FEW060 SCT075 26/19 A2981 RMK AO2 SLP095 T02560194 $
2026-04-29 21:56:00,METAR KCHS 292156Z 19010KT 10SM SCT045 BKN060 BKN075 26/19 A2982 RMK AO2 SLP097 T02560194
2026-04-29 20:56:00,METAR KCHS 292056Z 21008G17KT 170V250 10SM SCT040 SCT060 28/18 A2983 RMK AO2 SLP101 T02780183 58027
2026-04-29 19:56:00,METAR KCHS 291956Z 21012KT 10SM SCT040 BKN060 BKN250 27/18 A2987 RMK AO2 SLP113 T02720178
2026-04-29 18:56:00,METAR KCHS 291856Z 21010G17KT 10SM SCT035 BKN040 BKN065 27/18 A2989 RMK AO2 SLP120 T02670178
2026-04-29 17:56:00,METAR KCHS 291756Z 22008KT 10SM BKN030 BKN250 26/18 A2991 RMK AO2 SLP128 60004 T02610178 10261 20189 58019
2026-04-29 16:56:00,METAR KCHS 291656Z 22007KT 10SM SCT017 BKN100 BKN250 25/18 A2994 RMK AO2 SLP137 T02500183
2026-04-29 16:04:00,SPECI KCHS 291604Z 22005KT 10SM SCT009 BKN030 22/19 A2997 RMK AO2 T02220194
2026-04-29 15:56:00,METAR KCHS 291556Z 24006KT 10SM BKN009 BKN030 22/20 A2997 RMK AO2 SLP147 T02220200
2026-04-29 15:49:00,SPECI KCHS 291549Z 23006KT 10SM BKN009 BKN030 22/19 A2997 RMK AO2 T02170194
2026-04-29 14:56:00,METAR KCHS 291456Z 20009KT 10SM SCT006 BKN030 21/19 A2997 RMK AO2 SLP147 SCT V BKN P0001 60004 T02110194 58021
2026-04-29 13:56:00,METAR KCHS 291356Z 22006KT 10SM FEW006 SCT030 BKN070 BKN150 20/19 A3000 RMK AO2 RAE34 SLP157 P0001 T02000189
2026-04-29 12:56:00,METAR KCHS 291256Z 25007KT 3SM -RA BR FEW004 BKN035 OVC060 19/18 A3004 RMK AO2 SLP170 P0002 T01890183
2026-04-29 12:09:00,SPECI KCHS 291209Z 27006KT 3SM -RA BR FEW004 BKN035 OVC060 19/18 A3003 RMK AO2 P0001 T01890183
2026-04-29 12:03:00,SPECI KCHS 291203Z 26007KT 2SM RA BR FEW004 BKN035 OVC060 19/18 A3003 RMK AO2 P0001 T01890183
2026-04-29 11:56:00,METAR KCHS 291156Z 26005KT 7SM -RA FEW004 SCT047 BKN060 OVC150 18/18 A3003 RMK AO2 RAE02B50 SLP168 P0001 60001 70001 T01830183 10189 20161 53013
2026-04-29 11:31:00,SPECI KCHS 291131Z 25005KT 10SM FEW004 BKN030 OVC060 19/18 A3002 RMK AO2 RAE02 P0000 T01890183
2026-04-29 10:56:00,METAR KCHS 291056Z 24004KT 6SM -RA BR FEW030 BKN060 OVC120 18/18 A3001 RMK AO2 RAE26B47 SLP162 P0000 T01830178
2026-04-29 09:56:00,METAR KCHS 290956Z 00000KT 10SM -RA SCT050 SCT070 OVC095 18/17 A2999 RMK AO2 RAB38 SLP156 P0000 T01780172 $
2026-04-29 08:56:00,METAR KCHS 290856Z 24004KT 10SM BKN100 18/17 A2999 RMK AO2 SLP156 T01780172 55007 $
2026-04-29 07:56:00,METAR KCHS 290756Z 26003KT 10SM SCT020 SCT200 17/16 A2999 RMK AO2 SLP154 T01670161 $
2026-04-29 06:56:00,METAR KCHS 290656Z 18004KT 10SM FEW020 SCT200 16/16 A2999 RMK AO2 SLP155 T01610156
2026-04-29 05:56:00,METAR KCHS 290556Z 00000KT 10SM SCT200 17/16 A3001 RMK AO2 SLP163 T01670161 10206 20161 58027
2026-04-29 04:56:00,METAR KCHS 290456Z 00000KT 10SM FEW200 17/16 A3005 RMK AO2 SLP175 T01720161 402560106
2026-04-29 03:56:00,METAR KCHS 290356Z 00000KT 10SM FEW200 18/16 A3008 RMK AO2 SLP185 T01830161
2026-04-29 02:56:00,METAR KCHS 290256Z 00000KT 10SM FEW200 18/16 A3009 RMK AO2 SLP190 T01780161 51018
2026-04-29 01:56:00,METAR KCHS 290156Z 26004KT 10SM BKN200 19/16 A3008 RMK AO2 SLP186 T01890161
2026-04-29 00:56:00,METAR KCHS 290056Z 19005KT 10SM BKN200 19/16 A3006 RMK AO2 SLP179 T01940161
2026-04-28 23:56:00,METAR KCHS 282356Z 19008KT 10SM FEW150 BKN200 21/16 A3004 RMK AO2 SLP172 60000 T02060156 10256 20206 55008
2026-04-28 22:56:00,METAR KCHS 282256Z 19006KT 10SM FEW100 SCT200 23/16 A3003 RMK AO2 SLP170 T02330156
2026-04-28 21:56:00,METAR KCHS 282156Z 22005KT 10SM FEW120 SCT200 24/15 A3004 RMK AO2 SLP171 T02440150
2026-04-28 20:56:00,METAR KCHS 282056Z 22010KT 10SM FEW110 SCT200 24/14 A3006 RMK AO2 SLP180 60000 T02440144 55033
2026-04-28 19:56:00,METAR KCHS 281956Z 19015G23KT 10SM SCT110 BKN200 24/15 A3004 RMK AO2 RAE03 SLP173 P0000 T02440150
2026-04-28 18:56:00,METAR KCHS 281856Z 20012KT 10SM -RA FEW060 SCT110 OVC150 22/14 A3010 RMK AO2 RAB09E18B46 SLP191 P0000 T02220139
2026-04-28 17:56:00,METAR KCHS 281756Z 19006KT 10SM FEW035 BKN100 BKN200 22/13 A3016 RMK AO2 RAB33E46 PRESFR SLP213 P0000 60000 T02170133 10228 20144 58030
2026-04-28 16:56:00,METAR KCHS 281656Z 30011KT 10SM SCT030 BKN250 22/13 A3025 RMK AO2 SLP241 T02170133
2026-04-28 15:56:00,METAR KCHS 281556Z 33012KT 10SM BKN030 22/14 A3026 RMK AO2 SLP247 T02170139
2026-04-28 14:56:00,METAR KCHS 281456Z 01008KT 10SM FEW035 SCT045 BKN250 22/14 A3025 RMK AO2 RAB01E12 PRESRR SLP243 P0000 60000 T02170144 53020
2026-04-28 13:56:00,METAR KCHS 281356Z 03006KT 10SM BKN040 19/13 A3024 RMK AO2 SLP239 T01890133
2026-04-28 12:56:00,METAR KCHS 281256Z 06005KT 10SM SCT035 BKN045 17/13 A3020 RMK AO2 SLP225 T01720128
2026-04-28 11:56:00,METAR KCHS 281156Z 36003KT 10SM BKN030 BKN045 14/12 A3019 RMK AO2 SLP223 T01440122 10144 20106 53021
2026-04-28 10:56:00,METAR KCHS 281056Z 34004KT 10SM BKN040 13/12 A3015 RMK AO2 SLP210 T01280117
2026-04-28 09:56:00,METAR KCHS 280956Z 04005KT 9SM SCT200 12/11 A3013 RMK AO2 SLP201 T01220111
2026-04-28 08:56:00,METAR KCHS 280856Z 07006KT 10SM BKN030 13/11 A3013 RMK AO2 SLP202 T01330111 58019
2026-04-28 07:56:00,METAR KCHS 280756Z 01005KT 10SM BKN025 12/11 A3016 RMK AO2 SLP212 T01220111
2026-04-28 07:31:00,SPECI KCHS 280731Z 01004KT 10SM SCT025 BKN030 BKN040 11/11 A3017 RMK AO2 T01110106
2026-04-28 07:14:00,SPECI KCHS 280714Z 33006KT 10SM BKN025 12/11 A3017 RMK AO2 T01170111
2026-04-28 06:56:00,METAR KCHS 280656Z 36003KT 10SM SCT030 SCT200 11/10 A3017 RMK AO2 SLP215 T01060100
2026-04-28 05:56:00,METAR KCHS 280556Z 03004KT 10SM FEW025 FEW250 12/11 A3019 RMK AO2 SLP221 T01170106 10161 20111 56015
2026-04-28 04:56:00,METAR KCHS 280456Z 06004KT 10SM SCT250 13/11 A3019 RMK AO2 SLP224 T01280111 401940111
2026-04-28 03:56:00,METAR KCHS 280356Z 01003KT 10SM FEW250 12/11 A3022 RMK AO2 SLP232 T01170106
2026-04-28 02:56:00,METAR KCHS 280256Z 00000KT 10SM FEW250 13/11 A3023 RMK AO2 SLP236 T01330111 53014
2026-04-28 01:56:00,METAR KCHS 280156Z 10003KT 10SM CLR 15/11 A3021 RMK AO2 SLP229 T01500111
2026-04-28 00:56:00,METAR KCHS 280056Z 12005KT 10SM CLR 15/11 A3020 RMK AO2 SLP224 T01500106
2026-04-27 23:56:00,METAR KCHS 272356Z 12006KT 10SM FEW030 16/11 A3019 RMK AO2 SLP222 T01610106 10194 20156 53005
2026-04-27 22:56:00,METAR KCHS 272256Z 12007KT 10SM SCT032 18/10 A3018 RMK AO2 SLP218 T01780100
2026-04-27 21:56:00,METAR KCHS 272156Z 09004KT 10SM SCT032 19/10 A3017 RMK AO2 SLP214 T01890100
2026-04-27 21:06:00,SPECI KCHS 272106Z VRB03KT 10SM SCT030 18/10 A3017 RMK AO2 T01830100
2026-04-27 20:56:00,METAR KCHS 272056Z 09004KT 10SM BKN028 18/10 A3017 RMK AO2 SLP217 T01830100 55010
2026-04-27 19:56:00,METAR KCHS 271956Z 04004KT 10SM BKN025 17/09 A3017 RMK AO2 SLP217 T01720094
2026-04-27 18:56:00,METAR KCHS 271856Z 04004KT 10SM OVC026 17/09 A3018 RMK AO2 SLP220 T01670094
2026-04-27 17:56:00,METAR KCHS 271756Z 04005KT 10SM BKN023 16/09 A3020 RMK AO2 SLP227 T01560089 10156 20122 58000
2026-04-27 16:56:00,METAR KCHS 271656Z 05009KT 10SM BKN020 OVC030 14/09 A3021 RMK AO2 SLP229 T01440089
2026-04-27 15:56:00,METAR KCHS 271556Z 04009KT 10SM BKN019 OVC030 14/08 A3021 RMK AO2 SLP229 T01440083
2026-04-27 14:56:00,METAR KCHS 271456Z 03011KT 10SM BKN017 OVC025 13/08 A3020 RMK AO2 SLP227 T01330083 51012
2026-04-27 13:56:00,METAR KCHS 271356Z 05008KT 10SM BKN015 OVC020 13/08 A3019 RMK AO2 SLP224 T01280083
2026-04-27 12:56:00,METAR KCHS 271256Z 03008G17KT 10SM BKN015 OVC020 12/09 A3019 RMK AO2 SLP221 T01220089
2026-04-27 11:56:00,METAR KCHS 271156Z 03009KT 10SM BKN015 OVC025 12/10 A3017 RMK AO2 SLP216 60000 T01220100 10144 20117 53026
2026-04-27 10:56:00,METAR KCHS 271056Z 02008KT 10SM SCT010 BKN015 OVC025 12/10 A3014 RMK AO2 SLP205 T01220100
2026-04-27 10:48:00,SPECI KCHS 271048Z 02009KT 10SM SCT010 BKN015 OVC025 12/10 A3013 RMK AO2 T01170100
2026-04-27 10:21:00,SPECI KCHS 271021Z 02012KT 4SM BR BKN010 OVC020 12/11 A3013 RMK AO2 T01170106
2026-04-27 09:56:00,METAR KCHS 270956Z 03009KT 10SM BKN015 OVC020 12/11 A3011 RMK AO2 RAB23E31 SLP196 P0000 T01220106
2026-04-27 09:23:00,SPECI KCHS 270923Z 03012KT 8SM -RA BKN010 OVC025 12/11 A3010 RMK AO2 RAB23 P0000 T01220106
2026-04-27 08:56:00,METAR KCHS 270856Z 04012KT 10SM SCT009 OVC030 12/11 A3009 RMK AO2 SLP190 60000 T01220106 53007
2026-04-27 07:56:00,METAR KCHS 270756Z 02011KT 9SM BKN008 OVC012 13/12 A3008 RMK AO2 RAB17E43 SLP186 P0000 T01280117
2026-04-27 07:29:00,SPECI KCHS 270729Z 01012KT 6SM -RA BR OVC008 13/12 A3008 RMK AO2 RAB17 CIG 006V013 P0000 T01330122
2026-04-27 06:56:00,METAR KCHS 270656Z 04007KT 10SM SCT009 OVC012 14/12 A3007 RMK AO2 RAB0557E07 SLP182 P0000 T01390122
2026-04-27 06:06:00,SPECI KCHS 270606Z 03014G19KT 8SM -RA SCT009 BKN015 OVC022 14/12 A3007 RMK AO2 RAB0557 P0000 T01390122
2026-04-27 05:56:00,METAR KCHS 270556Z 04013G19KT 7SM BKN015 OVC020 15/13 A3007 RMK AO2 SLP183 T01500128 10222 20150 51017
2026-04-27 04:56:00,METAR KCHS 270456Z 07010KT 10SM BKN015 OVC020 16/13 A3006 RMK AO2 SLP179 T01560133 402780156
2026-04-27 03:56:00,METAR KCHS 270356Z 05011G18KT 10SM OVC014 17/14 A3004 RMK AO2 SLP173 T01670139
2026-04-27 02:56:00,METAR KCHS 270256Z 02011KT 10SM OVC015 18/14 A3002 RMK AO2 SLP166 T01780144 51033
2026-04-27 01:56:00,METAR KCHS 270156Z 04011KT 10SM BKN018 BKN049 19/15 A3000 RMK AO2 SLP159 T01890150
2026-04-27 00:56:00,METAR KCHS 270056Z 03013KT 10SM OVC023 20/16 A2996 RMK AO2 SLP146 T02000161
2026-04-27 00:10:00,SPECI KCHS 270010Z 04015G19KT 10SM BKN027 BKN045 22/16 A2993 RMK AO2 T02170161
2026-04-26 23:56:00,METAR KCHS 262356Z 05007KT 10SM BKN031 BKN050 22/16 A2993 RMK AO2 SLP133 T02220156 10278 20222 51018
2026-04-26 22:56:00,METAR KCHS 262256Z 04010KT 10SM FEW038 SCT050 SCT080 23/16 A2991 RMK AO2 SLP129 T02280156
2026-04-26 21:56:00,METAR KCHS 262156Z 05015KT 10SM BKN030 BKN037 BKN080 23/17 A2990 RMK AO2 SLP124 T02330167
2026-04-26 20:56:00,METAR KCHS 262056Z 04017G23KT 10SM BKN034 BKN048 BKN110 24/17 A2987 RMK AO2 SLP114 T02390167 53002
2026-04-26 19:56:00,METAR KCHS 261956Z VRB04KT 10SM BKN041 BKN049 BKN100 27/17 A2986 RMK AO2 SLP110 T02670167
2026-04-26 18:56:00,METAR KCHS 261856Z 03008G21KT 10SM SCT032 BKN041 BKN120 27/17 A2986 RMK AO2 SLP110 T02670172
2026-04-26 17:56:00,METAR KCHS 261756Z 02006KT 10SM FEW020 FEW050 SCT120 26/18 A2987 RMK AO2 SLP113 T02610178 10261 20189 58003
2026-04-26 17:26:00,SPECI KCHS 261726Z 02006KT 10SM FEW020 SCT050 BKN075 24/18 A2987 RMK AO2 T02440178
2026-04-26 17:06:00,SPECI KCHS 261706Z 01007KT 10SM FEW013 BKN020 OVC050 24/17 A2987 RMK AO2 T02390172
2026-04-26 16:56:00,METAR KCHS 261656Z VRB06KT 10SM FEW012 SCT020 OVC070 24/18 A2988 RMK AO2 SLP116 T02440178
2026-04-26 15:56:00,METAR KCHS 261556Z 01009KT 10SM SCT050 OVC070 24/18 A2988 RMK AO2 SLP116 T02440178
2026-04-26 14:56:00,METAR KCHS 261456Z 01008KT 10SM BKN050 OVC080 23/18 A2988 RMK AO2 SLP116 T02330178 53010
2026-04-26 13:56:00,METAR KCHS 261356Z COR 35003KT 10SM OVC075 22/18 A2986 RMK AO2 SLP110 T02220178
2026-04-26 12:56:00,METAR KCHS 261256Z 00000KT 10SM SCT070 OVC100 21/18 A2986 RMK AO2 SLP111 T02060178
2026-04-26 11:56:00,METAR KCHS 261156Z 03004KT 9SM SCT080 BKN120 18/18 A2985 RMK AO2 SLP106 T01830178 10217 20172 53018
2026-04-26 10:56:00,METAR KCHS 261056Z 35004KT 9SM SCT120 17/17 A2983 RMK AO2 SLP100 T01720167
2026-04-26 09:56:00,METAR KCHS 260956Z 03003KT 10SM FEW160 18/17 A2980 RMK AO2 SLP091 T01780172
2026-04-26 08:56:00,METAR KCHS 260856Z 33004KT 10SM BKN100 19/17 A2980 RMK AO2 SLP089 T01940172 56009
2026-04-26 07:56:00,METAR KCHS 260756Z 26005KT 10SM SCT110 BKN160 21/19 A2980 RMK AO2 SLP090 T02060189
2026-04-26 06:56:00,METAR KCHS 260656Z 22003KT 10SM FEW075 BKN170 19/18 A2979 RMK AO2 SLP087 T01940183
2026-04-26 05:56:00,METAR KCHS 260556Z 14003KT 10SM SCT046 BKN170 21/19 A2982 RMK AO2 RAB01E31 SLP098 P0000 60000 T02110194 10228 20211 58008
2026-04-26 04:56:00,METAR KCHS 260456Z 00000KT 10SM SCT019 BKN080 OVC110 22/18 A2985 RMK AO2 SLP106 T02220183 403111011
2026-04-26 03:56:00,METAR KCHS 260356Z 00000KT 10SM FEW065 BKN095 OVC110 21/18 A2985 RMK AO2 SLP107 T02110178
2026-04-26 02:56:00,METAR KCHS 260256Z 00000KT 10SM BKN100 OVC160 22/17 A2985 RMK AO2 SLP106 T02170172 51015
2026-04-26 01:56:00,METAR KCHS 260156Z 23003KT 10SM BKN120 22/17 A2984 RMK AO2 SLP103 T02170167
2026-04-26 00:56:00,METAR KCHS 260056Z 20006KT 10SM BKN130 22/16 A2982 RMK AO2 SLP098 T02170156
2026-04-25 23:56:00,METAR KCHS 252356Z 18010KT 10SM SCT090 BKN130 BKN250 23/14 A2980 RMK AO2 SLP091 T02280144 10311 21011 51006
2026-04-25 22:56:00,METAR KCHS 252256Z 19011KT 10SM SCT075 BKN130 BKN250 25/14 A2980 RMK AO2 SLP091 T02500144
2026-04-25 21:56:00,METAR KCHS 252156Z 18012KT 10SM FEW047 SCT080 BKN130 25/15 A2979 RMK AO2 SLP086 T02500150
2026-04-25 20:56:00,METAR KCHS 252056Z 18012KT 10SM BKN080 BKN120 26/16 A2979 RMK AO2 SLP085 T02610156 56012
2026-04-25 19:56:00,METAR KCHS 251956Z 16013KT 10SM SCT070 BKN090 BKN110 28/17 A2979 RMK AO2 SLP088 T02830172
2026-04-25 18:56:00,METAR KCHS 251856Z 15011KT 10SM BKN070 BKN100 BKN120 30/12 A2981 RMK AO2 SLP094 T03000122 $
2026-04-25 17:56:00,METAR KCHS 251756Z 21009KT 10SM SCT070 BKN120 31/12 A2982 RMK AO2 SLP098 T03060122 10311 20189 56013
2026-04-25 16:56:00,METAR KCHS 251656Z 22007KT 10SM BKN250 30/13 A2983 RMK AO2 SLPNO T03000133 $
2026-04-25 15:56:00,METAR KCHS 251556Z 25004KT 10SM BKN250 27/16 A2985 RMK AO2 SLP107 T02720161 $
2026-04-25 14:56:00,METAR KCHS 251456Z 25004KT 10SM BKN250 26/17 A2986 RMK AO2 SLP110 T02610172 $
2026-04-25 13:56:00,METAR KCHS 251356Z 25004KT 10SM FEW250 25/17 A2986 RMK AO2 SLP109 T02500172 $
2026-04-25 12:56:00,METAR KCHS 251256Z 23006KT 10SM FEW250 22/17 A2986 RMK AO2 SLP110 T02220167
2026-04-25 11:56:00,METAR KCHS 251156Z 19003KT 10SM CLR 19/18 A2986 RMK AO2 SLP109 T01890183 53001 $
2026-04-25 10:56:00,METAR KCHS 251056Z 19003KT 6SM BR FEW250 17/17 A2985 RMK AO2 SLP107 T01670167
2026-04-25 09:56:00,METAR KCHS 250956Z 00000KT 8SM CLR 16/16 A2984 RMK AO2 SLP105 T01610161 $
2026-04-25 08:56:00,METAR KCHS 250856Z 00000KT 8SM R15/4500VP6000FT CLR 16/16 A2985 RMK AO2 SLP108 T01610156 56003 $
2026-04-25 07:56:00,METAR KCHS 250756Z 00000KT 10SM SCT150 18/17 A2985 RMK AO2 SLP108 T01780172 $
2026-04-25 06:56:00,METAR KCHS 250656Z 21003KT 10SM FEW200 18/17 A2985 RMK AO2 SLP107 T01780167 $
2026-04-25 05:56:00,METAR KCHS 250556Z 19005KT 10SM CLR 18/17 A2986 RMK AO2 SLP110 T01780167 10217 20178 58009 $
2026-04-25 04:56:00,METAR KCHS 250456Z A2988 RMK AO2 SLPNO 402890144 $
2026-04-25 03:56:00,METAR KCHS 250356Z AUTO 18/16 A2988 RMK AO2 SLP118 T01780161
2026-04-25 02:56:00,METAR KCHS 250256Z 17005KT 10SM SCT150 18/16 A2989 RMK SLP119 T01830161
2026-04-25 01:56:00,METAR KCHS 250156Z 20007KT 10SM SCT150 19/16 A2989 RMK AO2 SLP119 T01940161 $
2026-04-25 00:56:00,METAR KCHS 250056Z 20009KT 10SM FEW150 20/16 A2987 RMK AO2 SLP114 T02000156 $
2026-04-24 23:56:00,METAR KCHS 242356Z 19008KT 10SM BKN150 21/14 A2987 RMK AO2 SLP112 60000 T02110144 10289 20211 $
2026-04-24 22:56:00,METAR KCHS 242256Z 19009KT 10SM SCT150 BKN250 24/13 A2985 RMK AO2 SLP108 T02390133 $
2026-04-24 21:56:00,METAR KCHS 242156Z 19012KT 10SM SCT090 BKN150 26/13 A2985 RMK AO2 SLP107 T02560133 $
2026-04-24 20:56:00,METAR KCHS 242056Z 22006KT 10SM SCT095 BKN150 26/14 A2985 RMK AO2 RAE00 SLP108 P0000 60000 T02560139 58015
2026-04-24 19:56:00,METAR KCHS 241956Z 20010KT 10SM -RA SCT030 BKN070 BKN085 25/18 A2988 RMK AO2 RAB04 SLP116 CB DSNT W P0000 T02500178
2026-04-24 18:56:00,METAR KCHS 241856Z 20010KT 10SM SCT055 BKN100 27/16 A2988 RMK AO2 SLP119 T02720161 $
2026-04-24 17:56:00,METAR KCHS 241756Z 24008G17KT 10SM SCT060 29/13 A2990 RMK AO2 SLP123 T02890133 10289 20172 58021
2026-04-24 16:56:00,METAR KCHS 241656Z VRB06KT 10SM CLR 28/14 A2992 RMK AO2 SLP130 T02780139 $
2026-04-24 15:56:00,METAR KCHS 241556Z 28004KT 10SM CLR 27/15 A2994 RMK AO2 SLP139 T02670150 $
2026-04-24 14:56:00,METAR KCHS 241456Z VRB04KT 10SM CLR 25/15 A2996 RMK AO2 SLP144 T02500150 58009
2026-04-24 13:56:00,METAR KCHS 241356Z 24010KT 10SM CLR 23/16 A2997 RMK AO2 SLP148 T02280156
2026-04-24 12:56:00,METAR KCHS 241256Z 25008KT 10SM CLR 20/16 A2998 RMK AO2 SLP152 T02000161
2026-04-24 11:56:00,METAR KCHS 241156Z 27004KT 10SM CLR 17/16 A2999 RMK AO2 SLP153 T01720156 10172 20144 53007
2026-04-24 10:56:00,METAR KCHS 241056Z 27003KT 10SM CLR 16/15 A2998 RMK AO2 SLP151 T01610150
2026-04-24 09:56:00,METAR KCHS 240956Z 21003KT 7SM MIFG FEW200 15/14 A2996 RMK AO2 SLP146 T01500144 $
2026-04-24 08:56:00,METAR KCHS 240856Z 25004KT 10SM FEW200 16/14 A2996 RMK AO2 SLP146 T01560144 55005 $
2026-04-24 07:56:00,METAR KCHS 240756Z 00000KT 10SM FEW200 16/14 A2996 RMK AO2 SLP144 T01560144 $
2026-04-24 06:56:00,METAR KCHS 240656Z 25003KT 10SM FEW200 16/14 A2997 RMK AO2 SLP146 T01610144 $
2026-04-24 05:56:00,METAR KCHS 240556Z 21005KT 10SM FEW200 17/14 A2998 RMK AO2 SLP151 T01670144 10222 20161 56009 $
2026-04-24 04:56:00,METAR KCHS 240456Z 21006KT 10SM FEW200 17/14 A2999 RMK AO2 SLP154 T01670139 403060144 $
2026-04-24 03:56:00,METAR KCHS 240356Z 20006KT 10SM FEW200 17/14 A2999 RMK AO2 SLP156 T01720139 $
2026-04-24 02:56:00,METAR KCHS 240256Z 20007KT 10SM FEW200 18/13 A3001 RMK AO2 SLP160 T01780133 50005
2026-04-24 01:56:00,METAR KCHS 240156Z 19007KT 10SM CLR 17/12 A3001 RMK AO2 SLP162 T01720117
2026-04-24 00:56:00,METAR KCHS 240056Z 20008KT 10SM CLR 19/09 A3000 RMK AO2 SLP160 T01890089
2026-04-23 23:56:00,METAR KCHS 232356Z 20012KT 10SM CLR 23/08 A2999 RMK AO2 SLP155 T02280078 10306 20228 53002
2026-04-23 22:56:00,METAR KCHS 232256Z 19014KT 10SM CLR 26/08 A2998 RMK AO2 SLP151 T02560083
2026-04-23 21:56:00,METAR KCHS 232156Z 20011KT 10SM CLR 28/06 A2998 RMK AO2 SLP151 T02780056
2026-04-23 20:56:00,METAR KCHS 232056Z 20014KT 10SM FEW085 29/07 A2998 RMK AO2 SLP152 T02890072 56019
2026-04-23 19:56:00,METAR KCHS 231956Z 20012G21KT 170V230 10SM SCT085 29/09 A2999 RMK AO2 SLP154 T02940094
2026-04-23 18:56:00,METAR KCHS 231856Z VRB06KT 10SM SCT075 29/09 A3002 RMK AO2 SLP164 T02940089
2026-04-23 17:56:00,METAR KCHS 231756Z 20007KT 10SM FEW070 29/08 A3004 RMK AO2 SLP171 T02890078 10294 20167 58025
2026-04-23 16:56:00,METAR KCHS 231656Z 25008KT 10SM CLR 28/11 A3007 RMK AO2 SLP180 T02830106
2026-04-23 15:56:00,METAR KCHS 231556Z 25006KT 10SM CLR 26/13 A3010 RMK AO2 SLP190 T02610128
2026-04-23 14:56:00,METAR KCHS 231456Z 24007KT 10SM CLR 24/14 A3011 RMK AO2 SLP197 T02440139 58006
2026-04-23 13:56:00,METAR KCHS 231356Z VRB06KT 10SM CLR 22/14 A3012 RMK AO2 SLP199 T02170139
2026-04-23 12:56:00,METAR KCHS 231256Z 24009KT 10SM CLR 19/15 A3013 RMK AO2 SLP202 T01890150
2026-04-23 11:56:00,METAR KCHS 231156Z 25005KT 10SM CLR 17/15 A3013 RMK AO2 SLP203 T01670150 10167 20144 53014
2026-04-23 10:56:00,METAR KCHS 231056Z 25004KT 7SM MIFG CLR 15/14 A3011 RMK AO2 SLP196 T01500139
2026-04-23 09:56:00,METAR KCHS 230956Z 26004KT 10SM FEW035 SCT200 15/14 A3010 RMK AO2 SLP191 T01500139
2026-04-23 08:56:00,METAR KCHS 230856Z 23005KT 10SM FEW035 SCT200 16/14 A3009 RMK AO2 SLP189 T01560139 55004
2026-04-23 07:56:00,METAR KCHS 230756Z 25004KT 10SM FEW035 SCT200 15/14 A3009 RMK AO2 SLP188 T01500139
2026-04-23 06:56:00,METAR KCHS 230656Z 22004KT 10SM FEW035 SCT200 15/14 A3009 RMK AO2 SLP189 T01500139
2026-04-23 05:56:00,METAR KCHS 230556Z 20005KT 10SM FEW030 FEW200 16/14 A3010 RMK AO2 SLP193 T01560139 10211 20150 58010
2026-04-23 04:56:00,METAR KCHS 230456Z 20007KT 10SM FEW050 FEW200 15/13 A3012 RMK AO2 SLP199 T01500133 402720111
2026-04-23 03:56:00,METAR KCHS 230356Z 21006KT 10SM FEW035 FEW200 16/13 A3013 RMK AO2 SLP202 T01610133
2026-04-23 02:56:00,METAR KCHS 230256Z 20008KT 10SM FEW250 16/13 A3013 RMK AO2 SLP202 T01610133 51005
2026-04-23 01:56:00,METAR KCHS 230156Z 20008KT 10SM CLR 17/13 A3013 RMK AO2 SLP203 T01670128
2026-04-23 00:56:00,METAR KCHS 230056Z 20009KT 10SM CLR 18/11 A3012 RMK AO2 SLP199 T01830106
2026-04-22 23:56:00,METAR KCHS 222356Z 19010KT 10SM CLR 21/07 A3012 RMK AO2 SLP197 T02110072 10272 20211 58002
2026-04-22 22:56:00,METAR KCHS 222256Z 19012KT 10SM CLR 23/09 A3012 RMK AO2 SLP199 T02330089
2026-04-22 21:56:00,METAR KCHS 222156Z 20011KT 10SM FEW070 FEW250 26/09 A3012 RMK AO2 SLP200 T02560094
2026-04-22 20:56:00,METAR KCHS 222056Z 21012KT 10SM FEW070 FEW250 27/09 A3012 RMK AO2 SLP200 T02670089 56026
2026-04-22 19:56:00,METAR KCHS 221956Z 22010KT 10SM FEW070 SCT250 27/11 A3014 RMK AO2 SLP206 T02720106
2026-04-22 18:56:00,METAR KCHS 221856Z VRB06KT 10SM BKN200 26/09 A3017 RMK AO2 SLP217 T02560089
2026-04-22 17:56:00,METAR KCHS 221756Z 23009KT 10SM BKN250 26/09 A3020 RMK AO2 SLP226 T02560094 10261 20161 58022
2026-04-22 16:56:00,METAR KCHS 221656Z VRB04KT 10SM BKN250 24/09 A3023 RMK AO2 SLP235 T02440089
2026-04-22 15:56:00,METAR KCHS 221556Z 25006KT 10SM BKN250 24/08 A3025 RMK AO2 SLP244 T02440083
2026-04-22 14:56:00,METAR KCHS 221456Z 23009KT 10SM BKN250 23/08 A3027 RMK AO2 SLP248 T02330083 51001
2026-04-22 13:56:00,METAR KCHS 221356Z 24008KT 10SM BKN250 22/12 A3027 RMK AO2 SLP248 T02220117
2026-04-22 12:56:00,METAR KCHS 221256Z 24005KT 10SM BKN250 20/14 A3027 RMK AO2 SLP248 T02000139
2026-04-22 11:56:00,METAR KCHS 221156Z 00000KT 10SM SCT250 16/13 A3026 RMK AO2 SLP247 T01610128 10161 20111 53009
2026-04-22 10:56:00,METAR KCHS 221056Z 00000KT 10SM FEW250 12/11 A3025 RMK AO2 SLP242 T01170106
2026-04-22 09:56:00,METAR KCHS 220956Z 00000KT 10SM FEW250 12/11 A3023 RMK AO2 SLP236 T01220111 $
2026-04-22 08:56:00,METAR KCHS 220856Z 00000KT 10SM SCT250 11/11 A3023 RMK AO2 SLP237 T01110106 56006 $
2026-04-22 07:56:00,METAR KCHS 220756Z 00000KT 10SM SCT250 12/11 A3024 RMK AO2 SLP238 T01220106 $
2026-04-22 06:56:00,METAR KCHS 220656Z 00000KT 10SM CLR 13/11 A3023 RMK AO2 SLP236 T01330106 $
2026-04-22 05:56:00,METAR KCHS 220556Z 16003KT 10SM SCT250 14/10 A3025 RMK AO2 SLP243 T01390100 10178 20122 58011 $
2026-04-22 04:56:00,METAR KCHS 220456Z 00000KT 10SM SCT250 13/10 A3028 RMK AO2 SLP252 T01330100 402440094 $
2026-04-22 03:56:00,METAR KCHS 220356Z 00000KT 10SM SCT250 13/10 A3028 RMK AO2 SLP252 T01330100 $
2026-04-22 02:56:00,METAR KCHS 220256Z 00000KT 10SM FEW250 13/09 A3028 RMK AO2 SLP254 T01330094 50001 $
2026-04-22 01:56:00,METAR KCHS 220156Z 13003KT 10SM CLR 17/10 A3028 RMK AO2 SLP254 T01670100 $
2026-04-22 00:56:00,METAR KCHS 220056Z 11005KT 10SM CLR 17/10 A3028 RMK AO2 SLP254 T01720100
2026-04-21 23:56:00,METAR KCHS 212356Z 13006KT 10SM SCT250 18/08 A3028 RMK AO2 SLP253 T01780078 10244 20178 53001
2026-04-21 22:56:00,METAR KCHS 212256Z 11010KT 10SM SCT250 19/07 A3027 RMK AO2 SLP250 T01940072
2026-04-21 21:56:00,METAR KCHS 212156Z 12009KT 10SM FEW250 21/08 A3028 RMK AO2 SLP252 T02110083
2026-04-21 20:56:00,METAR KCHS 212056Z 13013G21KT 10SM FEW045 SCT250 22/11 A3028 RMK AO2 SLP252 T02220106 58008
2026-04-21 19:56:00,METAR KCHS 211956Z 11011G18KT 10SM SCT050 23/11 A3029 RMK AO2 SLP257 T02280111
2026-04-21 18:56:00,METAR KCHS 211856Z 09013G19KT 10SM FEW045 SCT060 23/12 A3030 RMK AO2 SLP260 T02330117
2026-04-21 17:56:00,METAR KCHS 211756Z COR 00000KT 10SM FEW055 23/06 A3030 RMK AO2 SLP261 T02330061 10239 20133 58009
2026-04-21 16:56:00,METAR KCHS 211656Z 09008KT 040V110 10SM FEW050 22/08 A3032 RMK AO2 SLP267 T02220083
2026-04-21 15:56:00,METAR KCHS 211556Z 06011G15KT 10SM CLR 21/08 A3034 RMK AO2 SLP273 T02110078
2026-04-21 14:56:00,METAR KCHS 211456Z 03009G16KT 10SM CLR 21/07 A3033 RMK AO2 SLP270 T02060072 53014
2026-04-21 13:56:00,METAR KCHS 211356Z 03006KT 10SM CLR 19/07 A3031 RMK AO2 SLP264 T01890072
2026-04-21 12:56:00,METAR KCHS 211256Z 05003KT 10SM CLR 16/08 A3030 RMK AO2 SLP258 T01610078
2026-04-21 11:56:00,METAR KCHS 211156Z 00000KT 7SM CLR 13/09 A3029 RMK AO2 SLP256 FU DSNT W T01330089 10133 20094 53019
2026-04-21 10:56:00,METAR KCHS 211056Z 00000KT 10SM FEW250 12/07 A3027 RMK AO2 SLP250 T01170067
2026-04-21 09:56:00,METAR KCHS 210956Z 36006KT 10SM FEW250 09/08 A3025 RMK AO2 SLP244 T00940078 $
2026-04-21 08:56:00,METAR KCHS 210856Z 28003KT 10SM FEW250 12/08 A3023 RMK AO2 SLP237 T01220083 55001 $
2026-04-21 07:56:00,METAR KCHS 210756Z 25004KT 10SM FEW250 13/08 A3023 RMK AO2 SLP234 T01280083 $
2026-04-21 06:56:00,METAR KCHS 210656Z 00000KT 10SM FEW250 13/08 A3022 RMK AO2 SLP233 T01280083 $
2026-04-21 05:56:00,METAR KCHS 210556Z 00000KT 10SM FEW100 13/07 A3024 RMK AO2 SLP238 T01330072 10172 20122 50000 $
2026-04-21 04:56:00,METAR KCHS 210456Z 18004KT 10SM SCT100 14/07 A3024 RMK AO2 SLP240 T01390072 402440056 $
2026-04-21 03:56:00,METAR KCHS 210356Z 19004KT 10SM CLR 13/07 A3023 RMK AO2 SLP236 T01330067 $
2026-04-21 02:56:00,METAR KCHS 210256Z 19004KT 10SM FEW250 15/06 A3024 RMK AO2 SLP238 T01500056 51012 $
2026-04-21 01:56:00,METAR KCHS 210156Z 18005KT 10SM CLR 14/05 A3023 RMK AO2 SLP236 T01440050
2026-04-21 00:56:00,METAR KCHS 210056Z 18005KT 10SM CLR 15/03 A3022 RMK AO2 SLP232 T01500033
2026-04-20 23:56:00,METAR KCHS 202356Z 18008KT 10SM CLR 17/02 A3020 RMK AO2 SLP227 T01720017 10244 20172 51003
2026-04-20 22:56:00,METAR KCHS 202256Z 16010KT 10SM CLR 20/02 A3020 RMK AO2 SLP226 T02000022
2026-04-20 21:56:00,METAR KCHS 202156Z 17009KT 10SM CLR 21/02 A3019 RMK AO2 SLP224 T02110022
2026-04-20 20:56:00,METAR KCHS 202056Z 16008KT 10SM FEW075 23/02 A3019 RMK AO2 SLP223 T02280022 56020
2026-04-20 19:56:00,METAR KCHS 201956Z VRB06KT 10SM CLR 24/M02 A3020 RMK AO2 SLP226 T02391017
2026-04-20 18:56:00,METAR KCHS 201856Z 33012KT 10SM CLR 23/M03 A3023 RMK AO2 SLP234 T02331028
2026-04-20 17:56:00,METAR KCHS 201756Z 31012G17KT 10SM CLR 23/M03 A3025 RMK AO2 SLP243 T02281028 10233 20111 58014
2026-04-20 16:56:00,METAR KCHS 201656Z 04008KT 10SM CLR 22/M04 A3027 RMK AO2 SLP250 T02171044
2026-04-20 15:56:00,METAR KCHS 201556Z 09006KT 10SM CLR 21/M04 A3029 RMK AO2 SLP255 T02061039
2026-04-20 14:56:00,METAR KCHS 201456Z 07006G15KT 10SM CLR 20/M04 A3029 RMK AO2 SLP256 T02001039 51005
2026-04-20 13:56:00,METAR KCHS 201356Z 07007KT 10SM CLR 18/M01 A3029 RMK AO2 SLP256 T01831011
2026-04-20 12:56:00,METAR KCHS 201256Z 05008KT 10SM CLR 15/03 A3028 RMK AO2 SLP254 T01500028 $
2026-04-20 11:56:00,METAR KCHS 201156Z 02006KT 10SM CLR 11/03 A3027 RMK AO2 SLP251 T01110033 10111 20056 53024 $
2026-04-20 10:56:00,METAR KCHS 201056Z 36006KT 10SM CLR 08/02 A3025 RMK AO2 SLP243 T00780022 $
2026-04-20 09:56:00,METAR KCHS 200956Z 02006KT 10SM CLR 09/03 A3022 RMK AO2 SLP233 T00890028 $
2026-04-20 08:56:00,METAR KCHS 200856Z 36006KT 10SM FEW250 06/04 A3020 RMK AO2 SLP227 T00610039 53004 $
2026-04-20 07:56:00,METAR KCHS 200756Z 34003KT 10SM CLR 07/04 A3019 RMK AO2 SLP221 T00720044 $
2026-04-20 06:56:00,METAR KCHS 200656Z 00000KT 10SM CLR 08/04 A3019 RMK AO2 SLP221 T00830039 $
2026-04-20 05:56:00,METAR KCHS 200556Z 00000KT 10SM FEW250 09/04 A3019 RMK AO2 SLP223 T00940044 10178 20094 51012 $
2026-04-20 04:56:00,METAR KCHS 200456Z 00000KT 10SM CLR 11/03 A3019 RMK AO2 SLP222 T01060033 402830106 $
2026-04-20 03:56:00,METAR KCHS 200356Z 00000KT 10SM SCT200 13/04 A3017 RMK AO2 SLP217 T01280044 $
2026-04-20 02:56:00,METAR KCHS 200256Z 36003KT 10SM SCT200 14/03 A3016 RMK AO2 SLP211 T01390033 53030 $
2026-04-20 01:56:00,METAR KCHS 200156Z 35006KT 10SM SCT180 14/03 A3013 RMK AO2 SLP201 T01390033 $
2026-04-20 00:56:00,METAR KCHS 200056Z 01006KT 10SM SCT150 BKN180 17/06 A3009 RMK AO2 SLP188 T01670061 $
2026-04-19 23:56:00,METAR KCHS 192356Z 02008KT 10SM FEW095 SCT130 BKN200 18/05 A3007 RMK AO2 SLP181 T01780050 10256 20178 53019
2026-04-19 22:56:00,METAR KCHS 192256Z 02007KT 10SM FEW095 OVC130 19/06 A3004 RMK AO2 SLP172 T01890061
2026-04-19 21:56:00,METAR KCHS 192156Z 36011KT 10SM SCT055 BKN100 OVC190 20/07 A3003 RMK AO2 SLP168 T02000067 $
2026-04-19 20:56:00,METAR KCHS 192056Z 34012G21KT 10SM SCT047 BKN055 BKN110 OVC200 21/07 A3001 RMK AO2 PK WND 35028/2017 SLP162 T02060072 51021 $
2026-04-19 19:56:00,METAR KCHS 191956Z 36016KT 10SM FEW043 SCT050 BKN150 21/09 A2999 RMK AO2 PK WND 01028/1900 SLP156 T02110094 $
2026-04-19 18:56:00,METAR KCHS 191856Z 36016G27KT 10SM BKN041 BKN050 OVC100 23/11 A2999 RMK AO2 PK WND 35027/1833 SLP153 T02330111
2026-04-19 17:56:00,METAR KCHS 191756Z 36016G23KT 10SM BKN045 BKN070 BKN170 26/16 A2995 RMK AO2 SLP141 T02560156 10283 20217 53003 $
2026-04-19 16:56:00,METAR KCHS 191656Z 31014G21KT 10SM SCT045 BKN200 BKN250 28/16 A2995 RMK AO2 SLP141 T02780161 $
2026-04-19 15:56:00,METAR KCHS 191556Z 28011KT 10SM FEW045 FEW140 BKN200 27/16 A2993 RMK AO2 SLP136 T02720156
2026-04-19 14:56:00,METAR KCHS 191456Z 26009KT 10SM BKN190 BKN230 26/16 A2994 RMK AO2 SLP138 T02560161 53001 $
2026-04-19 13:56:00,METAR KCHS 191356Z 27011KT 10SM BKN190 BKN230 24/16 A2993 RMK AO2 SLP136 T02390156 $
2026-04-19 12:56:00,METAR KCHS 191256Z 26007KT 10SM BKN200 BKN230 24/16 A2994 RMK AO2 SLP136 T02440161 $
2026-04-19 11:56:00,METAR KCHS 191156Z 24007KT 10SM SCT200 BKN250 22/16 A2994 RMK AO2 SLP136 T02170156 10228 20206 51014 $
2026-04-19 10:56:00,METAR KCHS 191056Z 23007KT 10SM SCT150 BKN200 21/16 A2992 RMK AO2 SLP132 T02060156 $
2026-04-19 09:56:00,METAR KCHS 190956Z 22008KT 10SM SCT150 BKN200 21/16 A2991 RMK AO2 SLP126 T02060156 $
2026-04-19 08:56:00,METAR KCHS 190856Z 23007KT 10SM SCT150 BKN200 21/15 A2989 RMK AO2 SLP122 T02110150 56013 $
2026-04-19 07:56:00,METAR KCHS 190756Z 22007KT 10SM SCT150 BKN200 22/16 A2990 RMK AO2 SLP123 T02170156 $
2026-04-19 06:56:00,METAR KCHS 190656Z 21009KT 10SM BKN200 22/16 A2991 RMK AO2 SLP127 T02220156 $
2026-04-19 05:56:00,METAR KCHS 190556Z 22012KT 10SM BKN200 23/15 A2993 RMK AO2 SLP135 T02280150 10239 20211 58004 $
2026-04-19 04:56:00,METAR KCHS 190456Z 20010KT 10SM SCT200 22/16 A2994 RMK AO2 SLP138 T02170156 403170183 $
2026-04-19 03:56:00,METAR KCHS 190356Z 20009KT 10SM BKN200 22/16 A2994 RMK AO2 SLP137 T02170161 $
2026-04-19 02:56:00,METAR KCHS 190256Z 19009KT 10SM BKN200 21/16 A2994 RMK AO2 SLP138 T02110161 50004 $
2026-04-19 01:56:00,METAR KCHS 190156Z 19009KT 10SM SCT200 22/16 A2994 RMK AO2 SLP139 T02170161 $
2026-04-19 00:56:00,METAR KCHS 190056Z 16007KT 10SM SCT090 SCT200 22/17 A2993 RMK AO2 SLP135 T02220167 $
2026-04-18 23:56:00,METAR KCHS 182356Z 18006KT 10SM FEW075 SCT090 BKN200 BKN250 24/17 A2993 RMK AO2 SLP134 T02390167 10317 20239 50003
2026-04-18 22:56:00,METAR KCHS 182256Z 19008KT 10SM FEW080 SCT090 BKN200 OVC250 26/17 A2993 RMK AO2 SLP135 T02610167
2026-04-18 21:56:00,METAR KCHS 182156Z 19010KT 10SM SCT090 BKN200 OVC250 28/17 A2992 RMK AO2 SLP132 T02830167
2026-04-18 20:56:00,METAR KCHS 182056Z 19010KT 10SM FEW075 SCT090 BKN200 BKN250 29/15 A2992 RMK AO2 SLP131 T02940150 58013
2026-04-18 19:56:00,METAR KCHS 181956Z 18010KT 10SM SCT070 SCT085 BKN200 BKN250 31/16 A2993 RMK AO2 SLP135 T03060156
2026-04-18 18:56:00,METAR KCHS 181856Z 17010KT 10SM FEW060 SCT075 OVC200 31/16 A2995 RMK AO2 SLP142 T03110161
2026-04-18 17:56:00,METAR KCHS 181756Z 14009KT 10SM FEW060 OVC200 32/16 A2996 RMK AO2 SLP145 T03170161 10317 20206 56008
2026-04-18 16:56:00,METAR KCHS 181656Z VRB05KT 10SM FEW050 BKN200 BKN250 31/17 A2996 RMK AO2 SLP145 T03110172
2026-04-18 15:56:00,METAR KCHS 181556Z VRB05KT 10SM BKN250 31/16 A2998 RMK AO2 SLP151 T03060161 $
2026-04-18 14:56:00,METAR KCHS 181456Z 00000KT 10SM FEW100 SCT250 28/17 A2998 RMK AO2 SLP153 T02780172 51001 $
2026-04-18 13:56:00,METAR KCHS 181356Z 00000KT 10SM FEW090 FEW250 26/17 A2998 RMK AO2 SLP152 T02560172 $
2026-04-18 12:56:00,METAR KCHS 181256Z 18005KT 10SM FEW085 SCT250 23/18 A2999 RMK AO2 SLP154 T02330178 $
2026-04-18 11:56:00,METAR KCHS 181156Z 18003KT 10SM FEW090 SCT250 21/18 A2998 RMK AO2 SLP151 T02060178 10206 20183 53007 $
2026-04-18 10:56:00,METAR KCHS 181056Z 18004KT 10SM SCT090 SCT250 19/16 A2997 RMK AO2 SLP147 T01940161 $
2026-04-18 09:56:00,METAR KCHS 180956Z 19005KT 10SM BKN090 21/16 A2996 RMK AO2 SLP144 T02060156 $
2026-04-18 08:56:00,METAR KCHS 180856Z 20006KT 10SM SCT090 19/15 A2996 RMK AO2 SLP144 T01890150 56001 $
2026-04-18 07:56:00,METAR KCHS 180756Z 20007KT 10SM CLR 18/15 A2996 RMK AO2 SLP145 T01830150 $
2026-04-18 06:56:00,METAR KCHS 180656Z 20005KT 10SM CLR 20/14 A2995 RMK AO2 SLP142 T02000144 $
2026-04-18 05:56:00,METAR KCHS 180556Z 20005KT 10SM CLR 19/14 A2996 RMK AO2 SLP145 T01940144 10250 20189 57004 $
2026-04-18 04:56:00,METAR KCHS 180456Z COR 20005KT 10SM FEW090 19/14 A2997 RMK AO2 SLP147 T01940144 403280167 $
2026-04-18 03:56:00,METAR KCHS 180356Z 21006KT 10SM SCT090 22/14 A2997 RMK AO2 SLP147 T02170144 $
2026-04-18 02:56:00,METAR KCHS 180256Z 20007KT 10SM FEW085 22/14 A2997 RMK AO2 SLP149 T02220139 50006 $
2026-04-18 01:56:00,METAR KCHS 180156Z 19006KT 10SM FEW090 21/13 A2998 RMK AO2 SLP151 T02110133 $
2026-04-18 00:56:00,METAR KCHS 180056Z 19008KT 10SM FEW100 22/12 A2997 RMK AO2 SLP148 T02220117 $
2026-04-17 23:56:00,METAR KCHS 172356Z 19008KT 10SM FEW070 25/11 A2996 RMK AO2 SLP143 T02500106 10328 20250 53004 $
2026-04-17 22:56:00,METAR KCHS 172256Z 18009KT 10SM FEW075 28/12 A2995 RMK AO2 SLP141 T02780117 $
2026-04-17 21:56:00,METAR KCHS 172156Z 20010KT 10SM SCT075 29/14 A2994 RMK AO2 SLP139 T02940139 $
2026-04-17 20:56:00,METAR KCHS 172056Z 21012KT 10SM SCT070 31/15 A2995 RMK AO2 SLP140 T03060150 56013
2026-04-17 19:56:00,METAR KCHS 171956Z 23009KT 10SM BKN065 32/15 A2995 RMK AO2 SLP140 T03170150 $
2026-04-17 18:56:00,METAR KCHS 171856Z 32008KT 10SM SCT065 33/16 A2997 RMK AO2 SLP147 T03280156 $
2026-04-17 17:56:00,METAR KCHS 171756Z VRB05KT 10SM SCT060 SCT250 31/16 A2998 RMK AO2 SLP153 T03110156 10317 20200 58018 $
2026-04-17 16:56:00,METAR KCHS 171656Z 27007KT 220V290 10SM FEW250 30/16 A3000 RMK AO2 SLP160 T03000156 $
2026-04-17 15:56:00,METAR KCHS 171556Z 25010G18KT 10SM CLR 29/14 A3003 RMK AO2 SLP169 T02890144 $
2026-04-17 14:56:00,METAR KCHS 171456Z 27007KT 10SM CLR 27/14 A3004 RMK AO2 SLP170 T02720144 51002 $
2026-04-17 13:56:00,METAR KCHS 171356Z 25007KT 10SM FEW070 FEW250 25/16 A3003 RMK AO2 SLP170 T02500156
2026-04-17 12:56:00,METAR KCHS 171256Z 23007KT 10SM FEW070 FEW250 22/17 A3003 RMK AO2 SLP170 T02220167
2026-04-17 11:56:00,METAR KCHS 171156Z 21006KT 10SM FEW070 20/18 A3003 RMK AO2 SLP168 T02000178 10200 20167 53008 $
2026-04-17 10:56:00,METAR KCHS 171056Z 20006KT 10SM CLR 18/17 A3002 RMK AO2 SLP165 T01780167
2026-04-17 09:56:00,METAR KCHS 170956Z 21007KT 10SM FEW250 18/17 A3001 RMK AO2 SLP162 T01830167
2026-04-17 08:56:00,METAR KCHS 170856Z 21006KT 10SM FEW250 18/16 A3001 RMK AO2 SLP160 T01780161 56008
2026-04-17 07:56:00,METAR KCHS 170756Z 22007KT 10SM FEW250 19/17 A3001 RMK AO2 SLP161 T01890167
2026-04-17 06:56:00,METAR KCHS 170656Z 22008KT 10SM FEW250 19/17 A3001 RMK AO2 SLP162 T01940167
2026-04-17 05:56:00,METAR KCHS 170556Z 23006KT 10SM FEW250 19/17 A3003 RMK AO2 SLP169 T01940172 10217 20189 53002
2026-04-17 04:56:00,METAR KCHS 170456Z 23005KT 10SM FEW250 19/17 A3003 RMK AO2 SLP167 T01940167 403060172
2026-04-17 03:56:00,METAR KCHS 170356Z 20008KT 10SM FEW250 19/16 A3003 RMK AO2 SLP168 T01940161
2026-04-17 02:56:00,METAR KCHS 170256Z 20006KT 10SM FEW250 20/17 A3003 RMK AO2 SLP167 T02000167 52010
2026-04-17 01:56:00,METAR KCHS 170156Z 21008KT 10SM CLR 20/17 A3002 RMK AO2 SLP165 T02000167
2026-04-17 00:56:00,METAR KCHS 170056Z 20011KT 10SM CLR 21/17 A3000 RMK AO2 SLP159 T02060167
2026-04-16 23:56:00,METAR KCHS 162356Z 19008KT 10SM CLR 22/16 A3000 RMK AO2 SLP157 T02170161 10306 20217 56004
2026-04-16 22:56:00,METAR KCHS 162256Z 18008KT 10SM FEW250 24/17 A3000 RMK AO2 SLP157 T02440172
2026-04-16 21:56:00,METAR KCHS 162156Z 18012KT 10SM FEW250 27/18 A3000 RMK AO2 SLP159 T02720183
2026-04-16 20:56:00,METAR KCHS 162056Z 18011KT 10SM FEW050 SCT250 29/18 A3001 RMK AO2 SLP161 T02890183 57023
2026-04-16 19:56:00,METAR KCHS 161956Z 17014KT 10SM FEW050 BKN250 29/19 A3003 RMK AO2 SLP168 T02940189
2026-04-16 18:56:00,METAR KCHS 161856Z VRB04KT 10SM SCT050 BKN250 31/17 A3006 RMK AO2 SLP178 T03060172
2026-04-16 17:56:00,METAR KCHS 161756Z VRB05KT 10SM FEW045 BKN250 30/18 A3008 RMK AO2 SLP184 T03000178 10300 20189 58021
2026-04-16 16:56:00,METAR KCHS 161656Z 20008KT 10SM BKN250 29/17 A3010 RMK AO2 SLP193 T02890172
2026-04-16 15:56:00,METAR KCHS 161556Z VRB04KT 10SM FEW030 SCT250 27/17 A3013 RMK AO2 SLP201 T02670172
2026-04-16 14:56:00,METAR KCHS 161456Z 22007KT 190V260 10SM FEW250 25/18 A3014 RMK AO2 SLP205 T02500178 50000
2026-04-16 13:56:00,METAR KCHS 161356Z 20007KT 10SM FEW020 FEW250 23/18 A3015 RMK AO2 SLP208 T02330178
2026-04-16 12:56:00,METAR KCHS 161256Z 21009KT 10SM FEW250 22/18 A3015 RMK AO2 SLP209 T02170178
2026-04-16 11:56:00,METAR KCHS 161156Z 20004KT 10SM SCT250 19/18 A3014 RMK AO2 SLP206 T01890178 10189 20172 53013
2026-04-16 10:56:00,METAR KCHS 161056Z 20004KT 10SM SCT250 17/16 A3012 RMK AO2 SLP198 T01720161
2026-04-16 09:56:00,METAR KCHS 160956Z 19006KT 10SM FEW250 17/16 A3010 RMK AO2 SLP192 T01720161
2026-04-16 08:56:00,METAR KCHS 160856Z 21006KT 10SM FEW250 18/17 A3010 RMK AO2 SLP193 T01830172 55001
2026-04-16 07:56:00,METAR KCHS 160756Z 19005KT 10SM FEW250 18/17 A3009 RMK AO2 SLP189 T01780167
2026-04-16 06:56:00,METAR KCHS 160656Z 19005KT 10SM FEW250 18/17 A3010 RMK AO2 SLP191 T01780167
2026-04-16 05:56:00,METAR KCHS 160556Z 20005KT 10SM FEW250 19/17 A3010 RMK AO2 SLP193 T01890167 10217 20183 56005
2026-04-16 04:56:00,METAR KCHS 160456Z 19007KT 10SM FEW250 19/17 A3011 RMK AO2 SLP196 T01890167 403110150
2026-04-16 03:56:00,METAR KCHS 160356Z 19008KT 10SM FEW250 19/16 A3011 RMK AO2 SLP196 T01890161
2026-04-16 02:56:00,METAR KCHS 160256Z 19007KT 10SM FEW250 18/15 A3012 RMK AO2 SLP199 T01830150 51007
2026-04-16 01:56:00,METAR KCHS 160156Z 20005KT 10SM SCT250 19/15 A3012 RMK AO2 SLP198 T01890150
2026-04-16 00:56:00,METAR KCHS 160056Z 19009KT 10SM SCT250 20/15 A3010 RMK AO2 SLP193 T02000150
2026-04-15 23:56:00,METAR KCHS 152356Z 18006KT 10SM SCT250 22/16 A3010 RMK AO2 SLP192 T02170156 10311 20217 51006
2026-04-15 22:56:00,METAR KCHS 152256Z 20011KT 10SM FEW250 24/16 A3010 RMK AO2 SLP192 T02440156
2026-04-15 21:56:00,METAR KCHS 152156Z 19014KT 10SM FEW250 27/15 A3010 RMK AO2 SLP190 T02720150
2026-04-15 20:56:00,METAR KCHS 152056Z 18015KT 10SM FEW250 29/13 A3008 RMK AO2 SLP186 T02940133 56012
2026-04-15 19:56:00,METAR KCHS 151956Z 18014KT 10SM FEW055 30/14 A3009 RMK AO2 SLP188 T03000144
2026-04-15 18:56:00,METAR KCHS 151856Z 21012G17KT 10SM FEW055 30/17 A3011 RMK AO2 SLP194 T03000167
2026-04-15 17:56:00,METAR KCHS 151756Z VRB06KT 10SM FEW050 29/15 A3012 RMK AO2 SLP199 T02940150 10300 20178 57021
2026-04-15 16:56:00,METAR KCHS 151656Z 20007KT 170V230 10SM FEW040 28/16 A3014 RMK AO2 SLP207 T02830161
2026-04-15 15:56:00,METAR KCHS 151556Z 21008KT 10SM CLR 27/17 A3016 RMK AO2 SLP212 T02720167
2026-04-15 14:56:00,METAR KCHS 151456Z 22009KT 10SM FEW250 26/17 A3018 RMK AO2 SLP220 T02560167 51003
2026-04-15 13:56:00,METAR KCHS 151356Z 24007KT 10SM FEW250 24/17 A3018 RMK AO2 SLP219 T02390167
2026-04-15 12:56:00,METAR KCHS 151256Z 22007KT 10SM FEW250 21/18 A3018 RMK AO2 SLP220 T02110178
2026-04-15 11:56:00,METAR KCHS 151156Z 20004KT 10SM FEW250 18/17 A3017 RMK AO2 SLP217 T01780167 10178 20150 53015
2026-04-15 10:56:00,METAR KCHS 151056Z 00000KT 7SM MIFG FEW250 16/16 A3016 RMK AO2 SLP211 T01610161
2026-04-15 09:56:00,METAR KCHS 150956Z 19003KT 10SM FEW250 16/15 A3014 RMK AO2 SLP206 T01610150
2026-04-15 08:56:00,METAR KCHS 150856Z 21004KT 10SM FEW250 15/15 A3013 RMK AO2 SLP202 T01500150 55002
2026-04-15 07:56:00,METAR KCHS 150756Z 21004KT 10SM FEW250 17/16 A3012 RMK AO2 SLP199 T01670161
2026-04-15 06:56:00,METAR KCHS 150656Z 21004KT 10SM FEW250 17/16 A3013 RMK AO2 SLP202 T01670161
2026-04-15 05:56:00,METAR KCHS 150556Z 20004KT 10SM FEW250 17/16 A3014 RMK AO2 SLP204 T01720161 10217 20172 56010
2026-04-15 04:56:00,METAR KCHS 150456Z 20005KT 10SM FEW250 18/16 A3014 RMK AO2 SLP207 T01780161 402940133
2026-04-15 03:56:00,METAR KCHS 150356Z 19006KT 10SM FEW250 17/16 A3016 RMK AO2 SLP211 T01720156
2026-04-15 02:56:00,METAR KCHS 150256Z 19006KT 10SM FEW250 18/16 A3017 RMK AO2 SLP214 T01830161 53004
2026-04-15 01:56:00,METAR KCHS 150156Z 19006KT 10SM CLR 18/16 A3016 RMK AO2 SLP213 T01830161
2026-04-15 00:56:00,METAR KCHS 150056Z 19006KT 10SM CLR 19/16 A3015 RMK AO2 SLP210 T01940156
2026-04-14 23:56:00,METAR KCHS 142356Z 18011KT 10SM FEW250 22/14 A3015 RMK AO2 SLP210 T02170144 10294 20217 51003
2026-04-14 22:56:00,METAR KCHS 142256Z 18014KT 10SM SCT250 24/13 A3015 RMK AO2 SLP210 T02390128
2026-04-14 21:56:00,METAR KCHS 142156Z 19013KT 10SM SCT250 26/14 A3015 RMK AO2 SLP209 T02610139
2026-04-14 20:56:00,METAR KCHS 142056Z 18012KT 10SM FEW050 FEW250 28/13 A3014 RMK AO2 SLP207 T02780133 56019
2026-04-14 19:56:00,METAR KCHS 141956Z 20011G18KT 10SM SCT050 SCT250 28/16 A3015 RMK AO2 SLP210 T02830156
2026-04-14 18:56:00,METAR KCHS 141856Z 28003G15KT 10SM SCT060 SCT250 28/13 A3018 RMK AO2 SLP218 T02780133
2026-04-14 17:56:00,METAR KCHS 141756Z 20005KT 10SM SCT050 SCT250 28/13 A3020 RMK AO2 SLP226 T02780133 10283 20161 58023
2026-04-14 16:56:00,METAR KCHS 141656Z 20005KT 10SM FEW045 FEW250 27/15 A3023 RMK AO2 SLP234 T02670150
2026-04-14 15:56:00,METAR KCHS 141556Z 29005KT 10SM FEW035 FEW250 26/16 A3026 RMK AO2 SLP245 T02610156
2026-04-14 14:56:00,METAR KCHS 141456Z 25008KT 10SM FEW025 24/17 A3027 RMK AO2 SLP249 T02440167 50006
2026-04-14 13:56:00,METAR KCHS 141356Z 26007KT 10SM FEW020 FEW250 22/17 A3027 RMK AO2 SLP250 T02170167
2026-04-14 12:56:00,METAR KCHS 141256Z 25005KT 10SM FEW250 18/17 A3027 RMK AO2 SLP248 T01830167
2026-04-14 11:56:00,METAR KCHS 141156Z 00000KT 7SM BCFG FEW002 FEW250 16/16 A3025 RMK AO2 SLP242 T01610156 10167 20133 53012 $
2026-04-14 10:56:00,METAR KCHS 141056Z 00000KT 7SM R15/2600VP6000FT BCFG FEW002 FEW250 13/13 A3023 RMK AO2 SLP236 T01330133 $
2026-04-14 10:16:00,SPECI KCHS 141016Z 00000KT 4SM BR FEW002 FEW250 14/14 A3022 RMK AO2 T01390139
2026-04-14 09:56:00,METAR KCHS 140956Z 00000KT 4SM R15/1200VP6000FT BR FEW200 14/14 A3022 RMK AO2 SLP232 T01440144
2026-04-14 08:56:00,METAR KCHS 140856Z 00000KT 5SM BR FEW200 14/14 A3021 RMK AO2 SLP231 T01390139 55007
2026-04-14 07:56:00,METAR KCHS 140756Z 18003KT 7SM MIFG FEW200 16/16 A3021 RMK AO2 SLP228 T01610156
2026-04-14 06:56:00,METAR KCHS 140656Z 00000KT 7SM MIFG SCT200 16/16 A3021 RMK AO2 SLP229 T01610156
2026-04-14 05:56:00,METAR KCHS 140556Z 00000KT 10SM SCT200 17/16 A3023 RMK AO2 SLP237 T01670156 10206 20167 57011
2026-04-14 04:56:00,METAR KCHS 140456Z 19003KT 10SM SCT200 18/16 A3025 RMK AO2 SLP242 T01780156 402780139
2026-04-14 03:56:00,METAR KCHS 140356Z 20003KT 10SM SCT200 18/16 A3025 RMK AO2 SLP244 T01830156
2026-04-14 02:56:00,METAR KCHS 140256Z 18005KT 10SM SCT200 18/16 A3027 RMK AO2 SLP248 T01780156 51006
2026-04-14 01:56:00,METAR KCHS 140156Z 20005KT 10SM BKN200 18/16 A3026 RMK AO2 SLP247 T01830156
2026-04-14 00:56:00,METAR KCHS 140056Z 19006KT 10SM BKN200 19/16 A3026 RMK AO2 SLP244 T01890156
2026-04-13 23:56:00,METAR KCHS 132356Z 19007KT 10SM BKN200 21/15 A3025 RMK AO2 SLP242 T02060150 10278 20206 58002
2026-04-13 22:56:00,METAR KCHS 132256Z 18009KT 10SM BKN200 23/15 A3025 RMK AO2 SLP243 T02280150
2026-04-13 21:56:00,METAR KCHS 132156Z 19009KT 10SM BKN200 24/14 A3026 RMK AO2 SLP244 T02440139
2026-04-13 20:56:00,METAR KCHS 132056Z 19011KT 10SM FEW060 BKN200 26/14 A3026 RMK AO2 SLP245 T02610144 56020
2026-04-13 19:56:00,METAR KCHS 131956Z 16013KT 10SM SCT055 BKN200 27/15 A3027 RMK AO2 SLP251 T02670150
2026-04-13 18:56:00,METAR KCHS 131856Z 16007KT 10SM SCT050 BKN060 BKN250 27/14 A3029 RMK AO2 SLP258 T02720144
2026-04-13 17:56:00,METAR KCHS 131756Z 24006G15KT 10SM SCT050 BKN250 27/13 A3031 RMK AO2 SLP265 T02720128 10278 20167 58020
2026-04-13 16:56:00,METAR KCHS 131656Z VRB05KT 10SM SCT045 BKN250 26/13 A3034 RMK AO2 SLP273 T02610133
2026-04-13 15:56:00,METAR KCHS 131556Z 22003KT 10SM SCT040 BKN250 26/14 A3036 RMK AO2 SLP280 T02610144
2026-04-13 14:56:00,METAR KCHS 131456Z 25005KT 10SM FEW035 BKN250 24/14 A3037 RMK AO2 SLP285 T02440144 51004
2026-04-13 13:56:00,METAR KCHS 131356Z 20009KT 10SM FEW030 BKN250 24/16 A3037 RMK AO2 SLP285 T02390156
2026-04-13 12:56:00,METAR KCHS 131256Z 15003KT 10SM BKN250 21/17 A3037 RMK AO2 SLP283 T02110167
2026-04-13 11:56:00,METAR KCHS 131156Z 00000KT 10SM FEW250 16/16 A3036 RMK AO2 SLP280 T01610161 10172 20139 53014
2026-04-13 10:56:00,METAR KCHS 131056Z 00000KT 7SM BCFG FEW250 14/14 A3034 RMK AO2 SLP272 T01440144
2026-04-13 10:13:00,SPECI KCHS 131013Z 00000KT 7SM BCFG CLR 14/14 A3033 RMK AO2 T01440144
2026-04-13 10:10:00,SPECI KCHS 131010Z 00000KT 1 1/4SM BR CLR 14/14 A3033 RMK AO2 T01440139
2026-04-13 09:56:00,METAR KCHS 130956Z 00000KT 7SM R15/1600VP6000FT BCFG FEW250 14/14 A3032 RMK AO2 SLP267 T01440144 $
2026-04-13 08:56:00,METAR KCHS 130856Z 00000KT 8SM R15/1800VP6000FT BCFG FEW250 16/16 A3032 RMK AO2 SLP266 T01560156 56008 $
2026-04-13 07:56:00,METAR KCHS 130756Z 35004KT 8SM R15/1800V4000FT BCFG FEW250 15/15 A3032 RMK AO2 SLP267 T01500150 $
2026-04-13 06:56:00,METAR KCHS 130656Z 00000KT 10SM CLR 17/16 A3033 RMK AO2 SLP268 T01720161 $
2026-04-13 05:56:00,METAR KCHS 130556Z 13003KT 10SM CLR 17/17 A3034 RMK AO2 SLP274 T01720167 10211 20167 58006 $
2026-04-13 04:56:00,METAR KCHS 130456Z 00000KT 10SM CLR 18/17 A3035 RMK AO2 SLP278 T01780172 402720111 $
2026-04-13 03:56:00,METAR KCHS 130356Z 15004KT 10SM CLR 18/17 A3036 RMK AO2 SLP278 T01780167 $
2026-04-13 02:56:00,METAR KCHS 130256Z 14005KT 10SM CLR 18/17 A3036 RMK AO2 SLP280 T01830167 50003 $
2026-04-13 01:56:00,METAR KCHS 130156Z 14004KT 10SM CLR 19/16 A3037 RMK AO2 SLP282 T01890161 $
2026-04-13 00:56:00,METAR KCHS 130056Z 18005KT 10SM CLR 19/16 A3035 RMK AO2 SLP278 T01890156
2026-04-12 23:56:00,METAR KCHS 122356Z 18007KT 10SM SCT250 21/16 A3035 RMK AO2 SLP276 T02110156 10272 20211 51006
2026-04-12 22:56:00,METAR KCHS 122256Z 18008KT 10SM FEW045 FEW250 23/16 A3035 RMK AO2 SLP276 T02330156
2026-04-12 21:56:00,METAR KCHS 122156Z 13009KT 10SM FEW045 FEW250 25/15 A3034 RMK AO2 SLP273 T02500150
2026-04-12 20:56:00,METAR KCHS 122056Z 13012KT 10SM FEW050 FEW250 26/15 A3033 RMK AO2 SLP270 T02610150 57013
2026-04-12 19:56:00,METAR KCHS 121956Z 14009G14KT 10SM FEW045 FEW055 SCT250 27/14 A3034 RMK AO2 SLP274 T02670144
2026-04-12 18:56:00,METAR KCHS 121856Z 14009KT 10SM FEW050 FEW250 27/15 A3035 RMK AO2 SLP278 T02670150
2026-04-12 17:56:00,METAR KCHS 121756Z 12011G17KT 10SM FEW045 27/15 A3037 RMK AO2 SLP283 T02670150 10272 20144 58004
2026-04-12 16:56:00,METAR KCHS 121656Z 13013G17KT 10SM FEW045 FEW250 27/15 A3037 RMK AO2 SLP285 T02720150
2026-04-12 15:56:00,METAR KCHS 121556Z 18005KT 10SM FEW250 26/13 A3038 RMK AO2 SLP287 T02560133
2026-04-12 14:56:00,METAR KCHS 121456Z 21006KT 10SM CLR 24/14 A3038 RMK AO2 SLP286 T02390139 50006
2026-04-12 13:56:00,METAR KCHS 121356Z VRB03KT 10SM FEW250 22/15 A3039 RMK AO2 SLP289 T02220150
2026-04-12 12:56:00,METAR KCHS 121256Z 10003KT 10SM CLR 19/14 A3037 RMK AO2 SLP282 T01940144
2026-04-12 11:56:00,METAR KCHS 121156Z 00000KT 10SM FEW250 14/13 A3036 RMK AO2 SLP280 T01440133 10156 20111 53027
2026-04-12 10:56:00,METAR KCHS 121056Z 00000KT 10SM CLR 12/11 A3033 RMK AO2 SLP271 T01220111
2026-04-12 09:56:00,METAR KCHS 120956Z 00000KT 10SM CLR 12/11 A3030 RMK AO2 SLP260 T01220111
2026-04-12 08:56:00,METAR KCHS 120856Z 00000KT 10SM CLR 12/12 A3028 RMK AO2 SLP253 T01220117 53002
2026-04-12 07:56:00,METAR KCHS 120756Z 00000KT 10SM CLR 13/11 A3027 RMK AO2 SLP250 T01330111
2026-04-12 06:56:00,METAR KCHS 120656Z 00000KT 10SM CLR 15/12 A3027 RMK AO2 SLP248 T01500122
2026-04-12 05:56:00,METAR KCHS 120556Z 00000KT 10SM CLR 16/12 A3028 RMK AO2 SLP251 T01560122 10206 20150 58003
2026-04-12 04:56:00,METAR KCHS 120456Z 19003KT 10SM CLR 16/13 A3028 RMK AO2 SLP254 T01610128 402890094
2026-04-12 03:56:00,METAR KCHS 120356Z 20004KT 10SM CLR 16/13 A3028 RMK AO2 SLP254 T01610128
2026-04-12 02:56:00,METAR KCHS 120256Z 20005KT 10SM CLR 17/12 A3029 RMK AO2 SLP255 T01720122 51012
2026-04-12 01:56:00,METAR KCHS 120156Z 20005KT 10SM CLR 18/11 A3028 RMK AO2 SLP253 T01830111
2026-04-12 00:56:00,METAR KCHS 120056Z 20005KT 10SM CLR 19/10 A3027 RMK AO2 SLP248 T01940100 $
2026-04-11 23:56:00,METAR KCHS 112356Z 18008KT 10SM FEW250 21/09 A3025 RMK AO2 SLP243 60000 T02060094 10289 20200 53011
2026-04-11 22:56:00,METAR KCHS 112256Z 20009KT 10SM FEW250 24/10 A3024 RMK AO2 SLP240 T02390100
2026-04-11 21:56:00,METAR KCHS 112156Z 17009KT 10SM FEW065 26/11 A3023 RMK AO2 SLP235 T02610106
2026-04-11 20:56:00,METAR KCHS 112056Z 18009KT 10SM FEW065 27/12 A3022 RMK AO2 SLP232 60000 T02720117 56014
2026-04-11 19:56:00,METAR KCHS 111956Z 15011G16KT 10SM CLR 28/11 A3022 RMK AO2 SLP233 P0000 T02830111
2026-04-11 18:56:00,METAR KCHS 111856Z 17004KT 10SM CLR 28/07 A3024 RMK AO2 SLP238 T02830072
2026-04-11 17:56:00,METAR KCHS 111756Z 07006KT 10SM CLR 27/08 A3026 RMK AO2 SLP247 T02720083 10278 20133 58017
2026-04-11 16:56:00,METAR KCHS 111656Z VRB04KT 10SM FEW250 27/09 A3028 RMK AO2 SLP253 T02670089
2026-04-11 15:56:00,METAR KCHS 111556Z 29004KT 10SM FEW250 25/11 A3031 RMK AO2 SLP261 T02500106
2026-04-11 14:56:00,METAR KCHS 111456Z 30006KT 10SM SCT250 23/12 A3031 RMK AO2 SLP263 T02330117 50002
2026-04-11 13:56:00,METAR KCHS 111356Z 29004KT 10SM SCT250 21/13 A3031 RMK AO2 SLP263 T02060133
2026-04-11 12:56:00,METAR KCHS 111256Z 29003KT 10SM FEW250 17/14 A3031 RMK AO2 SLP264 T01720144
2026-04-11 11:56:00,METAR KCHS 111156Z 30004KT 10SM FEW250 13/13 A3030 RMK AO2 SLP261 T01330128 10133 20094 53019
2026-04-11 10:56:00,METAR KCHS 111056Z 32003KT 9SM R15/2800VP6000FT FEW250 11/11 A3028 RMK AO2 SLP253 T01060106
2026-04-11 09:56:00,METAR KCHS 110956Z 00000KT 10SM CLR 11/11 A3027 RMK AO2 SLP248 T01110106
2026-04-11 08:56:00,METAR KCHS 110856Z 34003KT 10SM CLR 11/11 A3025 RMK AO2 SLP242 T01060106 55007
2026-04-11 07:56:00,METAR KCHS 110756Z 00000KT 10SM CLR 12/12 A3025 RMK AO2 SLP241 T01220117
2026-04-11 06:56:00,METAR KCHS 110656Z 00000KT 10SM R15/4500VP6000FT CLR 12/12 A3026 RMK AO2 SLP245 T01170117
2026-04-11 05:56:00,METAR KCHS 110556Z 00000KT 10SM CLR 12/12 A3027 RMK AO2 SLP249 T01220122 10183 20117 58009
2026-04-11 04:56:00,METAR KCHS 110456Z 00000KT 10SM CLR 13/12 A3028 RMK AO2 SLP253 T01280122 402560089
2026-04-11 03:56:00,METAR KCHS 110356Z 00000KT 10SM CLR 14/12 A3029 RMK AO2 SLP255 T01390122
2026-04-11 02:56:00,METAR KCHS 110256Z 00000KT 10SM CLR 16/13 A3029 RMK AO2 SLP257 T01560128 50004
2026-04-11 01:56:00,METAR KCHS 110156Z 00000KT 10SM CLR 17/13 A3030 RMK AO2 SLP260 T01720133
2026-04-11 00:56:00,METAR KCHS 110056Z 14006KT 10SM CLR 17/13 A3029 RMK AO2 SLP255 T01720128
2026-04-10 23:56:00,METAR KCHS 102356Z 15007KT 10SM CLR 18/12 A3028 RMK AO2 SLP254 T01830117 10256 20183 53007
2026-04-10 22:56:00,METAR KCHS 102256Z 14009KT 10SM CLR 21/10 A3027 RMK AO2 SLP249 T02110100
2026-04-10 21:56:00,METAR KCHS 102156Z 13011KT 10SM CLR 23/10 A3026 RMK AO2 SLP247 T02280100
2026-04-10 20:56:00,METAR KCHS 102056Z 14009KT 10SM FEW250 23/10 A3026 RMK AO2 SLP246 T02330100 56019
2026-04-10 19:56:00,METAR KCHS 101956Z 14010KT 10SM FEW065 24/11 A3027 RMK AO2 SLP251 T02390111
2026-04-10 18:56:00,METAR KCHS 101856Z 35004KT 10SM FEW060 25/08 A3029 RMK AO2 SLP256 T02500083
2026-04-10 17:56:00,METAR KCHS 101756Z 30006G17KT 10SM SCT060 25/09 A3032 RMK AO2 SLP265 T02500089 10250 20122 58017
2026-04-10 16:56:00,METAR KCHS 101656Z VRB03KT 10SM FEW050 23/09 A3034 RMK AO2 SLP273 T02330094
2026-04-10 15:56:00,METAR KCHS 101556Z 06003KT 10SM FEW040 22/11 A3036 RMK AO2 SLP280 T02220111
2026-04-10 14:56:00,METAR KCHS 101456Z 08008KT 10SM CLR 21/11 A3037 RMK AO2 SLP282 T02110111 53005
2026-04-10 13:56:00,METAR KCHS 101356Z 06007KT 10SM CLR 19/12 A3036 RMK AO2 SLP281 T01890117
2026-04-10 12:56:00,METAR KCHS 101256Z 05006KT 10SM CLR 16/11 A3035 RMK AO2 SLP277 T01560111
2026-04-10 11:56:00,METAR KCHS 101156Z 02006KT 10SM CLR 12/11 A3035 RMK AO2 SLP277 T01220111 10122 20089 53015
2026-04-10 10:56:00,METAR KCHS 101056Z 36003KT 10SM CLR 10/10 A3034 RMK AO2 SLP272 T01000100
2026-04-10 09:56:00,METAR KCHS 100956Z 36004KT 10SM CLR 10/09 A3032 RMK AO2 SLP265 T01000094
2026-04-10 08:56:00,METAR KCHS 100856Z 02003KT 10SM CLR 11/11 A3031 RMK AO2 SLP262 T01110106 56008
2026-04-10 07:56:00,METAR KCHS 100756Z 02003KT 10SM CLR 12/11 A3031 RMK AO2 SLP263 T01170106
2026-04-10 06:56:00,METAR KCHS 100656Z 03005KT 10SM CLR 12/11 A3031 RMK AO2 SLP264 T01170106
2026-04-10 05:56:00,METAR KCHS 100556Z 02005KT 10SM FEW055 12/09 A3033 RMK AO2 SLP270 T01220094 10178 20122 58010
2026-04-10 04:56:00,METAR KCHS 100456Z 01004KT 10SM FEW065 12/09 A3035 RMK AO2 SLP276 T01220089 402330072
2026-04-10 03:56:00,METAR KCHS 100356Z 02004KT 10SM SCT065 14/09 A3036 RMK AO2 SLP279 T01390089
2026-04-10 02:56:00,METAR KCHS 100256Z 03003KT 10SM FEW047 FEW065 14/09 A3036 RMK AO2 SLP280 T01390089 50005
2026-04-10 01:56:00,METAR KCHS 100156Z 07004KT 10SM FEW050 FEW070 15/09 A3036 RMK AO2 SLP281 T01500089
2026-04-10 00:56:00,METAR KCHS 100056Z 08006KT 10SM FEW050 FEW070 17/09 A3035 RMK AO2 SLP276 T01670094
2026-04-09 23:56:00,METAR KCHS 092356Z 10009KT 10SM FEW060 18/10 A3035 RMK AO2 SLP275 T01780100 10233 20178 53004
2026-04-09 22:56:00,METAR KCHS 092256Z 06008KT 10SM FEW060 21/07 A3034 RMK AO2 SLP272 T02060067
2026-04-09 21:56:00,METAR KCHS 092156Z 09006KT 10SM SCT060 SCT070 22/07 A3034 RMK AO2 SLP272 T02170072
2026-04-09 20:56:00,METAR KCHS 092056Z 08010G19KT 10SM SCT055 SCT065 23/07 A3034 RMK AO2 SLP272 T02280072 56013
2026-04-09 19:56:00,METAR KCHS 091956Z 05009G17KT 10SM SCT055 BKN060 22/07 A3034 RMK AO2 SLP273 T02220072
2026-04-09 18:56:00,METAR KCHS 091856Z 05011KT 10SM BKN055 23/08 A3036 RMK AO2 SLP279 T02280078
2026-04-09 17:56:00,METAR KCHS 091756Z 04013G17KT 10SM FEW050 SCT250 22/08 A3037 RMK AO2 SLP285 T02220083 10222 20083 58019
2026-04-09 16:56:00,METAR KCHS 091656Z 03011G16KT 10SM FEW250 20/08 A3040 RMK AO2 SLP292 T02000083
2026-04-09 15:56:00,METAR KCHS 091556Z 05011G15KT 10SM FEW250 17/08 A3042 RMK AO2 SLP301 T01720078
2026-04-09 14:56:00,METAR KCHS 091456Z 05010KT 10SM FEW250 15/07 A3043 RMK AO2 SLP304 T01500072 51003
2026-04-09 13:56:00,METAR KCHS 091356Z 36008KT 10SM FEW150 FEW250 12/06 A3043 RMK AO2 SLP302 T01170056
2026-04-09 12:56:00,METAR KCHS 091256Z 03010KT 10SM FEW015 SCT060 BKN250 08/05 A3043 RMK AO2 SLP305 T00830050
2026-04-09 11:56:00,METAR KCHS 091156Z 03010KT 10SM FEW012 BKN060 08/04 A3042 RMK AO2 SLP301 T00830039 10106 20072 53014
2026-04-09 10:56:00,METAR KCHS 091056Z 01009KT 10SM SCT250 07/03 A3040 RMK AO2 SLP294 T00720028
2026-04-09 09:56:00,METAR KCHS 090956Z 02009KT 10SM BKN250 08/03 A3038 RMK AO2 SLP287 T00780028
2026-04-09 08:56:00,METAR KCHS 090856Z 36008KT 10SM SCT031 SCT065 BKN250 08/03 A3038 RMK AO2 SLP287 T00830028 55003
2026-04-09 07:56:00,METAR KCHS 090756Z 02010KT 10SM FEW018 FEW250 09/02 A3037 RMK AO2 SLP284 T00890022
2026-04-09 06:56:00,METAR KCHS 090656Z 02010KT 10SM FEW250 10/02 A3037 RMK AO2 SLP282 T01000022
2026-04-09 05:56:00,METAR KCHS 090556Z 03010KT 10SM SCT038 SCT250 11/03 A3039 RMK AO2 SLP290 T01060028 10150 20100 58004
2026-04-09 04:56:00,METAR KCHS 090456Z 03007KT 10SM FEW250 11/03 A3041 RMK AO2 SLP296 T01060033 402110106
2026-04-09 03:56:00,METAR KCHS 090356Z 06005KT 10SM FEW037 FEW043 SCT250 11/02 A3041 RMK AO2 SLP295 T01060022
2026-04-09 02:56:00,METAR KCHS 090256Z 05006KT 10SM FEW043 FEW055 SCT250 11/01 A3040 RMK AO2 SLP294 T01060011 51012
2026-04-09 01:56:00,METAR KCHS 090156Z 06005KT 10SM FEW035 FEW250 12/M02 A3040 RMK AO2 SLP294 T01221017
2026-04-09 00:56:00,METAR KCHS 090056Z 07011KT 7SM SCT250 14/M03 A3038 RMK AO2 SLP287 T01391033
2026-04-08 23:56:00,METAR KCHS 082356Z 08009KT 10SM SCT250 15/M03 A3037 RMK AO2 SLP282 T01501028 10211 20150 53007
2026-04-08 22:56:00,METAR KCHS 082256Z 06010G20KT 10SM BKN250 17/M04 A3036 RMK AO2 SLP280 T01671039
2026-04-08 21:56:00,METAR KCHS 082156Z 08010G19KT 10SM SCT250 18/01 A3035 RMK AO2 SLP277 T01830006
2026-04-08 20:56:00,METAR KCHS 082056Z 09014G22KT 10SM FEW250 19/02 A3035 RMK AO2 SLP275 T01890017 55006
2026-04-08 19:56:00,METAR KCHS 081956Z 08014G22KT 10SM SCT250 19/01 A3034 RMK AO2 PK WND 05030/1919 WSHFT 1928 SLP274 T01890006 $
2026-04-08 19:47:00,SPECI KCHS 081947Z 11016G22KT 10SM SCT250 19/00 A3035 RMK AO2 PK WND 05030/1919 WSHFT 1928 T01940000 $
2026-04-08 18:56:00,METAR KCHS 081856Z 05013G27KT 10SM SCT250 21/M07 A3036 RMK AO2 PK WND 07027/1814 SLP279 T02061072
2026-04-08 17:56:00,METAR KCHS 081756Z 04013G21KT 10SM BKN250 20/M02 A3036 RMK AO2 PK WND 09030/1701 SLP281 T02001022 10206 20111 58007
2026-04-08 16:56:00,METAR KCHS 081656Z 06017G27KT 10SM BKN250 19/M03 A3038 RMK AO2 PK WND 05031/1622 SLP286 T01891033
2026-04-08 15:56:00,METAR KCHS 081556Z 07018G26KT 10SM BKN250 18/02 A3039 RMK AO2 PK WND 06028/1541 SLP289 T01830017
2026-04-08 14:56:00,METAR KCHS 081456Z 07014G25KT 10SM BKN250 17/04 A3038 RMK AO2 PK WND 05026/1435 SLP288 T01720039 53022
2026-04-08 13:56:00,METAR KCHS 081356Z 06013G27KT 10SM BKN250 14/05 A3036 RMK AO2 PK WND 04027/1351 SLP278 T01390050
2026-04-08 12:56:00,METAR KCHS 081256Z 04013KT 10SM BKN250 13/05 A3034 RMK AO2 SLP273 T01280050
2026-04-08 11:56:00,METAR KCHS 081156Z 03011G20KT 10SM BKN250 11/05 A3032 RMK AO2 SLP265 T01110050 10144 20106 53031
2026-04-08 10:56:00,METAR KCHS 081056Z 04012G20KT 10SM FEW120 FEW250 11/06 A3028 RMK AO2 SLP253 T01110061
2026-04-08 09:56:00,METAR KCHS 080956Z 03010KT 10SM FEW110 FEW250 11/08 A3025 RMK AO2 SLP243 T01110083
2026-04-08 08:56:00,METAR KCHS 080856Z 03010KT 10SM FEW250 12/09 A3023 RMK AO2 SLP234 T01170089 53009
2026-04-08 07:56:00,METAR KCHS 080756Z 05010KT 10SM FEW250 13/09 A3021 RMK AO2 SLP230 T01280094
2026-04-08 06:56:00,METAR KCHS 080656Z 06008KT 10SM FEW250 13/09 A3020 RMK AO2 SLP227 T01330094
2026-04-08 05:56:00,METAR KCHS 080556Z 04011KT 10SM SCT250 14/08 A3020 RMK AO2 SLP225 T01440078 10172 20139 58000
2026-04-08 04:56:00,METAR KCHS 080456Z 04008KT 10SM FEW250 14/08 A3020 RMK AO2 SLP226 T01440078 402110117
2026-04-08 03:56:00,METAR KCHS 080356Z 04008KT 10SM FEW250 15/07 A3020 RMK AO2 SLP227 T01500072
2026-04-08 02:56:00,METAR KCHS 080256Z 04008KT 10SM FEW250 16/07 A3020 RMK AO2 SLP226 T01560072 51012
2026-04-08 01:56:00,METAR KCHS 080156Z 03007KT 10SM FEW250 16/07 A3019 RMK AO2 SLP224 T01560067
2026-04-08 00:56:00,METAR KCHS 080056Z 03005KT 10SM FEW250 16/07 A3018 RMK AO2 SLP218 T01610067
2026-04-07 23:56:00,METAR KCHS 072356Z 03006KT 10SM SCT250 17/06 A3017 RMK AO2 SLP214 T01720061 10211 20172 53007
2026-04-07 22:56:00,METAR KCHS 072256Z 05008KT 10SM FEW150 BKN250 19/06 A3016 RMK AO2 SLP212 T01890056
2026-04-07 21:56:00,METAR KCHS 072156Z 03011KT 10SM FEW150 SCT250 20/06 A3015 RMK AO2 SLP208 T02000056
2026-04-07 20:56:00,METAR KCHS 072056Z 02012KT 10SM BKN150 21/06 A3014 RMK AO2 SLP207 T02060056 55007
2026-04-07 19:56:00,METAR KCHS 071956Z 04012KT 10SM FEW060 BKN150 21/06 A3014 RMK AO2 SLP206 T02060056
2026-04-07 18:56:00,METAR KCHS 071856Z 04010KT 10SM OVC150 21/06 A3016 RMK AO2 SLP212 T02060061
2026-04-07 17:56:00,METAR KCHS 071756Z 04010G21KT 10SM OVC150 21/04 A3017 RMK AO2 SLP214 T02060039 10206 20128 55005
2026-04-07 16:56:00,METAR KCHS 071656Z 03010KT 10SM BKN150 OVC200 19/04 A3016 RMK AO2 SLP214 T01940039
2026-04-07 15:56:00,METAR KCHS 071556Z 05012G18KT 10SM BKN150 OVC200 19/04 A3018 RMK AO2 SLP218 T01890039
2026-04-07 14:56:00,METAR KCHS 071456Z 05010KT 10SM OVC150 17/07 A3018 RMK AO2 SLP219 T01720067 53008
2026-04-07 13:56:00,METAR KCHS 071356Z 03006KT 10SM BKN150 OVC200 16/09 A3017 RMK AO2 SLP217 T01560089
2026-04-07 12:56:00,METAR KCHS 071256Z 02007KT 10SM BKN150 OVC200 14/09 A3016 RMK AO2 SLP213 T01390094
2026-04-07 11:56:00,METAR KCHS 071156Z 02007KT 10SM BKN150 BKN200 13/09 A3016 RMK AO2 SLP211 T01280094 10133 20117 53009
2026-04-07 10:56:00,METAR KCHS 071056Z 01007KT 10SM BKN150 12/10 A3014 RMK AO2 SLP206 T01220100
2026-04-07 09:56:00,METAR KCHS 070956Z 36006KT 10SM BKN150 12/10 A3013 RMK AO2 SLP201 T01220100
2026-04-07 08:56:00,METAR KCHS 070856Z 01005KT 10SM BKN150 12/09 A3013 RMK AO2 SLP202 T01220094 55001
2026-04-07 07:56:00,METAR KCHS 070756Z 02005KT 10SM BKN200 13/09 A3012 RMK AO2 SLP199 T01280094
2026-04-07 06:56:00,METAR KCHS 070656Z 01003KT 10SM BKN200 12/09 A3013 RMK AO2 SLP200 T01220089
2026-04-07 05:56:00,METAR KCHS 070556Z 06005KT 10SM BKN200 13/09 A3013 RMK AO2 SLP202 T01330089 10167 20133 58003
2026-04-07 04:56:00,METAR KCHS 070456Z 04004KT 10SM BKN150 14/08 A3014 RMK AO2 SLP205 T01390083 402060139
2026-04-07 03:56:00,METAR KCHS 070356Z 01004KT 10SM OVC150 14/08 A3014 RMK AO2 SLP204 T01440078
2026-04-07 02:56:00,METAR KCHS 070256Z 05006KT 10SM OVC150 16/06 A3014 RMK AO2 SLP206 T01560061 50010
2026-04-07 01:56:00,METAR KCHS 070156Z 02004KT 10SM FEW080 BKN120 16/06 A3015 RMK AO2 SLP208 T01560056
2026-04-07 00:56:00,METAR KCHS 070056Z 35005KT 10SM SCT120 BKN180 16/06 A3013 RMK AO2 SLP204 T01560061
2026-04-06 23:56:00,METAR KCHS 062356Z 05006KT 10SM FEW050 OVC110 17/06 A3011 RMK AO2 SLP195 T01670056 10200 20161 53003
2026-04-06 22:56:00,METAR KCHS 062256Z 01009KT 10SM BKN120 18/04 A3010 RMK AO2 SLP193 T01780044
2026-04-06 21:56:00,METAR KCHS 062156Z 01010KT 10SM FEW055 BKN120 18/04 A3010 RMK AO2 SLP191 T01830044
2026-04-06 20:56:00,METAR KCHS 062056Z 01011G15KT 10SM FEW060 BKN120 19/06 A3010 RMK AO2 SLP192 T01940061 56014
2026-04-06 19:56:00,METAR KCHS 061956Z VRB04KT 10SM FEW060 BKN120 19/06 A3012 RMK AO2 SLP198 T01940056
2026-04-06 18:56:00,METAR KCHS 061856Z 03009KT 10SM SCT120 BKN200 20/06 A3013 RMK AO2 SLP200 T02000056
2026-04-06 17:56:00,METAR KCHS 061756Z COR 02005KT 10SM FEW050 BKN120 19/05 A3014 RMK AO2 SLP206 T01940050 10194 20144 58006
2026-04-06 16:56:00,METAR KCHS 061656Z 04012G17KT 10SM FEW050 SCT100 BKN200 19/05 A3015 RMK AO2 SLP209 T01890050
2026-04-06 15:56:00,METAR KCHS 061556Z 06010G21KT 10SM FEW050 SCT100 BKN200 18/04 A3016 RMK AO2 SLP212 T01830044
2026-04-06 14:56:00,METAR KCHS 061456Z 04011G24KT 10SM FEW050 SCT100 BKN200 17/04 A3016 RMK AO2 SLP213 T01720039 51017
2026-04-06 13:56:00,METAR KCHS 061356Z 03017G27KT 10SM FEW050 SCT100 BKN250 17/04 A3015 RMK AO2 PK WND 03027/1353 SLP208 T01670039
2026-04-06 12:56:00,METAR KCHS 061256Z 03013G23KT 10SM BKN050 16/05 A3014 RMK AO2 SLP205 T01560050
2026-04-06 11:56:00,METAR KCHS 061156Z 02014G24KT 10SM SCT050 BKN065 BKN100 15/05 A3011 RMK AO2 PK WND 03029/1059 SLP195 60000 70001 T01500050 10200 20150 53031
2026-04-06 10:56:00,METAR KCHS 061056Z 02017G31KT 10SM BKN065 BKN100 15/06 A3007 RMK AO2 PK WND 04031/1049 SLP182 T01500056
2026-04-06 09:56:00,METAR KCHS 060956Z 02016G23KT 10SM FEW020 SCT050 BKN090 16/09 A3004 RMK AO2 PK WND 02028/0908 SLP171 T01610089
2026-04-06 08:56:00,METAR KCHS 060856Z 02013G23KT 10SM SCT020 SCT050 BKN120 18/14 A3002 RMK AO2 SLP164 60000 T01780144 55001
2026-04-06 07:56:00,METAR KCHS 060756Z 33008KT 10SM FEW040 SCT090 SCT110 18/17 A3000 RMK AO2 SLP159 T01830167
2026-04-06 06:56:00,METAR KCHS 060656Z 31005KT 10SM FEW040 SCT100 BKN110 19/18 A3001 RMK AO2 RAE02 SLP162 P0000 T01940183
2026-04-06 05:56:00,METAR KCHS 060556Z 30004KT 10SM -RA SCT009 SCT040 OVC110 20/19 A3002 RMK AO2 RAB52 SLP165 P0000 60000 T02000194 10211 20200 56005
2026-04-06 05:40:00,SPECI KCHS 060540Z 28004KT 10SM SCT009 BKN110 21/19 A3002 RMK AO2 T02060194
2026-04-06 04:56:00,METAR KCHS 060456Z 26004KT 10SM BKN009 BKN100 21/19 A3003 RMK AO2 SLP167 T02060194 402890178
2026-04-06 03:56:00,METAR KCHS 060356Z 26005KT 10SM FEW045 OVC100 21/19 A3003 RMK AO2 RAB25E55 SLP167 P0000 T02060194
2026-04-06 02:56:00,METAR KCHS 060256Z 24008KT 10SM FEW045 BKN130 21/19 A3004 RMK AO2 SLP170 T02110194 51015
2026-04-06 01:56:00,METAR KCHS 060156Z 23008KT 10SM BKN110 21/19 A3003 RMK AO2 SLP169 T02060189
2026-04-06 00:56:00,METAR KCHS 060056Z 21010KT 10SM BKN100 BKN130 21/19 A3000 RMK AO2 SLP160 T02060189
2026-04-05 23:56:00,METAR KCHS 052356Z 20012KT 10SM FEW060 BKN110 OVC130 21/19 A2999 RMK AO2 SLP155 60001 T02060189 10289 20206 51009
2026-04-05 22:56:00,METAR KCHS 052256Z 20012KT 10SM SCT060 BKN100 OVC120 21/19 A2999 RMK AO2 RAE21 SLP155 P0000 T02110194
2026-04-05 21:56:00,METAR KCHS 052156Z 20011KT 10SM -RA SCT033 BKN070 OVC095 22/20 A2999 RMK AO2 RAB04 SLP154 OCNL LTGIC NW-NE CB DSNT NW-NE P0001 T02170200
2026-04-05 20:56:00,METAR KCHS 052056Z 19016G27KT 10SM BKN047 BKN070 OVC130 24/19 A2997 RMK AO2 PK WND 19027/2050 SLP146 OCNL LTGIC DSNT W-N CB DSNT W-N T02390189 56022
2026-04-05 19:56:00,METAR KCHS 051956Z 19016KT 10SM SCT033 BKN060 BKN130 BKN250 26/19 A2998 RMK AO2 SLP152 OCNL LTGIC DSNT N AND NW CB DSNT N AND NW T02610194
2026-04-05 18:56:00,METAR KCHS 051856Z 18017G24KT 10SM SCT043 SCT085 BKN110 BKN250 28/19 A3001 RMK AO2 SLP160 T02780194
2026-04-05 17:56:00,METAR KCHS 051756Z 22012G21KT 10SM SCT039 SCT050 BKN070 BKN250 28/18 A3003 RMK AO2 SLP168 T02830183 10289 20194 58025
2026-04-05 16:56:00,METAR KCHS 051656Z 18012G19KT 10SM BKN035 BKN055 BKN080 BKN250 28/18 A3006 RMK AO2 SLP180 T02780183
2026-04-05 15:56:00,METAR KCHS 051556Z 21011G20KT 10SM SCT030 BKN075 BKN250 27/17 A3009 RMK AO2 SLP190 T02720172
2026-04-05 14:56:00,METAR KCHS 051456Z 22012G22KT 10SM SCT024 BKN080 BKN250 26/18 A3010 RMK AO2 SLP193 T02610183 56011
2026-04-05 13:12:00,SPECI KCHS 051312Z 22008KT 10SM SCT009 BKN017 BKN250 22/20 A3012 RMK AO2 T02220200
2026-04-05 12:56:00,METAR KCHS 051256Z 20009KT 10SM SCT009 SCT017 BKN250 22/20 A3012 RMK AO2 SLP200 T02170200
2026-04-05 12:50:00,SPECI KCHS 051250Z 21009KT 10SM FEW009 SCT017 BKN250 22/20 A3013 RMK AO2 T02170200
2026-04-05 11:56:00,METAR KCHS 051156Z 18005KT 10SM FEW018 FEW030 SCT250 19/19 A3014 RMK AO2 SLP204 T01940189 10200 20178 53002 $
2026-04-05 10:56:00,METAR KCHS 051056Z 23003KT 10SM SCT028 SCT037 BKN250 18/18 A3013 RMK AO2 SLP203 T01830178 $
2026-04-05 09:56:00,METAR KCHS 050956Z 20004KT 10SM SCT031 18/18 A3013 RMK AO2 SLP203 T01830178 $
2026-04-05 08:56:00,METAR KCHS 050856Z 19005KT 10SM CLR 18/18 A3013 RMK AO2 SLP202 T01830178 56013 $
2026-04-05 07:56:00,METAR KCHS 050756Z VRB04KT 10SM CLR 19/18 A3014 RMK AO2 SLP206 T01890178 $
2026-04-05 06:56:00,METAR KCHS 050656Z 20005KT 10SM FEW200 18/17 A3015 RMK AO2 SLP210 T01830172 $
2026-04-05 05:56:00,METAR KCHS 050556Z 19007KT 10SM CLR 20/18 A3017 RMK AO2 SLP215 T02000178 10222 20189 58008 $
2026-04-05 04:56:00,METAR KCHS 050456Z 18009KT 10SM CLR 21/18 A3018 RMK AO2 SLP218 T02060178 402830156 $
2026-04-05 03:56:00,METAR KCHS 050356Z 17008KT 10SM CLR 20/18 A3019 RMK AO2 SLP222 T02000178 $
2026-04-05 02:56:00,METAR KCHS 050256Z 18005KT 10SM CLR 19/18 A3019 RMK AO2 SLP223 T01940178 50005 $
2026-04-05 01:56:00,METAR KCHS 050156Z 18006KT 10SM CLR 20/17 A3020 RMK AO2 SLP225 T02000172
2026-04-05 00:56:00,METAR KCHS 050056Z 18007KT 10SM CLR 21/17 A3019 RMK AO2 SLP221 T02060172
2026-04-04 23:56:00,METAR KCHS 042356Z 18009KT 10SM FEW200 22/17 A3018 RMK AO2 SLP219 T02220167 10283 20222 55007
2026-04-04 22:56:00,METAR KCHS 042256Z 16014KT 10SM FEW200 24/16 A3018 RMK AO2 SLP217 T02390156
2026-04-04 21:56:00,METAR KCHS 042156Z 15013KT 10SM FEW041 FEW075 26/16 A3019 RMK AO2 SLP221 T02560161
2026-04-04 20:56:00,METAR KCHS 042056Z 16014KT 10SM SCT042 SCT075 SCT250 27/16 A3020 RMK AO2 SLP225 T02670161 56017
2026-04-04 19:56:00,METAR KCHS 041956Z 17013KT 10SM SCT040 SCT049 BKN200 27/16 A3021 RMK AO2 SLP228 T02720161
2026-04-04 18:56:00,METAR KCHS 041856Z 17014G19KT 10SM BKN035 BKN048 28/18 A3023 RMK AO2 SLP236 T02780178
2026-04-04 17:56:00,METAR KCHS 041756Z 17012G21KT 10SM BKN038 BKN048 27/18 A3025 RMK AO2 SLP242 T02720183 10278 20178 58014
2026-04-04 16:56:00,METAR KCHS 041656Z 17012KT 10SM BKN031 BKN035 27/18 A3027 RMK AO2 SLP249 T02720183
2026-04-04 15:56:00,METAR KCHS 041556Z 16010KT 10SM SCT028 BKN036 27/18 A3028 RMK AO2 SLP253 T02670183
2026-04-04 14:56:00,METAR KCHS 041456Z 17009KT 10SM SCT025 BKN032 BKN250 26/18 A3029 RMK AO2 SLP256 T02560183 51001
2026-04-04 13:56:00,METAR KCHS 041356Z 16011KT 10SM SCT028 SCT048 BKN250 24/19 A3029 RMK AO2 SLP255 T02390189
2026-04-04 12:56:00,METAR KCHS 041256Z 15006KT 10SM SCT034 BKN044 BKN250 21/19 A3029 RMK AO2 SLP255 T02110194
2026-04-04 12:33:00,SPECI KCHS 041233Z 14004KT 10SM SCT034 SCT048 BKN250 21/19 A3028 RMK AO2 T02060194
2026-04-04 11:56:00,METAR KCHS 041156Z 00000KT 10SM BKN024 BKN034 BKN050 17/17 A3028 RMK AO2 SLP254 T01720172 10172 20156 53008
2026-04-04 10:56:00,METAR KCHS 041056Z 00000KT 7SM R15/2400VP6000FT MIFG FEW044 FEW050 16/16 A3027 RMK AO2 SLP248 T01610161
2026-04-04 09:56:00,METAR KCHS 040956Z 00000KT 10SM FEW050 FEW250 16/16 A3026 RMK AO2 SLP246 T01610161
2026-04-04 09:28:00,SPECI KCHS 040928Z 00000KT 10SM SCT050 16/16 A3026 RMK AO2 T01610161
2026-04-04 08:56:00,METAR KCHS 040856Z 00000KT 10SM BKN021 BKN027 16/16 A3026 RMK AO2 SLP246 T01610161 56003
2026-04-04 07:56:00,METAR KCHS 040756Z 00000KT 10SM SCT024 17/16 A3026 RMK AO2 SLP246 T01720161
2026-04-04 06:56:00,METAR KCHS 040656Z 00000KT 10SM BKN250 17/16 A3027 RMK AO2 SLP249 T01670161
2026-04-04 05:56:00,METAR KCHS 040556Z 00000KT 10SM BKN250 17/16 A3028 RMK AO2 SLP251 T01670161 10217 20167 58009
2026-04-04 04:56:00,METAR KCHS 040456Z 00000KT 10SM SCT040 18/17 A3029 RMK AO2 SLP255 T01780167 402720156
2026-04-04 03:56:00,METAR KCHS 040356Z 00000KT 10SM CLR 18/16 A3029 RMK AO2 SLP257 T01830161
2026-04-04 02:56:00,METAR KCHS 040256Z 14003KT 10SM CLR 19/16 A3030 RMK AO2 SLP260 T01940161 51012
2026-04-04 01:56:00,METAR KCHS 040156Z 14006KT 10SM CLR 20/16 A3030 RMK AO2 SLP258 T02000161
2026-04-04 00:56:00,METAR KCHS 040056Z 14006KT 10SM CLR 20/16 A3028 RMK AO2 SLP252 T02000161
2026-04-03 23:56:00,METAR KCHS 032356Z 15007KT 10SM FEW110 FEW200 21/16 A3027 RMK AO2 SLP248 T02110156 10267 20211 58006
2026-04-03 22:56:00,METAR KCHS 032256Z 14011KT 10SM FEW090 SCT200 24/16 A3027 RMK AO2 SLP249 T02390156
2026-04-03 21:56:00,METAR KCHS 032156Z 14012KT 10SM FEW044 FEW095 SCT200 26/14 A3028 RMK AO2 SLP253 T02560144
2026-04-03 20:56:00,METAR KCHS 032056Z 17012KT 10SM SCT040 SCT200 26/15 A3028 RMK AO2 SLP254 T02610150 58012
2026-04-03 19:56:00,METAR KCHS 031956Z 17012G19KT 10SM SCT038 BKN046 BKN060 26/16 A3030 RMK AO2 SLP259 T02610161
2026-04-03 18:56:00,METAR KCHS 031856Z 16012G20KT 10SM BKN035 BKN050 26/17 A3031 RMK AO2 SLP263 T02610167
2026-04-03 17:56:00,METAR KCHS 031756Z 16012KT 10SM BKN040 27/16 A3032 RMK AO2 SLP266 60000 T02670161 10272 20200 58010
2026-04-03 17:26:00,SPECI KCHS 031726Z 15011KT 10SM SCT035 SCT055 26/17 A3033 RMK AO2 T02560167
2026-04-03 16:56:00,METAR KCHS 031656Z 14011G18KT 10SM BKN025 BKN043 BKN050 26/17 A3034 RMK AO2 SLP272 T02560167
2026-04-03 15:56:00,METAR KCHS 031556Z 15012KT 10SM BKN025 BKN035 BKN045 25/18 A3035 RMK AO2 RAB04E24 SLP276 P0000 T02500178
2026-04-03 15:13:00,SPECI KCHS 031513Z 21008G20KT 8SM -RA BKN025 BKN035 22/19 A3035 RMK AO2 RAB04 P0000 T02220194
2026-04-03 14:56:00,METAR KCHS 031456Z 15009G15KT 100V190 10SM SCT025 SCT035 25/18 A3035 RMK AO2 SLP277 T02500183 51015
2026-04-03 13:56:00,METAR KCHS 031356Z 14004KT 10SM BKN060 23/19 A3034 RMK AO2 SLP274 T02280189
2026-04-03 13:38:00,SPECI KCHS 031338Z 00000KT 10SM FEW055 22/18 A3034 RMK AO2 T02220183
2026-04-03 12:56:00,METAR KCHS 031256Z 18004KT 10SM BKN025 BKN045 22/19 A3033 RMK AO2 SLP271 T02170189
2026-04-03 12:33:00,SPECI KCHS 031233Z 00000KT 10SM BKN025 21/19 A3033 RMK AO2 T02110189
2026-04-03 11:56:00,METAR KCHS 031156Z 09004KT 10SM FEW055 20/18 A3031 RMK AO2 SLP262 T02000183 10200 20156 53018 $
2026-04-03 10:56:00,METAR KCHS 031056Z 13004KT 10SM FEW030 19/18 A3027 RMK AO2 SLP249 T01890178 $
2026-04-03 09:56:00,METAR KCHS 030956Z 14004KT 10SM FEW030 18/18 A3026 RMK AO2 SLP244 T01830178 $
2026-04-03 08:56:00,METAR KCHS 030856Z 12007KT 7SM MIFG FEW020 SCT120 19/18 A3025 RMK AO2 SLP244 T01890178 58009 $
2026-04-03 07:56:00,METAR KCHS 030756Z 00000KT 7SM MIFG FEW020 SCT030 BKN095 18/17 A3028 RMK AO2 SLP252 T01780172
2026-04-03 06:56:00,METAR KCHS 030656Z 00000KT 7SM MIFG SCT035 16/16 A3027 RMK AO2 SLP251 T01560156
2026-04-03 05:56:00,METAR KCHS 030556Z 00000KT 10SM FEW200 17/17 A3028 RMK AO2 SLP253 T01720172 10200 20167 58002
2026-04-03 04:56:00,METAR KCHS 030456Z 00000KT 10SM FEW200 17/17 A3028 RMK AO2 SLP254 T01670167 402720150
2026-04-03 03:56:00,METAR KCHS 030356Z 10004KT 10SM FEW030 FEW040 19/18 A3029 RMK AO2 SLP255 T01890178
2026-04-03 02:56:00,METAR KCHS 030256Z 12005KT 10SM SCT030 SCT040 19/17 A3029 RMK AO2 SLP255 T01890172 51007
2026-04-03 01:56:00,METAR KCHS 030156Z 07003KT 10SM BKN033 19/17 A3028 RMK AO2 SLP254 T01890172
2026-04-03 00:56:00,METAR KCHS 030056Z 09007KT 10SM FEW029 FEW036 FEW060 19/17 A3028 RMK AO2 SLP252 T01890167
2026-04-02 23:56:00,METAR KCHS 022356Z 10006KT 10SM FEW042 FEW060 20/17 A3027 RMK AO2 SLP249 T02000167 10267 20200 53006
2026-04-02 22:56:00,METAR KCHS 022256Z 11011KT 10SM SCT048 BKN065 BKN150 21/17 A3025 RMK AO2 SLP243 T02110172
2026-04-02 21:56:00,METAR KCHS 022156Z 11013G20KT 10SM FEW037 BKN050 BKN080 23/17 A3024 RMK AO2 SLP240 T02280172
2026-04-02 20:56:00,METAR KCHS 022056Z 11013KT 10SM BKN037 BKN060 BKN085 24/16 A3025 RMK AO2 SLP243 T02440156 56010
2026-04-02 19:56:00,METAR KCHS 021956Z 12009KT 10SM BKN060 BKN080 BKN200 26/16 A3025 RMK AO2 SLP244 T02560156
2026-04-02 18:56:00,METAR KCHS 021856Z 12012G16KT 10SM SCT060 BKN080 BKN150 25/14 A3027 RMK AO2 SLP248 T02500139
2026-04-02 17:56:00,METAR KCHS 021756Z 16010G17KT 10SM FEW045 SCT065 SCT180 26/13 A3028 RMK AO2 SLP253 T02610133 10272 20167 58013
2026-04-02 16:56:00,METAR KCHS 021656Z 24004KT 10SM SCT045 SCT250 26/13 A3030 RMK AO2 SLP260 T02610128
2026-04-02 15:56:00,METAR KCHS 021556Z 10005KT 10SM FEW040 SCT250 25/12 A3031 RMK AO2 SLP265 T02500122
2026-04-02 14:56:00,METAR KCHS 021456Z 20007KT 10SM SCT040 BKN250 25/14 A3032 RMK AO2 SLP265 T02500139 51020
2026-04-02 13:56:00,METAR KCHS 021356Z 16008KT 10SM SCT040 BKN250 23/16 A3031 RMK AO2 SLP262 T02280156
2026-04-02 12:56:00,METAR KCHS 021256Z 00000KT 10SM FEW045 SCT250 21/18 A3028 RMK AO2 SLP254 T02060183
2026-04-02 11:56:00,METAR KCHS 021156Z 00000KT 7SM MIFG FEW040 SCT100 SCT250 17/16 A3026 RMK AO2 SLP245 T01670161 10183 20150 53021
2026-04-02 10:56:00,METAR KCHS 021056Z 01003KT 7SM MIFG FEW030 SCT250 16/16 A3023 RMK AO2 SLP234 T01560156
2026-04-02 09:56:00,METAR KCHS 020956Z 00000KT 10SM SCT030 17/17 A3020 RMK AO2 SLP227 T01720167
2026-04-02 08:56:00,METAR KCHS 020856Z 12004KT 10SM SCT035 17/16 A3020 RMK AO2 SLP224 T01670161 56012
2026-04-02 07:56:00,METAR KCHS 020756Z 19003KT 10SM SCT250 17/17 A3020 RMK AO2 SLP226 T01720167
2026-04-02 06:56:00,METAR KCHS 020656Z 00000KT 10SM SCT250 18/17 A3022 RMK AO2 SLP231 T01780167
2026-04-02 05:56:00,METAR KCHS 020556Z 18003KT 10SM SCT250 18/17 A3023 RMK AO2 SLP236 T01780167 10211 20172 58001
2026-04-02 04:56:00,METAR KCHS 020456Z 20003KT 10SM FEW250 17/17 A3024 RMK AO2 SLP238 T01720167 402830144
2026-04-02 03:56:00,METAR KCHS 020356Z 21005KT 10SM FEW250 18/17 A3023 RMK AO2 SLP237 T01780167
2026-04-02 02:56:00,METAR KCHS 020256Z 16003KT 10SM FEW250 18/17 A3023 RMK AO2 SLP236 T01830167 51014
2026-04-02 01:56:00,METAR KCHS 020156Z 16004KT 10SM FEW250 19/17 A3022 RMK AO2 SLP233 T01940172
2026-04-02 00:56:00,METAR KCHS 020056Z 18008KT 10SM SCT250 20/17 A3021 RMK AO2 SLP228 T02000172
2026-04-01 23:56:00,METAR KCHS 012356Z 18010KT 10SM FEW110 SCT250 21/17 A3019 RMK AO2 SLP222 T02110167 10283 20211 53002
2026-04-01 22:56:00,METAR KCHS 012256Z 16015KT 10SM SCT250 23/16 A3018 RMK AO2 SLP220 T02330161
2026-04-01 21:56:00,METAR KCHS 012156Z 16012KT 10SM SCT250 26/15 A3018 RMK AO2 SLP218 T02560150
2026-04-01 20:56:00,METAR KCHS 012056Z 17013KT 10SM FEW050 FEW060 SCT250 26/15 A3018 RMK AO2 SLP220 T02610150 56022
2026-04-01 19:56:00,METAR KCHS 011956Z 19008KT 10SM FEW049 FEW075 SCT250 28/15 A3019 RMK AO2 SLP223 T02780150
2026-04-01 18:56:00,METAR KCHS 011856Z 17010KT 10SM SCT049 SCT065 SCT250 28/16 A3022 RMK AO2 SLP232 T02780156
2026-04-01 17:56:00,METAR KCHS 011756Z 24004KT 10SM FEW050 FEW200 27/14 A3025 RMK AO2 SLP242 T02720144 10278 20156 58017
2026-04-01 16:56:00,METAR KCHS 011656Z 19006KT 10SM FEW040 SCT065 BKN200 26/14 A3027 RMK AO2 SLP250 T02560144 $
2026-04-01 15:56:00,METAR KCHS 011556Z 22007KT 10SM SCT070 26/15 A3029 RMK AO2 SLP255 T02560150 $
2026-04-01 14:56:00,METAR KCHS 011456Z VRB03KT 10SM BKN060 22/17 A3030 RMK AO2 SLP259 T02220172 51014 $
2026-04-01 13:56:00,METAR KCHS 011356Z 21003KT 10SM BKN065 21/17 A3029 RMK AO2 SLP256 T02060172 $
2026-04-01 12:56:00,METAR KCHS 011256Z 21003KT 10SM BKN070 18/17 A3028 RMK AO2 SLP253 T01830172 $
2026-04-01 11:56:00,METAR KCHS 011156Z 00000KT 7SM MIFG FEW060 SCT200 16/16 A3026 RMK AO2 SLP245 T01560156 10172 20144 53020
2026-04-01 10:56:00,METAR KCHS 011056Z 00000KT 7SM MIFG SCT060 SCT200 16/16 A3023 RMK AO2 SLP237 T01610161
2026-04-01 09:56:00,METAR KCHS 010956Z 00000KT 7SM R15/3000VP6000FT MIFG FEW060 16/16 A3022 RMK AO2 SLP231 T01610161 $
2026-04-01 08:56:00,METAR KCHS 010856Z 00000KT 7SM MIFG FEW250 16/16 A3020 RMK AO2 SLP225 T01610161 56010 $
2026-04-01 07:56:00,METAR KCHS 010756Z 20004KT 7SM MIFG SCT250 16/16 A3020 RMK AO2 SLP226 T01610161 $
2026-04-01 06:56:00,METAR KCHS 010656Z 18003KT 9SM FEW250 17/16 A3021 RMK AO2 SLP229 T01670161 $
2026-04-01 05:56:00,METAR KCHS 010556Z 20004KT 10SM FEW250 17/16 A3023 RMK AO2 SLP235 T01670156 10200 20161 58009 $
2026-04-01 04:56:00,METAR KCHS 010456Z 19006KT 10SM FEW250 17/16 A3024 RMK AO2 SLP240 T01670161 402720128 $
2026-04-01 03:56:00,METAR KCHS 010356Z 19004KT 10SM FEW250 17/16 A3025 RMK AO2 SLP244 T01720161 $
2026-04-01 02:56:00,METAR KCHS 010256Z 18005KT 10SM FEW100 18/16 A3026 RMK AO2 SLP245 T01830161 51004 $
2026-04-01 01:56:00,METAR KCHS 010156Z 16008KT 10SM SCT100 19/16 A3025 RMK AO2 SLP244 T01890161 $
2026-04-01 00:56:00,METAR KCHS 010056Z 15005KT 10SM FEW250 19/16 A3025 RMK AO2 SLP243 T01890161 $
2026-03-31 23:56:00,METAR KCHS 312356Z 19007KT 10SM FEW110 20/15 A3024 RMK AO2 SLP241 T02000150 10272 20200 53001 $
2026-03-31 22:56:00,METAR KCHS 312256Z 16011KT 10SM SCT100 22/14 A3024 RMK AO2 SLP239 T02220144 $
2026-03-31 21:56:00,METAR KCHS 312156Z 18008KT 10SM BKN110 23/14 A3023 RMK AO2 SLP237 T02330139 $
2026-03-31 20:56:00,METAR KCHS 312056Z 16014G20KT 10SM BKN110 24/14 A3024 RMK AO2 SLP240 T02440144 56023
2026-03-31 19:56:00,METAR KCHS 311956Z 17010KT 10SM FEW050 BKN100 24/14 A3026 RMK AO2 SLP248 T02440139
2026-03-31 18:56:00,METAR KCHS 311856Z 15010G18KT 10SM FEW045 BKN060 27/14 A3028 RMK AO2 SLP253 T02670144
2026-03-31 17:56:00,METAR KCHS 311756Z 16010KT 10SM BKN050 24/14 A3031 RMK AO2 SLP263 T02440139 10267 20144 58016
2026-03-31 16:56:00,METAR KCHS 311656Z 18008KT 10SM BKN050 26/14 A3033 RMK AO2 SLP270 T02560139
2026-03-31 15:56:00,METAR KCHS 311556Z 22005KT 10SM SCT045 24/13 A3035 RMK AO2 SLP277 T02440128
2026-03-31 14:56:00,METAR KCHS 311456Z 18006KT 10SM FEW040 24/13 A3036 RMK AO2 SLP279 T02390133 50006
2026-03-31 13:56:00,METAR KCHS 311356Z 17007KT 10SM CLR 22/14 A3036 RMK AO2 SLP279 T02220144
2026-03-31 12:56:00,METAR KCHS 311256Z 14003KT 10SM CLR 19/16 A3036 RMK AO2 SLP279 T01890156
2026-03-31 11:56:00,METAR KCHS 311156Z 00000KT 7SM CLR 14/13 A3034 RMK AO2 SLP273 T01440133 10156 20128 53013
2026-03-31 10:56:00,METAR KCHS 311056Z 00000KT 7SM MIFG CLR 13/13 A3032 RMK AO2 SLP268 T01330133
2026-03-31 09:56:00,METAR KCHS 310956Z 00000KT 7SM MIFG FEW250 13/13 A3031 RMK AO2 SLP264 T01330133 $
2026-03-31 08:56:00,METAR KCHS 310856Z 00000KT 7SM MIFG FEW250 14/14 A3030 RMK AO2 SLP260 T01390139 56008 $
2026-03-31 07:56:00,METAR KCHS 310756Z 00000KT 7SM MIFG FEW200 14/14 A3031 RMK AO2 SLP262 T01390139 $
2026-03-31 06:56:00,METAR KCHS 310656Z 00000KT 10SM FEW200 16/14 A3031 RMK AO2 SLP264 T01560144 $
2026-03-31 05:56:00,METAR KCHS 310556Z 00000KT 10SM FEW200 14/13 A3033 RMK AO2 SLP268 T01440133 10194 20139 58008 $
2026-03-31 04:56:00,METAR KCHS 310456Z 13003KT 10SM FEW200 16/13 A3034 RMK AO2 SLP272 T01560133 402500089 $
2026-03-31 03:56:00,METAR KCHS 310356Z 14004KT 10SM FEW200 16/13 A3035 RMK AO2 SLP276 T01560133 $
2026-03-31 02:56:00,METAR KCHS 310256Z 15004KT 10SM FEW200 16/13 A3035 RMK AO2 SLP277 T01560133 50005 $
2026-03-31 01:56:00,METAR KCHS 310156Z 15005KT 10SM CLR 16/13 A3035 RMK AO2 SLP278 T01610133 $
2026-03-31 00:56:00,METAR KCHS 310056Z 14007KT 10SM CLR 18/13 A3034 RMK AO2 SLP273 T01780133 $
2026-03-30 23:56:00,METAR KCHS 302356Z 15005KT 10SM FEW050 BKN065 19/13 A3034 RMK AO2 SLP271 T01940128 10244 20194 56002
2026-03-30 22:56:00,METAR KCHS 302256Z 16011KT 10SM SCT055 BKN070 22/13 A3034 RMK AO2 SLP272 T02170128
2026-03-30 21:56:00,METAR KCHS 302156Z 17011KT 10SM BKN065 BKN080 22/13 A3034 RMK AO2 SLP273 T02170133
2026-03-30 20:56:00,METAR KCHS 302056Z 14013KT 10SM SCT060 BKN075 22/13 A3034 RMK AO2 SLP274 T02220128 56017
2026-03-30 19:56:00,METAR KCHS 301956Z 15014KT 10SM FEW060 BKN080 22/13 A3036 RMK AO2 SLP279 T02170133
2026-03-30 18:56:00,METAR KCHS 301856Z 15011KT 10SM FEW050 BKN065 23/12 A3037 RMK AO2 SLP284 T02330122
2026-03-30 17:56:00,METAR KCHS 301756Z 17012G17KT 10SM FEW050 SCT120 SCT250 24/12 A3039 RMK AO2 SLP290 T02390117 10250 20122 58019
2026-03-30 16:56:00,METAR KCHS 301656Z VRB05KT 10SM SCT045 SCT120 23/11 A3041 RMK AO2 SLP296 T02330111
2026-03-30 15:56:00,METAR KCHS 301556Z VRB03KT 10SM FEW040 FEW120 23/11 A3043 RMK AO2 SLP305 T02330111
2026-03-30 14:56:00,METAR KCHS 301456Z 15006KT 10SM CLR 22/09 A3045 RMK AO2 SLP309 T02220094 51013
2026-03-30 13:56:00,METAR KCHS 301356Z 08006KT 10SM FEW250 21/11 A3044 RMK AO2 SLP306 T02060111
2026-03-30 12:56:00,METAR KCHS 301256Z 05003KT 10SM FEW250 16/12 A3042 RMK AO2 SLP302 T01610122
2026-03-30 11:56:00,METAR KCHS 301156Z 04003KT 10SM CLR 12/11 A3041 RMK AO2 SLP296 T01170106 10122 20089 53011
2026-03-30 10:56:00,METAR KCHS 301056Z 05003KT 7SM FEW080 FEW200 11/10 A3039 RMK AO2 SLP290 T01060100 $
2026-03-30 09:56:00,METAR KCHS 300956Z 05003KT 10SM FEW200 11/11 A3038 RMK AO2 SLP287 T01110106 $
2026-03-30 08:56:00,METAR KCHS 300856Z 03003KT 10SM FEW200 10/09 A3038 RMK AO2 SLP285 T01000094 56017 $
2026-03-30 07:56:00,METAR KCHS 300756Z 00000KT 10SM FEW040 11/10 A3039 RMK AO2 SLP288 T01060100 $
2026-03-30 06:56:00,METAR KCHS 300656Z 05003KT 10SM FEW045 11/10 A3040 RMK AO2 SLP295 T01110100 $
2026-03-30 05:56:00,METAR KCHS 300556Z 05004KT 10SM SCT045 BKN060 12/11 A3043 RMK AO2 SLP302 T01220106 10167 20111 58012 $
2026-03-30 04:56:00,METAR KCHS 300456Z 04005KT 10SM SCT045 SCT065 12/11 A3045 RMK AO2 SLP309 T01220106 402110061 $
2026-03-30 03:56:00,METAR KCHS 300356Z 05005KT 10SM FEW050 13/11 A3046 RMK AO2 SLP313 T01280106 $
2026-03-30 02:56:00,METAR KCHS 300256Z 06007KT 10SM FEW035 SCT065 14/11 A3046 RMK AO2 SLP314 T01390106 50002 $
2026-03-30 01:56:00,METAR KCHS 300156Z 06005KT 10SM BKN065 14/10 A3046 RMK AO2 SLP315 T01440100 $
2026-03-30 00:56:00,METAR KCHS 300056Z 06006KT 10SM FEW060 15/10 A3046 RMK AO2 SLP314 T01500100 $
2026-03-29 23:56:00,METAR KCHS 292356Z 08007KT 10SM FEW055 17/09 A3045 RMK AO2 SLP312 T01670094 10211 20167 58008 $
2026-03-29 22:56:00,METAR KCHS 292256Z 10011KT 10SM SCT055 18/09 A3047 RMK AO2 SLP316 T01780094 $
2026-03-29 21:56:00,METAR KCHS 292156Z 10010KT 10SM SCT040 BKN055 BKN070 19/09 A3047 RMK AO2 SLP316 T01890094 $
2026-03-29 20:56:00,METAR KCHS 292056Z 12012KT 10SM BKN047 BKN060 19/09 A3048 RMK AO2 SLP320 T01890094 56015 $
2026-03-29 19:56:00,METAR KCHS 291956Z 10008G17KT 10SM BKN043 BKN065 19/09 A3048 RMK AO2 SLP322 T01940089 $
2026-03-29 18:56:00,METAR KCHS 291856Z 10011KT 10SM SCT041 BKN060 BKN200 19/09 A3050 RMK AO2 SLP327 T01940089 $
2026-03-29 17:56:00,METAR KCHS 291756Z 10016G21KT 10SM SCT046 SCT200 20/09 A3052 RMK AO2 SLP335 T02000089 10206 20078 58014 $
2026-03-29 16:56:00,METAR KCHS 291656Z 08014G21KT 10SM SCT045 SCT200 19/08 A3054 RMK AO2 SLP341 T01940083 $
2026-03-29 15:56:00,METAR KCHS 291556Z 08014G22KT 10SM FEW050 19/08 A3055 RMK AO2 SLP344 T01890083
2026-03-29 14:56:00,METAR KCHS 291456Z 08010G20KT 10SM FEW050 16/07 A3056 RMK AO2 SLP349 T01610067 51010
2026-03-29 13:56:00,METAR KCHS 291356Z 05015KT 10SM FEW060 13/04 A3055 RMK AO2 SLP345 T01330044
2026-03-29 12:56:00,METAR KCHS 291256Z 05012G18KT 10SM CLR 11/03 A3055 RMK AO2 SLP344 T01110033
2026-03-29 11:56:00,METAR KCHS 291156Z 04008KT 10SM CLR 08/02 A3053 RMK AO2 SLP338 T00780022 10078 20061 53011
2026-03-29 10:56:00,METAR KCHS 291056Z 03006KT 10SM CLR 06/01 A3052 RMK AO2 SLP333 T00610011
2026-03-29 09:56:00,METAR KCHS 290956Z 02008KT 10SM BKN050 07/01 A3051 RMK AO2 SLP329 T00670006
2026-03-29 08:56:00,METAR KCHS 290856Z 02009KT 10SM SCT045 07/00 A3050 RMK AO2 SLP327 T00720000 58004
2026-03-29 07:56:00,METAR KCHS 290756Z 03005KT 10SM BKN045 08/00 A3051 RMK AO2 SLP330 T00780000
2026-03-29 06:56:00,METAR KCHS 290656Z 02005KT 10SM FEW045 07/00 A3051 RMK AO2 SLP330 T00720000
2026-03-29 05:56:00,METAR KCHS 290556Z 05006KT 10SM CLR 08/01 A3051 RMK AO2 SLP331 T00780006 10133 20078 50004
2026-03-29 04:56:00,METAR KCHS 290456Z 06007KT 10SM CLR 09/01 A3051 RMK AO2 SLP332 T00890011 402060089
2026-03-29 03:56:00,METAR KCHS 290356Z 07009KT 10SM CLR 10/03 A3051 RMK AO2 SLP331 T01000028
2026-03-29 02:56:00,METAR KCHS 290256Z 06008KT 10SM CLR 11/04 A3050 RMK AO2 SLP327 T01060039 51021
2026-03-29 01:56:00,METAR KCHS 290156Z 07008KT 10SM CLR 11/04 A3048 RMK AO2 SLP322 T01110044
2026-03-29 00:56:00,METAR KCHS 290056Z 07010G16KT 10SM CLR 12/04 A3046 RMK AO2 SLP314 T01220044
2026-03-28 23:56:00,METAR KCHS 282356Z 09010G23KT 10SM CLR 13/04 A3044 RMK AO2 SLP306 T01330039 10194 20133 53018
2026-03-28 22:56:00,METAR KCHS 282256Z 11012G20KT 10SM FEW250 14/04 A3041 RMK AO2 WSHFT 2151 SLP297 T01440044
2026-03-28 22:06:00,SPECI KCHS 282206Z 12015KT 10SM FEW250 16/04 A3039 RMK AO2 WSHFT 2151 T01610044
2026-03-28 21:56:00,METAR KCHS 282156Z 08012G18KT 10SM FEW250 18/01 A3039 RMK AO2 SLP290 T01780011
2026-03-28 20:56:00,METAR KCHS 282056Z 06014G23KT 10SM FEW130 FEW200 18/01 A3038 RMK AO2 SLP288 T01830006 56006
2026-03-28 19:56:00,METAR KCHS 281956Z 06017G22KT 10SM SCT130 SCT200 18/01 A3039 RMK AO2 SLP288 T01830011 $
2026-03-28 18:56:00,METAR KCHS 281856Z 04013G21KT 10SM SCT070 BKN200 19/02 A3038 RMK AO2 PK WND 04026/1759 SLP288 T01940017 $
2026-03-28 17:56:00,METAR KCHS 281756Z 03016G24KT 10SM FEW034 SCT080 BKN200 17/03 A3040 RMK AO2 PK WND 02026/1740 SLP294 T01670028 10178 20133 50007 $
2026-03-28 16:56:00,METAR KCHS 281656Z 02016G23KT 10SM SCT034 BKN080 BKN200 15/05 A3042 RMK AO2 SLP299 T01500050 $
2026-03-28 16:29:00,SPECI KCHS 281629Z 03013KT 10SM FEW027 BKN034 BKN080 15/06 A3041 RMK AO2 T01500061 $
2026-03-28 15:56:00,METAR KCHS 281556Z 04015KT 10SM BKN027 BKN034 BKN075 15/07 A3040 RMK AO2 SLP295 T01500072 $
2026-03-28 15:21:00,SPECI KCHS 281521Z 05016G22KT 10SM BKN027 OVC070 14/08 A3040 RMK AO2 T01440078 $
2026-03-28 14:56:00,METAR KCHS 281456Z 03017G29KT 10SM BKN032 OVC070 14/07 A3038 RMK AO2 PK WND 06029/1447 SLP287 T01390072 53033 $
2026-03-28 14:50:00,SPECI KCHS 281450Z 05018G29KT 10SM BKN032 OVC070 14/07 A3038 RMK AO2 PK WND 06029/1447 T01390072 $
2026-03-28 13:56:00,METAR KCHS 281356Z 01014G26KT 10SM BKN028 OVC065 14/08 A3034 RMK AO2 PK WND 01032/1310 SLP272 T01440083 $
2026-03-28 12:56:00,METAR KCHS 281256Z 04015G24KT 10SM BKN028 OVC065 16/09 A3029 RMK AO2 PK WND 02032/1203 SLP255 T01560094 $
2026-03-28 12:52:00,SPECI KCHS 281252Z 03014G26KT 10SM BKN028 OVC065 16/10 A3028 RMK AO2 PK WND 02032/1203 PRESRR $
2026-03-28 11:56:00,METAR KCHS 281156Z 03016G26KT 10SM BKN030 BKN090 17/11 A3023 RMK AO2 PK WND 03030/1134 PRESRR SLP236 T01670106 10206 20161 53047 $
2026-03-28 10:56:00,METAR KCHS 281056Z 03013G19KT 10SM SCT060 BKN090 18/12 A3017 RMK AO2 PK WND 02029/1031 PRESRR SLP215 T01780117 $
2026-03-28 09:56:00,METAR KCHS 280956Z 03013G25KT 10SM OVC050 19/12 A3013 RMK AO2 PK WND 03029/0918 SLP201 T01890122
2026-03-28 08:56:00,METAR KCHS 280856Z 03015G24KT 10SM FEW035 FEW070 19/14 A3009 RMK AO2 SLP188 T01940139 53027
2026-03-28 07:56:00,METAR KCHS 280756Z 01010G20KT 10SM FEW070 20/15 A3005 RMK AO2 SLP175 T02000150
2026-03-28 06:56:00,METAR KCHS 280656Z 29005KT 10SM SCT070 20/15 A3002 RMK AO2 SLP166 T02000150
2026-03-28 05:56:00,METAR KCHS 280556Z 23006KT 10SM FEW070 20/15 A3001 RMK AO2 SLP161 T02000150 10222 20194 58001
2026-03-28 04:56:00,METAR KCHS 280456Z 23006KT 10SM CLR 20/16 A3001 RMK AO2 SLP162 T02000156 403170156
2026-03-28 03:56:00,METAR KCHS 280356Z 22007KT 10SM CLR 20/16 A3002 RMK AO2 SLP163 T02000156
2026-03-28 02:56:00,METAR KCHS 280256Z 21009KT 10SM CLR 21/16 A3001 RMK AO2 SLP162 T02060156 51014
2026-03-28 01:56:00,METAR KCHS 280156Z 22011KT 10SM CLR 21/16 A3001 RMK AO2 SLP162 T02110161
2026-03-28 00:56:00,METAR KCHS 280056Z 21008KT 10SM FEW250 21/16 A3000 RMK AO2 SLP156 T02110161
2026-03-27 23:56:00,METAR KCHS 272356Z 19010KT 10SM SCT250 22/16 A2997 RMK AO2 SLP149 T02220161 10317 20222 53007
2026-03-27 22:56:00,METAR KCHS 272256Z 20012KT 10SM SCT250 25/16 A2996 RMK AO2 SLP145 T02500161
2026-03-27 21:56:00,METAR KCHS 272156Z 19015KT 10SM FEW250 28/17 A2994 RMK AO2 SLP139 T02780167
2026-03-27 20:56:00,METAR KCHS 272056Z 20016KT 10SM FEW055 29/17 A2995 RMK AO2 SLP142 T02890167 56022
2026-03-27 19:56:00,METAR KCHS 271956Z 26014G21KT 10SM FEW055 31/14 A2996 RMK AO2 SLP143 T03110144
2026-03-27 18:56:00,METAR KCHS 271856Z 24012G19KT 10SM FEW050 31/15 A2998 RMK AO2 SLP152 T03060150
2026-03-27 17:56:00,METAR KCHS 271756Z 26008G22KT 10SM FEW045 29/15 A3002 RMK AO2 PK WND 28027/1701 SLP164 T02940150 10294 20183 58025
2026-03-27 16:56:00,METAR KCHS 271656Z 27012G23KT 10SM SCT040 29/16 A3005 RMK AO2 SLP174 T02890156
2026-03-27 15:56:00,METAR KCHS 271556Z 28012G17KT 10SM FEW040 27/17 A3008 RMK AO2 SLP184 T02720167
2026-03-25 14:56:00,METAR KCHS 251456Z 02006KT 10SM BKN018 13/07 A3033 RMK AO2 SLP271 T01330067 51012
2026-03-25 14:02:00,SPECI KCHS 251402Z 02010KT 10SM BKN018 OVC030 12/06 A3033 RMK AO2 T01220061
2026-03-25 13:56:00,METAR KCHS 251356Z 02007KT 10SM OVC014 12/06 A3033 RMK AO2 SLP270 T01170061
2026-03-25 12:56:00,METAR KCHS 251256Z 02007KT 10SM OVC010 10/05 A3033 RMK AO2 SLP268 T01000050
2026-03-25 12:11:00,SPECI KCHS 251211Z 02008KT 10SM BKN010 OVC030 10/05 A3031 RMK AO2 T01000050
2026-03-25 11:56:00,METAR KCHS 251156Z 02007KT 9SM BKN015 OVC030 09/05 A3030 RMK AO2 SLP259 T00940050 10100 20083 51007
2026-03-25 10:56:00,METAR KCHS 251056Z 04009KT 7SM OVC015 09/05 A3029 RMK AO2 SLP258 T00940050
2026-03-25 09:56:00,METAR KCHS 250956Z 01009KT 9SM OVC015 09/05 A3029 RMK AO2 SLP257 T00940050
2026-03-25 08:56:00,METAR KCHS 250856Z 01007KT 8SM OVC020 09/04 A3028 RMK AO2 SLP252 T00890044 55011
2026-03-25 08:34:00,SPECI KCHS 250834Z 02005KT 8SM BKN020 09/04 A3027 RMK AO2 T00890044
2026-03-25 07:56:00,METAR KCHS 250756Z 02006KT 8SM SCT035 BKN200 09/04 A3028 RMK AO2 SLP251 T00890044
2026-03-25 06:56:00,METAR KCHS 250656Z 03007KT 9SM SCT035 BKN150 09/04 A3030 RMK AO2 SLP258 T00940044
2026-03-25 05:56:00,METAR KCHS 250556Z 06005KT 10SM SCT045 BKN150 10/04 A3031 RMK AO2 SLP263 T01000039 10117 20094 58010
2026-03-25 04:56:00,METAR KCHS 250456Z 05007KT 9SM SCT045 SCT075 11/04 A3033 RMK AO2 SLP269 T01060039 402000106
2026-03-25 03:56:00,METAR KCHS 250356Z 06012G16KT 10SM OVC045 11/04 A3034 RMK AO2 SLP272 T01110039
2026-03-25 02:56:00,METAR KCHS 250256Z 05009KT 10SM OVC045 12/05 A3034 RMK AO2 SLP274 T01170050 50015
2026-03-25 01:56:00,METAR KCHS 250156Z 05007KT 10SM OVC040 11/04 A3034 RMK AO2 SLP274 T01110044
2026-03-25 00:56:00,METAR KCHS 250056Z 04008KT 10SM OVC040 11/04 A3032 RMK AO2 SLP267 T01110039
2026-03-24 23:56:00,METAR KCHS 242356Z 07008KT 10SM OVC039 12/03 A3030 RMK AO2 SLP259 T01170033 10122 20117 53003
2026-03-24 22:56:00,METAR KCHS 242256Z 07009KT 10SM OVC039 12/03 A3029 RMK AO2 SLP257 T01170033
2026-03-24 21:56:00,METAR KCHS 242156Z 06006KT 10SM OVC040 12/02 A3029 RMK AO2 SLP257 T01220022
2026-03-24 20:56:00,METAR KCHS 242056Z 06010KT 10SM OVC040 12/01 A3029 RMK AO2 SLP256 T01170011 56012
2026-03-24 19:56:00,METAR KCHS 241956Z 06009KT 10SM OVC040 12/01 A3030 RMK AO2 SLP258 T01220006
2026-03-24 18:56:00,METAR KCHS 241856Z 05012KT 10SM OVC040 12/01 A3030 RMK AO2 SLP259 T01220006
2026-03-24 17:56:00,METAR KCHS 241756Z 07010KT 10SM BKN040 OVC080 12/00 A3032 RMK AO2 SLP267 T01220000 10139 20117 50003
2026-03-24 16:56:00,METAR KCHS 241656Z 05015G22KT 10SM BKN045 OVC080 12/M01 A3034 RMK AO2 SLP274 T01221006
2026-03-24 15:56:00,METAR KCHS 241556Z 06014G21KT 10SM BKN045 OVC080 12/00 A3033 RMK AO2 SLP271 T01220000
2026-03-24 14:56:00,METAR KCHS 241456Z 04012G22KT 10SM OVC040 12/02 A3032 RMK AO2 SLP265 T01220017 51030
2026-03-24 13:56:00,METAR KCHS 241356Z 05012G20KT 10SM OVC040 12/01 A3028 RMK AO2 SLP254 T01220011
2026-03-24 12:56:00,METAR KCHS 241256Z 06017G23KT 10SM BKN040 OVC080 13/02 A3026 RMK AO2 PK WND 06026/1236 SLP247 T01280022
2026-03-24 11:56:00,METAR KCHS 241156Z 07012G23KT 10SM BKN040 OVC080 14/04 A3023 RMK AO2 SLP234 T01390044 10178 20139 52031
2026-03-24 10:56:00,METAR KCHS 241056Z 06008KT 10SM OVC035 14/00 A3019 RMK AO2 SLP222 T01440000
2026-03-24 09:56:00,METAR KCHS 240956Z 04010KT 10SM OVC035 14/M02 A3017 RMK AO2 SLP215 T01441017 $
2026-03-24 08:56:00,METAR KCHS 240856Z 03011KT 10SM SCT080 SCT200 14/M03 A3013 RMK AO2 SLP203 T01391033 53016
2026-03-24 07:56:00,METAR KCHS 240756Z 02013G21KT 10SM BKN200 15/M04 A3011 RMK AO2 PK WND 01026/0709 SLP195 T01501039
2026-03-24 06:56:00,METAR KCHS 240656Z 03010KT 10SM FEW075 SCT200 16/M03 A3010 RMK AO2 PK WND 02027/0641 SLP193 T01611033
2026-03-24 05:56:00,METAR KCHS 240556Z 01017G23KT 10SM BKN085 BKN110 18/M04 A3009 RMK AO2 PK WND 02027/0514 SLP188 T01831039 10244 20183 51035
2026-03-24 04:56:00,METAR KCHS 240456Z 01015G21KT 10SM BKN075 20/01 A3006 RMK AO2 PK WND 35026/0419 SLP180 T02000011 403220172
2026-03-24 03:56:00,METAR KCHS 240356Z 35014G24KT 10SM FEW070 FEW130 22/07 A3002 RMK AO2 PK WND 01029/0330 SLP166 T02220067
2026-03-24 02:56:00,METAR KCHS 240256Z 36016G25KT 10SM SCT080 SCT110 24/12 A2998 RMK AO2 WSHFT 0226 SLP152 T02440117 53029
2026-03-24 02:45:00,SPECI KCHS 240245Z 36010G17KT 10SM FEW080 FEW110 24/15 A2997 RMK AO2 WSHFT 0226 T02390150
2026-03-24 01:56:00,METAR KCHS 240156Z 24004KT 10SM FEW080 SCT110 BKN250 23/17 A2994 RMK AO2 SLP137 T02280172
2026-03-24 00:56:00,METAR KCHS 240056Z 22004KT 10SM FEW070 FEW100 BKN250 22/17 A2992 RMK AO2 SLP132 T02220172
2026-03-23 23:56:00,METAR KCHS 232356Z 19007KT 10SM SCT070 SCT100 BKN250 24/16 A2990 RMK AO2 SLP123 T02390161 10322 20239 53022
2026-03-23 22:56:00,METAR KCHS 232256Z 29008KT 10SM FEW065 BKN250 29/14 A2987 RMK AO2 SLP113 T02940144
2026-03-23 21:56:00,METAR KCHS 232156Z 30012G21KT 10SM SCT065 BKN250 30/15 A2984 RMK AO2 SLP105 T03000150
2026-03-23 20:56:00,METAR KCHS 232056Z 28007G16KT 260V320 10SM FEW070 BKN250 32/15 A2983 RMK AO2 SLP101 T03170150 55010
2026-03-23 19:56:00,METAR KCHS 231956Z 27007G18KT 10SM FEW070 BKN250 32/14 A2983 RMK AO2 SLP100 T03220144
2026-03-23 18:56:00,METAR KCHS 231856Z 23008G17KT 10SM SCT250 31/14 A2984 RMK AO2 SLP102 T03110144
2026-03-23 17:56:00,METAR KCHS 231756Z 26013G18KT 10SM FEW250 31/15 A2986 RMK AO2 SLP110 T03060150 10306 20189 58018
2026-03-23 16:56:00,METAR KCHS 231656Z 26008G18KT 10SM FEW250 29/14 A2988 RMK AO2 SLP118 T02940144
2026-03-23 15:56:00,METAR KCHS 231556Z 27011G19KT 10SM FEW250 27/14 A2990 RMK AO2 SLP126 T02720144
2026-03-23 14:56:00,METAR KCHS 231456Z 26011G20KT 10SM FEW250 26/14 A2991 RMK AO2 SLP128 T02560139 53001
2026-03-23 13:56:00,METAR KCHS 231356Z 25012G20KT 10SM FEW250 23/14 A2990 RMK AO2 SLP126 T02330139
2026-03-23 12:56:00,METAR KCHS 231256Z 24009KT 10SM FEW250 21/14 A2991 RMK AO2 SLP127 T02110139
2026-03-23 11:56:00,METAR KCHS 231156Z 25011G19KT 10SM FEW250 19/13 A2991 RMK AO2 SLP127 T01890133 10194 20178 53007
2026-03-23 10:56:00,METAR KCHS 231056Z 23007KT 10SM FEW250 18/13 A2990 RMK AO2 SLP125 T01830133
2026-03-23 09:56:00,METAR KCHS 230956Z 23008KT 10SM FEW250 18/13 A2989 RMK AO2 SLP121 T01830133 $
2026-03-23 08:56:00,METAR KCHS 230856Z 23008KT 10SM FEW250 18/13 A2989 RMK AO2 SLP120 T01830133 57004 $
2026-03-23 07:56:00,METAR KCHS 230756Z 23009KT 10SM FEW250 19/13 A2989 RMK AO2 SLP122 T01890133 $
2026-03-23 06:56:00,METAR KCHS 230656Z 23007KT 10SM FEW250 19/14 A2989 RMK AO2 SLP122 T01890139 $
2026-03-23 05:56:00,METAR KCHS 230556Z 21007KT 10SM FEW250 18/13 A2990 RMK AO2 SLP124 T01780133 10211 20172 58008 $
2026-03-23 04:56:00,METAR KCHS 230456Z 20008KT 10SM FEW250 18/13 A2992 RMK AO2 SLP131 T01780133 403110172 $
2026-03-23 03:56:00,METAR KCHS 230356Z 22006KT 10SM FEW250 18/13 A2993 RMK AO2 SLP134 T01830133 $
2026-03-23 02:56:00,METAR KCHS 230256Z 20008KT 10SM FEW250 18/13 A2993 RMK AO2 SLP133 T01780133 50005 $
2026-03-23 01:56:00,METAR KCHS 230156Z 21008KT 10SM CLR 18/13 A2993 RMK AO2 SLP133 T01830133 $
2026-03-23 00:56:00,METAR KCHS 230056Z 21009KT 10SM CLR 21/13 A2992 RMK AO2 SLP130 T02060133 $
2026-03-22 23:56:00,METAR KCHS 222356Z 20011KT 10SM FEW250 21/13 A2991 RMK AO2 SLP127 T02110133 10311 20211 53004 $
2026-03-22 22:56:00,METAR KCHS 222256Z 20013KT 10SM FEW250 24/13 A2990 RMK AO2 SLP123 T02440128 $
2026-03-22 21:56:00,METAR KCHS 222156Z 21015G25KT 10SM CLR 27/13 A2990 RMK AO2 SLP123 T02720128 $
2026-03-22 20:56:00,METAR KCHS 222056Z 20015KT 10SM CLR 29/14 A2990 RMK AO2 SLP123 T02940139 56016 $
2026-03-22 19:56:00,METAR KCHS 221956Z 19014KT 10SM CLR 31/13 A2990 RMK AO2 SLP125 T03060133 $
2026-03-22 18:56:00,METAR KCHS 221856Z 20014G18KT 10SM CLR 31/12 A2992 RMK AO2 SLP131 T03060122 $
2026-03-22 17:56:00,METAR KCHS 221756Z 23012KT 10SM CLR 30/13 A2995 RMK AO2 SLP139 T03000133 10306 20172 58017 $
2026-03-22 16:56:00,METAR KCHS 221656Z 28006KT 10SM CLR 28/14 A2997 RMK AO2 SLP149 T02830144 $
2026-03-22 15:56:00,METAR KCHS 221556Z 28006KT 10SM CLR 27/14 A2999 RMK AO2 SLP154 T02670139 $
2026-03-22 14:56:00,METAR KCHS 221456Z 26009KT 10SM CLR 24/13 A3000 RMK AO2 SLP156 T02440128 51011 $
2026-03-22 13:56:00,METAR KCHS 221356Z 25009KT 10SM CLR 22/12 A2999 RMK AO2 SLP154 T02170122 $
2026-03-22 12:56:00,METAR KCHS 221256Z 25009KT 10SM CLR 19/12 A2998 RMK AO2 SLP151 T01940117 $
2026-03-22 11:56:00,METAR KCHS 221156Z 25006KT 10SM CLR 17/12 A2996 RMK AO2 SLP146 T01720117 10194 20172 53012 $
2026-03-22 10:56:00,METAR KCHS 221056Z 26006KT 10SM CLR 18/12 A2995 RMK AO2 SLP140 T01780122 $
2026-03-22 09:56:00,METAR KCHS 220956Z 25007KT 10SM CLR 18/12 A2994 RMK AO2 SLP137 T01780122 $
2026-03-22 08:56:00,METAR KCHS 220856Z 26006KT 10SM CLR 18/13 A2993 RMK AO2 SLP134 T01780128 58010 $
2026-03-22 07:56:00,METAR KCHS 220756Z 24006KT 10SM CLR 18/12 A2993 RMK AO2 SLP134 T01780122 $
2026-03-22 06:56:00,METAR KCHS 220656Z 31007KT 10SM CLR 19/12 A2996 RMK AO2 SLP145 T01890122 $
2026-03-22 05:56:00,METAR KCHS 220556Z 25004KT 10SM CLR 19/12 A2996 RMK AO2 SLP144 T01940122 10222 20194 51006 $
2026-03-22 04:56:00,METAR KCHS 220456Z 26005KT 10SM SCT150 20/13 A2995 RMK AO2 SLP142 T02000128 403060117 $
2026-03-22 03:56:00,METAR KCHS 220356Z 25006KT 10SM CLR 20/13 A2995 RMK AO2 SLP140 T02000128 $
2026-03-22 02:56:00,METAR KCHS 220256Z 24004KT 10SM CLR 20/13 A2994 RMK AO2 SLP138 T02000133 52013 $
2026-03-22 01:56:00,METAR KCHS 220156Z 22006KT 10SM CLR 20/13 A2993 RMK AO2 SLP133 T02000128 $
2026-03-22 00:56:00,METAR KCHS 220056Z 21008KT 10SM SCT250 21/13 A2992 RMK AO2 SLP130 T02060128 $
2026-03-21 23:56:00,METAR KCHS 212356Z 20008KT 10SM SCT250 22/12 A2990 RMK AO2 SLP125 T02170122 10306 20217 53007
2026-03-21 22:56:00,METAR KCHS 212256Z 25006KT 10SM BKN200 BKN250 28/10 A2989 RMK AO2 SLP120 T02830100
2026-03-21 21:56:00,METAR KCHS 212156Z 26008KT 10SM SCT250 29/10 A2988 RMK AO2 SLP116 T02940100
2026-03-21 20:56:00,METAR KCHS 212056Z 23009KT 10SM SCT250 30/11 A2988 RMK AO2 SLP118 T03000106 56021
2026-03-21 19:56:00,METAR KCHS 211956Z 25008KT 220V290 10SM BKN250 30/10 A2990 RMK AO2 SLP123 T03000100
2026-03-21 18:56:00,METAR KCHS 211856Z VRB06KT 10SM SCT250 29/11 A2992 RMK AO2 SLP131 T02940106
2026-03-21 17:56:00,METAR KCHS 211756Z 27009KT 10SM BKN250 28/11 A2995 RMK AO2 SLP140 T02780106 10278 20128 58013
2026-03-21 16:56:00,METAR KCHS 211656Z 31009KT 10SM BKN220 BKN250 26/10 A2996 RMK AO2 SLP146 T02610100
2026-03-21 15:56:00,METAR KCHS 211556Z 29006KT 10SM BKN220 BKN250 23/09 A2998 RMK AO2 SLP150 T02330089
2026-03-21 14:56:00,METAR KCHS 211456Z 29007G17KT 10SM BKN220 BKN250 21/08 A2998 RMK AO2 SLP153 T02110078 58002
2026-03-21 13:56:00,METAR KCHS 211356Z 27008KT 10SM SCT200 BKN250 19/06 A2999 RMK AO2 SLP154 T01940061
2026-03-21 12:56:00,METAR KCHS 211256Z 25010KT 10SM BKN250 16/06 A2999 RMK AO2 SLP156 T01560061
2026-03-21 11:56:00,METAR KCHS 211156Z 24006KT 10SM SCT250 13/06 A2999 RMK AO2 SLP155 T01280061 10144 20117 55002
2026-03-21 10:56:00,METAR KCHS 211056Z 24007KT 10SM FEW200 13/06 A2999 RMK AO2 SLP153 T01280061
2026-03-21 09:56:00,METAR KCHS 210956Z 24008KT 10SM FEW200 13/07 A2999 RMK AO2 SLP154 T01330067
2026-03-21 08:56:00,METAR KCHS 210856Z 23009KT 10SM FEW200 13/07 A3000 RMK AO2 SLP157 T01330072 56016
2026-03-21 07:56:00,METAR KCHS 210756Z 22007KT 10SM FEW200 13/07 A3001 RMK AO2 SLP161 T01280067
2026-03-21 06:56:00,METAR KCHS 210656Z 22006KT 10SM CLR 12/07 A3003 RMK AO2 SLP167 T01170072
2026-03-21 05:56:00,METAR KCHS 210556Z 22006KT 10SM CLR 13/08 A3004 RMK AO2 SLP173 T01280078 10156 20117 58012
2026-03-21 04:56:00,METAR KCHS 210456Z 22005KT 10SM FEW200 12/08 A3006 RMK AO2 SLP180 T01170083 402280028
2026-03-21 03:56:00,METAR KCHS 210356Z 20006KT 10SM BKN200 12/08 A3007 RMK AO2 SLP183 T01220083
2026-03-21 02:56:00,METAR KCHS 210256Z 20006KT 10SM BKN200 13/08 A3008 RMK AO2 SLP185 T01330083 56004
2026-03-21 01:56:00,METAR KCHS 210156Z 18006KT 10SM BKN200 13/08 A3008 RMK AO2 SLP186 T01330078
2026-03-21 00:56:00,METAR KCHS 210056Z 18008KT 10SM BKN200 14/07 A3008 RMK AO2 SLP186 T01390067
2026-03-20 23:56:00,METAR KCHS 202356Z 16011KT 10SM BKN200 16/05 A3009 RMK AO2 SLP189 T01560050 10228 20156 57004
2026-03-20 22:56:00,METAR KCHS 202256Z 16011KT 10SM FEW150 BKN200 17/04 A3010 RMK AO2 SLP191 T01720039
2026-03-20 21:56:00,METAR KCHS 202156Z 16010KT 10SM SCT200 20/05 A3010 RMK AO2 SLP192 T02000050
2026-03-20 20:56:00,METAR KCHS 202056Z 13012KT 10SM FEW200 21/06 A3010 RMK AO2 SLP193 T02110056 56021
2026-03-20 19:56:00,METAR KCHS 201956Z 14008G15KT 10SM CLR 22/06 A3012 RMK AO2 SLP198 T02220056
2026-03-20 18:56:00,METAR KCHS 201856Z VRB03KT 10SM CLR 22/02 A3014 RMK AO2 SLP205 T02170022
2026-03-20 17:56:00,METAR KCHS 201756Z COR VRB/05KT 10SM CLR 22/03 A3017 RMK AO2 SLP214 T02170028 10217 20039 58026
2026-03-20 16:56:00,METAR KCHS 201656Z VRB04KT 10SM FEW250 21/03 A3020 RMK AO2 SLP225 T02060033
2026-03-20 15:56:00,METAR KCHS 201556Z 27004KT 10SM FEW250 19/05 A3022 RMK AO2 SLP233 T01890050
2026-03-20 14:56:00,METAR KCHS 201456Z 28005KT 10SM CLR 16/06 A3024 RMK AO2 SLP240 T01610061 50004
2026-03-20 13:56:00,METAR KCHS 201356Z 31004KT 10SM CLR 13/07 A3025 RMK AO2 SLP241 T01330067
2026-03-20 12:56:00,METAR KCHS 201256Z 33003KT 10SM CLR 09/07 A3025 RMK AO2 SLP241 T00940067
2026-03-20 11:56:00,METAR KCHS 201156Z 00000KT 7SM CLR 04/03 A3023 RMK AO2 SLP237 T00390033 10061 20028 53012
2026-03-20 10:56:00,METAR KCHS 201056Z 00000KT 10SM FEW250 04/03 A3021 RMK AO2 SLP231 T00440033
2026-03-20 09:56:00,METAR KCHS 200956Z 00000KT 10SM FEW250 06/04 A3020 RMK AO2 SLP226 T00560039 $
2026-03-20 08:56:00,METAR KCHS 200856Z 00000KT 10SM FEW250 04/03 A3020 RMK AO2 SLP224 T00440033 58010 $
2026-03-20 07:56:00,METAR KCHS 200756Z 32003KT 10SM FEW250 05/04 A3021 RMK AO2 SLP228 T00500039 $
2026-03-20 06:56:00,METAR KCHS 200656Z 00000KT 10SM FEW250 06/04 A3023 RMK AO2 SLP234 T00560044 $
2026-03-20 05:56:00,METAR KCHS 200556Z 32003KT 10SM FEW250 06/03 A3023 RMK AO2 SLP235 T00560033 10117 20056 50000 $
2026-03-20 04:56:00,METAR KCHS 200456Z 00000KT 10SM FEW250 07/04 A3024 RMK AO2 SLP238 T00670039 401890033 $
2026-03-20 03:56:00,METAR KCHS 200356Z 00000KT 10SM FEW250 08/04 A3022 RMK AO2 SLP234 T00780044 $
2026-03-20 02:56:00,METAR KCHS 200256Z 00000KT 10SM FEW250 08/04 A3023 RMK AO2 SLP235 T00780039 51008 $
2026-03-20 01:56:00,METAR KCHS 200156Z 00000KT 10SM CLR 11/03 A3022 RMK AO2 SLP233 T01060033 $
2026-03-20 00:56:00,METAR KCHS 200056Z 13004KT 10SM CLR 12/03 A3021 RMK AO2 SLP230 T01170033 $
2026-03-19 23:56:00,METAR KCHS 192356Z 15005KT 10SM CLR 11/03 A3020 RMK AO2 SLP227 T01110033 10189 20111 53005 $
2026-03-19 22:56:00,METAR KCHS 192256Z 16007KT 10SM CLR 13/03 A3019 RMK AO2 SLP223 T01330028 $
2026-03-19 21:56:00,METAR KCHS 192156Z 17011KT 10SM FEW200 16/03 A3018 RMK AO2 SLP220 T01560028
2026-03-19 20:56:00,METAR KCHS 192056Z 13009KT 10SM SCT200 16/02 A3019 RMK AO2 SLP222 T01610017 56021
2026-03-19 19:56:00,METAR KCHS 191956Z 15013KT 10SM FEW250 17/02 A3020 RMK AO2 SLP224 T01720022
2026-03-19 18:56:00,METAR KCHS 191856Z 02007KT 9SM CLR 18/M01 A3022 RMK AO2 SLP231 T01781006
2026-03-19 17:56:00,METAR KCHS 191756Z 03005KT 5SM FU FEW250 17/M02 A3025 RMK AO2 SLP243 T01721022 10172 20033 58020
2026-03-19 16:56:00,METAR KCHS 191656Z 03005KT 5SM FU FEW250 16/M03 A3027 RMK AO2 SLP249 T01561033
2026-03-19 15:56:00,METAR KCHS 191556Z 02012KT 10SM FEW250 14/M04 A3029 RMK AO2 SLP258 T01441044
2026-03-19 14:56:00,METAR KCHS 191456Z 01011KT 10SM FEW250 13/M05 A3031 RMK AO2 SLP263 T01281050 50019
2026-03-19 13:56:00,METAR KCHS 191356Z 05006KT 10SM FEW250 11/M03 A3033 RMK AO2 SLP269 T01111028
2026-03-19 12:56:00,METAR KCHS 191256Z 03005KT 10SM FEW250 08/00 A3028 RMK AO2 SLP251 T00780000
2026-03-19 11:56:00,METAR KCHS 191156Z 03003KT 10SM FEW250 04/M01 A3025 RMK AO2 SLP243 T00391006 10083 20033 50000
2026-03-19 10:56:00,METAR KCHS 191056Z 01003KT 10SM CLR 04/M02 A3026 RMK AO2 SLP245 T00441017
2026-03-19 09:56:00,METAR KCHS 190956Z 01004KT 10SM FEW200 04/M01 A3025 RMK AO2 SLP244 T00441011
2026-03-19 08:56:00,METAR KCHS 190856Z 01005KT 10SM FEW100 05/M01 A3025 RMK AO2 SLP243 T00501006 58009
2026-03-19 07:56:00,METAR KCHS 190756Z 36004KT 10SM FEW100 06/M01 A3026 RMK AO2 SLP246 T00611011
2026-03-19 06:56:00,METAR KCHS 190656Z 04004KT 10SM OVC100 08/00 A3027 RMK AO2 SLP250 T00780000
2026-03-19 05:56:00,METAR KCHS 190556Z 03005KT 10SM OVC095 08/00 A3028 RMK AO2 SLP252 T00830000 10106 20067 58005
2026-03-19 04:56:00,METAR KCHS 190456Z 02004KT 10SM OVC090 08/02 A3028 RMK AO2 SLP254 T00830022 401441006
2026-03-19 03:56:00,METAR KCHS 190356Z 01003KT 10SM BKN085 BKN110 08/02 A3029 RMK AO2 SLP257 T00830022
2026-03-19 02:56:00,METAR KCHS 190256Z 02003KT 10SM FEW045 SCT075 BKN150 07/03 A3030 RMK AO2 SLP258 T00720033 51008
2026-03-19 01:56:00,METAR KCHS 190156Z 01003KT 10SM SCT075 BKN200 08/03 A3029 RMK AO2 SLP256 T00780028
2026-03-19 00:56:00,METAR KCHS 190056Z 04004KT 10SM FEW200 09/03 A3028 RMK AO2 SLP254 T00940028
2026-03-18 23:56:00,METAR KCHS 182356Z 10007KT 10SM FEW200 11/02 A3027 RMK AO2 SLP249 T01060022 10144 20106 53002
2026-03-18 22:56:00,METAR KCHS 182256Z 04006KT 10SM FEW200 12/M04 A3026 RMK AO2 SLP246 T01221039
2026-03-18 21:56:00,METAR KCHS 182156Z 34006KT 10SM FEW060 FEW200 14/M04 A3026 RMK AO2 SLP245 T01391044
2026-03-18 20:56:00,METAR KCHS 182056Z VRB03KT 10SM FEW060 SCT200 14/M05 A3027 RMK AO2 SLP248 T01391050 56017
2026-03-18 19:56:00,METAR KCHS 181956Z 35004KT 10SM FEW055 SCT200 13/M05 A3027 RMK AO2 SLP249 T01331050
2026-03-18 18:56:00,METAR KCHS 181856Z VRB05KT 10SM FEW050 BKN200 13/M04 A3029 RMK AO2 SLP257 T01281044
2026-03-18 17:56:00,METAR KCHS 181756Z 03007KT 6SM FU FEW050 BKN200 13/M04 A3032 RMK AO2 SLP265 T01281039 10128 20017 58017
2026-03-18 16:56:00,METAR KCHS 181656Z VRB04KT 4SM FU FEW200 12/M05 A3033 RMK AO2 SLP271 T01171050
2026-03-18 15:56:00,METAR KCHS 181556Z 02006KT 7SM FEW200 10/M03 A3035 RMK AO2 SLP277 FU DSNT NW-N T01001033
2026-03-18 14:56:00,METAR KCHS 181456Z 01006KT 10SM BKN200 07/M04 A3037 RMK AO2 SLP282 T00721044 51017
2026-03-18 13:56:00,METAR KCHS 181356Z 03009KT 10SM SCT180 BKN250 06/M05 A3036 RMK AO2 SLP281 T00561050
2026-03-18 12:56:00,METAR KCHS 181256Z 04010KT 10SM SCT250 04/M06 A3034 RMK AO2 SLP273 T00391056
2026-03-18 11:56:00,METAR KCHS 181156Z 03010KT 10SM FEW250 02/M06 A3032 RMK AO2 SLP266 T00171056 10044 21006 53025
2026-03-18 10:56:00,METAR KCHS 181056Z 03010KT 10SM CLR 02/M06 A3028 RMK AO2 SLP252 T00171061
2026-03-18 09:56:00,METAR KCHS 180956Z 03008KT 10SM FEW250 02/M06 A3026 RMK AO2 SLP245 T00171056
2026-03-18 08:56:00,METAR KCHS 180856Z 02008KT 10SM FEW250 02/M04 A3024 RMK AO2 SLP240 T00171044 55001
2026-03-18 07:56:00,METAR KCHS 180756Z 34009KT 10SM FEW250 00/M02 A3024 RMK AO2 SLP238 T00001022
2026-03-18 06:56:00,METAR KCHS 180656Z 00000KT 10SM FEW250 02/M01 A3023 RMK AO2 SLP234 T00171011
2026-03-18 05:56:00,METAR KCHS 180556Z 00000KT 10SM FEW250 03/M03 A3025 RMK AO2 SLP241 T00331028 10089 20022 50000
2026-03-18 04:56:00,METAR KCHS 180456Z 36003KT 10SM FEW250 03/M02 A3025 RMK AO2 SLP243 T00281022 401220017
2026-03-18 03:56:00,METAR KCHS 180356Z 00000KT 10SM FEW250 05/M03 A3026 RMK AO2 SLP245 T00501033
2026-03-18 02:56:00,METAR KCHS 180256Z 00000KT 10SM FEW250 06/M04 A3025 RMK AO2 SLP241 T00611039 51031
2026-03-18 01:56:00,METAR KCHS 180156Z 27004KT 10SM FEW250 06/M03 A3023 RMK AO2 SLP236 T00611028
2026-03-18 00:56:00,METAR KCHS 180056Z 00000KT 10SM SCT250 07/M07 A3019 RMK AO2 SLP224 T00721067
2026-03-17 23:56:00,METAR KCHS 172356Z 30006KT 10SM BKN200 09/M09 A3015 RMK AO2 SLP210 T00891089 10122 20089 53021
2026-03-17 22:56:00,METAR KCHS 172256Z 30010KT 10SM BKN200 11/M08 A3013 RMK AO2 SLP201 T01061078
2026-03-17 21:56:00,METAR KCHS 172156Z 29010G15KT 10SM BKN200 11/M08 A3010 RMK AO2 SLP192 T01111083
2026-03-17 20:56:00,METAR KCHS 172056Z 27009G17KT 10SM BKN200 11/M09 A3009 RMK AO2 SLP189 T01111089 55013
2026-03-17 19:56:00,METAR KCHS 171956Z 28005KT 10SM BKN200 11/M07 A3009 RMK AO2 SLP187 T01111067
2026-03-17 18:56:00,METAR KCHS 171856Z 29008G18KT 10SM BKN200 11/M06 A3009 RMK AO2 SLP190 T01111061
2026-03-17 17:56:00,METAR KCHS 171756Z 30009G16KT 10SM BKN250 10/M06 A3013 RMK AO2 SLP202 T01001061 10106 20022 58014
2026-03-17 16:56:00,METAR KCHS 171656Z 28007G17KT 250V310 10SM FEW250 09/M06 A3016 RMK AO2 SLP211 T00891061
2026-03-17 15:56:00,METAR KCHS 171556Z 35011G15KT 10SM SCT250 08/M06 A3017 RMK AO2 SLP215 T00831061
2026-03-17 14:56:00,METAR KCHS 171456Z 31010G18KT 10SM FEW250 07/M05 A3017 RMK AO2 SLP216 T00671050 50014
2026-03-17 13:56:00,METAR KCHS 171356Z 33012KT 10SM FEW250 06/M05 A3017 RMK AO2 SLP216 T00561050
2026-03-17 12:56:00,METAR KCHS 171256Z 30012KT 10SM SCT250 03/M04 A3015 RMK AO2 SLP209 T00331039
2026-03-17 11:56:00,METAR KCHS 171156Z 28007KT 10SM SCT250 02/M03 A3013 RMK AO2 SLP202 70027 T00221033 10044 20017 53033
2026-03-17 10:56:00,METAR KCHS 171056Z 28006KT 10SM SCT250 02/M03 A3010 RMK AO2 SLP191 T00171033
2026-03-17 09:56:00,METAR KCHS 170956Z 27005KT 10SM SCT250 02/M04 A3006 RMK AO2 SLP179 T00221039
2026-03-17 08:56:00,METAR KCHS 170856Z 28007KT 10SM FEW250 03/M04 A3003 RMK AO2 SLP169 T00281044 53015
2026-03-17 07:56:00,METAR KCHS 170756Z 29008KT 10SM SCT250 03/M03 A2999 RMK AO2 SLP156 T00331033
2026-03-17 06:56:00,METAR KCHS 170656Z 28015G20KT 10SM FEW250 04/M03 A2999 RMK AO2 SLP155 T00391028
2026-03-17 05:56:00,METAR KCHS 170556Z 29009KT 10SM FEW200 04/M03 A2999 RMK AO2 SLP154 T00441028 10133 20044 51022
2026-03-17 04:56:00,METAR KCHS 170456Z 28012G23KT 10SM FEW200 06/M03 A2997 RMK AO2 SLP149 T00561028 402280056
2026-03-17 03:56:00,METAR KCHS 170356Z 28011G20KT 10SM SCT030 SCT080 07/00 A2995 RMK AO2 SLP141 T00670000
2026-03-17 02:56:00,METAR KCHS 170256Z 27011G23KT 10SM FEW030 SCT060 SCT075 07/01 A2992 RMK AO2 PK WND 30029/0206 SLP131 T00720006 53068
2026-03-17 01:56:00,METAR KCHS 170156Z 27019G29KT 10SM FEW020 SCT060 BKN080 09/02 A2985 RMK AO2 PK WND 32037/0141 SLP107 T00940017
2026-03-17 00:56:00,METAR KCHS 170056Z 29012G26KT 10SM FEW020 BKN060 OVC080 12/06 A2977 RMK AO2 PK WND 29030/0024 SLP081 T01220061
2026-03-17 00:20:00,SPECI KCHS 170020Z 28014G28KT 10SM SCT020 OVC050 13/08 A2974 RMK AO2 PK WND 27028/0013 T01280078
2026-03-16 23:56:00,METAR KCHS 162356Z 29016G26KT 10SM BKN020 OVC040 13/10 A2972 RMK AO2 PK WND 28027/2316 SLP063 60016 T01330100 10222 20133 53039
2026-03-16 23:44:00,SPECI KCHS 162344Z 29011G22KT 10SM SCT020 BKN025 OVC040 13/10 A2971 RMK AO2 PK WND 28027/2316 T01330100
2026-03-16 22:56:00,METAR KCHS 162256Z 27019G29KT 10SM FEW020 BKN030 OVC150 14/11 A2967 RMK AO2 PK WND 28043/2211 WSHFT 2201 RAB10E24 SLP046 P0000 T01440106
2026-03-16 22:44:00,SPECI KCHS 162244Z 28017G30KT 10SM SCT020 BKN030 OVC150 14/11 A2966 RMK AO2 PK WND 28043/2211 WSHFT 2201 RAB10E24 P0000 T01440106
2026-03-16 22:20:00,SPECI KCHS 162220Z 27019G43KT 7SM -RA BKN015 BKN025 OVC150 15/11 A2964 RMK AO2 PK WND 28043/2211 WSHFT 2201 RAB10 P0000 T01500111
2026-03-16 22:03:00,SPECI KCHS 162203Z 21017G26KT 10SM BKN020 BKN050 OVC150 19/17 A2959 RMK AO2 T01890167
2026-03-16 21:56:00,METAR KCHS 162156Z 22018G26KT 10SM FEW020 SCT050 OVC150 19/16 A2959 RMK AO2 PK WND 21034/2131 SLP020 T01890161
2026-03-16 20:56:00,METAR KCHS 162056Z 20019G30KT 10SM FEW050 BKN070 BKN100 19/17 A2960 RMK AO2 PK WND 21034/2036 RAE53 TSE10 SLP024 P0003 60016 T01890167 58033
2026-03-16 20:10:00,SPECI KCHS 162010Z 18016G25KT 6SM -RA BR FEW020 SCT075 OVC100 19/18 A2963 RMK AO2 TSE10 TS E-SE MOV NE P0001 T01940178
2026-03-16 19:56:00,METAR KCHS 161956Z 21015G27KT 5SM TSRA BR BKN020CB OVC070 19/17 A2966 RMK AO2 PK WND 23030/1945 RAB04 TSB21 PRESFR SLP042 OCNL LTGIC SE-S TS SE-S MOV NE P0013 T01940172
2026-03-16 19:21:00,SPECI KCHS 161921Z 22011KT 6SM -TSRA BR SCT012CB BKN025 OVC035 20/19 A2969 RMK AO2 RAB04 TSB21 OCNL LTGIC S-W TS S-W MOV NE P0004 T02000189
2026-03-16 19:15:00,SPECI KCHS 161915Z 19013KT 6SM RA BR SCT012 BKN025 OVC040 21/18 A2968 RMK AO2 RAB04 CB DSNT SW P0000 T02060183
2026-03-16 18:56:00,METAR KCHS 161856Z 20015G22KT 10SM SCT015 SCT020 BKN035 22/18 A2968 RMK AO2 PK WND 20027/1815 SLP049 T02170183
2026-03-16 17:56:00,METAR KCHS 161756Z 22017G27KT 10SM SCT018 BKN030 22/18 A2970 RMK AO2 PK WND 20027/1750 SLP057 60011 T02170183 10228 20189 58019
2026-03-16 16:56:00,METAR KCHS 161656Z 22014G26KT 10SM SCT018 BKN035 BKN120 22/18 A2972 RMK AO2 PK WND 20033/1626 RAB19E36 SLP064 P0000 T02170183
2026-03-16 15:56:00,METAR KCHS 161556Z 21017G25KT 10SM SCT012 BKN075 21/19 A2976 RMK AO2 PK WND 20034/1511 RAE37 SLP075 P0001 T02110189 $
2026-03-16 14:56:00,METAR KCHS 161456Z 20016G31KT 10SM -RA SCT030 BKN120 BKN200 21/18 A2976 RMK AO2 PK WND 19031/1447 RAB56 SLP075 P0000 60010 T02110183 58013
2026-03-16 13:56:00,METAR KCHS 161356Z 20015G25KT 10SM SCT028 BKN120 OVC200 21/18 A2978 RMK AO2 SLP082 T02060183
2026-03-16 12:56:00,METAR KCHS 161256Z 18015G24KT 7SM SCT013 BKN030 BKN070 19/18 A2978 RMK AO2 PK WND 19030/1229 SLP082 P0010 T01890183
2026-03-16 12:49:00,SPECI KCHS 161249Z 18018G24KT 7SM -RA SCT013 BKN030 BKN070 19/18 A2978 RMK AO2 PK WND 19030/1229 TS NE MOV NE P0010 T01890178
2026-03-16 12:41:00,SPECI KCHS 161241Z 19012G27KT 3SM -TSRA BR SCT017 BKN030CB BKN090 19/18 A2978 RMK AO2 PK WND 19030/1229 OCNL LTGICCG NE TS NE MOV NE P0009 T01890178
2026-03-16 12:29:00,SPECI KCHS 161229Z 19020G30KT 1SM R15/1800VP6000FT +TSRA BR SCT015 BKN020CB OVC080 19/18 A2980 RMK AO2 PK WND 19030/1229 OCNL LTGICCG SW TS SW MOV NE P0003 T01940178
2026-03-16 12:27:00,SPECI KCHS 161227Z 20019G28KT 3SM R15/4000VP6000FT TSRA BR SCT015 BKN025CB OVC080 19/18 A2981 RMK AO2 PK WND 21028/1227 OCNL LTGICCG SW TS SW MOV NE P0001 T01940178
2026-03-16 12:25:00,SPECI KCHS 161225Z 20017G25KT 5SM RA BR SCT015 BKN025 BKN080 19/18 A2980 RMK AO2 P0000 T01940178
2026-03-16 11:56:00,METAR KCHS 161156Z 19017G24KT 10SM SCT022 BKN035 BKN120 19/17 A2979 RMK AO2 SLP088 60000 70007 T01940172 10194 20172 56003
2026-03-16 10:56:00,METAR KCHS 161056Z 19012KT 10SM FEW040 BKN055 BKN120 19/16 A2980 RMK AO2 SLP090 T01890161
2026-03-16 09:56:00,METAR KCHS 160956Z 20010KT 10SM FEW030 SCT150 18/16 A2979 RMK AO2 SLP087 T01780156 $
2026-03-16 08:56:00,METAR KCHS 160856Z 17009KT 10SM FEW015 SCT095 SCT120 18/16 A2981 RMK AO2 SLP092 60000 T01780156 58026 $
2026-03-16 07:56:00,METAR KCHS 160756Z 18006KT 10SM SCT015 SCT070 17/16 A2984 RMK AO2 RAE0658 SLP104 P0000 T01720156 $
2026-03-16 06:56:00,METAR KCHS 160656Z 17011KT 10SM -RA FEW080 BKN100 18/16 A2988 RMK AO2 RAB49 SLP117 P0000 T01830161 $
2026-03-16 05:56:00,METAR KCHS 160556Z 16009KT 10SM OVC090 19/16 A2988 RMK AO2 SLP118 60007 T01890161 10217 20183 58008
2026-03-16 04:56:00,METAR KCHS 160456Z 20014KT 10SM FEW030 19/17 A2990 RMK AO2 SLP123 T01890167 402560139
2026-03-16 03:56:00,METAR KCHS 160356Z 18012KT 10SM FEW015 FEW030 19/18 A2991 RMK AO2 PK WND 18050/0307 WSHFT 0303 SLP126 P0007 T01890178
2026-03-16 03:45:00,SPECI KCHS 160345Z 21011KT 10SM FEW015 SCT030 19/18 A2991 RMK AO2 PK WND 18050/0307 WSHFT 0303 TS MOV NE CB DSNT NE P0007 T01940178
2026-03-16 03:34:00,SPECI KCHS 160334Z 21013G28KT 10SM TS SCT015CB SCT030 19/18 A2991 RMK AO2 PK WND 18050/0307 WSHFT 0303 OCNL LTGICCC N-NE AND NW TS N-NE AND NW MOV NE P0007 T01940183
2026-03-16 03:19:00,SPECI KCHS 160319Z 20017G33KT 3SM R15/3500VP6000FT TSRA BR SCT009 BKN015CB OVC030 21/19 A2992 RMK AO2 PK WND 18050/0307 WSHFT 0303 CONS LTGICCC ALQDS TS ALQDS MOV NE P0006 T02060189
2026-03-16 03:12:00,SPECI KCHS 160312Z 19023G50KT 4SM R15/3500VP6000FT TSRA BR BKN009 OVC015CB 21/19 A2993 RMK AO2 PK WND 18050/0307 CONS LTGICCC ALQDS TS ALQDS MOV N P0000 T02110194
2026-03-16 03:06:00,SPECI KCHS 160306Z 17030G44KT 10SM TS BKN009 OVC015CB 22/19 A2992 RMK AO2 PK WND 18044/0306 CONS LTGICCC ALQDS TS ALQDS MOV N T02170194
2026-03-16 02:56:00,METAR KCHS 160256Z 15011KT 10SM BKN009 OVC015 21/19 A2990 RMK AO2 PRESFR SLP125 OCNL LTGIC DSNT SW CB DSNT SW T02110194 58006
2026-03-16 01:56:00,METAR KCHS 160156Z 13010KT 10SM BKN023 21/19 A2993 RMK AO2 SLP133 T02060189
2026-03-16 01:31:00,SPECI KCHS 160131Z 15006KT 10SM BKN022 21/19 A2993 RMK AO2 T02060189
2026-03-16 00:56:00,METAR KCHS 160056Z 13007KT 10SM FEW022 19/18 A2992 RMK AO2 SLP131 T01940178
2026-03-15 23:56:00,METAR KCHS 152356Z 15007KT 10SM BKN017 BKN022 21/18 A2992 RMK AO2 SLP132 60000 T02060178 10256 20206 55007
2026-03-15 22:56:00,METAR KCHS 152256Z 14009KT 10SM BKN022 21/17 A2992 RMK AO2 SLP132 T02110172
2026-03-15 21:56:00,METAR KCHS 152156Z 15014G18KT 10SM BKN025 23/17 A2993 RMK AO2 SLP133 T02280172
2026-03-15 20:56:00,METAR KCHS 152056Z 14009G21KT 10SM BKN033 BKN037 BKN050 23/17 A2994 RMK AO2 SLP139 60000 T02330167 56034
2026-03-15 19:56:00,METAR KCHS 151956Z 14014KT 10SM BKN034 BKN055 BKN085 24/16 A2996 RMK AO2 RAB24E33 SLP145 P0000 T02440156
2026-03-15 18:56:00,METAR KCHS 151856Z 13014KT 10SM BKN038 BKN044 BKN085 26/17 A2999 RMK AO2 SLP155 T02560167
2026-03-15 17:56:00,METAR KCHS 151756Z 11014KT 10SM SCT023 BKN035 BKN045 24/18 A3004 RMK AO2 SLP172 60000 T02440183 10250 20161 58015
2026-03-15 16:56:00,METAR KCHS 151656Z 11016KT 10SM SCT025 SCT045 BKN065 23/17 A3006 RMK AO2 SLP177 T02330172
2026-03-15 16:38:00,SPECI KCHS 151638Z 10016KT 10SM SCT025 SCT045 BKN065 24/17 A3006 RMK AO2 T02390172
2026-03-15 15:56:00,METAR KCHS 151556Z 11019G24KT 10SM BKN020 BKN025 24/17 A3008 RMK AO2 SLP184 T02390172
2026-03-15 15:33:00,SPECI KCHS 151533Z 12018G25KT 10SM SCT020 BKN025 BKN030 23/18 A3008 RMK AO2 T02330178
2026-03-15 14:56:00,METAR KCHS 151456Z 09014G24KT 10SM SCT023 BKN045 23/17 A3008 RMK AO2 RAE01 SLP187 P0000 60000 T02280172 58001
2026-03-15 13:56:00,METAR KCHS 151356Z 10010KT 10SM -RA SCT025 BKN040 21/17 A3009 RMK AO2 RAB51 SLP188 P0000 T02060167
2026-03-15 12:56:00,METAR KCHS 151256Z 08007KT 10SM BKN085 BKN120 19/16 A3009 RMK AO2 SLP188 T01890161
2026-03-15 11:56:00,METAR KCHS 151156Z 05006KT 10SM FEW085 FEW100 16/15 A3009 RMK AO2 SLP188 T01610150 10172 20139 58001
2026-03-15 10:56:00,METAR KCHS 151056Z 05007KT 10SM FEW030 SCT045 SCT095 16/15 A3009 RMK AO2 SLP189 T01610150
2026-03-15 09:56:00,METAR KCHS 150956Z 06007KT 10SM SCT100 16/14 A3009 RMK AO2 SLP189 T01560144
2026-03-15 08:56:00,METAR KCHS 150856Z 03004KT 10SM SCT033 BKN100 BKN140 14/13 A3009 RMK AO2 SLP189 T01440133 56017
2026-03-15 07:56:00,METAR KCHS 150756Z 02003KT 10SM BKN037 BKN140 15/14 A3011 RMK AO2 SLP194 T01500139
