Time_recorded,METAR
2026-05-02 14:52:00,METAR KPWK 021452Z 34005KT 10SM CLR 09/M04 A3013 RMK AO2 SLP207 T00891039 50002 $
2026-05-02 13:52:00,METAR KPWK 021352Z 34007KT 10SM FEW100 08/M02 A3013 RMK AO2 SLP208 T00781022 $
2026-05-02 12:52:00,METAR KPWK 021252Z 00000KT 10SM FEW120 04/M01 A3014 RMK AO2 SLP209 T00441006 $
2026-05-02 11:52:00,METAR KPWK 021152Z 00000KT 10SM CLR 01/M01 A3012 RMK AO2 SLP207 I6000 T00111011 10011 21011 53004 $
2026-05-02 10:52:00,METAR KPWK 021052Z 00000KT 10SM CLR M01/M01 A3011 RMK AO2 SLP203 I1000 T10061011 $
2026-05-02 09:52:00,METAR KPWK 020952Z 00000KT 10SM CLR M01/M01 A3011 RMK AO2 SLP203 T10061011 $
2026-05-02 08:52:00,METAR KPWK 020852Z 00000KT 10SM CLR M01/M02 A3011 RMK AO2 SLP202 T10061017 55005 $
2026-05-02 07:52:00,METAR KPWK 020752Z 00000KT 10SM FEW070 FEW085 SCT110 00/M01 A3011 RMK AO2 SLP200 T00001011 $
2026-05-02 06:52:00,METAR KPWK 020652Z 00000KT 10SM FEW075 01/M01 A3012 RMK AO2 SLP204 T00061011 $
2026-05-02 05:52:00,METAR KPWK 020552Z 00000KT 10SM CLR 01/M01 A3013 RMK AO2 SLP207 I6001 T00111006 10050 20006 400940006 51005 $
2026-05-02 04:52:00,METAR KPWK 020452Z 00000KT 10SM CLR 01/M03 A3012 RMK AO2 SLP206 I1001 T00111028 $
2026-05-02 03:52:00,METAR KPWK 020352Z 00000KT 10SM FEW070 SCT090 BKN110 02/M02 A3012 RMK AO2 SLP203 T00221022 $
2026-05-02 02:52:00,METAR KPWK 020252Z 00000KT 10SM FEW070 FEW095 03/M02 A3011 RMK AO2 SLP201 T00331022 53008 $
2026-05-02 01:52:00,METAR KPWK 020152Z 06003KT 10SM FEW043 SCT065 BKN090 04/M04 A3010 RMK AO2 SLP197 T00441039
2026-05-02 00:52:00,METAR KPWK 020052Z 07003KT 10SM BKN065 05/M04 A3009 RMK AO2 SLP194 T00501039
2026-05-01 23:52:00,METAR KPWK 012352Z 03007KT 10SM SCT042 OVC065 04/M01 A3009 RMK AO2 SLP193 T00441011 10067 20044 53006
2026-05-01 22:52:00,METAR KPWK 012252Z 07008KT 10SM FEW043 BKN080 OVC095 06/M02 A3008 RMK AO2 SLP189 T00561022
2026-05-01 21:52:00,METAR KPWK 012152Z 08006KT 10SM OVC070 06/M01 A3007 RMK AO2 SLP188 T00611006
2026-05-01 20:52:00,METAR KPWK 012052Z 08008KT 10SM FEW027 BKN075 OVC090 07/00 A3007 RMK AO2 SLP186 T00670000 51007
2026-05-01 19:52:00,METAR KPWK 011952Z 07009KT 10SM OVC065 06/01 A3007 RMK AO2 SLP187 T00610011
2026-05-01 18:52:00,METAR KPWK 011852Z 07009KT 10SM OVC065 06/01 A3006 RMK AO2 SLP183 T00610006
2026-05-01 17:52:00,METAR KPWK 011752Z 08007KT 10SM OVC055 07/01 A3005 RMK AO2 SLP179 T00670006 10094 20039 53006
2026-05-01 16:52:00,METAR KPWK 011652Z 09009KT 10SM FEW029 OVC060 07/02 A3004 RMK AO2 SLP174 T00720022
2026-05-01 15:52:00,METAR KPWK 011552Z 35008G20KT 10SM BKN049 09/M02 A3003 RMK AO2 SLP172 T00891022
2026-05-01 14:52:00,METAR KPWK 011452Z 34008KT 10SM FEW029 BKN043 BKN050 08/01 A3003 RMK AO2 SLP172 T00780006 51007
2026-05-01 14:37:00,SPECI KPWK 011437Z 34009G15KT 300V360 10SM SCT027 BKN045 BKN065 08/03 A3003 RMK AO2 T00830028
2026-05-01 13:52:00,METAR KPWK 011352Z VRB03KT 10SM SCT085 SCT110 07/03 A3002 RMK AO2 SLP170 T00670028
2026-05-01 13:40:00,SPECI KPWK 011340Z 27003KT 10SM FEW012 BKN085 BKN110 06/02 A3002 RMK AO2 T00610022
2026-05-01 12:52:00,METAR KPWK 011252Z 35007KT 10SM FEW012 SCT045 BKN055 04/03 A3003 RMK AO2 SLP173 T00440028
2026-05-01 11:52:00,METAR KPWK 011152Z 35004KT 10SM FEW043 04/03 A3001 RMK AO2 SLP166 60001 70003 T00390033 10050 20033 53009 $
2026-05-01 10:52:00,METAR KPWK 011052Z 34004KT 10SM SCT085 SCT110 03/03 A2999 RMK AO2 SLP161 T00330028 $
2026-05-01 09:52:00,METAR KPWK 010952Z AUTO 35003KT 10SM FEW030 SCT060 BKN090 04/03 A2999 RMK AO2 RAE35 SLP158 P0001 T00440033 $
2026-05-01 08:52:00,METAR KPWK 010852Z AUTO 33003KT 10SM -RA BKN040 BKN046 05/03 A2998 RMK AO2 RAB16 SLP156 P0000 60000 T00500033 55001 $
2026-05-01 08:22:00,SPECI KPWK 010822Z AUTO 00000KT 10SM -RA SCT028 OVC044 05/03 A2997 RMK AO2 RAB16 P0000 T00500033 $
2026-05-01 07:52:00,METAR KPWK 010752Z AUTO 00000KT 10SM OVC025 05/04 A2997 RMK AO2 RAE0658B04E42 SLP153 P0000 T00500039 $
2026-05-01 07:15:00,SPECI KPWK 010715Z AUTO 05003KT 10SM -RA FEW010 BKN027 OVC037 05/04 A2998 RMK AO2 RAE0658B04 P0000 T00500039 $
2026-05-01 07:01:00,SPECI KPWK 010701Z AUTO 06005KT 10SM SCT010 SCT022 OVC036 05/04 A2998 RMK AO2 RAE0658 P0000 T00500039 $
2026-05-01 06:52:00,METAR KPWK 010652Z AUTO 04004KT 10SM -RA SCT010 BKN021 OVC036 05/04 A2998 RMK AO2 RAE28B48 SLP155 P0000 T00500039 $
2026-05-01 06:16:00,SPECI KPWK 010616Z AUTO 06006KT 10SM -RA SCT012 OVC020 05/04 A2998 RMK AO2 P0000 T00500039 $
2026-05-01 05:52:00,METAR KPWK 010552Z AUTO 05005KT 10SM -RA BKN012 OVC017 05/04 A2998 RMK AO2 SLP157 P0001 60002 T00500039 10056 20050 401220022 58002 $
2026-05-01 05:42:00,SPECI KPWK 010542Z AUTO 06004KT 10SM -RA BKN012 OVC027 05/04 A2999 RMK AO2 P0001 T00500039 $
2026-05-01 04:52:00,METAR KPWK 010452Z AUTO 00000KT 10SM -RA BKN028 BKN042 OVC050 05/04 A2999 RMK AO2 SLP158 P0000 T00500039 $
2026-05-01 04:47:00,SPECI KPWK 010447Z AUTO 00000KT 10SM -RA BKN028 OVC041 05/04 A2999 RMK AO2 P0000 $
2026-05-01 03:52:00,METAR KPWK 010352Z AUTO 05004KT 10SM -RA BKN032 BKN050 OVC100 05/03 A2999 RMK AO2 SLP158 P0000 T00500033 $
2026-05-01 02:52:00,METAR KPWK 010252Z 13004KT 10SM -RA OVC032 05/02 A3000 RMK AO2 SLP162 P0001 60001 T00500022 53005 $
2026-05-01 01:52:00,METAR KPWK 010152Z 08006KT 10SM -RA OVC031 06/01 A2998 RMK AO2 RAB45 SLP157 P0000 T00560011 $
2026-05-01 00:52:00,METAR KPWK 010052Z 09004KT 10SM OVC032 05/01 A2998 RMK AO2 RAE25 SLP155 P0000 T00500006 $
2026-04-30 23:52:00,METAR KPWK 302352Z 08006KT 10SM -RA OVC034 05/01 A2998 RMK AO2 SLP157 P0000 60000 T00500011 10083 20050 56003 $
2026-04-30 22:52:00,METAR KPWK 302252Z 07007KT 10SM -RA OVC041 06/01 A2999 RMK AO2 RAB25 SLP158 P0000 T00610011 $
2026-04-30 21:52:00,METAR KPWK 302152Z 06006KT 10SM OVC046 07/01 A2999 RMK AO2 SLP158 T00720006 $
2026-04-30 20:52:00,METAR KPWK 302052Z 07008KT 10SM OVC055 07/02 A2999 RMK AO2 SLP160 T00720017 58007 $
2026-04-30 19:52:00,METAR KPWK 301952Z 08010KT 10SM OVC065 07/02 A3000 RMK AO2 SLP165 T00720022 $
2026-04-30 18:52:00,METAR KPWK 301852Z 06009KT 10SM OVC065 07/02 A3001 RMK AO2 SLP167 T00720022 $
2026-04-30 17:52:00,METAR KPWK 301752Z 06010KT 10SM OVC065 08/04 A3001 RMK AO2 SLP167 T00780044 10122 20044 56007 $
2026-04-30 16:52:00,METAR KPWK 301652Z 06008KT 10SM OVC060 09/04 A3002 RMK AO2 SLP170 T00940039 $
2026-04-30 15:52:00,METAR KPWK 301552Z 00000KT 10SM SCT050 BKN070 12/00 A3003 RMK AO2 SLP170 T01170000 $
2026-04-30 14:52:00,METAR KPWK 301452Z VRB04KT 10SM SCT075 BKN110 11/02 A3004 RMK AO2 SLP173 T01060022 58002 $
2026-04-30 13:52:00,METAR KPWK 301352Z 00000KT 10SM FEW080 FEW110 08/04 A3004 RMK AO2 SLP177 T00780039 $
2026-04-30 12:52:00,METAR KPWK 301252Z 26003KT 10SM FEW080 FEW095 07/04 A3005 RMK AO2 SLP178 T00670039 $
2026-04-30 11:52:00,METAR KPWK 301152Z 29003KT 8SM FEW110 04/03 A3004 RMK AO2 SLP177 70001 T00440033 10050 20022 52006 $
2026-04-30 10:52:00,METAR KPWK 301052Z 00000KT 10SM FEW110 03/02 A3004 RMK AO2 SLP176 T00280022 $
2026-04-30 09:52:00,METAR KPWK 300952Z AUTO 00000KT 10SM FEW070 FEW100 03/02 A3003 RMK AO2 SLP173 T00280022 $
2026-04-30 08:52:00,METAR KPWK 300852Z AUTO 00000KT 10SM CLR 04/03 A3002 RMK AO2 SLP170 T00390028 55004 $
2026-04-30 07:52:00,METAR KPWK 300752Z AUTO 00000KT 10SM FEW110 03/03 A3002 RMK AO2 SLP168 T00330028 $
2026-04-30 06:52:00,METAR KPWK 300652Z AUTO 00000KT 10SM FEW070 SCT095 BKN120 04/04 A3003 RMK AO2 SLP172 T00440039 $
2026-04-30 05:52:00,METAR KPWK 300552Z AUTO 00000KT 10SM FEW080 05/04 A3004 RMK AO2 SLP174 60000 T00500039 10072 20039 401330039 55002 $
2026-04-30 04:52:00,METAR KPWK 300452Z 00000KT 10SM FEW065 SCT110 04/03 A3003 RMK AO2 SLP173 T00390028 $
2026-04-30 03:52:00,METAR KPWK 300352Z 00000KT 10SM FEW075 06/03 A3004 RMK AO2 SLP174 T00560033 $
2026-04-30 02:52:00,METAR KPWK 300252Z 00000KT 10SM FEW070 BKN090 BKN100 06/03 A3004 RMK AO2 SLP176 60000 T00610033 51008 $
2026-04-30 01:52:00,METAR KPWK 300152Z 03006KT 10SM FEW025 SCT038 OVC049 07/03 A3004 RMK AO2 RAB02E14 SLP175 P0000 T00670033 $
2026-04-30 01:48:00,SPECI KPWK 300148Z 03005KT 10SM SCT025 SCT038 OVC050 07/03 A3004 RMK AO2 RAB02E14 P0000 $
2026-04-30 00:52:00,METAR KPWK 300052Z 07004KT 10SM BKN028 BKN033 OVC070 07/04 A3002 RMK AO2 SLP168 T00670039 $
2026-04-29 23:52:00,METAR KPWK 292352Z 06006KT 10SM BKN027 OVC035 07/04 A3000 RMK AO2 SLP161 60000 T00720039 10100 20072 $
2026-04-29 23:07:00,SPECI KPWK 292307Z 06006KT 10SM FEW023 BKN030 OVC085 07/04 A2999 RMK AO2 T00720039 $
2026-04-29 22:52:00,METAR KPWK 292252Z 04008KT 10SM FEW017 BKN025 OVC034 08/04 A2999 RMK AO2 SLP157 T00780039 $
2026-04-29 21:52:00,METAR KPWK 292152Z 04008KT 10SM SCT017 BKN023 OVC075 08/05 A2998 RMK AO2 SLP153 T00830050 $
2026-04-29 20:52:00,METAR KPWK 292052Z 01005KT 10SM BKN017 BKN031 OVC055 09/05 A2997 RMK AO2 SLP152 60000 T00890050 51008 $
2026-04-29 19:54:00,SPECI KPWK 291954Z 05008KT 10SM BKN017 BKN021 OVC026 09/06 A2997 RMK AO2 T00940061 $
2026-04-29 19:52:00,METAR KPWK 291952Z AUTO 04008KT 10SM BKN014 BKN021 OVC055 09/06 A2997 RMK AO2 SLP150 T00940061 $
2026-04-29 19:08:00,SPECI KPWK 291908Z 03008KT 10SM BKN014 BKN021 OVC026 08/06 A2997 RMK AO2 T00830061 $
2026-04-29 18:52:00,METAR KPWK 291852Z 02006KT 10SM BKN009 08/07 A2996 RMK AO2 RAB00E09 SLP148 P0000 T00830067 $
2026-04-29 18:07:00,SPECI KPWK 291807Z 36008KT 10SM -RA BKN009 OVC022 08/06 A2995 RMK AO2 RAB00 P0000 T00830061 $
2026-04-29 18:05:00,SPECI KPWK 291805Z 01009KT 10SM -RA BKN013 OVC022 08/06 A2995 RMK AO2 RAB00 P0000 T00830061 $
2026-04-29 17:52:00,METAR KPWK 291752Z 01009KT 10SM FEW011 BKN015 OVC027 08/07 A2995 RMK AO2 RAB1657E36 SLP144 P0001 60001 T00830067 10122 20083 53007 $
2026-04-29 17:40:00,SPECI KPWK 291740Z 35008KT 10SM FEW009 BKN025 OVC050 08/07 A2995 RMK AO2 RAB1657E36 P0001 T00830067 $
2026-04-29 17:31:00,SPECI KPWK 291731Z 35007KT 10SM -RA FEW009 BKN036 OVC050 09/07 A2995 RMK AO2 RAB1657 P0001 T00890072 $
2026-04-29 17:07:00,SPECI KPWK 291707Z 01010KT 10SM -RA SCT016 OVC036 09/07 A2994 RMK AO2 RAB1657 P0001 T00890067 $
2026-04-29 16:52:00,METAR KPWK 291652Z 35012G19KT 10SM BKN018 BKN037 OVC044 09/07 A2994 RMK AO2 RAB27E47 SLP141 P0000 T00940072 $
2026-04-29 16:21:00,SPECI KPWK 291621Z 01006KT 10SM BKN021 BKN029 OVC042 11/07 A2993 RMK AO2 T01060067 $
2026-04-29 15:52:00,METAR KPWK 291552Z 36007KT 10SM FEW030 BKN050 OVC070 12/06 A2993 RMK AO2 SLP137 T01170061 $
2026-04-29 14:52:00,METAR KPWK 291452Z 35008KT 10SM FEW021 BKN050 12/07 A2993 RMK AO2 SLP135 60000 T01170067 56001 $
2026-04-29 13:52:00,METAR KPWK 291352Z 35006KT 10SM FEW019 OVC075 11/06 A2993 RMK AO2 SLP136 T01060061
2026-04-29 12:52:00,METAR KPWK 291252Z 35005KT 10SM BKN060 OVC080 09/06 A2993 RMK AO2 RAE1155 SLP136 P0000 T00940061
2026-04-29 11:52:00,METAR KPWK 291152Z 36007KT 10SM -RA OVC060 09/06 A2993 RMK AO2 RAB02 SLP137 P0000 60000 T00940061 10133 20094 53013
2026-04-29 10:52:00,METAR KPWK 291052Z 36008KT 10SM OVC065 11/06 A2991 RMK AO2 SLP129 T01110056
2026-04-29 09:52:00,METAR KPWK 290952Z AUTO 33010KT 10SM BKN065 OVC085 12/04 A2989 RMK AO2 SLP122 T01220044
2026-04-29 08:52:00,METAR KPWK 290852Z AUTO 35009KT 10SM SCT065 OVC090 12/04 A2990 RMK AO2 SLP123 T01220044 56006
2026-04-29 07:52:00,METAR KPWK 290752Z AUTO 34004KT 10SM BKN065 OVC090 12/06 A2990 RMK AO2 SLP124 T01220056
2026-04-29 06:52:00,METAR KPWK 290652Z AUTO 33005KT 10SM FEW110 12/06 A2990 RMK AO2 SLP126 T01170056
2026-04-29 05:52:00,METAR KPWK 290552Z AUTO 33006KT 10SM BKN110 13/06 A2991 RMK AO2 SLP129 T01330056 10172 20128 401780106 55006
2026-04-29 04:52:00,METAR KPWK 290452Z AUTO 35007KT 10SM FEW075 BKN090 BKN110 14/06 A2990 RMK AO2 SLP127 T01390056
2026-04-29 03:52:00,METAR KPWK 290352Z AUTO 00000KT 10SM SCT080 BKN100 BKN120 14/08 A2993 RMK AO2 SLP136 T01440083
2026-04-29 02:52:00,METAR KPWK 290252Z AUTO 34003KT 10SM FEW120 15/07 A2993 RMK AO2 SLP136 T01500067 53010
2026-04-29 01:52:00,METAR KPWK 290152Z 00000KT 10SM CLR 16/06 A2992 RMK AO2 SLP132 T01560061
2026-04-29 00:52:00,METAR KPWK 290052Z COR 30004KT 10SM FEW110 17/06 A2990 RMK AO2 SLP126 T01670061
2026-04-28 23:52:00,METAR KPWK 282352Z 25005KT 10SM CLR 17/06 A2990 RMK AO2 SLP124 T01720061 10178 20144 55006
2026-04-28 22:52:00,METAR KPWK 282252Z 32008KT 10SM FEW110 18/07 A2990 RMK AO2 SLP123 T01780067
2026-04-28 21:52:00,METAR KPWK 282152Z COR 29005G17KT 10SM SCT090 17/07 A2991 RMK AO2 SLP129 T01720067
2026-04-28 20:52:00,METAR KPWK 282052Z 30009KT 10SM CLR 17/07 A2992 RMK AO2 SLP130 T01720072 58012
2026-04-28 19:52:00,METAR KPWK 281952Z 30014G20KT 10SM FEW037 17/07 A2993 RMK AO2 SLP134 T01670072
2026-04-28 18:52:00,METAR KPWK 281852Z 25011KT 10SM SCT035 16/08 A2996 RMK AO2 SLP144 T01610078
2026-04-28 17:52:00,METAR KPWK 281752Z 25013G20KT 10SM SCT033 BKN100 15/07 A2995 RMK AO2 SLP143 T01500067 10150 20106 52013
2026-04-28 16:52:00,METAR KPWK 281652Z 28010KT 10SM SCT030 14/06 A2993 RMK AO2 SLP135 T01390061
2026-04-28 16:14:00,SPECI KPWK 281614Z 30006G15KT 10SM BKN030 13/06 A2994 RMK AO2 T01330061
2026-04-28 15:52:00,METAR KPWK 281552Z 24011G18KT 10SM BKN027 OVC032 12/06 A2994 RMK AO2 SLP138 T01220061
2026-04-28 14:52:00,METAR KPWK 281452Z 27009G17KT 10SM OVC028 12/06 A2992 RMK AO2 SLP130 T01170061 51037
2026-04-28 13:52:00,METAR KPWK 281352Z 28009G17KT 10SM OVC025 11/06 A2990 RMK AO2 SLP124 T01110061
2026-04-28 12:52:00,METAR KPWK 281252Z 31009KT 10SM OVC020 11/07 A2986 RMK AO2 SLP111 T01060067
2026-04-28 11:52:00,METAR KPWK 281152Z 28012G27KT 10SM OVC020 11/07 A2981 RMK AO2 PK WND 28027/1143 SLP093 70132 T01110067 10161 20111 53032
2026-04-28 10:52:00,METAR KPWK 281052Z 28012G24KT 10SM OVC021 11/07 A2977 RMK AO2 PK WND 30026/1030 SLP081 T01110072
2026-04-28 09:52:00,METAR KPWK 280952Z AUTO 27014G22KT 10SM OVC018 12/08 A2973 RMK AO2 PK WND 27029/0907 PRESRR SLP068 T01170083
2026-04-28 08:52:00,METAR KPWK 280852Z AUTO 28009G24KT 10SM OVC020 13/09 A2971 RMK AO2 PK WND 26027/0802 SLP060 T01280089 53021
2026-04-28 07:52:00,METAR KPWK 280752Z AUTO 27010G24KT 10SM OVC022 13/10 A2969 RMK AO2 PK WND 29027/0714 SLP053 T01330100
2026-04-28 06:52:00,METAR KPWK 280652Z AUTO 27014G24KT 10SM OVC018 15/12 A2966 RMK AO2 SLP043 T01500117
2026-04-28 06:06:00,SPECI KPWK 280606Z AUTO 26014G21KT 10SM SCT015 BKN024 16/14 A2965 RMK AO2 T01610144
2026-04-28 05:52:00,METAR KPWK 280552Z AUTO 23007KT 10SM BKN013 BKN020 OVC027 16/15 A2965 RMK AO2 SLP039 60077 T01610150 10178 20156 402000078 53008
2026-04-28 05:00:00,SPECI KPWK 280500Z AUTO 22007KT 10SM BKN011 BKN022 OVC034 16/15 A2965 RMK AO2 LTG DSNT E T01560150
2026-04-28 04:52:00,METAR KPWK 280452Z AUTO 21008G18KT 10SM SCT013 BKN022 OVC042 16/15 A2965 RMK AO2 WSHFT 0422 LTG DSNT E RAB17E47 SLP038 P0039 T01610150
2026-04-28 04:36:00,SPECI KPWK 280436Z AUTO 20013KT 4SM VCTS -RA BR FEW013 BKN025 OVC046 16/15 A2965 RMK AO2 WSHFT 0422 RAB17 P0039 T01610150
2026-04-28 04:33:00,SPECI KPWK 280433Z AUTO 20011G21KT 2SM VCTS +RA BR FEW013 BKN022 OVC075 16/15 A2964 RMK AO2 VIS 1V5 RAB17 P0038 T01610150
2026-04-28 04:26:00,SPECI KPWK 280426Z AUTO 19014G21KT 1 3/4SM VCTS +RA BR BKN013 BKN034 OVC085 17/14 A2965 RMK AO2 VIS 1V5 RAB17 P0032 T01670144
2026-04-28 04:23:00,SPECI KPWK 280423Z AUTO 27010G19KT 230V310 3SM VCTS +RA BR BKN013 BKN034 OVC085 16/15 A2966 RMK AO2 RAB17 P0014 T01610150
2026-04-28 03:58:00,SPECI KPWK 280358Z AUTO 20010KT 10SM VCTS SCT013 BKN090 BKN110 17/15 A2963 RMK AO2 LTG DSNT W AND NW T01670150
2026-04-28 03:52:00,METAR KPWK 280352Z AUTO 20011KT 10SM SCT013 BKN085 BKN110 17/15 A2963 RMK AO2 PK WND 20026/0313 LTG DSNT W AND NW SLP031 T01670150
2026-04-28 03:47:00,SPECI KPWK 280347Z AUTO 20012KT 10SM SCT013 BKN085 BKN110 17/15 A2963 RMK AO2 PK WND 20026/0313 LTG DSNT W AND NW
2026-04-28 03:18:00,SPECI KPWK 280318Z AUTO 20014G26KT 10SM BKN012 OVC100 17/16 A2964 RMK AO2 PK WND 20026/0313 LTG DSNT W T01670156
2026-04-28 02:52:00,METAR KPWK 280252Z 20011G20KT 10SM FEW013 SCT080 17/16 A2963 RMK AO2 SLP034 60038 T01670156 55000
2026-04-28 02:28:00,SPECI KPWK 280228Z 21010KT 10SM FEW017 SCT022 17/16 A2963 RMK AO2 T01670156
2026-04-28 02:19:00,SPECI KPWK 280219Z 21009KT 10SM SCT015 BKN021 BKN100 17/16 A2961 RMK AO2 T01670156
2026-04-28 01:47:00,METAR KPWK 280147Z VRB04KT 10SM BKN014 OVC095 17/16 A2956 RMK AO2 LTG DSNT NE-SE RAE47 SLP007 P0005 T01720156
2026-04-28 01:46:00,SPECI KPWK 280146Z VRB04KT 10SM -RA BKN014 OVC095 17/16 A2956 RMK AO2 LTG DSNT NE-SE P0005
2026-04-28 01:22:00,SPECI KPWK 280122Z 14013G20KT 10SM RA SCT021 BKN050 OVC090 17/16 A2958 RMK AO2 LTG DSNT S PRESFR P0004 T01720161
2026-04-28 01:01:00,SPECI KPWK 280101Z 19007KT 10SM -RA FEW019 BKN025 OVC039 17/16 A2964 RMK AO2 LTG DSNT SE-SW P0000 T01720161
2026-04-28 00:52:00,METAR KPWK 280052Z 18007KT 9SM VCTS -RA FEW019 BKN039 OVC085 17/16 A2964 RMK AO2 LTG DSNT NE AND E TSE18 SLP036 P0033 T01720161
2026-04-28 00:44:00,SPECI KPWK 280044Z 19005KT 10SM RA FEW023 BKN040 OVC095 17/16 A2963 RMK AO2 LTG DSNT NE AND E TSE18 P0032 T01720161
2026-04-28 00:24:00,SPECI KPWK 280024Z 15010KT 10SM VCTS -RA SCT034 BKN070 OVC110 17/16 A2960 RMK AO2 LTG DSNT NE AND E AND SW TSE18 PRESFR P0030 T01670161
2026-04-28 00:17:00,SPECI KPWK 280017Z 18006KT 8SM -TSRA SCT028 SCT042 BKN070 17/16 A2962 RMK AO2 LTG DSNT ALQDS P0030 T01670161
2026-04-28 00:10:00,SPECI KPWK 280010Z 17006KT 3SM TSRA BR BKN028 BKN044 BKN110 17/16 A2962 RMK AO2 LTG DSNT E-SW P0029 T01670161
2026-04-28 00:02:00,SPECI KPWK 280002Z 17008KT 1 1/4SM +TSRA BR BKN026 BKN041 OVC050 17/16 A2963 RMK AO2 LTG DSNT E-SW P0026 T01720161
2026-04-27 23:55:00,SPECI KPWK 272355Z 25009KT 2SM +TSRA BR BKN028 BKN049 OVC060 18/16 A2964 RMK AO2 LTG DSNT S-W P0011 T01780156
2026-04-27 23:52:00,METAR KPWK 272352Z 21009G18KT 3SM +TSRA SCT031 BKN049 OVC060 18/16 A2963 RMK AO2 LTG DSNT S-W RAB23 TSB50 SLP034 P0011 60025 T01830156 10200 20139 53014
2026-04-27 23:38:00,SPECI KPWK 272338Z 21011KT 10SM VCTS -RA BKN049 19/14 A2963 RMK AO2 LTG DSNT SW RAB23 P0000 T01940144
2026-04-27 22:52:00,METAR KPWK 272252Z 20010KT 10SM BKN044 OVC065 19/14 A2962 RMK AO2 SLP028 T01940144
2026-04-27 21:52:00,METAR KPWK 272152Z 17014KT 10SM SCT060 SCT095 19/15 A2961 RMK AO2 SLP024 T01940150
2026-04-27 20:52:00,METAR KPWK 272052Z 17010KT 10SM CLR 17/14 A2959 RMK AO2 PK WND 16027/1953 SLP021 60014 T01670139 55080
2026-04-27 19:52:00,METAR KPWK 271952Z 16016G23KT 10SM CLR 17/14 A2959 RMK AO2 PK WND 15036/1925 SLP019 T01720144
2026-04-27 19:14:00,SPECI KPWK 271914Z 16021G32KT 10SM FEW013 16/14 A2959 RMK AO2 PK WND 15032/1907 T01560139
2026-04-27 18:57:00,SPECI KPWK 271857Z 16020G34KT 2SM FEW008 BKN013 BKN021 15/14 A2959 RMK AO2 PK WND 16030/1854 SFC VIS 10 T01500139
2026-04-27 18:52:00,METAR KPWK 271852Z 17021G34KT 2SM SCT008 BKN031 15/14 A2959 RMK AO2 PK WND 13042/1824 WSHFT 1812 SFC VIS 10 RAE46 SLP022 P0014 T01500139
2026-04-27 18:32:00,SPECI KPWK 271832Z 14016G42KT 2SM -RA BR FEW008 BKN060 OVC100 14/13 A2960 RMK AO2 PK WND 13042/1824 WSHFT 1812 SFC VIS 5 LTG DSNT S P0014 T01390133
2026-04-27 18:23:00,SPECI KPWK 271823Z 13025G36KT 2SM VCTS RA BR FEW055 SCT075 OVC095 14/13 A2964 RMK AO2 PK WND 13036/1823 SFC VIS 4 LTG DSNT SE AND S PRESFR P0013 T01390133
2026-04-27 18:08:00,SPECI KPWK 271808Z 19013KT 2SM RA BR SCT055 BKN080 OVC100 14/13 A2982 RMK AO2 SFC VIS 5 LTG DSNT SE AND S P0006 T01390133
2026-04-27 17:52:00,METAR KPWK 271752Z 18009KT 2SM VCTS +RA BR FEW028 BKN050 OVC090 14/13 A2983 RMK AO2 SFC VIS 3 LTG DSNT ALQDS RAB1655 TSB09E24 SLP104 P0026 60030 T01390128 10144 20117 55001
2026-04-27 17:41:00,SPECI KPWK 271741Z 18008KT 2SM VCTS +RA BR SCT028 BKN035 OVC055 14/13 A2984 RMK AO2 SFC VIS 4 LTG DSNT ALQDS RAB1655 TSB09E24 P0020 T01390128
2026-04-27 17:32:00,SPECI KPWK 271732Z 19006KT 2SM RA BR BKN028 OVC055 14/13 A2984 RMK AO2 SFC VIS 6 LTG DSNT S AND SW RAB1655 TSB09E24 P0015 T01390128
2026-04-27 17:24:00,SPECI KPWK 271724Z 20005KT 1 1/4SM RA BR BKN028 BKN049 OVC060 14/13 A2983 RMK AO2 SFC VIS 4 LTG DSNT SW RAB1655 TSB09E24 P0012 T01390128
2026-04-27 17:13:00,SPECI KPWK 271713Z 18006KT 3/4SM +TSRA BR SCT029 BKN050 OVC100 13/12 A2984 RMK AO2 SFC VIS 4 LTG DSNT SW RAB1655 TSB09 P0008 T01330122
2026-04-27 16:52:00,METAR KPWK 271652Z 14008KT 10SM SCT085 BKN110 14/12 A2979 RMK AO2 SLP087 P0001 T01390117
2026-04-27 15:52:00,METAR KPWK 271552Z 14008KT 10SM FEW050 SCT080 OVC100 14/12 A2981 RMK AO2 RAE49 SLP096 P0003 T01390122
2026-04-27 14:52:00,METAR KPWK 271452Z 17008G16KT 10SM -RA OVC090 14/11 A2984 RMK AO2 RAB09E35B51 SLP105 P0000 60000 T01440111 56022
2026-04-27 14:19:00,SPECI KPWK 271419Z 16009KT 10SM -RA BKN075 OVC100 14/11 A2985 RMK AO2 RAB09 P0000 T01390111
2026-04-27 13:52:00,METAR KPWK 271352Z 17010KT 10SM FEW070 BKN100 BKN120 14/10 A2986 RMK AO2 SLP112 T01390100
2026-04-27 12:52:00,METAR KPWK 271252Z 12009KT 10SM OVC090 12/09 A2986 RMK AO2 PRESFR SLP111 T01220094
2026-04-27 11:52:00,METAR KPWK 271152Z 11005KT 10SM FEW110 12/09 A2990 RMK AO2 SLP126 T01170094 10117 20078 56013
2026-04-27 10:52:00,METAR KPWK 271052Z 12005KT 10SM CLR 11/09 A2991 RMK AO2 SLP129 T01110089
2026-04-27 09:52:00,METAR KPWK 270952Z AUTO 13009KT 10SM CLR 11/09 A2990 RMK AO2 SLP124 T01110089
2026-04-27 08:52:00,METAR KPWK 270852Z AUTO 13007KT 10SM FEW120 11/09 A2994 RMK AO2 SLP140 T01110089 57022
2026-04-27 07:52:00,METAR KPWK 270752Z AUTO 12006KT 10SM FEW070 11/09 A2996 RMK AO2 SLP148 T01060089
2026-04-27 06:52:00,METAR KPWK 270652Z AUTO 06003KT 10SM CLR 08/07 A2999 RMK AO2 SLP156 T00780067
2026-04-27 05:52:00,METAR KPWK 270552Z AUTO 00000KT 10SM FEW120 08/06 A3001 RMK AO2 SLP164 T00780061 10122 20067 401390044 56018
2026-04-27 04:52:00,METAR KPWK 270452Z AUTO 07006KT 10SM CLR 07/06 A3001 RMK AO2 SLP166 T00720056
2026-04-27 03:52:00,METAR KPWK 270352Z AUTO 07005KT 10SM FEW120 07/06 A3004 RMK AO2 SLP176 T00670056
2026-04-27 02:52:00,METAR KPWK 270252Z 05004KT 10SM FEW100 07/06 A3006 RMK AO2 SLP183 T00670056 52015
2026-04-27 01:52:00,METAR KPWK 270152Z VRB04KT 10SM CLR 07/06 A3005 RMK AO2 SLP178 T00720056
2026-04-27 00:52:00,METAR KPWK 270052Z 07008KT 10SM FEW080 FEW100 09/07 A3003 RMK AO2 SLP171 T00890067
2026-04-26 23:52:00,METAR KPWK 262352Z 10003KT 10SM CLR 12/08 A3002 RMK AO2 SLP167 T01220078 10139 20100 56006
2026-04-26 22:52:00,METAR KPWK 262252Z 10008KT 10SM CLR 13/08 A3003 RMK AO2 SLP172 T01330078
2026-04-26 21:52:00,METAR KPWK 262152Z 08009KT 10SM CLR 13/08 A3001 RMK AO2 SLP166 T01330078
2026-04-26 20:52:00,METAR KPWK 262052Z 08009KT 10SM CLR 13/08 A3003 RMK AO2 SLP173 T01280078 58017
2026-04-26 19:52:00,METAR KPWK 261952Z 10008G16KT 060V120 10SM CLR 13/08 A3005 RMK AO2 SLP180 T01280078
2026-04-26 19:22:00,SPECI KPWK 261922Z 11008G14KT 10SM SCT014 12/08 A3007 RMK AO2 T01220078
2026-04-26 18:52:00,METAR KPWK 261852Z 07009G17KT 10SM OVC013 12/07 A3008 RMK AO2 SLP190 T01170072
2026-04-26 17:52:00,METAR KPWK 261752Z 08008KT 10SM OVC009 11/07 A3011 RMK AO2 SLP197 T01060072 10106 20067 58003
2026-04-26 16:52:00,METAR KPWK 261652Z 08007KT 10SM OVC009 10/07 A3012 RMK AO2 SLP201 T01000072
2026-04-26 15:52:00,METAR KPWK 261552Z 07007KT 10SM OVC006 09/07 A3012 RMK AO2 SLP201 T00890072
2026-04-26 14:52:00,METAR KPWK 261452Z 07007KT 10SM OVC006 08/07 A3011 RMK AO2 SLP200 T00830072 51009
2026-04-26 13:52:00,METAR KPWK 261352Z 09007KT 10SM OVC005 08/07 A3011 RMK AO2 SLP199 T00830072
2026-04-26 13:18:00,SPECI KPWK 261318Z 10008KT 10SM OVC005 08/07 A3011 RMK AO2 T00830072
2026-04-26 13:06:00,SPECI KPWK 261306Z 10007KT 10SM OVC004 08/07 A3010 RMK AO2 T00830072
2026-04-26 12:52:00,METAR KPWK 261252Z 09005KT 7SM OVC003 08/07 A3010 RMK AO2 SLP197 T00780072
2026-04-26 12:07:00,SPECI KPWK 261207Z 07003KT 3SM BR OVC002 07/07 A3009 RMK AO2 T00720067
2026-04-26 11:52:00,METAR KPWK 261152Z 03004KT 1 3/4SM BR OVC003 07/07 A3009 RMK AO2 SLP192 T00670067 10067 20044 51013
2026-04-26 11:27:00,SPECI KPWK 261127Z AUTO 09004KT 10SM OVC004 07/06 A3008 RMK AO2 T00670061
2026-04-26 10:52:00,METAR KPWK 261052Z AUTO 00000KT 10SM OVC007 06/05 A3008 RMK AO2 SLP189 T00610050
2026-04-26 10:38:00,SPECI KPWK 261038Z AUTO 00000KT 10SM BKN007 06/05 A3008 RMK AO2 T00560050
2026-04-26 10:29:00,SPECI KPWK 261029Z AUTO 33003KT 10SM SCT007 05/04 A3007 RMK AO2 T00500044
2026-04-26 09:52:00,METAR KPWK 260952Z AUTO 00000KT 10SM CLR 05/04 A3006 RMK AO2 SLP183 T00500044
2026-04-26 08:52:00,METAR KPWK 260852Z AUTO 00000KT 10SM FEW120 05/04 A3005 RMK AO2 SLP179 T00500044 53003
2026-04-26 07:52:00,METAR KPWK 260752Z AUTO 00000KT 10SM FEW075 SCT100 BKN120 06/04 A3002 RMK AO2 SLP168 T00560044
2026-04-26 06:52:00,METAR KPWK 260652Z AUTO 00000KT 10SM FEW075 06/04 A3004 RMK AO2 SLP174 T00560044
2026-04-26 05:52:00,METAR KPWK 260552Z AUTO 06005KT 10SM CLR 06/04 A3004 RMK AO2 SLP176 T00610044 10078 20061 401220061 55001
2026-04-26 04:52:00,METAR KPWK 260452Z AUTO 06006KT 10SM FEW120 07/04 A3003 RMK AO2 SLP173 T00720044
2026-04-26 03:52:00,METAR KPWK 260352Z AUTO 06006KT 10SM FEW110 08/06 A3003 RMK AO2 SLP170 T00780056
2026-04-26 02:52:00,METAR KPWK 260252Z 00000KT 10SM FEW090 FEW110 08/05 A3004 RMK AO2 SLP175 T00780050 53007
2026-04-26 01:52:00,METAR KPWK 260152Z 03004KT 10SM FEW070 SCT085 BKN110 08/05 A3003 RMK AO2 SLP173 T00780050
2026-04-26 00:52:00,METAR KPWK 260052Z 03007KT 10SM CLR 07/06 A3002 RMK AO2 SLP171 T00720056
2026-04-25 23:52:00,METAR KPWK 252352Z 03007KT 10SM CLR 08/06 A3002 RMK AO2 SLP169 T00780056 10117 20078 50005
2026-04-25 22:52:00,METAR KPWK 252252Z 05009KT 10SM FEW110 09/06 A3002 RMK AO2 SLP170 T00890056
2026-04-25 21:52:00,METAR KPWK 252152Z 04009KT 10SM FEW095 SCT120 10/06 A3002 RMK AO2 SLP168 T01000056
2026-04-25 20:52:00,METAR KPWK 252052Z 06008KT 10SM CLR 11/06 A3000 RMK AO2 SLP162 T01060056 58002
2026-04-25 19:52:00,METAR KPWK 251952Z 07005KT 10SM SCT095 BKN110 11/06 A3000 RMK AO2 SLP162 T01060061
2026-04-25 18:52:00,METAR KPWK 251852Z 08009G16KT 10SM CLR 11/06 A3001 RMK AO2 SLP166 T01060061
2026-04-25 17:52:00,METAR KPWK 251752Z 06011G15KT 10SM FEW095 09/06 A3001 RMK AO2 SLP164 T00940061 10122 20078 53005
2026-04-25 16:52:00,METAR KPWK 251652Z 07010G17KT 10SM FEW110 11/06 A2999 RMK AO2 SLP158 T01060061
2026-04-25 15:52:00,METAR KPWK 251552Z 03011G19KT 10SM FEW120 12/06 A2999 RMK AO2 SLP158 T01170061
2026-04-25 14:52:00,METAR KPWK 251452Z 06009KT 10SM FEW012 SCT100 10/06 A2999 RMK AO2 SLP157 T01000061 58002
2026-04-25 14:47:00,SPECI KPWK 251447Z 05011KT 10SM SCT012 SCT100 09/06 A2999 RMK AO2
2026-04-25 14:29:00,SPECI KPWK 251429Z 04010G19KT 10SM OVC010 09/06 A3000 RMK AO2 T00890056
2026-04-25 13:52:00,METAR KPWK 251352Z 03013KT 10SM OVC008 08/06 A3000 RMK AO2 SLP160 T00780056
2026-04-25 12:52:00,METAR KPWK 251252Z 06007KT 10SM OVC007 08/07 A3000 RMK AO2 SLP159 T00830067
2026-04-25 11:52:00,METAR KPWK 251152Z 03007KT 10SM OVC008 08/07 A2999 RMK AO2 SLP154 T00780067 10089 20072 53019
2026-04-25 11:27:00,SPECI KPWK 251127Z 04005KT 10SM OVC009 08/07 A2998 RMK AO2 CIG 007V012 T00780067
2026-04-25 11:13:00,SPECI KPWK 251113Z 03007KT 10SM OVC010 08/06 A2998 RMK AO2 CIG 007V012 T00780061
2026-04-25 10:52:00,METAR KPWK 251052Z 04006KT 10SM OVC008 08/06 A2997 RMK AO2 CIG 008V011 SLP148 T00780061
2026-04-25 10:02:00,SPECI KPWK 251002Z 04009KT 10SM OVC005 08/07 A2995 RMK AO2 T00780067
2026-04-25 09:52:00,METAR KPWK 250952Z 05007KT 10SM OVC004 08/07 A2995 RMK AO2 SLP141 T00780072
2026-04-25 09:41:00,SPECI KPWK 250941Z 03007KT 6SM BR OVC004 08/07 A2995 RMK AO2 T00780072
2026-04-25 08:52:00,METAR KPWK 250852Z 03005KT 10SM OVC007 08/07 A2993 RMK AO2 SLP135 T00780067 53014
2026-04-25 08:25:00,SPECI KPWK 250825Z 03010KT 10SM OVC008 08/07 A2992 RMK AO2 CIG 006V011 T00780067
2026-04-25 07:52:00,METAR KPWK 250752Z 03008KT 10SM OVC011 08/06 A2990 RMK AO2 SLP124 T00830056
2026-04-25 07:50:00,SPECI KPWK 250750Z 04009KT 10SM OVC011 08/06 A2990 RMK AO2
2026-04-25 07:13:00,SPECI KPWK 250713Z 04005KT 10SM OVC009 08/06 A2990 RMK AO2 T00830061
2026-04-25 06:52:00,METAR KPWK 250652Z 04006KT 10SM OVC010 08/06 A2989 RMK AO2 CIG 008V013 SLP121 T00830056
2026-04-25 06:23:00,SPECI KPWK 250623Z 03006KT 10SM BKN011 08/06 A2988 RMK AO2 T00780061
2026-04-25 06:02:00,SPECI KPWK 250602Z VRB04KT 10SM FEW009 08/06 A2988 RMK AO2 T00780056
2026-04-25 05:52:00,METAR KPWK 250552Z 04006KT 10SM FEW065 08/06 A2988 RMK AO2 SLP117 T00780056 10206 20078 402170078 51013
2026-04-25 05:05:00,SPECI KPWK 250505Z 03007KT 10SM SCT010 SCT055 09/06 A2988 RMK AO2 T00890061
2026-04-25 04:52:00,METAR KPWK 250452Z 03007KT 10SM BKN009 BKN055 BKN080 09/07 A2988 RMK AO2 SLP117 T00940067
2026-04-25 04:35:00,SPECI KPWK 250435Z 05010G16KT 10SM BKN009 BKN070 09/07 A2987 RMK AO2 T00940067
2026-04-25 04:26:00,SPECI KPWK 250426Z 04009G15KT 10SM SCT007 BKN070 09/07 A2986 RMK AO2 T00940072
2026-04-25 04:17:00,SPECI KPWK 250417Z 04009G21KT 10SM BKN007 BKN070 10/07 A2986 RMK AO2 T01000072
2026-04-25 04:06:00,SPECI KPWK 250406Z 04011KT 10SM SCT007 SCT070 BKN110 10/08 A2986 RMK AO2 T01000078
2026-04-25 03:52:00,METAR KPWK 250352Z 04013KT 10SM FEW065 FEW095 FEW120 11/09 A2987 RMK AO2 SLP113 T01060089
2026-04-25 02:52:00,METAR KPWK 250252Z 06004KT 10SM FEW070 FEW110 16/12 A2984 RMK AO2 SLP102 T01610117 53025
2026-04-25 01:52:00,METAR KPWK 250152Z 36005KT 10SM FEW110 18/10 A2981 RMK AO2 SLP092 T01780100
2026-04-25 00:52:00,METAR KPWK 250052Z 34007KT 10SM FEW045 SCT055 SCT065 19/11 A2977 RMK AO2 SLP079 T01890111
2026-04-24 23:52:00,METAR KPWK 242352Z 31007KT 10SM FEW045 SCT110 21/11 A2976 RMK AO2 SLP075 T02060111 10211 20194 53009
2026-04-24 22:52:00,METAR KPWK 242252Z 30007KT 10SM SCT045 BKN085 21/12 A2974 RMK AO2 SLP067 T02060117
2026-04-24 21:52:00,METAR KPWK 242152Z 26009G18KT 10SM SCT040 BKN110 21/12 A2973 RMK AO2 SLP063 T02060117
2026-04-24 20:52:00,METAR KPWK 242052Z 30009KT 10SM BKN043 21/13 A2973 RMK AO2 SLP065 T02060128 50006
2026-04-24 19:52:00,METAR KPWK 241952Z 27010KT 10SM BKN036 OVC043 20/13 A2974 RMK AO2 SLP066 T02000128
2026-04-24 18:52:00,METAR KPWK 241852Z 27009KT 10SM OVC030 20/13 A2973 RMK AO2 SLP064 T02000128
2026-04-24 17:52:00,METAR KPWK 241752Z 28009G17KT 10SM CLR 21/13 A2972 RMK AO2 SLP059 T02060128 10217 20194 51010
2026-04-24 16:52:00,METAR KPWK 241652Z VRB06KT 10SM CLR 22/12 A2971 RMK AO2 SLP056 T02170122
2026-04-24 15:52:00,METAR KPWK 241552Z 30009G18KT 10SM FEW033 FEW049 21/13 A2970 RMK AO2 SLP053 T02060128
2026-04-24 14:52:00,METAR KPWK 241452Z 30015G26KT 10SM BKN036 BKN046 OVC070 19/13 A2969 RMK AO2 PK WND 30026/1447 SLP048 T01940128 53022
2026-04-24 14:30:00,SPECI KPWK 241430Z 30012G17KT 10SM FEW030 BKN048 OVC070 21/15 A2967 RMK AO2 T02110150
2026-04-24 13:52:00,METAR KPWK 241352Z 26009KT 10SM FEW027 SCT040 BKN100 22/16 A2966 RMK AO2 SLP038 T02170156
2026-04-24 12:52:00,METAR KPWK 241252Z 20007KT 10SM CLR 20/15 A2964 RMK AO2 SLP033 T02000150
2026-04-24 11:52:00,METAR KPWK 241152Z 17006KT 10SM FEW090 FEW110 19/15 A2962 RMK AO2 SLP025 T01940150 10217 20189 58008
2026-04-24 10:52:00,METAR KPWK 241052Z 20007KT 10SM BKN080 20/14 A2963 RMK AO2 SLP030 T02000144
2026-04-24 09:52:00,METAR KPWK 240952Z AUTO 25007KT 10SM BKN034 OVC045 21/14 A2964 RMK AO2 SLP033 T02060144
2026-04-24 08:52:00,METAR KPWK 240852Z AUTO 20010KT 10SM BKN048 BKN065 BKN085 21/14 A2964 RMK AO2 SLP033 T02060139 56016
2026-04-24 07:52:00,METAR KPWK 240752Z AUTO 20011KT 10SM FEW048 OVC060 21/14 A2965 RMK AO2 SLP035 T02110139
2026-04-24 06:52:00,METAR KPWK 240652Z AUTO 20015G22KT 10SM FEW065 SCT100 22/13 A2967 RMK AO2 SLP042 T02170133
2026-04-24 05:52:00,METAR KPWK 240552Z AUTO 20013KT 10SM SCT070 BKN090 BKN110 21/13 A2969 RMK AO2 SLP050 T02110128 10256 20211 402670100 58010
2026-04-24 04:52:00,METAR KPWK 240452Z AUTO 19011KT 10SM FEW055 FEW070 SCT090 22/12 A2972 RMK AO2 LTG DSNT SE SLP058 T02170122
2026-04-24 03:52:00,METAR KPWK 240352Z AUTO 19012KT 10SM FEW080 FEW110 22/11 A2973 RMK AO2 SLP061 T02220111
2026-04-24 02:52:00,METAR KPWK 240252Z 19009KT 10SM FEW065 SCT095 SCT110 23/11 A2972 RMK AO2 SLP061 T02280111 53008
2026-04-24 01:52:00,METAR KPWK 240152Z 18012G19KT 10SM CLR 24/11 A2971 RMK AO2 SLP057 T02390111
2026-04-24 00:52:00,METAR KPWK 240052Z 19013G19KT 10SM FEW060 SCT100 SCT120 24/11 A2970 RMK AO2 SLP055 T02440106
2026-04-23 23:52:00,METAR KPWK 232352Z 19019G25KT 10SM CLR 26/11 A2970 RMK AO2 SLP054 T02560111 10267 20250 56024
2026-04-23 22:52:00,METAR KPWK 232252Z 21014G24KT 10SM CLR 26/12 A2973 RMK AO2 PK WND 20028/2218 SLP063 T02610117
2026-04-23 21:52:00,METAR KPWK 232152Z 20015KT 10SM FEW065 26/12 A2974 RMK AO2 PK WND 18026/2142 SLP068 T02610117
2026-04-23 20:52:00,METAR KPWK 232052Z 21015G25KT 10SM FEW065 27/12 A2977 RMK AO2 PK WND 17027/2017 SLP079 T02670117 58027
2026-04-23 19:52:00,METAR KPWK 231952Z 20013G21KT 10SM SCT060 26/12 A2980 RMK AO2 SLP089 T02610122
2026-04-23 18:52:00,METAR KPWK 231852Z 21012G23KT 10SM SCT055 25/13 A2983 RMK AO2 SLP100 T02500128
2026-04-23 17:52:00,METAR KPWK 231752Z 19013G23KT 10SM BKN060 26/13 A2985 RMK AO2 SLP107 T02560128 10256 20122 56018
2026-04-23 16:52:00,METAR KPWK 231652Z 19011G21KT 10SM CLR 24/14 A2987 RMK AO2 SLP114 T02440139
2026-04-23 15:52:00,METAR KPWK 231552Z 25009KT 10SM FEW090 SCT120 24/14 A2988 RMK AO2 SLP118 T02390144
2026-04-23 14:52:00,METAR KPWK 231452Z 20008KT 10SM CLR 21/14 A2991 RMK AO2 SLP127 T02110144 58007
2026-04-23 13:52:00,METAR KPWK 231352Z 21006KT 10SM FEW085 SCT110 19/14 A2993 RMK AO2 SLP133 T01890144
2026-04-23 12:52:00,METAR KPWK 231252Z 20006KT 10SM FEW080 FEW110 16/13 A2993 RMK AO2 SLP134 T01610128
2026-04-23 11:52:00,METAR KPWK 231152Z 00000KT 10SM FEW075 SCT095 BKN110 12/09 A2993 RMK AO2 SLP135 T01220089 10122 20100 53002
2026-04-23 10:52:00,METAR KPWK 231052Z 00000KT 10SM FEW075 FEW100 SCT120 11/07 A2992 RMK AO2 SLP132 T01060072
2026-04-23 09:52:00,METAR KPWK 230952Z AUTO 00000KT 10SM SCT070 BKN090 BKN110 11/06 A2991 RMK AO2 SLP130 T01110061
2026-04-23 08:52:00,METAR KPWK 230852Z AUTO 00000KT 10SM CLR 11/06 A2992 RMK AO2 SLP133 T01110056 56011
2026-04-23 07:52:00,METAR KPWK 230752Z AUTO 00000KT 10SM FEW060 SCT080 11/04 A2993 RMK AO2 SLP134 T01110044
2026-04-23 06:52:00,METAR KPWK 230652Z AUTO 00000KT 10SM FEW065 FEW075 10/05 A2994 RMK AO2 SLP139 T01000050
2026-04-23 05:52:00,METAR KPWK 230552Z AUTO 00000KT 10SM CLR 11/03 A2996 RMK AO2 SLP144 T01060028 10128 20094 401940094 58001
2026-04-23 04:52:00,METAR KPWK 230452Z AUTO 00000KT 10SM FEW065 BKN095 BKN120 10/02 A2997 RMK AO2 SLP148 T01000022
2026-04-23 03:52:00,METAR KPWK 230352Z AUTO 00000KT 10SM FEW070 FEW095 SCT120 09/02 A2996 RMK AO2 SLP145 T00940017
2026-04-23 02:52:00,METAR KPWK 230252Z AUTO 09003KT 10SM FEW060 SCT100 BKN120 09/02 A2996 RMK AO2 SLP146 T00940017 53000
2026-04-23 01:52:00,METAR KPWK 230152Z AUTO 09003KT 10SM FEW070 10/01 A2996 RMK AO2 SLP146 T01000011
2026-04-23 00:52:00,METAR KPWK 230052Z 08006KT 10SM FEW070 11/M01 A2995 RMK AO2 SLP144 T01061006
2026-04-22 23:52:00,METAR KPWK 222352Z 05008KT 10SM FEW080 FEW110 13/01 A2996 RMK AO2 SLP145 T01280011 10194 20128 55005
2026-04-22 22:52:00,METAR KPWK 222252Z 05009KT 10SM FEW110 14/06 A2996 RMK AO2 SLP144 T01390056
2026-04-22 21:52:00,METAR KPWK 222152Z 06008KT 10SM FEW090 16/08 A2996 RMK AO2 SLP143 T01560078
2026-04-22 20:52:00,METAR KPWK 222052Z 06009KT 10SM FEW110 16/09 A2997 RMK AO2 SLP149 T01610089 58001
2026-04-22 19:52:00,METAR KPWK 221952Z 07009KT 10SM FEW095 18/11 A2998 RMK AO2 SLP151 T01780106
2026-04-22 18:52:00,METAR KPWK 221852Z 08009KT 10SM CLR 18/11 A2998 RMK AO2 SLP152 T01830106
2026-04-22 17:52:00,METAR KPWK 221752Z 07008KT 10SM FEW085 19/12 A2997 RMK AO2 SLP149 T01890117 10194 20139 50003
2026-04-22 16:52:00,METAR KPWK 221652Z 05004KT 10SM CLR 18/11 A2998 RMK AO2 SLP151 T01830111
2026-04-22 15:52:00,METAR KPWK 221552Z 10005KT 10SM CLR 16/10 A2998 RMK AO2 SLP152 T01610100
2026-04-22 15:10:00,SPECI KPWK 221510Z 09006KT 10SM SCT022 14/09 A2997 RMK AO2 T01440094
2026-04-22 14:52:00,METAR KPWK 221452Z 07006KT 10SM BKN022 OVC060 14/09 A2997 RMK AO2 SLP147 T01390089 53006
2026-04-22 13:52:00,METAR KPWK 221352Z 08005KT 10SM BKN020 BKN090 15/10 A2995 RMK AO2 SLP139 T01500100
2026-04-22 13:47:00,SPECI KPWK 221347Z 08003KT 10SM BKN020 15/10 A2995 RMK AO2
2026-04-22 12:52:00,METAR KPWK 221252Z 07004KT 10SM SCT095 BKN110 16/11 A2995 RMK AO2 SLP138 T01560111
2026-04-22 11:52:00,METAR KPWK 221152Z 00000KT 10SM BKN065 14/13 A2994 RMK AO2 SLP134 T01440128 10161 20128 53015
2026-04-22 10:52:00,METAR KPWK 221052Z 00000KT 10SM SCT110 16/13 A2991 RMK AO2 SLP126 T01560128
2026-04-22 09:52:00,METAR KPWK 220952Z AUTO 21003KT 10SM BKN110 15/12 A2990 RMK AO2 SLP121 T01500122
2026-04-22 08:52:00,METAR KPWK 220852Z AUTO 16003KT 10SM BKN100 13/11 A2989 RMK AO2 SLP119 T01280111 55000
2026-04-22 07:52:00,METAR KPWK 220752Z AUTO 00000KT 10SM SCT070 BKN090 13/12 A2988 RMK AO2 SLP118 T01330117
2026-04-22 06:52:00,METAR KPWK 220652Z AUTO 00000KT 10SM FEW070 13/12 A2989 RMK AO2 SLP119 T01330117
2026-04-22 05:52:00,METAR KPWK 220552Z AUTO 00000KT 10SM FEW070 14/12 A2989 RMK AO2 SLP120 T01390117 10233 20139 402440100 57001
2026-04-22 04:52:00,METAR KPWK 220452Z AUTO 00000KT 10SM FEW070 FEW085 14/13 A2989 RMK AO2 SLP121 T01440128
2026-04-22 03:52:00,METAR KPWK 220352Z AUTO 00000KT 10SM FEW070 SCT090 SCT110 15/13 A2989 RMK AO2 SLP122 T01500128
2026-04-22 02:52:00,METAR KPWK 220252Z 32003KT 10SM SCT070 BKN090 BKN110 18/12 A2990 RMK AO2 SLP122 T01780117 53009
2026-04-22 01:52:00,METAR KPWK 220152Z 25003KT 10SM FEW075 21/11 A2989 RMK AO2 SLP118 T02110111
2026-04-22 00:52:00,METAR KPWK 220052Z 00000KT 10SM FEW070 SCT090 SCT120 22/11 A2987 RMK AO2 SLP114 T02220111
2026-04-21 23:52:00,METAR KPWK 212352Z 27009G17KT 10SM BKN070 23/11 A2987 RMK AO2 SLP112 T02330106 10244 20211 53003
2026-04-21 22:52:00,METAR KPWK 212252Z 28012G19KT 10SM BKN070 BKN090 24/11 A2986 RMK AO2 SLP110 T02390106
2026-04-21 21:52:00,METAR KPWK 212152Z 25010G18KT 10SM BKN060 24/11 A2985 RMK AO2 SLP107 T02390111
2026-04-21 20:52:00,METAR KPWK 212052Z 26009G18KT 10SM OVC055 23/11 A2986 RMK AO2 LTG DSNT SE AND S SLP109 T02330106 58008
2026-04-21 19:52:00,METAR KPWK 211952Z 28009KT 10SM VCTS OVC050 21/10 A2987 RMK AO2 LTG DSNT NE SLP114 T02110100
2026-04-21 19:37:00,SPECI KPWK 211937Z 29010G15KT 10SM VCTS BKN050 OVC090 21/10 A2988 RMK AO2 LTG DSNT NE AND E T02110100
2026-04-21 18:52:00,METAR KPWK 211852Z 27011KT 10SM BKN050 21/09 A2988 RMK AO2 PK WND 22028/1808 WSHFT 1830 LTG DSNT N AND NE SLP118 T02110094
2026-04-21 18:50:00,SPECI KPWK 211850Z 27010KT 10SM BKN050 21/09 A2988 RMK AO2 PK WND 22028/1808 WSHFT 1830 LTG DSNT N AND NE
2026-04-21 17:52:00,METAR KPWK 211752Z 24012G24KT 10SM CLR 22/09 A2988 RMK AO2 SLP118 T02170094 10217 20111 58018
2026-04-21 16:52:00,METAR KPWK 211652Z 25014G22KT 10SM SCT110 20/09 A2991 RMK AO2 PK WND 21027/1621 SLP128 T02000089
2026-04-21 15:52:00,METAR KPWK 211552Z 25015G23KT 10SM FEW100 SCT110 19/07 A2993 RMK AO2 SLP133 T01890072
2026-04-21 14:52:00,METAR KPWK 211452Z 24008G21KT 190V250 10SM CLR 17/06 A2994 RMK AO2 PK WND 24027/1422 SLP136 T01720061 58018
2026-04-21 13:52:00,METAR KPWK 211352Z 23011G20KT 10SM FEW110 15/06 A2996 RMK AO2 SLP145 T01500056
2026-04-21 12:52:00,METAR KPWK 211252Z 21010KT 10SM SCT100 SCT120 12/05 A2998 RMK AO2 SLP153 T01220050
2026-04-21 11:52:00,METAR KPWK 211152Z 21009KT 10SM CLR 11/03 A2999 RMK AO2 SLP157 T01110033 10111 20100 56015
2026-04-21 10:52:00,METAR KPWK 211052Z 20009KT 10SM FEW070 11/02 A3000 RMK AO2 SLP161 T01060022 $
2026-04-21 09:52:00,METAR KPWK 210952Z AUTO 21012KT 10SM FEW070 SCT090 SCT110 11/01 A3001 RMK AO2 SLP165 T01110011 $
2026-04-21 08:52:00,METAR KPWK 210852Z AUTO 20008KT 10SM FEW070 FEW085 FEW110 11/01 A3003 RMK AO2 SLP172 T01060006 56022 $
2026-04-21 07:52:00,METAR KPWK 210752Z AUTO 20012KT 10SM CLR 11/00 A3005 RMK AO2 SLP178 T01110000 $
2026-04-21 06:52:00,METAR KPWK 210652Z AUTO 19012KT 10SM CLR 11/M01 A3008 RMK AO2 SLP187 T01111011 $
2026-04-21 05:52:00,METAR KPWK 210552Z AUTO 20011KT 10SM CLR 11/M01 A3010 RMK AO2 SLP195 T01061011 10122 20100 401280006 56013 $
2026-04-21 04:52:00,METAR KPWK 210452Z AUTO 19010KT 10SM FEW070 11/M01 A3010 RMK AO2 SLP196 T01111011 $
2026-04-21 03:52:00,METAR KPWK 210352Z AUTO 19010KT 10SM FEW110 11/M01 A3012 RMK AO2 SLP202 T01111011 $
2026-04-21 02:52:00,METAR KPWK 210252Z AUTO 19008KT 10SM CLR 12/M02 A3014 RMK AO2 SLP209 T01171017 56008 $
2026-04-21 01:52:00,METAR KPWK 210152Z 14005KT 10SM CLR 10/00 A3014 RMK AO2 SLP211 T01000000 $
2026-04-21 00:52:00,METAR KPWK 210052Z 14007KT 10SM FEW080 FEW100 10/M01 A3015 RMK AO2 SLP213 T01001006 $
2026-04-20 23:52:00,METAR KPWK 202352Z 13007KT 10SM CLR 11/M01 A3016 RMK AO2 PRESFR SLP218 T01061006 10128 20089 58031 $
2026-04-20 22:52:00,METAR KPWK 202252Z 13008KT 10SM CLR 11/M02 A3021 RMK AO2 SLP234 T01111017 $
2026-04-20 21:52:00,METAR KPWK 202152Z VRB06KT 10SM CLR 12/M03 A3024 RMK AO2 SLP243 T01171033 $
2026-04-20 20:52:00,METAR KPWK 202052Z 16009KT 10SM SCT110 12/M04 A3026 RMK AO2 SLP250 T01221039 58023 $
2026-04-20 19:52:00,METAR KPWK 201952Z 16009KT 10SM CLR 11/M06 A3029 RMK AO2 SLP261 T01111056 $
2026-04-20 18:52:00,METAR KPWK 201852Z 19010G15KT 10SM CLR 11/M06 A3030 RMK AO2 SLP263 T01061056 $
2026-04-20 17:52:00,METAR KPWK 201752Z 22004KT 10SM CLR 09/M06 A3033 RMK AO2 SLP273 T00941056 10094 20033 58014 $
2026-04-20 16:52:00,METAR KPWK 201652Z VRB03KT 10SM CLR 08/M06 A3035 RMK AO2 SLP283 T00781061 $
2026-04-20 15:52:00,METAR KPWK 201552Z VRB03KT 10SM FEW100 07/M06 A3036 RMK AO2 SLP285 T00721056 $
2026-04-20 14:54:00,SPECI KPWK 201454Z 16004KT 10SM FEW110 07/M06 A3037 RMK AO2 T00671056
2026-04-20 14:52:00,METAR KPWK 201452Z 16004KT 10SM FEW100 07/M05 A3037 RMK AO2 SLP288 T00671050 50003
2026-04-20 13:52:00,METAR KPWK 201352Z VRB05KT 10SM FEW120 06/M02 A3037 RMK AO2 SLP290 T00561017
2026-04-20 12:52:00,METAR KPWK 201252Z 14005KT 10SM SCT110 04/M02 A3037 RMK AO2 SLP290 T00441017
2026-04-20 11:52:00,METAR KPWK 201152Z 00000KT 10SM FEW085 03/M01 A3036 RMK AO2 SLP285 T00331011 10039 20006 53019 $
2026-04-20 10:52:00,METAR KPWK 201052Z 00000KT 10SM CLR 02/00 A3033 RMK AO2 SLP277 T00220000 $
2026-04-20 09:52:00,METAR KPWK 200952Z AUTO 00000KT 10SM CLR 02/M01 A3031 RMK AO2 SLP270 T00171006 $
2026-04-20 08:52:00,METAR KPWK 200852Z AUTO 00000KT 10SM FEW070 FEW100 02/01 A3030 RMK AO2 SLP266 T00170006 53007 $
2026-04-20 07:52:00,METAR KPWK 200752Z AUTO 00000KT 10SM CLR 03/M01 A3029 RMK AO2 SLP260 T00281006 $
2026-04-20 06:52:00,METAR KPWK 200652Z AUTO 00000KT 10SM CLR 03/M01 A3028 RMK AO2 SLP258 T00331011 $
2026-04-20 05:52:00,METAR KPWK 200552Z AUTO 00000KT 10SM CLR 03/00 A3028 RMK AO2 SLP258 T00330000 10072 20028 401000028 53010 $
2026-04-20 04:52:00,METAR KPWK 200452Z AUTO 00000KT 10SM FEW080 SCT110 04/M01 A3027 RMK AO2 SLP253 T00441006 $
2026-04-20 03:52:00,METAR KPWK 200352Z AUTO 00000KT 10SM FEW090 04/M02 A3025 RMK AO2 SLP249 T00441017 $
2026-04-20 02:52:00,METAR KPWK 200252Z 10003KT 10SM FEW080 SCT110 04/M01 A3025 RMK AO2 SLP246 T00441006 53026 $
2026-04-20 01:52:00,METAR KPWK 200152Z 09004KT 10SM BKN080 05/M01 A3022 RMK AO2 SLP236 T00501011 $
2026-04-20 00:52:00,METAR KPWK 200052Z 00000KT 10SM FEW070 BKN090 06/M01 A3019 RMK AO2 SLP225 T00611011 $
2026-04-19 23:52:00,METAR KPWK 192352Z 04005KT 10SM BKN085 07/M02 A3017 RMK AO2 SLP221 T00721022 10100 20067 53010 $
2026-04-19 22:52:00,METAR KPWK 192252Z 06006KT 10SM SCT070 OVC085 07/M01 A3016 RMK AO2 SLP217 T00721006 $
2026-04-19 21:52:00,METAR KPWK 192152Z 33013G18KT 10SM SCT060 OVC090 09/M03 A3014 RMK AO2 SLP209 T00891033 $
2026-04-19 20:52:00,METAR KPWK 192052Z 31011G17KT 10SM BKN080 BKN090 08/M02 A3014 RMK AO2 PK WND 36029/2010 WSHFT 1957 SLP209 T00831017 53002 $
2026-04-19 20:17:00,SPECI KPWK 192017Z 34016G29KT 10SM FEW048 BKN070 BKN095 07/M01 A3015 RMK AO2 PK WND 36029/2010 WSHFT 1957 T00671006 $
2026-04-19 19:52:00,METAR KPWK 191952Z 30014G23KT 10SM FEW080 SCT095 BKN110 09/M04 A3012 RMK AO2 SLP205 T00941039 $
2026-04-19 18:52:00,METAR KPWK 191852Z 27010G16KT 10SM FEW048 BKN085 08/00 A3012 RMK AO2 SLP205 T00830000 $
2026-04-19 17:52:00,METAR KPWK 191752Z 34012G21KT 10SM FEW040 SCT049 BKN065 07/00 A3013 RMK AO2 PK WND 27027/1700 WSHFT 1722 RAB33E44 SLP207 P0000 60000 T00670000 10089 20033 53006 $
2026-04-19 17:42:00,SPECI KPWK 191742Z 35013G22KT 10SM -RA SCT043 SCT070 SCT085 06/01 A3013 RMK AO2 PK WND 27027/1700 WSHFT 1722 RAB33 P0000 T00610011 $
2026-04-19 16:52:00,METAR KPWK 191652Z 28015G25KT 10SM FEW041 SCT049 BKN060 07/M02 A3012 RMK AO2 PK WND 29031/1616 SLP204 T00721022 $
2026-04-19 15:52:00,METAR KPWK 191552Z 31011G19KT 10SM BKN065 09/M06 A3010 RMK AO2 PK WND 29028/1517 SLP198 T00891056 $
2026-04-19 14:52:00,METAR KPWK 191452Z 29014G26KT 10SM FEW060 BKN075 OVC110 08/M06 A3011 RMK AO2 PK WND 28028/1426 SLP200 T00781056 53004 $
2026-04-19 13:52:00,METAR KPWK 191352Z 26007KT 10SM BKN100 OVC110 07/M04 A3011 RMK AO2 SLP198 T00721044 $
2026-04-19 12:52:00,METAR KPWK 191252Z 25005KT 10SM SCT110 06/M03 A3011 RMK AO2 SLP198 T00561028 $
2026-04-19 11:52:00,METAR KPWK 191152Z 25004KT 10SM SCT075 BKN095 03/M03 A3010 RMK AO2 SLP198 T00331028 10050 20028 53003 $
2026-04-19 10:52:00,METAR KPWK 191052Z 24005KT 10SM FEW070 SCT090 03/M03 A3009 RMK AO2 SLP194 T00281028 $
2026-04-19 09:52:00,METAR KPWK 190952Z 25005KT 10SM CLR 03/M03 A3010 RMK AO2 SLP195 T00331033 $
2026-04-19 08:52:00,METAR KPWK 190852Z 25005KT 10SM FEW070 FEW110 04/M03 A3009 RMK AO2 SLP194 T00391033 53005 $
2026-04-19 07:52:00,METAR KPWK 190752Z 25005KT 10SM FEW080 FEW100 04/M03 A3008 RMK AO2 SLP189 T00391033
2026-04-19 06:52:00,METAR KPWK 190652Z 25005KT 10SM FEW070 SCT085 04/M03 A3008 RMK AO2 SLP189 T00441033
2026-04-19 05:52:00,METAR KPWK 190552Z 24004KT 10SM FEW070 05/M04 A3008 RMK AO2 SLP189 T00501039 10078 20050 401780050 51006
2026-04-19 04:52:00,METAR KPWK 190452Z 28005KT 10SM FEW110 06/M04 A3007 RMK AO2 SLP186 T00561044
2026-04-19 03:52:00,METAR KPWK 190352Z 30010G19KT 10SM FEW110 07/M04 A3007 RMK AO2 SLP186 T00671044
2026-04-19 02:52:00,METAR KPWK 190252Z 29008G16KT 10SM FEW075 SCT110 07/M04 A3006 RMK AO2 SLP182 T00671044 53023
2026-04-19 01:52:00,METAR KPWK 190152Z 30013G20KT 10SM SCT070 07/M04 A3004 RMK AO2 SLP175 T00671044
2026-04-19 00:52:00,METAR KPWK 190052Z 31012G23KT 10SM SCT055 07/M04 A3001 RMK AO2 PK WND 31027/0008 SLP166 T00721039
2026-04-18 23:52:00,METAR KPWK 182352Z 31017G26KT 10SM SCT050 08/M03 A2999 RMK AO2 PK WND 30030/2330 SLP158 T00781033 10100 20078 53025
2026-04-18 22:52:00,METAR KPWK 182252Z 30015G27KT 10SM FEW050 SCT090 SCT110 09/M03 A2996 RMK AO2 PK WND 30029/2158 SLP149 T00891028
2026-04-18 21:52:00,METAR KPWK 182152Z 30016G29KT 10SM SCT080 BKN110 09/M03 A2994 RMK AO2 PK WND 32039/2111 SLP139 T00941028
2026-04-18 20:52:00,METAR KPWK 182052Z 28020G34KT 10SM FEW050 SCT090 BKN110 10/M02 A2991 RMK AO2 PK WND 29034/2046 SLP131 T01001022 51007
2026-04-18 19:52:00,METAR KPWK 181952Z 27019G26KT 10SM BKN050 09/M02 A2991 RMK AO2 PK WND 29027/1913 SLP128 T00941022
2026-04-18 18:52:00,METAR KPWK 181852Z 29013G25KT 10SM FEW045 09/M01 A2991 RMK AO2 PK WND 30029/1822 SLP129 T00891011
2026-04-18 17:52:00,METAR KPWK 181752Z 30015G27KT 10SM SCT036 08/M01 A2989 RMK AO2 PK WND 30027/1751 SLP123 T00831011 10083 20067 51024
2026-04-18 16:57:00,SPECI KPWK 181657Z 29012G21KT 10SM SCT032 SCT090 07/M01 A2988 RMK AO2 T00721006
2026-04-18 16:52:00,METAR KPWK 181652Z 30017G23KT 10SM BKN029 08/00 A2988 RMK AO2 SLP118 T00780000
2026-04-18 16:08:00,SPECI KPWK 181608Z 29016G25KT 10SM BKN028 08/01 A2987 RMK AO2 T00780006
2026-04-18 15:52:00,METAR KPWK 181552Z 30015G22KT 10SM SCT027 BKN100 BKN120 07/01 A2986 RMK AO2 SLP112 T00720006
2026-04-18 14:52:00,METAR KPWK 181452Z 28012G21KT 10SM SCT024 07/02 A2982 RMK AO2 SLP099 T00720017 51027
2026-04-18 14:05:00,SPECI KPWK 181405Z 29012G19KT 10SM SCT024 07/02 A2981 RMK AO2 T00720017
2026-04-18 13:52:00,METAR KPWK 181352Z 28012G22KT 10SM BKN024 07/02 A2980 RMK AO2 SLP091 T00720022
2026-04-18 13:21:00,SPECI KPWK 181321Z 31012KT 10SM BKN025 08/02 A2978 RMK AO2 T00780022
2026-04-18 12:52:00,METAR KPWK 181252Z 30013KT 10SM SCT022 08/02 A2978 RMK AO2 SLP081 T00780022
2026-04-18 11:52:00,METAR KPWK 181152Z 31013G22KT 10SM FEW021 OVC026 08/03 A2974 RMK AO2 PK WND 30027/1139 SLP069 60006 70121 T00830028 10178 20083 53033
2026-04-18 10:52:00,METAR KPWK 181052Z 30015G22KT 10SM SCT010 OVC015 09/06 A2970 RMK AO2 SLP057 T00940061
2026-04-18 10:49:00,SPECI KPWK 181049Z 30015KT 10SM SCT010 OVC015 09/06 A2970 RMK AO2
2026-04-18 10:23:00,SPECI KPWK 181023Z 29010KT 10SM OVC009 11/09 A2967 RMK AO2 T01060089
2026-04-18 09:52:00,METAR KPWK 180952Z 29011G21KT 10SM OVC010 11/09 A2966 RMK AO2 CIG 008V012 SLP040 T01110089
2026-04-18 09:41:00,SPECI KPWK 180941Z 28011G21KT 10SM OVC010 12/09 A2966 RMK AO2 T01170094
2026-04-18 08:52:00,METAR KPWK 180852Z 27011G19KT 10SM OVC009 13/12 A2964 RMK AO2 CIG 007V013 SLP034 P0001 60006 T01330117 53002
2026-04-18 08:27:00,SPECI KPWK 180827Z 26012G21KT 10SM BKN007 BKN012 OVC017 14/13 A2962 RMK AO2 P0001 T01440133
2026-04-18 08:15:00,SPECI KPWK 180815Z 27013G23KT 10SM SCT009 OVC014 16/14 A2961 RMK AO2 P0001 T01560139
2026-04-18 07:52:00,METAR KPWK 180752Z 23008G18KT 10SM BKN014 BKN019 17/15 A2959 RMK AO2 RAE10 SLP017 P0000 T01670150
2026-04-18 07:44:00,SPECI KPWK 180744Z 23010G19KT 10SM BKN017 17/15 A2960 RMK AO2 RAE10 CIG 010V022 P0000 T01670150
2026-04-18 06:52:00,METAR KPWK 180652Z 22007G15KT 9SM -RA BKN080 BKN100 17/16 A2960 RMK AO2 PK WND 23028/0614 PRESFR SLP019 P0005 T01670156
2026-04-18 05:52:00,METAR KPWK 180552Z 24015G23KT 10SM -RA OVC100 18/15 A2963 RMK AO2 RAE05B49 SLP031 P0001 60115 T01780150 10261 20167 402670089 55019
2026-04-18 04:52:00,METAR KPWK 180452Z 21013KT 10SM -RA OVC100 17/16 A2960 RMK AO2 SLP020 P0012 T01670156
2026-04-18 04:08:00,SPECI KPWK 180408Z 23010G17KT 8SM RA OVC085 17/16 A2966 RMK AO2 LTG DSNT ALQDS P0007 T01720156
2026-04-18 03:52:00,METAR KPWK 180352Z 22008G15KT 190V280 8SM VCTS RA BKN080 OVC100 17/16 A2968 RMK AO2 LTG DSNT ALQDS TSE07B31E46 SLP047 P0019 T01720161
2026-04-18 03:37:00,SPECI KPWK 180337Z 19005KT 10SM TSRA FEW070 OVC090 17/16 A2966 RMK AO2 LTG DSNT ALQDS TSE07B31 P0013 T01720161
2026-04-18 03:13:00,SPECI KPWK 180313Z 35004KT 6SM VCTS RA BR SCT014 BKN075 OVC090 17/16 A2965 RMK AO2 LTG DSNT ALQDS TSE07 P0007 T01720161
2026-04-18 03:03:00,SPECI KPWK 180303Z 00000KT 3SM TSRA BR BKN015 BKN038 OVC090 17/16 A2967 RMK AO2 LTG DSNT ALQDS P0005 T01670161
2026-04-18 02:55:00,SPECI KPWK 180255Z VRB05KT 1 1/2SM +TSRA BR FEW009 BKN022 OVC100 17/16 A2969 RMK AO2 LTG DSNT ALQDS P0003 T01720161
2026-04-18 02:52:00,METAR KPWK 180252Z VRB06KT 2 1/2SM +TSRA BR SCT021 BKN042 OVC100 17/16 A2969 RMK AO2 PK WND 22030/0218 WSHFT 0150 LTG DSNT ALQDS TSE0154B0155E31B52 SLP051 P0081 60083 T01720161 53023
2026-04-18 02:45:00,SPECI KPWK 180245Z 03007KT 10SM VCTS -RA SCT023 BKN040 OVC090 17/16 A2963 RMK AO2 PK WND 22030/0218 WSHFT 0150 LTG DSNT ALQDS TSE0154B0155E31 P0067 T01720161
2026-04-18 02:37:00,SPECI KPWK 180237Z 35007G22KT 10SM VCTS -RA BKN022 BKN034 OVC075 18/16 A2965 RMK AO2 PK WND 22030/0218 WSHFT 0150 LTG DSNT ALQDS TSE0154B0155E31 P0066 T01830161
2026-04-18 02:21:00,SPECI KPWK 180221Z 31013G30KT 260V340 3SM +TSRA BR BKN023 BKN038 OVC075 21/18 A2967 RMK AO2 PK WND 22030/0218 WSHFT 0150 LTG DSNT ALQDS TSE0154B0155 P0064 T02060183
2026-04-18 02:07:00,SPECI KPWK 180207Z VRB06G23KT 1 1/2SM +TSRA BKN021 BKN047 OVC100 20/17 A2963 RMK AO2 WSHFT 0150 LTG DSNT ALQDS TSE0154B0155 P0037 T02000172
2026-04-18 01:52:00,METAR KPWK 180152Z 18013G27KT 10SM -TSRA FEW048 SCT065 BKN090 23/18 A2964 RMK AO2 PK WND 18028/0111 LTG DSNT ALQDS RAB30 TSB24 SLP034 P0002 T02330183
2026-04-18 01:30:00,SPECI KPWK 180130Z 18014G26KT 9SM TSRA SCT055 SCT070 BKN085 24/18 A2964 RMK AO2 PK WND 18028/0111 LTG DSNT W-N RAB30 TSB24 P0001 T02440178
2026-04-18 00:52:00,METAR KPWK 180052Z 18019G27KT 10SM FEW060 FEW090 SCT110 25/17 A2961 RMK AO2 PK WND 19032/0008 LTG DSNT W SLP025 T02500172
2026-04-17 23:52:00,METAR KPWK 172352Z 19023G35KT 10SM CLR 26/17 A2962 RMK AO2 PK WND 17035/2352 SLP028 T02610167 10267 20244 56033
2026-04-17 22:52:00,METAR KPWK 172252Z 19023G30KT 10SM SCT060 26/15 A2966 RMK AO2 PK WND 19031/2156 SLP042 T02610150
2026-04-17 21:52:00,METAR KPWK 172152Z 19015G29KT 10SM FEW065 FEW080 26/15 A2967 RMK AO2 PK WND 20033/2135 SLP046 T02610150
2026-04-17 20:52:00,METAR KPWK 172052Z 18016G26KT 10SM BKN049 26/17 A2972 RMK AO2 PK WND 19030/2028 SLP063 T02610167 58041
2026-04-17 19:52:00,METAR KPWK 171952Z 19020G29KT 10SM BKN043 BKN060 BKN110 26/17 A2975 RMK AO2 PK WND 18029/1943 SLP074 T02610167
2026-04-17 18:52:00,METAR KPWK 171852Z 18017G27KT 10SM FEW041 SCT050 26/16 A2982 RMK AO2 PK WND 17027/1848 SLP097 T02560161
2026-04-17 17:52:00,METAR KPWK 171752Z 19013KT 10SM FEW038 SCT100 24/16 A2985 RMK AO2 SLP105 T02440161 10244 20100 58022
2026-04-17 16:52:00,METAR KPWK 171652Z 19016G25KT 10SM FEW100 23/15 A2987 RMK AO2 SLP114 T02330150
2026-04-17 15:52:00,METAR KPWK 171552Z 16008KT 10SM CLR 22/14 A2989 RMK AO2 SLP122 T02170144
2026-04-17 14:52:00,METAR KPWK 171452Z 17007KT 10SM FEW110 19/13 A2991 RMK AO2 SLP129 T01940133 58006
2026-04-17 13:52:00,METAR KPWK 171352Z 14005KT 10SM FEW110 14/12 A2992 RMK AO2 SLP134 T01390117
2026-04-17 12:52:00,METAR KPWK 171252Z 14004KT 3SM CLR 11/11 A2992 RMK AO2 SFC VIS 7 SLP134 T01110106
2026-04-17 12:04:00,SPECI KPWK 171204Z 16003KT 3SM BR FEW100 10/10 A2994 RMK AO2 SFC VIS 5 T01000100
2026-04-17 11:52:00,METAR KPWK 171152Z 16003KT 2SM BR CLR 10/10 A2993 RMK AO2 SFC VIS 5 SLP137 T01000100 10100 20089 55000
2026-04-17 11:29:00,SPECI KPWK 171129Z 12003KT 2SM BR FEW075 FEW110 09/09 A2993 RMK AO2 SFC VIS 4 T00940094
2026-04-17 10:52:00,METAR KPWK 171052Z 00000KT 2SM BR OVC002 09/09 A2992 RMK AO2 SLP135 T00940094
2026-04-17 10:44:00,SPECI KPWK 171044Z 00000KT 1SM BR VV002 09/09 A2992 RMK AO2 T00940094
2026-04-17 09:52:00,METAR KPWK 170952Z AUTO 00000KT 1/2SM FG VV002 09/09 A2993 RMK AO2 SLP136 T00940094
2026-04-17 09:35:00,SPECI KPWK 170935Z AUTO 18004KT 1/2SM FG VV002 09/09 A2994 RMK AO2 T00940094
2026-04-17 09:27:00,SPECI KPWK 170927Z AUTO 19005KT 1SM BR VV002 09/09 A2994 RMK AO2 T00940094
2026-04-17 08:52:00,METAR KPWK 170852Z AUTO 18003KT 1/2SM FG VV002 09/09 A2993 RMK AO2 SLP135 T00940094 58009
2026-04-17 07:52:00,METAR KPWK 170752Z AUTO 15003KT 1/2SM FG VV002 09/09 A2994 RMK AO2 SLP139 T00890089
2026-04-17 06:52:00,METAR KPWK 170652Z AUTO 00000KT 1/2SM FG VV002 09/09 A2995 RMK AO2 SLP142 T00890089
2026-04-17 05:52:00,METAR KPWK 170552Z AUTO 00000KT 1/2SM FG VV002 09/09 A2996 RMK AO2 SLP144 T00890089 10111 20089 402280089 50003
2026-04-17 04:52:00,METAR KPWK 170452Z AUTO 00000KT 1/2SM FG VV002 09/09 A2996 RMK AO2 SLP147 T00890089
2026-04-17 04:14:00,SPECI KPWK 170414Z AUTO 00000KT 3/4SM BR VV002 09/09 A2996 RMK AO2 T00890089
2026-04-17 04:08:00,SPECI KPWK 170408Z AUTO 00000KT 1 1/4SM BR OVC003 09/09 A2996 RMK AO2 T00940094
2026-04-17 04:01:00,SPECI KPWK 170401Z AUTO 08003KT 1SM BR VV002 09/09 A2996 RMK AO2 T00940089
2026-04-17 03:52:00,METAR KPWK 170352Z AUTO 06003KT 1 1/4SM BR OVC003 09/09 A2996 RMK AO2 SLP145 T00940094
2026-04-17 03:31:00,SPECI KPWK 170331Z AUTO 07004KT 1 1/4SM BR OVC002 09/09 A2996 RMK AO2 T00940094
2026-04-17 03:20:00,SPECI KPWK 170320Z AUTO 10005KT 2 1/2SM BR OVC002 09/09 A2996 RMK AO2 VIS 2V4 T00940094
2026-04-17 03:08:00,SPECI KPWK 170308Z AUTO 06004KT 1 3/4SM BR OVC002 09/09 A2996 RMK AO2 T00940094
2026-04-17 03:01:00,SPECI KPWK 170301Z AUTO 09004KT 2SM BR OVC002 09/09 A2995 RMK AO2 T00940094
2026-04-17 02:52:00,METAR KPWK 170252Z 11005KT 4SM BR OVC002 09/09 A2995 RMK AO2 SLP143 T00940094 53021
2026-04-17 01:52:00,METAR KPWK 170152Z 10003KT 1SM OVC003 10/10 A2993 RMK AO2 SFC VIS 9 SLP135 T01000100
2026-04-17 01:42:00,SPECI KPWK 170142Z 06004KT 1SM BR OVC003 10/09 A2993 RMK AO2 SFC VIS 5 T01000094
2026-04-17 01:22:00,SPECI KPWK 170122Z 07006KT 1SM OVC004 10/09 A2992 RMK AO2 SFC VIS 10 T01000094
2026-04-17 01:14:00,SPECI KPWK 170114Z COR 06005KT 1SM OVC004 10/09 A2991 RMK AO2 T01000094
2026-04-17 00:52:00,METAR KPWK 170052Z 04005KT 10SM OVC005 10/09 A2990 RMK AO2 SLP126 T01000094
2026-04-16 23:52:00,METAR KPWK 162352Z 08005KT 10SM OVC006 11/10 A2989 RMK AO2 SLP121 T01110100 10228 20111 51017
2026-04-16 23:07:00,SPECI KPWK 162307Z 05009KT 10SM BKN007 BKN060 BKN090 13/11 A2989 RMK AO2 T01280111
2026-04-16 22:52:00,METAR KPWK 162252Z 06008KT 10SM FEW007 SCT050 BKN070 13/11 A2989 RMK AO2 SLP119 T01330111
2026-04-16 22:38:00,SPECI KPWK 162238Z 06007KT 10SM SCT007 BKN080 13/11 A2988 RMK AO2 T01280106
2026-04-16 21:52:00,METAR KPWK 162152Z 06010KT 10SM FEW060 16/12 A2986 RMK AO2 SLP112 T01560122
2026-04-16 20:52:00,METAR KPWK 162052Z 09007KT 10SM BKN045 19/14 A2984 RMK AO2 SLP102 T01890144 53014
2026-04-16 19:52:00,METAR KPWK 161952Z 31011KT 10SM FEW043 FEW065 22/12 A2982 RMK AO2 SLP094 T02170122
2026-04-16 19:24:00,SPECI KPWK 161924Z 33008G17KT 10SM FEW036 SCT045 BKN060 21/13 A2981 RMK AO2 LTG DSNT SE T02110133
2026-04-16 18:52:00,METAR KPWK 161852Z 31008KT 10SM BKN029 BKN047 22/14 A2981 RMK AO2 LTG DSNT SE SLP091 T02170139
2026-04-16 17:52:00,METAR KPWK 161752Z 31011KT 10SM BKN023 BKN031 BKN039 20/15 A2979 RMK AO2 LTG DSNT E SLP087 60000 T02000150 10206 20156 53013
2026-04-16 17:24:00,SPECI KPWK 161724Z 32011KT 10SM BKN023 20/16 A2979 RMK AO2 LTG DSNT E T02000156
2026-04-16 17:09:00,SPECI KPWK 161709Z 30010KT 10SM VCTS FEW023 SCT110 21/16 A2979 RMK AO2 LTG DSNT SE T02060161
2026-04-16 16:52:00,METAR KPWK 161652Z 29010G17KT 10SM FEW025 SCT060 BKN110 19/16 A2978 RMK AO2 RAB24E45 SLP084 P0000 T01890161
2026-04-16 16:40:00,SPECI KPWK 161640Z 30010G19KT 10SM -RA SCT026 BKN043 BKN050 19/16 A2978 RMK AO2 LTG DSNT SE RAB24 P0000 T01890161
2026-04-16 16:18:00,SPECI KPWK 161618Z 27010G17KT 10SM SCT020 BKN027 21/16 A2977 RMK AO2 T02060156
2026-04-16 16:09:00,SPECI KPWK 161609Z 29011G19KT 10SM SCT020 SCT025 21/16 A2977 RMK AO2 T02060156
2026-04-16 15:52:00,METAR KPWK 161552Z 26010G18KT 10SM SCT020 BKN026 BKN038 19/16 A2976 RMK AO2 RAB20E29 SLP076 P0000 T01940156
2026-04-16 14:52:00,METAR KPWK 161452Z 27009KT 10SM BKN016 OVC023 18/16 A2976 RMK AO2 SLP073 60000 T01830156 53005
2026-04-16 14:20:00,SPECI KPWK 161420Z 23008G15KT 10SM BKN016 OVC024 18/16 A2975 RMK AO2 T01830156
2026-04-16 13:52:00,METAR KPWK 161352Z 24009KT 10SM BKN013 BKN019 BKN026 18/16 A2974 RMK AO2 SLP069 T01780156
2026-04-16 12:52:00,METAR KPWK 161252Z 21011KT 10SM BKN015 BKN090 BKN110 17/15 A2974 RMK AO2 RAE1155 SLP069 P0000 T01670150
2026-04-16 11:52:00,METAR KPWK 161152Z 19009KT 10SM -RA OVC023 16/14 A2974 RMK AO2 RAB00E15B45 SLP067 P0000 60003 70045 T01560144 10161 20156 50003
2026-04-16 11:12:00,SPECI KPWK 161112Z 17006KT 10SM -RA BKN029 OVC033 16/14 A2973 RMK AO2 RAB00 P0000 T01560144
2026-04-16 10:52:00,METAR KPWK 161052Z 19009KT 10SM OVC034 16/14 A2974 RMK AO2 SLP068 T01560139
2026-04-16 09:52:00,METAR KPWK 160952Z AUTO 25003KT 10SM SCT046 BKN070 OVC090 16/14 A2974 RMK AO2 RAB23E47 SLP068 P0002 T01560144
2026-04-16 08:52:00,METAR KPWK 160852Z AUTO 18007KT 10SM SCT080 16/14 A2973 RMK AO2 SLP064 60001 T01560144 58009
2026-04-16 07:52:00,METAR KPWK 160752Z AUTO 17007KT 10SM BKN065 16/15 A2973 RMK AO2 SLP066 T01560150
2026-04-16 06:52:00,METAR KPWK 160652Z AUTO 14007KT 10SM SCT070 BKN100 OVC120 16/15 A2976 RMK AO2 RAB23E36 SLP075 P0001 T01610150
2026-04-16 05:52:00,METAR KPWK 160552Z AUTO 14006KT 10SM BKN090 OVC110 16/15 A2976 RMK AO2 RAE41 SLP074 P0003 60031 T01610150 10222 20156 402220156 50004
2026-04-16 04:52:00,METAR KPWK 160452Z AUTO 32006KT 7SM RA FEW070 OVC085 16/15 A2983 RMK AO2 SLP099 P0012 T01610150
2026-04-16 03:52:00,METAR KPWK 160352Z 33005KT 10SM -RA BKN060 BKN075 BKN095 17/15 A2980 RMK AO2 PK WND 31036/0311 WSHFT 0300 LTG DSNT E AND SW RAB08 SLP090 P0016 T01670150
2026-04-16 03:28:00,SPECI KPWK 160328Z 34007KT 4SM +RA BR FEW027 BKN046 16/15 A2980 RMK AO2 PK WND 31036/0311 WSHFT 0300 LTG DSNT ALQDS RAB08 P0013 T01610150
2026-04-16 03:20:00,SPECI KPWK 160320Z 34012G36KT 3SM VCTS +RA BR FEW027 BKN037 BKN050 16/14 A2981 RMK AO2 PK WND 31036/0311 WSHFT 0300 LTG DSNT N AND SW RAB08 P0009 T01610144
2026-04-16 03:12:00,SPECI KPWK 160312Z 31024G36KT 8SM VCTS -RA SCT027 BKN039 BKN100 18/14 A2982 RMK AO2 PK WND 31036/0311 RAB08 PRESRR P0002 T01780139
2026-04-16 02:59:00,SPECI KPWK 160259Z 23009G21KT 10SM FEW027 SCT055 BKN100 21/17 A2975 RMK AO2 LTG DSNT W T02110167
2026-04-16 02:52:00,METAR KPWK 160252Z 22014G23KT 10SM BKN029 BKN055 OVC070 21/17 A2974 RMK AO2 PK WND 22028/0242 LTG DSNT W-N SLP070 T02110167 50002
2026-04-16 01:52:00,METAR KPWK 160152Z 23014G22KT 10SM BKN029 BKN034 OVC065 22/16 A2975 RMK AO2 PK WND 21028/0117 PRESRR SLP072 T02170161
2026-04-16 00:52:00,METAR KPWK 160052Z 20012G22KT 10SM BKN033 OVC049 22/17 A2974 RMK AO2 SLP067 T02220167
2026-04-15 23:52:00,METAR KPWK 152352Z 20013KT 10SM SCT028 OVC065 22/18 A2974 RMK AO2 SLP066 T02220178 10222 20194 58021
2026-04-15 23:45:00,SPECI KPWK 152345Z 19014KT 10SM BKN028 BKN035 BKN065 22/18 A2974 RMK AO2 T02220178
2026-04-15 22:52:00,METAR KPWK 152252Z 20013KT 10SM FEW026 22/17 A2977 RMK AO2 SLP077 T02220167
2026-04-15 21:52:00,METAR KPWK 152152Z 22009KT 10SM CLR 22/16 A2978 RMK AO2 SLP083 T02220156
2026-04-15 20:52:00,METAR KPWK 152052Z 23012G17KT 10SM BKN085 OVC110 21/16 A2980 RMK AO2 SLP089 T02110161 58002
2026-04-15 19:52:00,METAR KPWK 151952Z 26008G20KT 10SM FEW023 OVC095 20/16 A2982 RMK AO2 SLP094 T02000161
2026-04-15 18:52:00,METAR KPWK 151852Z 24011G16KT 10SM FEW024 BKN110 21/16 A2982 RMK AO2 SLP095 T02060161
2026-04-15 17:52:00,METAR KPWK 151752Z 22010G19KT 10SM CLR 19/16 A2981 RMK AO2 SLP090 60011 T01940156 10200 20172 50014
2026-04-15 16:52:00,METAR KPWK 151652Z 21013KT 10SM CLR 18/16 A2981 RMK AO2 RAE06 SLP093 P0000 T01830161
2026-04-15 15:52:00,METAR KPWK 151552Z 18015G22KT 10SM -RA OVC110 18/16 A2979 RMK AO2 SLP086 P0000 T01780156
2026-04-15 14:52:00,METAR KPWK 151452Z 19006KT 10SM -RA FEW070 BKN110 17/16 A2976 RMK AO2 SLP076 P0000 60011 T01720156 56017
2026-04-15 13:52:00,METAR KPWK 151352Z 19007KT 10SM -RA SCT095 BKN120 17/16 A2977 RMK AO2 RAB33 SLP079 P0001 T01720156
2026-04-15 12:52:00,METAR KPWK 151252Z 00000KT 10SM BKN110 17/15 A2977 RMK AO2 RAE48 PRESFR SLP075 P0010 T01720150
2026-04-15 11:52:00,METAR KPWK 151152Z 27007KT 8SM RA BKN060 BKN070 OVC090 18/17 A2981 RMK AO2 SLP091 P0010 60018 70162 T01830167 10183 20156 53029
2026-04-15 10:52:00,METAR KPWK 151052Z 00000KT 6SM -RA BR OVC100 16/16 A2978 RMK AO2 RAB02 SLP080 P0004 T01560156 $
2026-04-15 09:52:00,METAR KPWK 150952Z AUTO 10004KT 10SM FEW006 SCT024 16/15 A2975 RMK AO2 LTG DSNT S SLP070 T01560150 $
2026-04-15 09:31:00,SPECI KPWK 150931Z AUTO 03003KT 10SM FEW005 BKN034 BKN060 16/16 A2976 RMK AO2 LTG DSNT NE T01610156 $
2026-04-15 08:52:00,METAR KPWK 150852Z AUTO 15007KT 10SM SCT040 SCT070 BKN110 16/16 A2972 RMK AO2 LTG DSNT W-N SLP062 60004 T01610156 50011 $
2026-04-15 08:42:00,SPECI KPWK 150842Z AUTO 15008KT 10SM VCTS BKN038 BKN100 OVC120 16/16 A2972 RMK AO2 LTG DSNT W-N T01610156 $
2026-04-15 07:52:00,METAR KPWK 150752Z AUTO 12007KT 10SM FEW026 SCT032 OVC040 17/16 A2974 RMK AO2 LTG DSNT W-NE SLP066 T01720161 $
2026-04-15 06:52:00,METAR KPWK 150652Z AUTO 06005KT 10SM BKN042 OVC049 17/17 A2973 RMK AO2 LTG DSNT N-E RAE16 TSE17 SLP062 P0004 T01720167 $
2026-04-15 06:18:00,SPECI KPWK 150618Z AUTO 11003KT 10SM SCT034 BKN070 BKN085 17/17 A2971 RMK AO2 LTG DSNT NW-E RAE16 TSE17 P0004 T01720167 $
2026-04-15 06:05:00,SPECI KPWK 150605Z AUTO 14005KT 7SM TSRA FEW008 BKN033 OVC095 17/17 A2971 RMK AO2 LTG DSNT N-SE P0004 T01720167 $
2026-04-15 05:52:00,METAR KPWK 150552Z AUTO 2SM +TSRA BR SCT015 BKN040 OVC070 17/17 A2969 RMK AO2 LTG DSNT ALQDS TSE0459B00E15B44 PRESFR SLP051 P0022 60144 T01670167 10267 20161 402720133 58021 $
2026-04-15 05:50:00,SPECI KPWK 150550Z AUTO 2 1/2SM +TSRA BR FEW017 BKN040 OVC075 17/17 A2972 RMK AO2 LTG DSNT ALQDS TSE0459B00E15B44 PRESFR P0020 $
2026-04-15 05:21:00,SPECI KPWK 150521Z AUTO VRB03KT 10SM VCTS -RA FEW035 BKN046 BKN080 17/16 A2973 RMK AO2 LTG DSNT ALQDS TSE0459B00E15 P0003 T01720161 $
2026-04-15 04:52:00,METAR KPWK 150452Z AUTO VRB03KT 6SM TSRA BR SCT030 BKN048 OVC070 17/16 A2975 RMK AO2 LTG DSNT ALQDS TSE20B34 SLP072 P0026 T01670161 $
2026-04-15 04:40:00,SPECI KPWK 150440Z AUTO 4SM TSRA BR FEW021 BKN047 OVC060 17/16 A2970 RMK AO2 LTG DSNT ALQDS TSE20B34 P0022 T01670161 $
2026-04-15 04:26:00,SPECI KPWK 150426Z AUTO 10SM VCTS -RA SCT043 BKN060 OVC095 17/16 A2975 RMK AO2 LTG DSNT ALQDS TSE20 P0010 T01670161 $
2026-04-15 03:52:00,METAR KPWK 150352Z AUTO 10SM -TSRA SCT045 BKN065 OVC110 17/16 A2975 RMK AO2 WSHFT 0244 LTG DSNT ALQDS RAB0258RAEMMB04RAEMMB07 SLP073 P0096 T01670156 $
2026-04-15 03:29:00,SPECI KPWK 150329Z AUTO 3SM +TSRA BR OVC034 17/16 A2977 RMK AO2 WSHFT 0244 LTG DSNT ALQDS RAB0258RAEMMB04RAEMMB07 P0090 T01670156 $
2026-04-15 03:19:00,SPECI KPWK 150319Z AUTO 31007G23KT 3SM +TSRA BR BKN026 16/16 A2974 RMK AO2 PK WND 30035/0302 WSHFT 0244 LTG DSNT ALQDS RAB0258RAEMMB04RAEMMB07 P0077 T01610156 $
2026-04-15 03:11:00,SPECI KPWK 150311Z AUTO 31015G35KT 1 1/4SM +TSRA BR BKN021 BKN032 16/16 A2975 RMK AO2 PK WND 30035/0302 WSHFT 0244 LTG DSNT ALQDS RAB0258RAEMMB04RAEMMB07 P0066 T01610156 $
2026-04-15 03:03:00,SPECI KPWK 150303Z AUTO 30024G35KT 3/4SM TS BR SCT012 BKN029 OVC110 17/16 A2976 RMK AO2 PK WND 30035/0302 WSHFT 0244 LTG DSNT ALQDS RAB0258RAEMM P0044 T01670156 $
2026-04-15 02:59:00,SPECI KPWK 150259Z 31021G34KT 1 3/4SM -TSRA FEW016 BKN029 OVC075 18/15 A2975 RMK AO2 PK WND 32034/0257 WSHFT 0244 LTG DSNT ALQDS RAB58 P0022 T01830150
2026-04-15 02:52:00,METAR KPWK 150252Z 35018G27KT 10SM TS SCT033 BKN060 OVC100 20/14 A2973 RMK AO2 PK WND 33027/0244 LTG DSNT ALQDS TSB46 PRESRR SLP066 T02000139 53021
2026-04-15 02:43:00,SPECI KPWK 150243Z 30009G17KT 230V330 10SM VCTS BKN065 BKN080 OVC100 26/18 A2970 RMK AO2 LTG DSNT ALQDS T02610183
2026-04-15 02:17:00,SPECI KPWK 150217Z 21009KT 10SM SCT070 SCT110 26/18 A2968 RMK AO2 LTG DSNT W-N T02610183
2026-04-15 02:02:00,SPECI KPWK 150202Z 20011KT 10SM VCTS SCT110 26/18 A2968 RMK AO2 LTG DSNT NW T02610183
2026-04-15 01:52:00,METAR KPWK 150152Z 20011G18KT 10SM SCT110 26/18 A2968 RMK AO2 LTG DSNT NW SLP046 T02610183
2026-04-15 00:52:00,METAR KPWK 150052Z 21010KT 10SM BKN060 BKN080 26/18 A2969 RMK AO2 SLP049 T02610178
2026-04-14 23:52:00,METAR KPWK 142352Z 22011G24KT 10SM SCT050 BKN070 BKN080 27/18 A2967 RMK AO2 PK WND 20033/2310 SLP044 T02670178 10272 20250 58020
2026-04-14 22:52:00,METAR KPWK 142252Z 21011G30KT 10SM SCT040 27/19 A2969 RMK AO2 PK WND 21030/2243 SLP049 T02670189
2026-04-14 21:52:00,METAR KPWK 142152Z 21020G30KT 10SM SCT050 27/18 A2972 RMK AO2 PK WND 20030/2152 SLP060 T02670178
2026-04-14 20:52:00,METAR KPWK 142052Z 20009G19KT 10SM FEW042 27/18 A2973 RMK AO2 SLP064 T02670178 58022
2026-04-14 20:20:00,SPECI KPWK 142020Z 20014G22KT 10SM FEW042 SCT049 BKN110 26/18 A2976 RMK AO2 T02610178
2026-04-14 19:52:00,METAR KPWK 141952Z 21015G22KT 10SM BKN043 BKN049 26/17 A2978 RMK AO2 SLP081 T02610172
2026-04-14 18:52:00,METAR KPWK 141852Z 21012G20KT 10SM SCT035 27/18 A2978 RMK AO2 SLP081 T02670178
2026-04-14 17:52:00,METAR KPWK 141752Z 23011G22KT 10SM BKN035 25/17 A2980 RMK AO2 SLP085 60000 T02500172 10250 20133 58013
2026-04-14 16:52:00,METAR KPWK 141652Z 24013KT 10SM BKN032 23/16 A2983 RMK AO2 SLP095 T02330161
2026-04-14 15:52:00,METAR KPWK 141552Z 19010KT 10SM SCT040 22/16 A2983 RMK AO2 SLP099 T02170161
2026-04-14 14:52:00,METAR KPWK 141452Z 19010KT 10SM FEW036 19/15 A2983 RMK AO2 SLP099 60000 T01890150 50006
2026-04-14 13:52:00,METAR KPWK 141352Z 20009KT 10SM BKN043 OVC070 15/13 A2986 RMK AO2 SLP110 T01500133
2026-04-14 12:52:00,METAR KPWK 141252Z 19007KT 10SM SCT049 BKN060 OVC085 14/13 A2984 RMK AO2 RAE1158 TSE1157 SLP103 P0000 T01390128
2026-04-14 12:15:00,SPECI KPWK 141215Z 17010KT 10SM FEW050 BKN065 BKN090 14/13 A2983 RMK AO2 RAE1158 TSE1157 P0000 T01390128
2026-04-14 12:03:00,SPECI KPWK 141203Z 16012KT 10SM VCTS FEW026 SCT050 BKN060 14/13 A2982 RMK AO2 LTG DSNT E RAE1158 TSE1157 P0000 T01390128
2026-04-14 11:52:00,METAR KPWK 141152Z 16014G22KT 9SM -TSRA FEW027 SCT060 BKN080 13/13 A2982 RMK AO2 LTG DSNT E AND SW RAE1056B12 TSB30 SLP094 P0007 60014 70014 T01330128 10222 20133 58002
2026-04-14 11:36:00,SPECI KPWK 141136Z 17014G17KT 10SM -TSRA SCT060 BKN075 OVC110 13/13 A2984 RMK AO2 LTG DSNT ALQDS RAE1056B12 TSB30 P0003 T01330128
2026-04-14 11:20:00,SPECI KPWK 141120Z 12003KT 10SM VCTS -RA SCT060 BKN100 14/12 A2985 RMK AO2 LTG DSNT S-W RAE1056B12 P0001 T01390122
2026-04-14 10:52:00,METAR KPWK 141052Z 14007KT 10SM -RA BKN039 BKN050 OVC060 14/13 A2983 RMK AO2 LTG DSNT ALQDS RAB16 PRESFR SLP099 P0000 T01390128
2026-04-14 09:52:00,METAR KPWK 140952Z AUTO 03006KT 10SM BKN038 BKN065 OVC080 14/13 A2984 RMK AO2 LTG DSNT NW RAE20 TSE0857 SLP101 P0000 T01440128
2026-04-14 09:10:00,SPECI KPWK 140910Z AUTO 10004KT 10SM -RA BKN032 BKN043 OVC080 16/14 A2981 RMK AO2 LTG DSNT SE TSE0857 P0000 T01560144
2026-04-14 09:03:00,SPECI KPWK 140903Z AUTO 11004KT 10SM VCTS -RA BKN041 BKN065 OVC100 16/14 A2981 RMK AO2 LTG DSNT E TSE0857 P0000 T01560139
2026-04-14 08:52:00,METAR KPWK 140852Z AUTO 04004KT 7SM TSRA BKN042 OVC065 16/14 A2982 RMK AO2 PK WND 34028/0751 WSHFT 0737 LTG DSNT E TSB23E38B42 SLP096 P0007 60007 T01560139 53024
2026-04-14 08:28:00,SPECI KPWK 140828Z AUTO 34009KT 10SM -TSRA OVC039 16/14 A2983 RMK AO2 PK WND 34028/0751 WSHFT 0737 LTG DSNT E TSB23 P0001 T01610139
2026-04-14 08:13:00,SPECI KPWK 140813Z AUTO 35011G21KT 10SM VCTS -RA FEW019 SCT031 OVC039 16/14 A2983 RMK AO2 PK WND 34028/0751 WSHFT 0737 LTG DSNT NW-NE P0000 T01610139
2026-04-14 07:57:00,SPECI KPWK 140757Z AUTO 34014G29KT 10SM -RA FEW023 BKN032 17/14 A2984 RMK AO2 PK WND 34028/0751 WSHFT 0737 LTG DSNT N AND NE P0000 T01720139
2026-04-14 07:50:00,METAR KPWK 140750Z AUTO 33017G43KT 10SM -RA FEW026 BKN035 BKN070 18/13 A2982 RMK AO2 PK WND 33043/0743 WSHFT 0735 LTG DSNT N RAB47 PRESRR SLP093 P0000 T01830133
2026-04-14 07:49:00,SPECI KPWK 140749Z AUTO 32018G43KT 10SM -RA FEW026 SCT035 BKN070 18/13 A2982 RMK AO2 PK WND 33043/0743 WSHFT 0735 LTG DSNT N RAB47 PRESRR P0000
2026-04-14 06:52:00,METAR KPWK 140652Z AUTO 22015G25KT 10SM FEW060 SCT100 22/17 A2974 RMK AO2 PK WND 22029/0600 SLP066 T02170172
2026-04-14 05:52:00,METAR KPWK 140552Z AUTO 21016G28KT 10SM FEW065 22/17 A2975 RMK AO2 PK WND 21029/0528 SLP071 60000 T02220172 10239 20222 402560167 58004
2026-04-14 04:52:00,METAR KPWK 140452Z AUTO 21017G26KT 10SM CLR 23/17 A2976 RMK AO2 PK WND 20031/0426 SLP073 T02280172
2026-04-14 03:52:00,METAR KPWK 140352Z AUTO 20015G24KT 10SM CLR 22/17 A2976 RMK AO2 PK WND 19027/0303 SLP075 T02220167
2026-04-14 02:52:00,METAR KPWK 140252Z AUTO 19015KT 10SM CLR 23/17 A2976 RMK AO2 PK WND 20026/0220 SLP075 60000 T02280167 55018
2026-04-14 01:52:00,METAR KPWK 140152Z 19015KT 10SM FEW075 23/17 A2975 RMK AO2 SLP070 T02330167
2026-04-14 00:52:00,METAR KPWK 140052Z 19014KT 10SM FEW065 SCT080 23/14 A2978 RMK AO2 RAB05E19 SLP082 P0000 T02280144
2026-04-14 00:23:00,SPECI KPWK 140023Z 19012G20KT 10SM FEW034 23/14 A2980 RMK AO2 RAB05E19 P0000 T02280144
2026-04-14 00:08:00,SPECI KPWK 140008Z 17009KT 10SM VCTS -RA SCT035 BKN110 23/14 A2980 RMK AO2 RAB05 P0000 T02330139
2026-04-13 23:52:00,METAR KPWK 132352Z 19009KT 10SM SCT110 24/13 A2982 RMK AO2 LTG DSNT SE SLP093 T02390128 10256 20222 58008
2026-04-13 22:52:00,METAR KPWK 132252Z 20011KT 10SM SCT100 25/12 A2984 RMK AO2 LTG DSNT E AND SW SLP102 T02500122
2026-04-13 21:52:00,METAR KPWK 132152Z 20015G23KT 10SM CLR 25/16 A2984 RMK AO2 SLP101 T02500156
2026-04-13 20:52:00,METAR KPWK 132052Z 20014G23KT 10SM CLR 24/18 A2984 RMK AO2 SLP101 T02390178 58026
2026-04-13 19:52:00,METAR KPWK 131952Z 25011G18KT 10SM FEW029 SCT038 BKN048 23/17 A2991 RMK AO2 SLP125 T02280172
2026-04-13 18:52:00,METAR KPWK 131852Z 24010KT 10SM OVC031 23/17 A2992 RMK AO2 SLP128 T02330172
2026-04-13 18:43:00,SPECI KPWK 131843Z 24010G16KT 10SM OVC030 23/17 A2991 RMK AO2 T02280172
2026-04-13 17:52:00,METAR KPWK 131752Z 22009G19KT 10SM OVC025 22/18 A2992 RMK AO2 SLP129 T02220178 10228 20183 58005
2026-04-13 16:52:00,METAR KPWK 131652Z 24010G16KT 10SM BKN019 OVC026 22/18 A2992 RMK AO2 SLP130 T02220178
2026-04-13 16:36:00,SPECI KPWK 131636Z 24007G17KT 10SM BKN016 OVC026 22/18 A2993 RMK AO2 T02170178
2026-04-13 15:52:00,METAR KPWK 131552Z 24008G18KT 10SM OVC011 21/18 A2994 RMK AO2 SLP135 T02060178
2026-04-13 14:52:00,METAR KPWK 131452Z 24008KT 200V270 10SM BKN011 OVC024 19/18 A2993 RMK AO2 SLP134 T01940178 51017
2026-04-13 13:52:00,METAR KPWK 131352Z 24009KT 10SM OVC009 19/17 A2992 RMK AO2 SLP129 T01890172
2026-04-13 13:22:00,SPECI KPWK 131322Z 24010KT 10SM OVC009 19/17 A2992 RMK AO2 T01890172
2026-04-13 12:52:00,METAR KPWK 131252Z 23007G16KT 10SM BKN010 OVC032 18/17 A2991 RMK AO2 CIG 009V013 SLP127 T01830167
2026-04-13 12:42:00,SPECI KPWK 131242Z 23008KT 10SM BKN011 OVC033 18/17 A2991 RMK AO2 CIG 009V014 T01830167
2026-04-13 11:52:00,METAR KPWK 131152Z 24008KT 10SM FEW012 OVC036 18/17 A2988 RMK AO2 SLP116 60000 70014 T01830167 10183 20167 53021
2026-04-13 11:44:00,SPECI KPWK 131144Z 24009KT 10SM FEW012 SCT021 OVC037 18/17 A2988 RMK AO2 T01830167
2026-04-13 11:30:00,SPECI KPWK 131130Z 23010G18KT 10SM SCT014 BKN022 OVC038 18/17 A2987 RMK AO2 T01830167
2026-04-13 11:01:00,SPECI KPWK 131101Z 24008KT 10SM OVC014 18/17 A2986 RMK AO2 T01830167
2026-04-13 10:52:00,METAR KPWK 131052Z 24007G17KT 10SM OVC015 18/17 A2986 RMK AO2 SLP108 T01830167
2026-04-13 10:42:00,SPECI KPWK 131042Z 24008KT 10SM BKN015 OVC020 18/17 A2985 RMK AO2 T01830167
2026-04-13 09:52:00,METAR KPWK 130952Z AUTO 24010G17KT 10SM OVC013 18/17 A2984 RMK AO2 SLP102 T01830167
2026-04-13 08:52:00,METAR KPWK 130852Z AUTO 26009KT 10SM OVC011 18/16 A2982 RMK AO2 SLP094 60000 T01780161 53007
2026-04-13 08:06:00,SPECI KPWK 130806Z AUTO 24009G19KT 10SM OVC014 18/16 A2980 RMK AO2 T01780156
2026-04-13 07:52:00,METAR KPWK 130752Z AUTO 25010G19KT 10SM OVC016 18/16 A2980 RMK AO2 SLP087 T01780156
2026-04-13 07:32:00,SPECI KPWK 130732Z AUTO 25010G18KT 10SM OVC016 17/16 A2980 RMK AO2 T01720156
2026-04-13 06:52:00,METAR KPWK 130652Z AUTO 25013G22KT 10SM OVC011 17/16 A2980 RMK AO2 RAB0556E26 SLP087 P0000 T01720156
2026-04-13 05:52:00,METAR KPWK 130552Z AUTO 24015G26KT 10SM OVC013 17/16 A2980 RMK AO2 PK WND 24026/0552 RAE27B35E45 SLP087 P0002 60014 T01670156 10244 20161 402720128 55002
2026-04-13 05:31:00,SPECI KPWK 130531Z AUTO 23014G25KT 10SM OVC014 17/15 A2980 RMK AO2 RAE27 P0002 T01670150
2026-04-13 05:00:00,SPECI KPWK 130500Z AUTO 22011KT 6SM RA BR FEW008 BKN015 OVC021 17/16 A2978 RMK AO2 P0001 T01670156
2026-04-13 04:52:00,METAR KPWK 130452Z AUTO 22009KT 9SM -RA SCT010 BKN015 OVC021 16/16 A2978 RMK AO2 SLP081 P0004 T01610156
2026-04-13 04:31:00,SPECI KPWK 130431Z AUTO 22009KT 7SM -RA SCT009 BKN014 OVC020 16/16 A2979 RMK AO2 P0003 T01610156
2026-04-13 03:52:00,METAR KPWK 130352Z AUTO 22009G17KT 6SM -RA BR BKN012 BKN018 OVC028 17/16 A2980 RMK AO2 SLP089 P0005 T01670156
2026-04-13 03:40:00,SPECI KPWK 130340Z AUTO 22009KT 10SM -RA BKN014 BKN030 OVC043 17/16 A2981 RMK AO2 P0004 T01670156
2026-04-13 03:24:00,SPECI KPWK 130324Z AUTO 21010G20KT 10SM -RA SCT014 OVC041 17/16 A2981 RMK AO2 P0003 T01670156
2026-04-13 03:07:00,SPECI KPWK 130307Z AUTO 22010KT 7SM -RA SCT014 BKN019 OVC042 17/16 A2982 RMK AO2 P0002 T01670156
2026-04-13 02:52:00,METAR KPWK 130252Z 21009KT 7SM -RA FEW017 SCT025 OVC036 17/16 A2982 RMK AO2 SLP096 P0003 60003 T01670156 51007
2026-04-13 01:52:00,METAR KPWK 130152Z 21017G26KT 10SM -RA SCT041 BKN049 OVC060 19/14 A2982 RMK AO2 PK WND 21033/0129 SLP097 P0000 T01890144
2026-04-13 00:52:00,METAR KPWK 130052Z 21015G29KT 10SM -RA FEW060 BKN100 OVC120 22/13 A2981 RMK AO2 PK WND 22039/2353 RAB12 SLP092 P0000 T02170128
2026-04-12 23:52:00,METAR KPWK 122352Z 21014G31KT 10SM BKN110 24/11 A2980 RMK AO2 PK WND 22037/2340 SLP090 T02440111 10272 20244 55007
2026-04-12 22:52:00,METAR KPWK 122252Z 22014G23KT 10SM FEW090 26/11 A2979 RMK AO2 PK WND 20041/2210 SLP085 T02560111
2026-04-12 21:52:00,METAR KPWK 122152Z 21015G34KT 10SM BKN095 OVC110 26/12 A2981 RMK AO2 PK WND 21034/2147 SLP092 T02610117
2026-04-12 20:52:00,METAR KPWK 122052Z 21021G36KT 10SM SCT065 26/13 A2983 RMK AO2 PK WND 20036/2052 SLP097 T02610128 57024
2026-04-12 19:52:00,METAR KPWK 121952Z 21016G33KT 10SM SCT060 SCT090 26/13 A2985 RMK AO2 PK WND 21040/1904 SLP104 T02610133
2026-04-12 18:52:00,METAR KPWK 121852Z 21021G28KT 10SM SCT055 26/14 A2988 RMK AO2 PK WND 21033/1803 SLP115 T02610139
2026-04-12 17:52:00,METAR KPWK 121752Z 21016G31KT 10SM SCT060 BKN075 25/14 A2990 RMK AO2 PK WND 25031/1748 SLP122 T02500139 10261 20144 58022
2026-04-12 16:52:00,METAR KPWK 121652Z 21016G23KT 10SM FEW048 25/14 A2992 RMK AO2 PK WND 21028/1619 SLP130 T02500144
2026-04-12 15:52:00,METAR KPWK 121552Z 21016G25KT 10SM CLR 22/14 A2995 RMK AO2 PK WND 21029/1514 SLP140 T02220139
2026-04-12 14:52:00,METAR KPWK 121452Z 21014G27KT 10SM FEW100 19/13 A2996 RMK AO2 PK WND 21027/1406 SLP147 T01940128 58013
2026-04-12 13:52:00,METAR KPWK 121352Z 20016G24KT 10SM FEW055 BKN095 19/12 A2999 RMK AO2 PK WND 20026/1341 SLP156 T01890122
2026-04-12 12:52:00,METAR KPWK 121252Z 20012G21KT 10SM CLR 17/12 A3000 RMK AO2 SLP160 T01720117
2026-04-12 11:52:00,METAR KPWK 121152Z 19009KT 10SM FEW060 FEW075 14/11 A3000 RMK AO2 SLP161 T01440106 10156 20128 56017
2026-04-12 10:52:00,METAR KPWK 121052Z AUTO 20012KT 10SM FEW060 SCT070 BKN090 15/09 A3001 RMK AO2 SLP162 T01500094
2026-04-12 09:52:00,METAR KPWK 120952Z AUTO 19011KT 10SM FEW110 14/08 A3003 RMK AO2 SLP168 T01440083
2026-04-12 08:52:00,METAR KPWK 120852Z AUTO 19011KT 10SM FEW060 FEW075 SCT110 14/06 A3005 RMK AO2 SLP177 T01390056 56026
2026-04-12 07:52:00,METAR KPWK 120752Z AUTO 18008KT 10SM FEW080 BKN110 13/05 A3007 RMK AO2 SLP184 T01330050
2026-04-12 06:52:00,METAR KPWK 120652Z AUTO 18011KT 10SM SCT110 14/05 A3010 RMK AO2 SLP194 T01390050
2026-04-12 05:52:00,METAR KPWK 120552Z AUTO 17008KT 10SM OVC100 13/06 A3013 RMK AO2 SLP204 60000 T01280056 10128 20078 401280000 57022
2026-04-12 04:52:00,METAR KPWK 120452Z 16007KT 10SM BKN085 11/06 A3015 RMK AO2 RAB01E10 SLP211 P0000 T01110056
2026-04-12 03:52:00,METAR KPWK 120352Z 17004KT 10SM SCT046 OVC095 09/04 A3018 RMK AO2 SLP222 T00890039
2026-04-12 02:52:00,METAR KPWK 120252Z 15004KT 10SM SCT065 BKN080 OVC090 08/03 A3020 RMK AO2 RAE06 SLP228 P0000 60000 T00830028 58020
2026-04-12 01:52:00,METAR KPWK 120152Z 14004KT 10SM -RA FEW070 OVC090 08/01 A3022 RMK AO2 RAB44 SLP237 P0000 T00830011
2026-04-12 00:52:00,METAR KPWK 120052Z 12004KT 10SM BKN060 08/M01 A3025 RMK AO2 SLP246 T00781011
2026-04-11 23:52:00,METAR KPWK 112352Z 10007KT 10SM SCT070 BKN090 BKN110 09/M01 A3026 RMK AO2 SLP251 T00891011 10111 20089 58021
2026-04-11 22:52:00,METAR KPWK 112252Z 06005KT 10SM BKN110 10/01 A3029 RMK AO2 SLP264 T01000011
2026-04-11 21:52:00,METAR KPWK 112152Z 12005KT 10SM BKN110 11/02 A3031 RMK AO2 SLP269 T01060017
2026-04-11 20:52:00,METAR KPWK 112052Z 10008KT 10SM CLR 11/02 A3032 RMK AO2 SLP271 T01060017 56028
2026-04-11 19:52:00,METAR KPWK 111952Z 11008KT 10SM BKN110 11/03 A3035 RMK AO2 SLP280 T01110028
2026-04-11 18:52:00,METAR KPWK 111852Z 09008KT 060V120 10SM OVC100 11/02 A3037 RMK AO2 SLP290 T01060022
2026-04-11 17:52:00,METAR KPWK 111752Z 11006KT 10SM CLR 11/M05 A3041 RMK AO2 SLP300 T01111050 10117 20006 58018
2026-04-11 16:52:00,METAR KPWK 111652Z 13007G17KT 10SM CLR 11/M04 A3044 RMK AO2 SLP312 T01061039
2026-04-11 15:52:00,METAR KPWK 111552Z 14010G18KT 10SM CLR 10/M02 A3045 RMK AO2 SLP317 T01001022
2026-04-11 14:52:00,METAR KPWK 111452Z 13009KT 10SM CLR 09/M01 A3046 RMK AO2 SLP318 T00941006 53005
2026-04-11 13:52:00,METAR KPWK 111352Z 13006KT 10SM FEW110 08/00 A3044 RMK AO2 SLP313 T00780000
2026-04-11 12:52:00,METAR KPWK 111252Z 00000KT 10SM FEW110 04/02 A3044 RMK AO2 SLP313 T00390022
2026-04-11 11:52:00,METAR KPWK 111152Z 00000KT 6SM BR CLR 01/01 A3044 RMK AO2 SLP315 70001 T00060006 10028 20000 51010
2026-04-11 10:52:00,METAR KPWK 111052Z AUTO 00000KT 10SM CLR 01/01 A3043 RMK AO2 SLP311 T00110006
2026-04-11 09:52:00,METAR KPWK 110952Z AUTO 00000KT 7SM CLR 01/00 A3042 RMK AO2 SLP305 T00060000
2026-04-11 08:52:00,METAR KPWK 110852Z AUTO 00000KT 5SM BR CLR 01/01 A3041 RMK AO2 SLP302 T00110006 51006
2026-04-11 07:52:00,METAR KPWK 110752Z AUTO 00000KT 10SM FEW120 01/01 A3041 RMK AO2 SLP301 T00110006
2026-04-11 06:52:00,METAR KPWK 110652Z AUTO 00000KT 10SM CLR 02/01 A3040 RMK AO2 SLP298 T00220011
2026-04-11 05:52:00,METAR KPWK 110552Z AUTO 00000KT 10SM FEW090 SCT110 03/01 A3039 RMK AO2 SLP296 T00280011 10061 20022 401220022 55004
2026-04-11 04:52:00,METAR KPWK 110452Z AUTO 20003KT 10SM CLR 03/01 A3039 RMK AO2 SLP295 T00330011
2026-04-11 03:52:00,METAR KPWK 110352Z AUTO 00000KT 10SM FEW070 SCT095 03/01 A3040 RMK AO2 SLP298 T00330011
2026-04-11 02:52:00,METAR KPWK 110252Z 00000KT 10SM FEW070 04/01 A3041 RMK AO2 SLP301 T00390011 53018
2026-04-11 01:52:00,METAR KPWK 110152Z 00000KT 10SM FEW070 SCT120 04/01 A3039 RMK AO2 SLP296 T00440006
2026-04-11 00:52:00,METAR KPWK 110052Z 06004KT 10SM SCT050 SCT070 05/01 A3037 RMK AO2 SLP287 T00500011
2026-04-10 23:52:00,METAR KPWK 102352Z 08006KT 10SM FEW009 SCT110 06/04 A3035 RMK AO2 SLP282 T00610039 10122 20061 53018
2026-04-10 23:40:00,SPECI KPWK 102340Z 05009KT 10SM SCT009 BKN050 06/04 A3035 RMK AO2 T00610039
2026-04-10 22:52:00,METAR KPWK 102252Z 07010G17KT 10SM BKN050 09/05 A3033 RMK AO2 SLP274 T00890050
2026-04-10 21:59:00,SPECI KPWK 102159Z 31011KT 10SM FEW034 OVC048 12/04 A3031 RMK AO2 T01170039
2026-04-10 21:52:00,METAR KPWK 102152Z 31009KT 10SM BKN027 BKN031 OVC041 12/04 A3031 RMK AO2 SLP265 T01220039
2026-04-10 20:52:00,METAR KPWK 102052Z 33003KT 10SM BKN027 OVC039 11/05 A3030 RMK AO2 SLP263 T01060050 50008
2026-04-10 20:12:00,SPECI KPWK 102012Z 32006KT 10SM SCT023 OVC033 11/06 A3030 RMK AO2 T01060056
2026-04-10 19:58:00,SPECI KPWK 101958Z 31007KT 10SM BKN023 OVC030 10/06 A3030 RMK AO2 T01000056
2026-04-10 19:52:00,METAR KPWK 101952Z COR 32006KT 10SM BKN022 OVC030 10/06 A3030 RMK AO2 SLP264 T01000056
2026-04-10 18:52:00,METAR KPWK 101852Z 35005KT 10SM OVC019 09/06 A3029 RMK AO2 SLP261 T00940056
2026-04-10 17:52:00,METAR KPWK 101752Z 34007KT 10SM OVC019 09/06 A3028 RMK AO2 SLP256 60001 T00940056 10094 20061 51014
2026-04-10 16:59:00,SPECI KPWK 101659Z VRB04KT 10SM OVC015 08/06 A3026 RMK AO2 T00830061
2026-04-10 16:52:00,METAR KPWK 101652Z 05006KT 10SM OVC013 08/06 A3026 RMK AO2 SLP252 T00830061
2026-04-10 15:52:00,METAR KPWK 101552Z 01004KT 10SM OVC012 08/06 A3025 RMK AO2 SLP248 T00780061
2026-04-10 15:05:00,SPECI KPWK 101505Z 01007KT 10SM OVC011 07/06 A3024 RMK AO2 CIG 008V014 T00720056
2026-04-10 14:52:00,METAR KPWK 101452Z 36007KT 10SM OVC008 07/06 A3024 RMK AO2 CIG 007V011 SLP242 60001 T00720056 53023
2026-04-10 13:52:00,METAR KPWK 101352Z 02009KT 9SM BKN007 OVC023 07/06 A3020 RMK AO2 SLP228 T00670061
2026-04-10 12:52:00,METAR KPWK 101252Z 36007KT 10SM OVC007 07/06 A3019 RMK AO2 RAB1154E18 CIG 005V011 SLP224 P0001 T00670056
2026-04-10 11:52:00,METAR KPWK 101152Z 36009KT 7SM OVC003 06/06 A3017 RMK AO2 RAB34E51 SLP217 P0000 60028 70032 T00610056 10061 20056 53020
2026-04-10 11:41:00,SPECI KPWK 101141Z 36007KT 6SM -RA BR OVC003 06/06 A3017 RMK AO2 RAB34 P0000 T00610056
2026-04-10 11:34:00,SPECI KPWK 101134Z 35006KT 7SM -RA OVC004 06/06 A3015 RMK AO2 RAB34 P0000 T00610056
2026-04-10 10:52:00,METAR KPWK 101052Z 36006KT 10SM OVC003 06/06 A3013 RMK AO2 SLP203 T00610056
2026-04-10 10:02:00,SPECI KPWK 101002Z AUTO 06003KT 10SM OVC004 06/06 A3010 RMK AO2 T00610056
2026-04-10 09:52:00,METAR KPWK 100952Z AUTO 05005KT 10SM OVC005 06/06 A3010 RMK AO2 RAE13 SLP193 P0000 T00610056
2026-04-10 09:16:00,SPECI KPWK 100916Z AUTO 05004KT 10SM OVC005 06/06 A3010 RMK AO2 RAE13 P0000 T00610056
2026-04-10 08:52:00,METAR KPWK 100852Z AUTO 05005KT 8SM -RA OVC004 06/06 A3011 RMK AO2 SLP195 P0012 60028 T00610056 56014
2026-04-10 08:15:00,SPECI KPWK 100815Z AUTO 00000KT 7SM RA BKN004 OVC080 06/06 A3011 RMK AO2 P0004 T00610056
2026-04-10 08:09:00,SPECI KPWK 100809Z AUTO VRB03KT 8SM -RA SCT004 BKN070 OVC080 06/06 A3011 RMK AO2 P0002 T00610056
2026-04-10 07:52:00,METAR KPWK 100752Z AUTO 08005KT 7SM RA FEW011 BKN060 OVC080 06/06 A3011 RMK AO2 SLP195 P0013 T00610056
2026-04-10 06:52:00,METAR KPWK 100652Z AUTO 02006KT 8SM RA SCT070 06/04 A3014 RMK AO2 SLP208 P0003 T00560044
2026-04-10 05:52:00,METAR KPWK 100552Z AUTO 02007KT 10SM -RA OVC080 06/04 A3015 RMK AO2 RAB0458 SLP209 P0002 60003 T00610039 10167 20061 402060061 55004
2026-04-10 04:52:00,METAR KPWK 100452Z 05005KT 10SM FEW075 BKN095 07/03 A3013 RMK AO2 RAB07E23 SLP202 P0000 T00670028
2026-04-10 03:52:00,METAR KPWK 100352Z 01006KT 10SM BKN070 OVC090 07/04 A3014 RMK AO2 RAB32E50 SLP208 P0000 T00670039
2026-04-10 02:52:00,METAR KPWK 100252Z 05007KT 10SM OVC090 08/05 A3016 RMK AO2 SLP213 60001 T00830050 53004
2026-04-10 01:52:00,METAR KPWK 100152Z 10004KT 10SM OVC095 14/09 A3011 RMK AO2 SLP197 T01390094
2026-04-10 00:52:00,METAR KPWK 100052Z 35003KT 10SM FEW075 OVC095 13/09 A3012 RMK AO2 RAE42 SLP201 P0001 T01330094
2026-04-09 23:52:00,METAR KPWK 092352Z 29009G16KT 9SM -RA FEW055 BKN075 OVC100 17/07 A3015 RMK AO2 RAB21 SLP209 P0001 60001 T01670072 10206 20167 53009
2026-04-09 22:52:00,METAR KPWK 092252Z 26006KT 10SM OVC080 20/04 A3013 RMK AO2 SLP202 T02000039
2026-04-09 21:52:00,METAR KPWK 092152Z 24005KT 10SM SCT080 BKN110 21/04 A3012 RMK AO2 SLP199 T02060044
2026-04-09 20:52:00,METAR KPWK 092052Z 23008G16KT 10SM FEW090 SCT110 21/04 A3012 RMK AO2 SLP197 T02060044 58010
2026-04-09 19:52:00,METAR KPWK 091952Z 26009KT 10SM CLR 21/04 A3013 RMK AO2 SLP202 T02060039
2026-04-09 18:52:00,METAR KPWK 091852Z COR 25009G15KT 10SM CLR 19/03 A3014 RMK AO2 SLP205 T01940033
2026-04-09 17:52:00,METAR KPWK 091752Z 29011KT 10SM CLR 19/03 A3015 RMK AO2 SLP208 T01890033 10189 20117 50005
2026-04-09 16:52:00,METAR KPWK 091652Z COR 27011G17KT 10SM FEW075 18/03 A3015 RMK AO2 SLP208 T01830033
2026-04-09 15:52:00,METAR KPWK 091552Z 26008G19KT 10SM CLR 17/01 A3015 RMK AO2 SLP210 T01720006
2026-04-09 14:52:00,METAR KPWK 091452Z 28011KT 10SM CLR 17/00 A3014 RMK AO2 SLP204 T01670000 51013
2026-04-09 13:52:00,METAR KPWK 091352Z 24008KT 10SM FEW080 SCT110 15/03 A3013 RMK AO2 SLP202 T01500028
2026-04-09 12:52:00,METAR KPWK 091252Z COR 21005KT 10SM BKN100 13/07 A3012 RMK AO2 SLP198 T01280072
2026-04-09 11:52:00,METAR KPWK 091152Z 20004KT 10SM SCT080 BKN100 12/06 A3010 RMK AO2 SLP191 60000 T01170056 10183 20117 51021
2026-04-09 10:52:00,METAR KPWK 091052Z 25004KT 10SM OVC100 13/06 A3008 RMK AO2 SLP184 T01330056
2026-04-09 09:52:00,METAR KPWK 090952Z AUTO 30006KT 10SM OVC095 14/07 A3006 RMK AO2 SLP177 T01440072
2026-04-09 08:52:00,METAR KPWK 090852Z AUTO 28007KT 10SM BKN090 OVC120 16/07 A3003 RMK AO2 RAE0757 SLP168 P0000 60000 T01560067 53006
2026-04-09 07:52:00,METAR KPWK 090752Z AUTO 21012G21KT 10SM -RA BKN090 BKN110 16/07 A2999 RMK AO2 RAB47 SLP153 P0000 T01560067
2026-04-09 06:52:00,METAR KPWK 090652Z AUTO 21015G24KT 10SM BKN090 16/07 A3000 RMK AO2 PK WND 23031/0605 RAB04E41 SLP157 P0000 T01610067
2026-04-09 05:52:00,METAR KPWK 090552Z AUTO 23012G32KT 10SM OVC090 19/04 A3001 RMK AO2 PK WND 25032/0549 RAB38E48 SLP162 P0000 60000 T01890039 10206 20172 402170017 53003
2026-04-09 04:52:00,METAR KPWK 090452Z AUTO 21017G29KT 10SM OVC100 18/04 A3000 RMK AO2 PK WND 22031/0358 SLP158 T01780039
2026-04-09 03:52:00,METAR KPWK 090352Z 21017G25KT 10SM FEW070 FEW090 18/04 A3000 RMK AO2 PK WND 20033/0328 SLP161 T01780039
2026-04-09 02:52:00,METAR KPWK 090252Z 19016G25KT 10SM FEW080 18/04 A3000 RMK AO2 PK WND 19026/0241 SLP161 T01830044 51003
2026-04-09 01:52:00,METAR KPWK 090152Z 20016G26KT 10SM SCT070 19/04 A3001 RMK AO2 PK WND 22028/0142 SLP161 T01940044
2026-04-09 00:52:00,METAR KPWK 090052Z 21013G21KT 10SM FEW075 20/04 A3000 RMK AO2 PK WND 22029/0007 SLP160 T02000039
2026-04-08 23:52:00,METAR KPWK 082352Z 21016G27KT 10SM FEW070 SCT090 BKN110 21/04 A3000 RMK AO2 PK WND 22036/2255 SLP158 T02060039 10217 20156 55012
2026-04-08 22:52:00,METAR KPWK 082252Z 21023G34KT 10SM CLR 22/04 A2999 RMK AO2 PK WND 21035/2225 SLP155 T02170039
2026-04-08 21:52:00,METAR KPWK 082152Z 21022G31KT 10SM SCT110 21/04 A3000 RMK AO2 PK WND 19038/2124 SLP160 T02110039
2026-04-08 20:52:00,METAR KPWK 082052Z 22017G31KT 10SM CLR 21/04 A3003 RMK AO2 PK WND 19031/2039 SLP171 T02110039 58031
2026-04-08 19:52:00,METAR KPWK 081952Z 19018G26KT 10SM FEW095 20/04 A3006 RMK AO2 PK WND 22032/1900 SLP181 T02000039
2026-04-08 18:52:00,METAR KPWK 081852Z 19021G31KT 10SM CLR 18/03 A3010 RMK AO2 PK WND 18032/1842 SLP194 T01780028
2026-04-08 17:52:00,METAR KPWK 081752Z 20020G26KT 10SM CLR 16/02 A3012 RMK AO2 PK WND 20026/1743 SLP203 T01560017 10156 20033 58035
2026-04-08 16:52:00,METAR KPWK 081652Z 18018G23KT 10SM CLR 13/00 A3016 RMK AO2 SLP217 T01330000
2026-04-08 15:52:00,METAR KPWK 081552Z 18018G25KT 10SM CLR 10/M02 A3020 RMK AO2 PK WND 19026/1538 SLP230 T01001017
2026-04-08 14:52:00,METAR KPWK 081452Z 18013KT 10SM FEW090 FEW110 08/M03 A3023 RMK AO2 SLP241 T00831033 58019
2026-04-08 13:52:00,METAR KPWK 081352Z 17014G20KT 10SM CLR 06/M03 A3026 RMK AO2 SLP251 T00611033
2026-04-08 12:52:00,METAR KPWK 081252Z 16011KT 10SM OVC085 04/M03 A3027 RMK AO2 SLP255 T00441033
2026-04-08 11:52:00,METAR KPWK 081152Z 17010KT 10SM BKN080 BKN100 OVC120 03/M03 A3028 RMK AO2 SLP262 60001 70001 T00331033 10033 20017 56014
2026-04-08 10:52:00,METAR KPWK 081052Z 16011KT 10SM BKN075 BKN095 03/M03 A3029 RMK AO2 SLP264 T00281033
2026-04-08 09:52:00,METAR KPWK 080952Z 15007KT 10SM SCT080 BKN110 03/M02 A3030 RMK AO2 RAE06 SLP267 P0000 T00281022
2026-04-08 08:52:00,METAR KPWK 080852Z 16008KT 10SM -RA BKN055 OVC080 02/M03 A3032 RMK AO2 RAB03 SLP275 P0001 60001 T00221028 56009
2026-04-08 07:52:00,METAR KPWK 080752Z 17008KT 10SM OVC055 03/M06 A3033 RMK AO2 SLP275 T00331061
2026-04-08 06:52:00,METAR KPWK 080652Z 16005KT 10SM CLR 02/M02 A3033 RMK AO2 SLP278 T00171017
2026-04-08 05:52:00,METAR KPWK 080552Z 15005KT 10SM OVC060 02/M02 A3035 RMK AO2 SLP285 T00171017 10017 21006 400281022 58020
2026-04-08 04:52:00,METAR KPWK 080452Z 11004KT 10SM BKN065 OVC120 01/M03 A3037 RMK AO2 SLP292 T00111028
2026-04-08 03:52:00,METAR KPWK 080352Z 13004KT 10SM BKN120 01/M04 A3040 RMK AO2 SLP301 T00061039
2026-04-08 02:52:00,METAR KPWK 080252Z 00000KT 10SM CLR 00/M05 A3041 RMK AO2 SLP305 T00001050 56006
2026-04-08 01:52:00,METAR KPWK 080152Z 09004KT 10SM CLR M01/M06 A3041 RMK AO2 SLP306 T10061061
2026-04-08 00:52:00,METAR KPWK 080052Z 09004KT 10SM FEW080 SCT110 M01/M07 A3042 RMK AO2 SLP309 T10061067
2026-04-07 23:52:00,METAR KPWK 072352Z 08006KT 10SM CLR 00/M07 A3043 RMK AO2 SLP312 T00001072 10028 20000 56013
2026-04-07 22:52:00,METAR KPWK 072252Z 06007KT 10SM CLR 01/M08 A3044 RMK AO2 SLP315 T00111078
2026-04-07 21:52:00,METAR KPWK 072152Z VRB04KT 10SM CLR 02/M09 A3045 RMK AO2 SLP320 T00221094
2026-04-07 21:10:00,SPECI KPWK 072110Z 11007KT 070V130 10SM FEW090 SCT110 02/M09 A3046 RMK AO2 T00221089
2026-04-07 20:52:00,METAR KPWK 072052Z 11010G15KT 10SM CLR 02/M08 A3047 RMK AO2 SLP325 T00171078 58021
2026-04-07 19:52:00,METAR KPWK 071952Z 10008G18KT 10SM CLR 02/M08 A3049 RMK AO2 SLP333 T00171078
2026-04-07 18:52:00,METAR KPWK 071852Z 08005G14KT 10SM CLR 02/M08 A3051 RMK AO2 SLP340 T00171078
2026-04-07 17:52:00,METAR KPWK 071752Z VRB06KT 10SM SCT090 BKN110 02/M09 A3053 RMK AO2 SLP347 T00171089 10017 21022 58008
2026-04-07 16:52:00,METAR KPWK 071652Z 07009G17KT 050V110 10SM CLR 01/M08 A3055 RMK AO2 SLP354 T00111083
2026-04-07 15:52:00,METAR KPWK 071552Z 10008G13KT 10SM CLR 01/M09 A3056 RMK AO2 SLP357 T00061089
2026-04-07 14:52:00,METAR KPWK 071452Z 07011KT 10SM BKN035 BKN100 BKN120 00/M09 A3056 RMK AO2 SLP355 T00001089 51016
2026-04-07 13:52:00,METAR KPWK 071352Z 06007G17KT 030V110 10SM FEW085 SCT110 00/M09 A3054 RMK AO2 SLP349 T00001094
2026-04-07 12:52:00,METAR KPWK 071252Z 05010KT 10SM CLR M01/M09 A3053 RMK AO2 SLP345 T10111094
2026-04-07 11:52:00,METAR KPWK 071152Z 04008KT 10SM FEW075 FEW095 SCT110 M02/M10 A3051 RMK AO2 SLP337 T10221100 10000 21022 53017
2026-04-07 10:52:00,METAR KPWK 071052Z 04007KT 10SM CLR M02/M09 A3049 RMK AO2 SLP329 T10171089 $
2026-04-07 09:52:00,METAR KPWK 070952Z AUTO 04008G15KT 10SM FEW034 M01/M08 A3047 RMK AO2 SLP323 T10111083 $
2026-04-07 08:52:00,METAR KPWK 070852Z AUTO 04008G18KT 10SM FEW035 SCT060 BKN110 M01/M08 A3046 RMK AO2 SLP318 T10061078 53014 $
2026-04-07 07:52:00,METAR KPWK 070752Z AUTO 04008KT 10SM BKN032 M01/M07 A3044 RMK AO2 SLP312 T10061067 $
2026-04-07 06:52:00,METAR KPWK 070652Z AUTO 05010KT 10SM BKN030 00/M06 A3043 RMK AO2 SLP309 T00001056 $
2026-04-07 06:29:00,SPECI KPWK 070629Z AUTO 04009G17KT 10SM BKN030 00/M06 A3042 RMK AO2 T00001056 $
2026-04-07 05:52:00,METAR KPWK 070552Z AUTO 05006G16KT 10SM BKN028 00/M06 A3041 RMK AO2 SLP304 T00001056 10083 20000 401060000 53019 $
2026-04-07 04:52:00,METAR KPWK 070452Z AUTO 04007KT 10SM OVC024 01/M04 A3039 RMK AO2 SLP296 T00061044 $
2026-04-07 03:52:00,METAR KPWK 070352Z AUTO 03009KT 10SM OVC021 01/M04 A3038 RMK AO2 SLP291 T00061039 $
2026-04-07 02:52:00,METAR KPWK 070252Z 04011G18KT 10SM BKN017 OVC075 01/M03 A3036 RMK AO2 SLP284 T00111028 53046 $
2026-04-07 02:26:00,SPECI KPWK 070226Z 04010G22KT 10SM BKN015 OVC075 02/M02 A3034 RMK AO2 T00171017 $
2026-04-07 01:52:00,METAR KPWK 070152Z 05010G24KT 10SM BKN012 OVC080 02/M01 A3032 RMK AO2 SLP271 T00221006 $
2026-04-07 01:38:00,SPECI KPWK 070138Z 04016G23KT 10SM BKN012 OVC075 02/M01 A3030 RMK AO2 T00221006 $
2026-04-07 00:52:00,METAR KPWK 070052Z 04010G18KT 10SM OVC070 05/M02 A3025 RMK AO2 SLP249 T00501022
2026-04-06 23:52:00,METAR KPWK 062352Z 01013G18KT 10SM SCT060 BKN075 BKN110 08/M04 A3022 RMK AO2 SLP237 T00831044 10106 20083 53007
2026-04-06 22:52:00,METAR KPWK 062252Z 35010G20KT 10SM OVC070 10/M04 A3021 RMK AO2 SLP232 T01001039
2026-04-06 21:52:00,METAR KPWK 062152Z 32012KT 10SM BKN060 BKN070 BKN090 11/M03 A3020 RMK AO2 SLP228 T01061028
2026-04-06 20:52:00,METAR KPWK 062052Z 33014KT 10SM BKN070 BKN095 BKN110 09/M03 A3020 RMK AO2 SLP230 T00891028 58013
2026-04-06 19:52:00,METAR KPWK 061952Z 30011G25KT 10SM BKN055 OVC070 09/M03 A3021 RMK AO2 PK WND 31026/1904 SLP235 T00941028
2026-04-06 18:52:00,METAR KPWK 061852Z 30015G26KT 10SM SCT047 BKN060 09/M02 A3023 RMK AO2 PK WND 30027/1841 SLP241 T00891017
2026-04-06 17:52:00,METAR KPWK 061752Z 31013G23KT 10SM BKN046 OVC060 08/M01 A3024 RMK AO2 PK WND 34026/1737 SLP243 T00831011 10089 20044 50002
2026-04-06 16:52:00,METAR KPWK 061652Z 30010G22KT 10SM BKN040 BKN049 08/M01 A3024 RMK AO2 SLP243 T00831006
2026-04-06 15:52:00,METAR KPWK 061552Z 33012G20KT 10SM FEW030 BKN038 08/01 A3025 RMK AO2 SLP245 T00830006
2026-04-06 15:30:00,SPECI KPWK 061530Z 32012G21KT 10SM BKN030 BKN037 07/01 A3024 RMK AO2 T00720006
2026-04-06 15:05:00,SPECI KPWK 061505Z 33012KT 10SM BKN029 OVC037 07/01 A3023 RMK AO2 T00670006
2026-04-06 14:52:00,METAR KPWK 061452Z 32010KT 10SM SCT024 BKN032 BKN038 07/02 A3023 RMK AO2 SLP240 T00720017 51008
2026-04-06 14:48:00,SPECI KPWK 061448Z 33009KT 10SM FEW024 BKN032 BKN095 07/01 A3023 RMK AO2
2026-04-06 13:52:00,METAR KPWK 061352Z 33015KT 10SM BKN019 06/02 A3022 RMK AO2 SLP237 T00610022
2026-04-06 12:52:00,METAR KPWK 061252Z 31010KT 10SM FEW080 BKN100 05/02 A3021 RMK AO2 SLP232 T00500022
2026-04-06 11:52:00,METAR KPWK 061152Z 31006KT 10SM FEW070 FEW090 SCT110 04/02 A3018 RMK AO2 SLP223 60000 70009 T00440022 10072 20044 53019
2026-04-06 10:52:00,METAR KPWK 061052Z 32007KT 10SM FEW013 SCT039 SCT075 05/04 A3015 RMK AO2 SLP212 T00500039 $
2026-04-06 09:52:00,METAR KPWK 060952Z AUTO 30005KT 10SM FEW042 SCT050 BKN065 06/04 A3013 RMK AO2 SLP207 T00560044 $
2026-04-06 08:52:00,METAR KPWK 060852Z AUTO 24003KT 10SM FEW070 06/05 A3012 RMK AO2 SLP202 60000 T00560050 56012 $
2026-04-06 07:52:00,METAR KPWK 060752Z AUTO 24004KT 10SM OVC038 06/06 A3013 RMK AO2 RAE0653 SLP205 P0000 T00610056 $
2026-04-06 06:52:00,METAR KPWK 060652Z AUTO 27003KT 10SM -RA SCT039 BKN048 OVC080 07/05 A3014 RMK AO2 RAE06B44 SLP209 P0000 T00670050 $
2026-04-06 05:52:00,METAR KPWK 060552Z AUTO 29009KT 8SM RA FEW027 OVC036 07/05 A3016 RMK AO2 SLP216 P0008 60009 T00670050 10106 20067 401170028 55001 $
2026-04-06 05:41:00,SPECI KPWK 060541Z AUTO 29011KT 9SM VCTS -RA FEW028 BKN036 OVC047 07/04 A3016 RMK AO2 P0006 T00670044 $
2026-04-06 04:52:00,METAR KPWK 060452Z AUTO 26006G15KT 10SM -RA BKN042 BKN060 OVC110 08/02 A3016 RMK AO2 RAB39 SLP215 P0001 T00780022 $
2026-04-06 03:52:00,METAR KPWK 060352Z AUTO 25006KT 10SM BKN110 08/00 A3015 RMK AO2 SLP214 T00830000 $
2026-04-06 02:52:00,METAR KPWK 060252Z 25005KT 10SM CLR 09/M01 A3016 RMK AO2 SLP217 T00891006 51002 $
2026-04-06 01:52:00,METAR KPWK 060152Z 24004KT 10SM FEW085 SCT110 09/M02 A3016 RMK AO2 SLP217 T00941022 $
2026-04-06 00:52:00,METAR KPWK 060052Z 26005KT 10SM CLR 10/M03 A3016 RMK AO2 SLP216 T01001028 $
2026-04-05 23:52:00,METAR KPWK 052352Z 28008KT 10SM FEW075 11/M05 A3015 RMK AO2 SLP215 T01061050 10117 20083 50000 $
2026-04-05 22:52:00,METAR KPWK 052252Z 29012KT 10SM CLR 11/M06 A3016 RMK AO2 SLP217 T01111061 $
2026-04-05 21:52:00,METAR KPWK 052152Z 28014G21KT 10SM CLR 11/M06 A3015 RMK AO2 SLP214 T01111061 $
2026-04-05 20:52:00,METAR KPWK 052052Z 32015G23KT 10SM FEW085 11/M06 A3015 RMK AO2 PK WND 33026/2012 SLP214 T01111056 58004 $
2026-04-05 19:52:00,METAR KPWK 051952Z 32012G20KT 10SM FEW090 10/M06 A3016 RMK AO2 PK WND 31029/1936 SLP217 T01001061 $
2026-04-05 18:52:00,METAR KPWK 051852Z 32016G25KT 10SM FEW090 FEW110 09/M06 A3016 RMK AO2 PK WND 31026/1830 SLP217 T00941056 $
2026-04-05 17:52:00,METAR KPWK 051752Z 32012G17KT 10SM FEW110 08/M03 A3016 RMK AO2 PK WND 29026/1716 SLP218 T00831028 10083 20028 51011 $
2026-04-05 16:52:00,METAR KPWK 051652Z 31010G19KT 10SM FEW095 07/M03 A3016 RMK AO2 SLP216 T00721028 $
2026-04-05 15:52:00,METAR KPWK 051552Z 31013G20KT 10SM CLR 06/M02 A3015 RMK AO2 SLP214 T00611022 $
2026-04-05 14:52:00,METAR KPWK 051452Z 33013G20KT 10SM FEW034 05/M03 A3013 RMK AO2 SLP208 T00501033 53026 $
2026-04-05 12:52:00,METAR KPWK 051252Z 31014G20KT 10SM BKN029 OVC036 03/M02 A3008 RMK AO2 SLP190 T00331022 $
2026-04-05 11:52:00,METAR KPWK 051152Z 29013G23KT 10SM BKN043 OVC070 03/M02 A3005 RMK AO2 SLP182 T00281022 10050 20028 53021 $
2026-04-05 10:52:00,METAR KPWK 051052Z 30010G22KT 10SM BKN048 OVC060 03/M02 A3003 RMK AO2 SLP173 T00331022 $
2026-04-05 09:52:00,METAR KPWK 050952Z 30018G24KT 10SM SCT033 OVC050 04/M03 A3001 RMK AO2 SLP166 T00391028 $
2026-04-05 08:52:00,METAR KPWK 050852Z 28011G20KT 10SM OVC048 04/M02 A2999 RMK AO2 SLP160 T00441022 53005 $
2026-04-05 07:52:00,METAR KPWK 050752Z 28009G19KT 10SM BKN055 BKN065 OVC085 04/M02 A2998 RMK AO2 SLP156 T00441022 $
2026-04-05 06:52:00,METAR KPWK 050652Z 28010G17KT 10SM SCT036 BKN050 OVC080 04/M02 A2998 RMK AO2 SLP155 T00441017 $
2026-04-05 05:52:00,METAR KPWK 050552Z 29012G26KT 10SM BKN037 OVC049 05/M02 A2998 RMK AO2 PK WND 29026/0545 SLP155 60000 T00501017 10061 20044 401170044 53004 $
2026-04-05 04:52:00,METAR KPWK 050452Z 27012G19KT 10SM SCT032 BKN055 OVC070 05/00 A2997 RMK AO2 SLP152 T00500000 $
2026-04-05 03:52:00,METAR KPWK 050352Z 26008G17KT 10SM FEW028 BKN050 OVC065 05/00 A2996 RMK AO2 RAB09E42 SLP150 P0000 T00500000 $
2026-04-05 02:52:00,METAR KPWK 050252Z 26015G23KT 10SM FEW040 OVC050 05/M01 A2997 RMK AO2 SLP150 60000 T00501011 50012 $
2026-04-05 01:52:00,METAR KPWK 050152Z 28012G26KT 10SM FEW030 SCT043 OVC055 05/M01 A2997 RMK AO2 PK WND 29028/0102 RAB04E24 SLP151 P0000 T00501011 $
2026-04-05 00:52:00,METAR KPWK 050052Z 27013G27KT 10SM FEW030 OVC047 06/00 A2994 RMK AO2 PK WND 30028/2356 SLP143 T00610000 $
2026-04-04 23:52:00,METAR KPWK 042352Z 26014G25KT 10SM OVC032 06/00 A2993 RMK AO2 PK WND 25031/2335 SLP138 T00610000 10094 20061 51019 $
2026-04-04 23:25:00,SPECI KPWK 042325Z 27014G25KT 10SM OVC033 07/00 A2993 RMK AO2 PK WND 29029/2302 T00670000 $
2026-04-04 22:52:00,METAR KPWK 042252Z 27016G28KT 10SM OVC026 07/01 A2991 RMK AO2 PK WND 27029/2158 SLP133 T00670011 $
2026-04-04 21:52:00,METAR KPWK 042152Z 28017G29KT 10SM OVC024 07/02 A2990 RMK AO2 PK WND 28029/2145 SLP127 T00720017 $
2026-04-04 20:52:00,METAR KPWK 042052Z AUTO 29018G26KT 10SM OVC023 08/04 A2987 RMK AO2 PK WND 30029/2042 SLP119 T00830039 53005 $
2026-04-04 19:52:00,METAR KPWK 041952Z 27012G23KT 10SM BKN020 09/05 A2986 RMK AO2 SLP115 T00940050 $
2026-04-04 19:31:00,SPECI KPWK 041931Z 27014G25KT 10SM OVC016 09/05 A2986 RMK AO2 T00940050 $
2026-04-04 18:52:00,METAR KPWK 041852Z 28012G21KT 10SM OVC010 08/06 A2986 RMK AO2 CIG 009V014 SLP114 T00830061 $
2026-04-04 17:52:00,METAR KPWK 041752Z 25010G20KT 10SM OVC009 08/07 A2986 RMK AO2 RAB18E28 SLP113 P0000 60000 T00830072 10117 20072 51015 $
2026-04-04 16:52:00,METAR KPWK 041652Z 27014G21KT 10SM OVC007 09/08 A2984 RMK AO2 SLP108 T00940083 $
2026-04-04 15:52:00,METAR KPWK 041552Z 26012G19KT 10SM OVC007 11/09 A2983 RMK AO2 RAB15E34 SLP105 P0000 T01060094 $
2026-04-04 15:19:00,SPECI KPWK 041519Z 27011G22KT 10SM -RA OVC005 11/10 A2982 RMK AO2 RAB15 P0000 T01110100 $
2026-04-04 15:16:00,SPECI KPWK 041516Z 26011G22KT 1/2SM -RA OVC005 11/11 A2982 RMK AO2 SFC VIS 10 RAB15 P0000 T01110106 $
2026-04-04 15:06:00,SPECI KPWK 041506Z 26014G23KT 1/2SM OVC004 11/11 A2982 RMK AO2 SFC VIS 8 CIG 002V007 T01110106 $
2026-04-04 14:52:00,METAR KPWK 041452Z 26012G20KT 1/2SM BR OVC003 12/11 A2981 RMK AO2 SFC VIS 3 CIG 002V006 SLP098 60000 T01170111 55001 $
2026-04-04 14:33:00,SPECI KPWK 041433Z 22006KT 1/2SM BR OVC003 11/11 A2979 RMK AO2 SFC VIS 2 T01110106 $
2026-04-04 14:13:00,SPECI KPWK 041413Z 29004KT 1 1/2SM BR OVC003 10/10 A2978 RMK AO2 SFC VIS 6 T01000100 $
2026-04-04 13:52:00,METAR KPWK 041352Z 00000KT 1 1/2SM BR OVC004 10/09 A2978 RMK AO2 SFC VIS 4 SLP087 T01000094 $
2026-04-04 13:50:00,SPECI KPWK 041350Z 00000KT 1 1/2SM BR OVC004 10/09 A2978 RMK AO2 SFC VIS 5 $
2026-04-04 12:52:00,METAR KPWK 041252Z COR 17004KT 3SM OVC004 08/08 A2981 RMK AO2 RAE49 SLP099 P0000 T00780078 $
2026-04-04 12:48:00,SPECI KPWK 041248Z 18003KT 9SM -RA OVC004 08/08 A2981 RMK AO2 P0000 $
2026-04-04 11:52:00,METAR KPWK 041152Z 11004KT 8SM -RA OVC003 07/07 A2981 RMK AO2 RAB21 SLP097 P0001 60020 70030 T00720072 10072 20044 58024 $
2026-04-04 11:10:00,SPECI KPWK 041110Z AUTO 12004KT 10SM OVC003 07/07 A2985 RMK AO2 T00720067 $
2026-04-04 10:52:00,METAR KPWK 041052Z AUTO 05006KT 10SM OVC004 07/07 A2983 RMK AO2 RAE47 CIG 003V007 SLP106 P0002 T00720067 $
2026-04-04 10:38:00,SPECI KPWK 041038Z AUTO 06005KT 10SM -RA OVC004 07/07 A2984 RMK AO2 LTG DSNT E P0002 T00720067 $
2026-04-04 10:18:00,SPECI KPWK 041018Z AUTO 06005KT 10SM VCTS -RA BKN004 OVC070 07/07 A2987 RMK AO2 LTG DSNT E P0001 T00720067 $
2026-04-04 10:10:00,SPECI KPWK 041010Z AUTO 08004KT 10SM -RA BKN004 BKN027 OVC075 07/07 A2986 RMK AO2 LTG DSNT NE P0001 T00720067 $
2026-04-04 09:52:00,METAR KPWK 040952Z AUTO 12004KT 4SM VCTS -RA BR BKN004 BKN025 OVC075 07/07 A2988 RMK AO2 PK WND 31029/0903 LTG DSNT SE-SW RAB30 SLP123 P0007 T00670067 $
2026-04-04 09:29:00,SPECI KPWK 040929Z AUTO 36012G20KT 10SM OVC004 07/06 A2990 RMK AO2 PK WND 31029/0903 T00670061 $
2026-04-04 09:01:00,SPECI KPWK 040901Z AUTO 05005KT 8SM OVC003 06/06 A2987 RMK AO2 LTG DSNT W-N T00560056 $
2026-04-04 08:52:00,METAR KPWK 040852Z AUTO 08005KT 9SM OVC004 06/06 A2987 RMK AO2 LTG DSNT W AND NW SLP118 60010 T00560056 58026 $
2026-04-04 07:52:00,METAR KPWK 040752Z AUTO 35008KT 10SM OVC004 05/04 A2994 RMK AO2 LTG DSNT N AND NW SLP141 T00500044 $
2026-04-04 07:48:00,SPECI KPWK 040748Z AUTO 33012KT 10SM OVC004 05/04 A2994 RMK AO2 LTG DSNT W-N PRESRR $
2026-04-04 06:52:00,METAR KPWK 040652Z AUTO 06007KT 10SM OVC008 05/04 A2995 RMK AO2 LTG DSNT W AND NW RAB01E25 TSB0554E09 CIG 005V010 SLP144 P0010 T00500044 $
2026-04-04 06:47:00,SPECI KPWK 040647Z AUTO 06008KT 10SM OVC009 05/04 A2995 RMK AO2 LTG DSNT W AND NW RAB01E25 TSB0554E09 CIG 005V010 P0010 $
2026-04-04 06:15:00,SPECI KPWK 040615Z AUTO 06008KT 5SM RA BR OVC011 05/04 A2997 RMK AO2 RAB01 TSB0554E09 PRESFR P0009 T00500039 $
2026-04-04 06:00:00,SPECI KPWK 040600Z AUTO 07008KT 10SM TS OVC013 05/04 A2999 RMK AO2 TSB0554 T00500039 $
2026-04-04 05:52:00,METAR KPWK 040552Z AUTO 08007KT 10SM OVC014 04/04 A3000 RMK AO2 SLP161 60010 T00440039 10050 20039 401670039 56029 $
2026-04-04 05:25:00,SPECI KPWK 040525Z AUTO 05009KT 10SM BKN016 BKN090 04/03 A3002 RMK AO2 T00440033 $
2026-04-04 05:13:00,SPECI KPWK 040513Z AUTO 04006KT 10SM FEW008 SCT021 BKN090 04/03 A3002 RMK AO2 LTG DSNT E-SW T00440033 $
2026-04-04 04:52:00,METAR KPWK 040452Z AUTO 06006KT 10SM FEW008 BKN022 OVC028 04/03 A3002 RMK AO2 LTG DSNT SE RAB25E38 SLP169 P0000 T00440033 $
2026-04-04 04:06:00,SPECI KPWK 040406Z AUTO VRB05KT 10SM FEW008 SCT018 OVC025 04/03 A3007 RMK AO2 LTG DSNT S T00390028 $
2026-04-04 03:52:00,METAR KPWK 040352Z AUTO 06010KT 10SM SCT019 OVC027 04/03 A3005 RMK AO2 LTG DSNT S RAE25 SLP181 P0006 T00390028 $
2026-04-04 03:42:00,SPECI KPWK 040342Z AUTO 08006KT 10SM BKN026 OVC100 04/03 A3006 RMK AO2 RAE25 P0006 T00390028 $
2026-04-04 03:04:00,SPECI KPWK 040304Z AUTO 06008KT 7SM +RA SCT020 BKN049 BKN060 04/02 A3008 RMK AO2 LTG DSNT N AND NE P0004 T00390022 $
2026-04-04 02:52:00,METAR KPWK 040252Z 06007KT 6SM VCTS +RA BR BKN021 BKN050 OVC075 04/02 A3009 RMK AO2 LTG DSNT NW-E RAB31 SLP191 P0004 60004 T00390022 58009 $
2026-04-04 02:40:00,SPECI KPWK 040240Z 07007G16KT 10SM VCTS -RA OVC022 04/02 A3011 RMK AO2 LTG DSNT SE-W RAB31 P0001 T00440017 $
2026-04-04 01:52:00,METAR KPWK 040152Z 07011KT 10SM OVC024 04/01 A3010 RMK AO2 SLP195 T00440006 $
2026-04-04 00:52:00,METAR KPWK 040052Z 07011G21KT 10SM OVC026 05/01 A3014 RMK AO2 SLP210 T00500011 $
2026-04-03 23:52:00,METAR KPWK 032352Z 07013G20KT 10SM OVC025 05/02 A3011 RMK AO2 SLP200 T00500022 10133 20050 58005 $
2026-04-03 22:52:00,METAR KPWK 032252Z 06009KT 10SM BKN017 OVC025 06/02 A3014 RMK AO2 SLP208 T00560022 $
2026-04-03 22:17:00,SPECI KPWK 032217Z 06009G19KT 10SM BKN026 OVC042 06/03 A3011 RMK AO2 T00610028 $
2026-04-03 21:52:00,METAR KPWK 032152Z 07014G20KT 10SM OVC040 06/02 A3012 RMK AO2 SLP204 T00610022 $
2026-04-03 20:52:00,METAR KPWK 032052Z 08007G16KT 10SM OVC034 08/04 A3013 RMK AO2 SLP204 T00830039 53012 $
2026-04-03 19:52:00,METAR KPWK 031952Z 08010KT 10SM CLR 09/05 A3010 RMK AO2 SLP195 T00940050 $
2026-04-03 18:52:00,METAR KPWK 031852Z 06010G14KT 10SM CLR 13/06 A3009 RMK AO2 SLP191 T01280061 $
2026-04-03 17:59:00,SPECI KPWK 031759Z 27003KT 10SM FEW110 11/06 A3009 RMK AO2 T01110056 $
2026-04-03 17:52:00,METAR KPWK 031752Z 00000KT 10SM BKN019 11/06 A3009 RMK AO2 SLP191 T01110056 10111 20083 51009 $
2026-04-03 16:52:00,METAR KPWK 031652Z VRB03KT 10SM BKN018 10/06 A3008 RMK AO2 SLP188 T01000056 $
2026-04-03 15:52:00,METAR KPWK 031552Z 29007KT 10SM OVC017 09/06 A3008 RMK AO2 SLP188 T00940056 $
2026-04-03 14:52:00,METAR KPWK 031452Z 31008KT 10SM OVC015 08/05 A3007 RMK AO2 SLP182 T00830050 51026
2026-04-03 13:52:00,METAR KPWK 031352Z 29008KT 10SM OVC014 08/05 A3005 RMK AO2 SLP176 T00830050
2026-04-03 12:52:00,METAR KPWK 031252Z 29009KT 10SM OVC015 08/06 A3002 RMK AO2 SLP165 T00830056
2026-04-03 11:52:00,METAR KPWK 031152Z 26010KT 10SM OVC017 08/05 A2999 RMK AO2 SLP154 70070 T00830050 10167 20083 53025
2026-04-03 08:52:00,METAR KPWK 030852Z AUTO 26010KT 10SM OVC014 11/08 A2988 RMK AO2 PK WND 27026/0825 SLP117 T01060078 51025 $
2026-04-03 08:47:00,SPECI KPWK 030847Z AUTO 26012KT 10SM OVC014 11/08 A2988 RMK AO2 PK WND 27026/0825 $
2026-04-03 05:59:00,SPECI KPWK 030559Z AUTO 25011G22KT 10SM SCT019 BKN026 OVC033 17/14 A2976 RMK AO2 T01670139 $
2026-04-03 05:52:00,METAR KPWK 030552Z AUTO 25014G19KT 10SM SCT022 BKN032 OVC039 17/14 A2975 RMK AO2 SLP075 60044 T01670139 10206 20156 402110028 53021 $
2026-04-03 04:52:00,METAR KPWK 030452Z AUTO 25009G17KT 10SM FEW070 SCT090 17/14 A2972 RMK AO2 SLP065 T01670139 $
2026-04-03 03:59:00,SPECI KPWK 030359Z 20009KT 10SM FEW060 FEW075 SCT120 16/14 A2970 RMK AO2 LTG DSNT E-S T01610144 $
2026-04-03 03:52:00,METAR KPWK 030352Z 21009KT 10SM VCTS FEW060 SCT075 BKN095 16/14 A2970 RMK AO2 LTG DSNT E-S RAE38 TSB02E34 SLP058 P0032 T01610139 $
2026-04-03 03:40:00,SPECI KPWK 030340Z 22010G20KT 10SM VCTS SCT034 SCT070 BKN095 16/14 A2970 RMK AO2 LTG DSNT NE-S RAE38 TSB02E34 P0032 T01610139 $
2026-04-03 03:27:00,SPECI KPWK 030327Z 20009G18KT 5SM TSRA BR FEW021 BKN034 OVC075 16/15 A2969 RMK AO2 LTG DSNT ALQDS TSB02 P0032 T01560150 $
2026-04-03 03:18:00,SPECI KPWK 030318Z 21012G18KT 2SM +TSRA BR SCT022 BKN034 OVC049 16/15 A2972 RMK AO2 VIS 1 1/2V4 LTG DSNT ALQDS TSB02 PRESRR P0028 T01560150 $
2026-04-03 03:02:00,SPECI KPWK 030302Z 24006KT 10SM -TSRA BKN032 BKN041 OVC110 16/14 A2970 RMK AO2 LTG DSNT ALQDS TSB02 P0000 T01560139 $
2026-04-03 02:52:00,METAR KPWK 030252Z 23006KT 10SM -RA FEW022 BKN037 OVC110 16/13 A2969 RMK AO2 LTG DSNT ALQDS TSB34E49 SLP054 P0009 60012 T01560133 53018 $
2026-04-03 02:34:00,SPECI KPWK 030234Z 26006KT 5SM -TSRA SCT026 SCT055 BKN095 16/13 A2969 RMK AO2 LTG DSNT ALQDS TSB34 P0008 T01610133 $
2026-04-03 02:02:00,SPECI KPWK 030202Z 20012G21KT 10SM -RA SCT055 SCT075 BKN090 17/13 A2966 RMK AO2 LTG DSNT ALQDS P0001 T01670128 $
2026-04-03 01:52:00,METAR KPWK 030152Z 20012G30KT 10SM VCTS -RA BKN090 OVC110 17/13 A2966 RMK AO2 PK WND 21041/0124 LTG DSNT ALQDS RAB15 SLP045 P0003 T01720133 $
2026-04-03 01:38:00,SPECI KPWK 030138Z 20022G33KT 10SM VCTS -RA FEW027 BKN090 OVC110 18/16 A2966 RMK AO2 PK WND 21041/0124 LTG DSNT ALQDS RAB15 P0002 T01830156 $
2026-04-03 01:30:00,SPECI KPWK 030130Z 20022G41KT 8SM VCTS -RA BKN027 BKN060 OVC100 19/17 A2967 RMK AO2 PK WND 21041/0124 LTG DSNT ALQDS RAB15 P0002 T01890167 $
2026-04-03 00:52:00,METAR KPWK 030052Z 20019G33KT 10SM BKN027 BKN060 BKN100 21/16 A2964 RMK AO2 PK WND 19035/0038 LTG DSNT SW-NW SLP037 T02060161 $
2026-04-02 23:52:00,METAR KPWK 022352Z 20018G33KT 10SM BKN030 BKN060 OVC075 21/16 A2963 RMK AO2 PK WND 21033/2344 SLP034 60013 T02060161 10211 20100 58005 $
2026-04-02 22:52:00,METAR KPWK 022252Z 20018G29KT 10SM FEW030 OVC065 21/16 A2964 RMK AO2 PK WND 19034/2159 SLP038 T02060161 $
2026-04-02 21:52:00,METAR KPWK 022152Z 21025G38KT 10SM SCT029 SCT047 OVC080 21/16 A2965 RMK AO2 PK WND 20042/2122 LTG DSNT N AND NE SLP040 T02060161 $
2026-04-02 21:37:00,SPECI KPWK 022137Z 20027G40KT 10SM SCT031 BKN047 BKN060 21/16 A2965 RMK AO2 PK WND 20042/2122 T02110161 $
2026-04-02 21:22:00,SPECI KPWK 022122Z 19028G42KT 10SM VCTS SCT031 BKN041 OVC080 21/16 A2964 RMK AO2 PK WND 20042/2122 LTG DSNT SW AND NW T02110161 $
2026-04-02 20:52:00,METAR KPWK 022052Z 20021G35KT 10SM SCT030 OVC041 21/16 A2965 RMK AO2 PK WND 20035/2050 LTG DSNT SW AND W RAE00 SLP040 P0001 60013 T02060161 56032 $
2026-04-02 19:52:00,METAR KPWK 021952Z 19015KT 10SM -RA SCT027 BKN035 OVC045 19/17 A2967 RMK AO2 SLP049 P0011 T01890172 $
2026-04-02 19:32:00,SPECI KPWK 021932Z 19008KT 1SM RA BR BKN030 BKN047 OVC090 16/16 A2968 RMK AO2 SFC VIS 2 P0011 T01610156 $
2026-04-02 19:19:00,SPECI KPWK 021919Z 16005KT 1SM RA BR BKN026 BKN032 OVC042 16/14 A2969 RMK AO2 SFC VIS 4 P0002 T01560144 $
2026-04-02 18:52:00,METAR KPWK 021852Z 13003KT 1SM -RA BR BKN033 OVC041 13/13 A2971 RMK AO2 SFC VIS 5 RAB1754E25B36 SLP061 P0001 T01330128 $
2026-04-02 18:29:00,SPECI KPWK 021829Z 00000KT 1SM BR SCT006 OVC034 12/12 A2972 RMK AO2 SFC VIS 5 RAB1754E25 P0001 T01220117 $
2026-04-02 17:52:00,METAR KPWK 021752Z 00000KT 1SM BR OVC004 10/10 A2974 RMK AO2 SFC VIS 5 RAB36E51 SLP075 P0000 60013 T01000100 10100 20033 58035 $
2026-04-02 16:52:00,METAR KPWK 021652Z 11005KT 1SM OVC004 07/07 A2978 RMK AO2 SFC VIS 7 LTG DSNT W RAB06E42 TSB31E46 SLP089 P0001 T00720072 $
2026-04-02 16:50:00,SPECI KPWK 021650Z 11004KT 1SM OVC004 07/07 A2979 RMK AO2 SFC VIS 7 LTG DSNT W RAB06E42 TSB31E46 P0001 $
2026-04-02 16:35:00,SPECI KPWK 021635Z 11004KT 1SM -TSRA BR OVC004 07/07 A2980 RMK AO2 SFC VIS 4 RAB06 TSB31 P0001 T00720067 $
2026-04-02 15:52:00,METAR KPWK 021552Z 11005KT 1SM BR OVC003 06/06 A2982 RMK AO2 SFC VIS 6 RAE52 SLP104 P0002 T00560056 $
2026-04-02 14:52:00,METAR KPWK 021452Z 11007KT 1SM -RA BR OVC003 05/04 A2985 RMK AO2 SFC VIS 5 RAE09B36 SLP112 P0000 60010 T00500044 58025 $
2026-04-02 13:55:00,SPECI KPWK 021355Z 09004KT 1SM RA BR OVC003 04/04 A2987 RMK AO2 SFC VIS 3 LTG DSNT S P0000 T00390039 $
2026-04-02 13:52:00,METAR KPWK 021352Z 09007KT 2SM RA BR OVC004 04/03 A2987 RMK AO2 LTG DSNT S RAB1257 PRESFR SLP121 P0004 T00390033 $
2026-04-02 12:52:00,METAR KPWK 021252Z 10004KT 2SM BR OVC004 03/03 A2991 RMK AO2 RAB03E22 SLP134 P0006 T00330033 $
2026-04-02 11:52:00,METAR KPWK 021152Z 09006G15KT 10SM OVC005 03/03 A2992 RMK AO2 RAE1055B24E45 SLP139 P0000 60089 70098 T00330028 10033 20028 58023
2026-04-02 10:52:00,METAR KPWK 021052Z 08006KT 10SM -RA OVC006 03/03 A2996 RMK AO2 LTG DSNT NE SLP151 P0010 T00330028 $
2026-04-02 09:52:00,METAR KPWK 020952Z AUTO 10011G18KT 6SM -RA BR OVC006 03/02 A2997 RMK AO2 SLP154 P0014 T00330022 $
2026-04-02 08:52:00,METAR KPWK 020852Z AUTO 10007G19KT 4SM +RA BR BKN007 OVC025 03/03 A2999 RMK AO2 SLP162 P0036 60065 T00330028 58030 $
2026-04-02 07:52:00,METAR KPWK 020752Z AUTO 11010G16KT 6SM RA BR OVC007 03/02 A3004 RMK AO2 SLP179 P0019 T00330022 $
2026-04-02 06:52:00,METAR KPWK 020652Z AUTO 09008KT 050V110 7SM RA OVC009 03/02 A3007 RMK AO2 CIG 007V013 SLP190 P0010 T00280022 $
2026-04-02 06:47:00,SPECI KPWK 020647Z AUTO 10008KT 8SM RA BKN009 OVC014 03/02 A3008 RMK AO2 CIG 007V013 P0009 $
2026-04-02 06:25:00,SPECI KPWK 020625Z AUTO 10011G18KT 10SM -RA BKN011 BKN026 OVC095 03/02 A3008 RMK AO2 P0005 T00280017 $
2026-04-02 06:07:00,SPECI KPWK 020607Z AUTO 09011G20KT 8SM RA SCT016 OVC090 03/02 A3007 RMK AO2 PRESFR P0003 T00280017 $
2026-04-02 05:52:00,METAR KPWK 020552Z AUTO 09009G17KT 9SM RA BKN019 BKN090 03/02 A3008 RMK AO2 RAB01 PRESFR SLP193 P0009 60009 T00280017 10039 20022 400390017 58022 $
2026-04-02 04:52:00,METAR KPWK 020452Z 09007G16KT 10SM OVC023 03/00 A3013 RMK AO2 SLP209 T00330000 $
2026-04-02 03:52:00,METAR KPWK 020352Z 08010G21KT 10SM OVC023 04/00 A3012 RMK AO2 SLP206 T00390000 $
2026-04-02 02:52:00,METAR KPWK 020252Z 07011G17KT 10SM BKN024 OVC060 04/01 A3015 RMK AO2 SLP216 T00390006 58011 $
2026-04-02 01:52:00,METAR KPWK 020152Z 05010G18KT 10SM OVC026 03/01 A3018 RMK AO2 SLP224 T00280006 $
2026-04-02 00:52:00,METAR KPWK 020052Z 06011G17KT 10SM OVC028 02/00 A3020 RMK AO2 SLP231 T00220000
2026-04-01 23:52:00,METAR KPWK 012352Z 05011KT 10SM OVC026 02/M01 A3018 RMK AO2 SLP227 T00221006 10033 20022 58004
2026-04-01 22:52:00,METAR KPWK 012252Z 04014G21KT 10SM OVC028 03/M01 A3019 RMK AO2 SLP228 T00281006
2026-04-01 21:52:00,METAR KPWK 012152Z 05014G21KT 10SM FEW015 OVC027 03/M01 A3020 RMK AO2 SLP233 T00331006
2026-04-01 20:52:00,METAR KPWK 012052Z 05010G22KT 10SM BKN016 OVC025 03/M01 A3020 RMK AO2 SLP231 T00331006 58014
2026-04-01 20:00:00,SPECI KPWK 012000Z AUTO 04013G21KT 10SM OVC016 03/M01 A3021 RMK AO2 T00331006
2026-04-01 19:52:00,METAR KPWK 011952Z AUTO 05016G22KT 10SM OVC014 03/M01 A3022 RMK AO2 SLP238 T00281006
2026-04-01 19:02:00,SPECI KPWK 011902Z 05014G24KT 10SM OVC014 02/M01 A3024 RMK AO2 T00221011
2026-04-01 18:52:00,METAR KPWK 011852Z 05017G26KT 10SM OVC014 02/M01 A3024 RMK AO2 PK WND 06027/1754 SLP247 T00221011
2026-04-01 18:34:00,SPECI KPWK 011834Z 06014G21KT 10SM OVC014 03/M01 A3024 RMK AO2 PK WND 06027/1754 T00281011
2026-04-01 17:52:00,METAR KPWK 011752Z 05014G24KT 10SM OVC015 02/M01 A3024 RMK AO2 PK WND 03027/1726 SLP245 T00221011 10022 20017 58002
2026-04-01 16:52:00,METAR KPWK 011652Z 06014G21KT 10SM OVC015 02/M02 A3024 RMK AO2 PK WND 04029/1607 SLP247 T00221017
2026-04-01 15:52:00,METAR KPWK 011552Z 03017G30KT 10SM OVC014 02/M02 A3024 RMK AO2 PK WND 02030/1545 SLP247 T00171017
2026-04-01 14:52:00,METAR KPWK 011452Z 04015G26KT 10SM OVC013 02/M01 A3024 RMK AO2 PK WND 05027/1437 SLP247 T00171011 51014
2026-04-01 13:52:00,METAR KPWK 011352Z 04015G24KT 10SM OVC012 02/M01 A3024 RMK AO2 PK WND 04029/1339 SLP246 T00221006
2026-04-01 12:52:00,METAR KPWK 011252Z 03017G24KT 10SM OVC012 02/M01 A3023 RMK AO2 PK WND 02026/1206 SLP240 T00171011
2026-04-01 11:52:00,METAR KPWK 011152Z 04014G23KT 10SM OVC012 02/M01 A3020 RMK AO2 PK WND 02028/1120 SLP232 70008 T00171006 10033 20017 53017
2026-04-01 10:52:00,METAR KPWK 011052Z 03015G27KT 10SM OVC013 02/M01 A3017 RMK AO2 PK WND 04027/1047 SLP221 T00171006 $
2026-04-01 10:25:00,SPECI KPWK 011025Z AUTO 04014G23KT 10SM BKN014 02/M01 A3016 RMK AO2 T00221006 $
2026-04-01 09:52:00,METAR KPWK 010952Z AUTO 03013G27KT 10SM SCT120 02/M01 A3016 RMK AO2 PK WND 03027/0950 SLP216 T00221011 $
2026-04-01 08:52:00,METAR KPWK 010852Z AUTO 04010G19KT 10SM FEW110 03/M01 A3015 RMK AO2 SLP215 T00281006 51009 $
2026-04-01 08:23:00,SPECI KPWK 010823Z AUTO 04012G20KT 10SM FEW015 03/00 A3015 RMK AO2 T00280000 $
2026-04-01 07:52:00,METAR KPWK 010752Z AUTO 05012G20KT 10SM SCT016 BKN028 BKN070 03/01 A3015 RMK AO2 SLP211 T00330006 $
2026-04-01 07:26:00,SPECI KPWK 010726Z AUTO 05014G23KT 10SM SCT014 BKN027 BKN060 03/01 A3015 RMK AO2 T00330006 $
2026-04-01 06:52:00,METAR KPWK 010652Z AUTO 05014G23KT 10SM BKN013 03/01 A3014 RMK AO2 PK WND 03027/0612 SLP207 T00330006 $
2026-04-01 05:59:00,SPECI KPWK 010559Z AUTO 03012G22KT 10SM BKN013 03/02 A3013 RMK AO2 T00330017 $
2026-04-01 05:52:00,METAR KPWK 010552Z AUTO 05014G22KT 10SM SCT013 03/02 A3013 RMK AO2 SLP203 T00330017 10061 20033 402110033 53029 $
2026-04-01 05:13:00,SPECI KPWK 010513Z AUTO 05014KT 10SM SCT016 BKN070 BKN095 04/02 A3010 RMK AO2 T00390017 $
2026-04-01 04:52:00,METAR KPWK 010452Z AUTO 04012G24KT 10SM BKN018 04/02 A3008 RMK AO2 SLP189 T00390017 $
2026-04-01 04:23:00,SPECI KPWK 010423Z AUTO 04011G19KT 10SM OVC016 04/02 A3008 RMK AO2 T00440022 $
2026-04-01 03:52:00,METAR KPWK 010352Z AUTO 04013KT 10SM OVC010 04/03 A3007 RMK AO2 SLP182 T00440028 $
2026-04-01 03:44:00,SPECI KPWK 010344Z AUTO 03012KT 10SM OVC010 04/03 A3006 RMK AO2 CIG 009V013 T00440028 $
2026-04-01 02:52:00,METAR KPWK 010252Z 05008KT 10SM OVC009 05/03 A3004 RMK AO2 SLP172 T00500033 53024 $
2026-04-01 02:18:00,SPECI KPWK 010218Z 03012G22KT 10SM OVC009 05/03 A3003 RMK AO2 T00500033 $
2026-04-01 01:52:00,METAR KPWK 010152Z 04011KT 10SM BKN010 OVC014 05/03 A3002 RMK AO2 SLP166 T00500033 $
2026-04-01 01:19:00,SPECI KPWK 010119Z 04011KT 10SM BKN010 OVC014 06/04 A2999 RMK AO2 T00560039 $
2026-04-01 00:52:00,METAR KPWK 010052Z 05011KT 10SM FEW010 BKN015 OVC050 06/04 A2997 RMK AO2 SLP150 T00610039 $
2026-04-01 00:50:00,SPECI KPWK 010050Z 04010KT 10SM SCT010 BKN015 OVC050 06/04 A2997 RMK AO2 $
2026-03-31 23:52:00,METAR KPWK 312352Z 04010KT 10SM BKN006 OVC022 06/04 A2994 RMK AO2 CIG 006V010 SLP139 60000 T00560044 10194 20056 51026 $
2026-03-31 22:52:00,METAR KPWK 312252Z 05007KT 10SM BKN008 OVC018 07/06 A2990 RMK AO2 RAE01 SLP125 P0000 T00670056 $
2026-03-31 22:47:00,SPECI KPWK 312247Z 05008KT 10SM BKN008 BKN019 OVC023 07/06 A2991 RMK AO2 RAE01 P0000 $
2026-03-31 21:52:00,METAR KPWK 312152Z 01007KT 10SM -RA SCT010 OVC019 08/06 A2986 RMK AO2 LTG DSNT NE RAE00B51 PRESRR SLP111 P0000 T00830056 $
2026-03-31 20:52:00,METAR KPWK 312052Z COR VRB04KT 10SM -RA OVC024 08/06 A2982 RMK AO2 LTG DSNT NW-NE RAB50 SLP098 P0000 60000 T00830056 53018 $
2026-03-31 20:24:00,SPECI KPWK 312024Z VRB06KT 10SM BKN024 OVC031 09/06 A2981 RMK AO2 T00890056 $
2026-03-31 19:52:00,METAR KPWK 311952Z COR 25008G16KT 10SM OVC033 19/15 A2980 RMK AO2 LTG DSNT S SLP087 T01940150 $
2026-03-31 18:52:00,METAR KPWK 311852Z COR 25009G20KT 10SM SCT039 19/15 A2977 RMK AO2 SLP077 T01940150 $
2026-03-31 17:52:00,METAR KPWK 311752Z 24011KT 10SM FEW044 18/15 A2977 RMK AO2 RAE02 SLP078 P0000 60008 T01830150 10211 20172 50003 $
2026-03-31 16:52:00,METAR KPWK 311652Z 22007G16KT 10SM -RA SCT045 BKN050 BKN100 17/14 A2978 RMK AO2 LTG DSNT N AND NE AND S RAB01 TSB11E26 SLP083 P0008 T01720144 $
2026-03-31 16:45:00,SPECI KPWK 311645Z 23009KT 10SM -RA SCT050 BKN100 17/14 A2977 RMK AO2 LTG DSNT ALQDS RAB01 TSB11E26 P0008 T01720144 $
2026-03-31 16:32:00,SPECI KPWK 311632Z 21010KT 10SM VCTS -RA SCT050 BKN100 17/15 A2977 RMK AO2 LTG DSNT ALQDS RAB01 TSB11E26 P0008 T01720150 $
2026-03-31 16:15:00,SPECI KPWK 311615Z 22010G24KT 5SM -TSRA BR SCT046 BKN060 OVC100 17/15 A2979 RMK AO2 LTG DSNT W-N RAB01 TSB11 P0007 T01720150 $
2026-03-31 16:00:00,SPECI KPWK 311600Z 23013G24KT 10SM VCTS FEW045 OVC100 19/13 A2977 RMK AO2 LTG DSNT ALQDS T01940133 $
2026-03-31 15:52:00,METAR KPWK 311552Z 23013G24KT 10SM SCT045 OVC090 19/13 A2977 RMK AO2 PK WND 20029/1454 LTG DSNT ALQDS SLP078 T01940133 $
2026-03-31 14:52:00,METAR KPWK 311452Z 23019G30KT 10SM FEW110 21/13 A2976 RMK AO2 PK WND 24030/1451 SLP074 60000 T02060133 51009 $
2026-03-31 13:52:00,METAR KPWK 311352Z 22013G21KT 10SM CLR 19/13 A2976 RMK AO2 LTG DSNT S SLP072 T01940128
2026-03-31 12:52:00,METAR KPWK 311252Z 24007KT 10SM CLR 19/13 A2977 RMK AO2 PK WND 19026/1156 RAE00 SLP076 P0000 T01940128
2026-03-31 11:52:00,METAR KPWK 311152Z 20014G20KT 10SM -RA FEW075 SCT100 19/13 A2973 RMK AO2 RAB32 PRESFR SLP064 P0000 60000 70012 T01890128 10206 20183 55020
2026-03-31 10:52:00,METAR KPWK 311052Z 17009KT 10SM FEW110 18/14 A2973 RMK AO2 PRESFR SLP062 T01830139
2026-03-31 09:52:00,METAR KPWK 310952Z AUTO 20005KT 10SM SCT090 BKN110 20/14 A2978 RMK AO2 PRESFR SLP078 T02000139
2026-03-31 08:52:00,METAR KPWK 310852Z AUTO 23011G21KT 10SM BKN085 20/14 A2979 RMK AO2 SLP084 T02000139 53015
2026-03-31 07:52:00,METAR KPWK 310752Z AUTO 22014G21KT 10SM CLR 20/14 A2977 RMK AO2 PK WND 21026/0704 LTG DSNT NW SLP076 T02000139
2026-03-31 06:52:00,METAR KPWK 310652Z AUTO 21016G25KT 10SM FEW080 20/14 A2975 RMK AO2 SLP072 T02000144
2026-03-31 05:52:00,METAR KPWK 310552Z AUTO 20015G24KT 10SM FEW070 SCT095 BKN120 19/15 A2975 RMK AO2 SLP070 P0001 60012 T01940150 10261 20172 402670067 58005
2026-03-31 05:02:00,SPECI KPWK 310502Z AUTO 19011KT 10SM FEW065 SCT080 SCT120 18/14 A2976 RMK AO2 LTG DSNT E AND SE T01780144
2026-03-31 04:52:00,METAR KPWK 310452Z AUTO 18012KT 10SM VCTS FEW019 FEW110 18/14 A2975 RMK AO2 PK WND 21031/0400 WSHFT 0430 LTG DSNT NE-SE RAB0358E48 TSB23E47 SLP073 P0010 T01780144
2026-03-31 04:47:00,SPECI KPWK 310447Z AUTO 19013KT 10SM VCTS -RA FEW019 FEW065 SCT110 17/14 A2976 RMK AO2 PK WND 21031/0400 WSHFT 0430 LTG DSNT NE-SE RAB0358 TSB23E47 P0010
2026-03-31 04:29:00,SPECI KPWK 310429Z AUTO 21009G20KT 5SM -TSRA FEW024 SCT055 BKN095 19/13 A2979 RMK AO2 PK WND 21031/0400 LTG DSNT NE-S RAB0358 TSB23 P0009 T01890133
2026-03-31 04:13:00,SPECI KPWK 310413Z AUTO 21021G28KT 10SM VCTS -RA FEW075 SCT095 BKN110 21/14 A2977 RMK AO2 PK WND 21031/0400 LTG DSNT ALQDS RAB0358 P0000 T02060139
2026-03-31 03:52:00,METAR KPWK 310352Z AUTO 21021G33KT 10SM SCT110 22/15 A2976 RMK AO2 PK WND 20033/0349 LTG DSNT ALQDS RAB10E28 TSB11E35 SLP075 P0001 T02220150
2026-03-31 03:49:00,SPECI KPWK 310349Z AUTO 22019G33KT 10SM SCT110 22/15 A2976 RMK AO2 PK WND 20033/0349 LTG DSNT ALQDS RAB10E28 TSB11E35 P0001
2026-03-31 03:41:00,SPECI KPWK 310341Z AUTO 23013G26KT 10SM VCTS BKN100 BKN120 22/14 A2975 RMK AO2 PK WND 19033/0303 LTG DSNT ALQDS RAB10E28 TSB11E35 P0001 T02220144
2026-03-31 03:17:00,SPECI KPWK 310317Z AUTO 22011G24KT 10SM -TSRA FEW060 FEW070 BKN100 22/15 A2976 RMK AO2 PK WND 19033/0303 LTG DSNT S AND SW RAB10 TSB11 P0001 T02220150
2026-03-31 03:03:00,SPECI KPWK 310303Z AUTO 21021G33KT 10SM VCTS FEW055 FEW070 24/14 A2975 RMK AO2 PK WND 19033/0303 LTG DSNT S-NW T02390144
2026-03-31 02:52:00,METAR KPWK 310252Z 21017G29KT 10SM CLR 24/14 A2975 RMK AO2 PK WND 21029/0246 LTG DSNT S-W SLP070 T02390139 50009
2026-03-31 01:52:00,METAR KPWK 310152Z 24012G20KT 10SM FEW080 25/13 A2977 RMK AO2 PRESRR SLP077 T02500128
2026-03-31 00:52:00,METAR KPWK 310052Z 19015G24KT 10SM FEW070 25/12 A2970 RMK AO2 PK WND 21026/0001 SLP056 T02500122
2026-03-30 23:52:00,METAR KPWK 302352Z 21015G23KT 10SM FEW070 FEW110 26/12 A2972 RMK AO2 SLP062 T02610117 10267 20228 56020
2026-03-30 22:52:00,METAR KPWK 302252Z 22012G21KT 10SM FEW060 SCT080 BKN100 27/12 A2973 RMK AO2 SLP067 T02670117
2026-03-30 21:52:00,METAR KPWK 302152Z 23015G23KT 10SM FEW065 SCT090 BKN110 27/12 A2975 RMK AO2 PK WND 20027/2122 SLP074 T02670117
2026-03-30 20:52:00,METAR KPWK 302052Z 21017G26KT 10SM CLR 26/11 A2978 RMK AO2 PK WND 22026/2028 SLP083 T02610111 56030
2026-03-30 19:52:00,METAR KPWK 301952Z 23011G22KT 10SM FEW070 SCT090 BKN100 26/11 A2980 RMK AO2 SLP090 T02560111
2026-03-30 18:52:00,METAR KPWK 301852Z 22015G20KT 10SM CLR 24/11 A2983 RMK AO2 SLP101 T02440111
2026-03-30 17:52:00,METAR KPWK 301752Z VRB05G14KT 10SM CLR 23/11 A2987 RMK AO2 SLP113 T02280106 10228 20083 58015
2026-03-30 16:52:00,METAR KPWK 301652Z 22010G17KT 10SM FEW080 FEW090 SCT110 22/09 A2990 RMK AO2 SLP125 T02170094
2026-03-30 15:52:00,METAR KPWK 301552Z 24010G19KT 10SM FEW095 19/09 A2991 RMK AO2 SLP127 T01940089
2026-03-30 14:52:00,METAR KPWK 301452Z 21011KT 10SM SCT085 SCT110 17/07 A2992 RMK AO2 SLP130 T01670072 58011
2026-03-30 13:52:00,METAR KPWK 301352Z 19005KT 10SM OVC075 13/06 A2994 RMK AO2 SLP138 T01330061
2026-03-30 12:52:00,METAR KPWK 301252Z 19004KT 10SM BKN075 OVC090 12/06 A2994 RMK AO2 SLP140 T01170056
2026-03-30 11:52:00,METAR KPWK 301152Z 17004KT 10SM BKN070 OVC090 08/04 A2995 RMK AO2 SLP142 T00830039 10106 20067 56004
2026-03-30 10:52:00,METAR KPWK 301052Z 18004KT 10SM FEW070 SCT090 BKN110 07/02 A2995 RMK AO2 SLP143 T00720022 $
2026-03-30 09:52:00,METAR KPWK 300952Z AUTO 00000KT 10SM FEW065 07/01 A2995 RMK AO2 SLP143 T00720011 $
2026-03-30 08:52:00,METAR KPWK 300852Z AUTO 17003KT 10SM CLR 08/02 A2996 RMK AO2 SLP146 T00780017 58013 $
2026-03-30 07:52:00,METAR KPWK 300752Z AUTO 00000KT 10SM FEW070 08/01 A2998 RMK AO2 SLP151 T00780011 $
2026-03-30 06:52:00,METAR KPWK 300652Z AUTO 00000KT 10SM FEW065 SCT080 08/01 A2999 RMK AO2 SLP156 T00830006 $
2026-03-30 05:52:00,METAR KPWK 300552Z AUTO 20004KT 10SM FEW070 FEW095 SCT110 11/01 A3000 RMK AO2 SLP159 T01060006 10167 20100 401720022 56016 $
2026-03-30 04:52:00,METAR KPWK 300452Z AUTO 20006KT 10SM CLR 10/00 A3001 RMK AO2 SLP163 T01000000 $
2026-03-30 03:52:00,METAR KPWK 300352Z AUTO 20004KT 10SM FEW075 FEW110 11/M01 A3003 RMK AO2 SLP172 T01061006 $
2026-03-30 02:52:00,METAR KPWK 300252Z 21004KT 10SM BKN050 13/M01 A3005 RMK AO2 SLP176 T01331006 53004 $
2026-03-30 01:52:00,METAR KPWK 300152Z 21010KT 10SM BKN055 BKN070 OVC080 16/M01 A3004 RMK AO2 SLP175 T01561011 $
2026-03-30 00:52:00,METAR KPWK 300052Z 21012G19KT 10SM BKN060 16/M02 A3003 RMK AO2 SLP171 T01561017 $
2026-03-29 23:52:00,METAR KPWK 292352Z 22011G18KT 10SM OVC049 17/M03 A3004 RMK AO2 SLP173 T01671028 10172 20150 55010 $
2026-03-29 22:52:00,METAR KPWK 292252Z 21013G20KT 10SM BKN050 17/M03 A3003 RMK AO2 SLP171 T01671028 $
2026-03-29 21:52:00,METAR KPWK 292152Z 21016KT 10SM BKN070 17/M03 A3005 RMK AO2 SLP176 T01671028 $
2026-03-29 20:52:00,METAR KPWK 292052Z 22012G22KT 10SM OVC075 17/M04 A3007 RMK AO2 SLP184 T01671039 57028 $
2026-03-29 19:52:00,METAR KPWK 291952Z 20016G21KT 10SM OVC080 17/M04 A3010 RMK AO2 SLP194 T01721044 $
2026-03-29 18:52:00,METAR KPWK 291852Z 21012G18KT 10SM OVC080 17/M04 A3012 RMK AO2 SLP201 T01671044 $
2026-03-29 17:52:00,METAR KPWK 291752Z 22011G22KT 10SM BKN090 15/M04 A3015 RMK AO2 SLP212 T01501039 10150 20061 58019 $
2026-03-29 16:52:00,METAR KPWK 291652Z 21013KT 10SM BKN095 14/M04 A3018 RMK AO2 SLP220 T01391039 $
2026-03-29 15:52:00,METAR KPWK 291552Z 23012G20KT 10SM OVC095 12/M04 A3019 RMK AO2 SLP227 T01221044 $
2026-03-29 14:52:00,METAR KPWK 291452Z 21010G20KT 10SM OVC100 11/M03 A3021 RMK AO2 SLP233 T01061033 58009 $
2026-03-29 13:52:00,METAR KPWK 291352Z 20011KT 10SM BKN110 08/M02 A3023 RMK AO2 SLP240 T00781022 $
2026-03-29 12:52:00,METAR KPWK 291252Z 20009KT 10SM OVC110 06/M02 A3024 RMK AO2 SLP243 T00611022 $
2026-03-29 11:52:00,METAR KPWK 291152Z 20009KT 10SM OVC120 06/M03 A3024 RMK AO2 SLP243 T00611028 10067 20022 56011 $
2026-03-29 10:52:00,METAR KPWK 291052Z AUTO 20008KT 10SM OVC120 06/M02 A3025 RMK AO2 SLP246 T00561022 $
2026-03-29 09:52:00,METAR KPWK 290952Z AUTO 19006KT 10SM FEW070 BKN110 04/M02 A3025 RMK AO2 SLP249 T00391017 $
2026-03-29 08:52:00,METAR KPWK 290852Z AUTO 19005KT 10SM CLR 02/M02 A3027 RMK AO2 SLP255 T00221022 58014 $
2026-03-29 07:52:00,METAR KPWK 290752Z AUTO 19005KT 10SM FEW065 FEW075 04/M02 A3029 RMK AO2 SLP261 T00441017 $
2026-03-29 06:52:00,METAR KPWK 290652Z AUTO 20006KT 10SM FEW070 05/M02 A3030 RMK AO2 SLP266 T00501017 $
2026-03-29 05:52:00,METAR KPWK 290552Z AUTO 21006KT 10SM FEW110 07/M02 A3031 RMK AO2 SLP269 T00671017 10083 20067 400891039 55000 $
2026-03-29 04:52:00,METAR KPWK 290452Z AUTO 21010G18KT 10SM FEW100 FEW110 07/M02 A3030 RMK AO2 SLP266 T00671022 $
2026-03-29 03:52:00,METAR KPWK 290352Z AUTO 21010KT 10SM FEW070 BKN110 07/M03 A3030 RMK AO2 SLP267 T00671028 $
2026-03-29 02:52:00,METAR KPWK 290252Z 20010KT 10SM BKN100 07/M03 A3031 RMK AO2 SLP269 T00721028 58015 $
2026-03-29 01:52:00,METAR KPWK 290152Z 20013KT 10SM BKN100 08/M04 A3033 RMK AO2 SLP277 T00781039 $
2026-03-29 00:52:00,METAR KPWK 290052Z 21010KT 10SM OVC100 08/M04 A3034 RMK AO2 SLP281 T00831044 $
2026-03-28 23:52:00,METAR KPWK 282352Z 21012KT 10SM OVC110 08/M05 A3036 RMK AO2 SLP285 T00831050 10089 20044 56028 $
2026-03-28 22:52:00,METAR KPWK 282252Z 22013G22KT 10SM OVC120 08/M06 A3037 RMK AO2 SLP292 T00831056
2026-03-28 21:52:00,METAR KPWK 282152Z 21012G20KT 10SM SCT120 08/M07 A3041 RMK AO2 SLP304 T00831067
2026-03-28 20:52:00,METAR KPWK 282052Z 23010G21KT 10SM FEW085 08/M07 A3044 RMK AO2 SLP314 T00831072 58048
2026-03-28 19:52:00,METAR KPWK 281952Z 21016G22KT 10SM CLR 07/M08 A3050 RMK AO2 SLP334 T00721083
2026-03-28 18:52:00,METAR KPWK 281852Z 25011G16KT 10SM CLR 06/M09 A3053 RMK AO2 SLP346 T00611094
2026-03-28 17:52:00,METAR KPWK 281752Z 25008G18KT 10SM CLR 04/M11 A3058 RMK AO2 SLP363 T00441106 10050 21033 58025
2026-03-28 16:52:00,METAR KPWK 281652Z 23006KT 10SM FEW110 03/M10 A3061 RMK AO2 SLP374 T00281100
2026-03-28 15:52:00,METAR KPWK 281552Z COR VRB06KT 10SM CLR 02/M10 A3064 RMK AO2 SLP382 T00171100
2026-03-28 14:52:00,METAR KPWK 281452Z VRB03KT 10SM CLR 00/M11 A3066 RMK AO2 SLP390 T00001111 51011
2026-03-28 13:52:00,METAR KPWK 281352Z 35003KT 10SM FEW110 M01/M11 A3066 RMK AO2 SLP390 T10111111
2026-03-28 12:52:00,METAR KPWK 281252Z 27004KT 10SM CLR M02/M09 A3066 RMK AO2 SLP391 T10221094
2026-03-28 11:52:00,METAR KPWK 281152Z 00000KT 10SM SCT080 SCT100 M03/M11 A3063 RMK AO2 SLP379 T10331106 11006 21039 55000
2026-03-28 10:52:00,METAR KPWK 281052Z AUTO 02003KT 10SM CLR M03/M11 A3061 RMK AO2 SLP374 T10331106
2026-03-28 09:52:00,METAR KPWK 280952Z AUTO 34003KT 10SM FEW100 M03/M10 A3062 RMK AO2 SLP378 T10281100
2026-03-28 08:52:00,METAR KPWK 280852Z AUTO 35004KT 10SM FEW070 SCT085 M02/M10 A3063 RMK AO2 SLP378 T10221100 53009
2026-03-28 07:52:00,METAR KPWK 280752Z AUTO 35004KT 10SM CLR M02/M09 A3061 RMK AO2 SLP373 T10171094
2026-03-28 06:52:00,METAR KPWK 280652Z AUTO 01007KT 10SM FEW075 SCT110 M01/M08 A3060 RMK AO2 SLP369 T10111083
2026-03-28 05:52:00,METAR KPWK 280552Z AUTO 01006KT 10SM FEW075 SCT100 M01/M05 A3060 RMK AO2 SLP369 T10061050 10028 21017 400721017 53026
2026-03-28 04:52:00,METAR KPWK 280452Z AUTO 00000KT 10SM FEW080 FEW110 M01/M03 A3057 RMK AO2 SLP358 T10061033
2026-03-28 03:52:00,METAR KPWK 280352Z AUTO 03003KT 10SM BKN065 00/M03 A3055 RMK AO2 SLP351 T00001033
2026-03-28 02:52:00,METAR KPWK 280252Z AUTO 00000KT 10SM FEW055 OVC075 01/M04 A3052 RMK AO2 SLP342 T00111039 53030
2026-03-28 01:52:00,METAR KPWK 280152Z 00000KT 10SM OVC080 01/M04 A3049 RMK AO2 SLP331 T00111039
2026-03-28 00:52:00,METAR KPWK 280052Z 11004KT 10SM OVC080 02/M04 A3045 RMK AO2 SLP318 T00171039
2026-03-27 23:52:00,METAR KPWK 272352Z 07005KT 10SM OVC080 03/M04 A3043 RMK AO2 SLP311 T00281044 10072 20028 53012
2026-03-27 22:52:00,METAR KPWK 272252Z 04008KT 10SM BKN070 06/M05 A3040 RMK AO2 SLP302 T00561050
2026-03-27 21:52:00,METAR KPWK 272152Z 05007KT 10SM BKN070 05/M05 A3040 RMK AO2 SLP299 T00501050
2026-03-27 20:52:00,METAR KPWK 272052Z 31008KT 10SM OVC060 06/M07 A3039 RMK AO2 SLP298 T00561072 58005
2026-03-27 19:52:00,METAR KPWK 271952Z 33015G25KT 10SM BKN055 06/M07 A3040 RMK AO2 SLP300 T00561067
2026-03-27 18:52:00,METAR KPWK 271852Z 33013G24KT 10SM CLR 06/M07 A3041 RMK AO2 SLP303 T00561067
2026-03-27 17:54:00,SPECI KPWK 271754Z 01008KT 10SM FEW090 BKN110 04/M06 A3041 RMK AO2 T00441056
2026-03-27 17:52:00,METAR KPWK 271752Z VRB04KT 10SM BKN028 04/M06 A3041 RMK AO2 SLP303 T00391056 10044 21006 58004
2026-03-27 16:52:00,METAR KPWK 271652Z COR 34008KT 10SM SCT028 03/M05 A3042 RMK AO2 SLP306 T00331050
2026-03-27 15:52:00,METAR KPWK 271552Z 35011KT 10SM BKN028 02/M05 A3043 RMK AO2 SLP313 T00221050
2026-03-25 14:52:00,METAR KPWK 251452Z 21011KT 10SM CLR 11/M02 A3003 RMK AO2 SLP171 T01111017 56023
2026-03-25 13:52:00,METAR KPWK 251352Z 19011KT 10SM CLR 08/M02 A3005 RMK AO2 SLP179 T00831017
2026-03-25 12:52:00,METAR KPWK 251252Z 18008KT 10SM CLR 07/M01 A3007 RMK AO2 SLP186 T00671011
2026-03-25 11:52:00,METAR KPWK 251152Z 17005KT 10SM FEW085 04/M02 A3010 RMK AO2 SLP195 T00391022 10044 20028 58016
2026-03-25 10:52:00,METAR KPWK 251052Z 16005KT 10SM CLR 04/M02 A3011 RMK AO2 SLP199 T00441022
2026-03-25 09:52:00,METAR KPWK 250952Z AUTO 00000KT 10SM FEW065 FEW090 SCT110 04/M02 A3013 RMK AO2 SLP208 T00391022
2026-03-25 08:52:00,METAR KPWK 250852Z AUTO 00000KT 10SM CLR 04/M02 A3014 RMK AO2 SLP212 T00441022 56021
2026-03-25 07:52:00,METAR KPWK 250752Z AUTO 15003KT 10SM FEW110 03/M02 A3016 RMK AO2 SLP216 T00331017
2026-03-25 06:52:00,METAR KPWK 250652Z AUTO 00000KT 10SM BKN120 03/M02 A3018 RMK AO2 SLP224 T00331022
2026-03-25 05:52:00,METAR KPWK 250552Z AUTO 00000KT 10SM CLR 03/M03 A3021 RMK AO2 SLP234 T00331028 10089 20028 401061017 56012
2026-03-25 04:52:00,METAR KPWK 250452Z AUTO 00000KT 10SM CLR 04/M03 A3021 RMK AO2 SLP235 T00441033
2026-03-25 03:52:00,METAR KPWK 250352Z AUTO 12003KT 10SM FEW110 04/M04 A3022 RMK AO2 SLP239 T00441039
2026-03-25 02:52:00,METAR KPWK 250252Z 00000KT 10SM CLR 04/M04 A3024 RMK AO2 SLP246 T00441039 55000
2026-03-25 01:52:00,METAR KPWK 250152Z 13005KT 10SM CLR 05/M04 A3024 RMK AO2 SLP244 T00501044
2026-03-25 00:52:00,METAR KPWK 250052Z 11004KT 10SM CLR 06/M04 A3024 RMK AO2 SLP248 T00611044
2026-03-24 23:52:00,METAR KPWK 242352Z 09006KT 10SM FEW080 09/M07 A3024 RMK AO2 SLP247 T00891072 10106 20072 56005
2026-03-24 22:52:00,METAR KPWK 242252Z 18004KT 10SM CLR 10/M08 A3025 RMK AO2 SLP247 T01001078
2026-03-24 21:52:00,METAR KPWK 242152Z 18005KT 10SM FEW110 10/M08 A3025 RMK AO2 SLP250 T01001078
2026-03-24 20:52:00,METAR KPWK 242052Z 24006KT 10SM BKN080 09/M09 A3026 RMK AO2 SLP252 T00941094 56026
2026-03-24 19:52:00,METAR KPWK 241952Z 21006KT 10SM OVC085 08/M08 A3028 RMK AO2 SLP259 T00831083
2026-03-24 18:52:00,METAR KPWK 241852Z 21008KT 160V250 10SM BKN090 08/M08 A3031 RMK AO2 SLP270 T00781078
2026-03-24 17:52:00,METAR KPWK 241752Z 19007KT 10SM BKN090 OVC120 07/M07 A3034 RMK AO2 SLP280 T00671072 10072 21011 56018
2026-03-24 16:52:00,METAR KPWK 241652Z 20012KT 10SM SCT070 OVC090 06/M07 A3035 RMK AO2 SLP283 T00611072
2026-03-24 15:52:00,METAR KPWK 241552Z 19010KT 10SM BKN100 04/M07 A3038 RMK AO2 SLP295 T00441072
2026-03-24 14:52:00,METAR KPWK 241452Z 21009KT 10SM CLR 03/M07 A3039 RMK AO2 SLP299 T00281072 53002 $
2026-03-24 13:52:00,METAR KPWK 241352Z 21011KT 10SM CLR 02/M07 A3039 RMK AO2 SLP298 T00171072
2026-03-24 12:52:00,METAR KPWK 241252Z 19009KT 10SM FEW120 01/M08 A3039 RMK AO2 SLP297 T00061078
2026-03-24 11:52:00,METAR KPWK 241152Z 19006KT 10SM FEW110 M01/M09 A3039 RMK AO2 SLP297 T10061094 10000 21017 56000 $
2026-03-24 10:52:00,METAR KPWK 241052Z 20005KT 10SM CLR M01/M09 A3039 RMK AO2 SLP298 T10061089 $
2026-03-24 09:52:00,METAR KPWK 240952Z AUTO 20005KT 10SM SCT110 M01/M09 A3038 RMK AO2 SLP295 T10061089 $
2026-03-24 08:52:00,METAR KPWK 240852Z AUTO 20005KT 10SM SCT110 M01/M05 A3039 RMK AO2 SLP297 T10061050 58016 $
2026-03-24 07:52:00,METAR KPWK 240752Z AUTO 17003KT 10SM BKN110 M02/M04 A3041 RMK AO2 SLP305 T10171044 $
2026-03-24 06:52:00,METAR KPWK 240652Z AUTO 00000KT 10SM FEW120 M01/M06 A3044 RMK AO2 SLP314 T10061056
2026-03-24 05:52:00,METAR KPWK 240552Z AUTO 00000KT 10SM CLR M01/M06 A3044 RMK AO2 SLP313 T10111061 10011 21028 400441028 55003
2026-03-24 04:52:00,METAR KPWK 240452Z AUTO 00000KT 10SM CLR M01/M06 A3042 RMK AO2 SLP309 T10111061
2026-03-24 03:52:00,METAR KPWK 240352Z AUTO 00000KT 10SM FEW120 M01/M06 A3044 RMK AO2 SLP314 T10111061
2026-03-24 02:52:00,METAR KPWK 240252Z 14005KT 10SM CLR M01/M07 A3044 RMK AO2 SLP317 T10111067 58004
2026-03-24 01:52:00,METAR KPWK 240152Z 15005KT 10SM CLR 00/M07 A3046 RMK AO2 SLP321 T00001067
2026-03-24 00:52:00,METAR KPWK 240052Z 11005KT 10SM CLR 00/M07 A3045 RMK AO2 SLP321 T00001072
2026-03-23 23:52:00,METAR KPWK 232352Z 10005KT 10SM FEW080 SCT100 01/M08 A3046 RMK AO2 SLP321 T00111083 10044 20011 53006
2026-03-23 22:52:00,METAR KPWK 232252Z 10007KT 10SM FEW080 BKN110 03/M08 A3044 RMK AO2 SLP317 T00281078
2026-03-23 21:52:00,METAR KPWK 232152Z 08009KT 10SM CLR 03/M08 A3044 RMK AO2 SLP315 T00331083
2026-03-23 20:52:00,METAR KPWK 232052Z 07008KT 10SM CLR 04/M09 A3044 RMK AO2 SLP314 T00391089 58002
2026-03-23 19:52:00,METAR KPWK 231952Z 10007KT 10SM CLR 04/M08 A3044 RMK AO2 SLP315 T00391083
2026-03-23 18:52:00,METAR KPWK 231852Z 07007KT 10SM BKN095 BKN110 04/M08 A3045 RMK AO2 SLP319 T00391078
2026-03-23 17:52:00,METAR KPWK 231752Z VRB05G16KT 10SM CLR 03/M08 A3044 RMK AO2 SLP316 T00331083 10039 21022 51016
2026-03-23 16:52:00,METAR KPWK 231652Z 35011G18KT 10SM FEW090 SCT110 03/M09 A3043 RMK AO2 SLP312 T00331089
2026-03-23 15:52:00,METAR KPWK 231552Z 01011G21KT 10SM CLR 02/M09 A3042 RMK AO2 SLP308 T00221094
2026-03-23 14:52:00,METAR KPWK 231452Z 01014G24KT 10SM SCT037 BKN110 01/M08 A3040 RMK AO2 SLP300 T00061078 51026 $
2026-03-23 13:52:00,METAR KPWK 231352Z 36013G21KT 10SM FEW085 FEW110 00/M08 A3037 RMK AO2 SLP292 T00001078 $
2026-03-23 12:52:00,METAR KPWK 231252Z 34011KT 10SM CLR M01/M06 A3035 RMK AO2 SLP285 T10111061 $
2026-03-23 11:52:00,METAR KPWK 231152Z 34004KT 10SM FEW029 SCT065 BKN110 M02/M06 A3032 RMK AO2 SLP274 T10171056 11006 21017 51016 $
2026-03-23 11:48:00,SPECI KPWK 231148Z 34005KT 10SM SCT029 SCT065 BKN110 M02/M06 A3032 RMK AO2 $
2026-03-23 10:52:00,METAR KPWK 231052Z 36005KT 10SM OVC029 M01/M06 A3030 RMK AO2 SLP266 T10061056 $
2026-03-23 09:52:00,METAR KPWK 230952Z AUTO 36006KT 10SM OVC029 M01/M06 A3027 RMK AO2 SLP258 T10111056 $
2026-03-23 09:34:00,SPECI KPWK 230934Z AUTO 36006KT 10SM OVC029 M02/M06 A3026 RMK AO2 T10171056 $
2026-03-23 08:52:00,METAR KPWK 230852Z AUTO 36008G16KT 10SM BKN032 M01/M05 A3025 RMK AO2 SLP251 T10111050 51023
2026-03-23 07:52:00,METAR KPWK 230752Z AUTO 36007KT 10SM CLR M02/M05 A3023 RMK AO2 SLP245 T10171050
2026-03-23 06:52:00,METAR KPWK 230652Z AUTO 01008G19KT 10SM CLR M01/M05 A3021 RMK AO2 SLP237 T10111050
2026-03-23 05:52:00,METAR KPWK 230552Z AUTO 01007G16KT 10SM SCT070 BKN090 BKN110 M01/M04 A3018 RMK AO2 SLP227 T10061044 10011 21006 402061006 53031
2026-03-23 04:52:00,METAR KPWK 230452Z AUTO 02011G19KT 10SM CLR 00/M04 A3015 RMK AO2 SLP214 T00001044
2026-03-23 04:21:00,SPECI KPWK 230421Z AUTO 02011G20KT 10SM SCT023 00/M04 A3013 RMK AO2 T00001044
2026-03-23 03:59:00,SPECI KPWK 230359Z AUTO 01013G24KT 10SM BKN023 00/M04 A3012 RMK AO2 T00001044
2026-03-23 03:52:00,METAR KPWK 230352Z AUTO 02013G22KT 10SM SCT024 00/M04 A3012 RMK AO2 SLP203 T00001044
2026-03-23 02:52:00,METAR KPWK 230252Z 03011G20KT 10SM FEW023 FEW110 00/M04 A3009 RMK AO2 SLP195 T00001044 52012
2026-03-23 02:28:00,SPECI KPWK 230228Z 01010G24KT 10SM SCT023 SCT110 01/M04 A3008 RMK AO2 T00061039
2026-03-23 02:21:00,SPECI KPWK 230221Z 01016G25KT 10SM BKN023 01/M04 A3008 RMK AO2 T00061039
2026-03-23 01:52:00,METAR KPWK 230152Z 01011G25KT 10SM SCT023 01/M04 A3007 RMK AO2 SLP188 T00061039
2026-03-23 01:49:00,SPECI KPWK 230149Z 01013G25KT 10SM SCT023 01/M04 A3007 RMK AO2
2026-03-23 01:34:00,SPECI KPWK 230134Z 01008KT 10SM BKN023 BKN060 BKN110 01/M04 A3007 RMK AO2 T00061039
2026-03-23 00:52:00,METAR KPWK 230052Z 01010G19KT 10SM SCT017 OVC100 01/M04 A3005 RMK AO2 PK WND 02031/2359 SLP182 T00061039
2026-03-22 23:52:00,METAR KPWK 222352Z 02017G28KT 10SM SCT017 OVC100 01/M03 A3001 RMK AO2 PK WND 04031/2303 SLP168 T00111028 10028 20011 53018
2026-03-22 22:59:00,SPECI KPWK 222259Z 03016G27KT 10SM SCT017 OVC100 01/M03 A2998 RMK AO2 PK WND 03027/2255 T00111028
2026-03-22 22:52:00,METAR KPWK 222252Z 04013G24KT 10SM BKN019 BKN110 01/M03 A2997 RMK AO2 PK WND 03031/2238 SLP153 T00111028
2026-03-22 21:52:00,METAR KPWK 222152Z 02016G29KT 10SM BKN019 BKN110 02/M03 A2999 RMK AO2 PK WND 02029/2104 SLP160 T00171028
2026-03-22 20:52:00,METAR KPWK 222052Z 02016G31KT 10SM OVC016 02/M02 A2996 RMK AO2 PK WND 03033/1959 SLP147 T00171022 51031
2026-03-22 19:52:00,METAR KPWK 221952Z 02017G33KT 10SM OVC015 02/M02 A2992 RMK AO2 PK WND 01033/1948 SLP132 T00171017
2026-03-22 18:52:00,METAR KPWK 221852Z 02021G36KT 10SM OVC017 02/M02 A2991 RMK AO2 PK WND 03038/1754 SLP131 T00221017
2026-03-22 17:52:00,METAR KPWK 221752Z 02020G31KT 10SM OVC015 03/M01 A2987 RMK AO2 PK WND 03034/1730 SLP115 T00281011 10067 20022 51030
2026-03-22 16:52:00,METAR KPWK 221652Z 02022G31KT 10SM OVC014 04/00 A2987 RMK AO2 PK WND 04034/1625 PRESRR SLP114 T00390000
2026-03-22 15:52:00,METAR KPWK 221552Z 02015G24KT 10SM OVC012 04/01 A2985 RMK AO2 PK WND 02034/1521 PRESRR SLP109 T00440011
2026-03-22 14:52:00,METAR KPWK 221452Z 03015G29KT 10SM OVC011 03/01 A2978 RMK AO2 PK WND 02032/1424 SLP084 T00330006 51019
2026-03-22 14:23:00,SPECI KPWK 221423Z 02017G31KT 10SM BKN012 04/01 A2978 RMK AO2 PK WND 02031/1408 PRESRR T00390011
2026-03-22 13:52:00,METAR KPWK 221352Z 04015G26KT 10SM CLR 04/01 A2974 RMK AO2 PK WND 06026/1344 SLP072 T00440011
2026-03-22 12:52:00,METAR KPWK 221252Z 03013G29KT 10SM CLR 06/01 A2978 RMK AO2 PK WND 03031/1212 SLP085 T00560011
2026-03-22 11:52:00,METAR KPWK 221152Z 03015G25KT 10SM FEW095 07/02 A2972 RMK AO2 PK WND 01032/1142 SLP064 T00670022 10206 20067 53047
2026-03-22 10:52:00,METAR KPWK 221052Z AUTO 03013G20KT 10SM FEW100 08/03 A2966 RMK AO2 PK WND 05026/0955 SLP041 T00780033
2026-03-22 09:52:00,METAR KPWK 220952Z AUTO 04017G28KT 10SM FEW100 SCT120 12/05 A2961 RMK AO2 PK WND 06029/0946 SLP026 T01220050
2026-03-22 08:52:00,METAR KPWK 220852Z AUTO 35007KT 10SM CLR 19/10 A2958 RMK AO2 SLP012 T01890100 55001
2026-03-22 07:52:00,METAR KPWK 220752Z AUTO 22008KT 10SM CLR 20/09 A2956 RMK AO2 SLP005 T02000094
2026-03-22 06:52:00,METAR KPWK 220652Z AUTO 22011G19KT 10SM CLR 20/09 A2957 RMK AO2 SLP010 T02000089
2026-03-22 05:52:00,METAR KPWK 220552Z AUTO 21012G20KT 10SM FEW060 SCT075 BKN090 21/08 A2958 RMK AO2 SLP014 T02060078 10239 20206 402440039 58015
2026-03-22 04:52:00,METAR KPWK 220452Z AUTO 22011KT 10SM CLR 21/07 A2961 RMK AO2 SLP024 T02110067
2026-03-22 03:52:00,METAR KPWK 220352Z AUTO 21008KT 10SM FEW070 22/07 A2962 RMK AO2 SLP028 T02220067
2026-03-22 02:52:00,METAR KPWK 220252Z 22009KT 10SM FEW070 22/07 A2963 RMK AO2 SLP031 T02220072 58014
2026-03-22 01:52:00,METAR KPWK 220152Z 21009KT 10SM FEW080 22/07 A2964 RMK AO2 SLP037 T02170072
2026-03-22 00:52:00,METAR KPWK 220052Z 21006KT 10SM CLR 22/07 A2966 RMK AO2 SLP042 T02170072
2026-03-21 23:52:00,METAR KPWK 212352Z 23007G16KT 10SM FEW110 24/07 A2967 RMK AO2 SLP046 T02390072 10244 20172 56017
2026-03-21 22:52:00,METAR KPWK 212252Z 22010G20KT 10SM CLR 24/07 A2967 RMK AO2 SLP046 T02390072
2026-03-21 21:52:00,METAR KPWK 212152Z 22012G19KT 10SM FEW090 FEW110 23/07 A2969 RMK AO2 SLP055 T02280067
2026-03-21 20:52:00,METAR KPWK 212052Z 22013G21KT 10SM CLR 22/06 A2972 RMK AO2 SLP064 T02170061 56048
2026-03-21 19:52:00,METAR KPWK 211952Z 20014KT 10SM FEW100 21/06 A2976 RMK AO2 SLP076 T02060056
2026-03-21 18:52:00,METAR KPWK 211852Z 19014G18KT 10SM FEW100 FEW120 19/05 A2981 RMK AO2 SLP096 T01890050 $
2026-03-21 17:52:00,METAR KPWK 211752Z 19011G17KT 10SM CLR 17/06 A2987 RMK AO2 SLP114 T01670061 10167 20050 58022 $
2026-03-21 16:52:00,METAR KPWK 211652Z 19009KT 10SM FEW090 BKN120 14/07 A2990 RMK AO2 SLP125 T01440067 $
2026-03-21 15:52:00,METAR KPWK 211552Z 17007KT 10SM OVC100 12/06 A2993 RMK AO2 SLP137 T01220056 $
2026-03-21 14:52:00,METAR KPWK 211452Z 18005KT 10SM BKN120 11/04 A2993 RMK AO2 SLP139 T01060044 58004 $
2026-03-21 13:52:00,METAR KPWK 211352Z 14005KT 10SM FEW080 SCT120 07/03 A2994 RMK AO2 SLP141 T00720033 $
2026-03-21 12:52:00,METAR KPWK 211252Z 00000KT 10SM FEW110 06/03 A2995 RMK AO2 SLP144 T00560028 $
2026-03-21 11:52:00,METAR KPWK 211152Z COR 00000KT 10SM CLR 05/02 A2995 RMK AO2 SLP144 T00500022 10056 20039 55004 $
2026-03-21 10:52:00,METAR KPWK 211052Z AUTO 10SM CLR 04/02 A2994 RMK AO2 SLP143 T00440022 $
2026-03-21 09:52:00,METAR KPWK 210952Z AUTO 10SM CLR 04/02 A2995 RMK AO2 SLP145 T00440022 $
2026-03-21 08:52:00,METAR KPWK 210852Z AUTO 10SM CLR 04/02 A2996 RMK AO2 SLP147 T00440022 55004 $
2026-03-21 07:52:00,METAR KPWK 210752Z AUTO 10SM CLR 04/02 A2996 RMK AO2 SLP147 T00440017 $
2026-03-21 06:52:00,METAR KPWK 210652Z AUTO 00000KT 10SM CLR 04/02 A2997 RMK AO2 SLP148 T00440022
2026-03-21 05:52:00,METAR KPWK 210552Z AUTO 00000KT 10SM CLR 04/02 A2997 RMK AO2 SLP150 T00390017 10078 20039 402060022 50003
2026-03-21 04:52:00,METAR KPWK 210452Z AUTO 00000KT 10SM FEW090 SCT110 06/02 A2998 RMK AO2 SLP151 T00560017
2026-03-21 03:52:00,METAR KPWK 210352Z 00000KT 10SM CLR 06/02 A2997 RMK AO2 SLP149 T00560022
2026-03-21 02:52:00,METAR KPWK 210252Z 00000KT 10SM FEW110 06/02 A2996 RMK AO2 SLP147 T00610022 51013
2026-03-21 01:52:00,METAR KPWK 210152Z 02003KT 10SM CLR 06/02 A2996 RMK AO2 SLP147 T00610022
2026-03-21 00:52:00,METAR KPWK 210052Z 00000KT 10SM FEW070 07/02 A2995 RMK AO2 SLP145 T00670022
2026-03-20 23:52:00,METAR KPWK 202352Z 06007KT 10SM CLR 08/03 A2992 RMK AO2 SLP134 T00780028 10206 20078 53027
2026-03-20 22:52:00,METAR KPWK 202252Z 04007G17KT 10SM CLR 09/03 A2989 RMK AO2 SLP125 T00890033
2026-03-20 21:52:00,METAR KPWK 202152Z 06011KT 10SM FEW100 FEW120 11/04 A2987 RMK AO2 SLP115 T01110039
2026-03-20 20:52:00,METAR KPWK 202052Z 06012G19KT 10SM CLR 12/05 A2984 RMK AO2 SLP108 T01220050 53021
2026-03-20 19:52:00,METAR KPWK 201952Z 04012G20KT 10SM FEW110 14/07 A2982 RMK AO2 WSHFT 1912 SLP101 T01440067
2026-03-20 19:32:00,SPECI KPWK 201932Z 05013KT 10SM CLR 16/07 A2981 RMK AO2 WSHFT 1912 T01560067
2026-03-20 18:52:00,METAR KPWK 201852Z 34008KT 10SM FEW100 20/09 A2979 RMK AO2 SLP089 T02000089
2026-03-20 17:52:00,METAR KPWK 201752Z 30006KT 10SM FEW100 19/07 A2978 RMK AO2 SLP085 T01890072 10189 20117 58001
2026-03-20 16:52:00,METAR KPWK 201652Z 31009KT 10SM FEW110 18/07 A2978 RMK AO2 SLP086 T01830067
2026-03-20 15:52:00,METAR KPWK 201552Z 31013G20KT 10SM CLR 17/06 A2979 RMK AO2 SLP088 T01720061
2026-03-20 14:52:00,METAR KPWK 201452Z 28006KT 10SM CLR 15/06 A2978 RMK AO2 SLP087 T01500061 53000
2026-03-20 13:52:00,METAR KPWK 201352Z 25008G15KT 10SM CLR 14/06 A2977 RMK AO2 SLP085 T01390056
2026-03-20 12:52:00,METAR KPWK 201252Z 22006KT 10SM CLR 12/06 A2977 RMK AO2 SLP084 T01170056
2026-03-20 11:52:00,METAR KPWK 201152Z 23007KT 10SM CLR 12/06 A2978 RMK AO2 SLP087 T01170056 10117 20022 58018
2026-03-20 10:52:00,METAR KPWK 201052Z 22005KT 10SM CLR 11/06 A2980 RMK AO2 SLP094 T01110056
2026-03-20 09:52:00,METAR KPWK 200952Z AUTO 18004KT 10SM CLR 06/04 A2982 RMK AO2 SLP100 T00610039
2026-03-20 08:52:00,METAR KPWK 200852Z AUTO 17005KT 10SM FEW070 03/02 A2984 RMK AO2 SLP106 T00330017 57035
2026-03-20 07:52:00,METAR KPWK 200752Z AUTO 15003KT 10SM FEW075 02/00 A2987 RMK AO2 SLP120 T00220000
2026-03-20 06:52:00,METAR KPWK 200652Z AUTO 18003KT 10SM SCT070 02/00 A2990 RMK AO2 SLP128 T00220000
2026-03-20 05:52:00,METAR KPWK 200552Z AUTO 00000KT 10SM FEW075 03/01 A2994 RMK AO2 SLP141 T00330006 10061 20022 401281006 56028
2026-03-20 04:52:00,METAR KPWK 200452Z AUTO 00000KT 10SM FEW070 FEW120 03/01 A2997 RMK AO2 SLP151 T00280006
2026-03-20 03:52:00,METAR KPWK 200352Z AUTO 00000KT 10SM CLR 03/00 A2999 RMK AO2 SLP159 T00330000
2026-03-20 02:52:00,METAR KPWK 200252Z AUTO 00000KT 10SM FEW070 SCT090 BKN110 03/00 A3002 RMK AO2 SLP171 T00330000 58013
2026-03-20 01:52:00,METAR KPWK 200152Z 00000KT 10SM FEW070 04/M01 A3004 RMK AO2 SLP177 T00391006
2026-03-20 00:52:00,METAR KPWK 200052Z 10003KT 10SM SCT070 SCT085 05/M01 A3006 RMK AO2 SLP184 T00501006
2026-03-19 23:52:00,METAR KPWK 192352Z 08003KT 10SM FEW070 06/M01 A3006 RMK AO2 SLP185 T00611006 10128 20061 58008
2026-03-19 22:52:00,METAR KPWK 192252Z 09007KT 10SM CLR 08/M01 A3008 RMK AO2 SLP189 T00781006
2026-03-19 21:52:00,METAR KPWK 192152Z 09006KT 10SM CLR 08/00 A3008 RMK AO2 SLP189 T00830000
2026-03-19 20:52:00,METAR KPWK 192052Z 06011KT 10SM CLR 11/01 A3009 RMK AO2 SLP191 T01060006 55005
2026-03-19 19:52:00,METAR KPWK 191952Z 07007KT 10SM CLR 11/01 A3008 RMK AO2 SLP188 T01110011
2026-03-19 18:52:00,METAR KPWK 191852Z 08007KT 10SM FEW090 BKN110 10/02 A3010 RMK AO2 SLP196 T01000017
2026-03-19 17:52:00,METAR KPWK 191752Z VRB06KT 10SM FEW090 SCT110 13/03 A3010 RMK AO2 SLP197 T01280028 10128 20000 55004
2026-03-19 17:29:00,SPECI KPWK 191729Z 08005KT 10SM SCT110 12/03 A3010 RMK AO2 T01220028
2026-03-19 16:52:00,METAR KPWK 191652Z 14004KT 10SM FEW110 12/02 A3009 RMK AO2 SLP194 T01220022
2026-03-19 15:52:00,METAR KPWK 191552Z 00000KT 10SM CLR 09/01 A3011 RMK AO2 SLP199 T00940011
2026-03-19 14:52:00,METAR KPWK 191452Z 00000KT 10SM BKN070 BKN085 07/01 A3011 RMK AO2 SLP202 T00720006 53016
2026-03-19 13:52:00,METAR KPWK 191352Z 20005KT 10SM BKN080 05/00 A3009 RMK AO2 SLP194 T00500000
2026-03-19 12:52:00,METAR KPWK 191252Z 00000KT 10SM CLR 02/M01 A3007 RMK AO2 SLP190 T00171006
2026-03-19 11:52:00,METAR KPWK 191152Z 00000KT 10SM CLR 01/M02 A3007 RMK AO2 SLP187 T00061017 10028 21006 53003
2026-03-19 10:52:00,METAR KPWK 191052Z 18007KT 10SM CLR 00/M02 A3003 RMK AO2 SLP175 T00001022
2026-03-19 09:52:00,METAR KPWK 190952Z AUTO 16003KT 10SM CLR 01/M02 A3004 RMK AO2 SLP175 T00061017
2026-03-19 08:52:00,METAR KPWK 190852Z AUTO 00000KT 10SM OVC120 02/M02 A3006 RMK AO2 SLP183 T00171017 55000
2026-03-19 07:52:00,METAR KPWK 190752Z AUTO 19006KT 10SM SCT110 01/M01 A3005 RMK AO2 SLP181 T00111011
2026-03-19 06:52:00,METAR KPWK 190652Z AUTO 00000KT 10SM BKN095 OVC110 03/M02 A3006 RMK AO2 SLP185 T00281017
2026-03-19 05:52:00,METAR KPWK 190552Z AUTO 00000KT 10SM BKN100 BKN120 03/M02 A3006 RMK AO2 SLP184 T00281017 10056 20011 400721050 56002
2026-03-19 04:52:00,METAR KPWK 190452Z AUTO 00000KT 10SM FEW110 02/M02 A3006 RMK AO2 SLP186 T00221017
2026-03-19 03:52:00,METAR KPWK 190352Z AUTO 00000KT 10SM CLR 02/M02 A3006 RMK AO2 SLP184 T00171017
2026-03-19 02:52:00,METAR KPWK 190252Z 00000KT 10SM CLR 03/M02 A3007 RMK AO2 SLP188 T00281022 50013
2026-03-19 01:52:00,METAR KPWK 190152Z 34004KT 10SM FEW110 03/M02 A3007 RMK AO2 SLP190 T00331017
2026-03-19 00:52:00,METAR KPWK 190052Z 33005KT 10SM CLR 04/M02 A3005 RMK AO2 SLP181 T00441017
2026-03-18 23:52:00,METAR KPWK 182352Z 29007KT 10SM CLR 06/M02 A3003 RMK AO2 SLP174 T00561017 10072 20028 53014
2026-03-18 22:52:00,METAR KPWK 182252Z 29008KT 10SM FEW110 07/M02 A3000 RMK AO2 SLP165 T00671017
2026-03-18 21:52:00,METAR KPWK 182152Z 21008KT 10SM CLR 07/M02 A2998 RMK AO2 SLP159 T00671017
2026-03-18 20:52:00,METAR KPWK 182052Z 24005KT 10SM OVC038 06/M03 A2998 RMK AO2 SLP160 T00561028 55008
2026-03-18 19:52:00,METAR KPWK 181952Z 23008KT 210V280 10SM OVC042 04/M03 A2998 RMK AO2 SLP159 T00441033
2026-03-18 18:52:00,METAR KPWK 181852Z 24009KT 10SM OVC043 04/M03 A2999 RMK AO2 SLP164 T00391033
2026-03-18 17:52:00,METAR KPWK 181752Z 22010KT 10SM FEW100 03/M04 A3001 RMK AO2 SLP170 60000 T00281039 10028 21039 56008
2026-03-18 16:52:00,METAR KPWK 181652Z 19014KT 10SM FEW055 SCT100 01/M05 A3001 RMK AO2 SLP170 T00061050
2026-03-18 15:52:00,METAR KPWK 181552Z 21012KT 10SM OVC060 M01/M06 A3003 RMK AO2 SLP178 T10111056
2026-03-18 15:09:00,SPECI KPWK 181509Z 19015KT 10SM BKN032 OVC060 M02/M06 A3004 RMK AO2 T10221061
2026-03-18 14:52:00,METAR KPWK 181452Z 20015G22KT 10SM BKN032 OVC060 M03/M06 A3004 RMK AO2 SNE12 SLP180 P0000 60000 T10281061 55001
2026-03-18 14:19:00,SPECI KPWK 181419Z 20013KT 3SM FEW017 BKN033 OVC065 M03/M06 A3004 RMK AO2 SFC VIS 9 SNE12 P0000 T10281061
2026-03-18 13:52:00,METAR KPWK 181352Z 18014KT 2SM -SN BKN033 BKN042 OVC050 M03/M06 A3003 RMK AO2 SFC VIS 2 1/2 SNB22 SLP179 P0000 T10331061
2026-03-18 13:27:00,SPECI KPWK 181327Z 19014G22KT 2SM -SN BKN042 OVC049 M03/M06 A3003 RMK AO2 SFC VIS 5 SNB22 P0000 T10331061
2026-03-18 12:52:00,METAR KPWK 181252Z 19011KT 10SM FEW016 BKN040 OVC060 M04/M07 A3004 RMK AO2 SLP182 T10391067
2026-03-18 11:52:00,METAR KPWK 181152Z 18012KT 10SM BKN015 OVC042 M04/M07 A3004 RMK AO2 SNE20 SLP181 P0000 60000 T10391067 11039 21050 58004
2026-03-18 11:38:00,SPECI KPWK 181138Z 18013KT 10SM BKN015 OVC042 M04/M06 A3004 RMK AO2 SNE20 P0000 T10441061 $
2026-03-18 11:00:00,SPECI KPWK 181100Z 18010KT 2 1/2SM -SN BR FEW014 SCT024 OVC043 M04/M06 A3004 RMK AO2 SFC VIS 4 P0000 T10441061 $
2026-03-18 10:52:00,METAR KPWK 181052Z 18011KT 2 1/2SM -SN BR SCT014 BKN024 OVC043 M04/M06 A3005 RMK AO2 SNB02 SLP185 P0000 T10441061 $
2026-03-18 10:49:00,SPECI KPWK 181049Z 19009KT 2 1/2SM -SN BR SCT015 BKN024 OVC043 M04/M06 A3005 RMK AO2 SNB02 P0000 $
2026-03-18 09:52:00,METAR KPWK 180952Z AUTO 18012KT 10SM BKN015 OVC034 M04/M07 A3005 RMK AO2 SNE21 SLP186 P0000 T10441067 $
2026-03-18 09:44:00,SPECI KPWK 180944Z AUTO 19010KT 10SM BKN015 BKN034 OVC041 M04/M07 A3006 RMK AO2 SNE21 P0000 T10441067 $
2026-03-18 08:52:00,METAR KPWK 180852Z AUTO 19011KT 5SM -SN BR FEW016 BKN042 OVC055 M04/M07 A3007 RMK AO2 SNB30 SLP193 P0000 60000 T10441067 58024 $
2026-03-18 07:52:00,METAR KPWK 180752Z AUTO 19010KT 10SM SCT015 OVC070 M04/M07 A3010 RMK AO2 SNE13 SLP201 P0000 T10441067 $
2026-03-18 07:24:00,SPECI KPWK 180724Z AUTO 19008KT 10SM SCT015 BKN022 OVC075 M05/M07 A3011 RMK AO2 SNE13 P0000 T10501067 $
2026-03-18 06:52:00,METAR KPWK 180652Z AUTO 19009KT 5SM -SN BR FEW050 SCT070 OVC090 M05/M07 A3012 RMK AO2 SLP210 P0000 T10501072 $
2026-03-18 05:52:00,METAR KPWK 180552Z AUTO 20010KT 4SM -SN OVC037 M05/M08 A3014 RMK AO2 SNB24 SLP218 P0000 60000 T10501083 11044 21056 410441106 58010 $
2026-03-18 04:52:00,METAR KPWK 180452Z AUTO 20010KT 10SM OVC070 M04/M11 A3016 RMK AO2 SLP223 T10441106 $
2026-03-18 03:52:00,METAR KPWK 180352Z AUTO 20006KT 10SM BKN065 OVC085 M05/M12 A3017 RMK AO2 SLP228 T10501117
2026-03-18 02:52:00,METAR KPWK 180252Z AUTO 21006KT 10SM BKN080 OVC100 M06/M13 A3017 RMK AO2 SLP229 T10561128 58005
2026-03-18 01:52:00,METAR KPWK 180152Z 23005KT 10SM FEW070 SCT090 BKN110 M06/M14 A3018 RMK AO2 SLP231 T10561144
2026-03-18 00:52:00,METAR KPWK 180052Z 24008KT 10SM BKN085 OVC110 M06/M14 A3019 RMK AO2 SLP235 T10561144
2026-03-17 23:52:00,METAR KPWK 172352Z 24007KT 10SM SCT110 M06/M15 A3019 RMK AO2 SLP235 T10561150 11050 21061 53004
2026-03-17 22:52:00,METAR KPWK 172252Z 26009KT 10SM CLR M06/M17 A3019 RMK AO2 SLP235 T10561167
2026-03-17 21:52:00,METAR KPWK 172152Z 23008KT 10SM CLR M06/M17 A3016 RMK AO2 SLP226 T10561167
2026-03-17 20:52:00,METAR KPWK 172052Z 29007KT 10SM CLR M06/M17 A3018 RMK AO2 SLP229 T10561172 58006
2026-03-17 19:52:00,METAR KPWK 171952Z 29009KT 10SM CLR M06/M17 A3019 RMK AO2 SLP233 T10561172
2026-03-17 18:52:00,METAR KPWK 171852Z 27008KT 230V290 10SM FEW120 M06/M17 A3020 RMK AO2 SLP238 T10611172
2026-03-17 17:52:00,METAR KPWK 171752Z 29007KT 10SM FEW046 M06/M17 A3020 RMK AO2 SLP236 T10611172 11061 21106 51013
2026-03-17 16:52:00,METAR KPWK 171652Z 31007KT 280V350 10SM FEW110 M07/M17 A3019 RMK AO2 SLP233 T10671172
2026-03-17 15:52:00,METAR KPWK 171552Z 34009KT 10SM FEW110 M08/M16 A3018 RMK AO2 SLP229 T10781161
2026-03-17 14:52:00,METAR KPWK 171452Z 31008KT 10SM FEW110 M08/M16 A3016 RMK AO2 SLP222 T10831156 51022
2026-03-17 13:52:00,METAR KPWK 171352Z 33009KT 10SM FEW090 SCT120 M09/M15 A3014 RMK AO2 SLP216 T10941150
2026-03-17 12:52:00,METAR KPWK 171252Z 32009KT 10SM CLR M11/M16 A3012 RMK AO2 SLP212 T11061156
2026-03-17 11:52:00,METAR KPWK 171152Z 32006KT 10SM FEW110 M11/M17 A3009 RMK AO2 SLP200 T11061167 11083 21106 53021
2026-03-17 10:52:00,METAR KPWK 171052Z 33010KT 10SM CLR M10/M17 A3007 RMK AO2 SLP192 T11001167 $
2026-03-17 09:52:00,METAR KPWK 170952Z AUTO 31009KT 10SM FEW080 BKN110 M10/M17 A3004 RMK AO2 SLP183 T11001172 $
2026-03-17 08:52:00,METAR KPWK 170852Z AUTO 34009G19KT 10SM OVC070 M09/M17 A3003 RMK AO2 SLP178 T10891172 53020 $
2026-03-17 07:52:00,METAR KPWK 170752Z AUTO 34010KT 10SM OVC065 M09/M18 A3001 RMK AO2 SLP172 T10891178 $
2026-03-17 06:52:00,METAR KPWK 170652Z AUTO 33009KT 10SM FEW100 M09/M17 A2998 RMK AO2 SLP163 T10891172 $
2026-03-17 05:52:00,METAR KPWK 170552Z AUTO 34013G19KT 10SM BKN085 BKN110 M08/M17 A2997 RMK AO2 SLP158 60000 T10831172 11039 21083 410111083 51018 $
2026-03-17 04:52:00,METAR KPWK 170452Z AUTO 34015G23KT 10SM SCT047 M08/M17 A2996 RMK AO2 PK WND 33028/0438 SLP154 T10781167 $
2026-03-17 03:52:00,METAR KPWK 170352Z AUTO 34013G28KT 10SM SCT037 BKN045 OVC110 M07/M14 A2994 RMK AO2 PK WND 33028/0346 SNB0258E23 SLP147 P0000 T10671144 $
2026-03-17 02:52:00,METAR KPWK 170252Z 32014G23KT 10SM OVC038 M06/M12 A2991 RMK AO2 PK WND 32026/0201 SLP139 T10561122 51031 $
2026-03-17 01:52:00,METAR KPWK 170152Z 31015G26KT 10SM BKN043 OVC060 M06/M12 A2989 RMK AO2 PK WND 33027/0135 SLP131 T10561122 $
2026-03-17 00:52:00,METAR KPWK 170052Z 31019G29KT 10SM OVC042 M05/M12 A2986 RMK AO2 PK WND 30033/2355 SLP119 T10501117 $
2026-03-16 23:52:00,METAR KPWK 162352Z 31019G29KT 10SM BKN043 BKN055 OVC100 M04/M11 A2982 RMK AO2 PK WND 29032/2317 SNB2257E16 SLP107 P0000 60000 T10391106 11028 21039 53030 $
2026-03-16 22:52:00,METAR KPWK 162252Z 31021G30KT 10SM OVC037 M03/M09 A2978 RMK AO2 PK WND 30031/2215 SLP092 T10281094 $
2026-03-16 21:52:00,METAR KPWK 162152Z 32019G29KT 9SM FEW030 OVC039 M03/M09 A2975 RMK AO2 PK WND 33031/2127 UPB2056E22SNE2056B39E49 SLP083 P0000 T10281094 $
2026-03-16 21:05:00,SPECI KPWK 162105Z 33016G29KT 10SM UP FEW027 OVC035 M03/M09 A2973 RMK AO2 PK WND 33030/2054 UPB2056SNE2056 P0000 T10281089 $
2026-03-16 20:52:00,METAR KPWK 162052Z 31016G30KT 9SM -SN BKN028 OVC036 M03/M08 A2973 RMK AO2 PK WND 33032/2022 UPB01E04B20E43SNE01B04E20B43 SLP075 P0000 60000 T10281083 51023 $
2026-03-16 19:52:00,METAR KPWK 161952Z 33017G31KT 3SM -SN BKN030 BKN041 OVC055 M03/M08 A2970 RMK AO2 PK WND 33035/1907 UPB12E15SNE12B15 SLP064 P0000 T10331078 $
2026-03-16 18:59:00,SPECI KPWK 161859Z 34018G31KT 5SM -SN BKN030 BKN041 OVC055 M03/M09 A2967 RMK AO2 PK WND 34031/1854 P0000 T10331089 $
2026-03-16 18:52:00,METAR KPWK 161852Z 34018G29KT 6SM -SN BKN029 BKN042 OVC050 M03/M09 A2966 RMK AO2 PK WND 33038/1804 UPB26E35SNE26B35 SLP051 P0000 T10331094 $
2026-03-16 17:52:00,METAR KPWK 161752Z 33019G31KT 5SM -SN BKN026 BKN042 OVC050 M04/M08 A2964 RMK AO2 PK WND 33039/1727 UPB13E38SNB1653E13B38 SLP045 P0000 60000 T10391083 11033 21050 53022 $
2026-03-16 16:52:00,METAR KPWK 161652Z 34024G35KT 7SM SCT023 BKN028 OVC034 M04/M08 A2962 RMK AO2 PK WND 30042/1616 SNE39 SLP037 P0000 T10391083
2026-03-16 15:52:00,METAR KPWK 161552Z 32021G30KT 2SM -SN SCT017 BKN025 OVC044 M04/M08 A2960 RMK AO2 PK WND 32030/1550 SFC VIS 4 SLP029 P0000 T10391078
2026-03-16 15:26:00,SPECI KPWK 161526Z 32016G26KT 2SM -SN BKN019 BKN026 OVC044 M04/M07 A2959 RMK AO2 PK WND 34027/1501 SFC VIS 2 1/2 P0000 T10441072
2026-03-16 15:10:00,SPECI KPWK 161510Z 32017G27KT 3SM -SN BKN022 BKN031 OVC044 M04/M08 A2958 RMK AO2 PK WND 34027/1501 P0000 T10441078
2026-03-16 14:52:00,METAR KPWK 161452Z 32022G29KT 2SM -SN BKN022 BKN031 OVC044 M04/M07 A2957 RMK AO2 PK WND 32030/1428 TWR VIS 2 1/2 SLP021 P0000 60000 T10441072 51027
2026-03-16 13:52:00,METAR KPWK 161352Z 32018G30KT 2 1/2SM -SN BKN023 BKN046 OVC060 M05/M08 A2954 RMK AO2 PK WND 32030/1349 SLP011 P0000 T10501078
2026-03-16 13:50:00,SPECI KPWK 161350Z 32019G30KT 2 1/2SM -SN BKN023 BKN046 OVC060 M05/M08 A2954 RMK AO2 PK WND 32030/1349 P0000
2026-03-16 13:38:00,SPECI KPWK 161338Z 32017G24KT 4SM -SN BKN023 BKN046 OVC060 M05/M08 A2953 RMK AO2 PK WND 31028/1328 P0000 T10501078
2026-03-16 13:36:00,SPECI KPWK 161336Z 31016G28KT 3SM -SN M04/M07 A2953 RMK AO2 PK WND 31028/1328 P0000 T10441072
2026-03-16 13:23:00,SPECI KPWK 161323Z 31013G24KT 2 1/2SM -SN BR BKN021 BKN029 OVC046 M05/M07 A2953 RMK AO2 PK WND 31027/1253 P0000 T10501072
2026-03-16 13:12:00,SPECI KPWK 161312Z 32014G24KT 3SM -SN BR BKN021 BKN029 OVC046 M05/M07 A2952 RMK AO2 PK WND 31027/1253 PRESRR P0000 T10501072
2026-03-16 13:04:00,SPECI KPWK 161304Z 32014G26KT 2 1/2SM -SN BKN021 BKN029 OVC046 M05/M08 A2951 RMK AO2 PK WND 31027/1253 VIS 1 3/4V4 PRESRR P0000 T10501078
2026-03-16 12:59:00,SPECI KPWK 161259Z 32015G27KT 3SM -SN M05/M08 A2950 RMK AO2 PK WND 31027/1253 PRESRR P0000 T10501078
2026-03-16 12:52:00,METAR KPWK 161252Z 32015G24KT 3SM -SN BR BKN023 BKN042 OVC055 M05/M07 A2949 RMK AO2 PK WND 33029/1219 PRESRR SLP994 P0000 T10501072
2026-03-16 12:49:00,SPECI KPWK 161249Z 32014G26KT 3SM -SN BR BKN023 BKN042 OVC055 M05/M07 A2949 RMK AO2 PK WND 33029/1219 PRESRR P0000
2026-03-16 12:25:00,SPECI KPWK 161225Z 33019G29KT 3SM -SN VV009 M04/M07 A2947 RMK AO2 PK WND 33029/1219 PRESRR P0000 T10441072
2026-03-16 12:14:00,SPECI KPWK 161214Z 32021G28KT 1 1/2SM -SN BR VV009 M04/M07 A2945 RMK AO2 PK WND 32028/1211 P0000 T10441067
2026-03-16 11:59:00,SPECI KPWK 161159Z 32015G27KT 1 1/4SM -SN BR M04/M06 A2944 RMK AO2 PK WND 31026/1153 P0000 T10441061 $
2026-03-16 11:52:00,METAR KPWK 161152Z 32018G27KT 1 1/4SM -SN BR OVC013 M04/M06 A2943 RMK AO2 PK WND 32032/1111 SLP974 P0000 60004 70155 T10441056 11006 21044 53028 $
2026-03-16 11:34:00,SPECI KPWK 161134Z 32017G24KT 1 1/2SM -SN BR OVC013 M04/M06 A2942 RMK AO2 PK WND 32032/1111 P0000 T10441056 $
2026-03-16 11:17:00,SPECI KPWK 161117Z 33021G32KT 1 3/4SM -SN BR M04/M06 A2940 RMK AO2 PK WND 32032/1111 P0000 T10391061 $
2026-03-16 11:05:00,SPECI KPWK 161105Z 32018G28KT 2SM -SN BR M04/M06 A2939 RMK AO2 PK WND 33028/1057 P0000 T10391056 $
2026-03-16 10:52:00,METAR KPWK 161052Z AUTO 32016G24KT 3SM -SN BR M04/M06 A2939 RMK AO2 PK WND 34034/0957 SLP957 P0000 T10391056 $
2026-03-16 10:50:00,SPECI KPWK 161050Z AUTO 32013G25KT 3SM -SN BR M04/M06 A2938 RMK AO2 PK WND 34034/0957 P0000 $
2026-03-16 10:29:00,SPECI KPWK 161029Z AUTO 33016G23KT 2SM -SN BR M03/M05 A2936 RMK AO2 PK WND 34034/0957 P0000 T10331050 $
2026-03-16 10:22:00,SPECI KPWK 161022Z AUTO 33013G25KT 1SM -SN BR M04/M04 A2935 RMK AO2 PK WND 34034/0957 P0000 T10391044 $
2026-03-16 10:15:00,SPECI KPWK 161015Z AUTO 34015G25KT 1 1/4SM -SN BR M03/M05 A2935 RMK AO2 PK WND 34034/0957 P0000 T10331050 $
2026-03-16 09:52:00,METAR KPWK 160952Z AUTO 32019G28KT 1SM -SN BR M03/M04 A2935 RMK AO2 PK WND 32028/0949 SLP944 P0001 T10331044 $
2026-03-16 09:44:00,SPECI KPWK 160944Z AUTO 32014G23KT 1 1/4SM -SN BR M03/M04 A2936 RMK AO2 P0001 T10331044 $
2026-03-16 09:34:00,SPECI KPWK 160934Z AUTO 31014KT 2 1/2SM -SN BR M03/M04 A2936 RMK AO2 P0001 T10281044 $
2026-03-16 09:23:00,SPECI KPWK 160923Z AUTO 31013G24KT 3SM -SN BR OVC012 M03/M04 A2935 RMK AO2 P0001 T10281044 $
2026-03-16 09:03:00,SPECI KPWK 160903Z AUTO 33015G25KT 2 1/2SM -SN BR OVC011 M03/M04 A2932 RMK AO2 P0000 T10281039 $
2026-03-16 08:52:00,METAR KPWK 160852Z AUTO 33017G23KT 2 1/2SM -SN BR OVC009 M03/M04 A2933 RMK AO2 PK WND 33030/0833 SLP936 P0000 60003 T10281039 50007 $
2026-03-16 08:50:00,SPECI KPWK 160850Z AUTO 32014G24KT 2 1/2SM -SN BR OVC009 M03/M04 A2933 RMK AO2 PK WND 33030/0833 P0000 $
2026-03-16 08:17:00,SPECI KPWK 160817Z AUTO 30014G21KT 1 1/4SM -SN BR OVC006 M03/M03 A2932 RMK AO2 P0000 T10281033
2026-03-16 07:52:00,METAR KPWK 160752Z AUTO 31014KT 1SM -SN BR VV005 M02/M03 A2932 RMK AO2 SLP932 P0002 T10221028
2026-03-16 07:36:00,SPECI KPWK 160736Z AUTO 31009KT 3/4SM -SN BR VV006 M02/M02 A2932 RMK AO2 P0001 T10171022
2026-03-16 07:29:00,SPECI KPWK 160729Z AUTO 30012KT 1SM -SN BR VV007 M02/M02 A2933 RMK AO2 P0001 T10171022
2026-03-16 07:05:00,SPECI KPWK 160705Z AUTO 32011G20KT 1 1/4SM -SN BR OVC009 M01/M02 A2932 RMK AO2 PRESRR P0000 T10111022
2026-03-16 06:52:00,METAR KPWK 160652Z AUTO 33010G17KT 1 3/4SM -SN BR OVC010 M01/M02 A2930 RMK AO2 PRESRR SLP925 P0001 T10111022
2026-03-16 06:44:00,SPECI KPWK 160644Z AUTO 34008G22KT 2SM -SN BR OVC010 M01/M02 A2929 RMK AO2 P0001 T10111022
2026-03-16 06:30:00,SPECI KPWK 160630Z AUTO 35013G23KT 1 3/4SM -SN BR OVC010 M01/M02 A2928 RMK AO2 P0001 T10111017
2026-03-16 06:16:00,SPECI KPWK 160616Z AUTO 35010G20KT 2SM -SN BR OVC009 M01/M02 A2927 RMK AO2 P0000 T10111017
2026-03-16 06:04:00,SPECI KPWK 160604Z AUTO 36014G23KT 1 3/4SM -SN BR OVC009 M01/M02 A2925 RMK AO2 P0000 T10111017
2026-03-16 05:52:00,METAR KPWK 160552Z AUTO 36014G28KT 2SM -SN BR OVC009 M01/M02 A2927 RMK AO2 PK WND 36028/0543 PRESRR SLP914 P0000 60050 T10061017 10017 21011 401561011 55012
2026-03-16 05:50:00,SPECI KPWK 160550Z AUTO 36016G28KT 2SM -SN BR OVC008 M01/M02 A2926 RMK AO2 PK WND 36028/0543 PRESRR P0000
2026-03-16 04:56:00,SPECI KPWK 160456Z AUTO 35014G24KT 1 3/4SM -SN BR OVC009 M01/M01 A2929 RMK AO2 P0000 T10061011
2026-03-16 04:52:00,METAR KPWK 160452Z AUTO 36013G22KT 2SM -SN BR OVC010 M01/M01 A2930 RMK AO2 PK WND 01027/0403 UPE08B31E43SNB0355E05B08E31B43 SLP924 P0002 T10061011
2026-03-16 04:22:00,SPECI KPWK 160422Z AUTO 35014G24KT 2 1/2SM -SN BR OVC011 M01/M01 A2930 RMK AO2 PK WND 01027/0403 UPE08SNB0355E05B08 P0001 T10061011
2026-03-16 03:52:00,METAR KPWK 160352Z AUTO 36012G26KT 3SM UP BR OVC010 00/M01 A2930 RMK AO2 PK WND 36029/0318 RAE31UPB0257E0259B31 SLP926 P0002 T00001011
2026-03-16 03:38:00,SPECI KPWK 160338Z AUTO 01013G29KT 2 1/2SM UP BR OVC009 00/M01 A2931 RMK AO2 PK WND 36029/0318 RAE31UPB0257E0259B31 P0002 T00001006
2026-03-16 03:29:00,SPECI KPWK 160329Z AUTO 36015G29KT 2SM RA BR OVC010 00/M01 A2931 RMK AO2 PK WND 36029/0318 UPB0257E0259 P0002 T00001006
2026-03-16 02:52:00,METAR KPWK 160252Z 36020G29KT 10SM -RA OVC012 01/M01 A2930 RMK AO2 PK WND 03029/0222 SLP925 P0011 60046 T00111006 58018
2026-03-16 01:52:00,METAR KPWK 160152Z 01012G23KT 3SM RA OVC009 01/00 A2932 RMK AO2 SFC VIS 7 SLP933 P0022 T00110000
2026-03-16 00:52:00,METAR KPWK 160052Z 01014G21KT 3SM +RA BR OVC009 02/01 A2935 RMK AO2 SFC VIS 6 LTG DSNT E-S SLP943 P0013 T00170006
2026-03-16 00:22:00,SPECI KPWK 160022Z 36012G16KT 3SM -RA OVC009 02/01 A2934 RMK AO2 SFC VIS 9 LTG DSNT E-S P0004 T00170006
2026-03-16 00:07:00,SPECI KPWK 160007Z 03011G21KT 3SM VCTS RA OVC009 02/01 A2934 RMK AO2 SFC VIS 8 LTG DSNT E-S P0003 T00170011
2026-03-15 23:52:00,METAR KPWK 152352Z 36009G16KT 3SM RA OVC009 02/01 A2935 RMK AO2 SFC VIS 8 LTG DSNT SE AND S TSB2248E12 SLP944 P0034 60089 T00170011 10156 20017 50019
2026-03-15 23:42:00,SPECI KPWK 152342Z 01013G19KT 2SM RA BR BKN007 OVC017 02/01 A2935 RMK AO2 SFC VIS 5 LTG DSNT S TSB2248E12 P0032 T00170011
2026-03-15 23:26:00,SPECI KPWK 152326Z 02006KT 1SM +RA BR BKN007 OVC017 02/01 A2934 RMK AO2 SFC VIS 4 LTG DSNT NE-SE TSB2248E12 P0026 T00170011
2026-03-15 23:18:00,SPECI KPWK 152318Z 04009G18KT 1SM VCTS RA BKN007 OVC017 02/01 A2934 RMK AO2 SFC VIS 7 LTG DSNT ALQDS TSB2248E12 P0019 T00170011
2026-03-15 22:54:00,SPECI KPWK 152254Z 01011G18KT 1SM +TSRA BR BKN007 OVC017 02/02 A2936 RMK AO2 SFC VIS 2 1/2 LTG DSNT ALQDS TSB48 P0009 T00220017
2026-03-15 22:50:00,SPECI KPWK 152250Z 02012G17KT 2 1/2SM +TSRA BR SCT007 OVC015 02/02 A2936 RMK AO2 SFC VIS 3 LTG DSNT ALQDS TSB48 P0004 T00220017
2026-03-15 22:47:00,METAR KPWK 152247Z 35010G22KT 2 1/2SM VCTS +RA BR SCT007 OVC013 02/02 A2937 RMK AO2 SFC VIS 3 LTG DSNT ALQDS SLP949 P0030 T00220017
2026-03-15 22:46:00,SPECI KPWK 152246Z 35009G24KT -14430V360 2 1/2SM VCTS +RA BR SCT007 OVC011 02/02 A2937 RMK AO2 SFC VIS 3 LTG DSNT ALQDS P0029
2026-03-15 21:52:00,METAR KPWK 152152Z 03012KT 2 1/2SM +RA BR BKN007 BKN011 OVC018 03/02 A2933 RMK AO2 PK WND 34035/2059 WSHFT 2043 VIS 1 3/4V3 LTG DSNT NE RAB00 SLP935 P0019 T00280022
2026-03-15 21:41:00,SPECI KPWK 152141Z 03009G19KT 2 1/2SM RA BR BKN007 BKN011 OVC018 03/02 A2933 RMK AO2 PK WND 34035/2059 WSHFT 2043 SFC VIS 3 LTG DSNT N RAB00 P0013 T00280022
2026-03-15 21:33:00,SPECI KPWK 152133Z 03011G20KT 4SM -RA BR BKN007 BKN011 OVC018 03/02 A2933 RMK AO2 PK WND 34035/2059 WSHFT 2043 LTG DSNT N RAB00 P0010 T00280022
2026-03-15 21:12:00,SPECI KPWK 152112Z 01015G25KT 2 1/2SM +RA BR BKN007 BKN011 OVC018 03/02 A2934 RMK AO2 PK WND 34035/2059 WSHFT 2043 LTG DSNT N AND NW RAB00 P0004 T00330022
2026-03-15 20:59:00,SPECI KPWK 152059Z 34022G35KT 10SM BKN005 BKN012 OVC028 05/04 A2935 RMK AO2 PK WND 34035/2059 WSHFT 2043 LTG DSNT W-N CIG 005V011 PRESRR T00500044
2026-03-15 20:54:00,SPECI KPWK 152054Z 36017G26KT 10SM SCT006 BKN010 OVC028 06/05 A2930 RMK AO2 LTG DSNT W-N PRESRR T00610050
2026-03-15 20:52:00,METAR KPWK 152052Z AUTO 36018G26KT 10SM SCT006 SCT010 OVC028 06/05 A2930 RMK AO2 PK WND 36026/2048 LTG DSNT W-N RAE45 PRESRR SLP924 P0002 60006 T00610050 55005
2026-03-15 19:52:00,METAR KPWK 151952Z 19013G23KT 7SM -RA BKN026 BKN034 OVC040 14/12 A2927 RMK AO2 SLP913 P0002 T01440122
2026-03-15 18:52:00,METAR KPWK 151852Z 20013G25KT 10SM -RA BKN025 BKN031 OVC039 14/12 A2931 RMK AO2 PK WND 21032/1816 RAB16 SLP927 P0002 T01390117
2026-03-15 18:40:00,SPECI KPWK 151840Z 20016G24KT 9SM -RA BKN026 OVC035 14/12 A2932 RMK AO2 PK WND 21032/1816 RAB16 P0002 T01390117
2026-03-15 17:52:00,METAR KPWK 151752Z 20018G26KT 10SM FEW027 BKN070 OVC090 14/11 A2934 RMK AO2 PK WND 18027/1708 RAE04 SLP937 P0001 60012 T01390106 10139 20033 56034
2026-03-15 16:52:00,METAR KPWK 151652Z 18016KT 8SM -RA FEW024 BKN070 OVC095 12/10 A2937 RMK AO2 SLP948 P0011 T01170100
2026-03-15 15:52:00,METAR KPWK 151552Z 19015KT 10SM -RA BKN090 OVC110 12/07 A2941 RMK AO2 RAB28 SLP961 P0000 T01170067
2026-03-15 15:45:00,SPECI KPWK 151545Z 19013G19KT 10SM -RA BKN095 OVC120 12/06 A2941 RMK AO2 RAB28 PRESFR P0000 T01170056
2026-03-15 14:52:00,METAR KPWK 151452Z 00000KT 10SM FEW110 08/01 A2944 RMK AO2 SLP973 T00830006 56049
2026-03-15 13:52:00,METAR KPWK 151352Z 11005KT 10SM FEW100 06/M01 A2947 RMK AO2 PRESFR SLP982 T00561006
2026-03-15 12:52:00,METAR KPWK 151252Z 11005KT 10SM FEW080 SCT100 04/M02 A2954 RMK AO2 PRESFR SLP008 T00391017
2026-03-15 11:52:00,METAR KPWK 151152Z 10006KT 10SM CLR 03/M02 A2959 RMK AO2 SLP025 60000 T00331022 10033 20022 58058
2026-03-15 10:52:00,METAR KPWK 151052Z AUTO 09007KT 10SM FEW090 03/M02 A2965 RMK AO2 SLP047 T00281022
2026-03-15 09:52:00,METAR KPWK 150952Z AUTO 10010KT 10SM FEW031 BKN095 OVC110 03/M02 A2971 RMK AO2 RAB31E43 SLP065 P0000 T00281017
2026-03-15 08:52:00,METAR KPWK 150852Z AUTO 08009KT 10SM BKN110 03/M02 A2976 RMK AO2 LTG DSNT W SLP084 T00281022 58047
