Time_recorded,METAR
2026-05-02 14:56:00,METAR KJAC 021456Z 00000KT 10SM CLR 04/M07 A3026 RMK AO2 SLP247 T00391067 50003
2026-05-02 13:56:00,METAR KJAC 021356Z 00000KT 10SM CLR 00/M06 A3027 RMK AO2 SLP253 T00001061
2026-05-02 12:56:00,METAR KJAC 021256Z 03003KT 10SM CLR M04/M07 A3026 RMK AO2 SLP248 T10441072
2026-05-02 11:56:00,METAR KJAC 021156Z AUTO 02006KT 10SM CLR M05/M08 A3025 RMK AO2 SLP250 T10501078 10017 21050 50003 FZRANO
2026-05-02 10:56:00,METAR KJAC 021056Z AUTO 34004KT 10SM CLR M02/M07 A3026 RMK AO2 SLP242 T10221067 FZRANO
2026-05-02 09:56:00,METAR KJAC 020956Z AUTO 03006KT 10SM CLR M03/M08 A3025 RMK AO2 SLP242 T10331078 FZRANO
2026-05-02 08:56:00,METAR KJAC 020856Z AUTO 06003KT 10SM CLR M02/M07 A3024 RMK AO2 SLP240 T10221067 51007 FZRANO
2026-05-02 07:56:00,METAR KJAC 020756Z AUTO 02006KT 10SM CLR M01/M06 A3024 RMK AO2 SLP237 T10061061 FZRANO
2026-05-02 06:56:00,METAR KJAC 020656Z AUTO 35003KT 10SM CLR M01/M06 A3023 RMK AO2 SLP238 T10111061 401611061 FZRANO
2026-05-02 05:56:00,METAR KJAC 020556Z AUTO 36004KT 10SM CLR 02/M07 A3022 RMK AO2 SLP234 T00171067 10156 21011 51014 FZRANO
2026-05-02 04:56:00,METAR KJAC 020456Z AUTO 36005KT 10SM CLR 01/M06 A3021 RMK AO2 SLP236 T00111061 FZRANO
2026-05-02 03:56:00,METAR KJAC 020356Z AUTO 09004KT 10SM CLR 08/M08 A3020 RMK AO2 SLP220 T00781078
2026-05-02 02:56:00,METAR KJAC 020256Z 00000KT 10SM CLR 08/M07 A3017 RMK AO2 SLP217 T00781067 53004
2026-05-02 01:56:00,METAR KJAC 020156Z 32005KT 10SM CLR 11/M08 A3016 RMK AO2 SLP215 T01111078
2026-05-02 00:56:00,METAR KJAC 020056Z 35006KT 10SM CLR 15/M11 A3016 RMK AO2 SLP215 T01501106
2026-05-01 23:56:00,METAR KJAC 012356Z 33010KT 10SM CLR 15/M12 A3016 RMK AO2 SLP215 T01501117 10161 20089 56009
2026-05-01 22:56:00,METAR KJAC 012256Z 02012G16KT 10SM CLR 16/M12 A3016 RMK AO2 SLP216 T01561117
2026-05-01 21:56:00,METAR KJAC 012156Z 36008KT 10SM CLR 16/M11 A3017 RMK AO2 SLP220 T01561111
2026-05-01 20:56:00,METAR KJAC 012056Z 22006KT 10SM CLR 14/M11 A3019 RMK AO2 SLP223 T01441106 56012
2026-05-01 19:56:00,METAR KJAC 011956Z 33005KT 10SM CLR 13/M09 A3020 RMK AO2 SLP226 T01281089
2026-05-01 18:56:00,METAR KJAC 011856Z 04003KT 10SM CLR 12/M11 A3021 RMK AO2 SLP228 T01171111
2026-05-01 17:56:00,METAR KJAC 011756Z 00000KT 10SM CLR 09/M09 A3023 RMK AO2 SLP244 T00941094 10094 21061 58009
2026-05-01 16:56:00,METAR KJAC 011656Z VRB03KT 10SM CLR 08/M06 A3025 RMK AO2 SLP254 T00781061
2026-05-01 15:56:00,METAR KJAC 011556Z 17003KT 10SM CLR 06/M06 A3026 RMK AO2 SLP256 T00561061
2026-05-01 14:56:00,METAR KJAC 011456Z 01006KT 10SM CLR 03/M07 A3027 RMK AO2 SLP260 T00281067 50009
2026-05-01 13:56:00,METAR KJAC 011356Z 02004KT 10SM CLR M01/M06 A3027 RMK AO2 SLP263 T10111061
2026-05-01 12:56:00,METAR KJAC 011256Z 06005KT 10SM CLR M05/M08 A3025 RMK AO2 SLP261 T10501078
2026-05-01 11:56:00,METAR KJAC 011156Z AUTO 03006KT 10SM CLR M06/M08 A3023 RMK AO2 SLP253 T10561078 10006 21061 53003 FZRANO
2026-05-01 10:56:00,METAR KJAC 011056Z AUTO 05003KT 10SM CLR M06/M08 A3023 RMK AO2 SLP255 T10611083 FZRANO
2026-05-01 09:56:00,METAR KJAC 010956Z AUTO 03005KT 10SM CLR M06/M08 A3022 RMK AO2 SLP249 T10561083 FZRANO
2026-05-01 08:56:00,METAR KJAC 010856Z AUTO 02004KT 10SM CLR M04/M07 A3022 RMK AO2 SLP247 T10391072 51004 FZRANO
2026-05-01 07:56:00,METAR KJAC 010756Z AUTO 04005KT 10SM CLR M02/M07 A3022 RMK AO2 SLP246 T10221072 FZRANO
2026-05-01 06:56:00,METAR KJAC 010656Z AUTO 33005KT 10SM CLR 00/M08 A3022 RMK AO2 SLP241 T00001078 401171028 FZRANO
2026-05-01 05:56:00,METAR KJAC 010556Z AUTO 21003KT 10SM CLR M01/M08 A3021 RMK AO2 SLP241 T10061078 10111 21006 51016 FZRANO
2026-05-01 04:56:00,METAR KJAC 010456Z AUTO 02011KT 10SM CLR 00/M08 A3019 RMK AO2 SLP237 T00001078 FZRANO
2026-05-01 03:56:00,METAR KJAC 010356Z AUTO 03009KT 10SM CLR 02/M08 A3017 RMK AO2 SLP229 T00171083 FZRANO
2026-05-01 02:56:00,METAR KJAC 010256Z 04009KT 10SM CLR 04/M09 A3015 RMK AO2 SLP218 T00441089 53009
2026-05-01 01:56:00,METAR KJAC 010156Z 36007KT 10SM CLR 07/M10 A3013 RMK AO2 SLP212 T00721100
2026-05-01 00:56:00,METAR KJAC 010056Z 35011KT 10SM CLR 10/M11 A3012 RMK AO2 SLP206 T01001106
2026-04-30 23:56:00,METAR KJAC 302356Z 01011KT 10SM CLR 11/M11 A3012 RMK AO2 SLP204 T01111106 10117 20067 56006
2026-04-30 22:56:00,METAR KJAC 302256Z 02011G15KT 10SM CLR 11/M10 A3012 RMK AO2 SLP207 T01061100
2026-04-30 21:56:00,METAR KJAC 302156Z 03008G17KT 10SM FEW080 11/M09 A3013 RMK AO2 SLP207 T01111094
2026-04-30 20:56:00,METAR KJAC 302056Z VRB05G16KT 10SM FEW075 11/M09 A3014 RMK AO2 SLP209 T01061089 56012
2026-04-30 19:56:00,METAR KJAC 301956Z 33005G15KT 10SM CLR 08/M09 A3015 RMK AO2 SLP217 T00831089
2026-04-30 18:56:00,METAR KJAC 301856Z 34007KT 300V010 10SM CLR 09/M07 A3016 RMK AO2 SLP219 T00891072
2026-04-30 17:56:00,METAR KJAC 301756Z 04007KT 010V110 10SM CLR 07/M07 A3018 RMK AO2 SLP233 T00721072 10078 21028 56007
2026-04-30 16:56:00,METAR KJAC 301656Z 02010G16KT 10SM CLR 06/M07 A3019 RMK AO2 SLP235 T00611072
2026-04-30 15:56:00,METAR KJAC 301556Z 02013KT 10SM CLR 04/M06 A3020 RMK AO2 SLP239 T00441061
2026-04-30 14:56:00,METAR KJAC 301456Z 02014KT 10SM CLR 03/M06 A3021 RMK AO2 SLP247 T00281061 50001
2026-04-30 13:56:00,METAR KJAC 301356Z 02014KT 10SM SCT038 00/M04 A3021 RMK AO2 SLP256 T00001044
2026-04-30 12:56:00,METAR KJAC 301256Z 01014KT 10SM BKN040 M02/M05 A3021 RMK AO2 SLP256 T10221050
2026-04-30 11:56:00,METAR KJAC 301156Z AUTO 02013KT 10SM BKN040 M02/M04 A3020 RMK AO2 SLP248 T10221039 10000 21028 53002 FZRANO
2026-04-30 10:56:00,METAR KJAC 301056Z AUTO 02012KT 10SM FEW039 M03/M04 A3020 RMK AO2 SLP245 T10281039 FZRANO
2026-04-30 09:56:00,METAR KJAC 300956Z AUTO 02013KT 10SM CLR M02/M04 A3019 RMK AO2 SLP242 T10171039 FZRANO
2026-04-30 08:56:00,METAR KJAC 300856Z AUTO 02012KT 10SM CLR M01/M03 A3020 RMK AO2 SLP243 T10111028 58001 FZRANO
2026-04-30 07:56:00,METAR KJAC 300756Z AUTO 02011KT 10SM CLR M01/M03 A3020 RMK AO2 SLP243 T10111033 FZRANO
2026-04-30 06:56:00,METAR KJAC 300656Z AUTO 01011KT 10SM CLR M01/M02 A3020 RMK AO2 SLP243 T10061022 400721044 FZRANO
2026-04-30 05:56:00,METAR KJAC 300556Z AUTO 00000KT 10SM CLR M01/M03 A3020 RMK AO2 SLP250 60000 T10111028 10050 21011 50004 FZRANO
2026-04-30 04:56:00,METAR KJAC 300456Z AUTO 33005KT 10SM CLR 00/M02 A3020 RMK AO2 SLP243 T00001022 FZRANO
2026-04-30 03:56:00,METAR KJAC 300356Z AUTO 01010KT 10SM CLR 02/M02 A3020 RMK AO2 SLP242 T00171017 FZRANO
2026-04-30 02:56:00,METAR KJAC 300256Z 36005KT 10SM FEW090 01/M01 A3019 RMK AO2 SLP246 60000 T00111006 53010
2026-04-30 01:56:00,METAR KJAC 300156Z 21004KT 10SM CLR 02/M01 A3017 RMK AO2 SLP241 T00221006
2026-04-30 00:56:00,METAR KJAC 300056Z 13010KT 10SM OVC065 03/01 A3015 RMK AO2 WSHFT 2353 RAB07E42 SLP243 P0000 T00280006
2026-04-30 00:32:00,SPECI KJAC 300032Z 14007KT 10SM -RA FEW008 SCT026 OVC065 03/00 A3016 RMK AO2 WSHFT 2353 RAB07 P0000
2026-04-30 00:20:00,SPECI KJAC 300020Z 16003KT 5SM -RA SCT009 BKN021 OVC046 03/M01 A3017 RMK AO2 WSHFT 2353 RAB07 P0000
2026-04-30 00:13:00,SPECI KJAC 300013Z 30007G19KT 8SM -RA FEW011 BKN035 OVC046 03/M01 A3017 RMK AO2 WSHFT 2353 RAB07 P0000
2026-04-29 23:56:00,METAR KJAC 292356Z 31011KT 10SM OVC046 06/M02 A3015 RMK AO2 SLP233 60000 T00561022 10072 20028 55002
2026-04-29 22:56:00,METAR KJAC 292256Z 01011KT 10SM BKN065 BKN080 07/M02 A3014 RMK AO2 RAE01 SLP225 P0000 T00721017
2026-04-29 21:56:00,METAR KJAC 292156Z 31008KT 10SM -RA FEW040 BKN049 OVC075 06/M02 A3015 RMK AO2 RAB45 SLP228 P0000 T00611017
2026-04-29 20:56:00,METAR KJAC 292056Z 33010KT 10SM FEW040 BKN049 OVC090 06/M01 A3016 RMK AO2 SLP236 60000 T00561011 56007
2026-04-29 19:56:00,METAR KJAC 291956Z 02008KT 10SM FEW031 BKN049 OVC110 07/M02 A3016 RMK AO2 RAB16E34 SLP229 P0000 T00671022
2026-04-29 18:56:00,METAR KJAC 291856Z 00000KT 10SM BKN060 06/M05 A3017 RMK AO2 UPB1757E1759RAB10E22SNE1757 SLP235 P0000 T00561050
2026-04-29 18:22:00,SPECI KJAC 291822Z 16007KT 10SM FEW021 SCT032 04/M02 A3018 RMK AO2 UPB1757E1759RAB10E22SNE1757 P0000
2026-04-29 17:56:00,METAR KJAC 291756Z 00000KT 6SM -SN FEW012 BKN026 OVC044 03/M03 A3019 RMK AO2 RAB37E43SNB43 SLP246 P0000 60000 T00281028 10067 21044 53001
2026-04-29 17:51:00,SPECI KJAC 291751Z 10004KT 2 1/2SM -SN FEW012 BKN028 OVC046 03/M02 A3019 RMK AO2 VIS 1 1/4V5 RAB37E43SNB43 P0000
2026-04-29 16:56:00,METAR KJAC 291656Z 15006KT 10SM SCT075 05/M04 A3018 RMK AO2 SLP239 T00501039
2026-04-29 15:56:00,METAR KJAC 291556Z 00000KT 10SM CLR 03/M04 A3018 RMK AO2 SLP239 T00331039
2026-04-29 14:56:00,METAR KJAC 291456Z 00000KT 10SM CLR 01/M04 A3020 RMK AO2 SLP247 T00111039 51006
2026-04-29 13:56:00,METAR KJAC 291356Z 00000KT 10SM BKN060 M02/M04 A3020 RMK AO2 SLP249 T10171039
2026-04-29 12:56:00,METAR KJAC 291256Z 00000KT 10SM SCT060 M04/M05 A3019 RMK AO2 SLP246 T10391050
2026-04-29 11:56:00,METAR KJAC 291156Z AUTO 00000KT 10SM CLR M04/M06 A3018 RMK AO2 SLP242 70001 T10391061 10000 21039 50002 FZRANO
2026-04-29 10:56:00,METAR KJAC 291056Z AUTO 35003KT 10SM FEW050 M03/M04 A3018 RMK AO2 SLP243 T10331044 FZRANO
2026-04-29 09:56:00,METAR KJAC 290956Z AUTO 00000KT 10SM OVC075 M02/M03 A3017 RMK AO2 SLP238 T10221033 FZRANO
2026-04-29 08:56:00,METAR KJAC 290856Z AUTO 00000KT 10SM BKN070 M03/M05 A3017 RMK AO2 SLP243 T10331050 50000 FZRANO
2026-04-29 07:56:00,METAR KJAC 290756Z AUTO 03003KT 10SM SCT075 M02/M04 A3018 RMK AO2 SLP246 T10171039 FZRANO
2026-04-29 06:56:00,METAR KJAC 290656Z AUTO 00000KT 10SM OVC075 M02/M04 A3018 RMK AO2 SLP240 T10171039 400781028 FZRANO
2026-04-29 05:56:00,METAR KJAC 290556Z AUTO 00000KT 10SM BKN070 BKN085 M01/M04 A3017 RMK AO2 SLP237 T10061039 10072 21028 51009 FZRANO
2026-04-29 04:56:00,METAR KJAC 290456Z AUTO 01008KT 10SM FEW070 M02/M05 A3016 RMK AO2 SLP240 T10221050 FZRANO
2026-04-29 03:56:00,METAR KJAC 290356Z AUTO 00000KT 10SM CLR 01/M04 A3016 RMK AO2 SLP233 T00061044 FZRANO
2026-04-29 02:56:00,METAR KJAC 290256Z 02004KT 10SM CLR 02/M06 A3014 RMK AO2 SLP232 T00171061 53008
2026-04-29 02:42:00,SPECI KJAC 290242Z 02006KT 10SM CLR 01/M05 A3013 RMK AO2
2026-04-29 01:56:00,METAR KJAC 290156Z 00000KT 10SM CLR 04/M06 A3012 RMK AO2 SLP218 T00391056
2026-04-29 00:56:00,METAR KJAC 290056Z 31008KT 10SM FEW037 BKN065 06/M07 A3012 RMK AO2 SLP215 T00561072
2026-04-28 23:56:00,METAR KJAC 282356Z 25006G16KT 10SM FEW060 06/M09 A3011 RMK AO2 SLP212 60000 T00611089 10078 20028 56003
2026-04-28 22:56:00,METAR KJAC 282256Z 24012G19KT 10SM BKN090 06/M06 A3011 RMK AO2 SLP215 T00561056
2026-04-28 21:56:00,METAR KJAC 282156Z 29008KT 10SM BKN060 OVC090 06/M07 A3011 RMK AO2 SLP212 T00561067
2026-04-28 20:56:00,METAR KJAC 282056Z VRB03KT 10SM FEW026 BKN049 BKN090 04/M06 A3012 RMK AO2 SNE05 SLP219 P0000 60000 T00441061 53002
2026-04-28 20:17:00,SPECI KJAC 282017Z VRB04KT 10SM FEW015 BKN047 OVC080 04/M05 A3012 RMK AO2 SNE05 P0000
2026-04-28 20:07:00,SPECI KJAC 282007Z 15006KT 10SM SCT015 BKN029 BKN039 04/M03 A3012 RMK AO2 SNE05 P0000
2026-04-28 19:56:00,METAR KJAC 281956Z 16007KT 6SM -SN FEW018 BKN036 BKN050 03/M04 A3012 RMK AO2 SNB54 SLP222 P0000 T00281044
2026-04-28 18:56:00,METAR KJAC 281856Z 21006KT 10SM BKN060 BKN075 04/M05 A3011 RMK AO2 SLP216 T00441050
2026-04-28 17:56:00,METAR KJAC 281756Z 20004KT 10SM SCT042 BKN060 04/M05 A3011 RMK AO2 SLP220 60001 T00391050 10044 21022 51006
2026-04-28 16:56:00,METAR KJAC 281656Z 17006KT 10SM FEW042 OVC055 03/M04 A3011 RMK AO2 RAB05E15 SLP223 P0000 T00281044
2026-04-28 15:56:00,METAR KJAC 281556Z 18006KT 10SM FEW011 SCT028 OVC055 03/01 A3011 RMK AO2 UPB15E20SNE15 SLP221 P0000 T00280006
2026-04-28 15:31:00,SPECI KJAC 281531Z 23006KT 10SM SCT005 BKN044 OVC050 01/M01 A3010 RMK AO2 UPB15E20SNE15 P0000
2026-04-28 15:24:00,SPECI KJAC 281524Z 20007KT 10SM BKN005 OVC046 01/M01 A3010 RMK AO2 UPB15E20SNE15 CIG 004V009 P0000
2026-04-28 15:05:00,SPECI KJAC 281505Z VRB03KT 3SM -SN BR BKN007 OVC047 00/M01 A3010 RMK AO2 CIG 004V012 P0000
2026-04-28 15:01:00,SPECI KJAC 281501Z 00000KT 1 1/4SM -SN BR BKN007 OVC047 M01/M02 A3010 RMK AO2 VIS 1/2V4 CIG 004V012 P0000
2026-04-28 14:56:00,METAR KJAC 281456Z 19005KT 3/4SM -SN BR OVC007 M01/M02 A3009 RMK AO2 UPB1358E51SNE1358B51 CIG 004V010 SLP221 P0000 60001 T10061017 51019
2026-04-28 14:53:00,SPECI KJAC 281453Z 19007KT 1SM -SN BR OVC007 M01/M02 A3009 RMK AO2 UPB1358E51SNE1358B51 CIG 004V010 P0000
2026-04-28 14:50:00,SPECI KJAC 281450Z 20007KT 2SM UP BR OVC007 M01/M02 A3009 RMK AO2 UPB1358SNE1358 CIG 005V010 P0000
2026-04-28 14:08:00,SPECI KJAC 281408Z 21003KT 10SM UP OVC005 M01/M02 A3008 RMK AO2 UPB1358SNE1358 CIG 003V008 P0000
2026-04-28 13:56:00,METAR KJAC 281356Z 16004KT 9SM -SN OVC007 M01/M02 A3007 RMK AO2 UPB10E24SNB25 CIG 003V012 SLP212 P0001 T10111022
2026-04-28 13:49:00,SPECI KJAC 281349Z 15004KT 5SM -SN BR BKN005 OVC011 M01/M02 A3007 RMK AO2 UPB10E24SNB25 CIG 003V008 P0001
2026-04-28 13:43:00,SPECI KJAC 281343Z 15003KT 2SM -SN BR FEW003 BKN008 OVC015 M02/M02 A3007 RMK AO2 UPB10E24SNB25 CIG 005V013 P0001
2026-04-28 13:39:00,SPECI KJAC 281339Z 16004KT 1SM -SN BR FEW005 BKN010 OVC015 M02/M02 A3006 RMK AO2 UPB10E24SNB25 CIG 007V013 P0001
2026-04-28 13:30:00,SPECI KJAC 281330Z 16004KT 1/2SM -SN FZFG BKN006 BKN009 OVC015 M02/M02 A3006 RMK AO2 UPB10E24SNB25 CIG 003V008 P0001
2026-04-28 13:27:00,SPECI KJAC 281327Z 18003KT 1SM -SN BR FEW003 BKN009 OVC015 M02/M02 A3006 RMK AO2 UPB10E24SNB25 CIG 006V011 P0000
2026-04-28 13:23:00,SPECI KJAC 281323Z 20004KT 2 1/2SM UP BR FEW003 BKN009 OVC015 M02/M02 A3006 RMK AO2 VIS 1 1/4V5 UPB10 CIG 007V011 P0000
2026-04-28 13:21:00,SPECI KJAC 281321Z 20003KT 4SM UP BR SCT003 BKN008 OVC015 M02/M02 A3006 RMK AO2 UPB10 P0000
2026-04-28 12:56:00,METAR KJAC 281256Z 00000KT 10SM OVC003 M02/M03 A3004 RMK AO2 UPE39 SLP194 P0000 T10171028
2026-04-28 11:56:00,METAR KJAC 281156Z AUTO 00000KT 10SM UP BKN003 OVC008 M02/M03 A3002 RMK AO2 UPB04E11B38SNB11E38 SLP184 P0000 60000 T10171028 11011 21022 51006 FZRANO
2026-04-28 11:20:00,SPECI KJAC 281120Z AUTO 00000KT 9SM -SN OVC003 M02/M03 A3002 RMK AO2 UPB04E11SNB11 P0000 FZRANO
2026-04-28 10:56:00,METAR KJAC 281056Z AUTO 22003KT 10SM BKN005 M02/M03 A3001 RMK AO2 UPE09B25E28SNB09E25 CIG 003V008 SLP185 P0000 T10221033 FZRANO
2026-04-28 10:51:00,SPECI KJAC 281051Z AUTO 20003KT 10SM BKN005 M02/M03 A3001 RMK AO2 UPE09B25E28SNB09E25 CIG 003V008 P0000 FZRANO
2026-04-28 10:39:00,SPECI KJAC 281039Z AUTO 14005KT 10SM SCT005 SCT022 BKN065 M02/M03 A3001 RMK AO2 UPE09B25E28SNB09E25 P0000 FZRANO
2026-04-28 10:16:00,SPECI KJAC 281016Z AUTO 19004KT 9SM -SN BKN005 BKN009 OVC020 M02/M02 A3000 RMK AO2 UPE09SNB09 CIG 004V008 P0000 FZRANO
2026-04-28 09:56:00,METAR KJAC 280956Z AUTO 00000KT 10SM UP BKN006 OVC010 M02/M02 A3000 RMK AO2 UPB18E26B51SNE18 CIG 004V008 SLP170 P0000 T10171022 FZRANO
2026-04-28 08:56:00,METAR KJAC 280856Z AUTO 09003KT 10SM -SN BKN006 OVC060 M02/M02 A2999 RMK AO2 UPB25E54SNE25B35E48B54 CIG 003V012 SLP170 P0000 60000 T10171022 57003 FZRANO
2026-04-28 08:52:00,SPECI KJAC 280852Z AUTO 12003KT 10SM UP BKN006 BKN060 OVC080 M02/M03 A2999 RMK AO2 UPB25SNE25B35E48 CIG 003V012 P0000 FZRANO
2026-04-28 08:44:00,SPECI KJAC 280844Z AUTO 00000KT 6SM -SN BR SCT006 BKN060 OVC100 M02/M03 A2999 RMK AO2 UPB25E35SNE25B35 P0000 FZRANO
2026-04-28 08:29:00,SPECI KJAC 280829Z AUTO 16003KT 9SM UP SCT013 BKN075 OVC100 M02/M03 A3000 RMK AO2 UPB25SNE25 P0000 FZRANO
2026-04-28 08:06:00,SPECI KJAC 280806Z AUTO 13003KT 4SM -SN BR SCT016 BKN023 OVC039 M01/M02 A3000 RMK AO2 P0000 FZRANO
2026-04-28 07:56:00,METAR KJAC 280756Z AUTO 00000KT 2 1/2SM -SN BR SCT016 BKN022 OVC030 M01/M02 A3000 RMK AO2 VIS 1 3/4V3 UPB14E23SNE14B23 SLP171 P0000 T10111022 FZRANO
2026-04-28 07:54:00,SPECI KJAC 280754Z AUTO 00000KT 2SM -SN BR SCT016 BKN022 OVC029 M01/M02 A3000 RMK AO2 VIS 1 1/2V3 UPB14E23SNE14B23 P0000 FZRANO
2026-04-28 07:42:00,SPECI KJAC 280742Z AUTO 33005KT 1 1/2SM -SN BR FEW014 BKN022 OVC036 M02/M02 A3000 RMK AO2 UPB14E23SNE14B23 P0000 FZRANO
2026-04-28 07:32:00,SPECI KJAC 280732Z AUTO 34003KT 2 1/2SM -SN BR SCT022 BKN028 OVC050 M02/M02 A3000 RMK AO2 VIS 1 1/4V4 UPB14E23SNE14B23 P0000 FZRANO
2026-04-28 07:03:00,SPECI KJAC 280703Z AUTO 00000KT 3SM -SN BR FEW007 SCT015 BKN038 M01/M02 A2999 RMK AO2 P0000 FZRANO
2026-04-28 06:56:00,METAR KJAC 280656Z AUTO 18003KT 1 1/4SM -SN BR SCT007 BKN016 OVC042 M01/M02 A2999 RMK AO2 UPB18E33SNE18B33 CIG 012V021 SLP171 P0000 T10111022 400781056 FZRANO
2026-04-28 06:49:00,SPECI KJAC 280649Z AUTO VRB04KT 2 1/2SM -SN BR FEW005 BKN029 OVC044 M02/M02 A3000 RMK AO2 UPB18E33SNE18B33 P0000 FZRANO
2026-04-28 06:23:00,SPECI KJAC 280623Z AUTO 15003KT 10SM UP SCT015 BKN031 OVC110 M02/M03 A2999 RMK AO2 UPB18SNE18 P0000 FZRANO
2026-04-28 06:07:00,SPECI KJAC 280607Z AUTO 00000KT 3SM -SN BR SCT012 BKN019 OVC070 M02/M03 A2999 RMK AO2 CIG 015V030 P0000 FZRANO
2026-04-28 05:56:00,METAR KJAC 280556Z AUTO 02004KT 9SM -SN FEW024 BKN039 OVC090 M02/M03 A2998 RMK AO2 UPB0458E01B22E25SNB01E22B50 SLP174 P0000 60000 T10221028 10039 21028 51010 FZRANO
2026-04-28 05:15:00,SPECI KJAC 280515Z AUTO 33003KT 9SM -SN FEW009 SCT032 SCT050 M02/M03 A2998 RMK AO2 UPB0458E01SNB01 P0000 FZRANO
2026-04-28 05:03:00,SPECI KJAC 280503Z AUTO 28003KT 7SM -SN FEW009 BKN018 OVC055 M02/M03 A2998 RMK AO2 UPB0458E01SNB01 P0000 FZRANO
2026-04-28 04:56:00,METAR KJAC 280456Z AUTO 00000KT 10SM FEW019 SCT032 BKN050 M02/M03 A2998 RMK AO2 SLP176 T10221028 FZRANO
2026-04-28 03:56:00,METAR KJAC 280356Z AUTO 02003KT 10SM CLR M02/M03 A2997 RMK AO2 SLP173 T10171028 FZRANO
2026-04-28 02:56:00,METAR KJAC 280256Z 34004KT 10SM BKN046 M01/M02 A2995 RMK AO2 SLP170 60000 T10061022 53020
2026-04-28 01:56:00,METAR KJAC 280156Z 12006KT 10SM FEW010 SCT055 BKN085 01/M01 A2992 RMK AO2 RAB07E16SNB16E50 SLP160 P0000 T00061011
2026-04-28 01:41:00,SPECI KJAC 280141Z 09003KT 3SM -SN BR SCT012 BKN019 OVC055 01/M01 A2991 RMK AO2 RAB07E16SNB16 P0000
2026-04-28 01:35:00,SPECI KJAC 280135Z 00000KT 1 1/2SM -SN BR FEW007 BKN012 OVC022 00/M01 A2992 RMK AO2 RAB07E16SNB16 P0000
2026-04-28 01:25:00,SPECI KJAC 280125Z 21009KT 1 1/4SM -SN BR SCT010 BKN017 OVC037 00/M02 A2993 RMK AO2 RAB07E16SNB16 P0000
2026-04-28 01:18:00,SPECI KJAC 280118Z 21011KT 2 1/2SM -SN FEW010 BKN022 OVC065 01/M02 A2992 RMK AO2 VIS 1V5 RAB07E16SNB16 CIG 016V033 P0000
2026-04-28 00:56:00,METAR KJAC 280056Z 23014G20KT 10SM FEW055 BKN080 BKN090 04/M06 A2989 RMK AO2 SLP151 T00391056
2026-04-27 23:56:00,METAR KJAC 272356Z 25011G18KT 9SM CLR 05/M07 A2988 RMK AO2 SNB01E55 SLP142 P0000 60000 T00501072 10078 20028 53002
2026-04-27 22:56:00,METAR KJAC 272256Z 28018G22KT 10SM SCT047 BKN060 BKN070 04/M04 A2987 RMK AO2 SLP140 T00441044
2026-04-27 21:56:00,METAR KJAC 272156Z 25008KT 10SM FEW050 OVC070 07/M07 A2987 RMK AO2 SLP129 T00671072
2026-04-27 20:56:00,METAR KJAC 272056Z 21008G15KT 10SM OVC070 06/M07 A2987 RMK AO2 SLP130 T00611072 56006
2026-04-27 19:56:00,METAR KJAC 271956Z 21007G15KT 10SM FEW050 BKN075 06/M07 A2987 RMK AO2 SLP125 T00611067
2026-04-27 18:56:00,METAR KJAC 271856Z 20015G19KT 10SM FEW043 BKN060 OVC070 06/M07 A2988 RMK AO2 SLP126 T00561067
2026-04-27 17:56:00,METAR KJAC 271756Z 22009G17KT 10SM BKN060 04/M07 A2989 RMK AO2 SLP132 T00441072 10050 21056 51002
2026-04-27 16:56:00,METAR KJAC 271656Z 21008KT 10SM OVC055 03/M07 A2989 RMK AO2 SLP132 T00281067
2026-04-27 15:56:00,METAR KJAC 271556Z 21010KT 10SM OVC050 01/M07 A2989 RMK AO2 SLP133 T00111072
2026-04-27 14:56:00,METAR KJAC 271456Z 23004KT 10SM OVC050 M01/M04 A2988 RMK AO2 SLP136 T10061044 51012
2026-04-27 13:56:00,METAR KJAC 271356Z 17010KT 10SM BKN050 M02/M04 A2987 RMK AO2 SLP131 T10171039
2026-04-27 12:56:00,METAR KJAC 271256Z 00000KT 10SM BR CLR M05/M07 A2985 RMK AO2 SLP134 T10501067
2026-04-27 11:56:00,METAR KJAC 271156Z AUTO 00000KT 10SM BR CLR M05/M06 A2984 RMK AO2 SLP129 70006 T10501061 10006 21050 53007
2026-04-27 10:56:00,METAR KJAC 271056Z AUTO 00000KT 10SM BR CLR M05/M06 A2983 RMK AO2 SLP122 T10501056
2026-04-27 09:56:00,METAR KJAC 270956Z AUTO 00000KT 10SM BR CLR M04/M04 A2982 RMK AO2 SLP119 T10391044
2026-04-27 08:56:00,METAR KJAC 270856Z AUTO 00000KT 10SM BR CLR M03/M03 A2981 RMK AO2 SLP114 T10281033 51005
2026-04-27 07:56:00,METAR KJAC 270756Z AUTO 32004KT 10SM BR CLR M01/M02 A2981 RMK AO2 SLP114 T10111022
2026-04-27 06:56:00,METAR KJAC 270656Z AUTO 07005KT 10SM BR OVC070 01/M01 A2981 RMK AO2 SLP108 T00061011 400561067
2026-04-27 05:56:00,METAR KJAC 270556Z AUTO 00000KT 9SM BR FEW028 BKN044 OVC055 01/M01 A2980 RMK AO2 SLP110 P0001 60001 T00061006 10056 20006 51015
2026-04-27 05:44:00,SPECI KJAC 270544Z AUTO 11004KT 6SM BR FEW015 BKN032 OVC044 01/M01 A2979 RMK AO2 P0001
2026-04-27 05:25:00,SPECI KJAC 270525Z AUTO 08005KT 3SM BR SCT015 OVC023 01/M01 A2979 RMK AO2 P0001
2026-04-27 05:18:00,SPECI KJAC 270518Z AUTO 33003KT 1 3/4SM BR BKN015 BKN023 OVC027 01/M01 A2980 RMK AO2 P0001
2026-04-27 04:56:00,METAR KJAC 270456Z AUTO 08006KT 6SM BR BKN026 OVC033 03/M02 A2979 RMK AO2 SLP101 T00281022
2026-04-27 03:56:00,METAR KJAC 270356Z AUTO 06005KT 10SM BR BKN033 OVC085 04/M02 A2977 RMK AO2 SLP093 T00391022
2026-04-27 02:56:00,METAR KJAC 270256Z 29005KT 10SM BR BKN044 03/M03 A2974 RMK AO2 SLP089 T00331033 53023
2026-04-27 01:56:00,METAR KJAC 270156Z 00000KT 10SM BR FEW037 SCT048 BKN060 04/M02 A2971 RMK AO2 SLP076 T00441022
2026-04-27 00:56:00,METAR KJAC 270056Z 30005KT 10SM BR OVC070 05/M03 A2968 RMK AO2 SLP066 T00501033
2026-04-26 23:56:00,METAR KJAC 262356Z 04007KT 10SM BR SCT027 SCT100 05/M01 A2966 RMK AO2 SLP062 60001 T00501011 10056 20006 53008
2026-04-26 23:31:00,SPECI KJAC 262331Z VRB04KT 10SM BR SCT023 SCT100 05/M01 A2965 RMK AO2
2026-04-26 22:56:00,METAR KJAC 262256Z 36008KT 330V030 10SM BR BKN018 BKN025 OVC070 06/01 A2964 RMK AO2 SLP055 T00560011
2026-04-26 22:44:00,SPECI KJAC 262244Z 01009KT 10SM BR FEW016 BKN023 OVC070 06/02 A2964 RMK AO2
2026-04-26 21:56:00,METAR KJAC 262156Z VRB04KT 10SM BR FEW035 BKN047 OVC055 05/01 A2964 RMK AO2 SLP056 T00500006
2026-04-26 21:28:00,SPECI KJAC 262128Z 27004KT 10SM BR FEW015 SCT020 OVC042 04/01 A2963 RMK AO2
2026-04-26 20:56:00,METAR KJAC 262056Z 22004KT 10SM BR SCT013 OVC020 04/01 A2963 RMK AO2 SLP052 60001 T00440011 56007
2026-04-26 19:56:00,METAR KJAC 261956Z VRB05KT 10SM BR OVC011 03/01 A2963 RMK AO2 SNE19 SLP052 P0000 T00330011
2026-04-26 19:26:00,SPECI KJAC 261926Z 00000KT 10SM BR OVC007 04/02 A2964 RMK AO2 SNE19 CIG 004V010 P0000
2026-04-26 19:19:00,SPECI KJAC 261919Z 17003KT 9SM BR OVC005 03/02 A2964 RMK AO2 SNE19 CIG 004V009 P0000
2026-04-26 19:06:00,SPECI KJAC 261906Z 13004KT 3SM -SN BR OVC005 03/01 A2964 RMK AO2 CIG 004V008 P0000
2026-04-26 18:56:00,METAR KJAC 261856Z 15003KT 1 3/4SM -SN BR BKN005 OVC009 02/00 A2965 RMK AO2 CIG 004V007 SLP060 P0001 T00220000
2026-04-26 18:44:00,SPECI KJAC 261844Z 15003KT 1 3/4SM -SN BR BKN005 OVC009 02/00 A2965 RMK AO2 CIG 004V008 P0001
2026-04-26 18:32:00,SPECI KJAC 261832Z 20003KT 1 3/4SM -SN BR SCT005 OVC011 01/M01 A2965 RMK AO2 CIG 008V012 P0001
2026-04-26 18:20:00,SPECI KJAC 261820Z 00000KT 3/4SM -SN BR BKN005 OVC011 01/M01 A2966 RMK AO2 CIG 003V010 P0000
2026-04-26 18:13:00,SPECI KJAC 261813Z 00000KT 2SM -SN BR BKN005 OVC011 01/M01 A2966 RMK AO2 VIS 1V4 CIG 003V009 P0000
2026-04-26 18:01:00,SPECI KJAC 261801Z 17004KT 1 1/4SM -SN BR OVC005 01/M01 A2966 RMK AO2 CIG 003V008 P0000
2026-04-26 17:56:00,METAR KJAC 261756Z 19003KT 3/4SM -SN BR VV005 01/M01 A2966 RMK AO2 SLP064 P0003 60004 T00061011 10006 21039 56008
2026-04-26 17:47:00,SPECI KJAC 261747Z 16003KT 3/4SM -SN BR VV005 01/M01 A2966 RMK AO2 P0002
2026-04-26 17:40:00,SPECI KJAC 261740Z 17004KT 1 1/2SM -SN BR VV005 01/M01 A2966 RMK AO2 P0002
2026-04-26 17:24:00,SPECI KJAC 261724Z 20003KT 1SM -SN BR VV005 00/M02 A2966 RMK AO2 P0001
2026-04-26 16:56:00,METAR KJAC 261656Z VRB03KT 1 3/4SM -SN BR VV007 01/M02 A2966 RMK AO2 RAE01SNB03 SLP069 P0001 T00061017
2026-04-26 16:16:00,SPECI KJAC 261616Z 22003KT 1SM -SN BKN007 BKN017 OVC030 01/M02 A2966 RMK AO2 RAE01SNB03 P0000
2026-04-26 16:03:00,SPECI KJAC 261603Z 00000KT 1 1/2SM -SN SCT009 BKN019 OVC031 00/M03 A2967 RMK AO2 RAE01SNB03 P0000
2026-04-26 15:56:00,METAR KJAC 261556Z 24003KT 6SM -RA SCT009 OVC029 00/M03 A2967 RMK AO2 UPB23E24RAB37SNE23 SLP071 P0000 T00001028
2026-04-26 15:31:00,SPECI KJAC 261531Z 00000KT 7SM BKN007 BKN028 OVC033 01/M03 A2967 RMK AO2 UPB23E24SNE23 P0000
2026-04-26 15:00:00,SPECI KJAC 261500Z 00000KT 3SM -SN BR BKN006 OVC030 M01/M03 A2969 RMK AO2 CIG 005V010 P0000
2026-04-26 14:56:00,METAR KJAC 261456Z 22004KT 2SM -SN BR SCT006 BKN028 OVC032 M01/M03 A2969 RMK AO2 VIS 1 1/2V3 SLP077 P0000 60000 T10111028 58005
2026-04-26 14:53:00,SPECI KJAC 261453Z 20003KT 1 3/4SM -SN BR SCT006 BKN020 OVC032 M01/M03 A2969 RMK AO2 P0000
2026-04-26 14:47:00,SPECI KJAC 261447Z 22003KT 2SM -SN BR BKN006 BKN020 OVC027 M02/M03 A2969 RMK AO2 VIS 1 1/2V3 P0000
2026-04-26 14:36:00,SPECI KJAC 261436Z 23003KT 1 1/2SM -SN BR SCT006 BKN020 OVC032 M02/M03 A2969 RMK AO2 P0000
2026-04-26 14:27:00,SPECI KJAC 261427Z 00000KT 2 1/2SM -SN BR FEW020 BKN027 OVC034 M02/M03 A2970 RMK AO2 P0000
2026-04-26 13:56:00,METAR KJAC 261356Z 00000KT 9SM -SN SCT037 OVC060 M03/M04 A2970 RMK AO2 UPB15E19SNB19 SLP079 P0000 T10281039
2026-04-26 12:56:00,METAR KJAC 261256Z 00000KT 10SM BKN037 BKN050 OVC065 M03/M05 A2970 RMK AO2 SLP077 T10331050
2026-04-26 11:56:00,METAR KJAC 261156Z AUTO 00000KT 10SM SCT070 OVC080 M04/M06 A2971 RMK AO2 SLP078 T10391056 11011 21067 56007 FZRANO
2026-04-26 10:56:00,METAR KJAC 261056Z AUTO 06004KT 10SM SCT065 BKN080 OVC090 M04/M07 A2972 RMK AO2 SLP086 T10441067 FZRANO
2026-04-26 09:56:00,METAR KJAC 260956Z AUTO 34003KT 10SM CLR M05/M07 A2972 RMK AO2 SLP088 T10501072 FZRANO
2026-04-26 08:56:00,METAR KJAC 260856Z AUTO 35003KT 10SM FEW085 M03/M06 A2973 RMK AO2 SLP090 T10331056 58015 FZRANO
2026-04-26 07:56:00,METAR KJAC 260756Z AUTO 00000KT 10SM CLR M03/M06 A2976 RMK AO2 SLP103 T10281056 FZRANO
2026-04-26 06:56:00,METAR KJAC 260656Z AUTO 02003KT 10SM CLR M03/M05 A2977 RMK AO2 SLP104 T10281050 400501089 FZRANO
2026-04-26 05:56:00,METAR KJAC 260556Z AUTO 00000KT 10SM SCT070 OVC090 M01/M05 A2979 RMK AO2 SLP113 T10111050 10044 21028 58002 FZRANO
2026-04-26 04:56:00,METAR KJAC 260456Z AUTO 35005KT 10SM SCT075 OVC100 M02/M05 A2980 RMK AO2 SLP117 T10171050 FZRANO
2026-04-26 03:56:00,METAR KJAC 260356Z AUTO 01004KT 10SM FEW080 M01/M06 A2981 RMK AO2 SLP119 T10111056 FZRANO
2026-04-26 02:56:00,METAR KJAC 260256Z 29006KT 10SM SCT080 00/M06 A2980 RMK AO2 SLP122 T00001056 55003
2026-04-26 01:56:00,METAR KJAC 260156Z 28006KT 10SM FEW060 OVC085 03/M06 A2979 RMK AO2 SLP121 T00281056
2026-04-26 00:56:00,METAR KJAC 260056Z 25009KT 10SM BKN060 OVC080 04/M07 A2980 RMK AO2 SLP126 T00391072
2026-04-25 23:56:00,METAR KJAC 252356Z 26008KT 10SM BKN055 OVC070 04/M08 A2980 RMK AO2 SLP125 T00441078 10050 20000 56012
2026-04-25 22:56:00,METAR KJAC 252256Z 21008KT 10SM BKN055 04/M08 A2981 RMK AO2 SLP129 T00441078
2026-04-25 21:56:00,METAR KJAC 252156Z 25008KT 180V350 10SM BKN050 OVC060 03/M07 A2983 RMK AO2 SLP139 T00331072
2026-04-25 20:56:00,METAR KJAC 252056Z 22005KT 10SM SCT049 OVC070 03/M08 A2985 RMK AO2 SLP144 T00281083 56010
2026-04-25 19:56:00,METAR KJAC 251956Z 00000KT 10SM OVC070 02/M11 A2986 RMK AO2 SLP149 T00171106
2026-04-25 18:56:00,METAR KJAC 251856Z 20006KT 10SM BKN039 BKN055 OVC070 02/M07 A2987 RMK AO2 SLP152 T00221072
2026-04-25 17:56:00,METAR KJAC 251756Z 00000KT 10SM FEW020 00/M06 A2988 RMK AO2 SLP166 T00001056 10017 21083 58006
2026-04-25 17:06:00,SPECI KJAC 251706Z VRB03KT 10SM SCT018 01/M07 A2989 RMK AO2
2026-04-25 16:56:00,METAR KJAC 251656Z 19005KT 10SM BKN018 01/M07 A2989 RMK AO2 SLP159 T00061067
2026-04-25 15:56:00,METAR KJAC 251556Z VRB03KT 10SM BKN018 00/M07 A2990 RMK AO2 SLP162 T00001067
2026-04-25 15:20:00,SPECI KJAC 251520Z 00000KT 10SM FEW018 BKN065 M03/M07 A2990 RMK AO2
2026-04-25 14:56:00,METAR KJAC 251456Z 00000KT 10SM BKN018 BKN065 M04/M08 A2991 RMK AO2 SLP174 T10391078 51005
2026-04-25 13:56:00,METAR KJAC 251356Z 00000KT 10SM SCT018 BKN030 M07/M09 A2991 RMK AO2 SLP177 T10671094
2026-04-25 12:56:00,METAR KJAC 251256Z 09005KT 10SM BKN018 M08/M10 A2990 RMK AO2 SLP174 T10831100
2026-04-25 11:56:00,METAR KJAC 251156Z AUTO 24004KT 10SM OVC018 M08/M09 A2989 RMK AO2 SLP170 70001 T10781094 11067 21089 58002 FZRANO
2026-04-25 11:08:00,SPECI KJAC 251108Z AUTO 30003KT 10SM BKN020 OVC065 M08/M09 A2989 RMK AO2 FZRANO
2026-04-25 10:56:00,METAR KJAC 251056Z AUTO 31003KT 10SM FEW018 BKN065 M08/M09 A2990 RMK AO2 SLP176 T10831094 FZRANO
2026-04-25 09:56:00,METAR KJAC 250956Z AUTO 03003KT 10SM SCT070 M08/M09 A2990 RMK AO2 SLP167 T10781089 FZRANO
2026-04-25 08:56:00,METAR KJAC 250856Z AUTO 00000KT 10SM FEW027 M07/M09 A2990 RMK AO2 SLP164 T10721089 50004 FZRANO
2026-04-25 08:49:00,SPECI KJAC 250849Z AUTO 00000KT 10SM FEW027 M07/M08 A2990 RMK AO2 FZRANO
2026-04-25 08:25:00,SPECI KJAC 250825Z AUTO 00000KT 10SM FEW009 OVC027 M07/M08 A2990 RMK AO2 FZRANO
2026-04-25 08:11:00,SPECI KJAC 250811Z AUTO 00000KT 10SM BKN027 BKN065 M07/M08 A2990 RMK AO2 FZRANO
2026-04-25 07:56:00,METAR KJAC 250756Z AUTO 00000KT 10SM FEW027 BKN065 M07/M09 A2991 RMK AO2 SLP168 T10721089 FZRANO
2026-04-25 06:56:00,METAR KJAC 250656Z AUTO 00000KT 10SM CLR M07/M08 A2990 RMK AO2 SLP166 T10671078 400171078 FZRANO
2026-04-25 05:56:00,METAR KJAC 250556Z AUTO 31003KT 10SM CLR M08/M09 A2988 RMK AO2 SLP165 60000 T10781089 11006 21078 50002 FZRANO
2026-04-25 04:56:00,METAR KJAC 250456Z AUTO 07003KT 10SM FEW044 M06/M07 A2989 RMK AO2 SLP164 T10561067 FZRANO
2026-04-25 03:56:00,METAR KJAC 250356Z AUTO 15004KT 10SM CLR M05/M07 A2990 RMK AO2 SLP169 T10501067 FZRANO
2026-04-25 02:56:00,METAR KJAC 250256Z 30004KT 10SM CLR M04/M06 A2987 RMK AO2 SLP159 60000 T10441056 53004
2026-04-25 01:56:00,METAR KJAC 250156Z 00000KT 10SM CLR M03/M06 A2986 RMK AO2 SLP154 T10281056
2026-04-25 00:56:00,METAR KJAC 250056Z 15009KT 10SM BKN047 OVC055 M01/M03 A2987 RMK AO2 SNE32 SLP151 P0000 T10061033
2026-04-24 23:56:00,METAR KJAC 242356Z 09006KT 9SM -SN FEW009 SCT014 OVC039 M01/M03 A2986 RMK AO2 SNB14 SLP151 P0000 60001 T10111033 10017 21022 51005
2026-04-24 23:48:00,SPECI KJAC 242348Z 07004KT 9SM -SN SCT012 BKN039 OVC055 M01/M03 A2986 RMK AO2 SNB14 P0000
2026-04-24 23:42:00,SPECI KJAC 242342Z 08007KT 9SM -SN BKN010 BKN021 OVC041 M01/M03 A2986 RMK AO2 SNB14 P0000
2026-04-24 23:22:00,SPECI KJAC 242322Z 04007KT 4SM -SN BR SCT021 BKN027 OVC035 M01/M03 A2986 RMK AO2 SNB14 P0000
2026-04-24 23:05:00,SPECI KJAC 242305Z 05007KT 2 1/2SM BR SCT014 OVC025 M02/M03 A2986 RMK AO2 VIS 1 3/4V4
2026-04-24 22:56:00,METAR KJAC 242256Z 04006KT 1 1/4SM BR FEW009 BKN014 OVC021 M02/M03 A2986 RMK AO2 SLP150 P0001 T10171033
2026-04-24 22:48:00,SPECI KJAC 242248Z 03007KT 1SM BR OVC014 M02/M04 A2986 RMK AO2 P0001
2026-04-24 22:42:00,SPECI KJAC 242242Z 03011KT 1/2SM FZFG BKN012 BKN017 OVC034 M02/M03 A2986 RMK AO2 P0001
2026-04-24 22:30:00,SPECI KJAC 242230Z 36008KT 1/2SM FZFG FEW010 BKN029 OVC034 M02/M03 A2986 RMK AO2
2026-04-24 22:27:00,SPECI KJAC 242227Z 36010KT 3/4SM BR SCT013 SCT029 OVC034 M02/M03 A2986 RMK AO2
2026-04-24 22:24:00,SPECI KJAC 242224Z 36009KT 1 3/4SM BR FEW015 SCT029 OVC034 M02/M04 A2986 RMK AO2
2026-04-24 21:56:00,METAR KJAC 242156Z 22003KT 10SM SCT036 BKN043 OVC050 01/M07 A2985 RMK AO2 SLP141 T00061072
2026-04-24 20:56:00,METAR KJAC 242056Z 00000KT 10SM BKN031 OVC050 01/M06 A2984 RMK AO2 SLP135 T00111061 57001
2026-04-24 19:56:00,METAR KJAC 241956Z 22010KT 10SM SCT030 BKN041 OVC055 01/M05 A2985 RMK AO2 SLP137 T00111050
2026-04-24 18:56:00,METAR KJAC 241856Z 19005KT 10SM FEW036 BKN048 OVC060 01/M04 A2984 RMK AO2 SLP135 T00061044
2026-04-24 18:39:00,SPECI KJAC 241839Z 18004KT 10SM FEW023 BKN035 OVC060 01/M04 A2984 RMK AO2
2026-04-24 18:06:00,SPECI KJAC 241806Z 19006KT 9SM FEW022 OVC029 M01/M03 A2984 RMK AO2
2026-04-24 17:56:00,METAR KJAC 241756Z 20008KT 4SM HZ BKN030 OVC036 M01/M03 A2985 RMK AO2 SLP140 60000 T10061033 11006 21044 53007
2026-04-24 17:48:00,SPECI KJAC 241748Z 20010KT 3SM HZ FEW023 BKN030 OVC036 M01/M04 A2984 RMK AO2
2026-04-24 17:35:00,SPECI KJAC 241735Z 20009KT 6SM HZ FEW021 BKN027 OVC033 M01/M04 A2984 RMK AO2
2026-04-24 16:56:00,METAR KJAC 241656Z 20009KT 10SM FEW021 BKN031 OVC060 M01/M04 A2982 RMK AO2 SLP131 T10111039
2026-04-24 15:56:00,METAR KJAC 241556Z 20009KT 9SM FEW032 BKN043 OVC055 M02/M04 A2981 RMK AO2 SLP128 T10171039
2026-04-24 15:06:00,SPECI KJAC 241506Z 20009KT 4SM BR SCT007 OVC036 M03/M04 A2982 RMK AO2
2026-04-24 14:56:00,METAR KJAC 241456Z 19009KT 10SM BKN007 BKN033 OVC055 M03/M03 A2982 RMK AO2 SNB12E19 CIG 005V010 SLP130 P0000 60000 T10281033 56001
2026-04-24 14:46:00,SPECI KJAC 241446Z 18007KT 10SM SCT007 BKN045 OVC060 M03/M04 A2982 RMK AO2 SNB12E19 P0000
2026-04-24 13:56:00,METAR KJAC 241356Z 15003KT 9SM OVC060 M04/M04 A2982 RMK AO2 SNE54 SLP131 P0000 T10391044
2026-04-24 13:09:00,SPECI KJAC 241309Z 19003KT 9SM -SN FEW006 OVC055 M04/M05 A2982 RMK AO2 P0000
2026-04-24 12:56:00,METAR KJAC 241256Z 19003KT 9SM -SN BKN006 OVC060 M04/M05 A2982 RMK AO2 SNB1159 SLP126 P0000 T10441050
2026-04-24 12:42:00,SPECI KJAC 241242Z AUTO 17005KT 8SM -SN BKN006 OVC065 M04/M05 A2982 RMK AO2 SNB1159 P0000 FZRANO
2026-04-24 12:17:00,SPECI KJAC 241217Z AUTO 17007KT 6SM -SN BR FEW006 SCT047 OVC070 M04/M05 A2982 RMK AO2 SNB1159 P0000 FZRANO
2026-04-24 11:56:00,METAR KJAC 241156Z AUTO 18008KT 8SM SCT055 OVC070 M04/M05 A2982 RMK AO2 SNE55 SLP126 P0000 60000 70018 T10441050 11033 21044 56012 FZRANO
2026-04-24 11:23:00,SPECI KJAC 241123Z AUTO 19005KT 3SM -SN BR SCT024 BKN031 OVC047 M04/M05 A2983 RMK AO2 P0000 FZRANO
2026-04-24 11:09:00,SPECI KJAC 241109Z AUTO 20007KT 1 3/4SM -SN BR SCT024 BKN033 OVC039 M04/M05 A2984 RMK AO2 P0000 FZRANO
2026-04-24 10:56:00,METAR KJAC 241056Z AUTO 21006KT 4SM -SN BR BKN036 OVC047 M04/M05 A2984 RMK AO2 SLP131 P0000 T10441050 FZRANO
2026-04-24 09:56:00,METAR KJAC 240956Z AUTO 21009KT 7SM -SN FEW035 BKN045 OVC055 M04/M05 A2985 RMK AO2 SNE06B41 SLP128 P0000 T10391050 FZRANO
2026-04-24 08:56:00,METAR KJAC 240856Z AUTO 22008KT 8SM -SN BKN034 BKN048 OVC060 M04/M05 A2987 RMK AO2 SLP132 P0000 60000 T10391050 58012 FZRANO
2026-04-24 08:40:00,SPECI KJAC 240840Z AUTO 22008KT 5SM -SN BR SCT024 OVC035 M04/M05 A2987 RMK AO2 P0000 FZRANO
2026-04-24 08:14:00,SPECI KJAC 240814Z AUTO 20010KT 3SM -SN BR FEW019 OVC026 M04/M04 A2987 RMK AO2 P0000 FZRANO
2026-04-24 08:07:00,SPECI KJAC 240807Z AUTO 21011KT 2 1/2SM -SN BR SCT019 BKN028 OVC047 M04/M04 A2988 RMK AO2 P0000 FZRANO
2026-04-24 07:56:00,METAR KJAC 240756Z AUTO 20009KT 4SM -SN BR FEW010 BKN029 OVC049 M03/M04 A2988 RMK AO2 SNB0658 SLP140 P0000 T10331044 FZRANO
2026-04-24 07:51:00,SPECI KJAC 240751Z AUTO 21010KT 6SM -SN BR FEW006 BKN029 OVC047 M03/M04 A2988 RMK AO2 SNB0658 P0000 FZRANO
2026-04-24 07:37:00,SPECI KJAC 240737Z AUTO 21009KT 3SM -SN BR SCT027 BKN035 OVC050 M03/M04 A2988 RMK AO2 SNB0658 P0000 FZRANO
2026-04-24 07:29:00,SPECI KJAC 240729Z AUTO 20006KT 2 1/2SM -SN BR SCT022 BKN027 OVC044 M03/M04 A2988 RMK AO2 SNB0658 P0000 FZRANO
2026-04-24 06:56:00,METAR KJAC 240656Z AUTO 21005KT 10SM SCT048 OVC060 M03/M04 A2990 RMK AO2 SNE43 SLP147 P0000 T10331044 400561033 FZRANO
2026-04-24 06:45:00,SPECI KJAC 240645Z AUTO 17005KT 9SM SCT015 SCT045 OVC060 M03/M04 A2990 RMK AO2 SNE43 P0000 FZRANO
2026-04-24 06:03:00,SPECI KJAC 240603Z AUTO 14006KT 3SM -SN BR FEW010 OVC015 M03/M04 A2991 RMK AO2 P0000 FZRANO
2026-04-24 05:56:00,METAR KJAC 240556Z AUTO 12004KT 1 3/4SM -SN BR FEW010 OVC015 M03/M04 A2991 RMK AO2 SLP150 P0001 60018 T10331039 10033 21033 56000 FZRANO
2026-04-24 05:36:00,SPECI KJAC 240536Z AUTO 18003KT 1 3/4SM -SN BR BKN015 OVC024 M03/M04 A2991 RMK AO2 P0000 FZRANO
2026-04-24 05:05:00,SPECI KJAC 240505Z AUTO 10006KT 7SM -SN SCT014 BKN021 OVC035 M03/M04 A2991 RMK AO2 P0000 FZRANO
2026-04-24 04:56:00,METAR KJAC 240456Z AUTO 07004KT 6SM -SN BR BKN014 BKN021 OVC035 M03/M04 A2991 RMK AO2 SLP156 P0004 T10281039 FZRANO
2026-04-24 04:54:00,SPECI KJAC 240454Z AUTO 06004KT 5SM -SN BR BKN014 BKN021 OVC035 M03/M04 A2991 RMK AO2 P0004 FZRANO
2026-04-24 04:40:00,SPECI KJAC 240440Z AUTO 13004KT 2 1/2SM -SN BR BKN014 OVC021 M03/M04 A2990 RMK AO2 P0003 FZRANO
2026-04-24 04:02:00,SPECI KJAC 240402Z AUTO 03008KT 1 1/2SM -SN BR BKN012 BKN022 OVC027 M02/M03 A2991 RMK AO2 P0001 FZRANO
2026-04-24 03:56:00,METAR KJAC 240356Z AUTO 03008KT 2 1/2SM -SN BR SCT016 BKN021 OVC027 M02/M04 A2991 RMK AO2 SLP156 P0004 T10221039 FZRANO
2026-04-24 03:27:00,SPECI KJAC 240327Z 04007KT 2SM SN FEW007 BKN019 OVC025 M02/M03 A2989 RMK AO2 P0003
2026-04-24 03:18:00,SPECI KJAC 240318Z 05004KT 1 1/4SM SN SCT005 BKN012 OVC019 M02/M03 A2990 RMK AO2 P0002
2026-04-24 03:07:00,SPECI KJAC 240307Z 05007KT 1SM SN BKN005 OVC012 M02/M03 A2987 RMK AO2 CIG 003V009 P0001
2026-04-24 02:56:00,METAR KJAC 240256Z 02006KT 3/4SM SN OVC005 M01/M02 A2988 RMK AO2 WSHFT 0205 CIG 003V007 SLP142 P0006 60009 T10111022 53029
2026-04-24 02:46:00,SPECI KJAC 240246Z 03003KT 3/4SM SN OVC005 M01/M02 A2987 RMK AO2 WSHFT 0205 P0005
2026-04-24 02:28:00,SPECI KJAC 240228Z 04008KT 1/4SM SN OVC005 M01/M02 A2986 RMK AO2 WSHFT 0205 CIG 003V009 P0003
2026-04-24 02:19:00,SPECI KJAC 240219Z 04011KT 1/4SM SN BKN003 OVC008 M01/M02 A2985 RMK AO2 WSHFT 0205 CIG 002V006 P0002
2026-04-24 02:17:00,SPECI KJAC 240217Z 04011G20KT 1/2SM SN BKN003 OVC008 M01/M02 A2984 RMK AO2 CIG 002V006 P0002
2026-04-24 02:08:00,SPECI KJAC 240208Z 32015G20KT 3/4SM SN OVC003 M01/M01 A2983 RMK AO2 CIG 002V006 P0002
2026-04-24 01:56:00,METAR KJAC 240156Z 31010KT 1/4SM SN OVC003 00/M01 A2983 RMK AO2 RAE02SNB02 CIG 002V006 SLP124 P0003 T00001011
2026-04-24 01:51:00,SPECI KJAC 240151Z 31008KT 3/4SM SN OVC003 00/M01 A2983 RMK AO2 RAE02SNB02 CIG 002V006 P0002
2026-04-24 01:38:00,SPECI KJAC 240138Z 23010KT 3/4SM SN BKN005 OVC009 00/M01 A2982 RMK AO2 RAE02SNB02 CIG 003V007 P0001
2026-04-24 01:16:00,SPECI KJAC 240116Z 24011G19KT 3/4SM -SN BR BKN009 BKN016 OVC025 01/M01 A2981 RMK AO2 TWR VIS 1 RAE02SNB02 CIG 006V012 P0000
2026-04-24 01:03:00,SPECI KJAC 240103Z 27011G26KT 1SM -SN FEW011 BKN016 OVC037 02/M02 A2979 RMK AO2 SFC VIS 2 1/2 RAE02SNB02 P0000
2026-04-24 00:56:00,METAR KJAC 240056Z 25017G26KT 3SM -RA FEW016 SCT024 OVC037 03/M03 A2979 RMK AO2 PK WND 19032/0037 SLP104 P0000 T00281033
2026-04-23 23:56:00,METAR KJAC 232356Z 21017G26KT 7SM -RA OVC041 03/M04 A2977 RMK AO2 PK WND 20031/2314 LTG DSNT NW SLP096 P0000 60000 T00331039 10056 20028 58017
2026-04-23 22:56:00,METAR KJAC 232256Z 20018G31KT 8SM -RA FEW035 OVC043 03/M03 A2980 RMK AO2 PK WND 19031/2251 RAB47 SLP108 P0000 T00281033
2026-04-23 21:56:00,METAR KJAC 232156Z 21022G31KT 10SM SCT037 BKN045 OVC055 04/M03 A2982 RMK AO2 PK WND 21031/2147 SLP109 T00441033
2026-04-23 20:56:00,METAR KJAC 232056Z 20018G26KT 10SM BKN034 BKN045 BKN050 06/M02 A2983 RMK AO2 PK WND 22026/2052 RAB1957E27 SLP112 P0000 60000 T00561022 58016
2026-04-23 19:56:00,METAR KJAC 231956Z 19016KT 10SM SCT043 OVC060 04/M02 A2986 RMK AO2 SLP125 T00441017
2026-04-23 18:56:00,METAR KJAC 231856Z 19012KT 10SM BKN046 BKN050 BKN075 04/M04 A2988 RMK AO2 SLP131 T00391039
2026-04-23 17:56:00,METAR KJAC 231756Z 21012G16KT 10SM BKN035 OVC041 04/M02 A2989 RMK AO2 SLP135 60000 T00441017 10044 21006 50009
2026-04-23 17:32:00,SPECI KJAC 231732Z VRB06KT 9SM BKN032 OVC041 02/M03 A2989 RMK AO2
2026-04-23 17:07:00,SPECI KJAC 231707Z 24007KT 8SM BKN027 OVC033 02/M03 A2989 RMK AO2
2026-04-23 16:56:00,METAR KJAC 231656Z 23008KT 10SM FEW026 OVC033 02/M03 A2989 RMK AO2 RAB42E51 SLP144 P0000 T00171033
2026-04-23 15:56:00,METAR KJAC 231556Z 25009KT 10SM FEW026 BKN039 OVC048 01/M02 A2987 RMK AO2 RAE46 SLP136 P0000 T00111017
2026-04-23 14:56:00,METAR KJAC 231456Z 21009KT 10SM -RA SCT032 OVC042 01/M01 A2986 RMK AO2 UPB1357E02RAB12SNE1357 SLP132 P0000 60000 T00111006 53009
2026-04-23 13:56:00,METAR KJAC 231356Z 19012KT 9SM -SN OVC036 00/M01 A2985 RMK AO2 SLP131 P0000 T00001006
2026-04-23 12:56:00,METAR KJAC 231256Z 20012KT 9SM -SN OVC047 M01/M01 A2983 RMK AO2 SLP126 P0000 T10061011
2026-04-23 11:56:00,METAR KJAC 231156Z AUTO 21009KT 10SM -SN BKN046 BKN055 OVC070 M01/M02 A2982 RMK AO2 SLP120 P0000 60000 70005 T10061017 10000 21006 53007
2026-04-23 10:56:00,METAR KJAC 231056Z AUTO 19009KT 9SM -SN BKN047 OVC060 M01/M01 A2982 RMK AO2 SLP115 P0000 T10061011
2026-04-23 10:28:00,SPECI KJAC 231028Z AUTO 18008KT 9SM -SN SCT029 SCT037 OVC049 M01/M01 A2981 RMK AO2 P0000
2026-04-23 09:56:00,METAR KJAC 230956Z AUTO 18007KT 8SM -SN OVC028 00/M01 A2980 RMK AO2 SLP104 P0000 T00001011
2026-04-23 08:56:00,METAR KJAC 230856Z AUTO 20008KT 4SM -SN BR BKN017 OVC024 00/M01 A2980 RMK AO2 SLP103 P0000 60000 T00001011 56004
2026-04-23 07:56:00,METAR KJAC 230756Z AUTO 18010KT 4SM -SN BR OVC026 00/M01 A2981 RMK AO2 SLP102 P0000 T00001006
2026-04-23 07:54:00,SPECI KJAC 230754Z AUTO 17010KT 4SM -SN BR FEW009 OVC026 00/M01 A2981 RMK AO2 P0000
2026-04-23 07:29:00,SPECI KJAC 230729Z AUTO 18012KT 3SM -SN BR OVC021 00/M01 A2981 RMK AO2 P0000
2026-04-23 07:11:00,SPECI KJAC 230711Z AUTO 17013KT 2 1/2SM -SN BR FEW013 OVC019 00/M01 A2981 RMK AO2 VIS 2V3 P0000
2026-04-23 07:04:00,SPECI KJAC 230704Z AUTO 17014KT 3SM -SN BR FEW013 OVC020 00/M01 A2981 RMK AO2 P0000
2026-04-23 06:56:00,METAR KJAC 230656Z AUTO 18011KT 2 1/2SM -SN BR FEW008 OVC020 00/M01 A2982 RMK AO2 SLP103 P0000 T00001006 400891006
2026-04-23 06:46:00,SPECI KJAC 230646Z AUTO 18012KT 3SM -SN BR SCT010 BKN022 OVC027 00/M01 A2982 RMK AO2 P0000
2026-04-23 06:33:00,SPECI KJAC 230633Z AUTO 17012KT 4SM -SN BR SCT005 BKN010 OVC024 M01/M01 A2982 RMK AO2 CIG 008V012 P0000
2026-04-23 06:09:00,SPECI KJAC 230609Z AUTO 16016KT 5SM -SN BR BKN005 OVC026 M01/M01 A2981 RMK AO2 CIG 003V008 P0000
2026-04-23 05:56:00,METAR KJAC 230556Z AUTO 17018G22KT 5SM -SN BR SCT005 SCT012 OVC026 M01/M01 A2980 RMK AO2 SLP107 P0000 60003 T10061006 10011 21006 58002
2026-04-23 05:31:00,SPECI KJAC 230531Z AUTO 17016KT 4SM -SN BR FEW005 SCT016 OVC024 M01/M01 A2981 RMK AO2 P0000
2026-04-23 05:23:00,SPECI KJAC 230523Z AUTO 17018KT 2 1/2SM -SN BR FEW005 BKN024 OVC029 M01/M01 A2981 RMK AO2 P0000
2026-04-23 05:16:00,SPECI KJAC 230516Z AUTO 18016G24KT 2 1/2SM -SN BR BKN024 OVC029 M01/M01 A2981 RMK AO2 P0000
2026-04-23 04:56:00,METAR KJAC 230456Z AUTO 17015G21KT 4SM -SN BR OVC028 M01/M01 A2982 RMK AO2 PK WND 18028/0411 SLP103 P0000 T10061006
2026-04-23 04:17:00,SPECI KJAC 230417Z AUTO 18022G28KT 3SM -SN BR SCT020 OVC025 00/M01 A2982 RMK AO2 PK WND 18028/0411 P0000
2026-04-23 03:56:00,METAR KJAC 230356Z AUTO 18021G27KT 2 1/2SM -SN BR BKN018 OVC025 00/M01 A2983 RMK AO2 PK WND 18029/0335 SLP110 P0001 T00001006
2026-04-23 03:36:00,SPECI KJAC 230336Z AUTO 18023G29KT 2 1/2SM -SN BR FEW008 OVC016 00/M01 A2982 RMK AO2 PK WND 18029/0335 P0001
2026-04-23 03:23:00,SPECI KJAC 230323Z 18024G29KT 1 3/4SM -SN BR FEW008 OVC014 00/M01 A2982 RMK AO2 PK WND 18029/0322 P0000
2026-04-23 03:15:00,SPECI KJAC 230315Z 17023KT 2SM -SN BR OVC014 00/M01 A2981 RMK AO2 PK WND 17029/0302 P0000
2026-04-23 03:04:00,SPECI KJAC 230304Z 18023G29KT 1 3/4SM -SN BR BKN014 BKN018 OVC025 00/M01 A2981 RMK AO2 PK WND 17029/0302 P0000
2026-04-23 02:56:00,METAR KJAC 230256Z 18022G28KT 1 3/4SM -SN BR SCT012 BKN018 OVC030 00/M01 A2981 RMK AO2 PK WND 17029/0228 SLP101 P0000 60002 T00001006 55000
2026-04-23 02:44:00,SPECI KJAC 230244Z 17021G26KT 2SM -SN BR SCT017 BKN026 OVC031 00/M01 A2981 RMK AO2 PK WND 17029/0228 VIS 1 3/4V3 P0000
2026-04-23 02:25:00,SPECI KJAC 230225Z 17022G28KT 1 3/4SM -SN BR FEW009 SCT012 OVC020 00/M01 A2980 RMK AO2 PK WND 17028/0221 P0000
2026-04-23 02:03:00,SPECI KJAC 230203Z 18022G27KT 1 1/2SM -SN BR OVC010 00/M01 A2980 RMK AO2 PK WND 17027/0201 P0000
2026-04-23 01:56:00,METAR KJAC 230156Z 18023G26KT 2SM -SN BR FEW005 OVC010 00/M01 A2980 RMK AO2 PK WND 19026/0151 SLP093 P0002 T00001006
2026-04-23 01:51:00,SPECI KJAC 230151Z 18021G26KT 2 1/2SM -SN BR FEW005 OVC010 00/M01 A2980 RMK AO2 PK WND 19026/0151 VIS 1 1/2V5 P0002
2026-04-23 01:43:00,SPECI KJAC 230143Z 20018G23KT 1 3/4SM -SN BR FEW005 OVC010 00/M01 A2981 RMK AO2 CIG 007V013 P0002
2026-04-23 01:36:00,SPECI KJAC 230136Z 19018KT 1 1/4SM -SN BR BKN007 OVC010 00/M01 A2980 RMK AO2 CIG 003V009 P0002
2026-04-23 01:23:00,SPECI KJAC 230123Z 20015G20KT 1SM -SN BR SCT005 BKN010 OVC015 00/M01 A2982 RMK AO2 CIG 009V014 P0001
2026-04-23 01:09:00,SPECI KJAC 230109Z 20015KT 1 3/4SM -SN BR FEW008 BKN013 OVC030 01/M01 A2982 RMK AO2 VIS 1V5 P0001
2026-04-23 01:02:00,SPECI KJAC 230102Z 20019KT 2 1/2SM -SN BR BKN015 OVC029 01/M01 A2982 RMK AO2 VIS 1 3/4V5 P0000
2026-04-23 00:58:00,SPECI KJAC 230058Z 19018KT 3SM -SN BR BKN013 OVC029 01/M01 A2982 RMK AO2 P0000
2026-04-23 00:56:00,METAR KJAC 230056Z 19017KT 2 1/2SM -SN BR BKN013 BKN021 OVC031 01/M01 A2981 RMK AO2 VIS 1V5 SLP114 P0000 T00061006
2026-04-23 00:49:00,SPECI KJAC 230049Z 20016G25KT 1 3/4SM -SN BR FEW011 BKN030 OVC036 01/M01 A2981 RMK AO2 P0000
2026-04-23 00:46:00,SPECI KJAC 230046Z 19020G25KT 2 1/2SM -SN BR FEW011 BKN028 OVC034 01/M01 A2981 RMK AO2 P0000
2026-04-23 00:18:00,SPECI KJAC 230018Z 19019G24KT 9SM -SN SCT016 BKN035 OVC044 01/00 A2982 RMK AO2 P0000
2026-04-23 00:06:00,SPECI KJAC 230006Z 19015G22KT 4SM -SN BR SCT014 BKN022 OVC043 01/00 A2981 RMK AO2 P0000
2026-04-23 00:03:00,SPECI KJAC 230003Z 19015G23KT 2 1/2SM -SN BR BKN014 BKN020 OVC032 01/M01 A2982 RMK AO2 VIS 1 1/4V5 P0000
2026-04-22 23:56:00,METAR KJAC 222356Z 20016G23KT 2 1/2SM -SN BR SCT012 BKN018 OVC034 01/00 A2982 RMK AO2 PK WND 19027/2259 VIS 1 1/4V4 RAE00SNB00 SLP109 P0002 60002 T00110000 10072 20006 53006
2026-04-22 23:23:00,SPECI KJAC 222323Z 19019G22KT 5SM -SN BR SCT009 BKN027 OVC038 01/00 A2981 RMK AO2 PK WND 19027/2259 RAE00SNB00 P0001
2026-04-22 23:16:00,SPECI KJAC 222316Z 19017KT 3SM -SN BR SCT007 BKN011 OVC039 01/00 A2982 RMK AO2 PK WND 19027/2259 RAE00SNB00 P0001
2026-04-22 23:11:00,SPECI KJAC 222311Z 18018KT 1 1/4SM -SN BR SCT007 BKN011 OVC029 01/00 A2981 RMK AO2 PK WND 19027/2259 RAE00SNB00 P0001
2026-04-22 23:06:00,SPECI KJAC 222306Z 19017G27KT 1SM -SN BR SCT007 BKN011 OVC027 01/M01 A2981 RMK AO2 PK WND 19027/2259 RAE00SNB00 P0001
2026-04-22 23:01:00,SPECI KJAC 222301Z 19022G27KT 2 1/2SM -SN SCT009 BKN013 OVC027 02/M01 A2981 RMK AO2 PK WND 19027/2259 RAE00SNB00 P0000
2026-04-22 22:56:00,METAR KJAC 222256Z 19021G26KT 10SM -RA SCT012 BKN020 OVC027 03/M01 A2981 RMK AO2 PK WND 20026/2256 SLP102 P0000 T00281011
2026-04-22 22:38:00,SPECI KJAC 222238Z 20012G25KT 8SM -RA FEW012 BKN023 OVC038 03/M01 A2980 RMK AO2 PK WND 19026/2158 P0000
2026-04-22 21:56:00,METAR KJAC 222156Z 18021G29KT 10SM -RA OVC033 04/M02 A2978 RMK AO2 PK WND 18030/2150 SLP085 P0000 T00441017
2026-04-22 20:56:00,METAR KJAC 222056Z 20020G27KT 10SM -RA FEW027 BKN042 OVC050 04/M01 A2979 RMK AO2 PK WND 20027/2053 RAB26 SLP081 P0000 60000 T00441011 53001
2026-04-22 19:56:00,METAR KJAC 221956Z 22016G23KT 10SM BKN035 OVC045 06/M02 A2979 RMK AO2 RAB09E53 SLP082 P0000 T00561022
2026-04-22 18:56:00,METAR KJAC 221856Z 22013G17KT 200V260 10SM FEW029 SCT037 BKN048 07/M02 A2978 RMK AO2 RAE00 SLP067 P0000 T00671022
2026-04-22 17:56:00,METAR KJAC 221756Z VRB04KT 10SM -RA BKN040 BKN049 OVC060 03/M01 A2979 RMK AO2 WSHFT 1717 RAB31 SLP079 P0000 60000 T00331011 10089 20011 53007
2026-04-22 17:37:00,SPECI KJAC 221737Z 27018G24KT 10SM -RA BKN042 BKN049 03/M01 A2979 RMK AO2 WSHFT 1717 RAB31 PRESRR P0000
2026-04-22 16:56:00,METAR KJAC 221656Z 20018G23KT 10SM FEW048 07/M02 A2976 RMK AO2 SLP059 T00671017
2026-04-22 15:56:00,METAR KJAC 221556Z 22010KT 10SM FEW050 SCT060 OVC075 05/M01 A2979 RMK AO2 PK WND 22039/1506 RAB07E22 SLP059 P0000 T00501006
2026-04-22 14:56:00,METAR KJAC 221456Z 23024G31KT 10SM SCT065 BKN080 07/M01 A2976 RMK AO2 PK WND 23031/1454 SLP045 T00671011 53012
2026-04-22 13:56:00,METAR KJAC 221356Z 19007KT 10SM FEW100 08/01 A2974 RMK AO2 SLP037 T00780006
2026-04-22 12:56:00,METAR KJAC 221256Z 00000KT 10SM OVC110 02/M01 A2973 RMK AO2 SLP040 T00171006
2026-04-22 11:56:00,METAR KJAC 221156Z AUTO 06004KT 10SM BKN110 03/01 A2972 RMK AO2 SLP031 60000 70009 T00280006 10089 20028 56014
2026-04-22 10:56:00,METAR KJAC 221056Z AUTO 34004KT 10SM BKN110 03/01 A2973 RMK AO2 SLP028 T00330006
2026-04-22 09:56:00,METAR KJAC 220956Z AUTO 35006KT 10SM FEW085 BKN110 04/02 A2975 RMK AO2 SLP035 T00440022
2026-04-22 08:56:00,METAR KJAC 220856Z AUTO 11006KT 10SM FEW047 SCT065 BKN085 07/03 A2977 RMK AO2 RAB12E43 SLP036 P0000 60000 T00720028 58007
2026-04-22 07:56:00,METAR KJAC 220756Z AUTO 26004KT 10SM FEW110 05/02 A2978 RMK AO2 SLP042 T00500022
2026-04-22 06:56:00,METAR KJAC 220656Z AUTO 35005KT 10SM FEW031 OVC110 08/04 A2979 RMK AO2 RAB34E51 SLP039 P0000 T00830039 402171033
2026-04-22 05:56:00,METAR KJAC 220556Z AUTO VRB04KT 10SM CLR 08/04 A2980 RMK AO2 SLP047 60009 T00830039 10194 20083 58012
2026-04-22 04:56:00,METAR KJAC 220456Z AUTO 34006KT 10SM FEW070 OVC100 09/05 A2983 RMK AO2 WSHFT 0414 RAB16E38 SLP068 P0009 T00890050
2026-04-22 04:34:00,SPECI KJAC 220434Z AUTO 31008KT 10SM -RA FEW031 BKN070 OVC095 10/04 A2984 RMK AO2 WSHFT 0414 RAB16 PRESFR P0009
2026-04-22 03:56:00,METAR KJAC 220356Z AUTO 00000KT 10SM FEW047 OVC110 14/00 A2983 RMK AO2 SLP062 T01440000
2026-04-22 02:56:00,METAR KJAC 220256Z 25010G18KT 180V280 10SM SCT060 BKN075 BKN090 16/M01 A2984 RMK AO2 TSB17E32 SLP073 T01561006 55005
2026-04-22 02:47:00,SPECI KJAC 220247Z 23011KT 10SM FEW070 SCT095 BKN110 14/M01 A2985 RMK AO2 TSB17E32 PRESRR
2026-04-22 02:38:00,SPECI KJAC 220238Z 30004KT 10SM SCT110 14/00 A2983 RMK AO2 TSB17E32
2026-04-22 02:23:00,SPECI KJAC 220223Z 28006KT 10SM VCTS SCT110 16/M01 A2982 RMK AO2 TSB17
2026-04-22 01:56:00,METAR KJAC 220156Z VRB03KT 10SM CLR 14/01 A2983 RMK AO2 SLP082 T01440006
2026-04-22 00:56:00,METAR KJAC 220056Z 13010KT 10SM CLR 17/M01 A2985 RMK AO2 SLP094 T01671006
2026-04-21 23:56:00,METAR KJAC 212356Z 16012KT 10SM CLR 19/M03 A2986 RMK AO2 LTG DSNT SE SLP087 T01941033 10217 20178 56022
2026-04-21 22:56:00,METAR KJAC 212256Z 19015G20KT 10SM FEW120 21/M03 A2988 RMK AO2 SLP087 T02061033
2026-04-21 21:56:00,METAR KJAC 212156Z 20012G20KT 10SM FEW100 20/M04 A2991 RMK AO2 SLP101 T02001044
2026-04-21 20:56:00,METAR KJAC 212056Z 21010KT 10SM FEW110 21/M03 A2994 RMK AO2 SLP110 T02061033 56028
2026-04-21 19:56:00,METAR KJAC 211956Z 24015G23KT 10SM SCT100 21/M03 A2996 RMK AO2 SLP116 T02111028
2026-04-21 18:56:00,METAR KJAC 211856Z 19012G17KT 10SM CLR 21/M03 A3000 RMK AO2 SLP129 T02061028
2026-04-21 17:56:00,METAR KJAC 211756Z 19008KT 10SM CLR 18/M02 A3004 RMK AO2 SLP145 T01831022 10183 21033 58017
2026-04-21 16:56:00,METAR KJAC 211656Z VRB04KT 10SM CLR 13/M02 A3007 RMK AO2 SLP168 T01331022
2026-04-21 15:56:00,METAR KJAC 211556Z 15004KT 10SM CLR 10/M03 A3008 RMK AO2 SLP161 T01001033
2026-04-21 14:56:00,METAR KJAC 211456Z 00000KT 10SM CLR 07/M04 A3010 RMK AO2 SLP172 T00671039 50005
2026-04-21 13:56:00,METAR KJAC 211356Z 00000KT 10SM CLR 02/M04 A3010 RMK AO2 SLP181 T00221044
2026-04-21 12:56:00,METAR KJAC 211256Z 02004KT 10SM CLR M03/M06 A3009 RMK AO2 SLP183 T10281056
2026-04-21 11:56:00,METAR KJAC 211156Z AUTO 02006KT 10SM CLR M01/M04 A3008 RMK AO2 SLP165 T10061044 10028 21011 50003 FZRANO
2026-04-21 10:56:00,METAR KJAC 211056Z AUTO 01004KT 10SM FEW110 02/M06 A3008 RMK AO2 SLP159 T00171056 FZRANO
2026-04-21 09:56:00,METAR KJAC 210956Z AUTO 03005KT 10SM BKN110 01/M05 A3008 RMK AO2 SLP159 T00111050 FZRANO
2026-04-21 08:56:00,METAR KJAC 210856Z AUTO 02005KT 10SM SCT110 01/M06 A3007 RMK AO2 SLP156 T00061056 50002 FZRANO
2026-04-21 06:56:00,METAR KJAC 210656Z AUTO 01007KT 10SM CLR 01/M06 A3007 RMK AO2 SLP160 T00111056 402061039 FZRANO
2026-04-21 05:56:00,METAR KJAC 210556Z AUTO 02006KT 10SM CLR 03/M06 A3006 RMK AO2 SLP162 T00281056 10189 20017 51007
2026-04-21 04:56:00,METAR KJAC 210456Z AUTO 01006KT 10SM CLR 02/M06 A3006 RMK AO2 SLP170 T00221061 FZRANO
2026-04-21 03:56:00,METAR KJAC 210356Z AUTO 00000KT 10SM CLR 10/M07 A3005 RMK AO2 SLP156 T01001072
2026-04-21 02:56:00,METAR KJAC 210256Z 00000KT 10SM CLR 12/M07 A3004 RMK AO2 SLP156 T01171072 53001
2026-04-21 01:56:00,METAR KJAC 210156Z 24006KT 10SM CLR 13/M08 A3002 RMK AO2 SLP159 T01281083
2026-04-21 00:56:00,METAR KJAC 210056Z 22007KT 10SM CLR 16/M11 A3003 RMK AO2 SLP165 T01611106
2026-04-20 23:56:00,METAR KJAC 202356Z 22016G19KT 10SM CLR 19/M11 A3003 RMK AO2 SLP156 T01891106 10206 20150 55007
2026-04-20 22:56:00,METAR KJAC 202256Z 21016G24KT 10SM CLR 20/M10 A3003 RMK AO2 SLP148 T02001100
2026-04-20 21:56:00,METAR KJAC 202156Z 21014G22KT 10SM CLR 20/M11 A3004 RMK AO2 SLP152 T02001111
2026-04-20 20:56:00,METAR KJAC 202056Z 23009G20KT 110V020 10SM CLR 20/M11 A3006 RMK AO2 WSHFT 2029 SLP155 T02001111 56014
2026-04-20 20:49:00,SPECI KJAC 202049Z 22015G20KT 10SM CLR 20/M12 A3006 RMK AO2 WSHFT 2029
2026-04-20 19:56:00,METAR KJAC 201956Z 20016G22KT 10SM CLR 19/M09 A3007 RMK AO2 SLP155 T01941094
2026-04-20 18:56:00,METAR KJAC 201856Z 23012G21KT 10SM CLR 18/M09 A3008 RMK AO2 SLP159 T01831094
2026-04-20 17:56:00,METAR KJAC 201756Z 17006KT 10SM CLR 15/M03 A3011 RMK AO2 SLP178 T01501033 10150 21039 58009
2026-04-20 16:56:00,METAR KJAC 201656Z VRB03KT 10SM CLR 11/M04 A3012 RMK AO2 SLP192 T01111039
2026-04-20 15:56:00,METAR KJAC 201556Z 15003KT 10SM CLR 07/M06 A3013 RMK AO2 SLP201 T00721056
2026-04-20 14:56:00,METAR KJAC 201456Z 00000KT 10SM CLR 04/M05 A3014 RMK AO2 SLP203 T00441050 51002
2026-04-20 13:56:00,METAR KJAC 201356Z 01004KT 10SM CLR 01/M04 A3014 RMK AO2 SLP201 T00061044
2026-04-20 12:56:00,METAR KJAC 201256Z 02005KT 10SM CLR M04/M06 A3013 RMK AO2 SLP200 T10391061
2026-04-20 11:56:00,METAR KJAC 201156Z AUTO 02008KT 10SM CLR M03/M06 A3013 RMK AO2 SLP197 T10331056 10028 21033 50002 FZRANO
2026-04-20 10:56:00,METAR KJAC 201056Z AUTO 03004KT 10SM CLR M02/M05 A3013 RMK AO2 SLP192 T10171050 FZRANO
2026-04-20 09:56:00,METAR KJAC 200956Z AUTO 04005KT 10SM CLR M01/M05 A3013 RMK AO2 SLP190 T10111050 FZRANO
2026-04-20 08:56:00,METAR KJAC 200856Z AUTO 03006KT 10SM CLR M01/M05 A3012 RMK AO2 SLP192 T10061050 50005 FZRANO
2026-04-20 07:56:00,METAR KJAC 200756Z AUTO 03007KT 10SM CLR 02/M06 A3013 RMK AO2 SLP187 T00171056 FZRANO
2026-04-20 06:56:00,METAR KJAC 200656Z AUTO 01007KT 10SM CLR 02/M06 A3012 RMK AO2 SLP188 T00221056 401721078 FZRANO
2026-04-20 05:56:00,METAR KJAC 200556Z AUTO 03006KT 10SM CLR 02/M04 A3011 RMK AO2 SLP191 T00221044 10167 20017 51008 FZRANO
2026-04-20 04:56:00,METAR KJAC 200456Z AUTO 35006KT 10SM CLR 03/M06 A3010 RMK AO2 SLP200 T00281056
2026-04-20 03:56:00,METAR KJAC 200356Z AUTO 01007KT 10SM CLR 04/M05 A3009 RMK AO2 SLP201 T00391050
2026-04-20 02:56:00,METAR KJAC 200256Z 00000KT 10SM CLR 07/M07 A3008 RMK AO2 SLP195 T00721067 53000
2026-04-20 01:56:00,METAR KJAC 200156Z 28003KT 9SM CLR 12/M09 A3007 RMK AO2 SLP187 T01221089
2026-04-20 00:56:00,METAR KJAC 200056Z 23006KT 10SM CLR 16/M10 A3007 RMK AO2 SLP184 T01611100
2026-04-19 23:56:00,METAR KJAC 192356Z 25009KT 10SM CLR 17/M10 A3008 RMK AO2 SLP186 T01671100 10172 20100 56014
2026-04-19 22:56:00,METAR KJAC 192256Z VRB04KT 10SM CLR 17/M09 A3009 RMK AO2 SLP191 T01671094
2026-04-19 21:56:00,METAR KJAC 192156Z 16004KT 10SM CLR 16/M11 A3010 RMK AO2 SLP196 T01611111
2026-04-19 20:56:00,METAR KJAC 192056Z VRB03KT 10SM CLR 15/M11 A3013 RMK AO2 SLP204 T01501106 56017
2026-04-19 19:56:00,METAR KJAC 191956Z VRB06KT 10SM CLR 14/M09 A3015 RMK AO2 SLP214 T01441089
2026-04-19 18:56:00,METAR KJAC 191856Z 18007KT 10SM CLR 13/M08 A3016 RMK AO2 SLP222 T01281083
2026-04-19 17:56:00,METAR KJAC 191756Z 19007KT 10SM CLR 10/M06 A3019 RMK AO2 SLP235 T01001056 10100 21078 58012
2026-04-19 16:56:00,METAR KJAC 191656Z VRB04KT 10SM CLR 05/M07 A3021 RMK AO2 SLP258 T00501067
2026-04-19 15:56:00,METAR KJAC 191556Z 00000KT 10SM CLR 03/M07 A3022 RMK AO2 SLP264 T00281072
2026-04-19 14:56:00,METAR KJAC 191456Z 00000KT 10SM CLR M01/M06 A3023 RMK AO2 SLP262 T10061061 51007
2026-04-19 13:56:00,METAR KJAC 191356Z 02004KT 10SM CLR M04/M07 A3023 RMK AO2 SLP263 T10391072
2026-04-19 12:56:00,METAR KJAC 191256Z 03004KT 10SM CLR M07/M09 A3022 RMK AO2 SLP259 T10671094
2026-04-19 11:56:00,METAR KJAC 191156Z AUTO 02003KT 10SM CLR M07/M09 A3021 RMK AO2 SLP253 T10671089 11033 21072 57000 FZRANO
2026-04-19 10:56:00,METAR KJAC 191056Z AUTO 04004KT 10SM CLR M07/M09 A3021 RMK AO2 SLP253 T10671089 FZRANO
2026-04-19 09:56:00,METAR KJAC 190956Z AUTO 01004KT 10SM CLR M06/M09 A3021 RMK AO2 SLP253 T10611089 FZRANO
2026-04-19 08:56:00,METAR KJAC 190856Z AUTO 00000KT 10SM CLR M05/M08 A3021 RMK AO2 SLP253 T10501078 50001 FZRANO
2026-04-19 07:56:00,METAR KJAC 190756Z AUTO 36006KT 10SM CLR M06/M08 A3021 RMK AO2 SLP257 T10611083 FZRANO
2026-04-19 06:56:00,METAR KJAC 190656Z AUTO 35004KT 10SM CLR M06/M08 A3021 RMK AO2 SLP259 T10561083 400891094 FZRANO
2026-04-19 05:56:00,METAR KJAC 190556Z AUTO 02009KT 10SM BKN110 M03/M07 A3020 RMK AO2 SLP255 T10331067 10089 21039 50001 FZRANO
2026-04-19 04:56:00,METAR KJAC 190456Z AUTO 03004KT 10SM CLR M04/M08 A3022 RMK AO2 SLP265 T10391078 FZRANO
2026-04-19 03:56:00,METAR KJAC 190356Z AUTO 35005KT 10SM CLR M03/M08 A3021 RMK AO2 SLP268 T10281078 FZRANO
2026-04-19 02:56:00,METAR KJAC 190256Z 00000KT 10SM CLR 02/M07 A3020 RMK AO2 SLP256 T00221072 53001
2026-04-19 01:56:00,METAR KJAC 190156Z 27005KT 10SM CLR 05/M08 A3018 RMK AO2 SLP257 T00501078
2026-04-19 00:56:00,METAR KJAC 190056Z 25005KT 10SM CLR 08/M09 A3019 RMK AO2 SLP255 T00781094
2026-04-18 23:56:00,METAR KJAC 182356Z VRB06KT 10SM CLR 08/M09 A3019 RMK AO2 SLP255 T00831089 10089 20039 58008
2026-04-18 22:56:00,METAR KJAC 182256Z 27011KT 10SM CLR 08/M10 A3020 RMK AO2 SLP258 T00831100
2026-04-18 21:56:00,METAR KJAC 182156Z VRB05KT 10SM CLR 08/M09 A3022 RMK AO2 SLP259 T00831094
2026-04-18 20:56:00,METAR KJAC 182056Z 27012G18KT 10SM CLR 07/M11 A3022 RMK AO2 SLP262 T00721106 58009
2026-04-18 19:56:00,METAR KJAC 181956Z 22007G14KT 160V280 10SM CLR 07/M12 A3023 RMK AO2 SLP263 T00671117
2026-04-18 18:56:00,METAR KJAC 181856Z VRB06KT 10SM CLR 05/M11 A3025 RMK AO2 SLP271 T00501106
2026-04-18 17:56:00,METAR KJAC 181756Z VRB03KT 10SM CLR 04/M11 A3026 RMK AO2 SLP274 T00391111 10044 21094 51001
2026-04-18 16:56:00,METAR KJAC 181656Z 18005G14KT 10SM CLR 03/M09 A3026 RMK AO2 SLP280 T00281094
2026-04-18 15:56:00,METAR KJAC 181556Z 00000KT 10SM CLR 01/M08 A3026 RMK AO2 SLP290 T00061083
2026-04-18 14:56:00,METAR KJAC 181456Z 01004KT 10SM CLR M02/M07 A3026 RMK AO2 SLP295 T10221072 52011
2026-04-18 13:56:00,METAR KJAC 181356Z 03006KT 10SM CLR M07/M09 A3024 RMK AO2 SLP297 T10721094
2026-04-18 12:56:00,METAR KJAC 181256Z 04006KT 10SM CLR M09/M11 A3023 RMK AO2 SLP294 T10891106
2026-04-18 11:56:00,METAR KJAC 181156Z AUTO 02003KT 10SM CLR M09/M10 A3022 RMK AO2 SLP293 60000 T10891100 11033 21094 53008 FZRANO
2026-04-18 10:56:00,METAR KJAC 181056Z AUTO 01006KT 10SM CLR M08/M10 A3021 RMK AO2 SLP283 T10831100 FZRANO
2026-04-18 09:56:00,METAR KJAC 180956Z AUTO 08003KT 10SM CLR M07/M09 A3019 RMK AO2 SLP272 T10721089 FZRANO
2026-04-18 08:56:00,METAR KJAC 180856Z AUTO 00000KT 10SM CLR M06/M09 A3019 RMK AO2 SLP267 60000 T10611089 50001 FZRANO
2026-04-18 07:56:00,METAR KJAC 180756Z AUTO 16004KT 10SM BKN065 M05/M08 A3019 RMK AO2 SLP269 T10501078 FZRANO
2026-04-18 06:56:00,METAR KJAC 180656Z AUTO 20006KT 10SM SCT048 OVC065 M04/M07 A3019 RMK AO2 SNE0557B27E37 SLP262 P0000 T10391072 400111122 FZRANO
2026-04-18 05:56:00,METAR KJAC 180556Z AUTO 02003KT 9SM -SN FEW022 SCT036 OVC046 M03/M06 A3018 RMK AO2 SNB02 SLP260 P0000 60000 T10331061 11017 21056 50008 FZRANO
2026-04-18 05:48:00,SPECI KJAC 180548Z AUTO 00000KT 9SM -SN FEW022 BKN036 OVC046 M03/M07 A3018 RMK AO2 SNB02 P0000 FZRANO
2026-04-18 05:09:00,SPECI KJAC 180509Z AUTO VRB05KT 4SM -SN FEW013 BKN027 OVC036 M03/M06 A3018 RMK AO2 SNB02 P0000 FZRANO
2026-04-18 04:56:00,METAR KJAC 180456Z AUTO 13003KT 10SM FEW025 BKN035 OVC060 M04/M06 A3019 RMK AO2 SNE0359B26E48 SLP264 P0000 T10391061 FZRANO
2026-04-18 03:56:00,METAR KJAC 180356Z AUTO 00000KT 9SM -SN BKN046 OVC060 M05/M07 A3017 RMK AO2 SNB47 SLP269 P0000 T10501072 FZRANO
2026-04-18 02:56:00,METAR KJAC 180256Z 18006KT 10SM FEW032 SCT060 M04/M07 A3015 RMK AO2 SNE22 SLP262 P0000 60000 T10441072 53008
2026-04-18 02:18:00,SPECI KJAC 180218Z 15006KT 10SM -SN FEW012 SCT023 BKN110 M03/M08 A3013 RMK AO2 P0000
2026-04-18 02:08:00,SPECI KJAC 180208Z 15007KT 10SM -SN SCT013 BKN022 OVC110 M03/M07 A3014 RMK AO2 P0000
2026-04-18 02:04:00,SPECI KJAC 180204Z 15006KT 1 1/4SM -SN SCT013 BKN022 OVC055 M03/M07 A3014 RMK AO2 P0000
2026-04-18 01:56:00,METAR KJAC 180156Z 28006KT 1 1/2SM -SN SCT016 BKN033 OVC120 M02/M07 A3014 RMK AO2 SNE01B47 SLP264 P0000 T10221072
2026-04-18 00:56:00,METAR KJAC 180056Z 12007KT 9SM -SN SCT043 BKN055 OVC065 M02/M07 A3013 RMK AO2 SLP268 P0000 T10171067
2026-04-17 23:56:00,METAR KJAC 172356Z 15009KT 10SM -SN SCT013 BKN043 OVC060 M02/M06 A3012 RMK AO2 SNB12 SLP270 P0000 60000 T10221061 10011 21028 50006
2026-04-17 23:54:00,SPECI KJAC 172354Z 16009KT 10SM -SN SCT013 BKN045 OVC060 M02/M06 A3013 RMK AO2 SNB12 P0000
2026-04-17 23:40:00,SPECI KJAC 172340Z 20007KT 10SM -SN FEW008 BKN012 OVC046 M03/M07 A3013 RMK AO2 SNB12 P0000
2026-04-17 23:31:00,SPECI KJAC 172331Z 19006KT 3SM -SN FEW006 BKN017 OVC047 M03/M07 A3013 RMK AO2 SNB12 P0000
2026-04-17 23:26:00,SPECI KJAC 172326Z VRB05KT 1 1/4SM -SN FEW006 BKN017 OVC042 M03/M07 A3013 RMK AO2 SNB12 P0000
2026-04-17 23:24:00,SPECI KJAC 172324Z 20004KT 1SM -SN SCT010 BKN017 OVC040 M03/M07 A3013 RMK AO2 SNB12 P0000
2026-04-17 23:17:00,SPECI KJAC 172317Z 24008G19KT 3/4SM -SN SCT009 SCT017 OVC040 M02/M07 A3013 RMK AO2 SNB12 P0000
2026-04-17 23:13:00,SPECI KJAC 172313Z 25014G19KT 1 1/2SM -SN FEW013 BKN040 OVC100 M02/M08 A3013 RMK AO2 SNB12 P0000
2026-04-17 22:56:00,METAR KJAC 172256Z VRB03KT 10SM SCT044 BKN065 BKN080 M01/M09 A3012 RMK AO2 WSHFT 2154 RAB01E03SNB03E49 SLP257 P0000 T10061089
2026-04-17 22:14:00,SPECI KJAC 172214Z 32009KT 7SM -SN FEW034 SCT041 OVC050 M02/M08 A3013 RMK AO2 WSHFT 2154 RAB01E03SNB03 P0000
2026-04-17 21:56:00,METAR KJAC 172156Z 30014G22KT 10SM FEW027 SCT033 BKN052 01/M12 A3010 RMK AO2 SLP237 T00061117
2026-04-17 20:56:00,METAR KJAC 172056Z VRB05KT 9SM FEW022 BKN034 OVC042 00/M09 A3012 RMK AO2 SNB17E52 SLP248 P0000 60000 T00001094 53002
2026-04-17 19:31:00,SPECI KJAC 171931Z 25015G19KT 9SM -RA SCT050 BKN060 01/M09 A3011 RMK AO2 WSHFT 1911 RAB30 P0000
2026-04-17 18:56:00,METAR KJAC 171856Z 33009KT 10SM FEW043 BKN049 00/M11 A3011 RMK AO2 SLP244 T00001106
2026-04-17 17:56:00,METAR KJAC 171756Z 30007KT 10SM SCT030 SCT035 BKN044 00/M10 A3012 RMK AO2 SNB27E47 SLP246 P0000 60000 T00001100 10000 21122 53006
2026-04-17 16:56:00,METAR KJAC 171656Z VRB03KT 10SM FEW031 BKN039 OVC050 M01/M09 A3010 RMK AO2 SLP241 T10111089
2026-04-17 15:56:00,METAR KJAC 171556Z 17005KT 10SM FEW035 BKN049 OVC065 M03/M09 A3010 RMK AO2 SLP242 T10281094
2026-04-17 14:56:00,METAR KJAC 171456Z 17005KT 10SM FEW038 OVC060 M04/M08 A3010 RMK AO2 SNE27 SLP244 P0000 60000 T10391078 51017
2026-04-17 13:56:00,METAR KJAC 171356Z 00000KT 10SM -SN SCT049 OVC060 M08/M09 A3008 RMK AO2 SNB53 SLP249 P0000 T10781089
2026-04-17 12:56:00,METAR KJAC 171256Z 00000KT 6SM BR CLR M12/M13 A3005 RMK AO2 SNE1159B18E36 SLP246 P0000 T11171133
2026-04-17 12:28:00,SPECI KJAC 171228Z AUTO 03007KT 3SM -SN BR CLR M11/M12 A3003 RMK AO2 SNE1159B18 P0000 FZRANO
2026-04-17 12:19:00,SPECI KJAC 171219Z AUTO 00000KT 1 3/4SM -SN BR FEW001 M12/M14 A3003 RMK AO2 VIS 3/4V5 SNE1159B18 P0000 FZRANO
2026-04-17 11:56:00,METAR KJAC 171156Z AUTO 00000KT 6SM -SN BR FEW001 M12/M14 A3003 RMK AO2 SNE13B50 SLP235 P0000 60000 T11221139 11061 21122 53013 FZRANO
2026-04-17 11:47:00,SPECI KJAC 171147Z AUTO VRB03KT 2 1/2SM BR FEW001 M12/M13 A3003 RMK AO2 VIS 1 1/2V5 SNE13 P0000 FZRANO
2026-04-17 10:56:00,METAR KJAC 171056Z AUTO 00000KT 9SM -SN FEW017 M09/M12 A3002 RMK AO2 SLP216 P0000 T10941117 FZRANO
2026-04-17 10:28:00,SPECI KJAC 171028Z AUTO 06003KT 9SM -SN SCT025 SCT035 M08/M09 A3001 RMK AO2 P0000 FZRANO
2026-04-17 09:56:00,METAR KJAC 170956Z AUTO 16003KT 3SM -SN BR SCT015 BKN020 OVC030 M07/M08 A3000 RMK AO2 SLP201 P0000 T10671078 FZRANO
2026-04-17 09:48:00,SPECI KJAC 170948Z AUTO 13004KT 2SM -SN BR BKN017 BKN024 OVC030 M07/M08 A3000 RMK AO2 VIS 1V4 P0000 FZRANO
2026-04-17 09:18:00,SPECI KJAC 170918Z AUTO 17003KT 7SM -SN SCT011 BKN016 OVC033 M07/M08 A2999 RMK AO2 P0000 FZRANO
2026-04-17 09:10:00,SPECI KJAC 170910Z AUTO 13003KT 5SM -SN BR BKN011 BKN025 OVC042 M07/M08 A2999 RMK AO2 P0000 FZRANO
2026-04-17 09:02:00,SPECI KJAC 170902Z AUTO 13004KT 2 1/2SM -SN BR BKN009 BKN017 OVC070 M07/M08 A2999 RMK AO2 CIG 005V014 P0000 FZRANO
2026-04-17 08:56:00,METAR KJAC 170856Z AUTO 14004KT 4SM -SN BR SCT009 BKN025 OVC070 M07/M08 A2999 RMK AO2 SLP199 P0000 60000 T10671078 51001 FZRANO
2026-04-17 07:56:00,METAR KJAC 170756Z AUTO 11003KT 9SM -SN FEW029 BKN034 OVC044 M07/M08 A2999 RMK AO2 SLP201 P0000 T10671078 FZRANO
2026-04-17 07:39:00,SPECI KJAC 170739Z AUTO 09003KT 9SM -SN FEW018 BKN031 OVC047 M06/M08 A2999 RMK AO2 P0000 FZRANO
2026-04-17 07:30:00,SPECI KJAC 170730Z AUTO 11003KT 5SM -SN BR SCT020 BKN027 OVC034 M06/M07 A2999 RMK AO2 P0000 FZRANO
2026-04-17 06:56:00,METAR KJAC 170656Z AUTO 20004KT 2 1/2SM -SN BR BKN021 BKN031 OVC043 M07/M07 A2998 RMK AO2 VIS 1 3/4V4 SLP195 P0000 T10671072 400561078 FZRANO
2026-04-17 06:51:00,SPECI KJAC 170651Z AUTO 20003KT 4SM -SN BR SCT021 BKN029 OVC085 M07/M08 A2998 RMK AO2 P0000 400561078 FZRANO
2026-04-17 05:56:00,METAR KJAC 170556Z AUTO 24005KT 10SM -SN OVC050 M07/M08 A2997 RMK AO2 SNB52 SLP198 P0000 60000 T10721083 11039 21072 51015 FZRANO
2026-04-17 04:56:00,METAR KJAC 170456Z AUTO 35003KT 10SM FEW009 OVC055 M06/M08 A2997 RMK AO2 SNE49 SLP193 P0000 T10611083 FZRANO
2026-04-17 04:44:00,SPECI KJAC 170444Z AUTO 00000KT 9SM -SN SCT007 BKN049 OVC060 M06/M08 A2997 RMK AO2 P0000 FZRANO
2026-04-17 04:36:00,SPECI KJAC 170436Z AUTO 00000KT 4SM -SN BR BKN007 BKN031 OVC055 M06/M08 A2997 RMK AO2 CIG 004V011 P0000 FZRANO
2026-04-17 04:33:00,SPECI KJAC 170433Z AUTO 07005KT 2SM -SN BR SCT007 BKN010 OVC050 M06/M08 A2997 RMK AO2 VIS 1V5 P0000 FZRANO
2026-04-17 04:30:00,SPECI KJAC 170430Z AUTO 07006KT 1 1/4SM -SN BR BKN007 BKN028 OVC050 M06/M08 A2997 RMK AO2 CIG 004V011 P0000 FZRANO
2026-04-17 04:27:00,SPECI KJAC 170427Z AUTO 06009KT 3/4SM -SN BR BKN007 BKN031 OVC050 M06/M08 A2997 RMK AO2 CIG 004V011 P0000 FZRANO
2026-04-17 04:23:00,SPECI KJAC 170423Z AUTO 07011KT 1/2SM -SN FZFG BKN005 BKN034 OVC050 M06/M08 A2997 RMK AO2 CIG 004V010 P0000 FZRANO
2026-04-17 04:18:00,SPECI KJAC 170418Z AUTO 06011G18KT 3/4SM -SN BR SCT005 BKN039 OVC050 M06/M08 A2997 RMK AO2 P0000 FZRANO
2026-04-17 04:15:00,SPECI KJAC 170415Z AUTO 05016KT 1 1/4SM -SN FEW005 BKN046 OVC060 M05/M08 A2997 RMK AO2 PRESRR P0000 FZRANO
2026-04-17 03:56:00,METAR KJAC 170356Z AUTO 26010KT 9SM -SN SCT025 SCT036 OVC055 M05/M09 A2994 RMK AO2 SLP175 P0000 T10501094 FZRANO
2026-04-17 03:37:00,SPECI KJAC 170337Z AUTO 21011KT 6SM -SN BR SCT024 BKN030 OVC034 M06/M08 A2994 RMK AO2 P0000 FZRANO
2026-04-17 03:04:00,SPECI KJAC 170304Z 21012G19KT 3SM -SN BR FEW006 BKN016 OVC023 M05/M07 A2992 RMK AO2 P0000
2026-04-17 02:59:00,SPECI KJAC 170259Z 21010KT 2SM -SN BR SCT011 OVC019 M06/M07 A2992 RMK AO2 P0000
2026-04-17 02:56:00,METAR KJAC 170256Z 21012KT 1 1/2SM -SN BR BKN009 OVC016 M05/M07 A2992 RMK AO2 CIG 005V012 SLP172 P0000 60000 T10501067 53023
2026-04-17 02:39:00,SPECI KJAC 170239Z 20012KT 1 1/2SM -SN BR FEW007 BKN013 OVC019 M05/M07 A2990 RMK AO2 P0000
2026-04-17 02:29:00,SPECI KJAC 170229Z 20013KT 1 1/4SM -SN BR BKN016 OVC022 M05/M07 A2990 RMK AO2 VIS 1/2V3 P0000
2026-04-17 02:24:00,SPECI KJAC 170224Z 20013KT 1SM -SN BR BKN012 BKN017 OVC022 M05/M07 A2990 RMK AO2 VIS 1/2V1 3/4 P0000
2026-04-17 02:18:00,SPECI KJAC 170218Z 20014KT 1 3/4SM -SN BR BKN015 BKN019 OVC025 M05/M07 A2990 RMK AO2 VIS 3/4V3 P0000
2026-04-17 01:56:00,METAR KJAC 170156Z 20014G22KT 9SM -SN FEW013 SCT021 OVC029 M04/M08 A2989 RMK AO2 SLP158 P0000 T10441078
2026-04-17 01:41:00,SPECI KJAC 170141Z 19017G21KT 7SM -SN FEW015 BKN029 OVC037 M04/M08 A2988 RMK AO2 P0000
2026-04-17 01:09:00,SPECI KJAC 170109Z 20008KT 8SM -SN FEW007 SCT027 BKN034 M04/M08 A2988 RMK AO2 P0000
2026-04-17 01:02:00,SPECI KJAC 170102Z 20014G19KT 2 1/2SM -SN FEW009 BKN034 OVC050 M04/M07 A2987 RMK AO2 VIS 1 3/4V5 P0000
2026-04-17 00:56:00,METAR KJAC 170056Z 20014KT 3SM -SN FEW009 BKN028 OVC042 M04/M08 A2987 RMK AO2 SNB24 SLP147 P0000 T10391078
2026-04-17 00:38:00,SPECI KJAC 170038Z 20012G19KT 6SM -SN FEW009 BKN042 OVC065 M04/M08 A2987 RMK AO2 SNB24 P0000
2026-04-17 00:34:00,SPECI KJAC 170034Z 20014KT 6SM -SN SCT011 BKN023 OVC065 M03/M08 A2986 RMK AO2 SNB24 P0000
2026-04-16 23:56:00,METAR KJAC 162356Z 20015G20KT 10SM SCT050 BKN060 M02/M11 A2984 RMK AO2 SLP128 60000 T10171106 10011 21017 53002
2026-04-16 22:56:00,METAR KJAC 162256Z 23014G18KT 10SM CLR 00/M12 A2983 RMK AO2 RAB31E43 SLP119 P0000 T00001117
2026-04-16 21:56:00,METAR KJAC 162156Z 21011G18KT 10SM BKN070 01/M09 A2981 RMK AO2 SLP105 T00061094
2026-04-16 20:56:00,METAR KJAC 162056Z 20016G23KT 10SM SCT041 BKN049 OVC070 00/M09 A2983 RMK AO2 SNB10E20 SLP111 P0000 60000 T00001094 51005
2026-04-16 19:56:00,METAR KJAC 161956Z 19014G18KT 10SM FEW033 OVC044 00/M07 A2983 RMK AO2 RAB47E49 SLP113 P0000 T00001072
2026-04-16 18:56:00,METAR KJAC 161856Z 19013G19KT 10SM BKN035 OVC043 01/M08 A2982 RMK AO2 SNB16E34 SLP106 P0000 T00061078
2026-04-16 18:44:00,SPECI KJAC 161844Z 19012G16KT 10SM FEW018 BKN036 OVC045 01/M07 A2981 RMK AO2 SNB16E34 P0000
2026-04-16 18:18:00,SPECI KJAC 161818Z 22015G18KT 4SM -SN SCT018 BKN029 OVC050 M01/M07 A2983 RMK AO2 SNB16 P0000
2026-04-16 17:56:00,METAR KJAC 161756Z 20013KT 10SM FEW032 SCT039 OVC050 M01/M07 A2981 RMK AO2 SLP110 60000 T10111067 10017 21011 51010
2026-04-16 16:56:00,METAR KJAC 161656Z 21012G18KT 10SM SCT047 OVC060 M01/M07 A2981 RMK AO2 SLP108 T10061072
2026-04-16 15:56:00,METAR KJAC 161556Z 24012KT 10SM BKN046 OVC055 00/M07 A2979 RMK AO2 SNE08 SLP102 P0000 T00001072
2026-04-16 14:56:00,METAR KJAC 161456Z 21015G18KT 3SM -SN FEW020 BKN027 OVC034 M01/M04 A2978 RMK AO2 SFC VIS 6 SNB30 SLP101 P0000 60000 T10111044 53020
2026-04-16 13:56:00,METAR KJAC 161356Z 19014KT 10SM BKN050 OVC060 00/M04 A2975 RMK AO2 RAE16 SLP084 P0000 T00001039
2026-04-16 12:56:00,METAR KJAC 161256Z 20014KT 10SM -RA BKN039 OVC050 01/M03 A2973 RMK AO2 RAB29 SLP074 P0000 T00061028
2026-04-16 11:56:00,METAR KJAC 161156Z 22009KT 10SM OVC045 01/M01 A2971 RMK AO2 RAB00E25 SLP061 P0000 60001 70001 T00111011 10056 20011 51007
2026-04-16 10:56:00,METAR KJAC 161056Z 20012KT 10SM FEW018 BKN043 OVC060 02/01 A2970 RMK AO2 RAE54 SLP059 P0001 T00220011
2026-04-16 10:52:00,SPECI KJAC 161052Z 21010KT 10SM -RA SCT020 BKN043 OVC070 02/01 A2970 RMK AO2 P0001
2026-04-16 10:27:00,SPECI KJAC 161027Z 22015G19KT 9SM -RA SCT024 BKN028 OVC036 03/01 A2970 RMK AO2 P0000
2026-04-16 09:56:00,METAR KJAC 160956Z 20011G23KT 10SM -RA FEW041 BKN060 OVC090 04/00 A2968 RMK AO2 SLP047 P0000 T00440000
2026-04-16 08:56:00,METAR KJAC 160856Z 21011KT 10SM -RA OVC060 05/M01 A2968 RMK AO2 RAB10E20B48 SLP046 P0000 60000 T00501006 56015
2026-04-16 07:56:00,METAR KJAC 160756Z 18010KT 10SM BKN055 BKN070 04/01 A2970 RMK AO2 RAE47 SLP049 P0000 T00390006
2026-04-16 06:56:00,METAR KJAC 160656Z 20016G25KT 10SM -RA OVC050 04/01 A2972 RMK AO2 PK WND 20034/0643 RAB50 SLP059 P0000 T00440006 400781022
2026-04-16 05:56:00,METAR KJAC 160556Z 18011KT 10SM BKN050 OVC070 04/01 A2973 RMK AO2 RAB07E40 SLP068 P0000 60000 T00390006 10061 20033 58019
2026-04-16 04:56:00,METAR KJAC 160456Z 20009KT 10SM OVC039 03/01 A2977 RMK AO2 SLP079 T00330011
2026-04-16 03:56:00,METAR KJAC 160356Z 18010KT 10SM SCT030 OVC040 03/01 A2979 RMK AO2 RAE44 SLP095 P0000 T00330011
2026-04-16 02:56:00,METAR KJAC 160256Z 20010KT 10SM -RA OVC036 03/01 A2980 RMK AO2 SLP101 P0000 60000 T00330011 56005
2026-04-16 01:56:00,METAR KJAC 160156Z 21010KT 10SM -RA FEW035 BKN050 OVC065 04/01 A2981 RMK AO2 SLP102 P0000 T00390006
2026-04-16 00:56:00,METAR KJAC 160056Z 20012KT 10SM -RA BKN036 OVC048 05/01 A2982 RMK AO2 SLP103 P0000 T00500006
2026-04-15 23:56:00,METAR KJAC 152356Z 21012KT 10SM -RA OVC046 06/01 A2982 RMK AO2 RAE13B52 SLP104 P0000 60000 T00610006 10078 20044 58006
2026-04-15 22:56:00,METAR KJAC 152256Z 20012KT 10SM -RA FEW030 BKN039 OVC046 06/02 A2983 RMK AO2 SLP111 P0000 T00560017
2026-04-15 22:25:00,SPECI KJAC 152225Z 20012KT 10SM -RA SCT025 BKN031 OVC039 05/02 A2984 RMK AO2 P0000
2026-04-15 21:56:00,METAR KJAC 152156Z 21011G21KT 10SM -RA BKN023 BKN029 OVC037 06/01 A2984 RMK AO2 SLP118 P0000 T00560011
2026-04-15 21:52:00,SPECI KJAC 152152Z 21015G21KT 10SM -RA BKN023 BKN027 OVC035 06/01 A2984 RMK AO2 P0000
2026-04-15 21:19:00,SPECI KJAC 152119Z 21012G20KT 10SM -RA FEW022 SCT027 OVC036 05/01 A2986 RMK AO2 P0000
2026-04-15 21:12:00,SPECI KJAC 152112Z 20016G20KT 10SM -RA BKN022 OVC034 05/01 A2986 RMK AO2 P0000
2026-04-15 20:56:00,METAR KJAC 152056Z 20015G22KT 10SM -RA SCT020 OVC034 05/01 A2986 RMK AO2 PK WND 21026/2002 SLP123 P0000 60000 T00500011 56013
2026-04-15 19:56:00,METAR KJAC 151956Z 21022G28KT 10SM -RA OVC040 07/00 A2986 RMK AO2 PK WND 22029/1944 RAB1859E08B53 SLP123 P0000 T00670000
2026-04-15 18:56:00,METAR KJAC 151856Z 24010KT 10SM FEW030 SCT036 OVC047 05/00 A2987 RMK AO2 RAE56 SLP126 P0000 T00500000
2026-04-15 17:56:00,METAR KJAC 151756Z 19014KT 10SM -RA FEW022 OVC030 04/01 A2990 RMK AO2 SLP136 P0000 60000 T00440006 10050 20006 56003
2026-04-15 16:56:00,METAR KJAC 151656Z 20016G21KT 10SM -RA FEW026 BKN040 OVC047 05/M01 A2991 RMK AO2 RAB49 SLP135 P0000 T00501006
2026-04-15 15:56:00,METAR KJAC 151556Z 23009KT 10SM OVC047 03/M01 A2990 RMK AO2 SLP137 T00331006
2026-04-15 14:56:00,METAR KJAC 151456Z 24007KT 10SM OVC045 02/00 A2991 RMK AO2 RAE49 SLP143 P0000 60000 T00170000 50000
2026-04-15 13:56:00,METAR KJAC 151356Z 24007KT 10SM -RA FEW032 SCT041 OVC048 01/00 A2992 RMK AO2 UPB16E18RAB20 SLP142 P0000 T00110000
2026-04-15 12:56:00,METAR KJAC 151256Z 22008KT 10SM SCT035 BKN043 OVC065 02/M01 A2992 RMK AO2 SLP139 T00171011
2026-04-15 11:56:00,METAR KJAC 151156Z AUTO 22003KT 10SM OVC046 01/M03 A2991 RMK AO2 SLP140 T00061028 10011 21022 56004 FZRANO
2026-04-15 10:56:00,METAR KJAC 151056Z AUTO 15004KT 10SM OVC075 00/M03 A2991 RMK AO2 SLP140 T00001028 FZRANO
2026-04-15 09:56:00,METAR KJAC 150956Z AUTO 21004KT 10SM SCT080 M01/M03 A2992 RMK AO2 SLP146 T10111033 FZRANO
2026-04-15 07:56:00,METAR KJAC 150756Z AUTO 21004KT 10SM CLR M02/M03 A2994 RMK AO2 SLP153 T10171033 FZRANO
2026-04-15 06:56:00,METAR KJAC 150656Z AUTO 24005KT 10SM CLR 00/M02 A2995 RMK AO2 SLP152 T00001022 400781033 FZRANO
2026-04-15 05:56:00,METAR KJAC 150556Z AUTO 18003KT 10SM CLR 01/M02 A2996 RMK AO2 SLP158 T00111022 10050 20006 50000 FZRANO
2026-04-15 04:56:00,METAR KJAC 150456Z AUTO 19003KT 10SM OVC050 02/M02 A2997 RMK AO2 SLP166 T00171022 FZRANO
2026-04-15 03:56:00,METAR KJAC 150356Z AUTO 22003KT 10SM OVC050 02/M02 A2997 RMK AO2 SLP167 T00221022 FZRANO
2026-04-15 02:56:00,METAR KJAC 150256Z 27004KT 10SM OVC055 03/M03 A2996 RMK AO2 SLP166 T00281028 58001
2026-04-15 01:56:00,METAR KJAC 150156Z 20006KT 10SM BKN049 OVC060 04/M03 A2996 RMK AO2 SLP164 T00391028
2026-04-15 00:56:00,METAR KJAC 150056Z 19010KT 10SM FEW049 OVC065 04/M02 A2997 RMK AO2 SLP165 T00441022
2026-04-14 23:56:00,METAR KJAC 142356Z 21009KT 10SM SCT050 OVC070 05/M03 A2997 RMK AO2 SLP165 T00501033 10078 20044 55000
2026-04-14 22:56:00,METAR KJAC 142256Z 21010KT 10SM FEW048 OVC060 06/M04 A2997 RMK AO2 SLP168 T00561039
2026-04-14 21:56:00,METAR KJAC 142156Z 23014KT 10SM FEW038 SCT047 BKN060 06/M03 A2996 RMK AO2 SLP161 T00561033
2026-04-14 20:56:00,METAR KJAC 142056Z 23010KT 10SM FEW034 BKN041 OVC070 06/M02 A2997 RMK AO2 SLP159 T00561022 53003
2026-04-14 19:56:00,METAR KJAC 141956Z 21008G17KT 10SM SCT034 OVC050 06/M02 A2995 RMK AO2 SLP155 T00561022
2026-04-14 18:56:00,METAR KJAC 141856Z 22005KT 10SM OVC050 06/M01 A2995 RMK AO2 SLP153 T00561011
2026-04-14 18:15:00,SPECI KJAC 141815Z 23006KT 10SM FEW020 SCT025 BKN055 05/M01 A2995 RMK AO2
2026-04-14 17:56:00,METAR KJAC 141756Z 20009KT 10SM FEW017 BKN022 04/M01 A2996 RMK AO2 SLP161 60000 T00441011 10044 21022 56004
2026-04-14 17:52:00,SPECI KJAC 141752Z 19008KT 10SM SCT017 BKN023 04/M01 A2996 RMK AO2
2026-04-14 16:56:00,METAR KJAC 141656Z 18004KT 10SM SCT011 02/M01 A2996 RMK AO2 SLP167 T00171011
2026-04-14 16:49:00,SPECI KJAC 141649Z 22005KT 10SM SCT011 01/M02 A2997 RMK AO2
2026-04-14 15:56:00,METAR KJAC 141556Z VRB03KT 10SM OVC009 01/M01 A2997 RMK AO2 UPB03E13 CIG 007V012 SLP173 P0000 T00111011
2026-04-14 15:27:00,SPECI KJAC 141527Z VRB03KT 10SM OVC009 00/M01 A2997 RMK AO2 UPB03E13 CIG 006V012 P0000
2026-04-14 14:56:00,METAR KJAC 141456Z 20003KT 10SM OVC010 M01/M01 A2997 RMK AO2 CIG 007V012 SLP178 60000 T10061011 53009
2026-04-14 13:56:00,METAR KJAC 141356Z 13004KT 10SM OVC010 M01/M02 A2996 RMK AO2 SLP170 T10111017
2026-04-14 12:15:00,SPECI KJAC 141215Z AUTO 08006KT 9SM -SN BR OVC010 M02/M03 A2994 RMK AO2 P0000
2026-04-14 12:08:00,SPECI KJAC 141208Z AUTO 08005KT 2 1/2SM -SN BR FEW001 OVC010 M02/M03 A2994 RMK AO2 P0000
2026-04-14 12:04:00,SPECI KJAC 141204Z AUTO 09005KT 1SM -SN BR FEW001 OVC012 M02/M03 A2994 RMK AO2 P0000
2026-04-14 11:56:00,METAR KJAC 141156Z AUTO 09005KT 1/2SM -SN BR FEW001 OVC012 M02/M03 A2994 RMK AO2 SLP161 P0000 60000 70006 T10221028 11006 21033 56001
2026-04-14 11:49:00,SPECI KJAC 141149Z AUTO 10005KT 1/2SM -SN BR FEW001 OVC012 M02/M03 A2994 RMK AO2 P0000
2026-04-14 11:26:00,SPECI KJAC 141126Z AUTO 08005KT 1/4SM -SN BR FEW001 OVC012 M03/M03 A2994 RMK AO2 P0000
2026-04-14 11:12:00,SPECI KJAC 141112Z AUTO 10006KT 1/2SM -SN BR OVC012 M03/M04 A2994 RMK AO2 P0000
2026-04-14 11:03:00,SPECI KJAC 141103Z AUTO 09004KT 3/4SM -SN BR OVC012 M03/M04 A2994 RMK AO2 P0000
2026-04-14 10:56:00,METAR KJAC 141056Z AUTO 10006KT 1 1/4SM -SN BR OVC012 M03/M04 A2994 RMK AO2 SLP164 P0000 T10331039
2026-04-14 10:45:00,SPECI KJAC 141045Z AUTO 09004KT 1 3/4SM -SN BR FEW007 BKN012 M03/M04 A2994 RMK AO2 P0000
2026-04-14 10:36:00,SPECI KJAC 141036Z AUTO 09006KT 2 1/2SM -SN BR FEW007 BKN012 M03/M04 A2994 RMK AO2 P0000
2026-04-14 10:08:00,SPECI KJAC 141008Z AUTO 03003KT 9SM -SN BR BKN006 OVC013 M01/M02 A2994 RMK AO2 CIG 005V008 P0000
2026-04-14 09:56:00,METAR KJAC 140956Z AUTO 00000KT 9SM -SN BR OVC004 M01/M02 A2994 RMK AO2 SLP158 P0000 T10111017
2026-04-14 08:56:00,METAR KJAC 140856Z AUTO 00000KT 3SM -SN BR OVC004 M01/M02 A2994 RMK AO2 SLP162 P0000 60000 T10061017 55005
2026-04-14 08:42:00,SPECI KJAC 140842Z AUTO 00000KT 1 3/4SM -SN BR OVC004 M01/M02 A2995 RMK AO2 P0000
2026-04-14 07:56:00,METAR KJAC 140756Z AUTO 09003KT 9SM -SN BR BKN004 OVC060 M01/M01 A2996 RMK AO2 SLP167 P0000 T10061011
2026-04-14 07:47:00,SPECI KJAC 140747Z AUTO 00000KT 9SM -SN BR BKN004 BKN060 OVC080 M01/M01 A2996 RMK AO2 P0000
2026-04-14 07:13:00,SPECI KJAC 140713Z AUTO 00000KT 9SM -SN BR SCT004 OVC060 M01/M01 A2996 RMK AO2 P0000
2026-04-14 06:56:00,METAR KJAC 140656Z AUTO 21004KT 9SM -SN BR OVC004 M01/M01 A2996 RMK AO2 SLP160 P0000 T10061011 400561011
2026-04-14 06:06:00,SPECI KJAC 140606Z AUTO 20004KT 9SM -SN BR OVC004 M01/M02 A2996 RMK AO2 CIG 002V006 P0000
2026-04-14 05:56:00,METAR KJAC 140556Z AUTO 21006KT 9SM -SN BR BKN002 OVC070 M01/M02 A2996 RMK AO2 SLP164 P0002 60006 T10111022 10028 21011 57001
2026-04-14 05:51:00,SPECI KJAC 140551Z AUTO 24004KT 9SM -SN BR BKN002 OVC014 M01/M02 A2996 RMK AO2 P0002
2026-04-14 05:35:00,SPECI KJAC 140535Z AUTO 25003KT 4SM -SN BR BKN004 OVC014 M01/M01 A2996 RMK AO2 P0002
2026-04-14 05:25:00,SPECI KJAC 140525Z AUTO 21004KT 1 3/4SM -SN BR BKN004 OVC014 M01/M01 A2996 RMK AO2 P0001
2026-04-14 04:56:00,METAR KJAC 140456Z AUTO 22004KT 8SM -SN BR OVC004 00/M01 A2997 RMK AO2 SLP162 P0000 T00001011
2026-04-14 03:56:00,METAR KJAC 140356Z AUTO 19005KT 3SM -SN BR BKN004 OVC009 M01/M01 A2997 RMK AO2 SLP171 P0002 T10061011
2026-04-14 03:49:00,SPECI KJAC 140349Z AUTO 19005KT 2 1/2SM -SN BR BKN004 OVC011 M01/M01 A2997 RMK AO2 VIS 2V3 P0002
2026-04-14 03:25:00,SPECI KJAC 140325Z 20005KT 1 1/2SM -SN BR OVC004 M01/M01 A2997 RMK AO2 P0001
2026-04-14 03:06:00,SPECI KJAC 140306Z 20007KT 2SM -SN BR BKN004 BKN007 OVC012 M01/M01 A2997 RMK AO2 P0000
2026-04-14 03:01:00,SPECI KJAC 140301Z 20006KT 1 1/4SM -SN BR SCT004 BKN007 OVC012 M01/M01 A2996 RMK AO2 P0000
2026-04-14 02:56:00,METAR KJAC 140256Z 20005KT 1SM -SN BR OVC004 M01/M01 A2996 RMK AO2 SNB0157 SLP172 P0002 60002 T10061011 51005
2026-04-14 02:31:00,SPECI KJAC 140231Z 24005KT 1SM -SN BR OVC004 00/M01 A2996 RMK AO2 SNB0157 P0000
2026-04-14 02:23:00,SPECI KJAC 140223Z 22006KT 1SM -SN BR SCT003 BKN007 OVC021 00/M01 A2996 RMK AO2 SNB0157 P0000
2026-04-14 02:15:00,SPECI KJAC 140215Z 20008KT 1SM -SN BR BKN005 BKN013 OVC021 00/M01 A2995 RMK AO2 SNB0157 CIG 002V009 P0000
2026-04-14 02:01:00,SPECI KJAC 140201Z 18006KT 1SM -SN BR FEW007 BKN017 OVC065 01/M01 A2995 RMK AO2 SNB0157 CIG 012V024 P0000
2026-04-14 01:59:00,SPECI KJAC 140159Z 19007KT 1 3/4SM -SN BR SCT009 BKN034 OVC065 01/M01 A2995 RMK AO2 VIS 1V5 SNB57 P0000
2026-04-14 01:56:00,METAR KJAC 140156Z 22006KT 3SM BR SCT009 BKN036 OVC065 01/M01 A2996 RMK AO2 RAB27E40UPB40E56 SLP170 P0000 T00061011
2026-04-14 00:56:00,METAR KJAC 140056Z 21010KT 10SM OVC070 02/M03 A2995 RMK AO2 SLP166 T00171028
2026-04-13 23:56:00,METAR KJAC 132356Z 19013KT 10SM BKN030 OVC065 03/M02 A2994 RMK AO2 SLP160 60000 T00281022 10056 20006 56002
2026-04-13 23:32:00,SPECI KJAC 132332Z 21012KT 10SM BKN028 OVC041 03/M02 A2995 RMK AO2
2026-04-13 22:56:00,METAR KJAC 132256Z 20012KT 10SM FEW040 BKN048 OVC075 03/M02 A2994 RMK AO2 SLP160 T00281022
2026-04-13 21:56:00,METAR KJAC 132156Z 20012KT 10SM FEW043 03/M02 A2994 RMK AO2 SNE44 SLP157 P0000 T00331017
2026-04-13 21:10:00,SPECI KJAC 132110Z 18015KT 10SM -SN SCT002 SCT007 BKN060 03/00 A2995 RMK AO2 P0000
2026-04-13 21:03:00,SPECI KJAC 132103Z 18013KT 9SM -SN SCT002 BKN007 BKN060 03/01 A2995 RMK AO2 CIG 006V010 P0000
2026-04-13 20:56:00,METAR KJAC 132056Z 17012KT 4SM -SN BR BKN004 BKN014 BKN065 02/01 A2995 RMK AO2 RAB32E34SNE06B34 CIG 001V010 SLP163 P0000 60000 T00170011 58001
2026-04-13 20:51:00,SPECI KJAC 132051Z 17013G20KT 4SM -SN BR BKN004 BKN014 OVC065 02/01 A2995 RMK AO2 RAB32E34SNE06B34 CIG 002V010 P0000
2026-04-13 20:48:00,SPECI KJAC 132048Z 17016G20KT 1SM -SN BR SCT004 BKN014 OVC070 02/01 A2995 RMK AO2 RAB32E34SNE06B34 P0000
2026-04-13 20:34:00,SPECI KJAC 132034Z 20013G21KT 1SM -SN FEW013 BKN031 BKN047 02/M02 A2996 RMK AO2 RAB32E34SNE06B34 P0000
2026-04-13 20:03:00,SPECI KJAC 132003Z 23003KT 9SM -SN FEW009 SCT034 BKN047 02/M02 A2996 RMK AO2 P0000
2026-04-13 19:56:00,METAR KJAC 131956Z 25005KT 2SM -SN BR FEW009 SCT019 BKN032 02/M01 A2996 RMK AO2 PK WND 19026/1859 RAE1857SNB1857 SLP167 P0000 T00171006
2026-04-13 19:54:00,SPECI KJAC 131954Z 25006KT 1 1/2SM -SN BR SCT009 BKN032 OVC047 01/M01 A2997 RMK AO2 PK WND 19026/1859 RAE1857SNB1857 P0000
2026-04-13 19:49:00,SPECI KJAC 131949Z 24008KT 1SM -SN BR SCT009 BKN023 OVC034 01/M02 A2997 RMK AO2 PK WND 19026/1859 RAE1857SNB1857 P0000
2026-04-13 19:45:00,SPECI KJAC 131945Z 24012G18KT 1 3/4SM -SN FEW013 SCT023 OVC034 02/M02 A2997 RMK AO2 PK WND 19026/1859 VIS 3/4V5 RAE1857SNB1857 P0000
2026-04-13 19:04:00,SPECI KJAC 131904Z 19021G26KT 7SM -SN SCT004 SCT011 BKN038 03/M01 A2996 RMK AO2 PK WND 19026/1859 RAE1857SNB1857 P0000
2026-04-13 18:56:00,METAR KJAC 131856Z 20023G28KT 10SM -RA FEW011 BKN038 BKN050 04/M02 A2996 RMK AO2 PK WND 19028/1852 RAB56 SLP160 P0000 T00441022
2026-04-13 17:56:00,METAR KJAC 131756Z 19009G20KT 10SM FEW043 SCT049 04/M04 A2996 RMK AO2 SLP158 T00441039 10050 21006 58001
2026-04-13 16:56:00,METAR KJAC 131656Z 23012G17KT 10SM SCT049 04/M04 A2996 RMK AO2 SLP161 T00391039
2026-04-13 15:56:00,METAR KJAC 131556Z 19018KT 10SM BKN038 01/M02 A2997 RMK AO2 SLP162 T00111017
2026-04-13 14:56:00,METAR KJAC 131456Z 19010KT 10SM FEW031 OVC046 01/M02 A2996 RMK AO2 SLP160 T00061017 53010
2026-04-13 13:56:00,METAR KJAC 131356Z 14008KT 10SM OVC044 M01/M02 A2994 RMK AO2 SLP153 T10061017
2026-04-13 12:56:00,METAR KJAC 131256Z 19008KT 10SM FEW033 OVC042 M01/M02 A2993 RMK AO2 SLP147 T10061022
2026-04-13 11:56:00,METAR KJAC 131156Z AUTO 19005KT 10SM FEW032 OVC040 M01/M03 A2992 RMK AO2 SLP149 60003 70016 T10061028 10000 21006 53015 FZRANO
2026-04-13 10:56:00,METAR KJAC 131056Z AUTO 22007KT 10SM FEW043 OVC100 M01/M02 A2990 RMK AO2 SLP128 T10061022 FZRANO
2026-04-13 09:56:00,METAR KJAC 130956Z AUTO 16011G20KT 10SM FEW034 BKN070 OVC095 00/M01 A2987 RMK AO2 SNE15 SLP115 P0000 T00001011 FZRANO
2026-04-13 08:56:00,METAR KJAC 130856Z AUTO 18008KT 10SM -SN SCT030 BKN039 OVC055 00/M01 A2987 RMK AO2 SNE32B53 SLP107 P0000 60003 T00001006 50003 FZRANO
2026-04-13 08:29:00,SPECI KJAC 130829Z AUTO 16012KT 9SM -SN SCT025 OVC046 00/M01 A2987 RMK AO2 P0000 FZRANO
2026-04-13 07:56:00,METAR KJAC 130756Z AUTO 18011KT 8SM -SN FEW002 BKN023 OVC029 00/M01 A2987 RMK AO2 SLP115 P0002 T00001006 FZRANO
2026-04-13 07:48:00,SPECI KJAC 130748Z AUTO 18011KT 4SM -SN BR SCT002 BKN009 OVC026 00/M01 A2987 RMK AO2 CIG 007V012 P0002 FZRANO
2026-04-13 07:40:00,SPECI KJAC 130740Z AUTO 18009KT 2 1/2SM -SN BR SCT002 BKN006 OVC028 00/M01 A2987 RMK AO2 CIG 004V007 P0001 FZRANO
2026-04-13 07:32:00,SPECI KJAC 130732Z AUTO 18008KT 1 3/4SM -SN BR SCT002 BKN012 OVC026 00/M01 A2987 RMK AO2 VIS 1 1/2V2 1/2 P0001 FZRANO
2026-04-13 07:26:00,SPECI KJAC 130726Z AUTO 19005KT 2 1/2SM -SN BR SCT002 BKN021 OVC034 00/M01 A2987 RMK AO2 VIS 1 1/2V5 P0001 FZRANO
2026-04-13 07:13:00,SPECI KJAC 130713Z AUTO 25003KT 3SM -SN BR SCT013 BKN020 OVC045 00/M01 A2986 RMK AO2 P0000 FZRANO
2026-04-13 06:56:00,METAR KJAC 130656Z AUTO 00000KT 6SM -SN BR SCT007 BKN013 OVC045 00/M01 A2986 RMK AO2 SNB25 SLP121 P0001 T00001006 401221039 FZRANO
2026-04-13 06:38:00,SPECI KJAC 130638Z AUTO 28003KT 6SM -SN BR SCT003 OVC007 00/M01 A2986 RMK AO2 SNB25 P0000 FZRANO
2026-04-13 06:04:00,SPECI KJAC 130604Z AUTO 18005KT 10SM BKN003 BKN009 OVC043 00/M01 A2987 RMK AO2 FZRANO
2026-04-13 05:56:00,METAR KJAC 130556Z AUTO 14003KT 10SM SCT003 BKN007 OVC043 00/M01 A2986 RMK AO2 SNE45 CIG 006V009 SLP106 P0004 60012 T00001006 10067 20000 50008 FZRANO
2026-04-13 05:33:00,SPECI KJAC 130533Z AUTO 15003KT 5SM -SN BR SCT006 BKN011 OVC045 00/M01 A2986 RMK AO2 P0004 FZRANO
2026-04-13 05:15:00,SPECI KJAC 130515Z AUTO 06004KT 2SM -SN BR BKN008 OVC012 00/M01 A2984 RMK AO2 CIG 005V010 P0003 FZRANO
2026-04-13 05:04:00,SPECI KJAC 130504Z AUTO 02006KT 1SM -SN BR BKN008 OVC014 01/M01 A2985 RMK AO2 CIG 005V010 PRESFR P0001 FZRANO
2026-04-13 04:59:00,SPECI KJAC 130459Z AUTO 00000KT 1 3/4SM -SN BR BKN010 OVC016 01/M01 A2986 RMK AO2 VIS 1/2V5 CIG 007V013 P0001 FZRANO
2026-04-13 04:56:00,METAR KJAC 130456Z AUTO 24003KT 4SM -SN BR BKN010 OVC016 01/M01 A2987 RMK AO2 RAE38SNB38 CIG 007V013 SLP116 P0005 T00061006 FZRANO
2026-04-13 04:12:00,SPECI KJAC 130412Z AUTO VRB03KT 10SM -RA BKN014 OVC023 03/01 A2984 RMK AO2 P0001
2026-04-13 03:56:00,METAR KJAC 130356Z AUTO 05003KT 10SM -RA FEW014 OVC023 03/01 A2984 RMK AO2 SLP104 P0003 T00330006
2026-04-13 03:21:00,SPECI KJAC 130321Z 14004KT 10SM -RA FEW020 BKN027 OVC043 04/01 A2984 RMK AO2 P0001
2026-04-13 02:56:00,METAR KJAC 130256Z 14006KT 10SM -RA BKN050 OVC060 04/01 A2983 RMK AO2 RAB37 SLP105 P0000 60000 T00390006 53006
2026-04-13 01:56:00,METAR KJAC 130156Z 23005KT 10SM FEW046 OVC095 05/00 A2981 RMK AO2 RAB31E49 SLP108 P0000 T00500000
2026-04-13 00:56:00,METAR KJAC 130056Z 20009KT 10SM CLR 06/M01 A2980 RMK AO2 RAE01 SLP106 P0000 T00611011
2026-04-12 23:56:00,METAR KJAC 122356Z 18013KT 9SM -RA FEW017 BKN060 OVC070 04/01 A2981 RMK AO2 PK WND 20042/2338 RAB38 SLP112 P0001 60001 T00390011 10122 20033 53023
2026-04-12 22:56:00,METAR KJAC 122256Z 18020G27KT 10SM BKN070 BKN095 09/M02 A2977 RMK AO2 PK WND 19027/2248 LTG DSNT SW RAB14E35 SLP079 P0000 T00941022
2026-04-12 21:56:00,METAR KJAC 122156Z 20007KT 10SM FEW085 09/M01 A2975 RMK AO2 PK WND 20031/2124 LTG DSNT N AND NE AND S RAB18E44 SLP071 P0000 T00941011
2026-04-12 20:56:00,METAR KJAC 122056Z 18019G24KT 10SM SCT060 BKN080 12/M03 A2972 RMK AO2 RAB27E39 SLP053 P0000 60000 T01171028 58013
2026-04-12 19:56:00,METAR KJAC 121956Z 13005KT 10SM FEW047 SCT065 10/00 A2975 RMK AO2 RAE10 SLP061 P0000 T01000000
2026-04-12 18:56:00,METAR KJAC 121856Z 24013G30KT 10SM -RA BKN050 BKN065 OVC120 06/M01 A2977 RMK AO2 PK WND 24031/1846 RAB46 SLP080 P0000 T00561006
2026-04-12 17:56:00,METAR KJAC 121756Z 18009G15KT 10SM CLR 11/M01 A2977 RMK AO2 SLP067 T01111011 10111 21039 58014
2026-04-12 16:56:00,METAR KJAC 121656Z 18008KT 10SM FEW080 08/M01 A2979 RMK AO2 SLP080 T00781006
2026-04-12 15:56:00,METAR KJAC 121556Z 16005KT 10SM CLR 05/00 A2981 RMK AO2 SLP093 T00500000
2026-04-12 14:56:00,METAR KJAC 121456Z 00000KT 10SM CLR 03/M01 A2982 RMK AO2 SLP102 T00331006 50000
2026-04-12 13:56:00,METAR KJAC 121356Z VRB06KT 10SM SCT090 M01/M01 A2983 RMK AO2 SLP114 T10061011
2026-04-12 12:56:00,METAR KJAC 121256Z VRB04KT 10SM CLR M03/M05 A2982 RMK AO2 SLP115 T10331050
2026-04-12 11:56:00,METAR KJAC 121156Z AUTO 00000KT 10SM CLR M02/M03 A2982 RMK AO2 SLP110 70004 T10221033 10033 21022 56009 FZRANO
2026-04-12 10:56:00,METAR KJAC 121056Z AUTO 21003KT 10SM FEW040 M01/M02 A2983 RMK AO2 SLP107 T10111022 FZRANO
2026-04-12 09:56:00,METAR KJAC 120956Z AUTO 09003KT 10SM FEW065 00/M01 A2983 RMK AO2 SLP106 T00001011 FZRANO
2026-04-12 08:56:00,METAR KJAC 120856Z AUTO 18003KT 10SM OVC049 02/M01 A2986 RMK AO2 SLP111 T00171006 58004 FZRANO
2026-04-12 07:56:00,METAR KJAC 120756Z AUTO 16003KT 10SM OVC047 03/00 A2987 RMK AO2 SLP103 T00280000
2026-04-12 06:56:00,METAR KJAC 120656Z AUTO 11003KT 10SM CLR 03/00 A2987 RMK AO2 SLP096 T00280000 401561011
2026-04-12 05:56:00,METAR KJAC 120556Z AUTO 22005KT 10SM BKN050 03/00 A2987 RMK AO2 SLP097 60000 T00280000 10061 20028 50001
2026-04-12 04:56:00,METAR KJAC 120456Z AUTO 23004KT 10SM BKN049 OVC060 04/01 A2988 RMK AO2 SLP099 T00390006
2026-04-12 03:56:00,METAR KJAC 120356Z AUTO 23007KT 10SM OVC055 04/01 A2988 RMK AO2 SLP104 T00440011
2026-04-12 02:56:00,METAR KJAC 120256Z 23005KT 10SM OVC055 04/01 A2987 RMK AO2 SLP109 60000 T00440011 53003
2026-04-12 01:56:00,METAR KJAC 120156Z 21009KT 10SM SCT060 BKN080 05/01 A2985 RMK AO2 RAE04 SLP114 P0000 T00500006
2026-04-12 00:56:00,METAR KJAC 120056Z 22010KT 10SM -RA FEW031 SCT045 BKN055 06/01 A2984 RMK AO2 RAB03 SLP115 P0000 T00560006
2026-04-11 23:56:00,METAR KJAC 112356Z 19011KT 10SM BKN050 BKN070 OVC090 07/01 A2985 RMK AO2 SLP117 60004 T00670006 10156 20050 53002
2026-04-11 22:56:00,METAR KJAC 112256Z 28007KT 10SM FEW034 SCT047 OVC060 07/M01 A2985 RMK AO2 LTG DSNT SE SLP111 T00721006
2026-04-11 21:56:00,METAR KJAC 112156Z 28008KT 10SM FEW015 SCT046 BKN075 08/03 A2984 RMK AO2 RAB26E45 SLP096 P0000 T00780033
2026-04-11 20:56:00,METAR KJAC 112056Z 15006KT 10SM FEW039 BKN060 OVC090 07/03 A2985 RMK AO2 PK WND 20038/2003 LTG DSNT N TSB1957E28RAE43 SLP099 P0004 60004 T00720028 53008
2026-04-11 20:35:00,SPECI KJAC 112035Z 24004KT 10SM -RA FEW024 BKN033 OVC085 06/03 A2985 RMK AO2 PK WND 20038/2003 LTG DSNT ALQDS TSB1957E28 P0004
2026-04-11 20:28:00,SPECI KJAC 112028Z 16007KT 10SM -RA FEW024 BKN029 OVC044 06/02 A2984 RMK AO2 PK WND 20038/2003 LTG DSNT ALQDS TSB1957E28 P0004
2026-04-11 20:03:00,SPECI KJAC 112003Z 20024G38KT 6SM VCTS -RA FEW028 BKN048 BKN060 08/01 A2984 RMK AO2 PK WND 20038/2003 LTG DSNT ALQDS TSB1957 PRESRR P0000
2026-04-11 19:56:00,METAR KJAC 111956Z 23022G37KT 6SM -RA FEW022 SCT050 BKN065 10/00 A2982 RMK AO2 PK WND 21037/1953 LTG DSNT S-NW RAE00B55 SLP079 P0000 T01000000
2026-04-11 18:56:00,METAR KJAC 111856Z 20015G21KT 10SM -RA FEW035 OVC095 14/M01 A2980 RMK AO2 WSHFT 1816 RAB50 SLP066 P0000 T01391006
2026-04-11 18:36:00,SPECI KJAC 111836Z 21017G25KT 10SM OVC100 14/M01 A2981 RMK AO2 WSHFT 1816
2026-04-11 17:56:00,METAR KJAC 111756Z 25016G25KT 10SM FEW049 BKN070 BKN090 14/M01 A2982 RMK AO2 PK WND 22026/1746 SLP076 T01391011 10144 21011 57013
2026-04-11 16:56:00,METAR KJAC 111656Z 22013KT 10SM FEW070 SCT090 13/M01 A2983 RMK AO2 SLP081 T01281011
2026-04-11 15:56:00,METAR KJAC 111556Z 16005KT 10SM CLR 09/01 A2985 RMK AO2 SLP088 T00940011
2026-04-11 14:56:00,METAR KJAC 111456Z 00000KT 10SM CLR 07/01 A2987 RMK AO2 SLP095 T00670011 58007
2026-04-11 13:56:00,METAR KJAC 111356Z 04005KT 10SM CLR 02/M01 A2989 RMK AO2 SLP110 T00171006
2026-04-11 12:56:00,METAR KJAC 111256Z 09003KT 10SM CLR 00/M02 A2989 RMK AO2 SLP108 T00001017
2026-04-11 11:56:00,METAR KJAC 111156Z AUTO 33005KT 10SM CLR 00/M02 A2989 RMK AO2 SLP107 60000 T00001017 10061 20000 56003 FZRANO
2026-04-11 10:56:00,METAR KJAC 111056Z AUTO 15004KT 10SM CLR 02/M01 A2990 RMK AO2 SLP108 T00171006 FZRANO
2026-04-11 09:56:00,METAR KJAC 110956Z AUTO 00000KT 10SM CLR 04/01 A2990 RMK AO2 SLP100 T00390006
2026-04-11 08:56:00,METAR KJAC 110856Z AUTO 02005KT 10SM SCT075 SCT095 05/01 A2990 RMK AO2 RAE01B39E49 SLP094 P0000 60000 T00500006 50001
2026-04-11 07:56:00,METAR KJAC 110756Z AUTO VRB03KT 10SM -RA FEW060 SCT075 BKN100 06/01 A2990 RMK AO2 RAB44 SLP095 P0000 T00610011
2026-04-11 06:56:00,METAR KJAC 110656Z AUTO 28006KT 10SM SCT095 BKN110 05/00 A2992 RMK AO2 LTG DSNT W SLP108 T00500000 401721033
2026-04-11 05:56:00,METAR KJAC 110556Z AUTO 00000KT 10SM CLR 03/M02 A2990 RMK AO2 SLP112 T00331017 10156 20033 58002
2026-04-11 04:56:00,METAR KJAC 110456Z AUTO 03006KT 10SM FEW090 04/00 A2993 RMK AO2 SLP128 T00440000
2026-04-11 03:56:00,METAR KJAC 110356Z AUTO 00000KT 10SM BKN095 08/01 A2992 RMK AO2 SLP124 T00830006
2026-04-11 02:56:00,METAR KJAC 110256Z 05004KT 10SM FEW120 10/00 A2990 RMK AO2 SLP120 T01000000 55006
2026-04-11 01:56:00,METAR KJAC 110156Z 32004KT 10SM FEW095 12/00 A2989 RMK AO2 SLP118 T01170000
2026-04-11 00:56:00,METAR KJAC 110056Z 28005KT 10SM CLR 14/00 A2991 RMK AO2 SLP125 T01390000
2026-04-10 23:56:00,METAR KJAC 102356Z 00000KT 10SM CLR 15/M01 A2993 RMK AO2 SLP122 60000 T01501006 10172 20106 58009
2026-04-10 22:56:00,METAR KJAC 102256Z 00000KT 10SM CLR 14/00 A2995 RMK AO2 PK WND 14027/2207 RAB21E33 SLP131 P0000 T01390000
2026-04-10 21:56:00,METAR KJAC 102156Z 15019KT 10SM FEW080 SCT110 14/00 A2996 RMK AO2 SLP133 T01440000
2026-04-10 20:56:00,METAR KJAC 102056Z 14011G20KT 10SM FEW060 17/M02 A2996 RMK AO2 SLP128 T01671017 56026
2026-04-10 19:56:00,METAR KJAC 101956Z VRB04KT 10SM SCT110 16/M02 A2999 RMK AO2 SLP143 T01561022
2026-04-10 18:56:00,METAR KJAC 101856Z VRB03KT 10SM CLR 14/M03 A3002 RMK AO2 SLP151 T01391033
2026-04-10 17:56:00,METAR KJAC 101756Z 10005KT 10SM FEW065 SCT090 11/M03 A3005 RMK AO2 SLP172 T01111033 10111 21033 58016
2026-04-10 16:56:00,METAR KJAC 101656Z 00000KT 10SM FEW095 08/M04 A3008 RMK AO2 SLP189 T00781039
2026-04-10 15:56:00,METAR KJAC 101556Z 00000KT 10SM FEW095 05/M04 A3009 RMK AO2 SLP193 T00501039
2026-04-10 14:56:00,METAR KJAC 101456Z 00000KT 10SM FEW075 BKN100 02/M04 A3011 RMK AO2 SLP194 T00221044 51003
2026-04-10 13:56:00,METAR KJAC 101356Z 00000KT 10SM CLR M01/M04 A3011 RMK AO2 SLP197 T10111044
2026-04-10 12:56:00,METAR KJAC 101256Z 00000KT 10SM SCT120 M03/M06 A3010 RMK AO2 SLP193 T10281061
2026-04-10 11:56:00,METAR KJAC 101156Z AUTO 00000KT 10SM SCT120 M01/M06 A3010 RMK AO2 SLP182 T10111056 10011 21017 53001 FZRANO
2026-04-10 10:56:00,METAR KJAC 101056Z AUTO 00000KT 10SM CLR 00/M06 A3009 RMK AO2 SLP177 T00001056 FZRANO
2026-04-10 09:56:00,METAR KJAC 100956Z AUTO 04004KT 10SM CLR 00/M06 A3009 RMK AO2 SLP176 T00001056 FZRANO
2026-04-10 08:56:00,METAR KJAC 100856Z AUTO 01008KT 10SM CLR M01/M06 A3009 RMK AO2 SLP181 T10061056 50002 FZRANO
2026-04-10 07:56:00,METAR KJAC 100756Z AUTO 34005KT 10SM CLR M01/M06 A3010 RMK AO2 SLP182 T10111056 FZRANO
2026-04-10 06:56:00,METAR KJAC 100656Z AUTO 36004KT 10SM CLR 01/M06 A3010 RMK AO2 SLP179 T00111056 401671028 FZRANO
2026-04-10 05:56:00,METAR KJAC 100556Z AUTO 03004KT 10SM CLR 01/M06 A3009 RMK AO2 SLP175 T00111056 10150 21006 51009 FZRANO
2026-04-10 04:56:00,METAR KJAC 100456Z AUTO 36009KT 10SM CLR 01/M06 A3008 RMK AO2 SLP181 T00111061 FZRANO
2026-04-10 03:56:00,METAR KJAC 100356Z AUTO 36004KT 10SM CLR 04/M06 A3007 RMK AO2 SLP176 T00441061
2026-04-10 02:56:00,METAR KJAC 100256Z VRB03KT 10SM CLR 08/M06 A3005 RMK AO2 SLP169 T00831061 53004
2026-04-10 01:56:00,METAR KJAC 100156Z 31004KT 10SM CLR 11/M07 A3004 RMK AO2 SLP167 T01061067
2026-04-10 00:56:00,METAR KJAC 100056Z 28007KT 10SM CLR 14/M08 A3004 RMK AO2 SLP167 T01391083
2026-04-09 23:56:00,METAR KJAC 092356Z 30011G17KT 10SM CLR 15/M08 A3004 RMK AO2 PK WND 25026/2321 WSHFT 2307 SLP164 T01501083 10167 20128 56002
2026-04-09 23:27:00,SPECI KJAC 092327Z 24008G26KT 10SM SCT100 16/M08 A3004 RMK AO2 PK WND 25026/2321 WSHFT 2307
2026-04-09 22:56:00,METAR KJAC 092256Z 27008KT 10SM FEW095 15/M08 A3004 RMK AO2 SLP153 T01501083
2026-04-09 21:56:00,METAR KJAC 092156Z 24010G17KT 10SM FEW095 16/M08 A3004 RMK AO2 SLP145 T01561078
2026-04-09 20:56:00,METAR KJAC 092056Z VRB04G19KT 10SM CLR 15/M08 A3004 RMK AO2 SLP152 T01501083 57006
2026-04-09 19:56:00,METAR KJAC 091956Z 23010G18KT 10SM CLR 15/M08 A3005 RMK AO2 WSHFT 1903 SLP155 T01501078
2026-04-09 19:23:00,SPECI KJAC 091923Z 00000KT 10SM FEW090 14/M09 A3006 RMK AO2 WSHFT 1903
2026-04-09 18:56:00,METAR KJAC 091856Z VRB03G14KT 10SM CLR 14/M09 A3006 RMK AO2 SLP160 T01391094
2026-04-09 17:56:00,METAR KJAC 091756Z 24014G18KT 10SM CLR 14/M08 A3007 RMK AO2 SLP166 T01391083 10139 21028 58002
2026-04-09 16:56:00,METAR KJAC 091656Z 13004KT 10SM CLR 11/M08 A3007 RMK AO2 SLP168 T01111078
2026-04-09 15:56:00,METAR KJAC 091556Z 00000KT 10SM CLR 08/M07 A3007 RMK AO2 SLP172 T00831072
2026-04-09 15:32:00,SPECI KJAC 091532Z 00000KT 10SM CLR 07/M06 A3007 RMK AO2
2026-04-09 14:56:00,METAR KJAC 091456Z 02006KT 10SM CLR 04/M05 A3007 RMK AO2 SLP179 T00441050 53018
2026-04-09 13:56:00,METAR KJAC 091356Z 01007KT 10SM CLR 01/M06 A3005 RMK AO2 SLP178 T00111056
2026-04-09 12:56:00,METAR KJAC 091256Z 03008KT 10SM CLR M02/M06 A3002 RMK AO2 SLP168 T10171056
2026-04-09 11:56:00,METAR KJAC 091156Z AUTO 00000KT 10SM SCT095 M02/M07 A3001 RMK AO2 SLP159 T10221072 10067 21022 53004 FZRANO
2026-04-09 10:56:00,METAR KJAC 091056Z AUTO 16007KT 10SM CLR 02/M07 A2999 RMK AO2 SLP137 T00221072 FZRANO
2026-04-09 09:56:00,METAR KJAC 090956Z AUTO 27003KT 10SM FEW100 05/M08 A2999 RMK AO2 SLP131 T00501078
2026-04-09 08:56:00,METAR KJAC 090856Z AUTO 00000KT 10SM CLR 03/M08 A2999 RMK AO2 SLP137 T00331078 54000
2026-04-09 07:56:00,METAR KJAC 090756Z AUTO 00000KT 10SM CLR 03/M07 A2999 RMK AO2 SLP137 T00331067
2026-04-09 06:56:00,METAR KJAC 090656Z AUTO 25009KT 10SM SCT100 03/M07 A2999 RMK AO2 SLP140 T00331067 401500017
2026-04-09 05:56:00,METAR KJAC 090556Z AUTO 22006KT 10SM BKN110 03/M07 A2999 RMK AO2 SLP143 T00281067 10128 20022 58002
2026-04-09 04:56:00,METAR KJAC 090456Z AUTO 00000KT 10SM CLR 05/M06 A2999 RMK AO2 SLP141 T00501061
2026-04-09 03:56:00,METAR KJAC 090356Z AUTO 18008KT 10SM CLR 07/M07 A3000 RMK AO2 SLP142 T00721072
2026-04-09 02:56:00,METAR KJAC 090256Z 22007KT 10SM CLR 07/M08 A3000 RMK AO2 SLP146 T00721078 51005
2026-04-09 01:56:00,METAR KJAC 090156Z 23007KT 10SM BKN120 09/M08 A3000 RMK AO2 SLP147 T00891083
2026-04-09 00:56:00,METAR KJAC 090056Z 25010KT 10SM CLR 11/M08 A3000 RMK AO2 SLP147 T01111083
2026-04-08 23:56:00,METAR KJAC 082356Z 26016KT 10SM CLR 13/M09 A2998 RMK AO2 SLP134 T01281089 10150 20122 55001
2026-04-08 22:56:00,METAR KJAC 082256Z 25010G16KT 10SM CLR 15/M07 A2998 RMK AO2 SLP124 T01501067
2026-04-08 21:56:00,METAR KJAC 082156Z 27012G24KT 10SM FEW080 14/M07 A2998 RMK AO2 SLP123 T01441067
2026-04-08 20:56:00,METAR KJAC 082056Z 24010G20KT 210V270 10SM CLR 14/M07 A2999 RMK AO2 WSHFT 1947 SLP125 T01391067 58008
2026-04-08 20:07:00,SPECI KJAC 082007Z 23015G22KT 10SM SCT080 13/M07 A3000 RMK AO2 WSHFT 1947
2026-04-08 19:56:00,METAR KJAC 081956Z 21015G22KT 10SM SCT080 14/M06 A3000 RMK AO2 SLP130 T01391061
2026-04-08 18:56:00,METAR KJAC 081856Z 23011G19KT 10SM FEW080 13/M07 A3001 RMK AO2 SLP135 T01331067
2026-04-08 17:56:00,METAR KJAC 081756Z 23007G18KT 10SM FEW075 13/M07 A3002 RMK AO2 SLP136 T01281067 10128 20028 50000
2026-04-08 16:56:00,METAR KJAC 081656Z 19007KT 150V230 10SM FEW065 11/M05 A3002 RMK AO2 SLP141 T01111050
2026-04-08 15:56:00,METAR KJAC 081556Z 26006KT 10SM CLR 09/M06 A3002 RMK AO2 SLP141 T00941061
2026-04-08 14:56:00,METAR KJAC 081456Z 21004KT 10SM CLR 08/M06 A3002 RMK AO2 SLP144 T00831056 53018
2026-04-08 13:56:00,METAR KJAC 081356Z 00000KT 10SM CLR 06/M06 A3000 RMK AO2 SLP140 T00561061
2026-04-08 12:56:00,METAR KJAC 081256Z 25007KT 10SM CLR 03/M07 A2997 RMK AO2 SLP135 T00281072
2026-04-08 11:56:00,METAR KJAC 081156Z AUTO 21010KT 10SM CLR 04/M07 A2995 RMK AO2 SLP121 T00441072 10089 20044 51013
2026-04-08 10:56:00,METAR KJAC 081056Z AUTO 21012KT 10SM CLR 06/M08 A2994 RMK AO2 SLP108 T00611078
2026-04-08 09:56:00,METAR KJAC 080956Z AUTO 20010KT 10SM CLR 07/M08 A2993 RMK AO2 SLP102 T00671083
2026-04-08 08:56:00,METAR KJAC 080856Z AUTO VRB05KT 10SM CLR 08/M09 A2991 RMK AO2 SLP092 T00781089 53002
2026-04-08 07:56:00,METAR KJAC 080756Z AUTO 18012G19KT 150V230 10SM CLR 08/M09 A2990 RMK AO2 SLP091 T00831094
2026-04-08 06:56:00,METAR KJAC 080656Z AUTO 20014G21KT 10SM CLR 08/M10 A2989 RMK AO2 SLP085 T00781100 401671044
2026-04-08 05:56:00,METAR KJAC 080556Z AUTO 20021G25KT 10SM CLR 09/M10 A2990 RMK AO2 PK WND 20026/0535 SLP090 T00891100 10144 20083 58000
2026-04-08 04:56:00,METAR KJAC 080456Z AUTO 22013KT 10SM CLR 08/M09 A2992 RMK AO2 PK WND 19027/0358 SLP108 T00831094
2026-04-08 03:56:00,METAR KJAC 080356Z AUTO 18020G27KT 10SM CLR 10/M11 A2992 RMK AO2 PK WND 19029/0331 SLP120 T01001106
2026-04-08 02:56:00,METAR KJAC 080256Z 20011G19KT 10SM CLR 10/M09 A2991 RMK AO2 PK WND 25031/0158 SLP120 T01001089 53014
2026-04-08 01:56:00,METAR KJAC 080156Z 25018G32KT 10SM CLR 12/M08 A2987 RMK AO2 PK WND 25032/0148 SLP115 T01171083
2026-04-08 00:56:00,METAR KJAC 080056Z 25020G33KT 10SM CLR 13/M04 A2986 RMK AO2 PK WND 25039/0016 SLP112 T01281044
2026-04-07 23:56:00,METAR KJAC 072356Z 26017G32KT 10SM CLR 14/M04 A2985 RMK AO2 PK WND 25035/2257 SLP105 T01441044 10167 20144 55008
2026-04-07 22:56:00,METAR KJAC 072256Z 25025G35KT 10SM CLR 16/M03 A2984 RMK AO2 PK WND 24043/2157 SLP095 T01561033
2026-04-07 21:56:00,METAR KJAC 072156Z 25028G40KT 10SM CLR 16/M04 A2984 RMK AO2 PK WND 25040/2156 PRESFR SLP094 T01611044
2026-04-07 20:56:00,METAR KJAC 072056Z 24022G35KT 10SM CLR 16/M04 A2988 RMK AO2 PK WND 24036/2037 SLP099 T01611044 58026
2026-04-07 19:56:00,METAR KJAC 071956Z 23015G28KT 210V330 10SM SCT080 15/M04 A2993 RMK AO2 PK WND 25028/1947 SLP120 T01501039
2026-04-07 19:00:00,METAR KJAC 071900Z 22016G24KT 10SM BKN080 16/M04 A2996
2026-04-07 18:56:00,METAR KJAC 071856Z 21014G21KT 10SM BKN080 16/M04 A2996 RMK AO2 PK WND 22027/1805 SLP123 T01611039
2026-04-07 17:56:00,METAR KJAC 071756Z 22014G24KT 10SM SCT085 15/M04 A2998 RMK AO2 PK WND 16026/1727 SLP123 T01501044 10150 21044 58015
2026-04-07 17:00:00,METAR KJAC 071700Z 21014G24KT 10SM SCT085 15/M04 A2998
2026-04-07 16:56:00,METAR KJAC 071656Z 19004KT 10SM CLR 10/M02 A3001 RMK AO2 SLP156 T01001022
2026-04-07 15:56:00,METAR KJAC 071556Z 00000KT 10SM CLR 04/M04 A3003
2026-04-07 14:56:00,METAR KJAC 071456Z 00000KT 10SM CLR 02/M04 A3003 RMK AO2 SLP169 T00171044 58003
2026-04-07 13:56:00,METAR KJAC 071356Z 36004KT 10SM CLR M02/M04 A3004
2026-04-07 12:56:00,METAR KJAC 071256Z 03005KT 10SM CLR M04/M06 A3003
2026-04-07 03:30:00,METAR KJAC 070330Z 22005KT 10SM CLR 07/M06 A3006
2026-04-07 02:00:00,METAR KJAC 070200Z 00000KT 10SM CLR 06/M06 A3006
2026-04-07 01:58:00,METAR KJAC 070158Z 27006KT 10SM CLR 11/M09 A3005
2026-04-07 00:58:00,METAR KJAC 070058Z 26007KT 10SM CLR 14/M10 A3006
2026-04-06 23:59:00,METAR KJAC 062359Z 27010G16KT 10SM CLR 15/M09 A3005
2026-04-06 23:00:00,METAR KJAC 062300Z 26004G14KT 10SM FEW095 16/M08 A3006
2026-04-06 21:59:00,METAR KJAC 062159Z 26009G17KT 10SM CLR 15/M09 A3008
2026-04-06 21:05:00,METAR KJAC 062105Z 27012G18KT 10SM CLR 15/M06 A3009
2026-04-06 20:00:00,METAR KJAC 062000Z 24011KT 10SM CLR 14/M05 A3011
2026-04-06 18:58:00,METAR KJAC 061858Z 17008KT 10SM CLR 13/M05 A3014
2026-04-06 16:56:00,METAR KJAC 061656Z 00000KT 10SM CLR 07/M04 A3019 RMK AO2 SLP226 T00721039
2026-04-06 14:56:00,METAR KJAC 061456Z 03003KT 10SM CLR 01/M04 A3022 RMK AO2 SLP241 T00111039 56000
2026-04-06 13:56:00,METAR KJAC 061356Z 03005KT 10SM CLR M03/M04 A3022 RMK AO2 SLP247 T10281044
2026-04-06 12:56:00,METAR KJAC 061256Z 01008KT 10SM CLR M04/M06 A3022 RMK AO2 SLP240 T10441061
2026-04-06 11:56:00,METAR KJAC 061156Z AUTO 02004KT 10SM CLR M04/M06 A3022 RMK AO2 SLP238 T10391056 10017 21039 58005 FZRANO
2026-04-06 10:56:00,METAR KJAC 061056Z AUTO 04003KT 10SM CLR M03/M05 A3023 RMK AO2 SLP239 T10281050 FZRANO
2026-04-06 09:56:00,METAR KJAC 060956Z AUTO 35004KT 10SM CLR M02/M04 A3024 RMK AO2 SLP238 T10221044 FZRANO
2026-04-06 08:56:00,METAR KJAC 060856Z AUTO 03006KT 10SM CLR M01/M03 A3024 RMK AO2 SLP239 T10111033 58007 FZRANO
2026-04-06 07:56:00,METAR KJAC 060756Z AUTO 00000KT 10SM CLR M01/M04 A3026 RMK AO2 SLP250 T10061039 FZRANO
2026-04-06 06:56:00,METAR KJAC 060656Z AUTO 36004KT 10SM CLR M01/M04 A3027 RMK AO2 SLP254 T10061039 401441067 FZRANO
2026-04-06 05:56:00,METAR KJAC 060556Z AUTO 34003KT 10SM CLR 02/M03 A3027 RMK AO2 SLP254 T00221033 10139 20011 51001 FZRANO
2026-04-06 04:56:00,METAR KJAC 060456Z AUTO 00000KT 10SM CLR 02/M03 A3026 RMK AO2 SLP259 T00221028 FZRANO
2026-04-06 03:56:00,METAR KJAC 060356Z AUTO 02004KT 10SM CLR 02/M03 A3027 RMK AO2 SLP272 T00171028 FZRANO
2026-04-06 02:56:00,METAR KJAC 060256Z 00000KT 10SM CLR 07/M03 A3026 RMK AO2 SLP258 T00721033 55003
2026-04-06 01:56:00,METAR KJAC 060156Z 29004KT 10SM CLR 09/M04 A3025 RMK AO2 SLP258 T00941044
2026-04-06 00:56:00,METAR KJAC 060056Z 24005KT 10SM CLR 13/M06 A3026 RMK AO2 SLP260 T01281056
2026-04-05 23:56:00,METAR KJAC 052356Z 23004KT 10SM CLR 14/M05 A3027 RMK AO2 SLP262 T01391050 10144 20072 56011
2026-04-05 22:56:00,METAR KJAC 052256Z 00000KT 10SM CLR 14/M07 A3028 RMK AO2 SLP262 T01391072
2026-04-05 21:56:00,METAR KJAC 052156Z VRB05KT 10SM CLR 14/M07 A3029 RMK AO2 SLP266 T01391067
2026-04-05 20:56:00,METAR KJAC 052056Z VRB03KT 10SM CLR 13/M06 A3031 RMK AO2 SLP273 T01281061 56023
2026-04-05 19:56:00,METAR KJAC 051956Z VRB06KT 10SM CLR 12/M05 A3034 RMK AO2 SLP285 T01171050
2026-04-05 18:56:00,METAR KJAC 051856Z VRB05KT 10SM CLR 10/M03 A3037 RMK AO2 SLP294 T01001028
2026-04-05 17:56:00,METAR KJAC 051756Z VRB05KT 10SM CLR 07/M03 A3040 RMK AO2 SLP315 T00721028 10078 21067 56012
2026-04-05 16:56:00,METAR KJAC 051656Z VRB03KT 10SM CLR 06/M03 A3041 RMK AO2 SLP320 T00561033
2026-04-05 15:56:00,METAR KJAC 051556Z 00000KT 10SM CLR 02/M04 A3042 RMK AO2 SLP332 T00171044
2026-04-05 14:56:00,METAR KJAC 051456Z 03003KT 10SM CLR 01/M03 A3044 RMK AO2 SLP333 T00061033 52003
2026-04-05 12:56:00,METAR KJAC 051256Z 02005KT 10SM CLR M06/M07 A3043 RMK AO2 SLP332 T10611067
2026-04-05 11:56:00,METAR KJAC 051156Z AUTO 04004KT 10SM CLR M06/M07 A3043 RMK AO2 SLP332 T10611072 11028 21061 57001 FZRANO
2026-04-05 10:56:00,METAR KJAC 051056Z AUTO 00000KT 10SM CLR M06/M07 A3043 RMK AO2 SLP331 T10561072 FZRANO
2026-04-05 09:56:00,METAR KJAC 050956Z AUTO 02005KT 10SM CLR M05/M06 A3043 RMK AO2 SLP326 T10501061 FZRANO
2026-04-05 08:56:00,METAR KJAC 050856Z AUTO 01005KT 10SM CLR M04/M06 A3043 RMK AO2 SLP330 T10441061 52002 FZRANO
2026-04-05 07:56:00,METAR KJAC 050756Z AUTO 00000KT 10SM CLR M04/M06 A3043 RMK AO2 SLP329 T10441056 FZRANO
2026-04-05 06:56:00,METAR KJAC 050656Z AUTO 04004KT 10SM CLR M03/M05 A3043 RMK AO2 SLP328 T10281050 400891044 FZRANO
2026-04-05 05:56:00,METAR KJAC 050556Z AUTO 35005KT 10SM CLR M03/M06 A3042 RMK AO2 SLP328 T10331056 10083 21039 51009 FZRANO
2026-04-05 04:56:00,METAR KJAC 050456Z AUTO 02006KT 10SM CLR M02/M04 A3041 RMK AO2 SLP321 T10171039 FZRANO
2026-04-05 03:56:00,METAR KJAC 050356Z AUTO VRB03KT 10SM CLR M01/M06 A3041 RMK AO2 SLP325 T10111056 FZRANO
2026-04-05 02:56:00,METAR KJAC 050256Z 00000KT 10SM CLR 03/M03 A3039 RMK AO2 SLP313 T00281033 53007
2026-04-05 01:56:00,METAR KJAC 050156Z 25004KT 10SM CLR 05/M05 A3038 RMK AO2 SLP304 T00501050
2026-04-05 00:56:00,METAR KJAC 050056Z 29009KT 10SM CLR 08/M04 A3037 RMK AO2 SLP299 T00781044
2026-04-04 23:56:00,METAR KJAC 042356Z 27009KT 10SM CLR 08/M05 A3037 RMK AO2 SLP295 T00831050 10089 20061 55001
2026-04-04 22:56:00,METAR KJAC 042256Z 29015KT 10SM CLR 08/M05 A3035 RMK AO2 SLP288 T00831050
2026-04-04 21:56:00,METAR KJAC 042156Z 30012G18KT 10SM CLR 09/M05 A3036 RMK AO2 SLP285 T00891050
2026-04-04 20:56:00,METAR KJAC 042056Z 29013KT 10SM CLR 08/M06 A3037 RMK AO2 SLP293 T00781061 56008
2026-04-04 19:56:00,METAR KJAC 041956Z 28015G18KT 10SM CLR 07/M06 A3037 RMK AO2 SLP298 T00721056
2026-04-04 18:56:00,METAR KJAC 041856Z 28009G14KT 10SM CLR 06/M06 A3039 RMK AO2 SLP302 T00611061
2026-04-04 17:56:00,METAR KJAC 041756Z 27009KT 10SM FEW045 SCT060 07/M06 A3040 RMK AO2 SLP303 T00671056 10067 21017 58001
2026-04-04 16:56:00,METAR KJAC 041656Z 16006KT 10SM FEW037 06/M04 A3040 RMK AO2 SLP311 T00561039
2026-04-04 15:56:00,METAR KJAC 041556Z VRB03KT 10SM CLR 03/M06 A3040 RMK AO2 SLP319 T00281056
2026-04-04 14:56:00,METAR KJAC 041456Z VRB03KT 10SM BKN036 02/M04 A3040 RMK AO2 SLP319 T00171044 53010
2026-04-04 13:56:00,METAR KJAC 041356Z VRB04KT 10SM CLR 00/M05 A3039 RMK AO2 SLP319 T00001050
2026-04-04 12:56:00,METAR KJAC 041256Z 20011KT 10SM CLR M01/M05 A3037 RMK AO2 SLP310 T10111050
2026-04-04 11:56:00,METAR KJAC 041156Z AUTO 18011KT 10SM BKN046 M01/M04 A3036 RMK AO2 SLP309 60000 T10061039 10017 21006 50001 FZRANO
2026-04-04 10:56:00,METAR KJAC 041056Z AUTO 19009KT 10SM OVC048 00/M04 A3036 RMK AO2 SLP306 T00001044 FZRANO
2026-04-04 09:56:00,METAR KJAC 040956Z AUTO 19010KT 10SM OVC046 01/M04 A3036 RMK AO2 RAB08E18 SLP306 P0000 T00061039 FZRANO
2026-04-04 08:56:00,METAR KJAC 040856Z AUTO 19011KT 10SM OVC046 01/M03 A3036 RMK AO2 SLP305 T00061033 50003 FZRANO
2026-04-04 07:56:00,METAR KJAC 040756Z AUTO 20008KT 10SM OVC048 01/M03 A3037 RMK AO2 SLP308 T00061033 FZRANO
2026-04-04 06:56:00,METAR KJAC 040656Z AUTO 21006KT 10SM FEW030 OVC047 02/M04 A3037 RMK AO2 SLP307 T00171039 400391039 FZRANO
2026-04-04 05:56:00,METAR KJAC 040556Z AUTO 18006KT 10SM BKN040 OVC049 02/M03 A3035 RMK AO2 SLP304 60000 T00171033 10028 20000 51008 FZRANO
2026-04-04 04:56:00,METAR KJAC 040456Z AUTO 19005KT 10SM BKN050 OVC060 01/M03 A3035 RMK AO2 SLP307 T00061033 FZRANO
2026-04-04 03:56:00,METAR KJAC 040356Z AUTO 21007KT 10SM SCT050 BKN065 01/M03 A3034 RMK AO2 SLP303 T00061033 FZRANO
2026-04-04 02:56:00,METAR KJAC 040256Z 19009KT 10SM BKN050 OVC060 02/M03 A3032 RMK AO2 RAB0158E23 SLP300 P0000 60000 T00171033 53011
2026-04-04 01:56:00,METAR KJAC 040156Z 20006KT 10SM BKN047 OVC060 02/M04 A3030 RMK AO2 SLP297 T00221044
2026-04-04 00:56:00,METAR KJAC 040056Z 21006KT 10SM BKN050 OVC060 03/M05 A3030 RMK AO2 SLP294 T00281050
2026-04-03 23:56:00,METAR KJAC 032356Z 20005KT 10SM FEW026 OVC060 03/M04 A3028 RMK AO2 RAB18E33 SLP289 P0000 60000 T00281044 10039 20006 53011
2026-04-03 22:56:00,METAR KJAC 032256Z 26005KT 10SM OVC043 03/M05 A3027 RMK AO2 RAB33E47 SLP284 P0000 T00281050
2026-04-03 21:56:00,METAR KJAC 032156Z 31010G15KT 10SM OVC050 03/M06 A3025 RMK AO2 SLP278 T00281056
2026-04-03 20:56:00,METAR KJAC 032056Z 29008G20KT 10SM FEW041 OVC050 02/M06 A3024 RMK AO2 PK WND 31026/2013 SLP275 60000 T00221056 53018
2026-04-03 19:56:00,METAR KJAC 031956Z 30017G22KT 10SM OVC065 02/M05 A3021 RMK AO2 PK WND 31027/1907 SLP264 T00221050
2026-04-03 18:56:00,METAR KJAC 031856Z 29022G26KT 10SM OVC065 01/M06 A3020 RMK AO2 RAB1759E22 SLP262 P0000 T00111056
2026-04-03 17:56:00,METAR KJAC 031756Z 29018G24KT 10SM OVC065 01/M06 A3018 RMK AO2 RAB49E54SNB40E49 SLP258 P0000 60000 T00061056 10006 21039 51014
2026-04-03 16:56:00,METAR KJAC 031656Z 29009G17KT 10SM BKN055 OVC065 00/M06 A3017 RMK AO2 UPB04E07SNB09E31 SLP257 P0000 T00001061
2026-04-03 15:56:00,METAR KJAC 031556Z 19008KT 10SM OVC055 00/M05 A3015 RMK AO2 UPB22E53SNE22 SLP247 P0000 T00001050
2026-04-03 14:56:00,METAR KJAC 031456Z 24009KT 9SM -SN OVC065 M02/M06 A3013 RMK AO2 SLP249 P0000 60000 T10221056 51024
2026-04-03 14:07:00,SPECI KJAC 031407Z 21009KT 5SM -SN BR SCT022 SCT049 OVC060 M03/M06 A3011 RMK AO2 P0000
2026-04-03 13:56:00,METAR KJAC 031356Z 22013KT 4SM -SN BR BKN024 BKN033 OVC055 M04/M06 A3010 RMK AO2 SLP243 P0000 T10391056
2026-04-03 13:03:00,SPECI KJAC 031303Z 21010KT 7SM -SN BKN024 OVC031 M04/M06 A3008 RMK AO2 P0000
2026-04-03 12:56:00,METAR KJAC 031256Z 21009KT 6SM -SN BR SCT024 BKN031 OVC038 M04/M06 A3008 RMK AO2 SLP231 P0000 T10391056
2026-04-03 11:56:00,METAR KJAC 031156Z AUTO 18014KT 8SM -SN FEW029 BKN039 OVC047 M04/M05 A3004 RMK AO2 SLP215 P0000 60000 70011 T10391050 11039 21039 51018 FZRANO
2026-04-03 11:24:00,SPECI KJAC 031124Z AUTO 19012KT 5SM -SN BR SCT027 BKN034 OVC042 M04/M05 A3003 RMK AO2 P0000 FZRANO
2026-04-03 08:56:00,METAR KJAC 030856Z AUTO 21007KT 4SM -SN BR BKN022 OVC029 M04/M05 A2998 RMK AO2 SLP187 P0000 60000 T10391050 51017 FZRANO
2026-04-03 08:52:00,SPECI KJAC 030852Z AUTO 21008KT 4SM -SN BR BKN022 OVC029 M04/M05 A2998 RMK AO2 P0000 FZRANO
2026-04-03 08:23:00,SPECI KJAC 030823Z AUTO 22007KT 2SM -SN BR BKN018 OVC025 M04/M05 A2997 RMK AO2 VIS 1 3/4V3 P0000 FZRANO
2026-04-03 05:56:00,METAR KJAC 030556Z AUTO 19011KT 2SM -SN BR FEW006 OVC015 M04/M05 A2989 RMK AO2 SLP152 P0003 60003 T10391050 11022 21044 53014 FZRANO
2026-04-03 05:48:00,SPECI KJAC 030548Z AUTO 19011KT 1 1/4SM -SN BR SCT008 OVC013 M04/M05 A2988 RMK AO2 P0002 FZRANO
2026-04-03 05:39:00,SPECI KJAC 030539Z AUTO 19009KT 3/4SM -SN BR BKN008 OVC013 M04/M05 A2988 RMK AO2 CIG 006V010 P0002 FZRANO
2026-04-03 05:31:00,SPECI KJAC 030531Z AUTO 21011KT 1SM -SN BR BKN010 OVC015 M04/M05 A2988 RMK AO2 CIG 008V012 P0001 FZRANO
2026-04-03 05:24:00,SPECI KJAC 030524Z AUTO 20012KT 1 1/2SM -SN BR SCT010 BKN015 OVC020 M04/M05 A2987 RMK AO2 P0001 FZRANO
2026-04-03 05:17:00,SPECI KJAC 030517Z AUTO 20013KT 2SM -SN BR FEW005 SCT009 OVC017 M04/M05 A2987 RMK AO2 P0001 FZRANO
2026-04-03 05:13:00,SPECI KJAC 030513Z AUTO 19013KT 1 3/4SM -SN BR SCT005 BKN009 OVC017 M04/M05 A2986 RMK AO2 P0001 FZRANO
2026-04-03 05:04:00,SPECI KJAC 030504Z AUTO 20012KT 1SM -SN BR BKN005 OVC009 M04/M05 A2986 RMK AO2 CIG 004V008 P0000 FZRANO
2026-04-03 05:00:00,SPECI KJAC 030500Z AUTO 20013KT 3/4SM -SN BR OVC007 M04/M05 A2986 RMK AO2 CIG 004V010 P0000 FZRANO
2026-04-03 04:56:00,METAR KJAC 030456Z AUTO 19013KT 1/2SM SN FZFG OVC005 M04/M05 A2986 RMK AO2 SLP141 P0000 T10441050 FZRANO
2026-04-03 04:51:00,SPECI KJAC 030451Z AUTO 20012KT 1/2SM SN FZFG OVC005 M04/M05 A2985 RMK AO2 CIG 004V009 P0000 FZRANO
2026-04-03 04:43:00,SPECI KJAC 030443Z AUTO 20014KT 1/2SM SN FZFG BKN007 OVC014 M04/M05 A2986 RMK AO2 CIG 004V009 P0000 FZRANO
2026-04-03 04:31:00,SPECI KJAC 030431Z AUTO 20012KT 3/4SM -SN BR BKN007 OVC016 M04/M05 A2986 RMK AO2 CIG 006V011 P0000 FZRANO
2026-04-03 04:28:00,SPECI KJAC 030428Z AUTO 19013KT 1 1/4SM -SN BR FEW007 OVC014 M04/M05 A2986 RMK AO2 P0000 FZRANO
2026-04-03 03:56:00,METAR KJAC 030356Z AUTO 18015KT 1 3/4SM -SN BR BKN015 OVC022 M04/M05 A2984 RMK AO2 SLP134 P0000 T10391050 FZRANO
2026-04-03 03:51:00,SPECI KJAC 030351Z AUTO 18013KT 2SM -SN BR BKN017 OVC026 M04/M05 A2983 RMK AO2 P0000 FZRANO
2026-04-03 03:27:00,SPECI KJAC 030327Z 17010KT 3SM -SN BR SCT014 BKN021 OVC026 M04/M05 A2983 RMK AO2 P0000
2026-04-03 03:06:00,SPECI KJAC 030306Z 18016KT 1 3/4SM -SN BR BKN016 OVC021 M04/M05 A2981 RMK AO2 P0000
2026-04-03 02:56:00,METAR KJAC 030256Z 17014KT 2SM -SN BR FEW008 BKN018 OVC023 M04/M05 A2981 RMK AO2 SLP127 P0000 60000 T10441050 51009
2026-04-03 02:33:00,SPECI KJAC 030233Z 17013KT 3/4SM -SN BR FEW008 OVC020 M04/M05 A2980 RMK AO2 P0000
2026-04-03 02:22:00,SPECI KJAC 030222Z 17013KT 2SM -SN BR FEW006 BKN018 OVC022 M04/M05 A2980 RMK AO2 P0000
2026-04-03 02:17:00,SPECI KJAC 030217Z 17015KT 1 1/4SM -SN BR SCT006 BKN014 OVC021 M04/M06 A2979 RMK AO2 P0000
2026-04-03 02:13:00,SPECI KJAC 030213Z 18015KT 1SM -SN BR SCT006 BKN015 OVC022 M04/M06 A2979 RMK AO2 P0000
2026-04-03 02:04:00,SPECI KJAC 030204Z 18017KT 3/4SM -SN BR BKN006 OVC013 M04/M05 A2979 RMK AO2 P0000
2026-04-03 01:56:00,METAR KJAC 030156Z 19012KT 1/4SM SN FZFG OVC006 M04/M06 A2980 RMK AO2 SNB0057 CIG 005V009 SLP125 P0000 T10441056
2026-04-03 01:46:00,SPECI KJAC 030146Z 20016KT 1/4SM SN FZFG BKN006 OVC012 M04/M06 A2980 RMK AO2 SNB0057 CIG 005V009 P0000
2026-04-03 01:35:00,SPECI KJAC 030135Z 20014G21KT 1/4SM SN FZFG FEW006 BKN010 OVC018 M04/M06 A2980 RMK AO2 SNB0057 CIG 007V014 P0000
2026-04-03 01:28:00,SPECI KJAC 030128Z 20017G21KT 3/4SM -SN BR BKN012 BKN019 OVC025 M04/M06 A2980 RMK AO2 SNB0057 P0000
2026-04-03 01:22:00,SPECI KJAC 030122Z 20014G21KT 1SM -SN SCT012 BKN019 OVC033 M03/M06 A2980 RMK AO2 SNB0057 P0000
2026-04-03 01:14:00,SPECI KJAC 030114Z 20015KT 2 1/2SM -SN SCT019 BKN025 OVC049 M03/M07 A2980 RMK AO2 VIS 1V5 SNB0057 P0000
2026-04-03 00:56:00,METAR KJAC 030056Z 19016G21KT 10SM FEW021 BKN043 OVC060 M03/M07 A2979 RMK AO2 SNB02E36 SLP116 P0000 T10281072
2026-04-03 00:24:00,SPECI KJAC 030024Z 18009G15KT 5SM -SN BR FEW004 SCT032 OVC047 M04/M06 A2978 RMK AO2 SNB02 P0000
2026-04-03 00:17:00,SPECI KJAC 030017Z 00000KT 2SM -SN BR FEW004 BKN040 OVC049 M04/M06 A2979 RMK AO2 VIS 1/2V5 SNB02 P0000
2026-04-03 00:15:00,SPECI KJAC 030015Z 24004KT 3/4SM -SN BR FEW004 BKN030 OVC049 M04/M06 A2979 RMK AO2 VIS M1/4V5 SNB02 P0000
2026-04-03 00:12:00,SPECI KJAC 030012Z 24005G22KT 1/4SM -SN FZFG SCT004 BKN030 OVC049 M04/M06 A2979 RMK AO2 SNB02 P0000
2026-04-03 00:04:00,SPECI KJAC 030004Z 24016G24KT 1/2SM SN FEW007 SCT030 OVC038 M03/M07 A2979 RMK AO2 SNB02 PRESRR P0000
2026-04-03 00:02:00,SPECI KJAC 030002Z 24018G24KT 210V270 1 1/2SM -SN FEW009 SCT030 OVC038 M02/M07 A2979 RMK AO2 SNB02 P0000
2026-04-02 23:56:00,METAR KJAC 022356Z 20015KT 10SM OVC037 M02/M07 A2977 RMK AO2 SNE50 SLP111 P0000 60000 T10221067 10028 21039 51024
2026-04-02 23:26:00,SPECI KJAC 022326Z 20014KT 9SM -SN FEW025 BKN033 OVC042 M02/M06 A2977 RMK AO2 P0000
2026-04-02 23:14:00,SPECI KJAC 022314Z 22010KT 9SM -SN FEW009 BKN025 OVC033 M02/M06 A2977 RMK AO2 P0000
2026-04-02 23:07:00,SPECI KJAC 022307Z 25013G19KT 1SM -SN FEW009 BKN022 OVC031 M03/M06 A2977 RMK AO2 P0000
2026-04-02 23:00:00,SPECI KJAC 022300Z 22011G25KT 1SM -SN BR SCT009 BKN014 OVC037 M04/M06 A2976 RMK AO2 P0000
2026-04-02 22:58:00,SPECI KJAC 022258Z 23011G25KT 1/2SM -SN FZFG SCT009 BKN014 OVC034 M04/M06 A2976 RMK AO2 P0000
2026-04-02 22:56:00,METAR KJAC 022256Z 25016G25KT 2SM -SN SCT009 BKN020 OVC042 M03/M06 A2976 RMK AO2 WSHFT 2143 SLP107 P0000 T10331061
2026-04-02 22:49:00,SPECI KJAC 022249Z 24013G21KT 2SM -SN FEW011 BKN020 OVC040 M02/M06 A2975 RMK AO2 WSHFT 2143 PRESRR P0000
2026-04-02 22:03:00,SPECI KJAC 022203Z 20014G20KT 9SM -SN FEW026 BKN044 OVC055 01/M06 A2972 RMK AO2 WSHFT 2143 P0000
2026-04-02 21:56:00,METAR KJAC 022156Z 21015G20KT 6SM -SN FEW028 BKN042 BKN055 M01/M06 A2972 RMK AO2 PK WND 29026/2141 SLP082 P0000 T10061056
2026-04-02 21:14:00,SPECI KJAC 022114Z 25017G22KT 9SM -SN FEW010 SCT026 BKN046 02/M08 A2970 RMK AO2 P0000
2026-04-02 20:56:00,METAR KJAC 022056Z 27013KT 6SM -SN FEW011 BKN026 OVC055 01/M04 A2969 RMK AO2 RAB45E53SNB53 SLP069 P0000 60000 T00061039 58002
2026-04-02 19:56:00,METAR KJAC 021956Z 19018G23KT 10SM FEW022 BKN044 BKN100 00/M03 A2970 RMK AO2 SNB04E18 SLP073 P0000 T00001033
2026-04-02 18:56:00,METAR KJAC 021856Z 23009G16KT 10SM FEW041 BKN050 OVC065 00/M05 A2970 RMK AO2 PK WND 28026/1822 WSHFT 1833 RAB19E31SNB31E50 SLP073 P0000 T00001050
2026-04-02 18:53:00,SPECI KJAC 021853Z 23005KT 9SM BKN045 OVC060 00/M05 A2970 RMK AO2 PK WND 28026/1822 WSHFT 1833 RAB19E31SNB31E50 P0000
2026-04-02 18:36:00,SPECI KJAC 021836Z 28011G24KT 10SM -SN FEW032 BKN044 OVC065 00/M06 A2967 RMK AO2 PK WND 28026/1822 WSHFT 1816 RAB19E31SNB31 P0000
2026-04-02 17:56:00,METAR KJAC 021756Z 20010KT 10SM FEW021 SCT035 OVC090 02/M04 A2966 RMK AO2 RAE22 SLP055 P0000 60008 T00171044 10017 20000 53020
2026-04-02 17:23:00,SPECI KJAC 021723Z 21010KT 10SM FEW021 SCT035 OVC090 02/M02 A2963 RMK AO2 RAE22 P0000
2026-04-02 16:56:00,METAR KJAC 021656Z 22015G19KT 10SM -RA FEW008 BKN023 OVC041 02/01 A2962 RMK AO2 RAB14 SLP039 P0001 T00170006
2026-04-02 16:51:00,SPECI KJAC 021651Z 21013KT 10SM -RA FEW006 BKN023 OVC042 02/01 A2962 RMK AO2 RAB14 P0001
2026-04-02 16:44:00,SPECI KJAC 021644Z 20008KT 10SM -RA FEW007 BKN011 OVC042 02/01 A2961 RMK AO2 RAB14 P0001
2026-04-02 16:40:00,SPECI KJAC 021640Z 19010KT 10SM -RA SCT009 BKN030 OVC040 01/01 A2962 RMK AO2 RAB14 P0001
2026-04-02 16:07:00,SPECI KJAC 021607Z 24006KT 10SM SCT005 BKN028 OVC035 01/01 A2959 RMK AO2
2026-04-02 15:56:00,METAR KJAC 021556Z 26006KT 10SM BKN003 BKN011 OVC035 01/01 A2958 RMK AO2 RAB04E18B42E56 SLP023 P0000 T00110006
2026-04-02 14:56:00,METAR KJAC 021456Z 17004KT 10SM FEW007 BKN040 OVC048 01/00 A2961 RMK AO2 SNE29 SLP031 P0000 60007 T00060000 57005
2026-04-02 14:51:00,SPECI KJAC 021451Z 18003KT 10SM FEW007 BKN037 OVC046 01/00 A2961 RMK AO2 SNE29 P0000
2026-04-02 13:56:00,METAR KJAC 021356Z 22003KT 7SM -SN FEW032 BKN047 OVC060 00/M01 A2962 RMK AO2 SNE15B43 SLP036 P0000 T00001006
2026-04-02 13:34:00,SPECI KJAC 021334Z 16009KT 10SM FEW022 BKN038 OVC047 00/M01 A2962 RMK AO2 SNE15 P0000
2026-04-02 13:03:00,SPECI KJAC 021303Z 18011KT 3SM -SN BR FEW005 OVC016 00/M01 A2962 RMK AO2 P0000
2026-04-02 12:56:00,METAR KJAC 021256Z 18011KT 7SM -SN BKN016 OVC023 00/M01 A2962 RMK AO2 SLP032 P0007 T00001006
2026-04-02 12:17:00,SPECI KJAC 021217Z AUTO 21007KT 8SM -SN SCT005 OVC016 00/M01 A2960 RMK AO2 P0004 FZRANO
2026-04-02 12:02:00,SPECI KJAC 021202Z AUTO 23005KT 3SM -SN BR OVC003 00/M01 A2960 RMK AO2 CIG 003V007 P0000 FZRANO
2026-04-02 11:56:00,METAR KJAC 021156Z AUTO 25005KT 2SM -SN BR OVC005 00/M01 A2960 RMK AO2 VIS 1 1/4V3 RAE28SNB28 SLP023 P0006 60009 70011 T00001006 10017 20000 55006 FZRANO
2026-04-02 11:53:00,SPECI KJAC 021153Z AUTO 26006KT 1 1/4SM -SN BR OVC005 00/M01 A2960 RMK AO2 RAE28SNB28 P0005 FZRANO
2026-04-02 11:45:00,SPECI KJAC 021145Z AUTO 27009KT 3/4SM -SN BR BKN005 OVC010 00/M01 A2959 RMK AO2 RAE28SNB28 P0005 FZRANO
2026-04-02 11:38:00,SPECI KJAC 021138Z AUTO 27008KT 1 3/4SM -SN BR BKN005 BKN010 OVC025 00/M01 A2959 RMK AO2 RAE28SNB28 CIG 003V006 P0005 FZRANO
2026-04-02 11:35:00,SPECI KJAC 021135Z AUTO 26008KT 2 1/2SM -SN BR SCT005 BKN010 OVC025 01/M01 A2959 RMK AO2 RAE28SNB28 CIG 007V014 P0005 FZRANO
2026-04-02 11:29:00,SPECI KJAC 021129Z AUTO 26009KT 6SM -SN BR FEW005 BKN010 OVC025 01/00 A2958 RMK AO2 RAE28SNB28 CIG 008V015 P0004 FZRANO
2026-04-02 10:56:00,METAR KJAC 021056Z AUTO 25007KT 10SM -RA BKN023 BKN029 OVC038 01/01 A2958 RMK AO2 SLP009 P0002 T00110006 FZRANO
2026-04-02 10:52:00,SPECI KJAC 021052Z AUTO 25006KT 10SM -RA FEW019 BKN023 OVC048 01/01 A2958 RMK AO2 P0002 FZRANO
2026-04-02 10:29:00,SPECI KJAC 021029Z AUTO 21005KT 10SM -RA FEW015 BKN033 OVC047 02/01 A2960 RMK AO2 P0002 FZRANO
2026-04-02 09:56:00,METAR KJAC 020956Z AUTO 23006KT 10SM -RA OVC026 02/01 A2962 RMK AO2 RAB02 SLP025 P0000 T00170011 FZRANO
2026-04-02 09:22:00,SPECI KJAC 020922Z AUTO 25007KT 10SM -RA BKN026 BKN034 OVC042 02/01 A2963 RMK AO2 RAB02 P0000 FZRANO
2026-04-02 08:56:00,METAR KJAC 020856Z AUTO 24008KT 10SM FEW023 BKN035 OVC047 02/01 A2965 RMK AO2 RAE21 SLP035 P0000 60001 T00170011 58015 FZRANO
2026-04-02 08:30:00,SPECI KJAC 020830Z AUTO 24009KT 10SM SCT028 BKN043 OVC060 02/01 A2966 RMK AO2 RAE21 P0000 FZRANO
2026-04-02 07:56:00,METAR KJAC 020756Z AUTO 26010KT 10SM -RA FEW009 OVC021 02/01 A2967 RMK AO2 SLP040 P0000 T00170011 FZRANO
2026-04-02 07:36:00,SPECI KJAC 020736Z AUTO 24008KT 10SM -RA SCT019 BKN025 OVC038 02/01 A2967 RMK AO2 P0000 FZRANO
2026-04-02 07:28:00,SPECI KJAC 020728Z AUTO 23007KT 10SM -RA FEW021 SCT025 OVC038 02/01 A2968 RMK AO2 P0000 FZRANO
2026-04-02 07:21:00,SPECI KJAC 020721Z AUTO 23007KT 10SM -RA BKN025 BKN037 OVC045 02/01 A2968 RMK AO2 P0000 FZRANO
2026-04-02 06:56:00,METAR KJAC 020656Z AUTO 25008KT 10SM -RA BKN048 OVC055 02/01 A2969 RMK AO2 RAB12 SLP048 P0001 T00170011 401000011 FZRANO
2026-04-02 05:56:00,METAR KJAC 020556Z AUTO 24008KT 10SM FEW010 OVC043 02/01 A2970 RMK AO2 RAE0458 SLP056 P0000 60001 T00170011 10078 20017 50004 FZRANO
2026-04-02 05:38:00,SPECI KJAC 020538Z AUTO 21006KT 10SM FEW017 OVC043 02/01 A2971 RMK AO2 RAE0458 P0000 FZRANO
2026-04-02 05:03:00,SPECI KJAC 020503Z AUTO 21006KT 10SM FEW010 BKN024 OVC050 02/01 A2972 RMK AO2 RAE0458 CIG 019V041 P0000 FZRANO
2026-04-02 04:56:00,METAR KJAC 020456Z AUTO 17004KT 10SM -RA SCT023 BKN033 OVC075 02/01 A2972 RMK AO2 SLP064 P0000 T00220011 FZRANO
2026-04-02 04:16:00,SPECI KJAC 020416Z AUTO 17012KT 10SM -RA FEW028 BKN037 OVC047 03/01 A2971 RMK AO2 P0000
2026-04-02 04:08:00,SPECI KJAC 020408Z AUTO 17012KT 10SM -RA BKN028 BKN036 OVC047 04/01 A2971 RMK AO2 P0000
2026-04-02 03:56:00,METAR KJAC 020356Z AUTO 19009KT 10SM -RA FEW025 SCT030 OVC037 04/01 A2971 RMK AO2 RAB11 SLP062 P0001 T00390011
2026-04-02 03:42:00,SPECI KJAC 020342Z AUTO 25010KT 10SM -RA FEW018 SCT027 OVC039 04/00 A2970 RMK AO2 RAB11 P0001
2026-04-02 03:33:00,SPECI KJAC 020333Z AUTO 28014G17KT 9SM -RA FEW018 BKN027 OVC038 04/01 A2969 RMK AO2 RAB11 P0001
2026-04-02 02:56:00,METAR KJAC 020256Z VRB04KT 10SM BKN050 BKN060 BKN120 05/M01 A2968 RMK AO2 SLP053 T00501006 55002
2026-04-02 01:56:00,METAR KJAC 020156Z 18005KT 10SM CLR 06/M01 A2968 RMK AO2 SLP053 T00561011
2026-04-02 00:56:00,METAR KJAC 020056Z 21006KT 10SM OVC070 07/M01 A2969 RMK AO2 SLP052 T00721011
2026-04-01 23:56:00,METAR KJAC 012356Z 19005KT 10SM FEW110 08/M01 A2969 RMK AO2 WSHFT 2259 RAB09E38 SLP052 P0000 60000 T00781006 10100 20044 56006
2026-04-01 23:40:00,SPECI KJAC 012340Z 14003KT 10SM SCT013 SCT032 BKN110 07/01 A2970 RMK AO2 WSHFT 2259 RAB09E38 P0000
2026-04-01 23:19:00,SPECI KJAC 012319Z 27010KT 4SM -RA FEW015 BKN042 OVC070 04/01 A2971 RMK AO2 WSHFT 2259 RAB09 P0000
2026-04-01 22:56:00,METAR KJAC 012256Z 21009KT 10SM SCT044 BKN070 08/M01 A2969 RMK AO2 SLP051 T00831011
2026-04-01 21:56:00,METAR KJAC 012156Z 27008KT 10SM FEW045 BKN065 08/M02 A2969 RMK AO2 SLP050 T00831017
2026-04-01 20:56:00,METAR KJAC 012056Z 27011G16KT 10SM SCT036 BKN047 BKN055 08/M01 A2971 RMK AO2 SLP057 T00781006 57011
2026-04-01 19:56:00,METAR KJAC 011956Z 18009KT 10SM BKN046 BKN070 09/M01 A2972 RMK AO2 SLP058 T00891006
2026-04-01 18:56:00,METAR KJAC 011856Z 19005KT 10SM FEW027 BKN031 OVC049 08/01 A2974 RMK AO2 SLP065 T00780006
2026-04-01 17:56:00,METAR KJAC 011756Z 19003KT 10SM SCT020 OVC039 07/01 A2975 RMK AO2 SLP074 60001 T00670006 10072 20011 51000
2026-04-01 17:09:00,SPECI KJAC 011709Z 06003KT 10SM BKN018 BKN026 OVC075 06/01 A2976 RMK AO2
2026-04-01 16:56:00,METAR KJAC 011656Z 14003KT 10SM SCT018 OVC075 06/01 A2976 RMK AO2 SLP076 T00560011
2026-04-01 16:31:00,SPECI KJAC 011631Z 00000KT 10SM SCT012 OVC080 04/01 A2976 RMK AO2
2026-04-01 16:12:00,SPECI KJAC 011612Z 00000KT 10SM BKN010 OVC018 03/02 A2975 RMK AO2 CIG 008V015
2026-04-01 15:56:00,METAR KJAC 011556Z 00000KT 10SM OVC008 03/02 A2975 RMK AO2 CIG 006V011 SLP080 T00330017
2026-04-01 14:56:00,METAR KJAC 011456Z 02003KT 10SM OVC008 02/02 A2975 RMK AO2 SLP081 60001 T00220017 50001
2026-04-01 14:07:00,SPECI KJAC 011407Z VRB05KT 10SM OVC008 02/01 A2975 RMK AO2
2026-04-01 13:56:00,METAR KJAC 011356Z 01004KT 10SM OVC008 02/01 A2976 RMK AO2 SLP082 T00170011
2026-04-01 12:56:00,METAR KJAC 011256Z 02006KT 10SM OVC008 01/01 A2975 RMK AO2 RAE30 SLP073 P0001 T00110006
2026-04-01 11:56:00,METAR KJAC 011156Z AUTO 02006KT 10SM -RA OVC008 01/01 A2975 RMK AO2 RAB13 SLP071 P0001 60006 70023 T00110011 10028 20011 56008 FZRANO
2026-04-01 10:56:00,METAR KJAC 011056Z AUTO 02005KT 10SM OVC006 01/01 A2975 RMK AO2 RAE28 SLP069 P0000 T00110006 FZRANO
2026-04-01 09:56:00,METAR KJAC 010956Z AUTO 01005KT 8SM -RA BKN008 OVC021 01/01 A2977 RMK AO2 CIG 006V011 SLP074 P0002 T00110011 FZRANO
2026-04-01 08:56:00,METAR KJAC 010856Z AUTO 02005KT 10SM -RA OVC006 02/01 A2978 RMK AO2 RAB05 SLP075 P0001 60003 T00170011 58007 FZRANO
2026-04-01 07:56:00,METAR KJAC 010756Z AUTO 01005KT 10SM OVC006 02/01 A2979 RMK AO2 RAE38 SLP081 P0001 T00170011 FZRANO
2026-04-01 07:02:00,SPECI KJAC 010702Z AUTO 00000KT 8SM -RA BKN008 OVC021 03/02 A2980 RMK AO2 P0000
2026-04-01 06:56:00,METAR KJAC 010656Z AUTO 00000KT 8SM -RA SCT010 OVC021 03/02 A2980 RMK AO2 SLP085 P0001 T00280017 401170022
2026-04-01 06:48:00,SPECI KJAC 010648Z AUTO 00000KT 8SM -RA FEW010 OVC021 03/02 A2980 RMK AO2 P0001
2026-04-01 06:11:00,SPECI KJAC 010611Z AUTO 00000KT 10SM -RA OVC014 02/02 A2980 RMK AO2 P0000 FZRANO
2026-04-01 05:56:00,METAR KJAC 010556Z AUTO 00000KT 9SM -RA BKN018 OVC024 02/02 A2980 RMK AO2 SLP092 P0006 60014 T00220017 10083 20022 58008 FZRANO
2026-04-01 05:13:00,SPECI KJAC 010513Z AUTO 26005KT 7SM -RA SCT007 SCT012 OVC022 03/02 A2981 RMK AO2 P0002
2026-04-01 04:56:00,METAR KJAC 010456Z AUTO 24007KT 8SM -RA FEW004 BKN010 OVC015 03/02 A2981 RMK AO2 CIG 007V012 SLP095 P0007 T00280022
2026-04-01 04:47:00,SPECI KJAC 010447Z AUTO 24006KT 10SM -RA FEW004 BKN010 OVC015 03/02 A2981 RMK AO2 CIG 007V013 P0006
2026-04-01 03:56:00,METAR KJAC 010356Z AUTO 21005KT 10SM -RA BKN020 OVC040 03/03 A2983 RMK AO2 SLP104 P0001 T00330028
2026-04-01 03:47:00,SPECI KJAC 010347Z AUTO 22005KT 9SM -RA FEW007 BKN020 OVC042 03/03 A2983 RMK AO2 P0001
2026-04-01 02:56:00,METAR KJAC 010256Z 23005KT 10SM -RA BKN024 BKN034 OVC044 04/03 A2983 RMK AO2 SLP105 P0000 60000 T00390028 55003
2026-04-01 01:56:00,METAR KJAC 010156Z 19008KT 10SM -RA FEW026 OVC035 05/02 A2983 RMK AO2 RAB37 SLP102 P0000 T00500022
2026-04-01 00:56:00,METAR KJAC 010056Z 19012KT 10SM FEW039 SCT047 OVC065 07/01 A2984 RMK AO2 SLP101 T00720011
2026-03-31 23:56:00,METAR KJAC 312356Z 19012KT 10SM OVC065 08/01 A2984 RMK AO2 SLP101 60001 T00830011 10117 20067 56006
2026-03-31 22:56:00,METAR KJAC 312256Z 22009KT 10SM FEW048 OVC065 09/M01 A2985 RMK AO2 SLP100 T00941006
2026-03-31 21:56:00,METAR KJAC 312156Z 22013G20KT 10SM FEW043 SCT050 OVC065 10/01 A2985 RMK AO2 PK WND 23026/2139 SLP099 T01000006
2026-03-31 20:56:00,METAR KJAC 312056Z 23009G17KT 10SM FEW026 SCT036 BKN095 10/01 A2987 RMK AO2 PK WND 20026/2024 RAB26E52 SLP103 P0001 60001 T01000011 56018
2026-03-31 19:56:00,METAR KJAC 311956Z 20013G25KT 10SM FEW060 SCT070 11/00 A2988 RMK AO2 SLP099 T01060000
2026-03-31 18:56:00,METAR KJAC 311856Z 19016G20KT 10SM OVC060 08/01 A2991 RMK AO2 SLP111 T00830011
2026-03-31 17:56:00,METAR KJAC 311756Z 19014G19KT 10SM OVC044 07/02 A2993 RMK AO2 RAE11 SLP120 P0000 60002 T00670022 10067 20028 58002
2026-03-31 17:09:00,SPECI KJAC 311709Z 21015G20KT 10SM -RA FEW016 OVC034 06/03 A2994 RMK AO2 P0000
2026-03-31 16:56:00,METAR KJAC 311656Z 21015KT 10SM -RA FEW020 BKN029 OVC035 06/03 A2994 RMK AO2 SLP128 P0000 T00560033
2026-03-31 15:56:00,METAR KJAC 311556Z 21011KT 10SM -RA BKN019 OVC028 04/03 A2994 RMK AO2 SLP129 P0001 T00440033
2026-03-31 15:22:00,SPECI KJAC 311522Z 22007KT 10SM -RA FEW021 BKN027 OVC047 03/02 A2993 RMK AO2 P0000
2026-03-31 14:56:00,METAR KJAC 311456Z 23009KT 10SM -RA FEW030 BKN041 OVC048 03/02 A2994 RMK AO2 SLP131 P0001 60001 T00330022 58000
2026-03-31 13:56:00,METAR KJAC 311356Z 25005KT 10SM -RA SCT025 BKN034 OVC041 03/02 A2994 RMK AO2 RAB00 SLP130 P0000 T00330017
2026-03-31 12:56:00,METAR KJAC 311256Z 21007KT 10SM OVC023 03/02 A2994 RMK AO2 RAB36E48 SLP126 P0000 T00280017
2026-03-31 12:19:00,SPECI KJAC 311219Z AUTO 23008KT 10SM BKN029 OVC040 03/02 A2993 RMK AO2
2026-03-31 11:56:00,METAR KJAC 311156Z AUTO 22007KT 10SM OVC031 03/02 A2994 RMK AO2 RAE15 SLP126 P0000 60004 70004 T00280017 10083 20022 56008
2026-03-31 11:29:00,SPECI KJAC 311129Z AUTO 25007KT 10SM OVC031 02/02 A2994 RMK AO2 RAE15 P0000 FZRANO
2026-03-31 10:56:00,METAR KJAC 311056Z AUTO 23007KT 10SM -RA BKN029 OVC041 03/02 A2995 RMK AO2 SLP126 P0001 T00280017
2026-03-31 10:54:00,SPECI KJAC 311054Z AUTO 22008KT 10SM -RA BKN029 BKN037 OVC044 03/02 A2994 RMK AO2 P0001
2026-03-31 10:18:00,SPECI KJAC 311018Z AUTO 23007KT 10SM -RA SCT028 BKN034 OVC045 03/02 A2996 RMK AO2 P0000
2026-03-31 09:56:00,METAR KJAC 310956Z AUTO 24008KT 10SM -RA SCT020 OVC026 03/02 A2997 RMK AO2 SLP128 P0000 T00280017
2026-03-31 08:56:00,METAR KJAC 310856Z AUTO 20011KT 10SM -RA BKN023 OVC034 03/02 A2998 RMK AO2 RAE0757B14 SLP136 P0003 60003 T00330017 53004
2026-03-31 08:29:00,SPECI KJAC 310829Z AUTO 20012KT 9SM RA BKN021 BKN028 OVC041 04/01 A2998 RMK AO2 RAE0757B14 P0001
2026-03-31 07:56:00,METAR KJAC 310756Z AUTO 22009G16KT 10SM -RA FEW023 OVC044 06/M01 A2997 RMK AO2 RAB15 SLP130 P0000 T00561006
2026-03-31 06:56:00,METAR KJAC 310656Z AUTO 22013G17KT 10SM OVC060 08/M03 A2996 RMK AO2 SLP121 T00781033 401440028
2026-03-31 05:56:00,METAR KJAC 310556Z AUTO 23007G20KT 180V270 10SM BKN060 OVC080 08/M04 A2997 RMK AO2 SLP120 60000 T00831039 10117 20083 55001
2026-03-31 04:56:00,METAR KJAC 310456Z AUTO 22014G18KT 10SM SCT060 OVC080 08/M04 A2997 RMK AO2 SLP119 T00831044
2026-03-31 03:56:00,METAR KJAC 310356Z AUTO 24011KT 10SM OVC110 09/M04 A2996 RMK AO2 RAE13 SLP119 P0000 T00891044
2026-03-31 02:56:00,METAR KJAC 310256Z 25015G27KT 10SM -RA SCT042 OVC060 08/M03 A2997 RMK AO2 PK WND 22034/0231 RAB50 SLP136 P0000 60000 T00831028 53014
2026-03-31 01:56:00,METAR KJAC 310156Z 25008G24KT 10SM FEW046 OVC060 10/M04 A2995 RMK AO2 PK WND 28026/0140 RAB11E28 SLP130 P0000 T01001039
2026-03-31 00:56:00,METAR KJAC 310056Z 23016G26KT 10SM OVC070 11/M04 A2993 RMK AO2 PK WND 21026/0047 SLP120 T01111044
2026-03-30 23:56:00,METAR KJAC 302356Z 21015G23KT 10SM BKN080 BKN090 12/M05 A2992 RMK AO2 PK WND 23027/2311 SLP119 T01171050 10144 20117 56002
2026-03-30 22:56:00,METAR KJAC 302256Z 24017G24KT 10SM OVC075 13/M06 A2993 RMK AO2 PK WND 21029/2240 SLP116 T01281056
2026-03-30 21:56:00,METAR KJAC 302156Z 23017G24KT 10SM BKN080 14/M06 A2993 RMK AO2 PK WND 22027/2137 SLP115 T01441061
2026-03-30 20:56:00,METAR KJAC 302056Z 22014G21KT 10SM CLR 13/M07 A2993 RMK AO2 SLP116 T01331067 56009
2026-03-30 19:56:00,METAR KJAC 301956Z 25015G22KT 10SM FEW080 12/M07 A2995 RMK AO2 SLP115 T01221067
2026-03-30 18:56:00,METAR KJAC 301856Z 24014G21KT 10SM FEW075 12/M05 A2995 RMK AO2 SLP116 T01221050
2026-03-30 17:56:00,METAR KJAC 301756Z 22012G18KT 10SM BKN075 13/M04 A2997 RMK AO2 SLP119 T01281044 10133 20033 53006
2026-03-30 16:56:00,METAR KJAC 301656Z 21012KT 10SM SCT080 12/M04 A2996 RMK AO2 SLP115 T01221039
2026-03-30 14:56:00,METAR KJAC 301456Z 23005KT 10SM BKN090 07/M02 A2994 RMK AO2 SLP120 T00721017 56003
2026-03-30 13:56:00,METAR KJAC 301356Z 00000KT 10SM BKN085 04/M03 A2995 RMK AO2 SLP128 T00391028
2026-03-30 12:56:00,METAR KJAC 301256Z 25004KT 10SM FEW090 04/M03 A2995 RMK AO2 SLP124 T00391033
2026-03-30 11:56:00,METAR KJAC 301156Z AUTO 00000KT 10SM FEW080 04/M03 A2995 RMK AO2 SLP121 T00391033 10083 20028 55006
2026-03-30 10:56:00,METAR KJAC 301056Z AUTO 00000KT 10SM CLR 04/M03 A2995 RMK AO2 SLP118 T00391033
2026-03-30 09:56:00,METAR KJAC 300956Z AUTO 23006KT 10SM CLR 03/M04 A2996 RMK AO2 SLP123 T00331039
2026-03-30 08:56:00,METAR KJAC 300856Z AUTO 25005KT 10SM FEW090 04/M04 A2998 RMK AO2 SLP128 T00441039 57009
2026-03-30 07:56:00,METAR KJAC 300756Z AUTO 19005KT 10SM BKN080 OVC100 07/M03 A2999 RMK AO2 SLP124 T00721033
2026-03-30 06:56:00,METAR KJAC 300656Z AUTO 18006KT 10SM FEW080 SCT100 07/M04 A3000 RMK AO2 SLP128 T00721039 401670044
2026-03-30 05:56:00,METAR KJAC 300556Z AUTO 23009KT 10SM BKN100 08/M04 A3001 RMK AO2 SLP131 T00781039 10150 20078 58004
2026-03-30 04:56:00,METAR KJAC 300456Z AUTO 17010KT 10SM BKN085 OVC110 10/M04 A3002 RMK AO2 SLP132 T01001039
2026-03-30 03:56:00,METAR KJAC 300356Z AUTO 17014KT 10SM OVC100 11/M04 A3002 RMK AO2 SLP133 T01061044
2026-03-30 02:56:00,METAR KJAC 300256Z 20009KT 10SM FEW110 11/M05 A3002 RMK AO2 SLP142 T01061050 55001
2026-03-30 01:56:00,METAR KJAC 300156Z 21008KT 10SM CLR 11/M04 A3002 RMK AO2 SLP145 T01111044
2026-03-30 00:56:00,METAR KJAC 300056Z 23016G24KT 10SM CLR 13/M05 A3002 RMK AO2 PK WND 25033/0007 SLP144 T01281050
2026-03-29 23:56:00,METAR KJAC 292356Z 24016G24KT 10SM OVC090 15/M04 A3002 RMK AO2 PK WND 26031/2302 SLP132 T01501044 10167 20139 56006
2026-03-29 22:56:00,METAR KJAC 292256Z 24018G33KT 10SM OVC085 16/M04 A3003 RMK AO2 PK WND 25033/2252 SLP134 T01561039
2026-03-29 21:56:00,METAR KJAC 292156Z 24023G29KT 10SM BKN085 15/M04 A3004 RMK AO2 PK WND 24030/2107 SLP139 T01501039
2026-03-29 20:56:00,METAR KJAC 292056Z 25013G22KT 10SM BKN085 14/M04 A3005 RMK AO2 PK WND 25032/2014 SLP140 T01441039 58013
2026-03-29 19:56:00,METAR KJAC 291956Z 25021G27KT 10SM SCT080 15/M04 A3006 RMK AO2 PK WND 23028/1942 SLP145 T01501039
2026-03-29 18:56:00,METAR KJAC 291856Z 23019G26KT 10SM FEW070 14/M04 A3009 RMK AO2 PK WND 22028/1843 SLP152 T01441039
2026-03-29 17:56:00,METAR KJAC 291756Z 24013G23KT 10SM CLR 14/M04 A3009 RMK AO2 PK WND 23028/1745 SLP156 T01391039 10139 20044 51003
2026-03-29 16:56:00,METAR KJAC 291656Z 22016G23KT 10SM CLR 13/M04 A3009 RMK AO2 SLP159 T01331044
2026-03-29 15:56:00,METAR KJAC 291556Z 19012G18KT 10SM CLR 12/M05 A3009 RMK AO2 SLP157 T01221050
2026-03-29 14:56:00,METAR KJAC 291456Z 25007KT 10SM CLR 09/M06 A3008 RMK AO2 SLP164 T00941061 51007
2026-03-29 13:56:00,METAR KJAC 291356Z 24008KT 10SM CLR 06/M07 A3008 RMK AO2 SLP168 T00611067
2026-03-29 12:56:00,METAR KJAC 291256Z 25008KT 10SM CLR 06/M08 A3007 RMK AO2 SLP159 T00561078
2026-03-29 11:56:00,METAR KJAC 291156Z AUTO 18012KT 10SM SCT100 09/M07 A3006 RMK AO2 SLP138 T00941067 10117 20072 53002
2026-03-29 10:56:00,METAR KJAC 291056Z AUTO 19008KT 10SM CLR 09/M08 A3005 RMK AO2 SLP135 T00891078
2026-03-29 09:56:00,METAR KJAC 290956Z AUTO 24005G15KT 10SM CLR 08/M09 A3004 RMK AO2 SLP133 T00831089
2026-03-29 08:56:00,METAR KJAC 290856Z AUTO 19013KT 10SM FEW095 09/M10 A3005 RMK AO2 SLP133 T00941100 50003
2026-03-29 07:56:00,METAR KJAC 290756Z AUTO 19011KT 10SM SCT110 09/M11 A3005 RMK AO2 SLP138 T00941106
2026-03-29 06:56:00,METAR KJAC 290656Z AUTO 20008G16KT 10SM SCT100 11/M11 A3005 RMK AO2 SLP139 T01061111 401891056
2026-03-29 05:56:00,METAR KJAC 290556Z AUTO 20009G16KT 10SM CLR 11/M12 A3004 RMK AO2 SLP146 T01061122 10172 20100 53004
2026-03-29 04:56:00,METAR KJAC 290456Z AUTO 20009KT 10SM CLR 10/M16 A3003 RMK AO2 SLP153 T01001156
2026-03-29 03:56:00,METAR KJAC 290356Z AUTO 18011KT 10SM CLR 11/M17 A3003 RMK AO2 SLP159 T01111167
2026-03-29 02:56:00,METAR KJAC 290256Z 19010KT 10SM CLR 11/M15 A3003 RMK AO2 SLP166 T01061150 52007
2026-03-29 01:56:00,METAR KJAC 290156Z 21008KT 10SM CLR 12/M15 A3001 RMK AO2 SLP167 T01171150
2026-03-29 00:56:00,METAR KJAC 290056Z 23012G22KT 10SM CLR 14/M16 A3002 RMK AO2 PK WND 23026/0003 SLP165 T01441161
2026-03-28 23:56:00,METAR KJAC 282356Z 25016G19KT 10SM CLR 17/M17 A3000 RMK AO2 SLP154 T01721172 10189 20100 56010
2026-03-28 22:56:00,METAR KJAC 282256Z 26017G22KT 10SM CLR 18/M12 A3000 RMK AO2 SLP152 T01781122
2026-03-28 21:56:00,METAR KJAC 282156Z 22012G21KT 190V260 10SM CLR 18/M13 A3002 RMK AO2 SLP154 T01781128
2026-03-28 20:56:00,METAR KJAC 282056Z 24016G22KT 10SM CLR 18/M12 A3004 RMK AO2 SLP162 T01781122 56023
2026-03-28 19:56:00,METAR KJAC 281956Z 23012G17KT 190V250 10SM CLR 17/M11 A3006 RMK AO2 SLP168 T01721106
2026-03-28 18:56:00,METAR KJAC 281856Z 19010KT 10SM CLR 15/M07 A3008 RMK AO2 SLP182 T01501067
2026-03-28 17:56:00,METAR KJAC 281756Z VRB04KT 10SM CLR 11/M06 A3012 RMK AO2 SLP208 T01061056 10106 21056 57016
2026-03-28 16:56:00,METAR KJAC 281656Z VRB03KT 10SM CLR 07/M06 A3015 RMK AO2 SLP223 T00671061
2026-03-28 15:56:00,METAR KJAC 281556Z 00000KT 10SM CLR 03/M07 A3015 RMK AO2 SLP227 T00331072
2026-03-28 14:56:00,METAR KJAC 281456Z 00000KT 10SM CLR 00/M06 A3018 RMK AO2 SLP225 T00001061 56002
2026-03-28 13:56:00,METAR KJAC 281356Z 01005KT 10SM CLR M03/M07 A3018 RMK AO2 SLP231 T10331067
2026-03-28 12:56:00,METAR KJAC 281256Z 02005KT 10SM CLR M05/M07 A3018 RMK AO2 SLP224 T10501072
2026-03-28 11:56:00,METAR KJAC 281156Z AUTO 01005KT 10SM CLR M05/M08 A3018 RMK AO2 SLP225 T10501078 11022 21050 56006 FZRANO
2026-03-28 10:56:00,METAR KJAC 281056Z AUTO 03007KT 10SM CLR M04/M08 A3019 RMK AO2 SLP225 T10441078 FZRANO
2026-03-28 09:56:00,METAR KJAC 280956Z AUTO 01007KT 10SM CLR M03/M07 A3019 RMK AO2 SLP224 T10331072 FZRANO
2026-03-28 08:56:00,METAR KJAC 280856Z AUTO 01005KT 10SM CLR M03/M07 A3021 RMK AO2 SLP236 T10331072 58005 FZRANO
2026-03-28 06:56:00,METAR KJAC 280656Z AUTO 36007KT 10SM CLR M03/M07 A3022 RMK AO2 SLP249 T10331072 401501072 FZRANO
2026-03-28 05:56:00,METAR KJAC 280556Z AUTO 01009KT 10SM CLR M03/M07 A3023 RMK AO2 SLP257 T10281072 10144 21028 58001 FZRANO
2026-03-28 04:56:00,METAR KJAC 280456Z AUTO 01007KT 10SM CLR M01/M07 A3023 RMK AO2 SLP259 T10111072 FZRANO
2026-03-28 03:56:00,METAR KJAC 280356Z AUTO 02009KT 10SM CLR 01/M09 A3024 RMK AO2 SLP267 T00061089 FZRANO
2026-03-28 02:56:00,METAR KJAC 280256Z 00000KT 10SM CLR 08/M11 A3023 RMK AO2 SLP250 T00831111 55007
2026-03-28 01:56:00,METAR KJAC 280156Z 00000KT 10SM CLR 09/M11 A3023 RMK AO2 SLP254 T00941111
2026-03-28 00:56:00,METAR KJAC 280056Z 20006KT 9SM CLR 13/M13 A3024 RMK AO2 SLP249 T01331133
2026-03-27 23:56:00,METAR KJAC 272356Z 21010KT 10SM CLR 14/M14 A3026 RMK AO2 SLP253 T01441144 10150 20067 56023
2026-03-27 22:56:00,METAR KJAC 272256Z 20009G15KT 10SM CLR 14/M12 A3027 RMK AO2 SLP259 T01441117
2026-03-27 21:56:00,METAR KJAC 272156Z 24008KT 10SM CLR 14/M11 A3030 RMK AO2 SLP267 T01391106
2026-03-27 20:56:00,METAR KJAC 272056Z 24010KT 10SM CLR 12/M09 A3034 RMK AO2 SLP278 T01221094 56027
2026-03-27 19:56:00,METAR KJAC 271956Z 26008KT 10SM CLR 11/M09 A3037 RMK AO2 SLP301 T01061094
2026-03-27 18:56:00,METAR KJAC 271856Z 20006KT 10SM CLR 09/M07 A3040 RMK AO2 SLP310 T00891072
2026-03-27 17:56:00,METAR KJAC 271756Z 16006KT 10SM CLR 06/M07 A3043 RMK AO2 SLP325 T00611072 10061 21072 58013
2026-03-27 16:56:00,METAR KJAC 271656Z VRB03KT 10SM CLR 04/M07 A3046 RMK AO2 SLP329 T00391072
2026-03-27 15:56:00,METAR KJAC 271556Z 00000KT 10SM CLR 01/M07 A3047 RMK AO2 SLP339 T00061072
2026-03-25 14:56:00,METAR KJAC 251456Z 20006KT 10SM CLR 09/00 A3011 RMK AO2 SLP175 T00940000 51003
2026-03-25 13:56:00,METAR KJAC 251356Z 00000KT 10SM CLR 03/M01 A3011 RMK AO2 SLP188 T00331006
2026-03-25 12:56:00,METAR KJAC 251256Z 18003KT 10SM CLR 05/M01 A3011 RMK AO2 SLP176 T00501006
2026-03-25 11:56:00,METAR KJAC 251156Z AUTO 00000KT 10SM CLR 04/00 A3010 RMK AO2 SLP171 T00440000 10078 20022 53002
2026-03-25 10:56:00,METAR KJAC 251056Z AUTO 00000KT 10SM CLR 04/01 A3010 RMK AO2 SLP171 T00440006
2026-03-25 09:56:00,METAR KJAC 250956Z AUTO 13006KT 10SM CLR 03/00 A3009 RMK AO2 SLP174 T00280000
2026-03-25 08:56:00,METAR KJAC 250856Z AUTO 17004KT 10SM CLR 05/01 A3010 RMK AO2 SLP174 T00500006 58000
2026-03-25 07:56:00,METAR KJAC 250756Z AUTO 00000KT 10SM CLR 05/00 A3010 RMK AO2 SLP176 T00500000
2026-03-25 06:56:00,METAR KJAC 250656Z AUTO 22003KT 10SM CLR 07/01 A3010 RMK AO2 SLP168 T00720011 401610061
2026-03-25 05:56:00,METAR KJAC 250556Z AUTO VRB04KT 10SM CLR 08/01 A3010 RMK AO2 SLP166 T00780011 10156 20078 50004
2026-03-25 04:56:00,METAR KJAC 250456Z AUTO 20007KT 10SM CLR 09/02 A3010 RMK AO2 SLP165 T00890017
2026-03-25 03:56:00,METAR KJAC 250356Z AUTO 20005KT 10SM CLR 11/02 A3010 RMK AO2 SLP162 T01110017
2026-03-25 02:56:00,METAR KJAC 250256Z 17009KT 10SM CLR 10/02 A3008 RMK AO2 SLP166 T01000017 55002
2026-03-25 01:56:00,METAR KJAC 250156Z 17005KT 10SM CLR 11/02 A3007 RMK AO2 SLP165 T01060022
2026-03-25 00:56:00,METAR KJAC 250056Z 18010KT 10SM SCT070 13/02 A3007 RMK AO2 SLP161 T01330022
2026-03-24 23:56:00,METAR KJAC 242356Z 21011KT 10SM OVC060 16/03 A3009 RMK AO2 SLP158 T01560028 10161 20122 56007
2026-03-24 22:56:00,METAR KJAC 242256Z 21016G20KT 10SM BKN048 14/02 A3010 RMK AO2 SLP164 T01440022
2026-03-24 21:56:00,METAR KJAC 242156Z 22014G20KT 10SM BKN046 13/03 A3010 RMK AO2 SLP170 T01330028
2026-03-24 20:56:00,METAR KJAC 242056Z 25010KT 10SM OVC050 12/02 A3011 RMK AO2 SLP172 T01220017 50005
2026-03-24 19:56:00,METAR KJAC 241956Z 23012G19KT 10SM OVC050 12/01 A3012 RMK AO2 SLP176 T01220006
2026-03-24 18:56:00,METAR KJAC 241856Z 22018G25KT 10SM OVC060 13/00 A3010 RMK AO2 SLP171 T01280000
2026-03-24 17:56:00,METAR KJAC 241756Z 21015G22KT 10SM OVC060 13/M01 A3010 RMK AO2 PK WND 21029/1723 SLP163 T01281006 10133 20067 53008
2026-03-24 16:56:00,METAR KJAC 241656Z 22021G32KT 10SM FEW055 BKN090 BKN110 13/01 A3009 RMK AO2 PK WND 22032/1653 SLP159 T01280006
2026-03-24 15:56:00,METAR KJAC 241556Z 22014G19KT 10SM FEW055 OVC090 12/M01 A3008 RMK AO2 SLP158 T01171006
2026-03-24 14:56:00,METAR KJAC 241456Z 18008KT 10SM SCT060 SCT075 BKN090 09/M01 A3007 RMK AO2 SLP161 T00891011 50002
2026-03-24 13:56:00,METAR KJAC 241356Z 24008KT 10SM OVC085 07/M02 A3008 RMK AO2 SLP167 T00721017
2026-03-24 12:56:00,METAR KJAC 241256Z 23008KT 10SM BKN095 OVC120 07/M02 A3006 RMK AO2 SLP159 T00671017
2026-03-24 11:56:00,METAR KJAC 241156Z AUTO 26008KT 10SM SCT090 07/M02 A3006 RMK AO2 SLP152 T00721022 10100 20061 58001
2026-03-24 10:56:00,METAR KJAC 241056Z AUTO VRB04KT 10SM BKN110 08/M02 A3006 RMK AO2 SLP150 T00781022
2026-03-24 09:56:00,METAR KJAC 240956Z AUTO 23007KT 10SM CLR 07/M02 A3006 RMK AO2 SLP153 T00671022
2026-03-24 08:56:00,METAR KJAC 240856Z AUTO 23008KT 10SM CLR 08/M02 A3006 RMK AO2 SLP148 T00831022 58001
2026-03-24 07:56:00,METAR KJAC 240756Z AUTO 19007KT 10SM CLR 08/M02 A3007 RMK AO2 SLP153 T00781022
2026-03-24 06:56:00,METAR KJAC 240656Z AUTO 22008KT 10SM OVC070 07/M02 A3006 RMK AO2 SLP157 T00721022 401611044
2026-03-24 05:56:00,METAR KJAC 240556Z AUTO 26010G16KT 10SM OVC075 09/M02 A3006 RMK AO2 SLP159 T00941022 10133 20083 58002
2026-03-24 04:56:00,METAR KJAC 240456Z AUTO 19012G18KT 10SM OVC070 09/M02 A3006 RMK AO2 SLP167 T00941022
2026-03-24 03:56:00,METAR KJAC 240356Z AUTO 21010KT 10SM OVC070 09/M02 A3008 RMK AO2 SLP178 T00941022
2026-03-24 02:56:00,METAR KJAC 240256Z 24003KT 10SM FEW065 BKN085 10/M02 A3007 RMK AO2 SLP184 T01001022 53002
2026-03-24 01:56:00,METAR KJAC 240156Z 19006KT 10SM BKN065 11/M02 A3007 RMK AO2 SLP192 T01061022
2026-03-24 00:56:00,METAR KJAC 240056Z 20008KT 10SM BKN065 OVC085 12/M03 A3007 RMK AO2 SLP185 T01221028
2026-03-23 23:56:00,METAR KJAC 232356Z 21008KT 10SM CLR 13/M07 A3006 RMK AO2 SLP182 T01331067 10161 20111 51002
2026-03-23 22:56:00,METAR KJAC 232256Z 24011KT 10SM FEW095 14/M12 A3006 RMK AO2 SLP176 T01391117
2026-03-23 21:56:00,METAR KJAC 232156Z 27007G16KT 10SM CLR 14/M09 A3006 RMK AO2 SLP178 T01441089
2026-03-23 20:56:00,METAR KJAC 232056Z 29011G17KT 10SM CLR 14/M09 A3006 RMK AO2 WSHFT 2030 SLP174 T01441094 58014
2026-03-23 19:56:00,METAR KJAC 231956Z 23007KT 10SM CLR 14/M08 A3009 RMK AO2 SLP182 T01441078
2026-03-23 18:56:00,METAR KJAC 231856Z 19007KT 10SM CLR 11/M06 A3009 RMK AO2 SLP190 T01111056
2026-03-23 17:56:00,METAR KJAC 231756Z 18006KT 10SM CLR 09/M07 A3011 RMK AO2 SLP195 T00891067 10089 21044 58010
2026-03-23 16:56:00,METAR KJAC 231656Z 16004KT 10SM CLR 06/M07 A3013 RMK AO2 SLP212 T00611072
2026-03-23 15:56:00,METAR KJAC 231556Z 00000KT 10SM CLR 03/M07 A3014 RMK AO2 SLP221 T00331067
2026-03-23 14:56:00,METAR KJAC 231456Z 03005KT 10SM CLR 00/M06 A3015 RMK AO2 SLP217 T00001056 53001
2026-03-23 13:56:00,METAR KJAC 231356Z 02005KT 10SM CLR M04/M06 A3015 RMK AO2 SLP226 T10391061
2026-03-23 12:56:00,METAR KJAC 231256Z 04007KT 10SM CLR M04/M06 A3013 RMK AO2 SLP213 T10391061
2026-03-23 11:56:00,METAR KJAC 231156Z AUTO 33004KT 10SM CLR M03/M06 A3014 RMK AO2 SLP210 T10331061 10022 21039 53000 FZRANO
2026-03-23 10:56:00,METAR KJAC 231056Z AUTO 00000KT 10SM CLR M02/M06 A3014 RMK AO2 SLP207 T10221061 FZRANO
2026-03-23 09:56:00,METAR KJAC 230956Z AUTO 04007KT 10SM CLR M03/M07 A3013 RMK AO2 SLP204 T10331072 FZRANO
2026-03-23 08:56:00,METAR KJAC 230856Z AUTO 03005KT 10SM CLR M03/M06 A3014 RMK AO2 SLP207 T10281061 56012 FZRANO
2026-03-23 07:56:00,METAR KJAC 230756Z AUTO 05004KT 10SM CLR M01/M06 A3015 RMK AO2 SLP205 T10111061 FZRANO
2026-03-23 06:56:00,METAR KJAC 230656Z AUTO 03004KT 10SM CLR M01/M06 A3018 RMK AO2 SLP216 T10061056 401391006 FZRANO
2026-03-23 05:56:00,METAR KJAC 230556Z AUTO VRB03KT 10SM CLR 02/M07 A3019 RMK AO2 SLP217 T00171067 10128 20011 55001 FZRANO
2026-03-23 04:56:00,METAR KJAC 230456Z AUTO 03006KT 10SM CLR 02/M07 A3018 RMK AO2 SLP221 T00171072 FZRANO
2026-03-23 03:56:00,METAR KJAC 230356Z AUTO 02007KT 10SM CLR 02/M10 A3019 RMK AO2 SLP225 T00221100 FZRANO
2026-03-23 02:56:00,METAR KJAC 230256Z 19003KT 10SM CLR 07/M12 A3019 RMK AO2 SLP221 T00721122 53008
2026-03-23 01:56:00,METAR KJAC 230156Z 24004KT 10SM CLR 08/M13 A3018 RMK AO2 SLP225 T00781128
2026-03-23 00:56:00,METAR KJAC 230056Z 24007KT 10SM CLR 11/M09 A3017 RMK AO2 SLP209 T01111094
2026-03-22 23:56:00,METAR KJAC 222356Z 27009KT 10SM CLR 13/M08 A3016 RMK AO2 SLP197 T01281078 10139 20111 58007
2026-03-22 22:56:00,METAR KJAC 222256Z 28007KT 10SM CLR 13/M09 A3018 RMK AO2 SLP199 T01331089
2026-03-22 21:56:00,METAR KJAC 222156Z 27007G15KT 220V290 10SM CLR 13/M10 A3018 RMK AO2 SLP199 T01331100
2026-03-22 20:56:00,METAR KJAC 222056Z 25006G16KT 10SM CLR 13/M07 A3019 RMK AO2 SLP201 T01331067 58008
2026-03-22 19:56:00,METAR KJAC 221956Z 28010G15KT 10SM CLR 13/M06 A3020 RMK AO2 SLP201 T01281061
2026-03-22 18:56:00,METAR KJAC 221856Z 27008KT 10SM CLR 12/M05 A3020 RMK AO2 SLP198 T01221050
2026-03-22 17:56:00,METAR KJAC 221756Z 00000KT 10SM SCT050 11/M03 A3022 RMK AO2 SLP202 T01111033 10122 20006 50001
2026-03-22 16:56:00,METAR KJAC 221656Z 11003KT 10SM CLR 09/M02 A3022 RMK AO2 SLP207 T00941017
2026-03-22 15:56:00,METAR KJAC 221556Z 34004KT 10SM CLR 07/M01 A3022 RMK AO2 SLP210 T00721011
2026-03-22 14:56:00,METAR KJAC 221456Z 02008KT 10SM CLR 04/M02 A3021 RMK AO2 SLP215 T00441022 51025
2026-03-22 13:56:00,METAR KJAC 221356Z VRB04KT 10SM CLR 01/M03 A3019 RMK AO2 SLP214 T00061033
2026-03-22 12:56:00,METAR KJAC 221256Z 23008KT 10SM SCT050 03/M01 A3015 RMK AO2 SLP190 T00331011
2026-03-22 11:56:00,METAR KJAC 221156Z AUTO 21009KT 10SM FEW060 04/M01 A3012 RMK AO2 SLP175 T00441011 10122 20028 53007
2026-03-22 10:56:00,METAR KJAC 221056Z AUTO 17012KT 10SM CLR 05/M02 A3009 RMK AO2 SLP160 T00501022
2026-03-22 09:56:00,METAR KJAC 220956Z AUTO 23006KT 10SM CLR 06/M04 A3010 RMK AO2 SLP157 T00561039
2026-03-22 08:56:00,METAR KJAC 220856Z AUTO 26005KT 10SM CLR 07/M04 A3010 RMK AO2 SLP150 T00671044 51017
2026-03-22 07:56:00,METAR KJAC 220756Z AUTO 26007KT 10SM BKN090 09/M04 A3008 RMK AO2 SLP138 T00891044
2026-03-22 06:56:00,METAR KJAC 220656Z AUTO 27014G22KT 10SM BKN100 11/M04 A3007 RMK AO2 SLP134 T01061039 402111033
2026-03-22 05:56:00,METAR KJAC 220556Z AUTO 24013G22KT 10SM CLR 12/M05 A3004 RMK AO2 PK WND 24034/0524 SLP129 T01221050 10167 20117 53005
2026-03-22 04:56:00,METAR KJAC 220456Z AUTO 26013G23KT 10SM CLR 13/M05 A3003 RMK AO2 SLP134 T01281050
2026-03-22 03:56:00,METAR KJAC 220356Z AUTO 26012G20KT 10SM CLR 13/M04 A3002 RMK AO2 SLP142 T01331044
2026-03-22 02:56:00,METAR KJAC 220256Z 24016G27KT 10SM CLR 13/M03 A3002 RMK AO2 PK WND 24029/0243 SLP151 T01281028 53010
2026-03-22 01:56:00,METAR KJAC 220156Z 25014G26KT 10SM CLR 14/M04 A3000 RMK AO2 PK WND 25026/0149 SLP154 T01391039
2026-03-22 00:56:00,METAR KJAC 220056Z 24016G24KT 10SM CLR 15/M06 A2999 RMK AO2 PK WND 23032/0019 SLP146 T01501056
2026-03-21 23:56:00,METAR KJAC 212356Z 23020G27KT 10SM CLR 17/M05 A2998 RMK AO2 PK WND 23030/2337 SLP141 T01671050 10211 20150 50002
2026-03-21 22:56:00,METAR KJAC 212256Z 24017G26KT 10SM CLR 18/M03 A2999 RMK AO2 PK WND 25031/2201 SLP138 T01781033
2026-03-21 21:56:00,METAR KJAC 212156Z 23012G26KT 10SM CLR 18/M04 A2997 RMK AO2 PK WND 23032/2102 SLP130 T01831044
2026-03-21 20:56:00,METAR KJAC 212056Z 23016G24KT 10SM CLR 21/M04 A2998 RMK AO2 PK WND 23034/2006 SLP120 T02061039 55013
2026-03-21 19:56:00,METAR KJAC 211956Z 24016G36KT 10SM CLR 21/M04 A2997 RMK AO2 PK WND 24036/1952 SLP108 T02061039
2026-03-21 18:56:00,METAR KJAC 211856Z 26010G17KT 10SM CLR 20/M05 A2998 RMK AO2 SLP112 T02001050
2026-03-21 17:56:00,METAR KJAC 211756Z VRB04KT 10SM CLR 15/M01 A3002 RMK AO2 SLP141 T01501011 10150 21033 56019
2026-03-21 16:56:00,METAR KJAC 211656Z 19008KT 10SM CLR 11/M02 A3004 RMK AO2 SLP152 T01111022
2026-03-21 15:56:00,METAR KJAC 211556Z 17004KT 10SM CLR 07/M04 A3006 RMK AO2 SLP170 T00671039
2026-03-21 14:56:00,METAR KJAC 211456Z 00000KT 10SM CLR 02/M04 A3009 RMK AO2 SLP187 T00221039 58008
2026-03-21 13:56:00,METAR KJAC 211356Z 01005KT 10SM CLR M02/M05 A3010 RMK AO2 SLP188 T10171050
2026-03-21 12:56:00,METAR KJAC 211256Z 02007KT 10SM CLR M02/M05 A3011 RMK AO2 SLP184 T10221050
2026-03-21 11:56:00,METAR KJAC 211156Z AUTO 02007KT 10SM CLR M02/M05 A3011 RMK AO2 SLP180 T10221050 10067 21022 56014 FZRANO
2026-03-21 10:56:00,METAR KJAC 211056Z AUTO 01008KT 10SM CLR M02/M05 A3013 RMK AO2 SLP181 T10171050 FZRANO
2026-03-21 09:56:00,METAR KJAC 210956Z AUTO 05004KT 10SM CLR M01/M04 A3014 RMK AO2 SLP182 T10061039 FZRANO
2026-03-21 08:56:00,METAR KJAC 210856Z AUTO 14004KT 10SM CLR 02/M05 A3016 RMK AO2 SLP187 T00171050 58009 FZRANO
2026-03-21 07:56:00,METAR KJAC 210756Z AUTO 18004KT 10SM CLR 06/M05 A3018 RMK AO2 SLP183 T00561050
2026-03-21 06:56:00,METAR KJAC 210656Z AUTO 00000KT 10SM CLR 06/M06 A3019 RMK AO2 SLP189 T00611056 402171039
2026-03-21 05:56:00,METAR KJAC 210556Z AUTO 17003KT 10SM CLR 05/M06 A3020 RMK AO2 SLP207 T00501056 10200 20050 56003
2026-03-21 04:56:00,METAR KJAC 210456Z AUTO 21007KT 10SM CLR 08/M05 A3020 RMK AO2 SLP213 T00781050
2026-03-21 03:56:00,METAR KJAC 210356Z AUTO 25005KT 10SM CLR 08/M06 A3020 RMK AO2 SLP221 T00781061
2026-03-21 02:56:00,METAR KJAC 210256Z 22004KT 10SM CLR 08/M06 A3021 RMK AO2 SLP233 T00831056 55004
2026-03-21 01:56:00,METAR KJAC 210156Z 21008KT 10SM CLR 13/M07 A3020 RMK AO2 SLP232 T01331067
2026-03-21 00:56:00,METAR KJAC 210056Z 22009KT 10SM CLR 18/M06 A3021 RMK AO2 SLP219 T01781061
2026-03-20 23:56:00,METAR KJAC 202356Z 23010G16KT 10SM CLR 20/M08 A3022 RMK AO2 SLP218 T02001083 10217 20133 56017
2026-03-20 22:56:00,METAR KJAC 202256Z 24011G19KT 10SM CLR 21/M07 A3024 RMK AO2 PK WND 25026/2221 SLP221 T02111072
2026-03-20 21:56:00,METAR KJAC 202156Z 23008KT 190V260 10SM CLR 21/M04 A3025 RMK AO2 SLP223 T02111039
2026-03-20 20:56:00,METAR KJAC 202056Z 22013G17KT 10SM CLR 21/M04 A3028 RMK AO2 SLP234 T02061039 58021
2026-03-20 19:56:00,METAR KJAC 201956Z 25011G18KT 10SM CLR 19/M04 A3031 RMK AO2 SLP232 T01941044
2026-03-20 18:56:00,METAR KJAC 201856Z 24007KT 200V270 10SM CLR 19/M03 A3033 RMK AO2 SLP234 T01891028
2026-03-20 17:56:00,METAR KJAC 201756Z VRB03KT 10SM CLR 13/M03 A3035 RMK AO2 SLP257 T01331033 10133 21039 58006
2026-03-20 16:56:00,METAR KJAC 201656Z 01005KT 10SM CLR 09/M04 A3037 RMK AO2 SLP270 T00891039
2026-03-20 15:56:00,METAR KJAC 201556Z 00000KT 10SM CLR 05/M04 A3037 RMK AO2 SLP280 T00501039
2026-03-20 14:56:00,METAR KJAC 201456Z 02007KT 10SM CLR 01/M04 A3038 RMK AO2 SLP290 T00111039 51004
2026-03-20 13:56:00,METAR KJAC 201356Z 03005KT 10SM CLR M03/M06 A3037 RMK AO2 SLP294 T10331056
2026-03-20 12:56:00,METAR KJAC 201256Z 06006KT 10SM CLR M03/M06 A3037 RMK AO2 SLP280 T10281056
2026-03-20 11:56:00,METAR KJAC 201156Z AUTO 03006KT 10SM CLR M03/M05 A3036 RMK AO2 SLP271 T10281050 10094 21033 53004 FZRANO
2026-03-20 10:56:00,METAR KJAC 201056Z AUTO 01006KT 10SM CLR M02/M04 A3035 RMK AO2 SLP264 T10221044 FZRANO
2026-03-20 09:56:00,METAR KJAC 200956Z AUTO 01009KT 10SM CLR M01/M04 A3036 RMK AO2 SLP260 T10111039 FZRANO
2026-03-20 08:56:00,METAR KJAC 200856Z AUTO 02008KT 10SM CLR M01/M04 A3035 RMK AO2 SLP260 T10111044 53001 FZRANO
2026-03-20 07:56:00,METAR KJAC 200756Z AUTO 15005KT 10SM CLR 04/M06 A3034 RMK AO2 SLP245 T00441056
2026-03-20 06:56:00,METAR KJAC 200656Z AUTO 21005KT 10SM CLR 09/M06 A3034 RMK AO2 SLP234 T00891061 402111039
2026-03-20 05:56:00,METAR KJAC 200556Z AUTO 00000KT 10SM CLR 07/M06 A3034 RMK AO2 SLP250 T00721056 10194 20061 51003
2026-03-20 04:56:00,METAR KJAC 200456Z AUTO VRB03KT 10SM CLR 09/M06 A3034 RMK AO2 SLP258 T00891056
2026-03-20 03:56:00,METAR KJAC 200356Z AUTO 02003KT 10SM CLR 09/M05 A3035 RMK AO2 SLP268 T00941050
2026-03-20 02:56:00,METAR KJAC 200256Z 20004KT 10SM CLR 10/M06 A3033 RMK AO2 SLP275 T01001056 53008
2026-03-20 01:56:00,METAR KJAC 200156Z 21007KT 10SM CLR 12/M06 A3032 RMK AO2 SLP275 T01221056
2026-03-20 00:56:00,METAR KJAC 200056Z 24011KT 10SM CLR 17/M06 A3031 RMK AO2 SLP260 T01721056
2026-03-19 23:56:00,METAR KJAC 192356Z 25006KT 10SM CLR 19/M06 A3030 RMK AO2 SLP250 T01891061 10211 20150 56003
2026-03-19 22:56:00,METAR KJAC 192256Z 23010G18KT 210V270 10SM CLR 20/M06 A3030 RMK AO2 SLP244 T02001061
2026-03-19 21:56:00,METAR KJAC 192156Z 24012G19KT 10SM CLR 21/M05 A3031 RMK AO2 PK WND 23027/2127 SLP244 T02111050
2026-03-19 20:56:00,METAR KJAC 192056Z 21015G23KT 10SM CLR 20/M04 A3032 RMK AO2 SLP240 T02001039 58011
2026-03-19 19:56:00,METAR KJAC 191956Z 23015G22KT 10SM CLR 20/M03 A3034 RMK AO2 SLP246 T02001033
2026-03-19 18:56:00,METAR KJAC 191856Z 22015G22KT 10SM CLR 19/M04 A3034 RMK AO2 SLP245 T01941039
2026-03-19 17:56:00,METAR KJAC 191756Z 23010KT 10SM CLR 15/M02 A3035 RMK AO2 SLP251 T01501017 10150 21039 58007
2026-03-19 16:56:00,METAR KJAC 191656Z 00000KT 10SM CLR 09/M04 A3037 RMK AO2 SLP269 T00941039
2026-03-19 15:56:00,METAR KJAC 191556Z VRB03KT 10SM CLR 06/M04 A3038 RMK AO2 SLP280 T00561044
2026-03-19 14:56:00,METAR KJAC 191456Z 01005KT 10SM CLR 01/M05 A3038 RMK AO2 SLP288 T00111050 53011
2026-03-19 13:56:00,METAR KJAC 191356Z 01005KT 10SM CLR M04/M06 A3036 RMK AO2 SLP297 T10391061
2026-03-19 12:56:00,METAR KJAC 191256Z 35005KT 10SM CLR M04/M06 A3035 RMK AO2 SLP278 T10391061
2026-03-19 11:56:00,METAR KJAC 191156Z AUTO 03006KT 10SM CLR M02/M06 A3034 RMK AO2 SLP265 T10221056 10083 21022 53001 FZRANO
2026-03-19 10:56:00,METAR KJAC 191056Z AUTO 03008KT 10SM CLR M02/M05 A3033 RMK AO2 SLP257 T10171050 FZRANO
2026-03-19 09:56:00,METAR KJAC 190956Z AUTO 01008KT 10SM CLR M01/M05 A3033 RMK AO2 SLP255 T10111050 FZRANO
2026-03-19 08:56:00,METAR KJAC 190856Z AUTO 00000KT 10SM CLR 02/M06 A3033 RMK AO2 SLP250 T00221061 53004 FZRANO
2026-03-19 07:56:00,METAR KJAC 190756Z AUTO 00000KT 10SM CLR 03/M07 A3032 RMK AO2 SLP246 T00331072
2026-03-19 06:56:00,METAR KJAC 190656Z AUTO 14003KT 10SM CLR 05/M07 A3032 RMK AO2 SLP242 T00501072 401941022
2026-03-19 05:56:00,METAR KJAC 190556Z AUTO 17003KT 10SM CLR 08/M09 A3032 RMK AO2 SLP234 T00831094 10178 20072 51008
2026-03-19 04:56:00,METAR KJAC 190456Z AUTO 00000KT 10SM CLR 09/M09 A3032 RMK AO2 SLP239 T00941094
2026-03-19 03:56:00,METAR KJAC 190356Z AUTO 25004KT 10SM CLR 10/M09 A3031 RMK AO2 SLP249 T01001094
2026-03-19 02:56:00,METAR KJAC 190256Z 16015KT 10SM CLR 11/M07 A3029 RMK AO2 SLP254 T01111072 51015
2026-03-19 01:56:00,METAR KJAC 190156Z 14007KT 10SM CLR 10/M08 A3028 RMK AO2 SLP262 T01001078
2026-03-19 00:56:00,METAR KJAC 190056Z 24008G17KT 10SM CLR 16/M09 A3026 RMK AO2 SLP241 T01611089
2026-03-18 23:56:00,METAR KJAC 182356Z 26019G26KT 10SM CLR 18/M09 A3024 RMK AO2 PK WND 28029/2315 SLP225 T01781089 10194 20167 56002
2026-03-18 22:56:00,METAR KJAC 182256Z 25016G26KT 10SM CLR 19/M07 A3025 RMK AO2 PK WND 27029/2241 SLP210 T01891072
2026-03-18 21:56:00,METAR KJAC 182156Z 25015G19KT 10SM CLR 19/M07 A3024 RMK AO2 SLP202 T01941067
2026-03-18 20:56:00,METAR KJAC 182056Z 22016G23KT 10SM CLR 19/M06 A3025 RMK AO2 SLP211 T01891056 58006
2026-03-18 19:56:00,METAR KJAC 181956Z 24016G23KT 10SM CLR 18/M04 A3026 RMK AO2 SLP211 T01781044
2026-03-18 18:56:00,METAR KJAC 181856Z 23010G16KT 10SM CLR 17/M04 A3028 RMK AO2 SLP217 T01721039
2026-03-18 17:56:00,METAR KJAC 181756Z 24012G23KT 10SM CLR 17/M06 A3027 RMK AO2 SLP215 T01671056 10167 21022 50003
2026-03-18 16:56:00,METAR KJAC 181656Z 21006KT 10SM CLR 14/M05 A3027 RMK AO2 SLP221 T01391050
2026-03-18 16:25:00,SPECI KJAC 181625Z 00000KT 10SM CLR 10/M06 A3027 RMK AO2
2026-03-18 15:56:00,METAR KJAC 181556Z 03004KT 10SM CLR 07/M06 A3026 RMK AO2 SLP232 T00721056
2026-03-18 14:56:00,METAR KJAC 181456Z 03008KT 10SM CLR 02/M06 A3026 RMK AO2 SLP244 T00171061 52011
2026-03-18 13:56:00,METAR KJAC 181356Z 01007KT 10SM CLR M01/M06 A3024 RMK AO2 SLP243 T10111061
2026-03-18 12:56:00,METAR KJAC 181256Z 02007KT 10SM CLR M02/M06 A3023 RMK AO2 SLP237 T10221061
2026-03-18 11:56:00,METAR KJAC 181156Z AUTO 34008KT 10SM CLR 00/M06 A3021 RMK AO2 SLP221 T00001061 10100 20000 53002 FZRANO
2026-03-18 10:56:00,METAR KJAC 181056Z AUTO 20005KT 10SM CLR 06/M11 A3021 RMK AO2 SLP204 T00561111
2026-03-18 09:56:00,METAR KJAC 180956Z AUTO 19008KT 10SM CLR 07/M11 A3020 RMK AO2 SLP201 T00721111
2026-03-18 08:56:00,METAR KJAC 180856Z AUTO 00000KT 10SM CLR 06/M09 A3021 RMK AO2 SLP205 T00561094 53001
2026-03-18 07:56:00,METAR KJAC 180756Z AUTO 23004KT 10SM CLR 09/M11 A3020 RMK AO2 SLP196 T00891111
2026-03-18 06:56:00,METAR KJAC 180656Z AUTO 19003KT 10SM CLR 09/M09 A3021 RMK AO2 SLP202 T00891094 401560006
2026-03-18 05:56:00,METAR KJAC 180556Z AUTO 14003KT 10SM CLR 08/M09 A3020 RMK AO2 SLP206 T00831089 10150 20078 53010
2026-03-18 04:56:00,METAR KJAC 180456Z AUTO 19010KT 10SM CLR 09/M09 A3019 RMK AO2 SLP201 T00941089
2026-03-18 03:56:00,METAR KJAC 180356Z AUTO 20008KT 10SM BKN090 10/M09 A3018 RMK AO2 SLP209 T01001089
2026-03-18 02:56:00,METAR KJAC 180256Z 20010KT 10SM BKN100 11/M08 A3017 RMK AO2 SLP205 T01061083 51008
2026-03-18 01:56:00,METAR KJAC 180156Z 20012KT 10SM OVC085 12/M08 A3016 RMK AO2 SLP204 T01171078
2026-03-18 00:56:00,METAR KJAC 180056Z 22011KT 10SM OVC090 13/M07 A3015 RMK AO2 SLP196 T01331072
2026-03-17 23:56:00,METAR KJAC 172356Z 20005KT 10SM OVC085 15/M06 A3014 RMK AO2 SLP189 T01501061 10156 20122 56004
2026-03-17 22:56:00,METAR KJAC 172256Z VRB06KT 10SM BKN090 16/M08 A3015 RMK AO2 SLP189 T01561083
2026-03-17 21:56:00,METAR KJAC 172156Z 29007G15KT 10SM SCT090 14/M07 A3014 RMK AO2 SLP186 T01441072
2026-03-17 20:56:00,METAR KJAC 172056Z 20006G17KT 10SM SCT095 15/M05 A3015 RMK AO2 SLP191 T01501050 56008
2026-03-17 19:56:00,METAR KJAC 171956Z 22012G16KT 190V250 10SM OVC090 14/M04 A3016 RMK AO2 SLP202 T01441044
2026-03-17 18:56:00,METAR KJAC 171856Z 16014G22KT 10SM SCT080 13/M04 A3016 RMK AO2 SLP205 T01281044
2026-03-17 17:56:00,METAR KJAC 171756Z 19015G22KT 10SM BKN075 12/M04 A3018 RMK AO2 SLP216 T01171039 10122 20017 58002
2026-03-17 16:56:00,METAR KJAC 171656Z 19013G16KT 10SM BKN075 10/M03 A3019 RMK AO2 SLP226 T01001033
2026-03-17 15:56:00,METAR KJAC 171556Z 24009KT 10SM OVC075 06/M02 A3020 RMK AO2 SLP239 T00561022
2026-03-17 14:56:00,METAR KJAC 171456Z 24003KT 10SM BKN080 OVC095 04/M02 A3019 RMK AO2 SLP230 T00441022 53009
2026-03-17 13:56:00,METAR KJAC 171356Z 24004KT 10SM OVC090 03/M02 A3017 RMK AO2 SLP226 T00281017
2026-03-17 12:56:00,METAR KJAC 171256Z VRB03KT 10SM OVC090 03/M02 A3016 RMK AO2 SLP218 T00281017
2026-03-17 11:56:00,METAR KJAC 171156Z AUTO 00000KT 10SM OVC095 02/M02 A3016 RMK AO2 SLP218 70003 T00221017 10061 20006 53002 FZRANO
2026-03-17 10:56:00,METAR KJAC 171056Z AUTO 22006KT 10SM BKN100 03/M02 A3014 RMK AO2 SLP208 T00331017
2026-03-17 09:56:00,METAR KJAC 170956Z AUTO 24009G17KT 200V290 10SM SCT110 04/M02 A3015 RMK AO2 SLP211 T00441017
2026-03-17 08:56:00,METAR KJAC 170856Z AUTO VRB03KT 10SM FEW055 SCT070 03/00 A3015 RMK AO2 SLP218 T00330000 56001
2026-03-17 07:56:00,METAR KJAC 170756Z AUTO 32006KT 10SM BKN060 OVC110 01/M01 A3015 RMK AO2 SLP236 T00061006 FZRANO
2026-03-17 06:56:00,METAR KJAC 170656Z AUTO 09004KT 10SM BKN060 OVC095 02/00 A3015 RMK AO2 SLP237 T00170000 400671067 FZRANO
2026-03-17 05:56:00,METAR KJAC 170556Z AUTO 03007KT 10SM BKN050 OVC060 01/00 A3015 RMK AO2 SLP243 60001 T00110000 10061 20011 53003 FZRANO
2026-03-17 04:56:00,METAR KJAC 170456Z AUTO 01009KT 10SM OVC041 01/00 A3015 RMK AO2 RAB19E29 SLP241 P0000 T00110000 FZRANO
2026-03-17 03:56:00,METAR KJAC 170356Z AUTO 02012KT 10SM OVC031 01/00 A3014 RMK AO2 RAE46 SLP239 P0000 T00110000 FZRANO
2026-03-17 03:52:00,SPECI KJAC 170352Z AUTO 36011KT 10SM OVC031 02/01 A3014 RMK AO2 RAE46 P0000 FZRANO
2026-03-17 02:56:00,METAR KJAC 170256Z 00000KT 8SM -RA OVC027 04/01 A3015 RMK AO2 SLP243 P0001 60001 T00390006 53000
2026-03-17 02:43:00,SPECI KJAC 170243Z 23007KT 10SM -RA OVC029 04/01 A3016 RMK AO2 P0000
2026-03-17 01:56:00,METAR KJAC 170156Z 22003KT 10SM -RA OVC037 05/M01 A3015 RMK AO2 RAB24 SLP243 P0000 T00501011
2026-03-17 00:56:00,METAR KJAC 170056Z 20008KT 10SM OVC041 06/M02 A3015 RMK AO2 SLP236 T00561022
2026-03-16 23:56:00,METAR KJAC 162356Z 21012KT 10SM OVC041 06/M02 A3015 RMK AO2 SLP237 60000 T00611022 10067 21017 58006
2026-03-16 22:56:00,METAR KJAC 162256Z 20010G19KT 10SM OVC041 06/M02 A3016 RMK AO2 SLP237 T00611022
2026-03-16 21:56:00,METAR KJAC 162156Z 19010G14KT 10SM OVC041 06/M03 A3017 RMK AO2 SLP238 T00561028
2026-03-16 20:56:00,METAR KJAC 162056Z 19009KT 10SM OVC037 04/M03 A3017 RMK AO2 SLP244 60000 T00441028 58009
2026-03-16 19:56:00,METAR KJAC 161956Z 02007KT 10SM OVC037 01/M04 A3019 RMK AO2 RAB19E48SNB02E14 SLP262 P0000 T00061039
2026-03-16 18:56:00,METAR KJAC 161856Z 01010KT 10SM OVC035 M01/M04 A3020 RMK AO2 SNE10 SLP269 P0000 T10061039
2026-03-16 17:56:00,METAR KJAC 161756Z 36007KT 9SM -SN OVC032 M02/M04 A3021 RMK AO2 SNB1658 SLP277 P0000 60002 T10221044 11006 21067 50003
2026-03-16 16:56:00,METAR KJAC 161656Z 36008KT 8SM OVC032 M02/M06 A3021 RMK AO2 UPB24E26SNE24 SLP279 P0000 T10221056
2026-03-16 16:41:00,SPECI KJAC 161641Z 01011KT 10SM OVC032 M01/M05 A3021 RMK AO2 UPB24E26SNE24 P0000
2026-03-16 15:56:00,METAR KJAC 161556Z 23004KT 4SM -SN BR OVC032 M02/M04 A3021 RMK AO2 SLP277 P0001 T10221044
2026-03-16 15:03:00,SPECI KJAC 161503Z 00000KT 4SM -SN BR FEW010 OVC030 M05/M06 A3020 RMK AO2 P0000
2026-03-16 14:56:00,METAR KJAC 161456Z 00000KT 2 1/2SM -SN BR FEW010 OVC030 M06/M07 A3019 RMK AO2 SLP279 P0000 60001 T10561067 50002
2026-03-16 14:38:00,SPECI KJAC 161438Z 00000KT 2SM -SN BR OVC032 M06/M07 A3020 RMK AO2 P0000
2026-03-16 13:56:00,METAR KJAC 161356Z 00000KT 4SM -SN BR OVC032 M06/M07 A3020 RMK AO2 SLP283 P0001 T10611072
2026-03-16 12:56:00,METAR KJAC 161256Z VRB03KT 5SM -SN BR OVC032 M05/M07 A3021 RMK AO2 SLP280 P0000 T10501067
2026-03-16 11:56:00,METAR KJAC 161156Z AUTO 24008KT 9SM -SN BKN034 OVC041 M05/M07 A3019 RMK AO2 SLP270 P0000 60000 T10501072 11028 21050 55002 FZRANO
2026-03-16 10:56:00,METAR KJAC 161056Z AUTO 21009KT 4SM -SN FEW024 OVC040 M04/M08 A3017 RMK AO2 SLP263 P0000 T10441078 FZRANO
2026-03-16 10:31:00,SPECI KJAC 161031Z AUTO 20011KT 4SM -SN BKN024 OVC030 M04/M08 A3018 RMK AO2 P0000 FZRANO
2026-03-16 09:56:00,METAR KJAC 160956Z AUTO 20013KT 9SM -SN FEW032 OVC044 M03/M10 A3019 RMK AO2 SNB29 SLP269 P0000 T10331100 FZRANO
2026-03-16 08:56:00,METAR KJAC 160856Z AUTO 22007KT 10SM OVC050 M04/M12 A3019 RMK AO2 SLP273 T10391117 56011 FZRANO
2026-03-16 07:56:00,METAR KJAC 160756Z AUTO 21005KT 10SM OVC050 M04/M12 A3020 RMK AO2 SLP277 T10441117 FZRANO
2026-03-16 06:56:00,METAR KJAC 160656Z AUTO 20005KT 10SM BKN065 M04/M12 A3021 RMK AO2 SLP282 T10441122 410171100 FZRANO
2026-03-16 05:56:00,METAR KJAC 160556Z AUTO 24006KT 10SM CLR M05/M13 A3023 RMK AO2 SLP297 T10501128 11017 21056 50000 FZRANO
2026-03-16 04:56:00,METAR KJAC 160456Z AUTO 23008KT 10SM CLR M05/M13 A3025 RMK AO2 SLP304 T10501128 FZRANO
2026-03-16 03:56:00,METAR KJAC 160356Z AUTO 25005KT 10SM CLR M04/M13 A3025 RMK AO2 SLP304 T10441133 FZRANO
2026-03-16 02:56:00,METAR KJAC 160256Z 17004KT 10SM CLR M04/M14 A3023 RMK AO2 SLP300 T10391139 53006
2026-03-16 01:56:00,METAR KJAC 160156Z 23004KT 10SM CLR M04/M14 A3022 RMK AO2 SLP299 T10441144
2026-03-16 00:56:00,METAR KJAC 160056Z 21009KT 10SM CLR M03/M16 A3021 RMK AO2 SLP290 T10281161
2026-03-15 23:56:00,METAR KJAC 152356Z 27009G18KT 10SM CLR M02/M16 A3021 RMK AO2 SLP288 T10171161 11017 21050 58007
2026-03-15 22:56:00,METAR KJAC 152256Z 28013KT 10SM CLR M02/M16 A3022 RMK AO2 SLP292 T10171156
2026-03-15 21:56:00,METAR KJAC 152156Z 28004G16KT 10SM CLR M03/M17 A3023 RMK AO2 SLP296 T10281172
2026-03-15 20:56:00,METAR KJAC 152056Z 30013G20KT 10SM CLR M03/M18 A3024 RMK AO2 SLP298 T10331178 58007
2026-03-15 19:56:00,METAR KJAC 151956Z 27011G17KT 10SM CLR M03/M17 A3025 RMK AO2 SLP302 T10331167
2026-03-15 18:56:00,METAR KJAC 151856Z 23008G14KT 10SM FEW060 M04/M17 A3025 RMK AO2 SLP304 T10391167
2026-03-15 18:33:00,SPECI KJAC 151833Z 25012G15KT 10SM CLR M04/M17 A3025 RMK AO2
2026-03-15 17:56:00,METAR KJAC 151756Z 32008G17KT 10SM CLR M05/M17 A3026 RMK AO2 SLP307 60000 T10501167 11050 21094 53012
2026-03-15 16:56:00,METAR KJAC 151656Z 32017G23KT 10SM CLR M06/M17 A3024 RMK AO2 SLP301 T10611167
2026-03-15 15:56:00,METAR KJAC 151556Z 28008KT 10SM CLR M07/M18 A3024 RMK AO2 SLP298 T10721178
2026-03-15 14:56:00,METAR KJAC 151456Z 27007KT 10SM SCT065 M08/M18 A3022 RMK AO2 SLP296 60000 T10781178 51019
2026-03-15 13:56:00,METAR KJAC 151356Z 28006KT 10SM BKN060 M09/M14 A3021 RMK AO2 SLP287 T10941144
2026-03-15 12:56:00,METAR KJAC 151256Z 28007KT 10SM FEW045 SCT060 M08/M16 A3018 RMK AO2 SNE06 SLP270 P0000 T10831161
2026-03-15 11:56:00,METAR KJAC 151156Z AUTO 14003KT 10SM -SN FEW045 OVC055 M09/M13 A3015 RMK AO2 SNB55 SLP249 P0000 60000 70005 T10891128 11056 21100 53020 FZRANO
2026-03-15 10:56:00,METAR KJAC 151056Z AUTO 02004KT 10SM BKN049 BKN055 M08/M13 A3013 RMK AO2 SLP237 T10831128 FZRANO
2026-03-15 09:56:00,METAR KJAC 150956Z AUTO 03004KT 10SM OVC043 M07/M13 A3010 RMK AO2 SNB29E44 SLP228 P0000 T10721128 FZRANO
2026-03-15 08:56:00,METAR KJAC 150856Z AUTO 03006KT 10SM BKN045 OVC060 M07/M13 A3008 RMK AO2 SNB37E47 SLP226 P0000 60000 T10721128 51033 FZRANO
