Time_recorded,METAR
2026-04-30 14:50:00,METAR LIML 301450Z VRB03KT CAVOK 20/03 Q1023 NOSIG
2026-04-30 14:20:00,METAR LIML 301420Z 03005KT 350V090 CAVOK 19/03 Q1023 NOSIG
2026-04-30 13:50:00,METAR LIML 301350Z 07006KT 330V100 CAVOK 19/04 Q1023 NOSIG
2026-04-30 13:20:00,METAR LIML 301320Z 10009KT 060V140 CAVOK 19/04 Q1023 NOSIG
2026-04-30 12:50:00,METAR LIML 301250Z 07010KT 040V110 9999 FEW070 19/04 Q1024 NOSIG
2026-04-30 12:20:00,METAR LIML 301220Z 08009KT 040V130 9999 FEW070 19/03 Q1024 NOSIG
2026-04-30 11:50:00,METAR LIML 301150Z 10009KT 060V140 9999 SCT070 18/03 Q1024 NOSIG
2026-04-30 11:20:00,METAR LIML 301120Z 10010KT 040V150 9999 SCT070 19/02 Q1024 NOSIG
2026-04-30 10:50:00,METAR LIML 301050Z 08012KT 9999 SCT070 18/02 Q1024 NOSIG
2026-04-30 10:20:00,METAR LIML 301020Z 12012KT 070V150 9999 FEW030 SCT070 18/02 Q1024 NOSIG
2026-04-30 09:50:00,METAR LIML 300950Z 09012KT 070V130 9999 SCT030 SCT070 17/02 Q1024 NOSIG
2026-04-30 09:20:00,METAR LIML 300920Z 08012KT 9999 SCT030 SCT070 16/02 Q1024 NOSIG
2026-04-30 08:50:00,METAR LIML 300850Z 10012KT 070V130 9999 SCT030 SCT070 17/04 Q1024 NOSIG
2026-04-30 08:20:00,METAR LIML 300820Z 11009KT 070V140 9999 SCT030 SCT070 15/03 Q1024 NOSIG
2026-04-30 07:50:00,METAR LIML 300750Z 10013KT 9999 SCT030 SCT070 15/03 Q1024 NOSIG
2026-04-30 07:20:00,METAR LIML 300720Z 11012KT 080V140 9999 SCT030 BKN080 14/04 Q1023 NOSIG
2026-04-30 06:50:00,METAR LIML 300650Z 11013KT 080V140 9999 SCT030 BKN080 14/05 Q1023 NOSIG
2026-04-30 06:20:00,METAR LIML 300620Z 10007KT 050V140 9999 SCT020 BKN080 13/06 Q1023 NOSIG
2026-04-30 05:50:00,METAR LIML 300550Z 11008KT 080V160 9999 SCT020 BKN080 13/07 Q1023 NOSIG
2026-04-30 05:20:00,METAR LIML 300520Z 11009KT 070V140 9999 FEW020 BKN080 13/08 Q1022 NOSIG
2026-04-30 04:50:00,METAR LIML 300450Z 10007KT 070V130 9999 BKN080 13/09 Q1022 NOSIG
2026-04-30 04:20:00,METAR LIML 300420Z 09008KT 9999 BKN080 12/09 Q1022 NOSIG
2026-04-30 03:50:00,METAR LIML 300350Z 06006KT 9999 BKN080 12/10 Q1022 NOSIG
2026-04-30 03:20:00,METAR LIML 300320Z 09006KT 050V110 9999 SCT090 13/10 Q1021 NOSIG
2026-04-30 02:50:00,METAR LIML 300250Z 10007KT 9999 SCT010 BKN090 13/11 Q1021 NOSIG
2026-04-30 02:20:00,METAR LIML 300220Z 08007KT 9999 SCT010 BKN080 13/11 Q1021 NOSIG
2026-04-30 01:50:00,METAR LIML 300150Z 10009KT 9999 FEW010 BKN080 13/11 Q1021 NOSIG
2026-04-30 01:20:00,METAR LIML 300120Z 10010KT 9999 FEW050 BKN080 13/11 Q1021 NOSIG
2026-04-30 00:50:00,METAR LIML 300050Z 10012KT 9999 FEW060 BKN085 14/10 Q1021 NOSIG
2026-04-30 00:20:00,METAR LIML 300020Z 09012KT 9999 SCT060 BKN090 14/11 Q1020 NOSIG
2026-04-29 23:50:00,METAR LIML 292350Z 13012KT 9999 BKN060 16/10 Q1020 NOSIG
2026-04-29 23:20:00,METAR LIML 292320Z 11010KT 070V130 9999 -RA BKN060 16/10 Q1020 NOSIG
2026-04-29 22:50:00,METAR LIML 292250Z 10010KT 9999 BKN060 17/09 Q1020 NOSIG
2026-04-29 22:20:00,METAR LIML 292220Z 12010KT 9999 SCT030 BKN100 17/09 Q1019 NOSIG
2026-04-29 21:50:00,METAR LIML 292150Z 12011KT 9999 FEW030 BKN100 17/09 Q1018 NOSIG
2026-04-29 21:20:00,METAR LIML 292120Z 13012KT 100V160 9999 SCT030 BKN070 18/09 Q1018 NOSIG
2026-04-29 20:50:00,METAR LIML 292050Z 12010KT 090V150 9999 SCT030 BKN070 18/09 Q1018 NOSIG
2026-04-29 20:20:00,METAR LIML 292020Z 12011KT 9999 SCT030 BKN070 18/09 Q1018 TEMPO RA
2026-04-29 19:50:00,METAR LIML 291950Z 11013G24KT 9999 SCT030 BKN070 19/09 Q1017 TEMPO RA
2026-04-29 19:20:00,METAR LIML 291920Z 11011KT 070V150 9999 SCT030 BKN080 19/10 Q1017 TEMPO RA
2026-04-29 18:50:00,METAR LIML 291850Z 11010KT 9999 SCT030 BKN090 19/11 Q1016 NOSIG
2026-04-29 18:20:00,METAR LIML 291820Z 10011KT 070V130 9999 FEW020 BKN100 20/11 Q1016 NOSIG
2026-04-29 17:50:00,METAR LIML 291750Z 09009KT 9999 FEW020 SCT080 20/11 Q1015 NOSIG
2026-04-29 17:20:00,METAR LIML 291720Z 09010KT 9999 FEW030 SCT080 20/11 Q1015 NOSIG
2026-04-29 16:50:00,METAR LIML 291650Z 10010KT 070V130 9999 FEW030 SCT080 22/11 Q1015 NOSIG
2026-04-29 16:20:00,METAR LIML 291620Z 09010KT 060V120 9999 FEW020 SCT040 22/12 Q1015 NOSIG
2026-04-29 15:50:00,METAR LIML 291550Z 09005KT 040V130 9999 FEW020TCU SCT030 23/10 Q1015 NOSIG
2026-04-29 15:20:00,METAR LIML 291520Z 10005KT 040V140 9999 FEW020TCU SCT030 23/11 Q1015 NOSIG
2026-04-29 14:50:00,METAR LIML 291450Z VRB03KT 9999 SCT030TCU SCT080 24/11 Q1015 NOSIG
2026-04-29 14:20:00,METAR LIML 291420Z VRB03KT 9999 SCT030 24/10 Q1015 NOSIG
2026-04-29 13:50:00,METAR LIML 291350Z VRB03KT 9999 SCT030 23/10 Q1016 NOSIG
2026-04-29 13:20:00,METAR LIML 291320Z 08005KT 030V200 9999 SCT030 22/11 Q1016 NOSIG
2026-04-29 12:50:00,METAR LIML 291250Z VRB03KT 9999 SCT040 23/10 Q1016 NOSIG
2026-04-29 12:20:00,METAR LIML 291220Z VRB04KT 9999 SCT040 23/11 Q1016 NOSIG
2026-04-29 11:50:00,METAR LIML 291150Z 11005KT 010V140 9999 FEW030 22/11 Q1016 NOSIG
2026-04-29 11:20:00,METAR LIML 291120Z VRB05KT 9999 FEW030 22/11 Q1017 NOSIG
2026-04-29 10:50:00,METAR LIML 291050Z VRB03KT 9999 FEW030 22/12 Q1017 NOSIG
2026-04-29 10:20:00,METAR LIML 291020Z 05005KT 010V130 9999 FEW030 20/11 Q1017 NOSIG
2026-04-29 09:50:00,METAR LIML 290950Z 07004KT 340V140 9999 FEW030 20/12 Q1017 NOSIG
2026-04-29 09:20:00,METAR LIML 290920Z 05005KT 010V080 9999 FEW030 19/11 Q1017 NOSIG
2026-04-29 08:50:00,METAR LIML 290850Z 09005KT 040V130 9999 FEW060 19/11 Q1017 NOSIG
2026-04-29 08:20:00,METAR LIML 290820Z 08004KT 040V110 9999 FEW060 19/11 Q1017 NOSIG
2026-04-29 07:50:00,METAR LIML 290750Z 12005KT 080V150 9999 FEW060 18/11 Q1017 NOSIG
2026-04-29 07:20:00,METAR LIML 290720Z 11006KT 080V140 9999 SCT060 18/11 Q1017 NOSIG
2026-04-29 06:50:00,METAR LIML 290650Z 11007KT 9999 SCT060 17/11 Q1017 NOSIG
2026-04-29 06:20:00,METAR LIML 290620Z 11006KT 060V130 9999 SCT060 17/11 Q1017 NOSIG
2026-04-29 05:50:00,METAR LIML 290550Z 06004KT 030V090 9999 SCT060 17/13 Q1016 NOSIG
2026-04-29 05:20:00,METAR LIML 290520Z 06004KT 9999 BKN060 16/13 Q1016 NOSIG
2026-04-29 04:50:00,METAR LIML 290450Z 05005KT 9999 SCT060 16/13 Q1016 NOSIG
2026-04-29 04:20:00,METAR LIML 290420Z 05005KT 9999 SCT060 16/13 Q1016 NOSIG
2026-04-29 03:50:00,METAR LIML 290350Z 10005KT 9999 SCT060 16/14 Q1016 NOSIG
2026-04-29 03:20:00,METAR LIML 290320Z 08003KT 9999 FEW060 15/13 Q1016 NOSIG
2026-04-29 02:50:00,METAR LIML 290250Z 10004KT 9999 FEW060 16/14 Q1016 NOSIG
2026-04-29 02:20:00,METAR LIML 290220Z 11003KT 080V150 9999 SCT060 16/13 Q1016 NOSIG
2026-04-29 01:50:00,METAR LIML 290150Z 05006KT 020V080 9999 SCT060 16/13 Q1015 NOSIG
2026-04-29 00:50:00,METAR LIML 290050Z 04008KT 9999 BKN065 16/13 Q1015 NOSIG
2026-04-29 00:20:00,METAR LIML 290020Z 04009KT 9999 -RA FEW035 BKN060 17/13 Q1015 RERA NOSIG
2026-04-28 23:50:00,METAR LIML 282350Z 04007KT 9999 -RA FEW035 BKN060 17/15 Q1015 RERA NOSIG
2026-04-28 23:20:00,METAR LIML 282320Z 07009KT 040V110 9999 -RA FEW035 BKN060 17/14 Q1015 RERA NOSIG
2026-04-28 22:50:00,METAR LIML 282250Z 06004KT 030V100 9999 -RA BKN050 18/14 Q1015 NOSIG
2026-04-28 22:20:00,METAR LIML 282220Z 12006KT 9999 BKN060 18/13 Q1015 NOSIG
2026-04-28 21:50:00,METAR LIML 282150Z 08005KT 9999 BKN060 20/12 Q1015 NOSIG
2026-04-28 21:20:00,METAR LIML 282120Z VRB02KT 9999 SCT060 20/11 Q1014 NOSIG
2026-04-28 20:50:00,METAR LIML 282050Z VRB01KT 9999 SCT060 20/11 Q1014 NOSIG
2026-04-28 20:20:00,METAR LIML 282020Z 36003KT 9999 FEW060 SCT070 20/11 Q1014 NOSIG
2026-04-28 19:50:00,METAR LIML 281950Z 03003KT 360V060 9999 SCT070 20/11 Q1014 NOSIG
2026-04-28 19:20:00,METAR LIML 281920Z 06004KT 9999 SCT070 21/10 Q1014 NOSIG
2026-04-28 18:50:00,METAR LIML 281850Z 28001KT 9999 SCT070 21/09 Q1013 NOSIG
2026-04-28 18:20:00,METAR LIML 281820Z 29001KT 9999 SCT070 23/09 Q1013 NOSIG
2026-04-28 17:50:00,METAR LIML 281750Z VRB01KT 9999 SCT070 23/08 Q1013 NOSIG
2026-04-28 17:20:00,METAR LIML 281720Z 20002KT 9999 SCT070 23/08 Q1013 NOSIG
2026-04-28 16:50:00,METAR LIML 281650Z VRB02KT 9999 SCT070 23/07 Q1013 NOSIG
2026-04-28 16:20:00,METAR LIML 281620Z 20002KT 9999 FEW070 BKN090 23/08 Q1013 NOSIG
2026-04-28 15:50:00,METAR LIML 281550Z VRB02KT 9999 BKN090 24/08 Q1013 NOSIG
2026-04-28 15:20:00,METAR LIML 281520Z 20003KT 180V250 9999 BKN090 24/08 Q1014 NOSIG
2026-04-28 14:50:00,METAR LIML 281450Z 15004KT 100V220 9999 BKN090 23/08 Q1014 NOSIG
2026-04-28 14:20:00,METAR LIML 281420Z 24003KT 170V330 9999 FEW030 BKN090 24/08 Q1014 NOSIG
2026-04-28 13:50:00,METAR LIML 281350Z 28004KT 180V320 9999 FEW030 BKN090 23/08 Q1014 NOSIG
2026-04-28 13:20:00,METAR LIML 281320Z VRB03KT 9999 SCT030 BKN080 24/09 Q1015 NOSIG
2026-04-28 12:50:00,METAR LIML 281250Z VRB02KT 9999 FEW040 SCT070 23/08 Q1015 NOSIG
2026-04-28 12:20:00,METAR LIML 281220Z VRB03KT 9999 SCT070 23/09 Q1015 NOSIG
2026-04-28 11:50:00,METAR LIML 281150Z 04004KT 340V070 9999 SCT070 23/08 Q1015 NOSIG
2026-04-28 11:20:00,METAR LIML 281120Z 09007KT 030V130 9999 SCT070 23/09 Q1015 NOSIG
2026-04-28 10:50:00,METAR LIML 281050Z 09007KT 050V140 9999 SCT060 23/09 Q1015 NOSIG
2026-04-28 10:20:00,METAR LIML 281020Z 10008KT 050V150 9999 SCT060 22/10 Q1016 NOSIG
2026-04-28 09:50:00,METAR LIML 280950Z 09009KT 9999 SCT060 22/10 Q1016 NOSIG
2026-04-28 09:20:00,METAR LIML 280920Z 09007KT 060V130 9999 SCT060 21/10 Q1016 NOSIG
2026-04-28 08:50:00,METAR LIML 280850Z 09008KT 9999 SCT060 20/10 Q1016 NOSIG
2026-04-28 08:20:00,METAR LIML 280820Z 08008KT 040V110 9999 SCT060 19/10 Q1016 NOSIG
2026-04-28 07:50:00,METAR LIML 280750Z 06008KT 030V090 9999 SCT060 18/09 Q1016 NOSIG
2026-04-28 07:20:00,METAR LIML 280720Z 06005KT 030V090 9999 SCT060 18/10 Q1016 NOSIG
2026-04-28 06:50:00,METAR LIML 280650Z 07004KT 040V110 9999 SCT050 17/10 Q1015 NOSIG
2026-04-28 06:20:00,METAR LIML 280620Z 10006KT 060V130 9999 SCT050 17/10 Q1015 NOSIG
2026-04-28 05:50:00,METAR LIML 280550Z 07004KT 040V110 9999 SCT050 17/09 Q1015 NOSIG
2026-04-28 05:20:00,METAR LIML 280520Z 05004KT 020V080 9999 SCT050 16/09 Q1015 NOSIG
2026-04-28 04:50:00,METAR LIML 280450Z 06004KT 9999 FEW040 16/09 Q1015 NOSIG
2026-04-28 04:20:00,METAR LIML 280420Z 08004KT 9999 FEW060 16/10 Q1014 NOSIG
2026-04-28 03:50:00,METAR LIML 280350Z 03003KT 9999 FEW060 16/09 Q1015 NOSIG
2026-04-28 03:20:00,METAR LIML 280320Z 02004KT 9999 FEW050 16/10 Q1015 NOSIG
2026-04-28 02:50:00,METAR LIML 280250Z 05003KT 9999 FEW050 17/10 Q1015 NOSIG
2026-04-28 02:20:00,METAR LIML 280220Z 08004KT 050V120 9999 FEW050 17/11 Q1015 NOSIG
2026-04-28 01:50:00,METAR LIML 280150Z 09004KT 9999 SCT050 18/11 Q1015 NOSIG
2026-04-28 01:20:00,METAR LIML 280120Z 04003KT 010V090 CAVOK 17/10 Q1015 NOSIG
2026-04-28 00:50:00,METAR LIML 280050Z 03004KT 9999 FEW060 17/10 Q1015 NOSIG
2026-04-28 00:20:00,METAR LIML 280020Z VRB01KT 9999 FEW060 17/09 Q1015 NOSIG
2026-04-27 23:50:00,METAR LIML 272350Z 33003KT 260V010 9999 FEW060 18/09 Q1015 NOSIG
2026-04-27 23:20:00,METAR LIML 272320Z VRB02KT 9999 FEW040 17/09 Q1015 NOSIG
2026-04-27 22:50:00,METAR LIML 272250Z 05004KT 9999 FEW040 18/08 Q1015 NOSIG
2026-04-27 22:20:00,METAR LIML 272220Z 34002KT CAVOK 18/09 Q1015 NOSIG
2026-04-27 21:50:00,METAR LIML 272150Z VRB02KT CAVOK 19/08 Q1015 NOSIG
2026-04-27 21:20:00,METAR LIML 272120Z VRB01KT CAVOK 20/07 Q1015 NOSIG
2026-04-27 20:50:00,METAR LIML 272050Z VRB02KT 9999 FEW060 21/07 Q1015 NOSIG
2026-04-27 20:20:00,METAR LIML 272020Z 19004KT 9999 FEW060 21/10 Q1015 NOSIG
2026-04-27 19:50:00,METAR LIML 271950Z VRB01KT 9999 FEW040 21/11 Q1015 NOSIG
2026-04-27 19:20:00,METAR LIML 271920Z 20003KT 9999 FEW040 22/10 Q1014 NOSIG
2026-04-27 18:50:00,METAR LIML 271850Z 19004KT CAVOK 23/10 Q1014 NOSIG
2026-04-27 18:20:00,METAR LIML 271820Z 18004KT CAVOK 24/11 Q1014 NOSIG
2026-04-27 17:50:00,METAR LIML 271750Z 16005KT 130V190 CAVOK 25/10 Q1014 NOSIG
2026-04-27 17:20:00,METAR LIML 271720Z 22004KT CAVOK 26/08 Q1014 NOSIG
2026-04-27 16:50:00,METAR LIML 271650Z 18003KT 140V230 CAVOK 26/08 Q1014 NOSIG
2026-04-27 16:20:00,METAR LIML 271620Z 16005KT 110V200 CAVOK 26/08 Q1014 NOSIG
2026-04-27 15:50:00,METAR LIML 271550Z 14004KT 090V190 CAVOK 26/09 Q1014 NOSIG
2026-04-27 15:20:00,METAR LIML 271520Z 16004KT 090V250 CAVOK 26/07 Q1014 NOSIG
2026-04-27 14:50:00,METAR LIML 271450Z VRB03KT CAVOK 26/09 Q1015 NOSIG
2026-04-27 14:20:00,METAR LIML 271420Z 13005KT 090V160 9999 FEW040 26/09 Q1015 NOSIG
2026-04-27 13:50:00,METAR LIML 271350Z VRB03KT 9999 FEW040 26/09 Q1016 NOSIG
2026-04-27 13:20:00,METAR LIML 271320Z VRB04KT 9999 FEW030 26/11 Q1016 NOSIG
2026-04-27 12:50:00,METAR LIML 271250Z 11006KT 030V170 9999 FEW035 26/11 Q1016 NOSIG
2026-04-27 12:20:00,METAR LIML 271220Z VRB04KT CAVOK 25/11 Q1017 NOSIG
2026-04-27 11:50:00,METAR LIML 271150Z VRB04KT CAVOK 25/11 Q1017 NOSIG
2026-04-27 11:20:00,METAR LIML 271120Z VRB04KT CAVOK 25/12 Q1017 NOSIG
2026-04-27 10:50:00,METAR LIML 271050Z VRB03KT CAVOK 24/12 Q1018 NOSIG
2026-04-27 10:20:00,METAR LIML 271020Z 07006KT 020V130 CAVOK 23/12 Q1018 NOSIG
2026-04-27 09:50:00,METAR LIML 270950Z 10009KT 070V140 CAVOK 22/11 Q1018 NOSIG
2026-04-27 09:20:00,METAR LIML 270920Z 10006KT 040V140 CAVOK 22/10 Q1019 NOSIG
2026-04-27 08:50:00,METAR LIML 270850Z 12007KT 090V160 CAVOK 21/10 Q1019 NOSIG
2026-04-27 08:20:00,METAR LIML 270820Z VRB07KT CAVOK 21/11 Q1019 NOSIG
2026-04-27 07:50:00,METAR LIML 270750Z VRB02KT CAVOK 21/10 Q1019 NOSIG
2026-04-27 07:20:00,METAR LIML 270720Z VRB01KT CAVOK 20/11 Q1019 NOSIG
2026-04-27 06:50:00,METAR LIML 270650Z VRB02KT CAVOK 18/11 Q1019 NOSIG
2026-04-27 06:20:00,METAR LIML 270620Z 12003KT 060V160 CAVOK 17/11 Q1019 NOSIG
2026-04-27 05:50:00,METAR LIML 270550Z VRB01KT CAVOK 16/11 Q1019 NOSIG
2026-04-27 05:20:00,METAR LIML 270520Z VRB01KT CAVOK 14/10 Q1018 NOSIG
2026-04-27 04:50:00,METAR LIML 270450Z VRB01KT CAVOK 12/09 Q1018 NOSIG
2026-04-27 04:20:00,METAR LIML 270420Z 20001KT CAVOK 12/09 Q1018 NOSIG
2026-04-27 03:50:00,METAR LIML 270350Z VRB01KT CAVOK 12/10 Q1018 NOSIG
2026-04-27 03:20:00,METAR LIML 270320Z VRB01KT CAVOK 12/10 Q1018 NOSIG
2026-04-27 02:50:00,METAR LIML 270250Z VRB01KT CAVOK 13/10 Q1018 NOSIG
2026-04-27 02:20:00,METAR LIML 270220Z VRB01KT CAVOK 14/11 Q1017 NOSIG
2026-04-27 01:50:00,METAR LIML 270150Z VRB01KT CAVOK 14/11 Q1017 NOSIG
2026-04-27 01:20:00,METAR LIML 270120Z VRB01KT CAVOK 14/11 Q1017 NOSIG
2026-04-27 00:50:00,METAR LIML 270050Z 28002KT CAVOK 15/10 Q1017 NOSIG
2026-04-27 00:20:00,METAR LIML 270020Z 30003KT CAVOK 15/11 Q1018 NOSIG
2026-04-26 23:50:00,METAR LIML 262350Z 28002KT CAVOK 16/11 Q1018 NOSIG
2026-04-26 23:20:00,METAR LIML 262320Z 28002KT CAVOK 17/10 Q1018 NOSIG
2026-04-26 22:50:00,METAR LIML 262250Z 28003KT 260V320 CAVOK 18/10 Q1018 NOSIG
2026-04-26 22:20:00,METAR LIML 262220Z 29003KT 240V340 CAVOK 18/11 Q1017 NOSIG
2026-04-26 21:50:00,METAR LIML 262150Z 27004KT CAVOK 19/11 Q1017 NOSIG
2026-04-26 21:20:00,METAR LIML 262120Z 27005KT CAVOK 19/12 Q1017 NOSIG
2026-04-26 20:50:00,METAR LIML 262050Z 27005KT CAVOK 20/12 Q1017 NOSIG
2026-04-26 20:20:00,METAR LIML 262020Z 26006KT CAVOK 21/12 Q1017 NOSIG
2026-04-26 19:50:00,METAR LIML 261950Z 24004KT 200V270 CAVOK 22/12 Q1017 NOSIG
2026-04-26 19:20:00,METAR LIML 261920Z VRB01KT CAVOK 21/11 Q1016 NOSIG
2026-04-26 18:50:00,METAR LIML 261850Z VRB01KT CAVOK 22/11 Q1016 NOSIG
2026-04-26 18:20:00,METAR LIML 261820Z VRB01KT CAVOK 24/10 Q1016 NOSIG
2026-04-26 17:50:00,METAR LIML 261750Z VRB02KT CAVOK 25/10 Q1015 NOSIG
2026-04-26 17:20:00,METAR LIML 261720Z 17004KT 120V190 CAVOK 25/08 Q1015 NOSIG
2026-04-26 16:50:00,METAR LIML 261650Z 16003KT 110V190 CAVOK 25/08 Q1015 NOSIG
2026-04-26 16:20:00,METAR LIML 261620Z 19003KT 130V230 CAVOK 26/08 Q1016 NOSIG
2026-04-26 15:50:00,METAR LIML 261550Z 18003KT 120V250 CAVOK 26/08 Q1016 NOSIG
2026-04-26 15:20:00,METAR LIML 261520Z 16005KT 110V190 9999 FEW100 26/08 Q1016 NOSIG
2026-04-26 14:50:00,METAR LIML 261450Z 15006KT 080V210 9999 FEW100 26/09 Q1016 NOSIG
2026-04-26 14:20:00,METAR LIML 261420Z 15005KT 110V190 CAVOK 26/10 Q1016 NOSIG
2026-04-26 13:50:00,METAR LIML 261350Z VRB05KT CAVOK 27/10 Q1016 NOSIG
2026-04-26 13:20:00,METAR LIML 261320Z 15005KT 100V270 CAVOK 26/10 Q1016 NOSIG
2026-04-26 12:50:00,METAR LIML 261250Z 14006KT 070V190 CAVOK 25/10 Q1016 NOSIG
2026-04-26 12:20:00,METAR LIML 261220Z VRB04KT CAVOK 25/11 Q1017 NOSIG
2026-04-26 11:50:00,METAR LIML 261150Z 16004KT 090V200 CAVOK 24/11 Q1017 NOSIG
2026-04-26 11:20:00,METAR LIML 261120Z 21005KT 160V240 CAVOK 24/11 Q1017 NOSIG
2026-04-26 10:50:00,METAR LIML 261050Z VRB03KT CAVOK 23/11 Q1017 NOSIG
2026-04-26 10:20:00,METAR LIML 261020Z 28004KT 220V340 CAVOK 22/11 Q1017 NOSIG
2026-04-26 09:50:00,METAR LIML 260950Z VRB04KT CAVOK 21/12 Q1017 NOSIG
2026-04-26 09:20:00,METAR LIML 260920Z 22005KT 170V300 CAVOK 20/12 Q1018 NOSIG
2026-04-26 08:50:00,METAR LIML 260850Z 22006KT 190V290 CAVOK 20/11 Q1018 NOSIG
2026-04-26 08:20:00,METAR LIML 260820Z 24005KT 180V290 CAVOK 19/12 Q1017 NOSIG
2026-04-26 07:50:00,METAR LIML 260750Z 26006KT 220V290 CAVOK 18/11 Q1017 NOSIG
2026-04-26 07:20:00,METAR LIML 260720Z 24007KT 190V300 CAVOK 17/11 Q1017 NOSIG
2026-04-26 06:50:00,METAR LIML 260650Z 26004KT 200V290 CAVOK 17/11 Q1017 NOSIG
2026-04-26 06:20:00,METAR LIML 260620Z 26003KT 230V300 CAVOK 16/11 Q1017 NOSIG
2026-04-26 05:50:00,METAR LIML 260550Z VRB02KT CAVOK 15/10 Q1016 NOSIG
2026-04-26 05:20:00,METAR LIML 260520Z VRB02KT CAVOK 13/10 Q1016 NOSIG
2026-04-26 04:50:00,METAR LIML 260450Z VRB02KT CAVOK 13/10 Q1016 NOSIG
2026-04-26 04:20:00,METAR LIML 260420Z 27003KT 230V310 CAVOK 14/10 Q1016 NOSIG
2026-04-26 03:50:00,METAR LIML 260350Z 28003KT 250V320 CAVOK 14/10 Q1015 NOSIG
2026-04-26 03:20:00,METAR LIML 260320Z 29003KT 250V320 CAVOK 14/10 Q1015 NOSIG
2026-04-26 02:50:00,METAR LIML 260250Z 29004KT 260V340 CAVOK 15/09 Q1015 NOSIG
2026-04-26 02:20:00,METAR LIML 260220Z 29003KT 260V320 CAVOK 15/09 Q1015 NOSIG
2026-04-26 01:50:00,METAR LIML 260150Z 29004KT 250V320 CAVOK 15/09 Q1015 NOSIG
2026-04-26 01:20:00,METAR LIML 260120Z 29006KT CAVOK 16/09 Q1015 NOSIG
2026-04-26 00:50:00,METAR LIML 260050Z 30005KT 270V330 CAVOK 16/09 Q1015 NOSIG
2026-04-26 00:20:00,METAR LIML 260020Z 30005KT 270V330 CAVOK 16/09 Q1015 NOSIG
2026-04-25 23:50:00,METAR LIML 252350Z 29005KT 270V330 CAVOK 16/09 Q1015 NOSIG
2026-04-25 23:20:00,METAR LIML 252320Z 29005KT 260V320 CAVOK 16/09 Q1015 NOSIG
2026-04-25 22:50:00,METAR LIML 252250Z 30007KT 270V330 CAVOK 17/09 Q1015 NOSIG
2026-04-25 22:20:00,METAR LIML 252220Z 30006KT CAVOK 17/09 Q1015 NOSIG
2026-04-25 21:50:00,METAR LIML 252150Z 28007KT CAVOK 17/09 Q1015 NOSIG
2026-04-25 21:20:00,METAR LIML 252120Z 28006KT 250V310 CAVOK 17/09 Q1015 NOSIG
2026-04-25 20:50:00,METAR LIML 252050Z 27007KT CAVOK 18/10 Q1015 NOSIG
2026-04-25 20:20:00,METAR LIML 252020Z 27006KT CAVOK 19/10 Q1014 NOSIG
2026-04-25 19:50:00,METAR LIML 251950Z 27006KT 230V290 CAVOK 19/10 Q1014 NOSIG
2026-04-25 19:20:00,METAR LIML 251920Z 24005KT 210V270 CAVOK 20/10 Q1013 NOSIG
2026-04-25 18:50:00,METAR LIML 251850Z 24005KT 190V280 CAVOK 21/10 Q1013 NOSIG
2026-04-25 18:20:00,METAR LIML 251820Z 22005KT 180V260 CAVOK 22/11 Q1013 NOSIG
2026-04-25 17:50:00,METAR LIML 251750Z 23005KT 170V300 CAVOK 24/10 Q1012 NOSIG
2026-04-25 17:20:00,METAR LIML 251720Z 27005KT CAVOK 25/05 Q1012 NOSIG
2026-04-25 16:50:00,METAR LIML 251650Z 26004KT 200V310 CAVOK 26/05 Q1012 NOSIG
2026-04-25 16:20:00,METAR LIML 251620Z VRB04KT CAVOK 26/05 Q1013 NOSIG
2026-04-25 15:50:00,METAR LIML 251550Z 27003KT 200V330 CAVOK 26/04 Q1013 NOSIG
2026-04-25 15:20:00,METAR LIML 251520Z 26005KT 190V300 CAVOK 26/05 Q1013 NOSIG
2026-04-25 14:50:00,METAR LIML 251450Z 23003KT 180V290 CAVOK 26/05 Q1013 NOSIG
2026-04-25 14:20:00,METAR LIML 251420Z 25004KT 170V330 CAVOK 25/05 Q1013 NOSIG
2026-04-25 13:50:00,METAR LIML 251350Z VRB04KT CAVOK 25/05 Q1014 NOSIG
2026-04-25 13:20:00,METAR LIML 251320Z 27005KT 210V360 CAVOK 25/05 Q1014 NOSIG
2026-04-25 12:50:00,METAR LIML 251250Z VRB04KT CAVOK 25/05 Q1014 NOSIG
2026-04-25 12:20:00,METAR LIML 251220Z VRB03KT CAVOK 23/06 Q1014 NOSIG
2026-04-25 11:50:00,METAR LIML 251150Z VRB04KT CAVOK 23/05 Q1015 NOSIG
2026-04-25 11:20:00,METAR LIML 251120Z 20005KT 160V250 CAVOK 23/04 Q1015 NOSIG
2026-04-25 10:50:00,METAR LIML 251050Z 20005KT 140V250 CAVOK 22/04 Q1016 NOSIG
2026-04-25 10:20:00,METAR LIML 251020Z 27005KT 190V310 CAVOK 21/05 Q1016 NOSIG
2026-04-25 09:50:00,METAR LIML 250950Z 26006KT 190V300 CAVOK 20/04 Q1016 NOSIG
2026-04-25 09:20:00,METAR LIML 250920Z 23005KT 170V330 CAVOK 20/05 Q1017 NOSIG
2026-04-25 08:50:00,METAR LIML 250850Z 23005KT 190V270 CAVOK 19/06 Q1016 NOSIG
2026-04-25 08:20:00,METAR LIML 250820Z VRB03KT CAVOK 18/05 Q1017 NOSIG
2026-04-25 07:50:00,METAR LIML 250750Z 25003KT 200V300 CAVOK 18/07 Q1017 NOSIG
2026-04-25 07:20:00,METAR LIML 250720Z 25005KT 210V290 CAVOK 17/08 Q1017 NOSIG
2026-04-25 06:50:00,METAR LIML 250650Z 28006KT 240V300 CAVOK 16/08 Q1017 NOSIG
2026-04-25 06:20:00,METAR LIML 250620Z VRB02KT CAVOK 16/08 Q1016 NOSIG
2026-04-25 05:50:00,METAR LIML 250550Z VRB01KT CAVOK 16/07 Q1016 NOSIG
2026-04-25 05:20:00,METAR LIML 250520Z VRB02KT CAVOK 11/06 Q1016 NOSIG
2026-04-25 04:50:00,METAR LIML 250450Z 28001KT CAVOK 10/06 Q1016 NOSIG
2026-04-25 04:20:00,METAR LIML 250420Z 00000KT CAVOK 10/05 Q1015 NOSIG
2026-04-25 03:50:00,METAR LIML 250350Z VRB02KT CAVOK 11/05 Q1015 NOSIG
2026-04-25 03:20:00,METAR LIML 250320Z 32001KT CAVOK 11/04 Q1015 NOSIG
2026-04-25 02:50:00,METAR LIML 250250Z VRB01KT CAVOK 12/04 Q1015 NOSIG
2026-04-25 02:20:00,METAR LIML 250220Z VRB02KT CAVOK 12/04 Q1015 NOSIG
2026-04-25 01:50:00,METAR LIML 250150Z 31002KT CAVOK 14/04 Q1015 NOSIG
2026-04-25 01:20:00,METAR LIML 250120Z 31003KT 280V340 CAVOK 15/04 Q1015 NOSIG
2026-04-25 00:50:00,METAR LIML 250050Z 32003KT CAVOK 16/04 Q1015 NOSIG
2026-04-25 00:20:00,METAR LIML 250020Z 32004KT 290V350 CAVOK 16/05 Q1015 NOSIG
2026-04-24 23:50:00,METAR LIML 242350Z 31005KT CAVOK 16/05 Q1016 NOSIG
2026-04-24 23:20:00,METAR LIML 242320Z 31004KT 280V350 CAVOK 16/05 Q1015 NOSIG
2026-04-24 22:50:00,METAR LIML 242250Z 31004KT 280V350 CAVOK 16/05 Q1015 NOSIG
2026-04-24 22:20:00,METAR LIML 242220Z 30005KT 270V330 CAVOK 17/05 Q1015 NOSIG
2026-04-24 21:50:00,METAR LIML 242150Z 30004KT 250V330 CAVOK 17/04 Q1015 NOSIG
2026-04-24 21:20:00,METAR LIML 242120Z 28004KT CAVOK 17/03 Q1015 NOSIG
2026-04-24 20:50:00,METAR LIML 242050Z 27005KT CAVOK 18/03 Q1015 NOSIG
2026-04-24 20:20:00,METAR LIML 242020Z 27005KT CAVOK 18/03 Q1015 NOSIG
2026-04-24 19:50:00,METAR LIML 241950Z 26005KT 220V280 CAVOK 19/03 Q1014 NOSIG
2026-04-24 19:20:00,METAR LIML 241920Z 26003KT CAVOK 19/04 Q1014 NOSIG
2026-04-24 18:50:00,METAR LIML 241850Z 25004KT 210V280 CAVOK 21/03 Q1014 NOSIG
2026-04-24 18:20:00,METAR LIML 241820Z 23007KT 190V270 CAVOK 22/03 Q1014 NOSIG
2026-04-24 17:50:00,METAR LIML 241750Z 23005KT 190V270 CAVOK 23/04 Q1014 NOSIG
2026-04-24 17:20:00,METAR LIML 241720Z 23005KT 190V270 CAVOK 24/05 Q1013 NOSIG
2026-04-24 16:50:00,METAR LIML 241650Z 22006KT 190V270 CAVOK 25/04 Q1014 NOSIG
2026-04-24 16:20:00,METAR LIML 241620Z 22008KT 180V270 CAVOK 26/03 Q1014 NOSIG
2026-04-24 15:50:00,METAR LIML 241550Z 23005KT 190V280 CAVOK 26/02 Q1014 NOSIG
2026-04-24 15:20:00,METAR LIML 241520Z 25006KT 190V300 CAVOK 27/01 Q1014 NOSIG
2026-04-24 14:50:00,METAR LIML 241450Z 25007KT 200V320 CAVOK 26/M00 Q1014 NOSIG
2026-04-24 14:20:00,METAR LIML 241420Z VRB05KT CAVOK 26/01 Q1015 NOSIG
2026-04-24 13:50:00,METAR LIML 241350Z 26006KT 210V310 CAVOK 25/01 Q1015 NOSIG
2026-04-24 13:20:00,METAR LIML 241320Z 26007KT 180V310 CAVOK 25/02 Q1016 NOSIG
2026-04-24 12:50:00,METAR LIML 241250Z VRB05KT CAVOK 25/01 Q1016 NOSIG
2026-04-24 12:20:00,METAR LIML 241220Z VRB06KT CAVOK 25/01 Q1016 NOSIG
2026-04-24 11:50:00,METAR LIML 241150Z 22004KT 160V290 CAVOK 24/02 Q1016 NOSIG
2026-04-24 11:20:00,METAR LIML 241120Z 22005KT 170V300 CAVOK 23/04 Q1017 NOSIG
2026-04-24 10:50:00,METAR LIML 241050Z 21005KT 170V240 CAVOK 23/05 Q1017 NOSIG
2026-04-24 10:20:00,METAR LIML 241020Z VRB03KT CAVOK 22/08 Q1018 NOSIG
2026-04-24 09:50:00,METAR LIML 240950Z VRB02KT CAVOK 20/08 Q1018 NOSIG
2026-04-24 09:20:00,METAR LIML 240920Z VRB03KT CAVOK 19/09 Q1018 NOSIG
2026-04-24 08:50:00,METAR LIML 240850Z 19003KT 140V230 CAVOK 19/09 Q1018 NOSIG
2026-04-24 08:20:00,METAR LIML 240820Z VRB02KT CAVOK 18/09 Q1018 NOSIG
2026-04-24 07:50:00,METAR LIML 240750Z 06003KT 360V100 CAVOK 16/08 Q1018 NOSIG
2026-04-24 07:20:00,METAR LIML 240720Z 08005KT 050V110 CAVOK 16/08 Q1018 NOSIG
2026-04-24 06:50:00,METAR LIML 240650Z 09004KT 060V140 CAVOK 15/08 Q1018 NOSIG
2026-04-24 06:20:00,METAR LIML 240620Z VRB01KT CAVOK 15/08 Q1018 NOSIG
2026-04-24 05:50:00,METAR LIML 240550Z VRB01KT CAVOK 14/08 Q1018 NOSIG
2026-04-24 05:20:00,METAR LIML 240520Z VRB01KT CAVOK 10/08 Q1018 NOSIG
2026-04-24 04:50:00,METAR LIML 240450Z VRB01KT CAVOK 08/07 Q1018 NOSIG
2026-04-24 04:20:00,METAR LIML 240420Z VRB01KT CAVOK 09/07 Q1018 NOSIG
2026-04-24 03:50:00,METAR LIML 240350Z VRB01KT CAVOK 09/07 Q1018 NOSIG
2026-04-24 03:20:00,METAR LIML 240320Z VRB01KT CAVOK 09/07 Q1018 NOSIG
2026-04-24 02:50:00,METAR LIML 240250Z VRB01KT CAVOK 09/07 Q1018 NOSIG
2026-04-24 02:20:00,METAR LIML 240220Z VRB01KT CAVOK 10/07 Q1018 NOSIG
2026-04-24 01:50:00,METAR LIML 240150Z VRB02KT CAVOK 11/07 Q1018 NOSIG
2026-04-24 01:20:00,METAR LIML 240120Z VRB01KT CAVOK 11/08 Q1018 NOSIG
2026-04-24 00:50:00,METAR LIML 240050Z 16002KT CAVOK 10/08 Q1018 NOSIG
2026-04-24 00:20:00,METAR LIML 240020Z VRB02KT CAVOK 10/07 Q1018 NOSIG
2026-04-23 23:50:00,METAR LIML 232350Z VRB01KT CAVOK 11/08 Q1018 NOSIG
2026-04-23 23:20:00,METAR LIML 232320Z VRB01KT CAVOK 12/08 Q1018 NOSIG
2026-04-23 22:50:00,METAR LIML 232250Z 04002KT CAVOK 13/08 Q1018 NOSIG
2026-04-23 22:20:00,METAR LIML 232220Z 05003KT CAVOK 14/07 Q1018 NOSIG
2026-04-23 21:50:00,METAR LIML 232150Z 33001KT CAVOK 14/07 Q1018 NOSIG
2026-04-23 21:20:00,METAR LIML 232120Z VRB01KT CAVOK 14/08 Q1018 NOSIG
2026-04-23 20:50:00,METAR LIML 232050Z 28001KT CAVOK 15/07 Q1018 NOSIG
2026-04-23 20:20:00,METAR LIML 232020Z VRB02KT CAVOK 16/06 Q1018 NOSIG
2026-04-23 19:50:00,METAR LIML 231950Z VRB02KT CAVOK 16/07 Q1018 NOSIG
2026-04-23 19:20:00,METAR LIML 231920Z 25002KT CAVOK 17/06 Q1018 NOSIG
2026-04-23 18:50:00,METAR LIML 231850Z VRB02KT CAVOK 19/06 Q1018 NOSIG
2026-04-23 18:20:00,METAR LIML 231820Z VRB02KT CAVOK 20/05 Q1018 NOSIG
2026-04-23 17:50:00,METAR LIML 231750Z 24004KT 190V290 CAVOK 21/05 Q1018 NOSIG
2026-04-23 17:20:00,METAR LIML 231720Z VRB04KT CAVOK 22/05 Q1018 NOSIG
2026-04-23 16:50:00,METAR LIML 231650Z 26005KT 230V290 CAVOK 22/04 Q1018 NOSIG
2026-04-23 16:20:00,METAR LIML 231620Z 22005KT 170V280 CAVOK 22/04 Q1018 NOSIG
2026-04-23 15:50:00,METAR LIML 231550Z 23004KT 170V290 CAVOK 22/05 Q1019 NOSIG
2026-04-23 15:20:00,METAR LIML 231520Z VRB04KT CAVOK 22/06 Q1019 NOSIG
2026-04-23 14:50:00,METAR LIML 231450Z 23005KT 170V290 CAVOK 22/05 Q1019 NOSIG
2026-04-23 14:20:00,METAR LIML 231420Z 22005KT 160V280 CAVOK 22/05 Q1020 NOSIG
2026-04-23 13:50:00,METAR LIML 231350Z VRB06KT CAVOK 22/05 Q1020 NOSIG
2026-04-23 13:20:00,METAR LIML 231320Z 24006KT 190V280 CAVOK 21/05 Q1021 NOSIG
2026-04-23 12:50:00,METAR LIML 231250Z 29006KT 220V340 CAVOK 21/05 Q1021 NOSIG
2026-04-23 12:20:00,METAR LIML 231220Z VRB05KT CAVOK 20/05 Q1022 NOSIG
2026-04-23 11:50:00,METAR LIML 231150Z 23006KT 180V320 CAVOK 20/05 Q1022 NOSIG
2026-04-23 11:20:00,METAR LIML 231120Z 20004KT 140V310 CAVOK 19/05 Q1022 NOSIG
2026-04-23 10:50:00,METAR LIML 231050Z 25006KT 140V300 CAVOK 19/05 Q1023 NOSIG
2026-04-23 10:20:00,METAR LIML 231020Z 12004KT 020V190 CAVOK 18/05 Q1023 NOSIG
2026-04-23 09:50:00,METAR LIML 230950Z VRB03KT CAVOK 18/06 Q1024 NOSIG
2026-04-23 09:20:00,METAR LIML 230920Z 15004KT 100V270 CAVOK 17/05 Q1024 NOSIG
2026-04-23 08:50:00,METAR LIML 230850Z 17004KT 120V260 CAVOK 16/05 Q1024 NOSIG
2026-04-23 08:20:00,METAR LIML 230820Z 12005KT 060V180 9999 FEW060 15/05 Q1025 NOSIG
2026-04-23 07:50:00,METAR LIML 230750Z 12005KT 080V190 9999 FEW060 15/05 Q1025 NOSIG
2026-04-23 07:20:00,METAR LIML 230720Z 13005KT 070V170 CAVOK 14/04 Q1024 NOSIG
2026-04-23 06:50:00,METAR LIML 230650Z 12006KT 090V150 9999 FEW060 13/04 Q1024 NOSIG
2026-04-23 06:20:00,METAR LIML 230620Z 12005KT 080V150 9999 FEW060 13/04 Q1024 NOSIG
2026-04-23 05:50:00,METAR LIML 230550Z VRB01KT 9999 FEW060 13/06 Q1024 NOSIG
2026-04-23 05:20:00,METAR LIML 230520Z VRB02KT 9999 FEW060 11/05 Q1024 NOSIG
2026-04-23 04:50:00,METAR LIML 230450Z VRB01KT 9999 SCT060 11/05 Q1023 NOSIG
2026-04-23 04:20:00,METAR LIML 230420Z 09004KT 9999 SCT060 11/05 Q1023 NOSIG
2026-04-23 03:50:00,METAR LIML 230350Z 11004KT CAVOK 11/04 Q1023 NOSIG
2026-04-23 03:20:00,METAR LIML 230320Z 10003KT CAVOK 12/05 Q1023 NOSIG
2026-04-23 02:50:00,METAR LIML 230250Z 09005KT 9999 FEW070 12/05 Q1023 NOSIG
2026-04-23 02:20:00,METAR LIML 230220Z 06003KT 9999 BKN060 13/06 Q1023 NOSIG
2026-04-23 01:50:00,METAR LIML 230150Z 07003KT 9999 SCT060 13/05 Q1023 NOSIG
2026-04-23 01:20:00,METAR LIML 230120Z 09004KT 9999 BKN060 13/05 Q1023 NOSIG
2026-04-23 00:50:00,METAR LIML 230050Z 05003KT 9999 SCT060 13/06 Q1023 NOSIG
2026-04-23 00:20:00,METAR LIML 230020Z VRB02KT 9999 FEW060 12/06 Q1023 NOSIG
2026-04-22 23:50:00,METAR LIML 222350Z VRB01KT 9999 FEW070 12/06 Q1023 NOSIG
2026-04-22 23:20:00,METAR LIML 222320Z 09004KT 9999 SCT070 13/06 Q1022 NOSIG
2026-04-22 22:50:00,METAR LIML 222250Z 09003KT 060V120 9999 FEW070 13/06 Q1022 NOSIG
2026-04-22 22:20:00,METAR LIML 222220Z 15002KT 9999 BKN070 13/06 Q1022 NOSIG
2026-04-22 21:50:00,METAR LIML 222150Z 18002KT 9999 BKN070 14/06 Q1022 NOSIG
2026-04-22 21:20:00,METAR LIML 222120Z 19002KT 9999 SCT070 14/06 Q1021 NOSIG
2026-04-22 20:50:00,METAR LIML 222050Z 19003KT CAVOK 13/06 Q1021 NOSIG
2026-04-22 20:20:00,METAR LIML 222020Z 18002KT CAVOK 14/05 Q1021 NOSIG
2026-04-22 19:50:00,METAR LIML 221950Z 18003KT CAVOK 14/05 Q1020 NOSIG
2026-04-22 19:20:00,METAR LIML 221920Z 14004KT 090V160 CAVOK 16/05 Q1020 NOSIG
2026-04-22 18:50:00,METAR LIML 221850Z 15004KT CAVOK 16/04 Q1019 NOSIG
2026-04-22 18:20:00,METAR LIML 221820Z 13005KT 090V160 CAVOK 17/04 Q1019 NOSIG
2026-04-22 17:50:00,METAR LIML 221750Z 12005KT 070V170 CAVOK 17/04 Q1019 NOSIG
2026-04-22 17:20:00,METAR LIML 221720Z 11004KT 020V150 CAVOK 18/05 Q1019 NOSIG
2026-04-22 16:50:00,METAR LIML 221650Z 18004KT 130V210 9999 FEW050 18/05 Q1019 NOSIG
2026-04-22 16:20:00,METAR LIML 221620Z 16003KT 100V210 9999 SCT050 18/04 Q1019 NOSIG
2026-04-22 15:50:00,METAR LIML 221550Z VRB03KT 9999 SCT050 18/05 Q1019 NOSIG
2026-04-22 15:20:00,METAR LIML 221520Z 21003KT 160V250 9999 SCT050 19/05 Q1019 NOSIG
2026-04-22 14:50:00,METAR LIML 221450Z 06005KT 030V100 9999 SCT050 17/05 Q1019 NOSIG
2026-04-22 14:20:00,METAR LIML 221420Z VRB04KT 9999 SCT050 19/05 Q1019 NOSIG
2026-04-22 13:50:00,METAR LIML 221350Z 07003KT 020V140 9999 SCT050 17/06 Q1019 NOSIG
2026-04-22 13:20:00,METAR LIML 221320Z 08006KT 030V140 9999 SCT050 18/06 Q1019 NOSIG
2026-04-22 12:50:00,METAR LIML 221250Z VRB05KT 9999 FEW045 17/05 Q1019 NOSIG
2026-04-22 12:20:00,METAR LIML 221220Z 09007KT 020V150 9999 FEW045 17/05 Q1019 NOSIG
2026-04-22 11:50:00,METAR LIML 221150Z 08008KT 030V120 9999 SCT045 17/06 Q1019 NOSIG
2026-04-22 11:20:00,METAR LIML 221120Z 09008KT 020V140 9999 SCT045 17/06 Q1019 NOSIG
2026-04-22 10:50:00,METAR LIML 221050Z 09007KT 040V130 9999 SCT045 17/05 Q1020 NOSIG
2026-04-22 10:20:00,METAR LIML 221020Z 12009KT 080V150 9999 FEW035 SCT060 16/06 Q1020 NOSIG
2026-04-22 09:50:00,METAR LIML 220950Z 10008KT 060V120 9999 FEW035 SCT075 16/06 Q1020 NOSIG
2026-04-22 09:20:00,METAR LIML 220920Z 11007KT 030V150 9999 FEW040 SCT070 15/06 Q1020 NOSIG
2026-04-22 08:50:00,METAR LIML 220850Z 10009KT 070V130 9999 SCT045 SCT065 14/06 Q1020 NOSIG
2026-04-22 07:50:00,METAR LIML 220750Z 11009KT 9999 BKN045 SCT060 13/06 Q1019 NOSIG
2026-04-22 07:20:00,METAR LIML 220720Z 11007KT 070V150 9999 BKN040 SCT060 12/06 Q1019 NOSIG
2026-04-22 06:50:00,METAR LIML 220650Z 11006KT 060V140 9999 BKN040 SCT060 12/07 Q1019 NOSIG
2026-04-22 06:20:00,METAR LIML 220620Z 12005KT 090V150 9999 BKN035 BKN055 11/06 Q1019 NOSIG
2026-04-22 05:50:00,METAR LIML 220550Z 09007KT 060V120 9999 BKN035 BKN055 11/06 Q1019 NOSIG
2026-04-22 05:20:00,METAR LIML 220520Z 10010KT 070V130 9999 SCT035 BKN055 11/07 Q1018 NOSIG
2026-04-22 04:50:00,METAR LIML 220450Z 11010KT 9999 BKN035 BKN055 11/07 Q1018 NOSIG
2026-04-22 04:20:00,METAR LIML 220420Z 11009KT 9999 SCT030 BKN045 11/07 Q1018 NOSIG
2026-04-22 03:50:00,METAR LIML 220350Z 08004KT 9999 FEW030 BKN090 11/08 Q1018 NOSIG
2026-04-22 03:20:00,METAR LIML 220320Z 06005KT 030V110 9999 SCT060 BKN090 11/08 Q1018 NOSIG
2026-04-22 02:50:00,METAR LIML 220250Z 11005KT 9999 SCT050 BKN080 12/08 Q1017 NOSIG
2026-04-22 02:20:00,METAR LIML 220220Z 12008KT 9999 BKN050 BKN090 12/08 Q1017 NOSIG
2026-04-22 01:50:00,METAR LIML 220150Z 10006KT 070V130 9999 FEW045 BKN080 12/08 Q1017 NOSIG
2026-04-22 01:20:00,METAR LIML 220120Z 09009KT 9999 BKN080 12/08 Q1016 NOSIG
2026-04-22 00:50:00,METAR LIML 220050Z 09007KT 9999 -RA BKN080 12/08 Q1016 NOSIG
2026-04-22 00:20:00,METAR LIML 220020Z 10010KT 9999 -RA FEW040 BKN080 13/08 Q1016 NOSIG
2026-04-21 23:50:00,METAR LIML 212350Z 08008KT 050V110 9999 -RA FEW040 BKN070 13/09 Q1016 NOSIG
2026-04-21 23:20:00,METAR LIML 212320Z 10011KT 070V130 9999 -RA FEW040 BKN060 13/09 Q1016 TEMPO 4000 RA
2026-04-21 22:50:00,METAR LIML 212250Z 09005KT 060V120 9999 -RA FEW040 OVC060 13/09 Q1016 TEMPO 4000 RA
2026-04-21 22:20:00,METAR LIML 212220Z 11006KT 9999 -RA FEW040 OVC060 13/09 Q1015 TEMPO 4000 RA
2026-04-21 21:50:00,METAR LIML 212150Z 09008KT 9999 -RA FEW040 OVC060 14/08 Q1015 TEMPO 4000 RA
2026-04-21 21:20:00,METAR LIML 212120Z 09009KT 9999 FEW040 BKN070 14/08 Q1015 TEMPO 4000 RA
2026-04-21 20:50:00,METAR LIML 212050Z 09008KT 9999 FEW040 BKN090 14/07 Q1014 NOSIG
2026-04-21 20:20:00,METAR LIML 212020Z 10009KT 070V130 9999 FEW040 BKN090 14/08 Q1014 NOSIG
2026-04-21 19:50:00,METAR LIML 211950Z 10011KT 080V140 9999 FEW030 BKN085 14/08 Q1014 NOSIG
2026-04-21 19:20:00,METAR LIML 211920Z 09011KT 9999 FEW030 BKN080 14/09 Q1013 NOSIG
2026-04-21 18:50:00,METAR LIML 211850Z 07011KT 040V100 9999 FEW050 15/09 Q1013 NOSIG
2026-04-21 18:20:00,METAR LIML 211820Z 11008KT 080V140 9999 FEW040 17/08 Q1012 NOSIG
2026-04-21 17:50:00,METAR LIML 211750Z 11010KT 070V140 9999 FEW040 18/09 Q1011 NOSIG
2026-04-21 17:20:00,METAR LIML 211720Z 13009KT 9999 FEW040 18/09 Q1011 NOSIG
2026-04-21 16:50:00,METAR LIML 211650Z 12010KT 080V150 9999 FEW040 18/09 Q1011 NOSIG
2026-04-21 16:20:00,METAR LIML 211620Z 11010KT 9999 FEW040 19/09 Q1011 NOSIG
2026-04-21 15:50:00,METAR LIML 211550Z 12009KT 080V160 9999 SCT040 19/09 Q1011 NOSIG
2026-04-21 15:20:00,METAR LIML 211520Z 12009KT 080V150 9999 SCT035 19/09 Q1011 NOSIG
2026-04-21 14:50:00,METAR LIML 211450Z 12010KT 090V170 9999 SCT035 19/10 Q1011 NOSIG
2026-04-21 14:20:00,METAR LIML 211420Z 14007KT 080V170 9999 SCT035 20/10 Q1011 NOSIG
2026-04-21 13:50:00,METAR LIML 211350Z 13006KT 080V170 9999 SCT035 19/10 Q1011 NOSIG
2026-04-21 13:20:00,METAR LIML 211320Z 12008KT 070V180 9999 SCT035 19/10 Q1012 NOSIG
2026-04-21 12:50:00,METAR LIML 211250Z 15007KT 110V180 9999 SCT030 19/10 Q1012 NOSIG
2026-04-21 12:20:00,METAR LIML 211220Z 11008KT 050V140 9999 BKN030 18/11 Q1012 NOSIG
2026-04-21 11:50:00,METAR LIML 211150Z 12009KT 080V160 9999 BKN030 18/10 Q1012 NOSIG
2026-04-21 11:20:00,METAR LIML 211120Z 13009KT 100V160 9999 BKN025 18/10 Q1012 NOSIG
2026-04-21 10:50:00,METAR LIML 211050Z 13008KT 090V160 9999 BKN025 18/11 Q1013 NOSIG
2026-04-21 10:20:00,METAR LIML 211020Z 11009KT 090V150 9999 BKN025 17/11 Q1013 NOSIG
2026-04-21 09:50:00,METAR LIML 210950Z 12011KT 9999 SCT020 SCT050 16/10 Q1013 NOSIG
2026-04-21 09:20:00,METAR LIML 210920Z 14009KT 100V160 9999 BKN020 BKN050 16/11 Q1013 NOSIG
2026-04-21 08:50:00,METAR LIML 210850Z 11009KT 090V150 9999 BKN020 BKN045 16/11 Q1013 NOSIG
2026-04-21 08:20:00,METAR LIML 210820Z 12010KT 090V150 9999 BKN018 BKN040 15/10 Q1013 NOSIG
2026-04-21 07:50:00,METAR LIML 210750Z 10010KT 070V130 9999 SCT018 BKN040 14/10 Q1013 NOSIG
2026-04-21 07:20:00,METAR LIML 210720Z 10009KT 060V130 9999 FEW018 SCT035 15/10 Q1013 NOSIG
2026-04-21 06:50:00,METAR LIML 210650Z 10010KT 070V130 9999 FEW018 14/10 Q1013 NOSIG
2026-04-21 06:20:00,METAR LIML 210620Z 09010KT 9999 FEW015 14/10 Q1013 NOSIG
2026-04-21 05:50:00,METAR LIML 210550Z 10010KT 9999 FEW015 SCT050 14/11 Q1013 NOSIG
2026-04-21 05:20:00,METAR LIML 210520Z 09007KT 060V120 9999 FEW030 SCT070 14/12 Q1012 NOSIG
2026-04-21 04:50:00,METAR LIML 210450Z 13009KT 100V160 9999 FEW030 SCT070 14/12 Q1012 NOSIG
2026-04-21 04:20:00,METAR LIML 210420Z 11006KT 060V150 9999 FEW020 SCT060 14/12 Q1012 RETSRA NOSIG
2026-04-21 03:50:00,METAR LIML 210350Z 11011KT 070V140 9999 -TSRA SCT020CB SCT060 14/13 Q1011 NOSIG
2026-04-21 03:20:00,METAR LIML 210320Z 07007KT 030V120 9999 -TSRA SCT020CB SCT060 15/12 Q1012 NOSIG
2026-04-21 02:50:00,METAR LIML 210250Z 10006KT 060V130 9999 TS FEW020CB SCT060 15/12 Q1012 NOSIG
2026-04-21 02:20:00,METAR LIML 210220Z 07007KT 040V100 9999 FEW020CB SCT060 15/12 Q1012 NOSIG
2026-04-21 01:50:00,METAR LIML 210150Z 10008KT 070V130 9999 FEW030CB SCT060 15/11 Q1011 RETS NOSIG
2026-04-21 01:20:00,METAR LIML 210120Z 07004KT 040V100 9999 TS SCT030CB SCT060 16/11 Q1011 NOSIG
2026-04-21 00:50:00,METAR LIML 210050Z 06004KT 9999 FEW030 SCT060 16/10 Q1011 NOSIG
2026-04-21 00:20:00,METAR LIML 210020Z 04005KT 9999 SCT060 16/10 Q1011 NOSIG
2026-04-20 23:50:00,METAR LIML 202350Z 07004KT 9999 SCT060 16/10 Q1011 NOSIG
2026-04-20 23:20:00,METAR LIML 202320Z 08005KT 9999 FEW090 16/12 Q1011 NOSIG
2026-04-20 22:50:00,METAR LIML 202250Z 31003KT 280V340 9999 FEW090 17/12 Q1011 NOSIG
2026-04-20 22:20:00,METAR LIML 202220Z 31003KT 280V340 9999 SCT060 17/12 Q1010 NOSIG
2026-04-20 21:50:00,METAR LIML 202150Z VRB02KT 9999 SCT060 17/12 Q1010 NOSIG
2026-04-20 21:20:00,METAR LIML 202120Z 29003KT 260V320 9999 FEW035 SCT060 18/12 Q1010 NOSIG
2026-04-20 20:50:00,METAR LIML 202050Z 27004KT 9999 FEW035 BKN055 18/12 Q1010 NOSIG
2026-04-20 20:20:00,METAR LIML 202020Z 13005KT 100V160 9999 BKN035 19/12 Q1010 NOSIG
2026-04-20 19:50:00,METAR LIML 201950Z VRB02KT 9999 SCT045 19/12 Q1010 RETS NOSIG
2026-04-20 19:20:00,METAR LIML 201920Z 27003KT 230V310 9999 TS FEW015CB SCT045 19/13 Q1009 NOSIG
2026-04-20 18:50:00,METAR LIML 201850Z 22004KT 180V280 9999 BKN045 20/13 Q1009 NOSIG
2026-04-20 18:20:00,METAR LIML 201820Z 21003KT 190V250 9999 BKN045 21/12 Q1009 NOSIG
2026-04-20 17:50:00,METAR LIML 201750Z VRB02KT 9999 SCT045 21/12 Q1008 NOSIG
2026-04-20 17:20:00,METAR LIML 201720Z VRB03KT 9999 FEW045 22/12 Q1008 NOSIG
2026-04-20 16:50:00,METAR LIML 201650Z 17004KT 120V210 9999 FEW045 22/12 Q1008 NOSIG
2026-04-20 16:20:00,METAR LIML 201620Z 18005KT 150V220 9999 FEW030 22/12 Q1009 NOSIG
2026-04-20 15:50:00,METAR LIML 201550Z 16004KT 080V210 9999 FEW030 22/12 Q1009 NOSIG
2026-04-20 15:20:00,METAR LIML 201520Z 19005KT 130V260 9999 FEW030 22/13 Q1009 NOSIG
2026-04-20 14:50:00,METAR LIML 201450Z VRB03KT 9999 FEW025 22/12 Q1009 NOSIG
2026-04-20 14:20:00,METAR LIML 201420Z VRB03KT 9999 FEW025 22/13 Q1010 NOSIG
2026-04-20 13:50:00,METAR LIML 201350Z 17006KT 130V240 9999 FEW025 21/13 Q1010 NOSIG
2026-04-20 13:20:00,METAR LIML 201320Z 15004KT 090V200 9999 FEW025 21/12 Q1011 NOSIG
2026-04-20 12:50:00,METAR LIML 201250Z 12005KT 060V190 9999 FEW025 21/13 Q1011 NOSIG
2026-04-20 12:20:00,METAR LIML 201220Z 20003KT 110V280 9999 FEW025 20/12 Q1012 NOSIG
2026-04-20 11:50:00,METAR LIML 201150Z 14003KT 090V200 9999 SCT025 20/13 Q1012 NOSIG
2026-04-20 11:20:00,METAR LIML 201120Z 09005KT 050V160 9999 SCT020 19/13 Q1012 NOSIG
2026-04-20 10:50:00,METAR LIML 201050Z 09005KT 030V170 9999 SCT020 19/13 Q1013 NOSIG
2026-04-20 10:20:00,METAR LIML 201020Z 11007KT 060V150 9999 SCT020 18/13 Q1013 NOSIG
2026-04-20 09:50:00,METAR LIML 200950Z 12005KT 080V170 9999 BKN020 18/13 Q1013 NOSIG
2026-04-20 09:20:00,METAR LIML 200920Z 13007KT 070V160 9999 BKN020 18/13 Q1013 NOSIG
2026-04-20 08:50:00,METAR LIML 200850Z 10008KT 070V130 9999 SCT020 17/13 Q1014 NOSIG
2026-04-20 08:20:00,METAR LIML 200820Z 13007KT 080V160 9999 SCT020 17/13 Q1013 NOSIG
2026-04-20 07:50:00,METAR LIML 200750Z 15005KT 090V180 9999 SCT020 16/13 Q1013 NOSIG
2026-04-20 07:20:00,METAR LIML 200720Z 10005KT 060V120 9999 FEW030 16/13 Q1013 NOSIG
2026-04-20 06:50:00,METAR LIML 200650Z 08005KT 9999 FEW030 15/12 Q1013 NOSIG
2026-04-20 06:20:00,METAR LIML 200620Z 06005KT 9999 FEW030 14/11 Q1013 NOSIG
2026-04-20 05:50:00,METAR LIML 200550Z 05005KT 9999 FEW030 SCT070 14/11 Q1013 NOSIG
2026-04-20 05:20:00,METAR LIML 200520Z 06004KT 9999 FEW030 SCT070 14/11 Q1013 NOSIG
2026-04-20 04:50:00,METAR LIML 200450Z 04003KT 9999 SCT070 13/11 Q1013 NOSIG
2026-04-20 04:20:00,METAR LIML 200420Z 09003KT 9999 SCT060 14/12 Q1013 NOSIG
2026-04-20 03:50:00,METAR LIML 200350Z 36003KT 330V030 9999 FEW070 14/13 Q1013 NOSIG
2026-04-20 03:20:00,METAR LIML 200320Z VRB02KT 9999 FEW050 14/13 Q1013 NOSIG
2026-04-20 02:50:00,METAR LIML 200250Z 36004KT 9999 SCT050 13/13 Q1013 NOSIG
2026-04-20 02:20:00,METAR LIML 200220Z VRB01KT 9999 SCT050 13/13 Q1013 NOSIG
2026-04-20 01:50:00,METAR LIML 200150Z VRB01KT 9999 SCT050 14/13 Q1013 NOSIG
2026-04-20 01:20:00,METAR LIML 200120Z VRB01KT 9999 SCT050 14/13 Q1013 NOSIG
2026-04-20 00:50:00,METAR LIML 200050Z VRB02KT 9999 SCT040 14/13 Q1013 NOSIG
2026-04-20 00:20:00,METAR LIML 200020Z 04005KT 020V100 9999 SCT040 15/13 Q1014 RETSRA NOSIG
2026-04-19 23:50:00,METAR LIML 192350Z 01005KT 9999 SCT040 14/13 Q1014 RETSRA NOSIG
2026-04-19 23:20:00,METAR LIML 192320Z 08006KT 040V180 9999 TS FEW020CB BKN040 15/13 Q1014 RETSRA NOSIG
2026-04-19 22:50:00,METAR LIML 192250Z VRB03KT 8000 TSRA SCT015CB BKN030 15/13 Q1014 NOSIG
2026-04-19 22:20:00,METAR LIML 192220Z 01005KT 320V050 9999 -TSRA SCT020CB BKN040 17/12 Q1014 NOSIG
2026-04-19 21:50:00,METAR LIML 192150Z 10005KT 060V130 9999 TS FEW020CB SCT040 17/11 Q1014 NOSIG
2026-04-19 21:20:00,METAR LIML 192120Z 15006KT 090V180 9999 TS FEW020CB SCT040 17/10 Q1013 NOSIG
2026-04-19 20:50:00,METAR LIML 192050Z 12007KT 9999 SCT060 18/10 Q1013 NOSIG
2026-04-19 20:20:00,METAR LIML 192020Z 09010KT 060V120 9999 -TSRA FEW010CB BKN070 19/09 Q1013 NOSIG
2026-04-19 19:50:00,METAR LIML 191950Z 04009KT 350V100 9999 TS FEW020CB BKN070 19/10 Q1014 NOSIG
2026-04-19 19:20:00,METAR LIML 191920Z 08007KT 9999 VCTS SCT080 19/09 Q1013 TEMPO TSRA
2026-04-19 18:50:00,METAR LIML 191850Z 08007KT CAVOK 19/09 Q1013 TEMPO TSRA
2026-04-19 18:20:00,METAR LIML 191820Z 08008KT CAVOK 20/09 Q1013 NOSIG
2026-04-19 17:50:00,METAR LIML 191750Z 09008KT 070V130 CAVOK 21/09 Q1012 NOSIG
2026-04-19 17:20:00,METAR LIML 191720Z 09009KT CAVOK 21/10 Q1012 NOSIG
2026-04-19 16:50:00,METAR LIML 191650Z 09009KT 060V120 CAVOK 22/11 Q1012 NOSIG
2026-04-19 16:20:00,METAR LIML 191620Z 07009KT CAVOK 23/11 Q1012 NOSIG
2026-04-19 15:50:00,METAR LIML 191550Z 11008KT 060V160 CAVOK 24/10 Q1012 NOSIG
2026-04-19 15:20:00,METAR LIML 191520Z 11007KT 060V140 CAVOK 24/10 Q1013 NOSIG
2026-04-19 14:50:00,METAR LIML 191450Z 10007KT 050V150 CAVOK 24/11 Q1013 NOSIG
2026-04-19 14:20:00,METAR LIML 191420Z 07008KT 030V100 9999 FEW060 24/11 Q1013 NOSIG
2026-04-19 13:50:00,METAR LIML 191350Z 10007KT 040V160 9999 FEW060 24/10 Q1014 NOSIG
2026-04-19 13:20:00,METAR LIML 191320Z 10006KT 050V200 9999 FEW060 25/10 Q1014 NOSIG
2026-04-19 12:50:00,METAR LIML 191250Z 02005KT 300V080 CAVOK 24/10 Q1014 NOSIG
2026-04-19 12:20:00,METAR LIML 191220Z 16007KT 110V200 CAVOK 23/10 Q1014 NOSIG
2026-04-19 11:50:00,METAR LIML 191150Z 15006KT 090V190 CAVOK 23/10 Q1015 NOSIG
2026-04-19 11:20:00,METAR LIML 191120Z 13007KT 070V190 CAVOK 22/11 Q1015 NOSIG
2026-04-19 10:50:00,METAR LIML 191050Z 17006KT 130V210 CAVOK 21/11 Q1016 NOSIG
2026-04-19 10:20:00,METAR LIML 191020Z VRB05KT CAVOK 20/11 Q1016 NOSIG
2026-04-19 09:50:00,METAR LIML 190950Z 16004KT 100V200 9999 FEW050 20/12 Q1017 NOSIG
2026-04-19 09:20:00,METAR LIML 190920Z 14006KT 100V170 9999 FEW050 19/12 Q1017 NOSIG
2026-04-19 08:50:00,METAR LIML 190850Z 11006KT 9999 FEW050 18/13 Q1016 NOSIG
2026-04-19 08:20:00,METAR LIML 190820Z 08004KT 050V120 9999 SCT060 17/12 Q1016 NOSIG
2026-04-19 07:50:00,METAR LIML 190750Z 05004KT 010V110 9999 -RA BKN050 16/12 Q1017 NOSIG
2026-04-19 07:20:00,METAR LIML 190720Z 03005KT 340V060 9999 BKN060 18/11 Q1016 NOSIG
2026-04-19 06:50:00,METAR LIML 190650Z 10007KT 060V140 9999 FEW030 SCT060 17/10 Q1016 NOSIG
2026-04-19 06:20:00,METAR LIML 190620Z 07006KT 030V110 9999 FEW030 SCT060 17/10 Q1016 NOSIG
2026-04-19 05:50:00,METAR LIML 190550Z 02005KT 320V080 9999 VCTS FEW030CB BKN060 17/12 Q1016 TEMPO 4000 TSRA
2026-04-19 05:20:00,METAR LIML 190520Z 30002KT 9999 VCTS FEW020CB BKN040 16/11 Q1016 TEMPO 4000 TSRA
2026-04-19 04:50:00,METAR LIML 190450Z 07003KT 040V100 9999 FEW030 SCT070 16/10 Q1016 TEMPO 4000 TSRA
2026-04-19 04:20:00,METAR LIML 190420Z VRB02KT 9999 FEW030 SCT070 16/10 Q1015 TEMPO 4000 TSRA
2026-04-19 03:50:00,METAR LIML 190350Z 10002KT 9999 SCT090 16/10 Q1015 NOSIG
2026-04-19 03:20:00,METAR LIML 190320Z 09003KT 050V120 9999 SCT090 17/10 Q1016 NOSIG
2026-04-19 02:50:00,METAR LIML 190250Z 09003KT 050V120 9999 SCT090 17/10 Q1016 NOSIG
2026-04-19 02:20:00,METAR LIML 190220Z 08003KT 030V100 9999 SCT090 17/10 Q1016 NOSIG
2026-04-19 01:50:00,METAR LIML 190150Z 08005KT 9999 FEW090 17/10 Q1016 NOSIG
2026-04-19 01:20:00,METAR LIML 190120Z 09006KT 9999 SCT090 17/10 Q1016 NOSIG
2026-04-19 00:20:00,METAR LIML 190020Z 06005KT 9999 FEW090 17/10 Q1016 NOSIG
2026-04-18 23:50:00,METAR LIML 182350Z 05004KT 9999 FEW090 17/10 Q1016 NOSIG
2026-04-18 23:20:00,METAR LIML 182320Z 05004KT 9999 FEW090 17/10 Q1017 NOSIG
2026-04-18 22:50:00,METAR LIML 182250Z VRB02KT 9999 FEW090 17/10 Q1017 NOSIG
2026-04-18 22:20:00,METAR LIML 182220Z 04003KT 9999 FEW090 17/11 Q1016 NOSIG
2026-04-18 21:50:00,METAR LIML 182150Z VRB01KT CAVOK 18/11 Q1016 NOSIG
2026-04-18 21:20:00,METAR LIML 182120Z VRB02KT CAVOK 19/09 Q1016 NOSIG
2026-04-18 20:50:00,METAR LIML 182050Z 17003KT 130V210 CAVOK 19/09 Q1016 NOSIG
2026-04-18 20:20:00,METAR LIML 182020Z VRB02KT CAVOK 19/10 Q1016 NOSIG
2026-04-18 19:50:00,METAR LIML 181950Z VRB02KT CAVOK 20/10 Q1016 NOSIG
2026-04-18 19:20:00,METAR LIML 181920Z 17002KT CAVOK 21/10 Q1016 NOSIG
2026-04-18 18:50:00,METAR LIML 181850Z 17002KT CAVOK 21/10 Q1016 NOSIG
2026-04-18 18:20:00,METAR LIML 181820Z 19004KT CAVOK 22/09 Q1016 NOSIG
2026-04-18 17:50:00,METAR LIML 181750Z 18003KT 140V200 CAVOK 24/09 Q1015 NOSIG
2026-04-18 17:20:00,METAR LIML 181720Z 16004KT CAVOK 24/10 Q1015 NOSIG
2026-04-18 16:50:00,METAR LIML 181650Z 16004KT CAVOK 25/09 Q1015 NOSIG
2026-04-18 16:20:00,METAR LIML 181620Z 14004KT 100V210 CAVOK 25/09 Q1015 NOSIG
2026-04-18 15:20:00,METAR LIML 181520Z 21003KT 140V280 CAVOK 26/09 Q1016 NOSIG
2026-04-18 14:50:00,METAR LIML 181450Z 17004KT 130V270 CAVOK 26/10 Q1016 NOSIG
2026-04-18 14:20:00,METAR LIML 181420Z 16005KT 120V210 CAVOK 26/09 Q1016 NOSIG
2026-04-18 13:50:00,METAR LIML 181350Z 14005KT 070V200 CAVOK 25/10 Q1017 NOSIG
2026-04-18 13:20:00,METAR LIML 181320Z VRB04KT CAVOK 25/10 Q1017 NOSIG
2026-04-18 12:50:00,METAR LIML 181250Z 11005KT 080V180 CAVOK 25/11 Q1017 NOSIG
2026-04-18 12:20:00,METAR LIML 181220Z 14004KT 090V240 CAVOK 24/10 Q1018 NOSIG
2026-04-18 11:50:00,METAR LIML 181150Z VRB04KT CAVOK 24/10 Q1018 NOSIG
2026-04-18 11:20:00,METAR LIML 181120Z VRB03KT CAVOK 24/10 Q1018 NOSIG
2026-04-18 10:50:00,METAR LIML 181050Z 19005KT 140V230 CAVOK 24/11 Q1018 NOSIG
2026-04-18 10:20:00,METAR LIML 181020Z VRB04KT CAVOK 23/12 Q1019 NOSIG
2026-04-18 09:50:00,METAR LIML 180950Z VRB04KT CAVOK 23/12 Q1019 NOSIG
2026-04-18 09:20:00,METAR LIML 180920Z 17004KT 130V240 CAVOK 22/12 Q1019 NOSIG
2026-04-18 08:50:00,METAR LIML 180850Z 14005KT 090V180 CAVOK 21/13 Q1019 NOSIG
2026-04-18 08:20:00,METAR LIML 180820Z 14005KT 100V170 CAVOK 20/12 Q1019 NOSIG
2026-04-18 07:50:00,METAR LIML 180750Z 12004KT 080V150 CAVOK 20/12 Q1019 NOSIG
2026-04-18 07:20:00,METAR LIML 180720Z 08004KT 040V110 CAVOK 19/12 Q1019 NOSIG
2026-04-18 06:50:00,METAR LIML 180650Z VRB01KT CAVOK 19/13 Q1019 NOSIG
2026-04-18 06:20:00,METAR LIML 180620Z 36002KT CAVOK 17/13 Q1019 NOSIG
2026-04-18 05:50:00,METAR LIML 180550Z 33002KT CAVOK 15/13 Q1019 NOSIG
2026-04-18 05:20:00,METAR LIML 180520Z VRB01KT CAVOK 14/12 Q1018 NOSIG
2026-04-18 04:50:00,METAR LIML 180450Z 35002KT 9999 SCT060 13/12 Q1018 NOSIG
2026-04-18 04:20:00,METAR LIML 180420Z 02002KT 9999 SCT060 14/11 Q1018 NOSIG
2026-04-18 03:50:00,METAR LIML 180350Z 35001KT 9999 SCT060 14/12 Q1018 NOSIG
2026-04-18 03:20:00,METAR LIML 180320Z 03001KT 9999 SCT065 14/12 Q1018 NOSIG
2026-04-18 02:50:00,METAR LIML 180250Z 36001KT 9999 SCT070 14/12 Q1018 NOSIG
2026-04-18 02:20:00,METAR LIML 180220Z 36002KT 9999 SCT080 15/12 Q1018 NOSIG
2026-04-18 01:50:00,METAR LIML 180150Z VRB02KT 9999 SCT080 15/12 Q1018 NOSIG
2026-04-18 01:20:00,METAR LIML 180120Z 01003KT 9999 SCT070 16/12 Q1018 NOSIG
2026-04-18 00:50:00,METAR LIML 180050Z VRB02KT 9999 FEW070 16/12 Q1018 NOSIG
2026-04-18 00:20:00,METAR LIML 180020Z VRB01KT CAVOK 15/12 Q1018 NOSIG
2026-04-17 23:50:00,METAR LIML 172350Z VRB02KT CAVOK 15/11 Q1018 NOSIG
2026-04-17 23:20:00,METAR LIML 172320Z VRB01KT CAVOK 15/12 Q1018 NOSIG
2026-04-17 22:50:00,METAR LIML 172250Z VRB01KT CAVOK 15/12 Q1018 NOSIG
2026-04-17 22:20:00,METAR LIML 172220Z 06003KT CAVOK 17/12 Q1018 NOSIG
2026-04-17 21:50:00,METAR LIML 172150Z 04001KT CAVOK 16/12 Q1018 NOSIG
2026-04-17 21:20:00,METAR LIML 172120Z VRB01KT CAVOK 16/12 Q1018 NOSIG
2026-04-17 20:50:00,METAR LIML 172050Z VRB01KT CAVOK 17/11 Q1017 NOSIG
2026-04-17 20:20:00,METAR LIML 172020Z VRB01KT CAVOK 17/11 Q1017 NOSIG
2026-04-17 19:50:00,METAR LIML 171950Z 18003KT CAVOK 19/11 Q1017 NOSIG
2026-04-17 19:20:00,METAR LIML 171920Z 20003KT CAVOK 19/11 Q1017 NOSIG
2026-04-17 18:50:00,METAR LIML 171850Z 18003KT CAVOK 21/11 Q1017 NOSIG
2026-04-17 18:20:00,METAR LIML 171820Z 16004KT CAVOK 22/10 Q1016 NOSIG
2026-04-17 17:50:00,METAR LIML 171750Z 17004KT CAVOK 23/10 Q1016 NOSIG
2026-04-17 17:20:00,METAR LIML 171720Z 18003KT 9999 SCT090 23/10 Q1016 NOSIG
2026-04-17 16:50:00,METAR LIML 171650Z 16003KT 130V190 9999 SCT070 24/10 Q1016 NOSIG
2026-04-17 16:20:00,METAR LIML 171620Z 16003KT 130V190 9999 BKN070 23/10 Q1016 NOSIG
2026-04-17 15:50:00,METAR LIML 171550Z 18003KT 140V230 9999 SCT090 24/10 Q1016 NOSIG
2026-04-17 15:20:00,METAR LIML 171520Z 19004KT 140V240 9999 SCT090 24/10 Q1016 NOSIG
2026-04-17 14:50:00,METAR LIML 171450Z 16004KT 050V180 CAVOK 24/11 Q1017 NOSIG
2026-04-17 14:20:00,METAR LIML 171420Z VRB03KT CAVOK 25/10 Q1017 NOSIG
2026-04-17 13:50:00,METAR LIML 171350Z VRB03KT CAVOK 24/10 Q1017 NOSIG
2026-04-17 13:20:00,METAR LIML 171320Z VRB03KT CAVOK 25/11 Q1018 NOSIG
2026-04-17 12:50:00,METAR LIML 171250Z VRB02KT CAVOK 24/10 Q1018 NOSIG
2026-04-17 12:20:00,METAR LIML 171220Z VRB03KT CAVOK 24/10 Q1018 NOSIG
2026-04-17 11:50:00,METAR LIML 171150Z 21003KT 140V280 CAVOK 23/10 Q1019 NOSIG
2026-04-17 11:20:00,METAR LIML 171120Z VRB04KT CAVOK 23/09 Q1019 NOSIG
2026-04-17 10:50:00,METAR LIML 171050Z 14006KT 070V190 CAVOK 22/10 Q1019 NOSIG
2026-04-17 10:20:00,METAR LIML 171020Z VRB04KT CAVOK 22/10 Q1020 NOSIG
2026-04-17 09:50:00,METAR LIML 170950Z 13005KT 070V190 CAVOK 22/11 Q1020 NOSIG
2026-04-17 09:20:00,METAR LIML 170920Z 12006KT 030V170 CAVOK 21/11 Q1020 NOSIG
2026-04-17 08:50:00,METAR LIML 170850Z 13005KT 050V180 CAVOK 20/12 Q1020 NOSIG
2026-04-17 08:20:00,METAR LIML 170820Z 10006KT 050V140 CAVOK 20/11 Q1020 NOSIG
2026-04-17 07:50:00,METAR LIML 170750Z 05005KT 020V080 9999 SCT070 19/12 Q1020 NOSIG
2026-04-17 07:20:00,METAR LIML 170720Z 11006KT 040V140 9999 SCT070 18/11 Q1020 NOSIG
2026-04-17 06:50:00,METAR LIML 170650Z 08005KT 040V130 9999 SCT070 18/12 Q1020 NOSIG
2026-04-17 06:20:00,METAR LIML 170620Z 06004KT 030V100 9999 SCT070 17/12 Q1020 NOSIG
2026-04-17 05:50:00,METAR LIML 170550Z 07003KT 030V120 9999 SCT070 17/12 Q1020 NOSIG
2026-04-17 05:20:00,METAR LIML 170520Z 05003KT 9999 SCT070 15/12 Q1019 NOSIG
2026-04-17 04:50:00,METAR LIML 170450Z 05002KT 8000 FEW070 13/12 Q1019 NOSIG
2026-04-17 04:20:00,METAR LIML 170420Z 35002KT 7000 BKN070 14/12 Q1019 NOSIG
2026-04-17 03:50:00,METAR LIML 170350Z 35002KT 9999 SCT060 13/12 Q1019 NOSIG
2026-04-17 03:20:00,METAR LIML 170320Z 06002KT CAVOK 14/12 Q1019 NOSIG
2026-04-17 02:50:00,METAR LIML 170250Z 35003KT CAVOK 14/12 Q1019 NOSIG
2026-04-17 02:20:00,METAR LIML 170220Z VRB02KT CAVOK 14/11 Q1019 NOSIG
2026-04-17 01:50:00,METAR LIML 170150Z 36002KT CAVOK 14/12 Q1019 NOSIG
2026-04-17 01:20:00,METAR LIML 170120Z 01002KT CAVOK 14/12 Q1019 NOSIG
2026-04-17 00:50:00,METAR LIML 170050Z VRB01KT CAVOK 14/12 Q1019 NOSIG
2026-04-17 00:20:00,METAR LIML 170020Z 06003KT CAVOK 15/12 Q1019 NOSIG
2026-04-16 23:50:00,METAR LIML 162350Z 04004KT CAVOK 15/12 Q1019 NOSIG
2026-04-16 23:20:00,METAR LIML 162320Z VRB02KT CAVOK 15/12 Q1019 NOSIG
2026-04-16 22:50:00,METAR LIML 162250Z 07004KT CAVOK 16/12 Q1019 NOSIG
2026-04-16 22:20:00,METAR LIML 162220Z 07003KT CAVOK 16/12 Q1019 NOSIG
2026-04-16 21:50:00,METAR LIML 162150Z VRB02KT CAVOK 16/12 Q1019 NOSIG
2026-04-16 21:20:00,METAR LIML 162120Z 14003KT 100V170 CAVOK 19/12 Q1018 NOSIG
2026-04-16 20:50:00,METAR LIML 162050Z 15003KT 120V180 CAVOK 19/12 Q1018 NOSIG
2026-04-16 20:20:00,METAR LIML 162020Z 15003KT 120V180 CAVOK 19/11 Q1018 NOSIG
2026-04-16 19:50:00,METAR LIML 161950Z 14004KT 080V160 CAVOK 19/12 Q1018 NOSIG
2026-04-16 19:20:00,METAR LIML 161920Z VRB02KT CAVOK 21/11 Q1018 NOSIG
2026-04-16 18:50:00,METAR LIML 161850Z 11004KT 050V130 CAVOK 21/12 Q1017 NOSIG
2026-04-16 18:20:00,METAR LIML 161820Z 13005KT 090V160 CAVOK 22/12 Q1017 NOSIG
2026-04-16 17:50:00,METAR LIML 161750Z 15004KT 070V200 CAVOK 22/11 Q1017 NOSIG
2026-04-16 17:20:00,METAR LIML 161720Z 18004KT CAVOK 23/12 Q1017 NOSIG
2026-04-16 16:50:00,METAR LIML 161650Z 18003KT 130V230 CAVOK 24/11 Q1017 NOSIG
2026-04-16 16:20:00,METAR LIML 161620Z 17004KT 130V230 CAVOK 23/11 Q1017 NOSIG
2026-04-16 15:50:00,METAR LIML 161550Z 15006KT 120V180 CAVOK 24/11 Q1017 NOSIG
2026-04-16 14:50:00,METAR LIML 161450Z 15006KT 120V230 CAVOK 24/11 Q1017 NOSIG
2026-04-16 14:20:00,METAR LIML 161420Z 16006KT 100V220 CAVOK 24/12 Q1017 NOSIG
2026-04-16 13:50:00,METAR LIML 161350Z VRB05KT 9999 FEW045 24/13 Q1017 NOSIG
2026-04-16 13:20:00,METAR LIML 161320Z VRB04KT 9999 FEW050 24/12 Q1018 NOSIG
2026-04-16 12:50:00,METAR LIML 161250Z VRB03KT 8000 SCT025 23/12 Q1018 NOSIG
2026-04-16 12:20:00,METAR LIML 161220Z VRB03KT 8000 SCT025 23/12 Q1018 NOSIG
2026-04-16 11:50:00,METAR LIML 161150Z VRB03KT 8000 SCT025 23/13 Q1018 NOSIG
2026-04-16 11:20:00,METAR LIML 161120Z VRB03KT 8000 SCT025 21/12 Q1019 NOSIG
2026-04-16 10:50:00,METAR LIML 161050Z 24003KT 150V300 8000 SCT025 22/12 Q1019 NOSIG
2026-04-16 10:20:00,METAR LIML 161020Z 21003KT 160V260 8000 SCT025 21/13 Q1019 NOSIG
2026-04-16 09:50:00,METAR LIML 160950Z 21004KT 160V300 8000 SCT025 21/12 Q1019 NOSIG
2026-04-16 09:20:00,METAR LIML 160920Z VRB03KT 8000 SCT025 20/13 Q1019 NOSIG
2026-04-16 08:50:00,METAR LIML 160850Z VRB02KT CAVOK 20/13 Q1019 NOSIG
2026-04-16 08:20:00,METAR LIML 160820Z VRB01KT CAVOK 18/13 Q1019 NOSIG
2026-04-16 07:50:00,METAR LIML 160750Z VRB02KT CAVOK 18/12 Q1019 NOSIG
2026-04-16 07:20:00,METAR LIML 160720Z VRB01KT 8000 NSC 16/13 Q1019 NOSIG
2026-04-16 06:50:00,METAR LIML 160650Z VRB02KT 8000 NSC 15/13 Q1019 NOSIG
2026-04-16 06:20:00,METAR LIML 160620Z VRB01KT 6000 NSC 14/13 Q1019 NOSIG
2026-04-16 05:50:00,METAR LIML 160550Z VRB02KT 6000 SCT035 13/12 Q1019 NOSIG
2026-04-16 05:20:00,METAR LIML 160520Z VRB01KT 5000 MIFG SCT035 12/11 Q1019 NOSIG
2026-04-16 04:50:00,METAR LIML 160450Z VRB01KT 3000 MIFG SCT035 11/11 Q1019 NOSIG
2026-04-16 04:20:00,METAR LIML 160420Z VRB01KT 8000 MIFG SCT035 12/11 Q1019 NOSIG
2026-04-16 03:50:00,METAR LIML 160350Z 19001KT 9000 MIFG NSC 12/11 Q1019 NOSIG
2026-04-16 03:20:00,METAR LIML 160320Z 10001KT 9000 MIFG NSC 13/12 Q1019 NOSIG
2026-04-16 02:50:00,METAR LIML 160250Z VRB01KT CAVOK 12/12 Q1019 NOSIG
2026-04-16 02:20:00,METAR LIML 160220Z 18001KT CAVOK 13/12 Q1019 NOSIG
2026-04-16 01:50:00,METAR LIML 160150Z 30003KT 230V330 9999 SCT045 13/12 Q1019 NOSIG
2026-04-16 01:20:00,METAR LIML 160120Z 12002KT 9999 BKN045 15/13 Q1019 NOSIG
2026-04-16 00:50:00,METAR LIML 160050Z 36004KT 9999 BKN045 14/13 Q1019 NOSIG
2026-04-16 00:20:00,METAR LIML 160020Z 34003KT 9999 SCT045 13/12 Q1019 NOSIG
2026-04-15 23:50:00,METAR LIML 152350Z 03002KT CAVOK 13/13 Q1019 NOSIG
2026-04-15 23:20:00,METAR LIML 152320Z VRB01KT CAVOK 13/12 Q1019 NOSIG
2026-04-15 22:50:00,METAR LIML 152250Z VRB01KT CAVOK 13/12 Q1019 NOSIG
2026-04-15 22:20:00,METAR LIML 152220Z 03002KT CAVOK 14/13 Q1019 NOSIG
2026-04-15 21:50:00,METAR LIML 152150Z 02001KT 9999 FEW050 14/13 Q1019 NOSIG
2026-04-15 21:20:00,METAR LIML 152120Z VRB02KT 9999 FEW050 14/12 Q1019 NOSIG
2026-04-15 20:50:00,METAR LIML 152050Z VRB02KT 9999 FEW080 16/13 Q1019 NOSIG
2026-04-15 19:50:00,METAR LIML 151950Z 10004KT 050V130 9999 FEW080 17/13 Q1019 NOSIG
2026-04-15 19:20:00,METAR LIML 151920Z 09006KT 9999 BKN095 18/13 Q1019 NOSIG
2026-04-15 18:50:00,METAR LIML 151850Z VRB01KT 9999 OVC095 18/13 Q1018 NOSIG
2026-04-15 18:20:00,METAR LIML 151820Z 14004KT 120V190 9999 BKN095 20/11 Q1018 NOSIG
2026-04-15 17:50:00,METAR LIML 151750Z 15005KT 110V180 9999 BKN100 20/11 Q1018 NOSIG
2026-04-15 17:20:00,METAR LIML 151720Z 16005KT 9999 FEW050 BKN095 20/11 Q1018 NOSIG
2026-04-15 16:50:00,METAR LIML 151650Z 17004KT 120V190 9999 FEW040 20/12 Q1018 NOSIG
2026-04-15 16:20:00,METAR LIML 151620Z 16005KT 130V200 9999 SCT045 21/12 Q1018 NOSIG
2026-04-15 15:50:00,METAR LIML 151550Z 16006KT 130V190 9999 SCT050 21/11 Q1018 NOSIG
2026-04-15 15:20:00,METAR LIML 151520Z 17006KT 130V210 9999 SCT040 22/11 Q1018 NOSIG
2026-04-15 14:50:00,METAR LIML 151450Z 15006KT 100V190 9999 SCT040 22/11 Q1018 NOSIG
2026-04-15 14:20:00,METAR LIML 151420Z 20006KT 150V250 9999 SCT040 21/11 Q1018 NOSIG
2026-04-15 13:50:00,METAR LIML 151350Z 17004KT 130V220 9999 SCT035 21/12 Q1018 NOSIG
2026-04-15 13:20:00,METAR LIML 151320Z VRB04KT 9999 SCT035 21/11 Q1018 NOSIG
2026-04-15 12:50:00,METAR LIML 151250Z VRB05KT 9999 BKN035 21/12 Q1018 NOSIG
2026-04-15 12:20:00,METAR LIML 151220Z VRB04KT 9999 FEW035 SCT050 21/12 Q1019 NOSIG
2026-04-15 11:50:00,METAR LIML 151150Z VRB04KT 9999 SCT030 20/12 Q1019 NOSIG
2026-04-15 11:20:00,METAR LIML 151120Z 22005KT 180V280 9999 BKN030 20/12 Q1019 NOSIG
2026-04-15 10:50:00,METAR LIML 151050Z VRB03KT 9999 BKN030 19/12 Q1019 NOSIG
2026-04-15 10:20:00,METAR LIML 151020Z 27004KT 180V330 9999 BKN025 BKN065 19/12 Q1019 NOSIG
2026-04-15 09:50:00,METAR LIML 150950Z 23004KT 190V290 9999 BKN025 19/12 Q1019 NOSIG
2026-04-15 09:20:00,METAR LIML 150920Z VRB03KT 9999 BKN020 18/12 Q1020 NOSIG
2026-04-15 08:50:00,METAR LIML 150850Z AUTO VRB03KT 9999 BKN021/// 18/13 Q1020
2026-04-15 08:20:00,METAR LIML 150820Z AUTO VRB03KT 9999 BKN070/// 18/13 Q1019
2026-04-15 07:50:00,METAR LIML 150750Z AUTO VRB02KT 9999 BKN066/// BKN100/// 17/12 Q1019
2026-04-15 07:20:00,METAR LIML 150720Z VRB01KT 8000 FEW015 BKN060 15/13 Q1019 NOSIG
2026-04-15 06:50:00,METAR LIML 150650Z VRB01KT 6000 BKN060 14/14 Q1019 NOSIG
2026-04-15 06:20:00,METAR LIML 150620Z VRB01KT 4000 BR BKN070 13/13 Q1019 NOSIG
2026-04-15 05:50:00,METAR LIML 150550Z 18001KT 3000 BCFG FEW025 BKN080 12/12 Q1019 TEMPO 1400 BCFG
2026-04-15 05:20:00,METAR LIML 150520Z VRB01KT 3000 BCFG FEW025 SCT045 BKN080 12/12 Q1018 TEMPO 1400 BCFG
2026-04-15 04:50:00,METAR LIML 150450Z VRB01KT 3000 R35/1300U BCFG SCT090 12/11 Q1018 TEMPO 1400 BCFG
2026-04-15 04:20:00,METAR LIML 150420Z VRB01KT 1500 BCFG FEW090 12/12 Q1018 TEMPO 0600 BCFG
2026-04-15 03:50:00,METAR LIML 150350Z VRB01KT 9999 SCT040 SCT090 13/12 Q1018 NOSIG
2026-04-15 03:20:00,METAR LIML 150320Z 03001KT 9999 SCT040 SCT090 13/12 Q1018 NOSIG
2026-04-15 02:50:00,METAR LIML 150250Z VRB01KT 9999 FEW040 SCT090 12/12 Q1018 NOSIG
2026-04-15 02:20:00,METAR LIML 150220Z 35002KT 9999 SCT090 13/12 Q1018 NOSIG
2026-04-15 01:50:00,METAR LIML 150150Z 35003KT 9999 FEW090 13/12 Q1018 NOSIG
2026-04-15 01:20:00,METAR LIML 150120Z 01002KT 9999 SCT090 13/12 Q1018 NOSIG
2026-04-15 00:50:00,METAR LIML 150050Z 35003KT 9999 SCT090 13/12 Q1018 NOSIG
2026-04-15 00:20:00,METAR LIML 150020Z 36003KT 9999 SCT070 13/12 Q1018 NOSIG
2026-04-14 23:50:00,METAR LIML 142350Z 36003KT 9999 FEW030 SCT070 13/12 Q1018 NOSIG
2026-04-14 23:20:00,METAR LIML 142320Z 35004KT 9999 FEW030 SCT070 13/13 Q1018 NOSIG
2026-04-14 22:50:00,METAR LIML 142250Z 03002KT 9999 -RA SCT030 BKN070 13/12 Q1018 NOSIG
2026-04-14 22:20:00,METAR LIML 142220Z 36002KT 9999 -DZ FEW030 BKN070 13/12 Q1018 NOSIG
2026-04-14 21:50:00,METAR LIML 142150Z 36001KT 9999 FEW050 BKN070 13/12 Q1018 NOSIG
2026-04-14 21:20:00,METAR LIML 142120Z VRB01KT 9999 SCT050 BKN070 14/12 Q1018 NOSIG
2026-04-14 20:50:00,METAR LIML 142050Z VRB02KT 9999 SCT050 BKN065 14/12 Q1017 NOSIG
2026-04-14 20:20:00,METAR LIML 142020Z VRB02KT 9999 -RA FEW015 BKN040 BKN070 14/12 Q1017 NOSIG
2026-04-14 19:50:00,METAR LIML 141950Z 12003KT 100V160 9999 -RA FEW015 BKN040 BKN060 14/12 Q1017 NOSIG
2026-04-14 19:20:00,METAR LIML 141920Z 16003KT 110V190 9999 -RA FEW015 BKN040 BKN060 14/12 Q1016 NOSIG
2026-04-14 18:50:00,METAR LIML 141850Z 14004KT 090V160 8000 -RA SCT015 OVC045 14/12 Q1016 NOSIG
2026-04-14 18:20:00,METAR LIML 141820Z 15006KT 9999 -RA FEW018 OVC050 14/12 Q1016 NOSIG
2026-04-14 17:50:00,METAR LIML 141750Z 15009KT 9999 -RA SCT018 BKN055 15/12 Q1015 NOSIG
2026-04-14 17:20:00,METAR LIML 141720Z 15010KT 120V180 9999 SCT018 BKN070 16/12 Q1015 NOSIG
2026-04-14 16:50:00,METAR LIML 141650Z 13008KT 090V150 9999 FEW022 SCT050 BKN090 17/11 Q1014 NOSIG
2026-04-14 16:20:00,METAR LIML 141620Z 15008KT 110V180 9999 FEW030 SCT050 BKN090 17/12 Q1014 NOSIG
2026-04-14 15:50:00,METAR LIML 141550Z 15007KT 100V190 9999 FEW028 BKN070 18/12 Q1014 NOSIG
2026-04-14 15:20:00,METAR LIML 141520Z 14006KT 110V190 9999 FEW028 SCT070 18/12 Q1014 NOSIG
2026-04-14 14:50:00,METAR LIML 141450Z 16009KT 9999 FEW028 SCT045 18/11 Q1014 NOSIG
2026-04-14 14:20:00,METAR LIML 141420Z 13004KT 070V220 9999 FEW028 SCT045 18/11 Q1013 NOSIG
2026-04-14 13:50:00,METAR LIML 141350Z 14005KT 100V210 9999 -RA FEW020 SCT035 BKN055 18/12 Q1014 NOSIG
2026-04-14 13:20:00,METAR LIML 141320Z VRB02KT 9999 -RA SCT025 SCT040 18/12 Q1014 NOSIG
2026-04-14 12:50:00,METAR LIML 141250Z 17003KT 9999 -RA SCT020 SCT070 17/11 Q1014 NOSIG
2026-04-14 12:20:00,METAR LIML 141220Z VRB02KT 9999 FEW020 SCT070 17/12 Q1013 NOSIG
2026-04-14 11:50:00,METAR LIML 141150Z 21003KT 170V270 9999 FEW020 SCT070 17/11 Q1013 NOSIG
2026-04-14 11:20:00,METAR LIML 141120Z VRB02KT 9999 FEW020 SCT070 17/11 Q1013 NOSIG
2026-04-14 10:50:00,METAR LIML 141050Z VRB02KT 9999 FEW035 SCT070 16/12 Q1013 NOSIG
2026-04-14 10:20:00,METAR LIML 141020Z VRB02KT 9999 FEW035 BKN060 16/11 Q1013 NOSIG
2026-04-14 09:50:00,METAR LIML 140950Z VRB02KT 9999 FEW012 SCT070 16/13 Q1013 NOSIG
2026-04-14 09:20:00,METAR LIML 140920Z 23004KT 200V280 9999 SCT070 15/12 Q1013 NOSIG
2026-04-14 08:50:00,METAR LIML 140850Z 21003KT 170V260 9999 SCT070 14/12 Q1012 NOSIG
2026-04-14 08:20:00,METAR LIML 140820Z 24003KT 200V280 9999 BKN070 14/12 Q1012 NOSIG
2026-04-14 07:50:00,METAR LIML 140750Z 22004KT 190V250 9999 BKN070 14/12 Q1012 NOSIG
2026-04-14 07:20:00,METAR LIML 140720Z 21003KT 170V240 8000 BKN060 13/12 Q1011 NOSIG
2026-04-14 06:50:00,METAR LIML 140650Z 22003KT 180V270 6000 BKN060 13/12 Q1011 NOSIG
2026-04-14 06:20:00,METAR LIML 140620Z 24003KT 160V270 5000 BR SCT006 BKN070 13/12 Q1011 NOSIG
2026-04-14 05:50:00,METAR LIML 140550Z 25003KT 190V280 5000 -DZ BR FEW005 BKN070 13/12 Q1011 NOSIG
2026-04-14 05:20:00,METAR LIML 140520Z 23003KT 190V270 5000 BR SCT005 BKN040 13/12 Q1010 NOSIG
2026-04-14 04:50:00,METAR LIML 140450Z 22003KT 190V280 5000 BR SCT005 BKN040 13/12 Q1010 NOSIG
2026-04-14 04:20:00,METAR LIML 140420Z 18004KT 5000 BR SCT004 BKN040 13/12 Q1010 NOSIG
2026-04-14 03:50:00,METAR LIML 140350Z 25003KT 200V290 6000 -RA SCT004 BKN040 13/12 Q1009 NOSIG
2026-04-14 03:20:00,METAR LIML 140320Z 21003KT 180V250 7000 -RA SCT004 BKN040 13/12 Q1009 NOSIG
2026-04-14 02:50:00,METAR LIML 140250Z 21003KT 7000 -RA SCT004 BKN040 13/12 Q1009 NOSIG
2026-04-14 02:20:00,METAR LIML 140220Z 21003KT 7000 -RA SCT004 BKN040 13/12 Q1009 NOSIG
2026-04-14 01:50:00,METAR LIML 140150Z 21003KT 9999 -RA OVC050 13/12 Q1009 NOSIG
2026-04-14 01:20:00,METAR LIML 140120Z 19004KT 9999 -RA OVC050 13/12 Q1009 NOSIG
2026-04-14 00:50:00,METAR LIML 140050Z 13006KT 9999 -RA BKN050 14/12 Q1009 NOSIG
2026-04-14 00:20:00,METAR LIML 140020Z VRB01KT 9999 BKN050 13/12 Q1009 NOSIG
2026-04-13 23:50:00,METAR LIML 132350Z 30003KT 9999 BKN050 13/12 Q1009 NOSIG
2026-04-13 23:20:00,METAR LIML 132320Z 10004KT 9999 -RA BKN045 14/12 Q1009 NOSIG
2026-04-13 22:50:00,METAR LIML 132250Z VRB01KT 9999 SCT050 14/12 Q1008 NOSIG
2026-04-13 22:20:00,METAR LIML 132220Z 34002KT 9999 BKN050 14/12 Q1008 NOSIG
2026-04-13 21:50:00,METAR LIML 132150Z 02003KT 9999 BKN050 14/12 Q1008 NOSIG
2026-04-13 21:20:00,METAR LIML 132120Z 36005KT 9999 -RA FEW030 BKN050 14/12 Q1008 NOSIG
2026-04-13 20:50:00,METAR LIML 132050Z 02004KT 350V060 9999 -RA SCT035 BKN050 14/12 Q1008 RERA NOSIG
2026-04-13 20:20:00,METAR LIML 132020Z 10004KT 050V130 9999 RA SCT040 BKN060 15/12 Q1008 NOSIG
2026-04-13 19:50:00,METAR LIML 131950Z 02006KT 9999 BKN050 15/12 Q1007 NOSIG
2026-04-13 19:20:00,METAR LIML 131920Z 36006KT 9999 BKN050 15/11 Q1007 NOSIG
2026-04-13 18:50:00,METAR LIML 131850Z 35006KT 9999 BKN070 15/11 Q1007 NOSIG
2026-04-13 18:20:00,METAR LIML 131820Z 35005KT 9999 BKN070 15/11 Q1006 NOSIG
2026-04-13 17:50:00,METAR LIML 131750Z 35005KT 9999 SCT070 16/11 Q1006 NOSIG
2026-04-13 17:20:00,METAR LIML 131720Z 36005KT 9999 FEW070 16/12 Q1006 NOSIG
2026-04-13 16:50:00,METAR LIML 131650Z 34005KT 9999 SCT070 16/12 Q1006 NOSIG
2026-04-13 16:20:00,METAR LIML 131620Z 34004KT 9999 SCT060 BKN080 16/12 Q1006 NOSIG
2026-04-13 15:50:00,METAR LIML 131550Z 35004KT 320V020 9999 BKN060 16/12 Q1006 NOSIG
2026-04-13 15:20:00,METAR LIML 131520Z 31003KT 280V340 9999 -RA FEW035 BKN060 16/12 Q1006 NOSIG
2026-04-13 14:50:00,METAR LIML 131450Z 29003KT 260V330 9999 -RA SCT045 BKN060 16/13 Q1006 NOSIG
2026-04-13 14:20:00,METAR LIML 131420Z 30003KT 250V340 CAVOK 16/13 Q1006 NOSIG
2026-04-13 13:50:00,METAR LIML 131350Z 30003KT 280V350 9999 -RA BKN060 16/12 Q1006 NOSIG
2026-04-13 13:20:00,METAR LIML 131320Z 34005KT 9999 -RA FEW050 BKN060 16/12 Q1007 NOSIG
2026-04-13 12:50:00,METAR LIML 131250Z 36005KT 8000 DZ FEW030 BKN050 16/12 Q1007 NOSIG
2026-04-13 12:20:00,METAR LIML 131220Z 03005KT 360V060 8000 DZ FEW030 BKN060 16/11 Q1007 NOSIG
2026-04-13 11:50:00,METAR LIML 131150Z 35008KT 320V030 9999 FEW030 BKN060 17/12 Q1007 NOSIG
2026-04-13 11:20:00,METAR LIML 131120Z 36007KT 9999 BKN060 16/12 Q1007 NOSIG
2026-04-13 10:50:00,METAR LIML 131050Z 36006KT 8000 BKN060 15/12 Q1007 NOSIG
2026-04-13 10:20:00,METAR LIML 131020Z 01006KT 8000 SCT030 BKN050 15/12 Q1007 NOSIG
2026-04-13 09:50:00,METAR LIML 130950Z 02008KT 8000 SCT030 BKN060 15/12 Q1007 NOSIG
2026-04-13 09:20:00,METAR LIML 130920Z 36006KT 8000 SCT030 BKN060 14/12 Q1007 RERA NOSIG
2026-04-13 08:50:00,METAR LIML 130850Z 01006KT 8000 -RA SCT020 BKN040 14/12 Q1007 RERA NOSIG
2026-04-13 08:20:00,METAR LIML 130820Z 01007KT 7000 RA SCT020 BKN040 14/12 Q1008 NOSIG
2026-04-13 07:50:00,METAR LIML 130750Z 02007KT 7000 RA SCT020 BKN040 13/11 Q1008 NOSIG
2026-04-13 07:20:00,METAR LIML 130720Z 04006KT 7000 -RA SCT020 BKN040 13/11 Q1008 NOSIG
2026-04-13 06:50:00,METAR LIML 130650Z 05005KT 7000 -RA SCT020 BKN040 13/11 Q1008 NOSIG
2026-04-13 06:20:00,METAR LIML 130620Z 06005KT 7000 -RA SCT020 BKN040 13/11 Q1008 NOSIG
2026-04-13 05:50:00,METAR LIML 130550Z 05005KT 8000 -RA SCT025 BKN050 14/11 Q1008 NOSIG
2026-04-13 05:20:00,METAR LIML 130520Z 04006KT 020V080 9999 -DZ SCT025 BKN050 14/10 Q1008 NOSIG
2026-04-13 04:50:00,METAR LIML 130450Z 04005KT 9999 -DZ SCT030 BKN060 14/10 Q1008 NOSIG
2026-04-13 04:20:00,METAR LIML 130420Z 04005KT 9999 SCT030 SCT060 14/10 Q1008 NOSIG
2026-04-13 03:50:00,METAR LIML 130350Z 05004KT 9999 SCT030 SCT060 14/10 Q1008 NOSIG
2026-04-13 03:20:00,METAR LIML 130320Z 04004KT 9999 SCT030 SCT060 14/11 Q1008 NOSIG
2026-04-13 02:50:00,METAR LIML 130250Z 06004KT 040V100 9999 SCT030 SCT060 14/11 Q1009 NOSIG
2026-04-13 02:20:00,METAR LIML 130220Z 08005KT 9999 SCT030 SCT060 14/11 Q1009 NOSIG
2026-04-13 01:50:00,METAR LIML 130150Z 07004KT 040V110 9999 BKN020 14/11 Q1009 NOSIG
2026-04-13 01:20:00,METAR LIML 130120Z 07005KT 9999 BKN020 14/12 Q1009 NOSIG
2026-04-13 00:50:00,METAR LIML 130050Z 08006KT 040V110 9999 BKN020 15/12 Q1010 NOSIG
2026-04-13 00:20:00,METAR LIML 130020Z 09007KT 9999 BKN020 15/12 Q1010 NOSIG
2026-04-12 23:50:00,METAR LIML 122350Z 09006KT 9999 BKN020 15/12 Q1010 NOSIG
2026-04-12 23:20:00,METAR LIML 122320Z COR 09008KT 9999 BKN020 15/12 Q1010 NOSIG
2026-04-12 22:50:00,METAR LIML 122250Z COR 09008KT 9999 FEW020 BKN050 15/11 Q1010 NOSIG
2026-04-12 22:20:00,METAR LIML 122220Z 08006KT 9999 FEW020 BKN050 15/09 Q1011 NOSIG
2026-04-12 21:50:00,METAR LIML 122150Z 10007KT 9999 FEW030 SCT060 15/09 Q1011 NOSIG
2026-04-12 21:20:00,METAR LIML 122120Z 07006KT 040V110 9999 SCT050 15/07 Q1011 NOSIG
2026-04-12 20:50:00,METAR LIML 122050Z 08005KT 9999 BKN050 16/07 Q1011 NOSIG
2026-04-12 20:20:00,METAR LIML 122020Z 05004KT 9999 BKN050 16/07 Q1011 NOSIG
2026-04-12 19:50:00,METAR LIML 121950Z 06004KT 9999 BKN050 16/08 Q1011 NOSIG
2026-04-12 19:20:00,METAR LIML 121920Z 04004KT 9999 BKN045 16/08 Q1012 NOSIG
2026-04-12 18:50:00,METAR LIML 121850Z 11003KT 060V140 9999 BKN040 17/07 Q1012 NOSIG
2026-04-12 18:20:00,METAR LIML 121820Z 11007KT 060V140 9999 BKN040 17/07 Q1011 NOSIG
2026-04-12 17:50:00,METAR LIML 121750Z 12005KT 080V140 9999 BKN045 17/08 Q1011 NOSIG
2026-04-12 17:20:00,METAR LIML 121720Z 09004KT 040V110 9999 BKN045 17/06 Q1012 NOSIG
2026-04-12 16:50:00,METAR LIML 121650Z 07004KT 030V110 9999 BKN045 17/06 Q1012 NOSIG
2026-04-12 16:20:00,METAR LIML 121620Z 08005KT 050V110 9999 FEW030 BKN060 17/05 Q1012 NOSIG
2026-04-12 15:50:00,METAR LIML 121550Z 08005KT 050V110 9999 FEW030 BKN060 17/06 Q1012 NOSIG
2026-04-12 14:50:00,METAR LIML 121450Z 12007KT 9999 BKN040 17/05 Q1012 NOSIG
2026-04-12 14:20:00,METAR LIML 121420Z 14006KT 110V180 9999 BKN045 17/05 Q1013 NOSIG
2026-04-12 13:50:00,METAR LIML 121350Z 12007KT 080V160 9999 FEW030 BKN060 18/04 Q1013 NOSIG
2026-04-12 13:20:00,METAR LIML 121320Z 10009KT 070V130 9999 FEW030 BKN060 18/04 Q1013 NOSIG
2026-04-12 12:50:00,METAR LIML 121250Z 09009KT 060V120 9999 FEW030 BKN070 18/04 Q1013 NOSIG
2026-04-12 12:20:00,METAR LIML 121220Z 11008KT 060V130 9999 FEW030 BKN070 17/04 Q1014 NOSIG
2026-04-12 11:50:00,METAR LIML 121150Z 09007KT 040V120 9999 FEW030 BKN070 18/04 Q1014 NOSIG
2026-04-12 11:20:00,METAR LIML 121120Z 08008KT 050V110 9999 FEW030 BKN070 17/05 Q1014 NOSIG
2026-04-12 10:50:00,METAR LIML 121050Z 09007KT 060V120 9999 FEW040 SCT060 16/08 Q1015 NOSIG
2026-04-12 10:20:00,METAR LIML 121020Z 10008KT 050V140 9999 SCT060 16/08 Q1015 NOSIG
2026-04-12 09:50:00,METAR LIML 120950Z 10009KT 070V130 9999 SCT060 16/08 Q1015 NOSIG
2026-04-12 09:20:00,METAR LIML 120920Z 09008KT 070V130 9999 SCT060 15/09 Q1015 NOSIG
2026-04-12 08:50:00,METAR LIML 120850Z 09006KT 060V120 9999 SCT060 15/09 Q1015 NOSIG
2026-04-12 08:20:00,METAR LIML 120820Z 08006KT 050V110 9999 SCT060 14/09 Q1015 NOSIG
2026-04-12 07:50:00,METAR LIML 120750Z 08006KT 040V100 9999 SCT060 14/09 Q1015 NOSIG
2026-04-12 07:20:00,METAR LIML 120720Z 11008KT 9999 SCT060 14/09 Q1015 NOSIG
2026-04-12 06:50:00,METAR LIML 120650Z 09004KT 030V130 9999 SCT060 13/09 Q1015 NOSIG
2026-04-12 06:20:00,METAR LIML 120620Z 11005KT 070V140 9999 SCT070 13/09 Q1014 NOSIG
2026-04-12 05:50:00,METAR LIML 120550Z 10004KT 050V120 9999 SCT090 13/09 Q1014 NOSIG
2026-04-12 05:20:00,METAR LIML 120520Z 08004KT 9999 SCT090 13/09 Q1014 NOSIG
2026-04-12 04:50:00,METAR LIML 120450Z VRB01KT CAVOK 11/09 Q1014 NOSIG
2026-04-12 04:20:00,METAR LIML 120420Z 10003KT 070V130 CAVOK 13/09 Q1014 NOSIG
2026-04-12 03:50:00,METAR LIML 120350Z 07004KT CAVOK 13/09 Q1014 NOSIG
2026-04-12 03:20:00,METAR LIML 120320Z VRB02KT CAVOK 13/09 Q1014 NOSIG
2026-04-12 02:50:00,METAR LIML 120250Z 09006KT CAVOK 13/09 Q1014 NOSIG
2026-04-12 02:20:00,METAR LIML 120220Z 08007KT CAVOK 13/10 Q1014 NOSIG
2026-04-12 01:50:00,METAR LIML 120150Z 05004KT CAVOK 13/10 Q1014 NOSIG
2026-04-12 01:20:00,METAR LIML 120120Z 05004KT CAVOK 13/10 Q1014 NOSIG
2026-04-12 00:50:00,METAR LIML 120050Z 08007KT CAVOK 14/09 Q1014 NOSIG
2026-04-12 00:20:00,METAR LIML 120020Z 08008KT CAVOK 14/08 Q1014 NOSIG
2026-04-11 23:50:00,METAR LIML 112350Z 07005KT CAVOK 14/07 Q1015 NOSIG
2026-04-11 23:20:00,METAR LIML 112320Z VRB02KT CAVOK 14/08 Q1014 NOSIG
2026-04-11 22:50:00,METAR LIML 112250Z VRB02KT CAVOK 14/08 Q1014 NOSIG
2026-04-11 22:20:00,METAR LIML 112220Z 02003KT CAVOK 15/08 Q1014 NOSIG
2026-04-11 21:50:00,METAR LIML 112150Z VRB01KT CAVOK 14/09 Q1013 NOSIG
2026-04-11 21:20:00,METAR LIML 112120Z VRB01KT CAVOK 14/08 Q1014 NOSIG
2026-04-11 20:50:00,METAR LIML 112050Z VRB01KT CAVOK 15/08 Q1014 NOSIG
2026-04-11 20:20:00,METAR LIML 112020Z VRB01KT CAVOK 15/08 Q1014 NOSIG
2026-04-11 19:50:00,METAR LIML 111950Z VRB01KT CAVOK 15/09 Q1014 NOSIG
2026-04-11 19:20:00,METAR LIML 111920Z VRB02KT 9999 SCT100 16/07 Q1013 NOSIG
2026-04-11 18:50:00,METAR LIML 111850Z 17002KT 9999 SCT100 17/08 Q1013 NOSIG
2026-04-11 18:20:00,METAR LIML 111820Z 18002KT CAVOK 18/07 Q1013 NOSIG
2026-04-11 17:50:00,METAR LIML 111750Z 19003KT CAVOK 19/07 Q1013 NOSIG
2026-04-11 17:20:00,METAR LIML 111720Z 09003KT 050V110 CAVOK 20/06 Q1013 NOSIG
2026-04-11 16:50:00,METAR LIML 111650Z 18003KT 110V230 CAVOK 21/06 Q1013 NOSIG
2026-04-11 16:20:00,METAR LIML 111620Z 18003KT 120V250 CAVOK 21/06 Q1013 NOSIG
2026-04-11 15:50:00,METAR LIML 111550Z 19004KT 150V220 CAVOK 21/06 Q1013 NOSIG
2026-04-11 15:20:00,METAR LIML 111520Z 17004KT 120V210 CAVOK 21/06 Q1013 NOSIG
2026-04-11 14:50:00,METAR LIML 111450Z VRB03KT CAVOK 21/06 Q1013 NOSIG
2026-04-11 14:20:00,METAR LIML 111420Z VRB03KT CAVOK 21/06 Q1014 NOSIG
2026-04-11 13:50:00,METAR LIML 111350Z 11006KT 070V180 CAVOK 21/06 Q1014 NOSIG
2026-04-11 13:20:00,METAR LIML 111320Z 09006KT 030V140 CAVOK 21/06 Q1014 NOSIG
2026-04-11 12:50:00,METAR LIML 111250Z 07006KT 310V120 CAVOK 21/05 Q1015 NOSIG
2026-04-11 12:20:00,METAR LIML 111220Z VRB04KT CAVOK 20/04 Q1015 NOSIG
2026-04-11 11:50:00,METAR LIML 111150Z 15006KT 110V220 CAVOK 20/03 Q1015 NOSIG
2026-04-11 11:20:00,METAR LIML 111120Z 13007KT 100V180 CAVOK 19/03 Q1015 NOSIG
2026-04-11 10:50:00,METAR LIML 111050Z 12005KT 050V190 CAVOK 19/02 Q1016 NOSIG
2026-04-11 10:20:00,METAR LIML 111020Z VRB04KT CAVOK 19/04 Q1016 NOSIG
2026-04-11 09:50:00,METAR LIML 110950Z 14005KT 080V200 CAVOK 18/02 Q1016 NOSIG
2026-04-11 09:20:00,METAR LIML 110920Z 14005KT 040V210 CAVOK 18/03 Q1016 NOSIG
2026-04-11 08:50:00,METAR LIML 110850Z 11005KT 360V140 CAVOK 17/04 Q1016 NOSIG
2026-04-11 08:20:00,METAR LIML 110820Z 09004KT 050V170 CAVOK 16/05 Q1016 NOSIG
2026-04-11 07:50:00,METAR LIML 110750Z 10005KT CAVOK 15/05 Q1016 NOSIG
2026-04-11 07:20:00,METAR LIML 110720Z 11005KT 080V160 9999 FEW050 15/06 Q1016 NOSIG
2026-04-11 06:50:00,METAR LIML 110650Z 06003KT 020V100 9999 FEW050 14/05 Q1016 NOSIG
2026-04-11 06:20:00,METAR LIML 110620Z 04004KT 9999 FEW050 12/05 Q1016 NOSIG
2026-04-11 05:50:00,METAR LIML 110550Z 05004KT 020V080 CAVOK 12/05 Q1016 NOSIG
2026-04-11 05:20:00,METAR LIML 110520Z 04004KT CAVOK 12/05 Q1015 NOSIG
2026-04-11 04:50:00,METAR LIML 110450Z VRB02KT 9999 FEW040 11/05 Q1015 NOSIG
2026-04-11 04:20:00,METAR LIML 110420Z 06003KT 9999 FEW040 11/04 Q1015 NOSIG
2026-04-11 03:50:00,METAR LIML 110350Z 08004KT 9999 FEW040 12/05 Q1015 NOSIG
2026-04-11 03:20:00,METAR LIML 110320Z 07005KT 9999 FEW040 12/05 Q1015 NOSIG
2026-04-11 02:50:00,METAR LIML 110250Z 07006KT CAVOK 12/06 Q1015 NOSIG
2026-04-11 02:20:00,METAR LIML 110220Z 07005KT 9999 FEW040 12/06 Q1015 NOSIG
2026-04-11 01:50:00,METAR LIML 110150Z 07006KT 9999 FEW040 13/06 Q1015 NOSIG
2026-04-11 01:20:00,METAR LIML 110120Z 06006KT CAVOK 13/06 Q1015 NOSIG
2026-04-11 00:50:00,METAR LIML 110050Z 07005KT CAVOK 13/06 Q1015 NOSIG
2026-04-11 00:20:00,METAR LIML 110020Z 07006KT CAVOK 13/07 Q1015 NOSIG
2026-04-10 23:50:00,METAR LIML 102350Z 06005KT CAVOK 13/07 Q1015 NOSIG
2026-04-10 23:20:00,METAR LIML 102320Z 08005KT CAVOK 14/08 Q1015 NOSIG
2026-04-10 22:50:00,METAR LIML 102250Z 10008KT CAVOK 15/08 Q1015 NOSIG
2026-04-10 22:20:00,METAR LIML 102220Z 10008KT CAVOK 15/09 Q1015 NOSIG
2026-04-10 21:50:00,METAR LIML 102150Z 08006KT CAVOK 15/09 Q1014 NOSIG
2026-04-10 21:20:00,METAR LIML 102120Z 10006KT CAVOK 16/09 Q1014 NOSIG
2026-04-10 20:50:00,METAR LIML 102050Z 10006KT 060V120 CAVOK 16/09 Q1014 NOSIG
2026-04-10 20:20:00,METAR LIML 102020Z 09005KT CAVOK 17/09 Q1014 NOSIG
2026-04-10 19:50:00,METAR LIML 101950Z 09005KT CAVOK 17/09 Q1013 NOSIG
2026-04-10 19:20:00,METAR LIML 101920Z 11005KT 060V140 9999 FEW090 18/09 Q1013 NOSIG
2026-04-10 18:50:00,METAR LIML 101850Z 11005KT 050V130 9999 FEW090 18/09 Q1013 NOSIG
2026-04-10 18:20:00,METAR LIML 101820Z 10005KT 050V130 9999 FEW080 19/10 Q1012 NOSIG
2026-04-10 17:50:00,METAR LIML 101750Z 14007KT CAVOK 19/09 Q1012 NOSIG
2026-04-10 17:20:00,METAR LIML 101720Z 09006KT CAVOK 20/09 Q1012 NOSIG
2026-04-10 16:50:00,METAR LIML 101650Z 12006KT 070V150 9999 FEW080 20/09 Q1012 NOSIG
2026-04-10 16:20:00,METAR LIML 101620Z 11006KT 080V150 9999 FEW080 20/09 Q1012 NOSIG
2026-04-10 15:50:00,METAR LIML 101550Z 15005KT 070V210 9999 FEW080 21/10 Q1012 NOSIG
2026-04-10 15:20:00,METAR LIML 101520Z 08004KT 020V150 9999 FEW080 21/10 Q1012 NOSIG
2026-04-10 14:50:00,METAR LIML 101450Z VRB02KT 9999 FEW080 21/09 Q1012 NOSIG
2026-04-10 14:20:00,METAR LIML 101420Z VRB02KT 9999 FEW080 20/09 Q1012 NOSIG
2026-04-10 13:50:00,METAR LIML 101350Z VRB03KT 9999 FEW080 20/09 Q1013 NOSIG
2026-04-10 13:20:00,METAR LIML 101320Z VRB03KT 9999 FEW080 20/09 Q1013 NOSIG
2026-04-10 12:50:00,METAR LIML 101250Z VRB03KT 9999 FEW080 19/09 Q1013 NOSIG
2026-04-10 12:20:00,METAR LIML 101220Z VRB02KT CAVOK 19/08 Q1014 NOSIG
2026-04-10 11:50:00,METAR LIML 101150Z VRB03KT 9999 FEW090 18/08 Q1014 NOSIG
2026-04-10 11:20:00,METAR LIML 101120Z 21003KT 160V260 9999 FEW090 18/07 Q1014 NOSIG
2026-04-10 10:50:00,METAR LIML 101050Z VRB02KT CAVOK 17/07 Q1015 NOSIG
2026-04-10 10:20:00,METAR LIML 101020Z VRB03KT CAVOK 17/07 Q1015 NOSIG
2026-04-10 09:50:00,METAR LIML 100950Z 11004KT 020V180 CAVOK 16/07 Q1015 NOSIG
2026-04-10 09:20:00,METAR LIML 100920Z VRB02KT CAVOK 15/08 Q1016 NOSIG
2026-04-10 08:50:00,METAR LIML 100850Z 15003KT 100V200 9999 FEW090 14/07 Q1016 NOSIG
2026-04-10 08:20:00,METAR LIML 100820Z 16004KT 110V190 9999 FEW090 14/07 Q1016 NOSIG
2026-04-10 07:50:00,METAR LIML 100750Z 15004KT 110V190 9999 FEW090 14/07 Q1016 NOSIG
2026-04-10 07:20:00,METAR LIML 100720Z 13004KT 090V190 9999 FEW090 13/07 Q1015 NOSIG
2026-04-10 06:50:00,METAR LIML 100650Z 12005KT 080V140 CAVOK 13/07 Q1015 NOSIG
2026-04-10 06:20:00,METAR LIML 100620Z 07004KT 040V100 CAVOK 12/06 Q1016 NOSIG
2026-04-10 05:50:00,METAR LIML 100550Z 09003KT 040V130 CAVOK 11/06 Q1015 NOSIG
2026-04-10 05:20:00,METAR LIML 100520Z 08004KT 050V110 9999 FEW090 11/06 Q1015 NOSIG
2026-04-10 04:50:00,METAR LIML 100450Z 10004KT 070V130 9999 FEW090 11/06 Q1015 NOSIG
2026-04-10 04:20:00,METAR LIML 100420Z VRB02KT CAVOK 11/06 Q1015 NOSIG
2026-04-10 03:50:00,METAR LIML 100350Z 09004KT 050V110 CAVOK 12/06 Q1015 NOSIG
2026-04-10 03:20:00,METAR LIML 100320Z 08003KT CAVOK 11/06 Q1015 NOSIG
2026-04-10 02:50:00,METAR LIML 100250Z VRB02KT CAVOK 12/06 Q1015 NOSIG
2026-04-10 02:20:00,METAR LIML 100220Z 07003KT 040V100 CAVOK 12/06 Q1015 NOSIG
2026-04-10 01:50:00,METAR LIML 100150Z 09003KT CAVOK 12/07 Q1015 NOSIG
2026-04-10 01:20:00,METAR LIML 100120Z 07006KT CAVOK 12/07 Q1015 NOSIG
2026-04-10 00:50:00,METAR LIML 100050Z 07006KT CAVOK 12/07 Q1015 NOSIG
2026-04-10 00:20:00,METAR LIML 100020Z 06005KT CAVOK 12/07 Q1015 NOSIG
2026-04-09 23:50:00,METAR LIML 092350Z 07005KT CAVOK 13/08 Q1015 NOSIG
2026-04-09 23:20:00,METAR LIML 092320Z 08005KT CAVOK 13/08 Q1015 NOSIG
2026-04-09 22:50:00,METAR LIML 092250Z 07006KT CAVOK 14/08 Q1015 NOSIG
2026-04-09 22:20:00,METAR LIML 092220Z 09006KT CAVOK 15/08 Q1015 NOSIG
2026-04-09 21:50:00,METAR LIML 092150Z 09004KT CAVOK 16/07 Q1015 NOSIG
2026-04-09 21:20:00,METAR LIML 092120Z 11004KT CAVOK 16/07 Q1015 NOSIG
2026-04-09 20:50:00,METAR LIML 092050Z 12005KT CAVOK 17/07 Q1014 NOSIG
2026-04-09 20:20:00,METAR LIML 092020Z 12006KT 090V150 CAVOK 18/07 Q1014 NOSIG
2026-04-09 19:50:00,METAR LIML 091950Z 12005KT 080V140 CAVOK 18/07 Q1014 NOSIG
2026-04-09 19:20:00,METAR LIML 091920Z 12006KT 090V150 CAVOK 19/08 Q1014 NOSIG
2026-04-09 18:50:00,METAR LIML 091850Z 13005KT 090V150 CAVOK 19/08 Q1014 NOSIG
2026-04-09 18:20:00,METAR LIML 091820Z 13005KT 090V170 CAVOK 20/08 Q1013 NOSIG
2026-04-09 17:50:00,METAR LIML 091750Z 16004KT 120V180 CAVOK 20/08 Q1013 NOSIG
2026-04-09 17:20:00,METAR LIML 091720Z 16004KT CAVOK 21/08 Q1013 NOSIG
2026-04-09 16:50:00,METAR LIML 091650Z 17004KT CAVOK 22/08 Q1013 NOSIG
2026-04-09 16:20:00,METAR LIML 091620Z 15004KT 080V210 CAVOK 22/08 Q1013 NOSIG
2026-04-09 15:50:00,METAR LIML 091550Z 13004KT 040V190 CAVOK 22/08 Q1013 NOSIG
2026-04-09 15:20:00,METAR LIML 091520Z 15004KT 110V190 CAVOK 22/08 Q1014 NOSIG
2026-04-09 14:50:00,METAR LIML 091450Z 18004KT 130V280 CAVOK 22/08 Q1014 NOSIG
2026-04-09 14:20:00,METAR LIML 091420Z VRB04KT CAVOK 22/08 Q1015 NOSIG
2026-04-09 13:50:00,METAR LIML 091350Z VRB04KT CAVOK 22/08 Q1015 NOSIG
2026-04-09 13:20:00,METAR LIML 091320Z VRB04KT CAVOK 21/08 Q1015 NOSIG
2026-04-09 12:50:00,METAR LIML 091250Z 15004KT 100V230 CAVOK 21/08 Q1016 NOSIG
2026-04-09 12:20:00,METAR LIML 091220Z VRB04KT CAVOK 20/07 Q1016 NOSIG
2026-04-09 11:50:00,METAR LIML 091150Z 07004KT 350V110 CAVOK 20/07 Q1017 NOSIG
2026-04-09 11:20:00,METAR LIML 091120Z VRB04KT CAVOK 20/06 Q1017 NOSIG
2026-04-09 10:50:00,METAR LIML 091050Z 11006KT 070V160 CAVOK 19/06 Q1018 NOSIG
2026-04-09 10:20:00,METAR LIML 091020Z 19005KT 160V220 CAVOK 19/06 Q1018 NOSIG
2026-04-09 09:50:00,METAR LIML 090950Z 18006KT 150V210 CAVOK 18/06 Q1019 NOSIG
2026-04-09 09:20:00,METAR LIML 090920Z 12006KT 080V180 CAVOK 18/07 Q1019 NOSIG
2026-04-09 08:50:00,METAR LIML 090850Z 10007KT 060V130 CAVOK 17/07 Q1019 NOSIG
2026-04-09 08:20:00,METAR LIML 090820Z 11006KT 070V140 CAVOK 17/07 Q1019 NOSIG
2026-04-09 07:50:00,METAR LIML 090750Z 09006KT 060V130 CAVOK 16/06 Q1019 NOSIG
2026-04-09 07:20:00,METAR LIML 090720Z 08005KT 040V120 CAVOK 15/06 Q1019 NOSIG
2026-04-09 06:50:00,METAR LIML 090650Z 07003KT 040V100 9999 FEW040 15/06 Q1019 NOSIG
2026-04-09 06:20:00,METAR LIML 090620Z VRB02KT 9999 FEW040 14/06 Q1019 NOSIG
2026-04-09 05:50:00,METAR LIML 090550Z 04003KT 9999 FEW040 13/06 Q1019 NOSIG
2026-04-09 05:20:00,METAR LIML 090520Z 07004KT 040V130 9999 SCT040 13/05 Q1019 NOSIG
2026-04-09 04:50:00,METAR LIML 090450Z 05003KT 9999 SCT040 12/04 Q1019 NOSIG
2026-04-09 04:20:00,METAR LIML 090420Z 05004KT CAVOK 12/04 Q1019 NOSIG
2026-04-09 03:50:00,METAR LIML 090350Z 07004KT CAVOK 12/05 Q1019 NOSIG
2026-04-09 03:20:00,METAR LIML 090320Z 08006KT 040V110 CAVOK 13/05 Q1019 NOSIG
2026-04-09 02:50:00,METAR LIML 090250Z 06005KT CAVOK 13/05 Q1019 NOSIG
2026-04-09 02:20:00,METAR LIML 090220Z 07006KT CAVOK 13/05 Q1019 NOSIG
2026-04-09 01:50:00,METAR LIML 090150Z 07005KT CAVOK 13/05 Q1019 NOSIG
2026-04-09 01:20:00,METAR LIML 090120Z 07005KT CAVOK 13/06 Q1019 NOSIG
2026-04-09 00:50:00,METAR LIML 090050Z 08005KT CAVOK 14/07 Q1019 NOSIG
2026-04-09 00:20:00,METAR LIML 090020Z 07006KT CAVOK 14/08 Q1019 NOSIG
2026-04-08 23:50:00,METAR LIML 082350Z 06005KT CAVOK 14/09 Q1019 NOSIG
2026-04-08 23:20:00,METAR LIML 082320Z 07006KT CAVOK 15/09 Q1019 NOSIG
2026-04-08 22:50:00,METAR LIML 082250Z 07005KT CAVOK 15/10 Q1019 NOSIG
2026-04-08 22:20:00,METAR LIML 082220Z 08005KT CAVOK 16/11 Q1018 NOSIG
2026-04-08 21:50:00,METAR LIML 082150Z 10006KT CAVOK 17/11 Q1018 NOSIG
2026-04-08 21:20:00,METAR LIML 082120Z 12008KT CAVOK 18/11 Q1018 NOSIG
2026-04-08 20:50:00,METAR LIML 082050Z 12007KT CAVOK 19/12 Q1018 NOSIG
2026-04-08 20:20:00,METAR LIML 082020Z 13005KT CAVOK 20/11 Q1017 NOSIG
2026-04-08 19:50:00,METAR LIML 081950Z 13005KT 100V160 CAVOK 20/12 Q1017 NOSIG
2026-04-08 19:20:00,METAR LIML 081920Z 12004KT 080V150 CAVOK 21/12 Q1017 NOSIG
2026-04-08 18:50:00,METAR LIML 081850Z 10004KT 070V140 CAVOK 21/12 Q1017 NOSIG
2026-04-08 18:20:00,METAR LIML 081820Z 12005KT 080V150 CAVOK 22/12 Q1017 NOSIG
2026-04-08 17:50:00,METAR LIML 081750Z 11006KT 070V150 CAVOK 23/12 Q1017 NOSIG
2026-04-08 17:20:00,METAR LIML 081720Z 15004KT 090V190 CAVOK 23/11 Q1016 NOSIG
2026-04-08 16:50:00,METAR LIML 081650Z 12004KT 060V170 CAVOK 24/12 Q1016 NOSIG
2026-04-08 16:20:00,METAR LIML 081620Z 16003KT 120V220 CAVOK 24/11 Q1017 NOSIG
2026-04-08 15:50:00,METAR LIML 081550Z 19003KT 140V240 CAVOK 24/11 Q1017 NOSIG
2026-04-08 15:20:00,METAR LIML 081520Z 18004KT 130V230 CAVOK 24/12 Q1017 NOSIG
2026-04-08 14:50:00,METAR LIML 081450Z VRB04KT CAVOK 24/12 Q1017 NOSIG
2026-04-08 14:20:00,METAR LIML 081420Z 15004KT 080V250 CAVOK 24/12 Q1018 NOSIG
2026-04-08 13:50:00,METAR LIML 081350Z 14004KT 080V220 CAVOK 24/12 Q1018 NOSIG
2026-04-08 13:20:00,METAR LIML 081320Z VRB03KT CAVOK 23/11 Q1018 NOSIG
2026-04-08 12:50:00,METAR LIML 081250Z VRB02KT CAVOK 23/11 Q1019 NOSIG
2026-04-08 12:20:00,METAR LIML 081220Z VRB04KT CAVOK 23/10 Q1019 NOSIG
2026-04-08 11:50:00,METAR LIML 081150Z VRB04KT CAVOK 22/10 Q1019 NOSIG
2026-04-08 11:20:00,METAR LIML 081120Z 15005KT 100V220 CAVOK 22/10 Q1020 NOSIG
2026-04-08 10:50:00,METAR LIML 081050Z VRB03KT CAVOK 21/10 Q1020 NOSIG
2026-04-08 10:20:00,METAR LIML 081020Z 11003KT 050V200 CAVOK 20/10 Q1020 NOSIG
2026-04-08 09:50:00,METAR LIML 080950Z VRB02KT CAVOK 20/11 Q1021 NOSIG
2026-04-08 09:20:00,METAR LIML 080920Z VRB02KT CAVOK 19/10 Q1021 NOSIG
2026-04-08 08:50:00,METAR LIML 080850Z 26003KT 210V350 CAVOK 18/10 Q1021 NOSIG
2026-04-08 08:20:00,METAR LIML 080820Z 27004KT 240V300 CAVOK 17/10 Q1021 NOSIG
2026-04-08 07:50:00,METAR LIML 080750Z 27005KT 240V300 CAVOK 16/10 Q1020 NOSIG
2026-04-08 07:20:00,METAR LIML 080720Z VRB02KT CAVOK 16/10 Q1020 NOSIG
2026-04-08 06:50:00,METAR LIML 080650Z VRB01KT CAVOK 15/10 Q1020 NOSIG
2026-04-08 06:20:00,METAR LIML 080620Z VRB02KT CAVOK 14/10 Q1020 NOSIG
2026-04-08 05:50:00,METAR LIML 080550Z VRB02KT CAVOK 12/10 Q1020 NOSIG
2026-04-08 05:20:00,METAR LIML 080520Z VRB01KT CAVOK 11/09 Q1019 NOSIG
2026-04-08 04:50:00,METAR LIML 080450Z VRB01KT CAVOK 12/09 Q1019 NOSIG
2026-04-08 04:20:00,METAR LIML 080420Z VRB02KT CAVOK 13/10 Q1019 NOSIG
2026-04-08 03:50:00,METAR LIML 080350Z 30002KT CAVOK 13/10 Q1019 NOSIG
2026-04-08 03:20:00,METAR LIML 080320Z 33003KT 290V360 CAVOK 13/10 Q1019 NOSIG
2026-04-08 02:50:00,METAR LIML 080250Z 31003KT 270V340 CAVOK 14/10 Q1019 NOSIG
2026-04-08 02:20:00,METAR LIML 080220Z 29004KT 240V330 CAVOK 14/10 Q1019 NOSIG
2026-04-08 01:50:00,METAR LIML 080150Z 28006KT CAVOK 14/10 Q1019 NOSIG
2026-04-08 01:20:00,METAR LIML 080120Z 28005KT 250V310 CAVOK 14/10 Q1019 NOSIG
2026-04-08 00:50:00,METAR LIML 080050Z 30004KT 260V330 CAVOK 14/10 Q1019 NOSIG
2026-04-08 00:20:00,METAR LIML 080020Z 27005KT 250V310 CAVOK 14/10 Q1019 NOSIG
2026-04-07 23:50:00,METAR LIML 072350Z 28004KT 230V320 CAVOK 14/10 Q1019 NOSIG
2026-04-07 23:20:00,METAR LIML 072320Z 27005KT 230V310 CAVOK 14/10 Q1019 NOSIG
2026-04-07 22:50:00,METAR LIML 072250Z 27006KT 240V300 CAVOK 15/10 Q1019 NOSIG
2026-04-07 22:20:00,METAR LIML 072220Z 27007KT 240V300 CAVOK 15/10 Q1019 NOSIG
2026-04-07 21:50:00,METAR LIML 072150Z 28007KT 240V310 CAVOK 15/10 Q1019 NOSIG
2026-04-07 21:20:00,METAR LIML 072120Z 28007KT CAVOK 15/10 Q1019 NOSIG
2026-04-07 20:50:00,METAR LIML 072050Z 27006KT CAVOK 16/10 Q1019 NOSIG
2026-04-07 20:20:00,METAR LIML 072020Z 27006KT CAVOK 16/10 Q1019 NOSIG
2026-04-07 19:50:00,METAR LIML 071950Z 26008KT 230V300 CAVOK 17/10 Q1018 NOSIG
2026-04-07 19:20:00,METAR LIML 071920Z 26006KT 220V290 CAVOK 17/11 Q1018 NOSIG
2026-04-07 18:50:00,METAR LIML 071850Z 25006KT 230V290 CAVOK 18/11 Q1018 NOSIG
2026-04-07 18:20:00,METAR LIML 071820Z 24006KT 200V270 CAVOK 20/11 Q1018 NOSIG
2026-04-07 17:50:00,METAR LIML 071750Z 23006KT 200V280 CAVOK 21/11 Q1018 NOSIG
2026-04-07 17:20:00,METAR LIML 071720Z 24007KT 200V270 CAVOK 22/11 Q1018 NOSIG
2026-04-07 16:50:00,METAR LIML 071650Z 24007KT 200V290 CAVOK 24/11 Q1017 NOSIG
2026-04-07 16:20:00,METAR LIML 071620Z 24005KT 200V310 CAVOK 26/11 Q1017 NOSIG
2026-04-07 15:50:00,METAR LIML 071550Z 25005KT 190V290 CAVOK 26/10 Q1018 NOSIG
2026-04-07 15:20:00,METAR LIML 071520Z 24004KT 190V290 CAVOK 26/10 Q1018 NOSIG
2026-04-07 14:50:00,METAR LIML 071450Z 24005KT 170V330 CAVOK 25/10 Q1018 NOSIG
2026-04-07 14:20:00,METAR LIML 071420Z 26005KT 200V310 CAVOK 25/11 Q1018 NOSIG
2026-04-07 13:50:00,METAR LIML 071350Z 25006KT 200V310 CAVOK 25/10 Q1019 NOSIG
2026-04-07 13:20:00,METAR LIML 071320Z 22005KT 170V310 CAVOK 24/10 Q1019 NOSIG
2026-04-07 12:50:00,METAR LIML 071250Z 25004KT 180V320 CAVOK 24/11 Q1020 NOSIG
2026-04-07 12:20:00,METAR LIML 071220Z 23004KT 150V320 CAVOK 23/10 Q1020 NOSIG
2026-04-07 11:50:00,METAR LIML 071150Z 22005KT 170V280 CAVOK 23/11 Q1021 NOSIG
2026-04-07 11:20:00,METAR LIML 071120Z VRB04KT CAVOK 22/11 Q1021 NOSIG
2026-04-07 10:50:00,METAR LIML 071050Z 30004KT 250V010 CAVOK 21/11 Q1021 NOSIG
2026-04-07 10:20:00,METAR LIML 071020Z 27005KT 160V320 CAVOK 20/10 Q1022 NOSIG
2026-04-07 09:50:00,METAR LIML 070950Z 27005KT 200V330 CAVOK 20/11 Q1022 NOSIG
2026-04-07 09:20:00,METAR LIML 070920Z 24005KT 200V280 CAVOK 19/11 Q1022 NOSIG
2026-04-07 08:50:00,METAR LIML 070850Z 24005KT 200V290 CAVOK 18/11 Q1022 NOSIG
2026-04-07 08:20:00,METAR LIML 070820Z 25005KT 210V300 CAVOK 17/10 Q1022 NOSIG
2026-04-07 07:50:00,METAR LIML 070750Z 26007KT CAVOK 16/10 Q1022 NOSIG
2026-04-07 07:20:00,METAR LIML 070720Z 26006KT 220V300 CAVOK 16/10 Q1022 NOSIG
2026-04-07 06:50:00,METAR LIML 070650Z 26006KT 230V300 CAVOK 15/10 Q1022 NOSIG
2026-04-07 06:20:00,METAR LIML 070620Z 26004KT 230V290 CAVOK 14/10 Q1022 NOSIG
2026-04-07 05:50:00,METAR LIML 070550Z 27003KT 240V310 CAVOK 14/10 Q1022 NOSIG
2026-04-07 05:20:00,METAR LIML 070520Z 28004KT 250V310 CAVOK 13/10 Q1022 NOSIG
2026-04-07 04:50:00,METAR LIML 070450Z 27004KT 230V300 CAVOK 13/10 Q1022 NOSIG
2026-04-07 04:20:00,METAR LIML 070420Z 28004KT 250V310 CAVOK 13/09 Q1022 NOSIG
2026-04-07 03:50:00,METAR LIML 070350Z 28004KT 260V320 CAVOK 13/09 Q1022 NOSIG
2026-04-07 03:20:00,METAR LIML 070320Z 28003KT CAVOK 12/09 Q1022 NOSIG
2026-04-07 02:50:00,METAR LIML 070250Z 28004KT 250V310 CAVOK 13/09 Q1022 NOSIG
2026-04-07 02:20:00,METAR LIML 070220Z VRB02KT CAVOK 13/09 Q1022 NOSIG
2026-04-07 01:50:00,METAR LIML 070150Z 29003KT 250V330 CAVOK 13/08 Q1022 NOSIG
2026-04-07 01:20:00,METAR LIML 070120Z 29003KT 260V320 CAVOK 14/09 Q1022 NOSIG
2026-04-07 00:50:00,METAR LIML 070050Z 28003KT 270V330 CAVOK 13/08 Q1022 NOSIG
2026-04-07 00:20:00,METAR LIML 070020Z 29003KT CAVOK 14/09 Q1022 NOSIG
2026-04-06 23:50:00,METAR LIML 062350Z 29003KT 260V320 CAVOK 14/09 Q1022 NOSIG
2026-04-06 23:20:00,METAR LIML 062320Z VRB01KT CAVOK 14/08 Q1022 NOSIG
2026-04-06 22:50:00,METAR LIML 062250Z VRB02KT CAVOK 15/08 Q1022 NOSIG
2026-04-06 22:20:00,METAR LIML 062220Z 32003KT 270V010 CAVOK 16/08 Q1021 NOSIG
2026-04-06 21:50:00,METAR LIML 062150Z 29006KT CAVOK 17/09 Q1021 NOSIG
2026-04-06 21:20:00,METAR LIML 062120Z 27006KT CAVOK 17/09 Q1021 NOSIG
2026-04-06 20:50:00,METAR LIML 062050Z 27006KT CAVOK 18/09 Q1021 NOSIG
2026-04-06 20:20:00,METAR LIML 062020Z 27005KT CAVOK 18/10 Q1021 NOSIG
2026-04-06 19:50:00,METAR LIML 061950Z 25005KT 210V280 CAVOK 19/10 Q1021 NOSIG
2026-04-06 19:20:00,METAR LIML 061920Z 25005KT 210V280 CAVOK 20/11 Q1020 NOSIG
2026-04-06 18:50:00,METAR LIML 061850Z 23005KT 200V280 CAVOK 22/10 Q1020 NOSIG
2026-04-06 18:20:00,METAR LIML 061820Z VRB02KT CAVOK 21/08 Q1020 NOSIG
2026-04-06 17:50:00,METAR LIML 061750Z 22003KT 190V260 CAVOK 24/07 Q1019 NOSIG
2026-04-06 17:20:00,METAR LIML 061720Z 21004KT 190V250 CAVOK 25/08 Q1019 NOSIG
2026-04-06 16:50:00,METAR LIML 061650Z 26003KT 210V300 CAVOK 26/08 Q1019 NOSIG
2026-04-06 16:20:00,METAR LIML 061620Z 26004KT 210V290 CAVOK 26/07 Q1019 NOSIG
2026-04-06 15:50:00,METAR LIML 061550Z VRB05KT CAVOK 26/08 Q1020 NOSIG
2026-04-06 14:50:00,METAR LIML 061450Z 24005KT 190V270 CAVOK 26/09 Q1020 NOSIG
2026-04-06 14:20:00,METAR LIML 061420Z 25006KT 210V300 CAVOK 25/09 Q1020 NOSIG
2026-04-06 13:50:00,METAR LIML 061350Z 22005KT 180V270 CAVOK 25/09 Q1021 NOSIG
2026-04-06 13:20:00,METAR LIML 061320Z VRB03KT CAVOK 25/09 Q1021 NOSIG
2026-04-06 12:50:00,METAR LIML 061250Z VRB05KT CAVOK 24/10 Q1022 NOSIG
2026-04-06 12:20:00,METAR LIML 061220Z VRB05KT CAVOK 24/11 Q1022 NOSIG
2026-04-06 11:50:00,METAR LIML 061150Z 22005KT 170V280 CAVOK 23/10 Q1022 NOSIG
2026-04-06 11:20:00,METAR LIML 061120Z VRB04KT CAVOK 22/10 Q1023 NOSIG
2026-04-06 10:50:00,METAR LIML 061050Z 27004KT 180V310 CAVOK 21/10 Q1023 NOSIG
2026-04-06 10:20:00,METAR LIML 061020Z 27006KT 250V310 CAVOK 20/11 Q1023 NOSIG
2026-04-06 09:50:00,METAR LIML 060950Z 24005KT 190V290 CAVOK 20/11 Q1024 NOSIG
2026-04-06 09:20:00,METAR LIML 060920Z 24006KT 170V290 CAVOK 19/10 Q1024 NOSIG
2026-04-06 08:50:00,METAR LIML 060850Z 22005KT 190V270 CAVOK 18/09 Q1024 NOSIG
2026-04-06 08:20:00,METAR LIML 060820Z 26005KT 220V300 CAVOK 17/09 Q1024 NOSIG
2026-04-06 07:50:00,METAR LIML 060750Z 23005KT 190V290 CAVOK 16/09 Q1023 NOSIG
2026-04-06 07:20:00,METAR LIML 060720Z 26004KT 220V290 CAVOK 15/09 Q1023 NOSIG
2026-04-06 06:50:00,METAR LIML 060650Z VRB02KT CAVOK 14/09 Q1023 NOSIG
2026-04-06 06:20:00,METAR LIML 060620Z VRB02KT 9999 FEW100 12/08 Q1023 NOSIG
2026-04-06 05:50:00,METAR LIML 060550Z VRB02KT 9999 FEW100 13/08 Q1023 NOSIG
2026-04-06 05:20:00,METAR LIML 060520Z VRB02KT CAVOK 12/08 Q1023 NOSIG
2026-04-06 04:50:00,METAR LIML 060450Z 27003KT CAVOK 13/08 Q1023 NOSIG
2026-04-06 04:20:00,METAR LIML 060420Z 28003KT 250V310 CAVOK 13/07 Q1023 NOSIG
2026-04-06 03:50:00,METAR LIML 060350Z 28004KT 250V310 CAVOK 13/07 Q1023 NOSIG
2026-04-06 03:20:00,METAR LIML 060320Z 29004KT CAVOK 14/07 Q1022 NOSIG
2026-04-06 02:50:00,METAR LIML 060250Z VRB02KT CAVOK 14/07 Q1023 NOSIG
2026-04-06 02:20:00,METAR LIML 060220Z 30005KT CAVOK 15/07 Q1023 NOSIG
2026-04-06 01:50:00,METAR LIML 060150Z 29004KT 250V320 CAVOK 15/07 Q1022 NOSIG
2026-04-06 01:20:00,METAR LIML 060120Z 28005KT 260V320 CAVOK 15/07 Q1022 NOSIG
2026-04-06 00:50:00,METAR LIML 060050Z 30005KT CAVOK 16/06 Q1023 NOSIG
2026-04-06 00:20:00,METAR LIML 060020Z 29004KT 260V320 CAVOK 16/06 Q1023 NOSIG
2026-04-05 23:50:00,METAR LIML 052350Z 29005KT 260V330 CAVOK 16/06 Q1023 NOSIG
2026-04-05 23:20:00,METAR LIML 052320Z 30005KT CAVOK 16/06 Q1023 NOSIG
2026-04-05 22:50:00,METAR LIML 052250Z 28006KT CAVOK 16/06 Q1022 NOSIG
2026-04-05 22:20:00,METAR LIML 052220Z 27005KT CAVOK 16/06 Q1023 NOSIG
2026-04-05 21:50:00,METAR LIML 052150Z 28006KT CAVOK 16/06 Q1022 NOSIG
2026-04-05 21:20:00,METAR LIML 052120Z 27005KT CAVOK 17/06 Q1022 NOSIG
2026-04-05 20:50:00,METAR LIML 052050Z 27005KT 240V300 CAVOK 18/06 Q1022 NOSIG
2026-04-05 20:20:00,METAR LIML 052020Z 25003KT CAVOK 18/06 Q1022 NOSIG
2026-04-05 19:50:00,METAR LIML 051950Z 22005KT 180V240 CAVOK 18/06 Q1022 NOSIG
2026-04-05 19:20:00,METAR LIML 051920Z 17003KT CAVOK 17/06 Q1022 NOSIG
2026-04-05 18:50:00,METAR LIML 051850Z 20001KT CAVOK 17/07 Q1021 NOSIG
2026-04-05 18:20:00,METAR LIML 051820Z 22001KT CAVOK 18/07 Q1021 NOSIG
2026-04-05 17:50:00,METAR LIML 051750Z VRB01KT CAVOK 21/05 Q1021 NOSIG
2026-04-05 17:20:00,METAR LIML 051720Z 25001KT CAVOK 24/04 Q1021 NOSIG
2026-04-05 16:50:00,METAR LIML 051650Z VRB03KT CAVOK 24/04 Q1021 NOSIG
2026-04-05 16:20:00,METAR LIML 051620Z 29003KT 170V320 CAVOK 24/04 Q1021 NOSIG
2026-04-05 15:50:00,METAR LIML 051550Z VRB02KT CAVOK 24/04 Q1021 NOSIG
2026-04-05 15:20:00,METAR LIML 051520Z 22005KT 170V280 CAVOK 24/04 Q1021 NOSIG
2026-04-05 14:50:00,METAR LIML 051450Z 21004KT 160V280 CAVOK 24/03 Q1021 NOSIG
2026-04-05 12:50:00,METAR LIML 051250Z VRB04KT CAVOK 23/05 Q1023 NOSIG
2026-04-05 12:20:00,METAR LIML 051220Z 17004KT 120V230 CAVOK 22/05 Q1023 NOSIG
2026-04-05 11:50:00,METAR LIML 051150Z 19004KT 140V240 CAVOK 22/05 Q1023 NOSIG
2026-04-05 11:20:00,METAR LIML 051120Z VRB03KT CAVOK 22/07 Q1024 NOSIG
2026-04-05 10:50:00,METAR LIML 051050Z VRB03KT CAVOK 20/05 Q1024 NOSIG
2026-04-05 10:20:00,METAR LIML 051020Z 15004KT 100V210 CAVOK 20/05 Q1024 NOSIG
2026-04-05 09:50:00,METAR LIML 050950Z VRB02KT CAVOK 19/05 Q1024 NOSIG
2026-04-05 09:20:00,METAR LIML 050920Z VRB02KT CAVOK 18/05 Q1024 NOSIG
2026-04-05 08:50:00,METAR LIML 050850Z VRB01KT CAVOK 17/05 Q1024 NOSIG
2026-04-05 08:20:00,METAR LIML 050820Z VRB02KT CAVOK 17/05 Q1024 NOSIG
2026-04-05 07:50:00,METAR LIML 050750Z 17003KT 140V200 CAVOK 15/05 Q1024 NOSIG
2026-04-05 07:20:00,METAR LIML 050720Z 19002KT CAVOK 14/07 Q1024 NOSIG
2026-04-05 06:50:00,METAR LIML 050650Z 18002KT CAVOK 12/07 Q1024 NOSIG
2026-04-05 06:20:00,METAR LIML 050620Z VRB01KT CAVOK 10/06 Q1024 NOSIG
2026-04-05 05:50:00,METAR LIML 050550Z VRB01KT CAVOK 09/06 Q1023 NOSIG
2026-04-05 05:20:00,METAR LIML 050520Z 32001KT CAVOK 08/06 Q1023 NOSIG
2026-04-05 04:50:00,METAR LIML 050450Z 00000KT CAVOK 08/05 Q1023 NOSIG
2026-04-05 04:20:00,METAR LIML 050420Z 36001KT CAVOK 08/05 Q1023 NOSIG
2026-04-05 03:50:00,METAR LIML 050350Z 02003KT CAVOK 09/04 Q1023 NOSIG
2026-04-05 03:20:00,METAR LIML 050320Z VRB01KT CAVOK 08/05 Q1023 NOSIG
2026-04-05 02:50:00,METAR LIML 050250Z 01001KT CAVOK 09/05 Q1023 NOSIG
2026-04-05 02:20:00,METAR LIML 050220Z 03002KT CAVOK 10/05 Q1022 NOSIG
2026-04-05 01:50:00,METAR LIML 050150Z VRB01KT CAVOK 10/05 Q1022 NOSIG
2026-04-05 01:20:00,METAR LIML 050120Z VRB02KT CAVOK 11/05 Q1022 NOSIG
2026-04-05 00:50:00,METAR LIML 050050Z 02003KT CAVOK 11/05 Q1022 NOSIG
2026-04-05 00:20:00,METAR LIML 050020Z 36003KT CAVOK 10/05 Q1022 NOSIG
2026-04-04 23:50:00,METAR LIML 042350Z 01002KT CAVOK 10/05 Q1022 NOSIG
2026-04-04 23:20:00,METAR LIML 042320Z 02002KT CAVOK 12/05 Q1022 NOSIG
2026-04-04 22:50:00,METAR LIML 042250Z VRB02KT CAVOK 11/05 Q1022 NOSIG
2026-04-04 22:20:00,METAR LIML 042220Z VRB02KT CAVOK 12/05 Q1022 NOSIG
2026-04-04 21:50:00,METAR LIML 042150Z 02002KT CAVOK 12/05 Q1022 NOSIG
2026-04-04 21:20:00,METAR LIML 042120Z 01002KT CAVOK 13/05 Q1021 NOSIG
2026-04-04 20:50:00,METAR LIML 042050Z VRB01KT CAVOK 14/05 Q1021 NOSIG
2026-04-04 20:20:00,METAR LIML 042020Z 07003KT 040V190 CAVOK 16/04 Q1021 NOSIG
2026-04-04 19:50:00,METAR LIML 041950Z 09003KT 070V130 CAVOK 17/03 Q1021 NOSIG
2026-04-04 19:20:00,METAR LIML 041920Z 12003KT CAVOK 17/03 Q1021 NOSIG
2026-04-04 18:50:00,METAR LIML 041850Z 11004KT CAVOK 18/03 Q1020 NOSIG
2026-04-04 18:20:00,METAR LIML 041820Z 09004KT CAVOK 19/03 Q1020 NOSIG
2026-04-04 17:50:00,METAR LIML 041750Z 09006KT CAVOK 20/03 Q1020 NOSIG
2026-04-04 17:20:00,METAR LIML 041720Z 09005KT CAVOK 21/02 Q1019 NOSIG
2026-04-04 16:50:00,METAR LIML 041650Z 12005KT 080V160 CAVOK 21/02 Q1019 NOSIG
2026-04-04 16:20:00,METAR LIML 041620Z VRB02KT CAVOK 22/01 Q1019 NOSIG
2026-04-04 15:50:00,METAR LIML 041550Z 17004KT 130V200 CAVOK 22/03 Q1019 NOSIG
2026-04-04 15:20:00,METAR LIML 041520Z 12004KT 070V160 CAVOK 22/03 Q1019 NOSIG
2026-04-04 14:50:00,METAR LIML 041450Z VRB02KT CAVOK 22/02 Q1019 NOSIG
2026-04-04 14:20:00,METAR LIML 041420Z VRB02KT CAVOK 22/04 Q1020 NOSIG
2026-04-04 13:50:00,METAR LIML 041350Z VRB02KT CAVOK 21/M00 Q1020 NOSIG
2026-04-04 13:20:00,METAR LIML 041320Z VRB04KT CAVOK 22/00 Q1020 NOSIG
2026-04-04 12:50:00,METAR LIML 041250Z 16003KT 110V250 CAVOK 21/03 Q1020 NOSIG
2026-04-04 12:20:00,METAR LIML 041220Z 13004KT 040V210 CAVOK 20/04 Q1021 NOSIG
2026-04-04 11:50:00,METAR LIML 041150Z 10004KT 020V160 CAVOK 19/04 Q1021 NOSIG
2026-04-04 11:20:00,METAR LIML 041120Z 15004KT 060V210 CAVOK 18/04 Q1021 NOSIG
2026-04-04 10:50:00,METAR LIML 041050Z VRB05KT CAVOK 18/04 Q1021 NOSIG
2026-04-04 10:20:00,METAR LIML 041020Z 12005KT 060V160 CAVOK 18/04 Q1021 NOSIG
2026-04-04 09:50:00,METAR LIML 040950Z 10007KT 040V180 CAVOK 17/02 Q1021 NOSIG
2026-04-04 09:20:00,METAR LIML 040920Z 08006KT 030V110 CAVOK 17/02 Q1021 NOSIG
2026-04-04 08:50:00,METAR LIML 040850Z 09007KT 050V120 CAVOK 16/01 Q1021 NOSIG
2026-04-04 08:20:00,METAR LIML 040820Z 08008KT CAVOK 15/02 Q1021 NOSIG
2026-04-04 07:50:00,METAR LIML 040750Z 07005KT CAVOK 15/M00 Q1021 NOSIG
2026-04-04 07:20:00,METAR LIML 040720Z 04004KT 010V080 CAVOK 13/M00 Q1021 NOSIG
2026-04-04 06:50:00,METAR LIML 040650Z 11004KT CAVOK 12/M00 Q1020 NOSIG
2026-04-04 06:20:00,METAR LIML 040620Z VRB01KT CAVOK 09/03 Q1020 NOSIG
2026-04-04 05:50:00,METAR LIML 040550Z VRB02KT CAVOK 08/03 Q1019 NOSIG
2026-04-04 05:20:00,METAR LIML 040520Z 01003KT CAVOK 08/01 Q1019 NOSIG
2026-04-04 04:50:00,METAR LIML 040450Z VRB01KT 9999 SCT090 08/03 Q1018 NOSIG
2026-04-04 04:20:00,METAR LIML 040420Z 18001KT 9999 BKN090 08/03 Q1018 NOSIG
2026-04-04 03:50:00,METAR LIML 040350Z VRB01KT 9999 BKN090 08/03 Q1018 NOSIG
2026-04-04 03:20:00,METAR LIML 040320Z VRB02KT 9999 SCT090 08/03 Q1018 NOSIG
2026-04-04 02:50:00,METAR LIML 040250Z 03004KT CAVOK 08/01 Q1018 NOSIG
2026-04-04 02:20:00,METAR LIML 040220Z VRB02KT CAVOK 09/01 Q1017 NOSIG
2026-04-04 01:50:00,METAR LIML 040150Z VRB01KT CAVOK 07/02 Q1017 NOSIG
2026-04-04 01:20:00,METAR LIML 040120Z VRB01KT CAVOK 07/02 Q1017 NOSIG
2026-04-04 00:50:00,METAR LIML 040050Z VRB01KT CAVOK 08/02 Q1017 NOSIG
2026-04-04 00:20:00,METAR LIML 040020Z 02003KT CAVOK 08/01 Q1017 NOSIG
2026-04-03 23:50:00,METAR LIML 032350Z VRB01KT CAVOK 08/02 Q1017 NOSIG
2026-04-03 23:20:00,METAR LIML 032320Z VRB01KT CAVOK 10/01 Q1016 NOSIG
2026-04-03 22:50:00,METAR LIML 032250Z 05003KT 020V080 CAVOK 11/01 Q1016 NOSIG
2026-04-03 22:20:00,METAR LIML 032220Z VRB02KT CAVOK 11/02 Q1016 NOSIG
2026-04-03 21:50:00,METAR LIML 032150Z 25003KT 210V280 CAVOK 11/01 Q1015 NOSIG
2026-04-03 21:20:00,METAR LIML 032120Z 25003KT 220V290 CAVOK 12/01 Q1015 NOSIG
2026-04-03 20:50:00,METAR LIML 032050Z 26004KT CAVOK 13/01 Q1015 NOSIG
2026-04-03 20:20:00,METAR LIML 032020Z VRB02KT CAVOK 13/01 Q1015 NOSIG
2026-04-03 19:50:00,METAR LIML 031950Z 27002KT CAVOK 13/01 Q1014 NOSIG
2026-04-03 19:20:00,METAR LIML 031920Z 19002KT CAVOK 15/00 Q1014 NOSIG
2026-04-03 18:50:00,METAR LIML 031850Z VRB02KT CAVOK 15/00 Q1014 NOSIG
2026-04-03 18:20:00,METAR LIML 031820Z 22002KT CAVOK 17/M01 Q1013 NOSIG
2026-04-03 17:50:00,METAR LIML 031750Z 22004KT CAVOK 19/M02 Q1013 NOSIG
2026-04-03 17:20:00,METAR LIML 031720Z 23004KT 200V260 CAVOK 21/M02 Q1012 NOSIG
2026-04-03 16:50:00,METAR LIML 031650Z 21007KT CAVOK 21/M03 Q1012 NOSIG
2026-04-03 16:20:00,METAR LIML 031620Z 22006KT 190V260 CAVOK 22/M02 Q1012 NOSIG
2026-04-03 15:50:00,METAR LIML 031550Z 22006KT 180V270 CAVOK 22/M03 Q1011 NOSIG
2026-04-03 15:20:00,METAR LIML 031520Z 20005KT 160V240 CAVOK 22/M01 Q1012 NOSIG
2026-04-03 14:50:00,METAR LIML 031450Z 19005KT 160V260 CAVOK 22/M04 Q1012 NOSIG
2026-04-03 14:20:00,METAR LIML 031420Z 21007KT 180V270 CAVOK 22/M02 Q1012 NOSIG
2026-04-03 13:50:00,METAR LIML 031350Z 20007KT 140V280 CAVOK 21/M03 Q1012 NOSIG
2026-04-03 13:20:00,METAR LIML 031320Z 18004KT 070V230 CAVOK 21/M02 Q1012 NOSIG
2026-04-03 12:50:00,METAR LIML 031250Z 23004KT 180V290 CAVOK 21/M02 Q1013 NOSIG
2026-04-03 12:20:00,METAR LIML 031220Z 21006KT 170V270 CAVOK 20/M02 Q1013 NOSIG
2026-04-03 11:50:00,METAR LIML 031150Z 24006KT 180V310 CAVOK 20/M03 Q1013 NOSIG
2026-04-03 11:20:00,METAR LIML 031120Z VRB03KT CAVOK 19/M03 Q1013 NOSIG
2026-04-03 10:50:00,METAR LIML 031050Z 22005KT 180V260 CAVOK 19/M01 Q1013 NOSIG
2026-04-03 10:20:00,METAR LIML 031020Z VRB02KT CAVOK 19/01 Q1014 NOSIG
2026-04-03 09:50:00,METAR LIML 030950Z VRB03KT CAVOK 18/02 Q1014 NOSIG
2026-04-03 09:20:00,METAR LIML 030920Z 21003KT 140V270 CAVOK 17/01 Q1014 NOSIG
2026-04-03 08:50:00,METAR LIML 030850Z 16004KT 120V200 CAVOK 16/02 Q1013 NOSIG
2026-04-03 08:20:00,METAR LIML 030820Z 28003KT 240V330 CAVOK 15/M00 Q1013 NOSIG
2026-04-03 07:50:00,METAR LIML 030750Z VRB02KT CAVOK 15/01 Q1013 NOSIG
2026-04-03 07:20:00,METAR LIML 030720Z VRB02KT CAVOK 13/02 Q1013 NOSIG
2026-04-03 06:50:00,METAR LIML 030650Z 17004KT CAVOK 10/03 Q1013 NOSIG
2026-04-03 06:20:00,METAR LIML 030620Z VRB02KT CAVOK 08/03 Q1012 NOSIG
2026-04-03 05:50:00,METAR LIML 030550Z VRB02KT CAVOK 05/02 Q1012 NOSIG
2026-04-03 05:20:00,METAR LIML 030520Z VRB01KT CAVOK 05/02 Q1012 NOSIG
2026-04-03 04:50:00,METAR LIML 030450Z 26002KT CAVOK 05/03 Q1011 NOSIG
2026-04-03 04:20:00,METAR LIML 030420Z VRB01KT CAVOK 05/03 Q1011 NOSIG
2026-04-03 03:50:00,METAR LIML 030350Z 01001KT CAVOK 06/01 Q1011 NOSIG
2026-04-03 03:20:00,METAR LIML 030320Z 34002KT CAVOK 05/02 Q1011 NOSIG
2026-04-03 02:50:00,METAR LIML 030250Z 34002KT CAVOK 05/02 Q1010 NOSIG
2026-04-03 02:20:00,METAR LIML 030220Z 35002KT CAVOK 04/02 Q1010 NOSIG
2026-04-03 01:50:00,METAR LIML 030150Z VRB01KT CAVOK 05/02 Q1010 NOSIG
2026-04-03 01:20:00,METAR LIML 030120Z 02001KT CAVOK 06/03 Q1010 NOSIG
2026-04-03 00:50:00,METAR LIML 030050Z 02002KT CAVOK 06/03 Q1010 NOSIG
2026-04-03 00:20:00,METAR LIML 030020Z VRB02KT CAVOK 07/02 Q1010 NOSIG
2026-04-02 23:50:00,METAR LIML 022350Z 36002KT CAVOK 08/02 Q1010 NOSIG
2026-04-02 23:20:00,METAR LIML 022320Z 34003KT CAVOK 08/03 Q1009 NOSIG
2026-04-02 22:50:00,METAR LIML 022250Z 35003KT CAVOK 07/03 Q1009 NOSIG
2026-04-02 22:20:00,METAR LIML 022220Z 36002KT CAVOK 08/02 Q1009 NOSIG
2026-04-02 21:50:00,METAR LIML 022150Z VRB02KT CAVOK 08/03 Q1009 NOSIG
2026-04-02 21:20:00,METAR LIML 022120Z 01002KT CAVOK 09/03 Q1008 NOSIG
2026-04-02 20:50:00,METAR LIML 022050Z 05002KT CAVOK 10/02 Q1008 NOSIG
2026-04-02 20:20:00,METAR LIML 022020Z 03003KT 350V050 CAVOK 10/02 Q1008 NOSIG
2026-04-02 19:50:00,METAR LIML 021950Z 15003KT 120V180 CAVOK 13/01 Q1007 NOSIG
2026-04-02 19:20:00,METAR LIML 021920Z 18004KT CAVOK 13/01 Q1007 NOSIG
2026-04-02 18:50:00,METAR LIML 021850Z 18005KT CAVOK 13/01 Q1007 NOSIG
2026-04-02 18:20:00,METAR LIML 021820Z 19004KT CAVOK 14/00 Q1006 NOSIG
2026-04-02 17:50:00,METAR LIML 021750Z 19005KT CAVOK 14/01 Q1006 NOSIG
2026-04-02 17:20:00,METAR LIML 021720Z 18005KT CAVOK 15/01 Q1005 NOSIG
2026-04-02 16:50:00,METAR LIML 021650Z 19005KT CAVOK 16/00 Q1005 NOSIG
2026-04-02 16:20:00,METAR LIML 021620Z 18005KT CAVOK 16/00 Q1005 NOSIG
2026-04-02 15:50:00,METAR LIML 021550Z 20007KT CAVOK 17/M00 Q1005 NOSIG
2026-04-02 15:20:00,METAR LIML 021520Z 19005KT 170V230 CAVOK 17/00 Q1005 NOSIG
2026-04-02 14:50:00,METAR LIML 021450Z 19005KT 160V220 CAVOK 17/M01 Q1005 NOSIG
2026-04-02 14:20:00,METAR LIML 021420Z 19003KT 150V230 CAVOK 17/M01 Q1005 NOSIG
2026-04-02 13:50:00,METAR LIML 021350Z 23004KT 140V260 CAVOK 17/M03 Q1005 NOSIG
2026-04-02 13:20:00,METAR LIML 021320Z VRB04KT CAVOK 17/01 Q1006 NOSIG
2026-04-02 12:50:00,METAR LIML 021250Z 17005KT 120V250 CAVOK 17/00 Q1006 NOSIG
2026-04-02 12:20:00,METAR LIML 021220Z 16004KT 080V240 CAVOK 17/M00 Q1006 NOSIG
2026-04-02 11:50:00,METAR LIML 021150Z VRB02KT CAVOK 15/M01 Q1007 NOSIG
2026-04-02 11:20:00,METAR LIML 021120Z 23003KT 180V330 CAVOK 16/M00 Q1007 NOSIG
2026-04-02 10:50:00,METAR LIML 021050Z VRB02KT CAVOK 16/M00 Q1008 NOSIG
2026-04-02 10:20:00,METAR LIML 021020Z 22004KT 160V290 CAVOK 15/M01 Q1008 NOSIG
2026-04-02 09:50:00,METAR LIML 020950Z 13004KT 040V190 CAVOK 14/M01 Q1008 NOSIG
2026-04-02 09:20:00,METAR LIML 020920Z VRB04KT CAVOK 13/M00 Q1008 NOSIG
2026-04-02 08:50:00,METAR LIML 020850Z 08005KT 030V120 CAVOK 13/M00 Q1008 NOSIG
2026-04-02 08:20:00,METAR LIML 020820Z 08003KT 010V130 CAVOK 11/M01 Q1008 NOSIG
2026-04-02 07:50:00,METAR LIML 020750Z 09004KT 060V120 CAVOK 10/M01 Q1008 NOSIG
2026-04-02 07:20:00,METAR LIML 020720Z 09003KT 050V120 CAVOK 09/M01 Q1008 NOSIG
2026-04-02 06:50:00,METAR LIML 020650Z VRB02KT CAVOK 08/M02 Q1008 NOSIG
2026-04-02 06:20:00,METAR LIML 020620Z 06003KT CAVOK 07/M02 Q1008 NOSIG
2026-04-02 05:50:00,METAR LIML 020550Z 04003KT CAVOK 05/M02 Q1008 NOSIG
2026-04-02 05:20:00,METAR LIML 020520Z 02004KT CAVOK 04/M02 Q1008 NOSIG
2026-04-02 04:50:00,METAR LIML 020450Z 34002KT CAVOK 01/M02 Q1008 NOSIG
2026-04-02 04:20:00,METAR LIML 020420Z 35002KT CAVOK 01/M02 Q1008 NOSIG
2026-04-02 03:50:00,METAR LIML 020350Z 29002KT CAVOK 03/M01 Q1008 NOSIG
2026-04-02 03:20:00,METAR LIML 020320Z VRB02KT CAVOK 02/M01 Q1008 NOSIG
2026-04-02 02:50:00,METAR LIML 020250Z VRB01KT CAVOK 02/M01 Q1008 NOSIG
2026-04-02 02:20:00,METAR LIML 020220Z 17002KT CAVOK 04/M00 Q1009 NOSIG
2026-04-02 01:50:00,METAR LIML 020150Z VRB02KT CAVOK 03/M00 Q1009 NOSIG
2026-04-02 01:20:00,METAR LIML 020120Z 15002KT CAVOK 05/M01 Q1009 NOSIG
2026-04-02 00:50:00,METAR LIML 020050Z VRB01KT CAVOK 04/M01 Q1010 NOSIG
2026-04-02 00:20:00,METAR LIML 020020Z 36002KT CAVOK 05/M01 Q1010 NOSIG
2026-04-01 23:50:00,METAR LIML 012350Z VRB02KT CAVOK 05/M01 Q1010 NOSIG
2026-04-01 23:20:00,METAR LIML 012320Z VRB01KT CAVOK 06/M01 Q1010 NOSIG
2026-04-01 22:50:00,METAR LIML 012250Z 36004KT CAVOK 06/M01 Q1010 NOSIG
2026-04-01 22:20:00,METAR LIML 012220Z VRB01KT CAVOK 07/M01 Q1011 NOSIG
2026-04-01 21:50:00,METAR LIML 012150Z VRB01KT CAVOK 07/M02 Q1011 NOSIG
2026-04-01 21:20:00,METAR LIML 012120Z VRB02KT CAVOK 07/M01 Q1011 NOSIG
2026-04-01 20:50:00,METAR LIML 012050Z VRB01KT CAVOK 08/M01 Q1012 NOSIG
2026-04-01 20:20:00,METAR LIML 012020Z VRB01KT CAVOK 09/M02 Q1012 NOSIG
2026-04-01 19:50:00,METAR LIML 011950Z 26002KT CAVOK 10/M02 Q1012 NOSIG
2026-04-01 19:20:00,METAR LIML 011920Z VRB02KT CAVOK 11/M03 Q1012 NOSIG
2026-04-01 18:50:00,METAR LIML 011850Z 20003KT CAVOK 12/M03 Q1012 NOSIG
2026-04-01 18:20:00,METAR LIML 011820Z 20003KT CAVOK 12/M03 Q1011 NOSIG
2026-04-01 17:50:00,METAR LIML 011750Z 18006KT CAVOK 12/M03 Q1011 NOSIG
2026-04-01 17:20:00,METAR LIML 011720Z 16005KT CAVOK 14/M05 Q1011 NOSIG
2026-04-01 16:50:00,METAR LIML 011650Z 17004KT CAVOK 15/M03 Q1011 NOSIG
2026-04-01 16:20:00,METAR LIML 011620Z 13005KT 050V190 CAVOK 15/M06 Q1011 NOSIG
2026-04-01 15:50:00,METAR LIML 011550Z 08004KT 020V150 CAVOK 16/M06 Q1011 NOSIG
2026-04-01 15:20:00,METAR LIML 011520Z 11003KT 050V160 CAVOK 16/M07 Q1012 NOSIG
2026-04-01 14:50:00,METAR LIML 011450Z VRB03KT 9999 FEW080 16/M05 Q1012 NOSIG
2026-04-01 13:50:00,METAR LIML 011350Z 34003KT 270V070 9999 FEW080 15/M06 Q1012 NOSIG
2026-04-01 13:20:00,METAR LIML 011320Z VRB02KT 9999 FEW080 15/M09 Q1013 NOSIG
2026-04-01 12:50:00,METAR LIML 011250Z 09005KT 360V160 CAVOK 15/M06 Q1013 NOSIG
2026-04-01 12:20:00,METAR LIML 011220Z 17005KT 050V210 9999 SCT090 14/M05 Q1014 NOSIG
2026-04-01 11:50:00,METAR LIML 011150Z VRB05KT 9999 SCT090 14/M09 Q1014 NOSIG
2026-04-01 11:20:00,METAR LIML 011120Z VRB07KT CAVOK 15/M07 Q1015 NOSIG
2026-04-01 10:50:00,METAR LIML 011050Z VRB04KT 9999 SCT090 14/M08 Q1015 NOSIG
2026-04-01 10:20:00,METAR LIML 011020Z 08003KT 020V140 9999 SCT090 13/M09 Q1015 NOSIG
2026-04-01 09:50:00,METAR LIML 010950Z 01003KT 300V080 9999 SCT090 13/M09 Q1015 NOSIG
2026-04-01 09:20:00,METAR LIML 010920Z 04005KT 350V080 9999 SCT090 13/M08 Q1016 NOSIG
2026-04-01 08:50:00,METAR LIML 010850Z 03003KT 350V060 9999 SCT090 12/M07 Q1016 NOSIG
2026-04-01 08:20:00,METAR LIML 010820Z VRB01KT 9999 SCT090 11/M07 Q1015 NOSIG
2026-04-01 07:50:00,METAR LIML 010750Z 00000KT CAVOK 09/M05 Q1015 NOSIG
2026-04-01 07:20:00,METAR LIML 010720Z VRB01KT CAVOK 07/M02 Q1015 NOSIG
2026-04-01 06:50:00,METAR LIML 010650Z VRB01KT CAVOK 06/M06 Q1016 NOSIG
2026-04-01 06:20:00,METAR LIML 010620Z VRB02KT CAVOK 04/M07 Q1015 NOSIG
2026-04-01 05:50:00,METAR LIML 010550Z VRB02KT CAVOK 04/M07 Q1015 NOSIG
2026-04-01 05:20:00,METAR LIML 010520Z 35004KT CAVOK 04/M08 Q1015 NOSIG
2026-04-01 04:50:00,METAR LIML 010450Z 35004KT CAVOK 04/M08 Q1015 NOSIG
2026-04-01 04:20:00,METAR LIML 010420Z 33003KT CAVOK 03/M06 Q1015 NOSIG
2026-04-01 03:50:00,METAR LIML 010350Z 35003KT 310V010 CAVOK 03/M07 Q1015 NOSIG
2026-04-01 03:20:00,METAR LIML 010320Z 02002KT CAVOK 05/M09 Q1015 NOSIG
2026-04-01 02:50:00,METAR LIML 010250Z 35002KT CAVOK 06/M09 Q1015 NOSIG
2026-04-01 02:20:00,METAR LIML 010220Z 35004KT CAVOK 07/M10 Q1016 NOSIG
2026-04-01 01:50:00,METAR LIML 010150Z 35005KT CAVOK 07/M10 Q1016 NOSIG
2026-04-01 01:20:00,METAR LIML 010120Z 35005KT CAVOK 06/M09 Q1016 NOSIG
2026-04-01 00:50:00,METAR LIML 010050Z 35006KT CAVOK 07/M09 Q1017 NOSIG
2026-04-01 00:20:00,METAR LIML 010020Z 34006KT CAVOK 08/M10 Q1017 NOSIG
2026-03-31 23:50:00,METAR LIML 312350Z 35006KT CAVOK 08/M10 Q1017 NOSIG
2026-03-31 23:20:00,METAR LIML 312320Z 35007KT CAVOK 08/M09 Q1017 NOSIG
2026-03-31 22:50:00,METAR LIML 312250Z 35007KT CAVOK 08/M09 Q1017 NOSIG
2026-03-31 22:20:00,METAR LIML 312220Z 36008KT CAVOK 08/M09 Q1017 NOSIG
2026-03-31 21:50:00,METAR LIML 312150Z 36011KT CAVOK 09/M10 Q1017 NOSIG
2026-03-31 21:20:00,METAR LIML 312120Z 01012KT CAVOK 09/M09 Q1016 NOSIG
2026-03-31 20:50:00,METAR LIML 312050Z 36010KT CAVOK 10/M09 Q1016 NOSIG
2026-03-31 20:20:00,METAR LIML 312020Z 36013KT CAVOK 10/M10 Q1016 NOSIG
2026-03-31 19:50:00,METAR LIML 311950Z 36012KT 9999 FEW040 11/M10 Q1016 NOSIG
2026-03-31 19:20:00,METAR LIML 311920Z 36015KT 9999 FEW035 11/M10 Q1015 NOSIG
2026-03-31 18:50:00,METAR LIML 311850Z 36016KT 9999 FEW035 11/M10 Q1015 NOSIG
2026-03-31 18:20:00,METAR LIML 311820Z 36014KT 9999 FEW035 11/M10 Q1015 NOSIG
2026-03-31 17:50:00,METAR LIML 311750Z 36017KT 9999 FEW030 12/M10 Q1014 NOSIG
2026-03-31 17:20:00,METAR LIML 311720Z 36020KT 9999 FEW030 13/M10 Q1014 NOSIG
2026-03-31 16:50:00,METAR LIML 311650Z 01019G29KT 9999 FEW030 14/M10 Q1013 NOSIG
2026-03-31 16:20:00,METAR LIML 311620Z 36020KT 9999 SCT030 14/M10 Q1013 NOSIG
2026-03-31 15:50:00,METAR LIML 311550Z 36020KT 9999 SCT030 15/M10 Q1013 NOSIG
2026-03-31 15:20:00,METAR LIML 311520Z 01020KT 9999 FEW030 15/M10 Q1013 NOSIG
2026-03-31 14:50:00,METAR LIML 311450Z 36019KT 9999 FEW030 SCT060 15/M09 Q1013 WS R35 NOSIG
2026-03-31 14:20:00,METAR LIML 311420Z 36020KT 9999 FEW030 SCT060 16/M10 Q1013 WS35 NOSIG
2026-03-31 13:50:00,METAR LIML 311350Z 35018KT 9999 FEW030 16/M10 Q1013 NOSIG
2026-03-31 13:20:00,METAR LIML 311320Z 36019KT 9999 FEW030 16/M08 Q1013 NOSIG
2026-03-31 12:50:00,METAR LIML 311250Z 35020KT 320V020 9999 FEW030 16/M09 Q1013 NOSIG
2026-03-31 12:20:00,METAR LIML 311220Z 36019KT 320V020 9999 FEW030 16/M09 Q1014 NOSIG
2026-03-31 11:50:00,METAR LIML 311150Z 35020KT 9999 FEW030 16/M10 Q1014 NOSIG
2026-03-31 11:20:00,METAR LIML 311120Z 36021G31KT 9999 FEW030 15/M10 Q1014 NOSIG
2026-03-31 10:50:00,METAR LIML 311050Z 36022KT CAVOK 15/M10 Q1014 NOSIG
2026-03-31 10:20:00,METAR LIML 311020Z 35020G30KT 320V020 CAVOK 15/M08 Q1014 NOSIG
2026-03-31 09:50:00,METAR LIML 310950Z 35019KT 320V020 CAVOK 15/M07 Q1015 NOSIG
2026-03-31 09:20:00,METAR LIML 310920Z 36020KT CAVOK 14/M07 Q1015 NOSIG
2026-03-31 08:50:00,METAR LIML 310850Z 36019KT CAVOK 14/M08 Q1015 NOSIG
2026-03-31 08:20:00,METAR LIML 310820Z 01018KT CAVOK 13/M08 Q1015 NOSIG
2026-03-31 07:50:00,METAR LIML 310750Z 36014KT CAVOK 13/M07 Q1015 NOSIG
2026-03-31 07:20:00,METAR LIML 310720Z 34012KT CAVOK 12/M07 Q1015 NOSIG
2026-03-31 06:50:00,METAR LIML 310650Z 34013KT CAVOK 11/M07 Q1014 NOSIG
2026-03-31 06:20:00,METAR LIML 310620Z 35014KT CAVOK 10/M07 Q1014 NOSIG
2026-03-31 05:50:00,METAR LIML 310550Z 35014G25KT CAVOK 10/M07 Q1013 NOSIG
2026-03-31 05:20:00,METAR LIML 310520Z 01007KT 340V040 CAVOK 08/M07 Q1014 NOSIG
2026-03-31 04:50:00,METAR LIML 310450Z 36006KT 330V030 CAVOK 08/M07 Q1013 NOSIG
2026-03-31 04:20:00,METAR LIML 310420Z 35012KT CAVOK 09/M07 Q1013 NOSIG
2026-03-31 03:50:00,METAR LIML 310350Z 34011KT CAVOK 09/M07 Q1013 NOSIG
2026-03-31 03:20:00,METAR LIML 310320Z 34010KT CAVOK 09/M08 Q1013 NOSIG
2026-03-31 02:50:00,METAR LIML 310250Z 34013KT CAVOK 09/M08 Q1013 NOSIG
2026-03-31 02:20:00,METAR LIML 310220Z 35013KT CAVOK 10/M07 Q1013 NOSIG
2026-03-31 01:50:00,METAR LIML 310150Z 34013KT CAVOK 10/M07 Q1013 NOSIG
2026-03-31 01:20:00,METAR LIML 310120Z 36013KT CAVOK 09/M07 Q1013 NOSIG
2026-03-31 00:50:00,METAR LIML 310050Z 01012KT CAVOK 09/M06 Q1013 NOSIG
2026-03-31 00:20:00,METAR LIML 310020Z 01010KT CAVOK 09/M06 Q1013 NOSIG
2026-03-30 23:50:00,METAR LIML 302350Z 36009KT CAVOK 10/M05 Q1013 NOSIG
2026-03-30 23:20:00,METAR LIML 302320Z 36012KT CAVOK 10/M05 Q1013 NOSIG
2026-03-30 22:50:00,METAR LIML 302250Z 01010KT CAVOK 10/M04 Q1013 NOSIG
2026-03-30 22:20:00,METAR LIML 302220Z 35008KT 330V030 CAVOK 11/M05 Q1013 NOSIG
2026-03-30 21:50:00,METAR LIML 302150Z 36013KT CAVOK 11/M05 Q1012 NOSIG
2026-03-30 21:20:00,METAR LIML 302120Z 36009KT CAVOK 11/M04 Q1012 NOSIG
2026-03-30 20:50:00,METAR LIML 302050Z 36012KT CAVOK 12/M04 Q1012 NOSIG
2026-03-30 20:20:00,METAR LIML 302020Z 34014KT 300V010 CAVOK 13/M05 Q1011 NOSIG
2026-03-30 19:50:00,METAR LIML 301950Z 34015KT CAVOK 13/M05 Q1010 NOSIG
2026-03-30 19:20:00,METAR LIML 301920Z 35015G25KT CAVOK 13/M05 Q1010 NOSIG
2026-03-30 18:50:00,METAR LIML 301850Z 34014KT CAVOK 14/M06 Q1010 NOSIG
2026-03-30 18:20:00,METAR LIML 301820Z 35015KT CAVOK 14/M07 Q1010 NOSIG
2026-03-30 17:50:00,METAR LIML 301750Z 36014KT CAVOK 15/M08 Q1010 NOSIG
2026-03-30 17:20:00,METAR LIML 301720Z 01017KT CAVOK 15/M08 Q1010 NOSIG
2026-03-30 16:50:00,METAR LIML 301650Z 35014G25KT 310V010 CAVOK 17/M09 Q1009 NOSIG
2026-03-30 16:20:00,METAR LIML 301620Z 36017KT CAVOK 17/M10 Q1009 NOSIG
2026-03-30 15:50:00,METAR LIML 301550Z 36017KT CAVOK 18/M10 Q1009 NOSIG
2026-03-30 15:20:00,METAR LIML 301520Z 01021KT CAVOK 18/M09 Q1009 WS R35 NOSIG
2026-03-30 14:50:00,METAR LIML 301450Z 36019KT 330V030 9999 FEW020 18/M10 Q1009 WS R35 NOSIG
2026-03-30 14:20:00,METAR LIML 301420Z 36014KT 330V030 9999 FEW020 19/M07 Q1009 NOSIG
2026-03-30 13:50:00,METAR LIML 301350Z 33011KT 290V010 9999 FEW020 20/M04 Q1009 NOSIG
2026-03-30 13:20:00,METAR LIML 301320Z COR VRB07G17KT 9999 FEW020 20/M02 Q1009 NOSIG
2026-03-30 12:50:00,METAR LIML 301250Z 27007KT 220V300 9999 FEW050 19/M02 Q1010 BECMG 35015KT
2026-03-30 12:20:00,METAR LIML 301220Z 26009KT 210V300 9999 FEW050 19/M01 Q1010 BECMG 35015KT
2026-03-30 11:50:00,METAR LIML 301150Z 26011KT 220V290 9999 FEW050 18/M03 Q1011 BECMG 35015KT
2026-03-30 11:20:00,METAR LIML 301120Z 25010KT 220V290 CAVOK 17/M03 Q1012 NOSIG
2026-03-30 10:50:00,METAR LIML 301050Z 25010KT 210V280 CAVOK 17/M02 Q1013 NOSIG
2026-03-30 10:20:00,METAR LIML 301020Z 26007KT 210V320 CAVOK 17/M02 Q1013 NOSIG
2026-03-30 09:50:00,METAR LIML 300950Z 27006KT 210V320 CAVOK 16/M02 Q1014 NOSIG
2026-03-30 09:20:00,METAR LIML 300920Z 26009KT 220V300 CAVOK 15/M02 Q1014 NOSIG
2026-03-30 08:50:00,METAR LIML 300850Z 29007KT 220V320 CAVOK 15/M03 Q1015 NOSIG
2026-03-30 08:20:00,METAR LIML 300820Z 28007KT 240V320 CAVOK 14/M04 Q1015 NOSIG
2026-03-30 07:50:00,METAR LIML 300750Z 29005KT 250V340 CAVOK 13/M03 Q1015 NOSIG
2026-03-30 07:20:00,METAR LIML 300720Z 29004KT 250V330 CAVOK 12/M02 Q1015 NOSIG
2026-03-30 06:50:00,METAR LIML 300650Z VRB02KT CAVOK 09/M01 Q1016 NOSIG
2026-03-30 06:20:00,METAR LIML 300620Z 23003KT CAVOK 07/M02 Q1016 NOSIG
2026-03-30 05:50:00,METAR LIML 300550Z VRB02KT CAVOK 07/M02 Q1016 NOSIG
2026-03-30 05:20:00,METAR LIML 300520Z 25003KT 210V290 CAVOK 07/M02 Q1016 NOSIG
2026-03-30 04:50:00,METAR LIML 300450Z 23003KT 9999 FEW060 07/M01 Q1016 NOSIG
2026-03-30 04:20:00,METAR LIML 300420Z VRB01KT CAVOK 07/00 Q1016 NOSIG
2026-03-30 03:50:00,METAR LIML 300350Z VRB01KT CAVOK 06/01 Q1017 NOSIG
2026-03-30 03:20:00,METAR LIML 300320Z 19002KT CAVOK 05/00 Q1018 NOSIG
2026-03-30 02:50:00,METAR LIML 300250Z VRB02KT CAVOK 06/M01 Q1018 NOSIG
2026-03-30 02:20:00,METAR LIML 300220Z VRB01KT CAVOK 08/M02 Q1018 NOSIG
2026-03-30 01:50:00,METAR LIML 300150Z 34003KT CAVOK 09/M02 Q1018 NOSIG
2026-03-30 01:20:00,METAR LIML 300120Z 35004KT CAVOK 09/M02 Q1018 NOSIG
2026-03-30 00:50:00,METAR LIML 300050Z 35005KT CAVOK 09/M02 Q1018 NOSIG
2026-03-30 00:20:00,METAR LIML 300020Z 36005KT CAVOK 08/M02 Q1019 NOSIG
2026-03-29 23:50:00,METAR LIML 292350Z 35005KT CAVOK 06/M02 Q1019 NOSIG
2026-03-29 23:20:00,METAR LIML 292320Z 34006KT CAVOK 09/M02 Q1020 NOSIG
2026-03-29 22:50:00,METAR LIML 292250Z 36003KT CAVOK 08/M01 Q1019 NOSIG
2026-03-29 22:20:00,METAR LIML 292220Z VRB02KT CAVOK 09/M01 Q1019 NOSIG
2026-03-29 21:50:00,METAR LIML 292150Z 05002KT CAVOK 10/M02 Q1019 NOSIG
2026-03-29 21:20:00,METAR LIML 292120Z 02004KT CAVOK 09/M02 Q1019 NOSIG
2026-03-29 20:50:00,METAR LIML 292050Z 01006KT CAVOK 09/M02 Q1019 NOSIG
2026-03-29 20:20:00,METAR LIML 292020Z 01006KT CAVOK 09/M01 Q1019 NOSIG
2026-03-29 19:50:00,METAR LIML 291950Z 02006KT CAVOK 09/M01 Q1018 NOSIG
2026-03-29 19:20:00,METAR LIML 291920Z 01005KT 350V050 CAVOK 12/M01 Q1018 NOSIG
2026-03-29 18:50:00,METAR LIML 291850Z VRB02KT CAVOK 13/M02 Q1017 NOSIG
2026-03-29 18:20:00,METAR LIML 291820Z 19005KT CAVOK 14/M02 Q1017 NOSIG
2026-03-29 17:50:00,METAR LIML 291750Z 19007KT 150V230 CAVOK 16/M04 Q1017 NOSIG
2026-03-29 17:20:00,METAR LIML 291720Z 18008KT CAVOK 16/M01 Q1016 NOSIG
2026-03-29 16:50:00,METAR LIML 291650Z 18007KT CAVOK 16/M01 Q1016 NOSIG
2026-03-29 16:20:00,METAR LIML 291620Z 19007KT CAVOK 17/M02 Q1015 NOSIG
2026-03-29 15:20:00,METAR LIML 291520Z VRB04KT CAVOK 19/M04 Q1015 NOSIG
2026-03-29 14:50:00,METAR LIML 291450Z VRB03KT CAVOK 19/M06 Q1015 NOSIG
2026-03-29 14:20:00,METAR LIML 291420Z 01004KT 320V050 CAVOK 18/M05 Q1015 NOSIG
2026-03-29 13:50:00,METAR LIML 291350Z 22004KT 140V310 CAVOK 18/M03 Q1015 NOSIG
2026-03-29 13:20:00,METAR LIML 291320Z 22004KT 090V260 CAVOK 18/M05 Q1015 NOSIG
2026-03-29 12:50:00,METAR LIML 291250Z VRB03KT CAVOK 18/M06 Q1015 NOSIG
2026-03-29 12:20:00,METAR LIML 291220Z 18004KT 130V220 9999 FEW045 17/M01 Q1015 NOSIG
2026-03-29 11:50:00,METAR LIML 291150Z 20005KT 160V230 9999 FEW045 17/M02 Q1015 NOSIG
2026-03-29 11:20:00,METAR LIML 291120Z 19007KT CAVOK 17/M02 Q1015 NOSIG
2026-03-29 10:50:00,METAR LIML 291050Z 18005KT 140V270 CAVOK 16/M01 Q1015 NOSIG
2026-03-29 10:20:00,METAR LIML 291020Z VRB03KT CAVOK 17/M02 Q1015 NOSIG
2026-03-29 09:50:00,METAR LIML 290950Z 19004KT 150V240 CAVOK 16/M02 Q1015 NOSIG
2026-03-29 09:20:00,METAR LIML 290920Z 20005KT 160V260 CAVOK 15/M02 Q1015 NOSIG
2026-03-29 08:50:00,METAR LIML 290850Z 20006KT CAVOK 15/M00 Q1015 NOSIG
2026-03-29 08:20:00,METAR LIML 290820Z 22005KT 190V260 CAVOK 14/M01 Q1014 NOSIG
2026-03-29 07:50:00,METAR LIML 290750Z 20004KT 9999 FEW100 13/M00 Q1014 NOSIG
2026-03-29 07:20:00,METAR LIML 290720Z 20006KT CAVOK 12/M02 Q1014 NOSIG
2026-03-29 06:50:00,METAR LIML 290650Z VRB02KT 9999 FEW090 12/M01 Q1013 NOSIG
2026-03-29 06:20:00,METAR LIML 290620Z VRB01KT CAVOK 08/02 Q1013 NOSIG
2026-03-29 05:50:00,METAR LIML 290550Z VRB02KT 9999 SCT100 07/02 Q1012 NOSIG
2026-03-29 05:20:00,METAR LIML 290520Z 19003KT 9999 SCT100 08/01 Q1012 NOSIG
2026-03-29 04:50:00,METAR LIML 290450Z VRB01KT 9999 BKN100 08/02 Q1011 NOSIG
2026-03-29 04:20:00,METAR LIML 290420Z VRB01KT 9999 BKN100 08/02 Q1011 NOSIG
2026-03-29 03:50:00,METAR LIML 290350Z VRB01KT 9999 BKN100 08/01 Q1011 NOSIG
2026-03-29 03:20:00,METAR LIML 290320Z 33002KT 9999 BKN100 09/01 Q1011 NOSIG
2026-03-29 02:50:00,METAR LIML 290250Z 35004KT 9999 BKN100 09/02 Q1011 NOSIG
2026-03-29 02:20:00,METAR LIML 290220Z 36003KT 9999 BKN100 08/02 Q1011 NOSIG
2026-03-29 01:50:00,METAR LIML 290150Z 01005KT 9999 SCT090 08/01 Q1010 NOSIG
2026-03-29 01:20:00,METAR LIML 290120Z 35003KT CAVOK 08/01 Q1010 NOSIG
2026-03-29 00:50:00,METAR LIML 290050Z 36005KT CAVOK 08/01 Q1010 NOSIG
2026-03-29 00:20:00,METAR LIML 290020Z 03003KT 320V090 CAVOK 09/02 Q1010 NOSIG
2026-03-28 23:50:00,METAR LIML 282350Z 08003KT CAVOK 11/01 Q1010 NOSIG
2026-03-28 23:20:00,METAR LIML 282320Z 06004KT CAVOK 10/01 Q1009 NOSIG
2026-03-28 22:50:00,METAR LIML 282250Z 01004KT 350V050 CAVOK 10/01 Q1009 NOSIG
2026-03-28 22:20:00,METAR LIML 282220Z 02004KT CAVOK 11/01 Q1009 NOSIG
2026-03-28 21:50:00,METAR LIML 282150Z 02003KT 9999 FEW070 11/01 Q1009 NOSIG
2026-03-28 21:20:00,METAR LIML 282120Z 05004KT 020V080 9999 FEW070 12/M01 Q1009 NOSIG
2026-03-28 20:50:00,METAR LIML 282050Z 28004KT 9999 FEW070 12/M01 Q1009 NOSIG
2026-03-28 20:20:00,METAR LIML 282020Z 26004KT 9999 FEW060 12/M01 Q1009 NOSIG
2026-03-28 19:50:00,METAR LIML 281950Z 26004KT 9999 FEW060 13/M01 Q1009 NOSIG
2026-03-28 19:20:00,METAR LIML 281920Z 25003KT 9999 SCT050 14/M01 Q1009 NOSIG
2026-03-28 18:50:00,METAR LIML 281850Z 26004KT 9999 SCT060 14/M01 Q1009 NOSIG
2026-03-28 18:20:00,METAR LIML 281820Z 26004KT 9999 SCT050 14/M01 Q1008 NOSIG
2026-03-28 17:50:00,METAR LIML 281750Z 26004KT 9999 SCT045 14/M01 Q1009 NOSIG
2026-03-28 17:20:00,METAR LIML 281720Z 26004KT 9999 SCT045 15/M02 Q1008 NOSIG
2026-03-28 16:50:00,METAR LIML 281650Z 25003KT 190V280 9999 SCT045 16/M01 Q1008 NOSIG
2026-03-28 15:50:00,METAR LIML 281550Z 24003KT 190V290 9999 FEW050 16/M01 Q1008 NOSIG
2026-03-28 15:20:00,METAR LIML 281520Z 22005KT 180V260 CAVOK 17/M01 Q1009 NOSIG
2026-03-28 14:50:00,METAR LIML 281450Z 22004KT 160V290 CAVOK 17/M02 Q1009 NOSIG
2026-03-28 14:20:00,METAR LIML 281420Z 26004KT 220V300 CAVOK 17/M03 Q1009 NOSIG
2026-03-28 13:50:00,METAR LIML 281350Z 20005KT 140V290 CAVOK 16/M02 Q1009 NOSIG
2026-03-28 13:20:00,METAR LIML 281320Z 21004KT 120V280 CAVOK 16/M01 Q1010 NOSIG
2026-03-28 12:50:00,METAR LIML 281250Z VRB04KT CAVOK 16/M02 Q1010 NOSIG
2026-03-28 12:20:00,METAR LIML 281220Z 24005KT 180V310 CAVOK 15/M02 Q1011 NOSIG
2026-03-28 11:50:00,METAR LIML 281150Z VRB04KT CAVOK 15/M02 Q1011 NOSIG
2026-03-28 11:20:00,METAR LIML 281120Z 20005KT 160V270 CAVOK 14/M02 Q1012 NOSIG
2026-03-28 10:50:00,METAR LIML 281050Z VRB04KT CAVOK 14/M03 Q1012 NOSIG
2026-03-28 10:20:00,METAR LIML 281020Z 21005KT 160V270 CAVOK 14/M02 Q1012 NOSIG
2026-03-28 09:50:00,METAR LIML 280950Z 20005KT 150V250 CAVOK 13/M01 Q1013 NOSIG
2026-03-28 09:20:00,METAR LIML 280920Z 21006KT 180V250 CAVOK 12/M02 Q1013 NOSIG
2026-03-28 08:50:00,METAR LIML 280850Z 19003KT 120V250 CAVOK 12/M01 Q1013 NOSIG
2026-03-28 08:20:00,METAR LIML 280820Z 16003KT 140V200 CAVOK 11/M00 Q1013 NOSIG
2026-03-28 07:50:00,METAR LIML 280750Z VRB02KT CAVOK 10/M01 Q1013 NOSIG
2026-03-28 07:20:00,METAR LIML 280720Z VRB02KT CAVOK 09/00 Q1013 NOSIG
2026-03-28 06:50:00,METAR LIML 280650Z 16003KT CAVOK 07/00 Q1013 NOSIG
2026-03-28 06:20:00,METAR LIML 280620Z 02002KT CAVOK 06/M00 Q1013 NOSIG
2026-03-28 05:50:00,METAR LIML 280550Z VRB01KT CAVOK 04/M01 Q1012 NOSIG
2026-03-28 05:20:00,METAR LIML 280520Z VRB01KT CAVOK 02/M01 Q1012 NOSIG
2026-03-28 04:50:00,METAR LIML 280450Z 35001KT CAVOK 03/M02 Q1012 NOSIG
2026-03-28 04:20:00,METAR LIML 280420Z VRB01KT CAVOK 03/M02 Q1012 NOSIG
2026-03-28 03:50:00,METAR LIML 280350Z VRB01KT CAVOK 04/M02 Q1012 NOSIG
2026-03-28 03:20:00,METAR LIML 280320Z VRB02KT CAVOK 04/M02 Q1012 NOSIG
2026-03-28 02:50:00,METAR LIML 280250Z VRB01KT CAVOK 04/M02 Q1012 NOSIG
2026-03-28 02:20:00,METAR LIML 280220Z VRB02KT CAVOK 05/M02 Q1012 NOSIG
2026-03-28 01:50:00,METAR LIML 280150Z 07002KT CAVOK 06/M03 Q1012 NOSIG
2026-03-28 01:20:00,METAR LIML 280120Z 08003KT CAVOK 07/M04 Q1012 NOSIG
2026-03-28 00:50:00,METAR LIML 280050Z 05006KT CAVOK 08/M04 Q1012 NOSIG
2026-03-28 00:20:00,METAR LIML 280020Z 36004KT CAVOK 07/M04 Q1012 NOSIG
2026-03-27 23:50:00,METAR LIML 272350Z 36005KT CAVOK 05/M04 Q1012 NOSIG
2026-03-27 23:20:00,METAR LIML 272320Z 36005KT CAVOK 08/M04 Q1012 NOSIG
2026-03-27 22:50:00,METAR LIML 272250Z 02005KT CAVOK 08/M05 Q1012 NOSIG
2026-03-27 22:20:00,METAR LIML 272220Z 35005KT CAVOK 08/M04 Q1011 NOSIG
2026-03-27 21:50:00,METAR LIML 272150Z 33005KT CAVOK 10/M05 Q1011 NOSIG
2026-03-27 21:20:00,METAR LIML 272120Z 31005KT CAVOK 11/M06 Q1011 NOSIG
2026-03-27 20:50:00,METAR LIML 272050Z 33004KT CAVOK 11/M05 Q1011 NOSIG
2026-03-27 20:20:00,METAR LIML 272020Z 31004KT 280V350 CAVOK 11/M05 Q1010 NOSIG
2026-03-27 19:50:00,METAR LIML 271950Z 33004KT CAVOK 12/M06 Q1010 NOSIG
2026-03-27 19:20:00,METAR LIML 271920Z 32005KT CAVOK 13/M06 Q1010 NOSIG
2026-03-27 18:50:00,METAR LIML 271850Z 32005KT CAVOK 13/M07 Q1010 NOSIG
2026-03-27 18:20:00,METAR LIML 271820Z 31006KT 280V340 CAVOK 14/M07 Q1009 NOSIG
2026-03-27 17:50:00,METAR LIML 271750Z 31008KT 270V350 CAVOK 15/M08 Q1009 NOSIG
2026-03-27 17:20:00,METAR LIML 271720Z 32005KT 280V350 CAVOK 15/M08 Q1008 NOSIG
2026-03-27 16:50:00,METAR LIML 271650Z 32005KT 280V350 CAVOK 16/M08 Q1008 NOSIG
2026-03-27 16:20:00,METAR LIML 271620Z 32006KT 270V020 CAVOK 16/M09 Q1008 NOSIG
2026-03-25 14:50:00,METAR LIML 251450Z 16003KT 100V210 9999 BKN045 17/07 Q1002 NOSIG
2026-03-25 14:20:00,METAR LIML 251420Z 26003KT 200V300 9999 BKN040 17/07 Q1003 NOSIG
2026-03-25 13:50:00,METAR LIML 251350Z 30006KT 260V330 9999 SCT030 17/07 Q1004 NOSIG
2026-03-25 13:20:00,METAR LIML 251320Z 24006KT 200V300 9999 SCT030 17/06 Q1005 NOSIG
2026-03-25 12:50:00,METAR LIML 251250Z VRB05KT 9999 SCT030 17/06 Q1006 NOSIG
2026-03-25 12:20:00,METAR LIML 251220Z VRB06KT 9999 SCT030 17/05 Q1006 NOSIG
2026-03-25 11:50:00,METAR LIML 251150Z 26008KT CAVOK 17/05 Q1007 NOSIG
2026-03-25 11:20:00,METAR LIML 251120Z 28008KT 230V330 CAVOK 17/05 Q1008 NOSIG
2026-03-25 10:50:00,METAR LIML 251050Z VRB05KT CAVOK 17/06 Q1009 NOSIG
2026-03-25 10:20:00,METAR LIML 251020Z 24007KT 210V280 CAVOK 16/05 Q1010 NOSIG
2026-03-25 09:50:00,METAR LIML 250950Z 26005KT 200V310 CAVOK 15/04 Q1010 NOSIG
2026-03-25 09:20:00,METAR LIML 250920Z VRB02KT CAVOK 14/04 Q1011 NOSIG
2026-03-25 08:50:00,METAR LIML 250850Z VRB02KT CAVOK 13/04 Q1012 NOSIG
2026-03-25 08:20:00,METAR LIML 250820Z 16004KT 120V210 CAVOK 12/04 Q1012 NOSIG
2026-03-25 07:50:00,METAR LIML 250750Z VRB02KT CAVOK 11/04 Q1013 NOSIG
2026-03-25 07:20:00,METAR LIML 250720Z 20004KT CAVOK 10/05 Q1013 NOSIG
2026-03-25 06:50:00,METAR LIML 250650Z 23001KT CAVOK 08/05 Q1014 NOSIG
2026-03-25 06:20:00,METAR LIML 250620Z 29002KT CAVOK 06/04 Q1014 NOSIG
2026-03-25 05:50:00,METAR LIML 250550Z 26001KT CAVOK 04/02 Q1013 NOSIG
2026-03-25 05:20:00,METAR LIML 250520Z VRB01KT CAVOK 05/03 Q1014 NOSIG
2026-03-25 04:50:00,METAR LIML 250450Z VRB01KT CAVOK 05/03 Q1014 NOSIG
2026-03-25 04:20:00,METAR LIML 250420Z VRB01KT CAVOK 05/03 Q1014 NOSIG
2026-03-25 03:50:00,METAR LIML 250350Z 36001KT CAVOK 05/03 Q1015 NOSIG
2026-03-25 03:20:00,METAR LIML 250320Z VRB02KT CAVOK 06/03 Q1015 NOSIG
2026-03-25 02:50:00,METAR LIML 250250Z VRB01KT CAVOK 06/03 Q1015 NOSIG
2026-03-25 02:20:00,METAR LIML 250220Z 01001KT CAVOK 06/04 Q1016 NOSIG
2026-03-25 01:50:00,METAR LIML 250150Z VRB01KT CAVOK 06/03 Q1016 NOSIG
2026-03-25 01:20:00,METAR LIML 250120Z 33001KT CAVOK 06/03 Q1017 NOSIG
2026-03-25 00:50:00,METAR LIML 250050Z VRB01KT CAVOK 06/04 Q1017 NOSIG
2026-03-25 00:20:00,METAR LIML 250020Z 02001KT CAVOK 07/04 Q1017 NOSIG
2026-03-24 23:50:00,METAR LIML 242350Z VRB01KT CAVOK 07/04 Q1018 NOSIG
2026-03-24 23:20:00,METAR LIML 242320Z 00000KT CAVOK 07/04 Q1018 NOSIG
2026-03-24 22:50:00,METAR LIML 242250Z VRB01KT CAVOK 08/03 Q1018 NOSIG
2026-03-24 22:20:00,METAR LIML 242220Z 02003KT CAVOK 08/03 Q1018 NOSIG
2026-03-24 21:50:00,METAR LIML 242150Z VRB01KT CAVOK 09/03 Q1018 NOSIG
2026-03-24 21:20:00,METAR LIML 242120Z VRB01KT CAVOK 09/03 Q1018 NOSIG
2026-03-24 20:50:00,METAR LIML 242050Z VRB01KT CAVOK 09/03 Q1018 NOSIG
2026-03-24 20:20:00,METAR LIML 242020Z VRB01KT CAVOK 10/03 Q1018 NOSIG
2026-03-24 19:50:00,METAR LIML 241950Z VRB01KT CAVOK 10/02 Q1018 NOSIG
2026-03-24 19:20:00,METAR LIML 241920Z VRB01KT CAVOK 12/02 Q1018 NOSIG
2026-03-24 18:50:00,METAR LIML 241850Z 19002KT CAVOK 12/03 Q1018 NOSIG
2026-03-24 18:20:00,METAR LIML 241820Z 18002KT CAVOK 14/01 Q1018 NOSIG
2026-03-24 17:50:00,METAR LIML 241750Z 19003KT CAVOK 15/01 Q1018 NOSIG
2026-03-24 17:20:00,METAR LIML 241720Z 21003KT 190V250 CAVOK 16/01 Q1018 NOSIG
2026-03-24 16:50:00,METAR LIML 241650Z VRB02KT CAVOK 17/01 Q1018 NOSIG
2026-03-24 16:20:00,METAR LIML 241620Z 23003KT 200V320 CAVOK 18/01 Q1018 NOSIG
2026-03-24 15:50:00,METAR LIML 241550Z 22004KT 180V250 CAVOK 18/01 Q1018 NOSIG
2026-03-24 15:20:00,METAR LIML 241520Z VRB03KT CAVOK 18/02 Q1019 NOSIG
2026-03-24 14:50:00,METAR LIML 241450Z VRB03KT CAVOK 18/02 Q1019 NOSIG
2026-03-24 14:20:00,METAR LIML 241420Z 28004KT 230V320 CAVOK 18/01 Q1019 NOSIG
2026-03-24 13:50:00,METAR LIML 241350Z 16004KT 120V210 CAVOK 17/03 Q1019 NOSIG
2026-03-24 13:20:00,METAR LIML 241320Z 22004KT 150V310 CAVOK 17/02 Q1020 NOSIG
2026-03-24 12:50:00,METAR LIML 241250Z 18003KT 090V220 CAVOK 17/02 Q1020 NOSIG
2026-03-24 12:20:00,METAR LIML 241220Z VRB02KT CAVOK 17/03 Q1021 NOSIG
2026-03-24 11:50:00,METAR LIML 241150Z 16004KT 100V240 CAVOK 16/02 Q1021 NOSIG
2026-03-24 11:20:00,METAR LIML 241120Z VRB02KT CAVOK 17/04 Q1021 NOSIG
2026-03-24 10:50:00,METAR LIML 241050Z VRB03KT CAVOK 16/05 Q1021 NOSIG
2026-03-24 10:20:00,METAR LIML 241020Z 07003KT 360V150 CAVOK 15/04 Q1022 NOSIG
2026-03-24 09:50:00,METAR LIML 240950Z 12003KT 070V190 CAVOK 14/03 Q1022 NOSIG
2026-03-24 09:20:00,METAR LIML 240920Z VRB04KT CAVOK 13/04 Q1022 NOSIG
2026-03-24 08:50:00,METAR LIML 240850Z 11004KT 060V160 CAVOK 13/04 Q1022 NOSIG
2026-03-24 08:20:00,METAR LIML 240820Z 09004KT 050V130 CAVOK 12/04 Q1022 NOSIG
2026-03-24 07:50:00,METAR LIML 240750Z 07003KT 040V100 CAVOK 11/04 Q1022 NOSIG
2026-03-24 07:20:00,METAR LIML 240720Z VRB02KT CAVOK 10/03 Q1021 NOSIG
2026-03-24 06:50:00,METAR LIML 240650Z VRB01KT CAVOK 08/04 Q1021 NOSIG
2026-03-24 06:20:00,METAR LIML 240620Z 00000KT CAVOK 05/03 Q1021 NOSIG
2026-03-24 05:50:00,METAR LIML 240550Z VRB01KT CAVOK 04/03 Q1021 NOSIG
2026-03-24 05:20:00,METAR LIML 240520Z VRB01KT CAVOK 04/02 Q1020 NOSIG
2026-03-24 04:50:00,METAR LIML 240450Z VRB01KT CAVOK 05/03 Q1020 NOSIG
2026-03-24 04:20:00,METAR LIML 240420Z VRB01KT CAVOK 04/03 Q1020 NOSIG
2026-03-24 03:50:00,METAR LIML 240350Z 03002KT CAVOK 05/03 Q1020 NOSIG
2026-03-24 03:20:00,METAR LIML 240320Z 16002KT CAVOK 04/03 Q1020 NOSIG
2026-03-24 02:50:00,METAR LIML 240250Z 15001KT CAVOK 05/03 Q1019 NOSIG
2026-03-24 02:20:00,METAR LIML 240220Z VRB01KT CAVOK 05/03 Q1019 NOSIG
2026-03-24 01:50:00,METAR LIML 240150Z VRB01KT CAVOK 06/03 Q1019 NOSIG
2026-03-24 01:20:00,METAR LIML 240120Z VRB01KT CAVOK 06/03 Q1019 NOSIG
2026-03-24 00:50:00,METAR LIML 240050Z 36002KT CAVOK 05/02 Q1020 NOSIG
2026-03-23 23:50:00,METAR LIML 232350Z 34002KT CAVOK 07/04 Q1019 NOSIG
2026-03-23 23:20:00,METAR LIML 232320Z VRB02KT CAVOK 08/03 Q1019 NOSIG
2026-03-23 22:50:00,METAR LIML 232250Z 02002KT CAVOK 07/03 Q1019 NOSIG
2026-03-23 22:20:00,METAR LIML 232220Z 02002KT CAVOK 07/02 Q1019 NOSIG
2026-03-23 21:50:00,METAR LIML 232150Z VRB01KT CAVOK 08/04 Q1019 NOSIG
2026-03-23 21:20:00,METAR LIML 232120Z VRB01KT CAVOK 08/03 Q1019 NOSIG
2026-03-23 20:50:00,METAR LIML 232050Z VRB01KT CAVOK 09/03 Q1018 NOSIG
2026-03-23 20:20:00,METAR LIML 232020Z VRB01KT CAVOK 09/03 Q1018 NOSIG
2026-03-23 19:50:00,METAR LIML 231950Z VRB01KT CAVOK 10/03 Q1018 NOSIG
2026-03-23 19:20:00,METAR LIML 231920Z 17002KT CAVOK 11/02 Q1017 NOSIG
2026-03-23 18:50:00,METAR LIML 231850Z VRB01KT CAVOK 12/01 Q1017 NOSIG
2026-03-23 18:20:00,METAR LIML 231820Z 21003KT CAVOK 13/02 Q1016 NOSIG
2026-03-23 17:50:00,METAR LIML 231750Z 18003KT CAVOK 14/00 Q1016 NOSIG
2026-03-23 17:20:00,METAR LIML 231720Z 20004KT CAVOK 15/01 Q1016 NOSIG
2026-03-23 16:50:00,METAR LIML 231650Z 20005KT CAVOK 16/01 Q1016 NOSIG
2026-03-23 16:20:00,METAR LIML 231620Z 23005KT 190V270 CAVOK 16/M00 Q1015 NOSIG
2026-03-23 15:50:00,METAR LIML 231550Z 27006KT 230V320 CAVOK 17/00 Q1015 NOSIG
2026-03-23 15:20:00,METAR LIML 231520Z VRB04KT CAVOK 16/00 Q1015 NOSIG
2026-03-21 14:50:00,METAR LIML 211450Z 16007KT 120V190 CAVOK 14/03 Q1011 NOSIG
2026-03-21 14:20:00,METAR LIML 211420Z 14007KT CAVOK 14/03 Q1011 NOSIG
2026-03-21 13:50:00,METAR LIML 211350Z 16006KT 140V200 CAVOK 15/03 Q1011 NOSIG
2026-03-21 13:20:00,METAR LIML 211320Z 14005KT 090V180 9999 FEW080 14/02 Q1012 NOSIG
2026-03-21 12:50:00,METAR LIML 211250Z 18005KT 140V220 9999 FEW090 14/03 Q1012 NOSIG
2026-03-21 12:20:00,METAR LIML 211220Z 08004KT 350V150 9999 FEW080 14/01 Q1012 NOSIG
2026-03-21 11:50:00,METAR LIML 211150Z 12004KT 060V160 9999 FEW080 14/01 Q1013 NOSIG
2026-03-21 11:20:00,METAR LIML 211120Z 16004KT 080V230 9999 FEW080 14/01 Q1013 NOSIG
2026-03-21 10:50:00,METAR LIML 211050Z 10003KT 040V190 CAVOK 13/01 Q1013 NOSIG
2026-03-21 10:20:00,METAR LIML 211020Z 07005KT 030V110 9999 FEW080 12/01 Q1013 NOSIG
2026-03-21 09:50:00,METAR LIML 210950Z VRB01KT 9999 SCT100 12/01 Q1014 NOSIG
2026-03-21 09:20:00,METAR LIML 210920Z VRB01KT 9999 BKN100 11/03 Q1014 NOSIG
2026-03-21 08:50:00,METAR LIML 210850Z 25003KT 210V280 9999 OVC100 10/04 Q1014 NOSIG
2026-03-21 08:20:00,METAR LIML 210820Z 25004KT 220V280 9999 OVC090 09/03 Q1014 NOSIG
2026-03-21 07:50:00,METAR LIML 210750Z 19003KT 9999 BKN090 09/04 Q1014 NOSIG
2026-03-21 07:20:00,METAR LIML 210720Z 18003KT 9999 BKN090 08/03 Q1014 NOSIG
2026-03-21 06:50:00,METAR LIML 210650Z VRB02KT 9999 BKN090 08/04 Q1014 NOSIG
2026-03-21 06:20:00,METAR LIML 210620Z 23003KT 9999 BKN090 07/02 Q1014 NOSIG
2026-03-21 05:50:00,METAR LIML 210550Z 05003KT 9999 SCT080 08/01 Q1014 NOSIG
2026-03-21 05:20:00,METAR LIML 210520Z 06004KT 9999 SCT080 09/01 Q1014 NOSIG
2026-03-21 04:50:00,METAR LIML 210450Z 07005KT 9999 BKN080 09/01 Q1014 NOSIG
2026-03-21 04:20:00,METAR LIML 210420Z 06005KT 9999 BKN080 09/01 Q1014 NOSIG
2026-03-21 03:50:00,METAR LIML 210350Z 06005KT 9999 BKN080 09/01 Q1014 NOSIG
2026-03-21 03:20:00,METAR LIML 210320Z 06006KT 9999 BKN080 09/01 Q1015 NOSIG
2026-03-21 02:50:00,METAR LIML 210250Z 06005KT 9999 BKN080 09/01 Q1015 NOSIG
2026-03-21 02:20:00,METAR LIML 210220Z 06004KT 9999 SCT090 08/01 Q1015 NOSIG
2026-03-21 01:50:00,METAR LIML 210150Z 06006KT CAVOK 08/01 Q1015 NOSIG
2026-03-21 01:20:00,METAR LIML 210120Z 06006KT CAVOK 08/01 Q1015 NOSIG
2026-03-21 00:50:00,METAR LIML 210050Z 06004KT CAVOK 07/01 Q1015 NOSIG
2026-03-21 00:20:00,METAR LIML 210020Z 04004KT CAVOK 07/01 Q1015 NOSIG
2026-03-20 23:50:00,METAR LIML 202350Z 06004KT CAVOK 08/01 Q1015 NOSIG
2026-03-20 23:20:00,METAR LIML 202320Z 06005KT CAVOK 08/01 Q1015 NOSIG
2026-03-20 22:50:00,METAR LIML 202250Z 07004KT CAVOK 09/01 Q1015 NOSIG
2026-03-20 22:20:00,METAR LIML 202220Z 08004KT CAVOK 09/01 Q1015 NOSIG
2026-03-20 21:50:00,METAR LIML 202150Z 06005KT CAVOK 10/01 Q1015 NOSIG
2026-03-20 21:20:00,METAR LIML 202120Z VRB02KT CAVOK 08/02 Q1015 NOSIG
2026-03-20 20:50:00,METAR LIML 202050Z 06004KT CAVOK 09/01 Q1015 NOSIG
2026-03-20 20:20:00,METAR LIML 202020Z VRB02KT CAVOK 09/02 Q1015 NOSIG
2026-03-20 19:50:00,METAR LIML 201950Z 08003KT 040V120 CAVOK 10/01 Q1015 NOSIG
2026-03-20 19:20:00,METAR LIML 201920Z VRB01KT CAVOK 10/02 Q1014 NOSIG
2026-03-20 18:50:00,METAR LIML 201850Z 13004KT 080V160 CAVOK 12/00 Q1014 NOSIG
2026-03-20 18:20:00,METAR LIML 201820Z 15004KT CAVOK 13/00 Q1014 NOSIG
2026-03-20 17:50:00,METAR LIML 201750Z 16004KT CAVOK 12/00 Q1014 NOSIG
2026-03-20 17:20:00,METAR LIML 201720Z 17004KT CAVOK 13/00 Q1014 NOSIG
2026-03-20 16:50:00,METAR LIML 201650Z 16006KT 120V190 CAVOK 14/M00 Q1014 NOSIG
2026-03-20 16:20:00,METAR LIML 201620Z 15005KT 120V190 CAVOK 15/00 Q1014 NOSIG
2026-03-20 15:50:00,METAR LIML 201550Z 16005KT CAVOK 15/00 Q1014 NOSIG
2026-03-20 15:20:00,METAR LIML 201520Z 16004KT 100V210 CAVOK 15/00 Q1014 NOSIG
2026-03-20 14:50:00,METAR LIML 201450Z 16003KT 110V230 CAVOK 15/M00 Q1014 NOSIG
2026-03-20 14:20:00,METAR LIML 201420Z 15005KT 110V190 CAVOK 15/M01 Q1015 NOSIG
2026-03-20 13:50:00,METAR LIML 201350Z 28004KT 250V310 CAVOK 16/M01 Q1015 NOSIG
2026-03-20 13:20:00,METAR LIML 201320Z VRB03KT CAVOK 16/01 Q1016 NOSIG
2026-03-20 12:50:00,METAR LIML 201250Z 25005KT 200V310 CAVOK 15/M01 Q1016 NOSIG
2026-03-20 12:20:00,METAR LIML 201220Z VRB03KT CAVOK 15/01 Q1016 NOSIG
2026-03-20 11:50:00,METAR LIML 201150Z 13005KT 070V170 CAVOK 14/M01 Q1017 NOSIG
2026-03-20 11:20:00,METAR LIML 201120Z 13006KT 070V180 CAVOK 15/01 Q1017 NOSIG
2026-03-20 10:50:00,METAR LIML 201050Z VRB04KT CAVOK 14/00 Q1017 NOSIG
2026-03-20 10:20:00,METAR LIML 201020Z 18005KT 150V210 CAVOK 13/M01 Q1018 NOSIG
2026-03-20 09:50:00,METAR LIML 200950Z 14004KT 090V200 CAVOK 13/01 Q1018 NOSIG
2026-03-20 09:20:00,METAR LIML 200920Z 13004KT 080V230 CAVOK 13/00 Q1018 NOSIG
2026-03-20 08:50:00,METAR LIML 200850Z 10004KT 050V170 CAVOK 12/00 Q1018 NOSIG
2026-03-20 08:20:00,METAR LIML 200820Z 10003KT 050V140 CAVOK 12/01 Q1019 NOSIG
2026-03-20 07:50:00,METAR LIML 200750Z VRB02KT CAVOK 11/01 Q1019 NOSIG
2026-03-20 07:20:00,METAR LIML 200720Z VRB01KT CAVOK 10/01 Q1019 NOSIG
2026-03-20 06:50:00,METAR LIML 200650Z VRB01KT CAVOK 08/02 Q1019 NOSIG
2026-03-20 06:20:00,METAR LIML 200620Z 35002KT CAVOK 05/01 Q1019 NOSIG
2026-03-20 05:50:00,METAR LIML 200550Z 35001KT CAVOK 05/00 Q1018 NOSIG
2026-03-20 05:20:00,METAR LIML 200520Z VRB01KT CAVOK 06/01 Q1018 NOSIG
2026-03-20 04:50:00,METAR LIML 200450Z 08002KT CAVOK 05/01 Q1018 NOSIG
2026-03-20 04:20:00,METAR LIML 200420Z 03003KT CAVOK 04/00 Q1018 NOSIG
2026-03-20 03:50:00,METAR LIML 200350Z 01002KT CAVOK 06/01 Q1018 NOSIG
2026-03-20 03:20:00,METAR LIML 200320Z 32001KT CAVOK 06/01 Q1018 NOSIG
2026-03-20 02:50:00,METAR LIML 200250Z 06003KT CAVOK 08/00 Q1018 NOSIG
2026-03-20 02:20:00,METAR LIML 200220Z 06004KT CAVOK 08/00 Q1018 NOSIG
2026-03-20 01:50:00,METAR LIML 200150Z 07004KT CAVOK 08/M00 Q1018 NOSIG
2026-03-20 01:20:00,METAR LIML 200120Z 07004KT CAVOK 08/00 Q1018 NOSIG
2026-03-20 00:50:00,METAR LIML 200050Z 07004KT CAVOK 08/00 Q1019 NOSIG
2026-03-20 00:20:00,METAR LIML 200020Z 08005KT CAVOK 08/00 Q1019 NOSIG
2026-03-19 23:50:00,METAR LIML 192350Z 08004KT CAVOK 08/00 Q1019 NOSIG
2026-03-19 23:20:00,METAR LIML 192320Z 08005KT CAVOK 09/01 Q1019 NOSIG
2026-03-19 22:50:00,METAR LIML 192250Z 08008KT CAVOK 09/01 Q1018 NOSIG
2026-03-19 22:20:00,METAR LIML 192220Z 09007KT 050V110 CAVOK 10/00 Q1018 NOSIG
2026-03-19 21:50:00,METAR LIML 192150Z 10005KT CAVOK 11/M00 Q1018 NOSIG
2026-03-19 21:20:00,METAR LIML 192120Z 10007KT CAVOK 11/00 Q1018 NOSIG
2026-03-19 20:50:00,METAR LIML 192050Z 04003KT 340V090 CAVOK 09/01 Q1017 NOSIG
2026-03-19 20:20:00,METAR LIML 192020Z VRB02KT CAVOK 10/01 Q1017 NOSIG
2026-03-19 19:50:00,METAR LIML 191950Z VRB02KT CAVOK 11/00 Q1017 NOSIG
2026-03-19 19:20:00,METAR LIML 191920Z 17003KT CAVOK 12/M01 Q1016 NOSIG
2026-03-19 18:50:00,METAR LIML 191850Z 18004KT CAVOK 12/M00 Q1016 NOSIG
2026-03-19 18:20:00,METAR LIML 191820Z 18004KT CAVOK 13/M00 Q1016 NOSIG
2026-03-19 17:50:00,METAR LIML 191750Z 18005KT CAVOK 13/01 Q1016 NOSIG
2026-03-19 17:20:00,METAR LIML 191720Z 18006KT CAVOK 14/02 Q1015 NOSIG
2026-03-19 16:50:00,METAR LIML 191650Z 18007KT CAVOK 15/02 Q1015 NOSIG
2026-03-19 16:20:00,METAR LIML 191620Z 19007KT CAVOK 16/03 Q1015 NOSIG
2026-03-19 15:50:00,METAR LIML 191550Z 19008KT CAVOK 17/02 Q1015 NOSIG
2026-03-19 15:20:00,METAR LIML 191520Z 19007KT CAVOK 17/02 Q1015 NOSIG
2026-03-19 14:50:00,METAR LIML 191450Z 20007KT 170V230 CAVOK 17/03 Q1016 NOSIG
2026-03-19 14:20:00,METAR LIML 191420Z 21005KT 140V260 CAVOK 18/02 Q1016 NOSIG
2026-03-19 13:50:00,METAR LIML 191350Z 17006KT 140V210 CAVOK 17/02 Q1017 NOSIG
2026-03-19 13:20:00,METAR LIML 191320Z 15007KT 110V190 CAVOK 17/03 Q1017 NOSIG
2026-03-19 12:50:00,METAR LIML 191250Z 15007KT 070V210 CAVOK 17/02 Q1017 NOSIG
2026-03-19 12:20:00,METAR LIML 191220Z VRB04KT CAVOK 17/00 Q1018 NOSIG
2026-03-19 11:50:00,METAR LIML 191150Z 11004KT 030V170 CAVOK 17/03 Q1018 NOSIG
2026-03-19 11:20:00,METAR LIML 191120Z VRB03KT CAVOK 17/02 Q1019 NOSIG
2026-03-19 10:50:00,METAR LIML 191050Z VRB02KT CAVOK 16/02 Q1019 NOSIG
2026-03-19 10:20:00,METAR LIML 191020Z VRB02KT CAVOK 15/04 Q1019 NOSIG
2026-03-19 09:50:00,METAR LIML 190950Z VRB02KT CAVOK 14/03 Q1020 NOSIG
2026-03-19 09:20:00,METAR LIML 190920Z 17003KT 140V250 CAVOK 13/04 Q1020 NOSIG
2026-03-19 08:50:00,METAR LIML 190850Z 16003KT 120V190 CAVOK 12/04 Q1020 NOSIG
2026-03-19 08:20:00,METAR LIML 190820Z 15003KT 100V200 CAVOK 12/04 Q1020 NOSIG
2026-03-19 07:50:00,METAR LIML 190750Z VRB01KT CAVOK 12/03 Q1020 NOSIG
2026-03-19 07:20:00,METAR LIML 190720Z 35004KT CAVOK 10/03 Q1020 NOSIG
2026-03-19 06:50:00,METAR LIML 190650Z 01004KT CAVOK 07/02 Q1020 NOSIG
2026-03-19 06:20:00,METAR LIML 190620Z 36003KT CAVOK 06/01 Q1020 NOSIG
2026-03-19 05:50:00,METAR LIML 190550Z 36005KT CAVOK 06/01 Q1020 NOSIG
2026-03-19 05:20:00,METAR LIML 190520Z 36003KT CAVOK 04/01 Q1020 NOSIG
2026-03-19 04:50:00,METAR LIML 190450Z 36004KT CAVOK 05/01 Q1020 NOSIG
2026-03-19 04:20:00,METAR LIML 190420Z 35002KT CAVOK 05/01 Q1020 NOSIG
2026-03-19 03:50:00,METAR LIML 190350Z 36003KT CAVOK 06/01 Q1020 NOSIG
2026-03-19 03:20:00,METAR LIML 190320Z 36004KT CAVOK 07/01 Q1020 NOSIG
2026-03-19 02:50:00,METAR LIML 190250Z 01003KT CAVOK 08/01 Q1020 NOSIG
2026-03-19 02:20:00,METAR LIML 190220Z 01004KT CAVOK 07/00 Q1021 NOSIG
2026-03-19 01:50:00,METAR LIML 190150Z 35005KT 330V030 CAVOK 07/01 Q1021 NOSIG
2026-03-19 01:20:00,METAR LIML 190120Z 36004KT CAVOK 08/02 Q1021 NOSIG
2026-03-19 00:50:00,METAR LIML 190050Z 02005KT 350V060 CAVOK 08/01 Q1021 NOSIG
2026-03-19 00:20:00,METAR LIML 190020Z 36005KT CAVOK 09/01 Q1021 NOSIG
2026-03-18 23:50:00,METAR LIML 182350Z 35005KT CAVOK 08/02 Q1021 NOSIG
2026-03-18 23:20:00,METAR LIML 182320Z 35004KT CAVOK 08/01 Q1021 NOSIG
2026-03-18 22:50:00,METAR LIML 182250Z 34005KT CAVOK 07/02 Q1021 NOSIG
2026-03-18 22:20:00,METAR LIML 182220Z 35003KT CAVOK 09/01 Q1021 NOSIG
2026-03-18 21:50:00,METAR LIML 182150Z 35005KT CAVOK 09/02 Q1021 NOSIG
2026-03-18 21:20:00,METAR LIML 182120Z 35005KT 9999 FEW080 09/02 Q1020 NOSIG
2026-03-18 20:50:00,METAR LIML 182050Z 35003KT 9999 FEW080 10/02 Q1020 NOSIG
2026-03-18 20:20:00,METAR LIML 182020Z 28002KT 9999 FEW080 10/03 Q1020 NOSIG
2026-03-18 19:50:00,METAR LIML 181950Z VRB01KT 9999 SCT050 11/01 Q1020 NOSIG
2026-03-18 19:20:00,METAR LIML 181920Z 29003KT 9999 SCT070 11/02 Q1020 NOSIG
2026-03-18 18:50:00,METAR LIML 181850Z 27005KT 9999 FEW070 10/02 Q1019 NOSIG
2026-03-18 18:20:00,METAR LIML 181820Z 26004KT 9999 FEW070 11/02 Q1019 NOSIG
2026-03-18 17:50:00,METAR LIML 181750Z 24005KT 200V270 9999 SCT060 12/02 Q1019 NOSIG
2026-03-18 17:20:00,METAR LIML 181720Z 23004KT 190V260 9999 FEW070 13/01 Q1018 NOSIG
2026-03-18 16:50:00,METAR LIML 181650Z 25004KT 210V270 9999 FEW070 14/01 Q1018 NOSIG
2026-03-18 16:20:00,METAR LIML 181620Z 26005KT 230V290 9999 FEW090 14/01 Q1018 NOSIG
2026-03-18 15:50:00,METAR LIML 181550Z 26007KT 220V290 9999 FEW070 14/01 Q1018 NOSIG
2026-03-18 15:20:00,METAR LIML 181520Z 26005KT 220V300 9999 SCT070 14/01 Q1018 NOSIG
2026-03-18 14:50:00,METAR LIML 181450Z 27005KT 230V300 9999 SCT070 14/02 Q1018 NOSIG
2026-03-18 14:20:00,METAR LIML 181420Z VRB02KT 9999 SCT070 13/01 Q1018 NOSIG
2026-03-18 13:50:00,METAR LIML 181350Z VRB03KT 9999 FEW090 13/00 Q1018 NOSIG
2026-03-18 13:20:00,METAR LIML 181320Z 16006KT 130V190 9999 SCT090 13/01 Q1019 NOSIG
2026-03-18 12:50:00,METAR LIML 181250Z 17003KT 120V210 9999 SCT080 12/01 Q1019 NOSIG
2026-03-18 12:20:00,METAR LIML 181220Z 16007KT 9999 BKN080 12/01 Q1019 NOSIG
2026-03-18 11:50:00,METAR LIML 181150Z 16008KT 9999 BKN080 13/M00 Q1019 NOSIG
2026-03-18 11:20:00,METAR LIML 181120Z 14011KT 100V160 9999 SCT080 13/00 Q1019 NOSIG
2026-03-18 10:50:00,METAR LIML 181050Z 13007KT 060V170 CAVOK 14/00 Q1018 NOSIG
2026-03-18 10:20:00,METAR LIML 181020Z VRB03KT CAVOK 14/01 Q1018 NOSIG
2026-03-18 09:50:00,METAR LIML 180950Z 05004KT 330V100 CAVOK 13/02 Q1018 NOSIG
2026-03-18 09:20:00,METAR LIML 180920Z 01006KT 300V060 CAVOK 13/01 Q1018 NOSIG
2026-03-18 08:50:00,METAR LIML 180850Z 05006KT 010V090 CAVOK 12/01 Q1017 NOSIG
2026-03-18 08:20:00,METAR LIML 180820Z 06008KT CAVOK 11/00 Q1017 NOSIG
2026-03-18 07:50:00,METAR LIML 180750Z 07008KT 030V090 CAVOK 11/01 Q1017 NOSIG
2026-03-18 07:20:00,METAR LIML 180720Z 05007KT 010V080 9999 FEW060 10/02 Q1017 NOSIG
2026-03-18 06:50:00,METAR LIML 180650Z 03006KT 9999 SCT060 08/02 Q1017 NOSIG
2026-03-18 06:20:00,METAR LIML 180620Z 03007KT 9999 SCT060 08/02 Q1017 NOSIG
2026-03-18 05:50:00,METAR LIML 180550Z 05008KT 9999 SCT060 08/01 Q1016 NOSIG
2026-03-18 05:20:00,METAR LIML 180520Z 05008KT 9999 SCT070 08/01 Q1016 NOSIG
2026-03-18 04:50:00,METAR LIML 180450Z 06008KT 9999 BKN065 09/01 Q1016 NOSIG
2026-03-18 04:20:00,METAR LIML 180420Z 06007KT 9999 BKN060 09/03 Q1016 NOSIG
2026-03-18 03:50:00,METAR LIML 180350Z 07007KT 9999 BKN060 09/04 Q1016 NOSIG
2026-03-18 03:20:00,METAR LIML 180320Z 08006KT 9999 BKN060 09/04 Q1016 NOSIG
2026-03-18 02:50:00,METAR LIML 180250Z 09008KT 9999 BKN060 09/04 Q1016 NOSIG
2026-03-18 02:20:00,METAR LIML 180220Z 10008KT 9999 BKN060 09/03 Q1016 NOSIG
2026-03-18 01:50:00,METAR LIML 180150Z 09008KT 9999 BKN060 10/03 Q1016 NOSIG
2026-03-18 01:20:00,METAR LIML 180120Z 09008KT 060V120 9999 BKN060 10/02 Q1016 NOSIG
2026-03-18 00:50:00,METAR LIML 180050Z 10007KT 9999 BKN065 10/02 Q1017 NOSIG
2026-03-18 00:20:00,METAR LIML 180020Z 09005KT 9999 BKN060 10/02 Q1017 NOSIG
2026-03-17 23:50:00,METAR LIML 172350Z 10007KT 9999 BKN060 10/01 Q1017 NOSIG
2026-03-17 23:20:00,METAR LIML 172320Z 11008KT 9999 BKN060 11/01 Q1017 NOSIG
2026-03-17 22:50:00,METAR LIML 172250Z 12009KT 9999 BKN060 11/01 Q1017 NOSIG
2026-03-17 22:20:00,METAR LIML 172220Z 11009KT 9999 SCT060 11/01 Q1017 NOSIG
2026-03-17 21:50:00,METAR LIML 172150Z 11007KT 9999 SCT060 11/01 Q1017 NOSIG
2026-03-17 21:20:00,METAR LIML 172120Z 11007KT 9999 SCT060 11/02 Q1017 NOSIG
2026-03-17 20:50:00,METAR LIML 172050Z 11009KT 9999 SCT060 12/03 Q1016 NOSIG
2026-03-17 20:20:00,METAR LIML 172020Z 10008KT 060V120 9999 SCT060 12/04 Q1016 NOSIG
2026-03-17 19:50:00,METAR LIML 171950Z 10005KT 060V130 CAVOK 12/04 Q1016 NOSIG
2026-03-17 19:20:00,METAR LIML 171920Z 08003KT CAVOK 13/04 Q1016 NOSIG
2026-03-17 18:50:00,METAR LIML 171850Z 09003KT 060V120 CAVOK 13/04 Q1015 NOSIG
2026-03-17 18:20:00,METAR LIML 171820Z 11005KT 060V120 CAVOK 13/04 Q1015 NOSIG
2026-03-17 17:50:00,METAR LIML 171750Z 12005KT 070V130 CAVOK 14/04 Q1015 NOSIG
2026-03-17 17:20:00,METAR LIML 171720Z 12006KT 090V150 CAVOK 15/04 Q1015 NOSIG
2026-03-17 16:50:00,METAR LIML 171650Z 15004KT 110V180 CAVOK 15/03 Q1014 NOSIG
2026-03-17 16:20:00,METAR LIML 171620Z 10005KT 070V140 CAVOK 15/04 Q1015 NOSIG
2026-03-17 15:50:00,METAR LIML 171550Z 15007KT 120V180 9999 FEW040 15/04 Q1015 NOSIG
2026-03-17 14:50:00,METAR LIML 171450Z VRB03KT 9999 FEW040 16/03 Q1015 NOSIG
2026-03-17 14:20:00,METAR LIML 171420Z VRB04KT 9999 FEW040 16/03 Q1016 NOSIG
2026-03-17 13:50:00,METAR LIML 171350Z 17004KT 140V210 9999 FEW040 16/03 Q1016 NOSIG
2026-03-17 13:20:00,METAR LIML 171320Z 13007KT 110V180 9999 FEW040 16/04 Q1016 NOSIG
2026-03-17 12:50:00,METAR LIML 171250Z 13008KT 100V170 9999 FEW040 16/05 Q1017 NOSIG
2026-03-17 12:20:00,METAR LIML 171220Z 12008KT 090V180 CAVOK 16/06 Q1018 NOSIG
2026-03-17 11:50:00,METAR LIML 171150Z 12008KT 080V160 CAVOK 15/05 Q1018 NOSIG
2026-03-17 11:20:00,METAR LIML 171120Z 11009KT 060V140 9999 FEW040 15/04 Q1018 NOSIG
2026-03-17 10:50:00,METAR LIML 171050Z 10009KT 070V150 CAVOK 15/06 Q1019 NOSIG
2026-03-17 10:20:00,METAR LIML 171020Z 09008KT 040V140 CAVOK 14/05 Q1019 NOSIG
2026-03-17 09:50:00,METAR LIML 170950Z 12007KT 080V160 CAVOK 13/05 Q1019 NOSIG
2026-03-17 09:20:00,METAR LIML 170920Z 10009KT CAVOK 13/05 Q1019 NOSIG
2026-03-17 08:50:00,METAR LIML 170850Z 08009KT CAVOK 12/06 Q1019 NOSIG
2026-03-17 08:20:00,METAR LIML 170820Z 09008KT 050V130 CAVOK 12/05 Q1019 NOSIG
2026-03-17 07:50:00,METAR LIML 170750Z 07006KT 040V100 CAVOK 11/06 Q1019 NOSIG
2026-03-17 07:20:00,METAR LIML 170720Z 07006KT 040V100 CAVOK 10/06 Q1019 NOSIG
2026-03-17 06:50:00,METAR LIML 170650Z 06006KT CAVOK 09/06 Q1018 NOSIG
2026-03-17 06:20:00,METAR LIML 170620Z 05004KT CAVOK 08/04 Q1018 NOSIG
2026-03-17 05:50:00,METAR LIML 170550Z 06004KT 9999 FEW100 08/03 Q1018 NOSIG
2026-03-17 05:20:00,METAR LIML 170520Z 09003KT CAVOK 06/02 Q1017 NOSIG
2026-03-17 04:50:00,METAR LIML 170450Z 08004KT CAVOK 05/01 Q1017 NOSIG
2026-03-17 04:20:00,METAR LIML 170420Z VRB02KT CAVOK 06/M00 Q1017 NOSIG
2026-03-17 03:50:00,METAR LIML 170350Z VRB01KT CAVOK 06/01 Q1016 NOSIG
2026-03-17 03:20:00,METAR LIML 170320Z 10003KT CAVOK 09/M01 Q1016 NOSIG
2026-03-17 02:50:00,METAR LIML 170250Z 14008KT 090V180 CAVOK 08/M01 Q1016 NOSIG
2026-03-17 02:20:00,METAR LIML 170220Z VRB02KT CAVOK 08/M02 Q1015 NOSIG
2026-03-17 01:50:00,METAR LIML 170150Z VRB01KT CAVOK 08/M02 Q1015 NOSIG
2026-03-17 01:20:00,METAR LIML 170120Z VRB01KT CAVOK 07/M01 Q1015 NOSIG
2026-03-17 00:50:00,METAR LIML 170050Z VRB02KT CAVOK 09/M02 Q1015 NOSIG
2026-03-17 00:20:00,METAR LIML 170020Z 15005KT CAVOK 10/M03 Q1015 NOSIG
2026-03-16 23:50:00,METAR LIML 162350Z 01006KT CAVOK 11/M04 Q1015 NOSIG
2026-03-16 23:20:00,METAR LIML 162320Z 34005KT CAVOK 13/M05 Q1015 NOSIG
2026-03-16 22:50:00,METAR LIML 162250Z 36003KT 320V080 CAVOK 12/M06 Q1015 NOSIG
2026-03-16 22:20:00,METAR LIML 162220Z 06003KT 330V100 CAVOK 14/M07 Q1015 NOSIG
2026-03-16 21:50:00,METAR LIML 162150Z 02010KT CAVOK 13/M06 Q1015 NOSIG
2026-03-16 21:20:00,METAR LIML 162120Z 35008KT CAVOK 14/M05 Q1015 NOSIG
2026-03-16 20:50:00,METAR LIML 162050Z 35008KT CAVOK 14/M05 Q1014 NOSIG
2026-03-16 20:20:00,METAR LIML 162020Z 36007KT CAVOK 13/M04 Q1014 NOSIG
2026-03-16 19:50:00,METAR LIML 161950Z 02006KT CAVOK 12/M04 Q1014 NOSIG
2026-03-16 19:20:00,METAR LIML 161920Z 36005KT CAVOK 15/M06 Q1014 NOSIG
2026-03-16 18:50:00,METAR LIML 161850Z 35006KT 300V020 CAVOK 16/M06 Q1014 NOSIG
2026-03-16 18:20:00,METAR LIML 161820Z 35009KT 9999 FEW040 17/M07 Q1013 NOSIG
2026-03-16 17:50:00,METAR LIML 161750Z 34010KT 9999 FEW040 18/M05 Q1013 NOSIG
2026-03-16 17:20:00,METAR LIML 161720Z 32006KT CAVOK 18/M06 Q1013 NOSIG
2026-03-16 16:50:00,METAR LIML 161650Z 28007KT 9999 FEW030 18/07 Q1013 NOSIG
2026-03-16 16:20:00,METAR LIML 161620Z 25007KT 220V280 9999 FEW015 18/06 Q1013 NOSIG
2026-03-16 15:50:00,METAR LIML 161550Z 24009KT 9999 FEW010 18/06 Q1013 NOSIG
2026-03-16 15:20:00,METAR LIML 161520Z 26010KT CAVOK 19/06 Q1013 NOSIG
2026-03-16 14:50:00,METAR LIML 161450Z 25007KT 210V280 CAVOK 19/06 Q1013 NOSIG
2026-03-16 14:20:00,METAR LIML 161420Z 25007KT 200V280 CAVOK 19/07 Q1013 NOSIG
2026-03-16 13:50:00,METAR LIML 161350Z 24008KT 200V290 CAVOK 19/07 Q1013 NOSIG
2026-03-16 13:20:00,METAR LIML 161320Z 23008KT 200V270 CAVOK 19/08 Q1014 NOSIG
2026-03-16 12:50:00,METAR LIML 161250Z 25007KT 190V280 CAVOK 18/08 Q1014 NOSIG
2026-03-16 12:20:00,METAR LIML 161220Z 24007KT 200V270 CAVOK 18/08 Q1014 NOSIG
2026-03-16 11:50:00,METAR LIML 161150Z 24007KT 200V300 CAVOK 17/08 Q1015 NOSIG
2026-03-16 11:20:00,METAR LIML 161120Z 22006KT 180V290 CAVOK 18/08 Q1015 NOSIG
2026-03-16 10:50:00,METAR LIML 161050Z 27006KT 240V300 CAVOK 17/07 Q1015 NOSIG
2026-03-16 10:20:00,METAR LIML 161020Z 20004KT 160V260 CAVOK 16/08 Q1015 NOSIG
2026-03-16 09:50:00,METAR LIML 160950Z 22004KT 170V310 CAVOK 15/08 Q1015 NOSIG
2026-03-16 09:20:00,METAR LIML 160920Z VRB02KT CAVOK 14/08 Q1015 NOSIG
2026-03-16 08:50:00,METAR LIML 160850Z VRB01KT CAVOK 13/08 Q1015 NOSIG
2026-03-16 08:20:00,METAR LIML 160820Z VRB01KT CAVOK 12/07 Q1015 NOSIG
2026-03-16 07:50:00,METAR LIML 160750Z VRB02KT CAVOK 11/07 Q1015 NOSIG
2026-03-16 07:20:00,METAR LIML 160720Z VRB02KT CAVOK 09/07 Q1014 NOSIG
2026-03-16 06:50:00,METAR LIML 160650Z 24002KT CAVOK 08/06 Q1014 NOSIG
2026-03-16 06:20:00,METAR LIML 160620Z 25003KT 9999 MIFG NSC 06/06 Q1014 NOSIG
2026-03-16 05:50:00,METAR LIML 160550Z 24002KT 9999 BCFG NSC 05/05 Q1014 NOSIG
2026-03-16 05:20:00,METAR LIML 160520Z VRB01KT 9999 BCFG NSC 06/05 Q1014 NOSIG
2026-03-16 04:50:00,METAR LIML 160450Z 22003KT 200V270 9999 MIFG NSC 05/05 Q1013 NOSIG
2026-03-16 04:20:00,METAR LIML 160420Z VRB02KT 9999 MIFG NSC 05/04 Q1013 NOSIG
2026-03-16 03:50:00,METAR LIML 160350Z VRB01KT CAVOK 05/05 Q1013 NOSIG
2026-03-16 03:20:00,METAR LIML 160320Z VRB01KT CAVOK 07/06 Q1013 NOSIG
2026-03-16 02:50:00,METAR LIML 160250Z 29003KT CAVOK 06/05 Q1013 NOSIG
2026-03-16 02:20:00,METAR LIML 160220Z VRB01KT 9999 BCFG NSC 07/06 Q1013 NOSIG
2026-03-16 01:50:00,METAR LIML 160150Z VRB01KT CAVOK 06/06 Q1013 NOSIG
2026-03-16 01:20:00,METAR LIML 160120Z 00000KT CAVOK 07/06 Q1014 NOSIG
2026-03-16 00:50:00,METAR LIML 160050Z VRB01KT CAVOK 07/07 Q1014 NOSIG
2026-03-16 00:20:00,METAR LIML 160020Z VRB01KT CAVOK 08/07 Q1014 NOSIG
2026-03-15 23:50:00,METAR LIML 152350Z VRB01KT CAVOK 07/06 Q1014 NOSIG
2026-03-15 23:20:00,METAR LIML 152320Z 18001KT CAVOK 08/07 Q1014 NOSIG
2026-03-15 22:50:00,METAR LIML 152250Z VRB01KT CAVOK 08/07 Q1014 NOSIG
2026-03-15 22:20:00,METAR LIML 152220Z 35003KT 9999 SCT100 10/07 Q1014 NOSIG
2026-03-15 21:50:00,METAR LIML 152150Z 35004KT 9999 SCT100 09/07 Q1013 NOSIG
2026-03-15 21:20:00,METAR LIML 152120Z 35004KT 9999 FEW080 SCT100 10/08 Q1013 NOSIG
2026-03-15 20:50:00,METAR LIML 152050Z 35004KT 9999 SCT080 BKN100 10/08 Q1013 NOSIG
2026-03-15 20:20:00,METAR LIML 152020Z 36005KT 9999 BKN080 11/08 Q1013 NOSIG
2026-03-15 19:50:00,METAR LIML 151950Z 35004KT 9999 BKN070 12/08 Q1013 NOSIG
2026-03-15 19:20:00,METAR LIML 151920Z 36003KT 9999 -RA BKN065 11/08 Q1012 NOSIG
2026-03-15 18:50:00,METAR LIML 151850Z 36005KT 9999 -DZ BKN060 11/08 Q1012 NOSIG
2026-03-15 18:20:00,METAR LIML 151820Z 34004KT 9999 FEW030 BKN060 12/08 Q1012 NOSIG
2026-03-15 17:50:00,METAR LIML 151750Z VRB02KT 9999 FEW030 BKN050 BKN070 12/08 Q1011 NOSIG
2026-03-15 17:20:00,METAR LIML 151720Z VRB03KT 9999 -RA FEW030 BKN050 BKN065 13/09 Q1011 NOSIG
2026-03-15 16:50:00,METAR LIML 151650Z 09006KT 9999 FEW030 BKN045 BKN065 14/08 Q1011 NOSIG
2026-03-15 16:20:00,METAR LIML 151620Z VRB02KT 9999 SCT035 BKN045 BKN065 14/09 Q1010 NOSIG
2026-03-15 15:50:00,METAR LIML 151550Z 05004KT 020V080 9999 -RA SCT035 BKN050 14/08 Q1010 NOSIG
2026-03-15 15:20:00,METAR LIML 151520Z 12005KT 070V160 9999 FEW030 BKN050 BKN075 14/07 Q1010 NOSIG
2026-03-15 14:50:00,METAR LIML 151450Z 06005KT 030V100 9999 FEW030 BKN045 BKN065 14/08 Q1009 NOSIG
2026-03-15 14:20:00,METAR LIML 151420Z 07006KT 030V100 9999 BKN040 BKN055 15/08 Q1009 NOSIG
2026-03-15 13:50:00,METAR LIML 151350Z 08006KT 050V130 9999 SCT035 SCT050 15/08 Q1009 NOSIG
2026-03-15 13:20:00,METAR LIML 151320Z 06005KT 030V090 9999 SCT035 SCT050 15/08 Q1009 NOSIG
2026-03-15 12:50:00,METAR LIML 151250Z 02005KT 350V050 9999 SCT035 SCT050 15/08 Q1009 NOSIG
2026-03-15 12:20:00,METAR LIML 151220Z 03005KT 9999 SCT030 SCT050 15/08 Q1009 NOSIG
2026-03-15 11:50:00,METAR LIML 151150Z 03006KT 360V060 9999 SCT030 SCT050 14/08 Q1008 NOSIG
2026-03-15 11:20:00,METAR LIML 151120Z 36006KT 9999 SCT050 14/08 Q1008 NOSIG
2026-03-15 10:50:00,METAR LIML 151050Z 36008KT 9999 FEW040 13/07 Q1008 NOSIG
2026-03-15 10:20:00,METAR LIML 151020Z 36009KT 9999 FEW035 13/07 Q1008 NOSIG
2026-03-15 09:50:00,METAR LIML 150950Z 36007KT 9999 SCT035 12/08 Q1007 NOSIG
2026-03-15 09:20:00,METAR LIML 150920Z 35007KT 9999 SCT040 11/07 Q1007 NOSIG
2026-03-15 08:50:00,METAR LIML 150850Z 36006KT 9999 SCT040 10/07 Q1006 NOSIG
2026-03-15 08:20:00,METAR LIML 150820Z 35006KT 9999 SCT040 09/07 Q1006 NOSIG
