Time_recorded,METAR
2026-05-02 15:20:00,METAR LGIR 021520Z 34017KT 9999 SCT020 15/06 Q1015 NOSIG
2026-05-02 14:50:00,METAR LGIR 021450Z 34017KT 9999 SCT020 15/06 Q1015 NOSIG
2026-05-02 14:20:00,METAR LGIR 021420Z 33016KT 9999 BKN020 16/06 Q1015 NOSIG
2026-05-02 13:50:00,METAR LGIR 021350Z 33016KT 9999 BKN020 16/06 Q1015 NOSIG
2026-05-02 13:20:00,METAR LGIR 021320Z 34017KT 9999 BKN020 16/06 Q1015 NOSIG
2026-05-02 12:50:00,METAR LGIR 021250Z 33014KT 9999 FEW012 BKN025 BKN070 16/06 Q1015 NOSIG
2026-05-02 12:20:00,METAR LGIR 021220Z 33014KT 9999 FEW012 BKN025 BKN070 16/06 Q1015 NOSIG
2026-05-02 11:50:00,METAR LGIR 021150Z 33014KT 9999 FEW012 BKN025 BKN070 16/06 Q1015 NOSIG
2026-05-02 11:20:00,METAR LGIR 021120Z 33014KT 9999 FEW012 BKN025 BKN070 16/07 Q1015 NOSIG
2026-05-02 10:50:00,METAR LGIR 021050Z 34013KT 9999 FEW012 BKN025 BKN070 15/07 Q1015 NOSIG
2026-05-02 10:20:00,METAR LGIR 021020Z 33012KT 9999 FEW012 BKN025 BKN070 15/08 Q1015 NOSIG
2026-05-02 09:50:00,METAR LGIR 020950Z 32011KT 9999 FEW012 BKN025 BKN070 15/09 Q1016 NOSIG
2026-05-02 09:20:00,METAR LGIR 020920Z 33012KT 9999 FEW012 BKN025 BKN070 14/09 Q1016 NOSIG
2026-05-02 08:50:00,METAR LGIR 020850Z 35011KT 9999 FEW012 BKN025 BKN070 15/09 Q1016 NOSIG
2026-05-02 08:20:00,METAR LGIR 020820Z 33012KT 9999 FEW012 BKN025 BKN070 13/10 Q1016 NOSIG
2026-05-02 07:50:00,METAR LGIR 020750Z VRB03KT 9999 FEW012 BKN025 BKN070 12/09 Q1015 NOSIG
2026-05-02 07:20:00,METAR LGIR 020720Z 27004KT 9999 -RA FEW012 BKN025 BKN070 12/08 Q1016 NOSIG
2026-05-02 06:50:00,METAR LGIR 020650Z 34007KT 9999 -RA FEW012 BKN025 BKN070 12/09 Q1016 NOSIG
2026-05-02 06:20:00,METAR LGIR 020620Z 31009KT 9999 -RA FEW012 BKN025 BKN070 12/08 Q1016 NOSIG
2026-05-02 05:50:00,METAR LGIR 020550Z 34012KT 9999 FEW012 BKN025 BKN070 14/06 Q1015 NOSIG
2026-05-02 05:20:00,METAR LGIR 020520Z 33011KT 9999 FEW012 BKN025 BKN070 14/09 Q1015 NOSIG
2026-05-02 04:50:00,METAR LGIR 020450Z COR 34012KT 9999 -RA FEW012 BKN025 BKN070 14/10 Q1015 NOSIG
2026-05-02 04:20:00,METAR LGIR 020420Z 33012KT 9999 FEW012 BKN025 BKN070 14/10 Q1015 NOSIG
2026-05-02 03:50:00,METAR LGIR 020350Z 35013KT 9999 FEW012 BKN025 BKN070 14/11 Q1014 NOSIG
2026-05-02 03:20:00,METAR LGIR 020320Z 35014KT 9999 FEW012 BKN025 BKN070 14/11 Q1014 NOSIG
2026-05-02 02:50:00,METAR LGIR 020250Z 36013KT 9999 -RA FEW012 BKN020 BKN070 14/12 Q1014 NOSIG
2026-05-02 02:20:00,METAR LGIR 020220Z 01012KT 9999 FEW012 BKN020 BKN070 14/11 Q1014 NOSIG
2026-05-02 01:50:00,METAR LGIR 020150Z 01009KT 9999 FEW012 BKN020 BKN070 14/12 Q1014 NOSIG
2026-05-02 01:20:00,METAR LGIR 020120Z 04008KT 9000 -RA FEW012 BKN020 BKN070 14/12 Q1014 NOSIG
2026-05-02 00:50:00,METAR LGIR 020050Z 03007KT 9999 FEW012 BKN020 BKN070 14/12 Q1015 NOSIG
2026-05-02 00:20:00,METAR LGIR 020020Z 01010KT 9999 FEW012 BKN020 BKN070 15/12 Q1015 NOSIG
2026-05-01 23:50:00,METAR LGIR 012350Z 01009KT 9999 FEW012 BKN020 BKN070 15/12 Q1015 NOSIG
2026-05-01 23:20:00,METAR LGIR 012320Z 36006KT 9999 FEW018 BKN025 BKN070 15/12 Q1015 NOSIG
2026-05-01 22:50:00,METAR LGIR 012250Z 35010KT 9999 FEW018 BKN025 BKN070 15/12 Q1015 NOSIG
2026-05-01 22:20:00,METAR LGIR 012220Z 35011KT 9999 FEW018 BKN025 BKN070 15/12 Q1016 NOSIG
2026-05-01 21:50:00,METAR LGIR 012150Z 34013KT 9999 FEW018 BKN025 BKN070 15/12 Q1016 NOSIG
2026-05-01 21:20:00,METAR LGIR 012120Z 35010KT 8000 -RA FEW018 BKN025 BKN070 16/12 Q1016 NOSIG
2026-05-01 20:50:00,METAR LGIR 012050Z 35010KT 9999 FEW018 BKN025 BKN070 16/12 Q1016 NOSIG
2026-05-01 20:20:00,METAR LGIR 012020Z 34010KT 9999 FEW018 BKN025 BKN070 16/12 Q1016 NOSIG
2026-05-01 19:50:00,METAR LGIR 011950Z 34011KT 9999 FEW018 BKN025 BKN070 16/12 Q1016 NOSIG
2026-05-01 19:20:00,METAR LGIR 011920Z 35009KT 9999 FEW018 BKN025 BKN070 16/12 Q1016 NOSIG
2026-05-01 18:50:00,METAR LGIR 011850Z 34010KT 9999 FEW018 BKN025 BKN070 16/12 Q1016 NOSIG
2026-05-01 18:20:00,METAR LGIR 011820Z 35009KT 9999 FEW018 BKN025 BKN070 16/12 Q1016 NOSIG
2026-05-01 17:50:00,METAR LGIR 011750Z 35007KT 9999 FEW018 BKN025 BKN070 16/12 Q1016 NOSIG
2026-05-01 17:20:00,METAR LGIR 011720Z 35008KT 9999 FEW018 BKN025 BKN070 16/12 Q1015 NOSIG
2026-05-01 16:50:00,METAR LGIR 011650Z 35010KT 9999 FEW018 BKN025 BKN070 17/12 Q1016 NOSIG
2026-05-01 16:20:00,METAR LGIR 011620Z 35010KT 9999 FEW018 BKN025 BKN070 17/13 Q1015 NOSIG
2026-05-01 15:50:00,METAR LGIR 011550Z 35011KT 9999 FEW018 BKN025 BKN070 17/13 Q1015 NOSIG
2026-05-01 15:20:00,METAR LGIR 011520Z 35011KT 9999 FEW018 BKN025 BKN070 17/13 Q1015 NOSIG
2026-05-01 14:50:00,METAR LGIR 011450Z 33010KT 9999 FEW018 BKN025 BKN070 17/13 Q1015 NOSIG
2026-05-01 14:20:00,METAR LGIR 011420Z 34010KT 9999 FEW018 SCT025 BKN070 17/14 Q1016 NOSIG
2026-05-01 13:50:00,METAR LGIR 011350Z 34012KT 9999 FEW018 SCT025 BKN070 17/14 Q1016 NOSIG
2026-05-01 13:20:00,METAR LGIR 011320Z 34012KT 9999 FEW018 SCT025 BKN070 18/15 Q1016 NOSIG
2026-05-01 12:50:00,METAR LGIR 011250Z 33010KT 9999 FEW018 SCT025 BKN070 18/15 Q1016 NOSIG
2026-05-01 12:20:00,METAR LGIR 011220Z 35007KT 9999 FEW018 SCT025 BKN070 19/15 Q1016 NOSIG
2026-05-01 11:50:00,METAR LGIR 011150Z 34009KT 9999 FEW018 SCT025 BKN070 19/15 Q1016 NOSIG
2026-05-01 11:20:00,METAR LGIR 011120Z 34010KT 9999 FEW018 SCT025 BKN070 18/14 Q1016 NOSIG
2026-05-01 10:50:00,METAR LGIR 011050Z 34009KT 9999 FEW018 SCT025 BKN070 19/14 Q1016 NOSIG
2026-05-01 10:20:00,METAR LGIR 011020Z 35010KT 9999 FEW018 SCT025 BKN070 19/14 Q1016 NOSIG
2026-05-01 09:50:00,METAR LGIR 010950Z 35011KT 9999 FEW018 SCT025 BKN070 19/14 Q1016 NOSIG
2026-05-01 09:20:00,METAR LGIR 010920Z 35010KT 9999 FEW018 SCT025 BKN070 19/14 Q1016 NOSIG
2026-05-01 08:50:00,METAR LGIR 010850Z 01008KT 9999 FEW018 BKN025 19/14 Q1016 NOSIG
2026-05-01 08:20:00,METAR LGIR 010820Z 02012KT 9999 FEW018 BKN025 19/13 Q1016 NOSIG
2026-05-01 07:50:00,METAR LGIR 010750Z 03013KT 9999 FEW018 BKN025 19/14 Q1015 NOSIG
2026-05-01 07:20:00,METAR LGIR 010720Z 05012KT 9999 FEW018 SCT025 19/14 Q1015 NOSIG
2026-05-01 06:50:00,METAR LGIR 010650Z 04010KT 9999 SCT020 BKN070 19/14 Q1015 NOSIG
2026-05-01 06:20:00,METAR LGIR 010620Z 35003KT 9999 FEW020 BKN070 19/13 Q1014 NOSIG
2026-05-01 05:50:00,METAR LGIR 010550Z 00000KT 9999 FEW020 BKN070 17/12 Q1014 NOSIG
2026-05-01 05:20:00,METAR LGIR 010520Z 17006KT 9999 FEW020 BKN070 16/09 Q1013 NOSIG
2026-05-01 04:50:00,METAR LGIR 010450Z 17006KT 9999 FEW020 BKN080 16/09 Q1013 NOSIG
2026-05-01 04:20:00,METAR LGIR 010420Z 16005KT 9999 FEW020 BKN080 16/08 Q1013 NOSIG
2026-05-01 03:50:00,METAR LGIR 010350Z 18004KT 9999 FEW020 BKN080 16/08 Q1013 NOSIG
2026-05-01 03:20:00,METAR LGIR 010320Z 18004KT 9999 FEW020 BKN080 16/08 Q1013 NOSIG
2026-05-01 02:50:00,METAR LGIR 010250Z 17006KT 9999 FEW020 BKN080 15/07 Q1013 NOSIG
2026-05-01 02:20:00,METAR LGIR 010220Z 17006KT 9999 FEW020 BKN080 15/07 Q1013 NOSIG
2026-05-01 01:50:00,METAR LGIR 010150Z 17006KT 9999 FEW020 BKN080 15/07 Q1013 NOSIG
2026-05-01 01:20:00,METAR LGIR 010120Z 17006KT 9999 FEW020 BKN080 15/07 Q1013 NOSIG
2026-05-01 00:50:00,METAR LGIR 010050Z 17006KT 9999 FEW020 BKN080 15/09 Q1013 NOSIG
2026-05-01 00:20:00,METAR LGIR 010020Z 17006KT 9999 FEW020 BKN080 17/07 Q1013 NOSIG
2026-04-30 23:50:00,METAR LGIR 302350Z 18007KT 9999 FEW020 SCT080 16/07 Q1013 NOSIG
2026-04-30 23:20:00,METAR LGIR 302320Z 18009KT 9999 SCT080 15/07 Q1013 NOSIG
2026-04-30 22:50:00,METAR LGIR 302250Z 17010KT 9999 SCT080 15/07 Q1013 NOSIG
2026-04-30 22:20:00,METAR LGIR 302220Z 16011KT CAVOK 15/07 Q1014 NOSIG
2026-04-30 21:50:00,METAR LGIR 302150Z 17011KT CAVOK 15/07 Q1014 NOSIG
2026-04-30 21:20:00,METAR LGIR 302120Z 18009KT CAVOK 15/06 Q1014 NOSIG
2026-04-30 20:50:00,METAR LGIR 302050Z 17008KT CAVOK 15/07 Q1014 NOSIG
2026-04-30 20:20:00,METAR LGIR 302020Z 17007KT CAVOK 15/13 Q1015 NOSIG
2026-04-30 19:50:00,METAR LGIR 301950Z 17004KT CAVOK 15/13 Q1015 NOSIG
2026-04-30 19:20:00,METAR LGIR 301920Z 17004KT CAVOK 16/10 Q1014 NOSIG
2026-04-30 18:50:00,METAR LGIR 301850Z 17004KT CAVOK 16/10 Q1014 NOSIG
2026-04-30 18:20:00,METAR LGIR 301820Z 00000KT CAVOK 17/10 Q1014 NOSIG
2026-04-30 17:50:00,METAR LGIR 301750Z 00000KT CAVOK 17/10 Q1014 NOSIG
2026-04-30 17:20:00,METAR LGIR 301720Z 00000KT CAVOK 20/11 Q1014 NOSIG
2026-04-30 16:50:00,METAR LGIR 301650Z 00000KT CAVOK 20/11 Q1014 NOSIG
2026-04-30 16:20:00,METAR LGIR 301620Z VRB03KT CAVOK 22/12 Q1014 NOSIG
2026-04-30 14:50:00,METAR LGIR 301450Z VRB03KT CAVOK 22/13 Q1014 NOSIG
2026-04-30 14:20:00,METAR LGIR 301420Z 03004KT CAVOK 23/12 Q1014 NOSIG
2026-04-30 13:50:00,METAR LGIR 301350Z VRB03KT CAVOK 23/11 Q1014 NOSIG
2026-04-30 13:20:00,METAR LGIR 301320Z 06004KT CAVOK 23/10 Q1014 NOSIG
2026-04-30 12:50:00,METAR LGIR 301250Z VRB03KT CAVOK 23/10 Q1015 NOSIG
2026-04-30 12:20:00,METAR LGIR 301220Z 07004KT CAVOK 23/10 Q1015 NOSIG
2026-04-30 11:50:00,METAR LGIR 301150Z 07004KT 9999 FEW025 23/13 Q1015 NOSIG
2026-04-30 11:20:00,METAR LGIR 301120Z 04005KT CAVOK 22/11 Q1016 NOSIG
2026-04-30 10:50:00,METAR LGIR 301050Z 05004KT CAVOK 22/11 Q1016 NOSIG
2026-04-30 10:20:00,METAR LGIR 301020Z 05004KT CAVOK 22/11 Q1016 NOSIG
2026-04-30 09:50:00,METAR LGIR 300950Z 06004KT CAVOK 22/11 Q1016 NOSIG
2026-04-30 09:20:00,METAR LGIR 300920Z VRB03KT CAVOK 23/13 Q1016 NOSIG
2026-04-30 08:50:00,METAR LGIR 300850Z 02004KT CAVOK 23/13 Q1016 NOSIG
2026-04-30 08:20:00,METAR LGIR 300820Z VRB02KT CAVOK 23/11 Q1016 NOSIG
2026-04-30 07:50:00,METAR LGIR 300750Z 34004KT CAVOK 23/11 Q1016 NOSIG
2026-04-30 07:20:00,METAR LGIR 300720Z 34004KT CAVOK 22/11 Q1016 NOSIG
2026-04-30 06:50:00,METAR LGIR 300650Z VRB03KT CAVOK 23/11 Q1016 NOSIG
2026-04-30 06:20:00,METAR LGIR 300620Z 16004KT CAVOK 22/10 Q1016 NOSIG
2026-04-30 05:50:00,METAR LGIR 300550Z 17005KT CAVOK 20/09 Q1016 NOSIG
2026-04-30 05:20:00,METAR LGIR 300520Z 17007KT CAVOK 17/08 Q1016 NOSIG
2026-04-30 04:50:00,METAR LGIR 300450Z 17007KT CAVOK 16/07 Q1016 NOSIG
2026-04-30 04:20:00,METAR LGIR 300420Z 18008KT CAVOK 14/06 Q1016 NOSIG
2026-04-30 03:50:00,METAR LGIR 300350Z 18008KT CAVOK 13/06 Q1015 NOSIG
2026-04-30 03:20:00,METAR LGIR 300320Z 18008KT CAVOK 13/05 Q1015 NOSIG
2026-04-30 02:50:00,METAR LGIR 300250Z 17008KT CAVOK 14/06 Q1015 NOSIG
2026-04-30 02:20:00,METAR LGIR 300220Z 17008KT CAVOK 13/06 Q1015 NOSIG
2026-04-30 01:50:00,METAR LGIR 300150Z 18008KT CAVOK 13/06 Q1015 NOSIG
2026-04-30 01:20:00,METAR LGIR 300120Z 18009KT CAVOK 13/06 Q1015 NOSIG
2026-04-30 00:50:00,METAR LGIR 300050Z 17008KT CAVOK 14/05 Q1015 NOSIG
2026-04-30 00:20:00,METAR LGIR 300020Z 17009KT CAVOK 13/06 Q1015 NOSIG
2026-04-29 23:50:00,METAR LGIR 292350Z 18008KT CAVOK 13/06 Q1016 NOSIG
2026-04-29 23:20:00,METAR LGIR 292320Z 17008KT CAVOK 14/05 Q1016 NOSIG
2026-04-29 22:50:00,METAR LGIR 292250Z 17010KT CAVOK 14/06 Q1016 NOSIG
2026-04-29 22:20:00,METAR LGIR 292220Z 17007KT CAVOK 14/07 Q1016 NOSIG
2026-04-29 21:50:00,METAR LGIR 292150Z 17008KT CAVOK 14/07 Q1016 NOSIG
2026-04-29 21:20:00,METAR LGIR 292120Z 17008KT CAVOK 14/07 Q1016 NOSIG
2026-04-29 20:50:00,METAR LGIR 292050Z 18006KT CAVOK 14/07 Q1016 NOSIG
2026-04-29 20:20:00,METAR LGIR 292020Z 17007KT CAVOK 14/09 Q1017 NOSIG
2026-04-29 19:50:00,METAR LGIR 291950Z 17006KT CAVOK 14/09 Q1017 NOSIG
2026-04-29 19:20:00,METAR LGIR 291920Z 18005KT CAVOK 15/11 Q1017 NOSIG
2026-04-29 18:50:00,METAR LGIR 291850Z 18005KT CAVOK 15/11 Q1016 NOSIG
2026-04-29 18:20:00,METAR LGIR 291820Z 19005KT CAVOK 15/12 Q1016 NOSIG
2026-04-29 17:50:00,METAR LGIR 291750Z 19004KT CAVOK 16/13 Q1016 NOSIG
2026-04-29 17:20:00,METAR LGIR 291720Z 00000KT CAVOK 17/13 Q1016 NOSIG
2026-04-29 16:50:00,METAR LGIR 291650Z 00000KT CAVOK 19/14 Q1016 NOSIG
2026-04-29 16:20:00,METAR LGIR 291620Z 00000KT CAVOK 20/14 Q1016 NOSIG
2026-04-29 15:50:00,METAR LGIR 291550Z VRB02KT CAVOK 20/15 Q1016 NOSIG
2026-04-29 15:20:00,METAR LGIR 291520Z 32006KT CAVOK 20/15 Q1016 NOSIG
2026-04-29 14:50:00,METAR LGIR 291450Z 32006KT CAVOK 20/13 Q1016 NOSIG
2026-04-29 14:20:00,METAR LGIR 291420Z 31006KT CAVOK 20/13 Q1016 NOSIG
2026-04-29 13:50:00,METAR LGIR 291350Z 33007KT CAVOK 21/12 Q1016 NOSIG
2026-04-29 13:20:00,METAR LGIR 291320Z 35006KT CAVOK 21/12 Q1017 NOSIG
2026-04-29 12:50:00,METAR LGIR 291250Z 35005KT CAVOK 21/12 Q1017 NOSIG
2026-04-29 12:20:00,METAR LGIR 291220Z 35007KT CAVOK 22/13 Q1017 NOSIG
2026-04-29 11:50:00,METAR LGIR 291150Z 34006KT CAVOK 22/13 Q1017 NOSIG
2026-04-29 11:20:00,METAR LGIR 291120Z 35006KT CAVOK 21/13 Q1017 NOSIG
2026-04-29 10:50:00,METAR LGIR 291050Z 34006KT CAVOK 21/13 Q1017 NOSIG
2026-04-29 10:20:00,METAR LGIR 291020Z 33008KT CAVOK 21/13 Q1017 NOSIG
2026-04-29 09:50:00,METAR LGIR 290950Z 33009KT CAVOK 21/13 Q1018 NOSIG
2026-04-29 09:20:00,METAR LGIR 290920Z 34008KT CAVOK 21/12 Q1017 NOSIG
2026-04-29 08:50:00,METAR LGIR 290850Z 33007KT CAVOK 21/11 Q1017 NOSIG
2026-04-29 08:20:00,METAR LGIR 290820Z 33010KT CAVOK 21/11 Q1017 NOSIG
2026-04-29 07:50:00,METAR LGIR 290750Z 33010KT CAVOK 21/11 Q1017 NOSIG
2026-04-29 07:20:00,METAR LGIR 290720Z 32009KT CAVOK 20/11 Q1017 NOSIG
2026-04-29 06:50:00,METAR LGIR 290650Z 33008KT CAVOK 20/10 Q1017 NOSIG
2026-04-29 06:20:00,METAR LGIR 290620Z 33009KT CAVOK 19/11 Q1017 NOSIG
2026-04-29 05:50:00,METAR LGIR 290550Z 29005KT CAVOK 19/11 Q1017 NOSIG
2026-04-29 05:20:00,METAR LGIR 290520Z 35003KT CAVOK 18/11 Q1017 NOSIG
2026-04-29 04:50:00,METAR LGIR 290450Z 29005KT CAVOK 16/08 Q1016 NOSIG
2026-04-29 04:20:00,METAR LGIR 290420Z 17006KT 9999 FEW020 13/09 Q1016 NOSIG
2026-04-29 03:50:00,METAR LGIR 290350Z 19006KT 9999 FEW020 12/08 Q1016 NOSIG
2026-04-29 03:20:00,METAR LGIR 290320Z 17004KT 9999 FEW020 12/08 Q1016 NOSIG
2026-04-29 02:50:00,METAR LGIR 290250Z 17004KT 9999 FEW020 12/08 Q1016 NOSIG
2026-04-29 02:20:00,METAR LGIR 290220Z 17004KT 9999 FEW020 11/07 Q1016 NOSIG
2026-04-29 01:50:00,METAR LGIR 290150Z 17004KT 9999 FEW020 11/07 Q1016 NOSIG
2026-04-29 01:20:00,METAR LGIR 290120Z 18006KT 9999 FEW020 13/08 Q1016 NOSIG
2026-04-29 00:50:00,METAR LGIR 290050Z 18007KT 9999 FEW020 13/08 Q1016 NOSIG
2026-04-29 00:20:00,METAR LGIR 290020Z 18006KT 9999 FEW020 13/08 Q1016 NOSIG
2026-04-28 23:50:00,METAR LGIR 282350Z 17007KT 9999 FEW020 13/08 Q1016 NOSIG
2026-04-28 23:20:00,METAR LGIR 282320Z 18007KT 9999 FEW020 13/09 Q1017 NOSIG
2026-04-28 22:20:00,METAR LGIR 282220Z 15006KT 9999 FEW020 14/10 Q1017 NOSIG
2026-04-28 21:50:00,METAR LGIR 282150Z 17007KT 9999 FEW020 14/10 Q1017 NOSIG
2026-04-28 21:20:00,METAR LGIR 282120Z 17007KT 9999 FEW020 14/10 Q1017 NOSIG
2026-04-28 20:50:00,METAR LGIR 282050Z 19005KT 9999 FEW020 14/11 Q1017 NOSIG
2026-04-28 20:20:00,METAR LGIR 282020Z 16003KT 9999 FEW020 15/11 Q1017 NOSIG
2026-04-28 19:50:00,METAR LGIR 281950Z VRB03KT 9999 FEW020 15/11 Q1017 NOSIG
2026-04-28 19:20:00,METAR LGIR 281920Z 31006KT 9999 FEW020 17/12 Q1017 NOSIG
2026-04-28 18:50:00,METAR LGIR 281850Z 30005KT 9999 FEW020 17/12 Q1017 NOSIG
2026-04-28 18:20:00,METAR LGIR 281820Z 30005KT 9999 FEW020 17/12 Q1016 NOSIG
2026-04-28 17:50:00,METAR LGIR 281750Z 31006KT 9999 FEW020 17/12 Q1016 NOSIG
2026-04-28 17:20:00,METAR LGIR 281720Z 31007KT 9999 FEW020 17/12 Q1016 NOSIG
2026-04-28 16:50:00,METAR LGIR 281650Z 31009KT 9999 FEW020 18/12 Q1016 NOSIG
2026-04-28 16:20:00,METAR LGIR 281620Z 32010KT 9999 FEW020 19/12 Q1016 NOSIG
2026-04-28 15:50:00,METAR LGIR 281550Z 33009KT 9999 FEW020 19/12 Q1016 NOSIG
2026-04-28 15:20:00,METAR LGIR 281520Z 33009KT 9999 FEW020 20/14 Q1016 NOSIG
2026-04-28 14:50:00,METAR LGIR 281450Z 31010KT 9999 FEW020 20/14 Q1016 NOSIG
2026-04-28 14:20:00,METAR LGIR 281420Z 32011KT 9999 FEW020 20/14 Q1016 NOSIG
2026-04-28 13:50:00,METAR LGIR 281350Z 31012KT 9999 FEW020 20/14 Q1016 NOSIG
2026-04-28 13:20:00,METAR LGIR 281320Z 32011KT 9999 FEW020 21/14 Q1016 NOSIG
2026-04-28 12:50:00,METAR LGIR 281250Z 33013KT 9999 FEW020 21/14 Q1016 NOSIG
2026-04-28 12:20:00,METAR LGIR 281220Z 32014KT 9999 FEW020 21/15 Q1016 NOSIG
2026-04-28 11:50:00,METAR LGIR 281150Z 33010KT 9999 FEW020 21/15 Q1016 NOSIG
2026-04-28 11:20:00,METAR LGIR 281120Z 33010KT 9999 FEW020 21/15 Q1017 NOSIG
2026-04-28 10:50:00,METAR LGIR 281050Z 33010KT 9999 FEW020 21/15 Q1017 NOSIG
2026-04-28 10:20:00,METAR LGIR 281020Z 32012KT 9999 FEW020 20/15 Q1017 NOSIG
2026-04-28 09:50:00,METAR LGIR 280950Z 30014KT 9999 FEW020 20/15 Q1017 NOSIG
2026-04-28 09:20:00,METAR LGIR 280920Z 31015KT 9999 FEW020 20/15 Q1017 NOSIG
2026-04-28 08:50:00,METAR LGIR 280850Z 30014KT 9999 FEW020 20/15 Q1017 NOSIG
2026-04-28 08:20:00,METAR LGIR 280820Z 30014KT 9999 FEW020 20/14 Q1017 NOSIG
2026-04-28 07:50:00,METAR LGIR 280750Z 30012KT 9999 FEW020 20/14 Q1017 NOSIG
2026-04-28 07:20:00,METAR LGIR 280720Z 30010KT 9999 FEW020 19/14 Q1017 NOSIG
2026-04-28 06:50:00,METAR LGIR 280650Z 33007KT 9999 FEW020 19/14 Q1017 NOSIG
2026-04-28 06:20:00,METAR LGIR 280620Z 29005KT 9999 FEW020 19/13 Q1016 NOSIG
2026-04-28 05:50:00,METAR LGIR 280550Z 28003KT 9999 FEW020 18/13 Q1016 NOSIG
2026-04-28 05:20:00,METAR LGIR 280520Z 27005KT 9999 FEW020 17/14 Q1016 NOSIG
2026-04-28 04:50:00,METAR LGIR 280450Z 17003KT 9999 FEW020 15/12 Q1016 NOSIG
2026-04-28 04:20:00,METAR LGIR 280420Z 19004KT 9999 FEW020 13/11 Q1016 NOSIG
2026-04-28 03:50:00,METAR LGIR 280350Z 17004KT 9999 FEW020 12/10 Q1016 NOSIG
2026-04-28 03:20:00,METAR LGIR 280320Z 18004KT 9999 FEW020 12/10 Q1015 NOSIG
2026-04-28 02:50:00,METAR LGIR 280250Z 17004KT 9999 FEW020 12/11 Q1015 NOSIG
2026-04-28 02:20:00,METAR LGIR 280220Z 18004KT 9999 FEW020 12/10 Q1015 NOSIG
2026-04-28 01:50:00,METAR LGIR 280150Z 17006KT 9999 FEW020 12/10 Q1015 NOSIG
2026-04-28 01:20:00,METAR LGIR 280120Z 17005KT 9999 FEW020 13/10 Q1016 NOSIG
2026-04-28 00:50:00,METAR LGIR 280050Z 17005KT 9999 FEW020 13/10 Q1016 NOSIG
2026-04-28 00:20:00,METAR LGIR 280020Z 17007KT 9999 FEW020 13/11 Q1016 NOSIG
2026-04-27 23:50:00,METAR LGIR 272350Z 17007KT 9999 FEW020 14/11 Q1016 NOSIG
2026-04-27 23:20:00,METAR LGIR 272320Z 17006KT 9999 FEW020 13/11 Q1016 NOSIG
2026-04-27 22:50:00,METAR LGIR 272250Z 17007KT 9999 FEW020 13/11 Q1016 NOSIG
2026-04-27 22:20:00,METAR LGIR 272220Z 18006KT 9999 FEW020 14/11 Q1016 NOSIG
2026-04-27 21:50:00,METAR LGIR 272150Z 17006KT 9999 FEW020 14/11 Q1016 NOSIG
2026-04-27 21:20:00,METAR LGIR 272120Z 17006KT 9999 FEW020 14/11 Q1016 NOSIG
2026-04-27 20:50:00,METAR LGIR 272050Z 17006KT 9999 FEW020 14/11 Q1017 NOSIG
2026-04-27 20:20:00,METAR LGIR 272020Z 17005KT 9999 FEW020 15/12 Q1017 NOSIG
2026-04-27 19:50:00,METAR LGIR 271950Z 17003KT 9999 FEW020 15/12 Q1017 NOSIG
2026-04-27 19:20:00,METAR LGIR 271920Z 18003KT 9999 FEW020 15/12 Q1017 NOSIG
2026-04-27 18:50:00,METAR LGIR 271850Z 23004KT 9999 FEW020 16/12 Q1017 NOSIG
2026-04-27 18:20:00,METAR LGIR 271820Z VRB02KT 9999 FEW020 17/13 Q1017 NOSIG
2026-04-27 17:50:00,METAR LGIR 271750Z 31005KT 9999 FEW020 17/14 Q1016 NOSIG
2026-04-27 17:20:00,METAR LGIR 271720Z 30006KT 9999 FEW020 18/14 Q1016 NOSIG
2026-04-27 16:50:00,METAR LGIR 271650Z 32009KT 9999 FEW020 18/15 Q1016 NOSIG
2026-04-27 16:20:00,METAR LGIR 271620Z 32008KT 9999 FEW020 19/16 Q1016 NOSIG
2026-04-27 15:50:00,METAR LGIR 271550Z 32009KT 9999 FEW020 20/16 Q1016 NOSIG
2026-04-27 15:20:00,METAR LGIR 271520Z 32007KT 9999 FEW020 20/16 Q1016 NOSIG
2026-04-27 14:50:00,METAR LGIR 271450Z 30008KT 9999 FEW020 21/15 Q1016 NOSIG
2026-04-27 14:20:00,METAR LGIR 271420Z 30011KT 9999 FEW020 21/16 Q1016 NOSIG
2026-04-27 13:50:00,METAR LGIR 271350Z 30012KT 9999 FEW020 21/16 Q1016 NOSIG
2026-04-27 13:20:00,METAR LGIR 271320Z 31012KT 9999 FEW020 20/16 Q1016 NOSIG
2026-04-27 12:50:00,METAR LGIR 271250Z 31014KT 9999 FEW020 20/17 Q1016 NOSIG
2026-04-27 12:20:00,METAR LGIR 271220Z 33010KT 9999 FEW020 21/16 Q1017 NOSIG
2026-04-27 11:50:00,METAR LGIR 271150Z 35010KT 9999 FEW020 21/16 Q1017 NOSIG
2026-04-27 11:20:00,METAR LGIR 271120Z 36004KT 9999 FEW020 21/15 Q1017 NOSIG
2026-04-27 10:50:00,METAR LGIR 271050Z 35004KT 9999 FEW020 21/15 Q1017 NOSIG
2026-04-27 10:20:00,METAR LGIR 271020Z VRB03KT 9999 FEW020 21/15 Q1017 NOSIG
2026-04-27 09:50:00,METAR LGIR 270950Z 06004KT 9999 FEW020 21/15 Q1017 NOSIG
2026-04-27 09:20:00,METAR LGIR 270920Z 01004KT CAVOK 20/15 Q1018 NOSIG
2026-04-27 08:50:00,METAR LGIR 270850Z 34006KT CAVOK 20/15 Q1018 NOSIG
2026-04-27 08:20:00,METAR LGIR 270820Z 36004KT CAVOK 20/14 Q1018 NOSIG
2026-04-27 07:50:00,METAR LGIR 270750Z 35005KT CAVOK 20/13 Q1017 NOSIG
2026-04-27 07:20:00,METAR LGIR 270720Z 33003KT CAVOK 20/12 Q1017 NOSIG
2026-04-27 06:50:00,METAR LGIR 270650Z 29003KT CAVOK 20/12 Q1017 NOSIG
2026-04-27 06:20:00,METAR LGIR 270620Z 30004KT CAVOK 19/11 Q1017 NOSIG
2026-04-27 05:50:00,METAR LGIR 270550Z 15003KT CAVOK 18/11 Q1017 NOSIG
2026-04-27 05:20:00,METAR LGIR 270520Z 20003KT 9999 FEW020 17/10 Q1016 NOSIG
2026-04-27 04:50:00,METAR LGIR 270450Z VRB03KT 9999 FEW020 14/10 Q1016 NOSIG
2026-04-27 04:20:00,METAR LGIR 270420Z 17005KT 9999 FEW020 13/08 Q1016 NOSIG
2026-04-27 03:50:00,METAR LGIR 270350Z 17008KT 9999 FEW020 13/08 Q1016 NOSIG
2026-04-27 03:20:00,METAR LGIR 270320Z 15010KT 9999 FEW020 13/09 Q1015 NOSIG
2026-04-27 02:50:00,METAR LGIR 270250Z 15009KT 9999 FEW020 13/09 Q1015 NOSIG
2026-04-27 02:20:00,METAR LGIR 270220Z 17007KT 9999 FEW020 13/09 Q1016 NOSIG
2026-04-27 01:50:00,METAR LGIR 270150Z 16009KT 9999 FEW020 12/09 Q1015 NOSIG
2026-04-27 01:20:00,METAR LGIR 270120Z 17008KT 9999 FEW020 13/09 Q1016 NOSIG
2026-04-27 00:50:00,METAR LGIR 270050Z 17009KT 9999 FEW020 13/09 Q1016 NOSIG
2026-04-27 00:20:00,METAR LGIR 270020Z 16008KT 9999 FEW020 13/09 Q1016 NOSIG
2026-04-26 23:50:00,METAR LGIR 262350Z 17008KT 9999 FEW020 13/09 Q1016 NOSIG
2026-04-26 23:20:00,METAR LGIR 262320Z 17005KT 9999 FEW020 14/10 Q1016 NOSIG
2026-04-26 22:50:00,METAR LGIR 262250Z COR 18006KT 9999 FEW020 14/10 Q1016 NOSIG
2026-04-26 22:20:00,METAR LGIR 262220Z 17006KT 9999 FEW020 14/10 Q1016 NOSIG
2026-04-26 21:50:00,METAR LGIR 262150Z 19004KT 9999 FEW020 14/10 Q1016 NOSIG
2026-04-26 21:20:00,METAR LGIR 262120Z 19005KT 9999 FEW020 14/10 Q1016 NOSIG
2026-04-26 20:50:00,METAR LGIR 262050Z 17007KT 9999 FEW020 14/10 Q1016 NOSIG
2026-04-26 20:20:00,METAR LGIR 262020Z 16009KT 9999 FEW020 14/10 Q1016 NOSIG
2026-04-26 19:50:00,METAR LGIR 261950Z 15009KT 9999 FEW020 14/10 Q1016 NOSIG
2026-04-26 19:20:00,METAR LGIR 261920Z 14009KT 9999 FEW020 15/11 Q1016 NOSIG
2026-04-26 18:50:00,METAR LGIR 261850Z 16007KT 9999 FEW020 15/11 Q1016 NOSIG
2026-04-26 18:20:00,METAR LGIR 261820Z 16004KT 9999 FEW020 17/14 Q1015 NOSIG
2026-04-26 17:50:00,METAR LGIR 261750Z 15003KT 9999 FEW020 17/14 Q1015 NOSIG
2026-04-26 17:20:00,METAR LGIR 261720Z 03002KT 9999 FEW020 18/14 Q1015 NOSIG
2026-04-26 16:50:00,METAR LGIR 261650Z 04004KT 9999 FEW020 19/13 Q1014 NOSIG
2026-04-26 16:20:00,METAR LGIR 261620Z 30005KT 9999 FEW020 21/11 Q1014 NOSIG
2026-04-26 15:50:00,METAR LGIR 261550Z 29008KT 9999 FEW025 20/11 Q1014 NOSIG
2026-04-26 15:20:00,METAR LGIR 261520Z 30012KT 9999 FEW025 20/13 Q1014 NOSIG
2026-04-26 14:50:00,METAR LGIR 261450Z 31011KT 9999 FEW025 20/13 Q1014 NOSIG
2026-04-26 14:20:00,METAR LGIR 261420Z 30013KT 9999 FEW025 20/13 Q1014 NOSIG
2026-04-26 13:50:00,METAR LGIR 261350Z 31013KT 9999 FEW025 20/13 Q1014 NOSIG
2026-04-26 13:20:00,METAR LGIR 261320Z 31013KT 9999 FEW020 SCT025 20/13 Q1014 NOSIG
2026-04-26 12:50:00,METAR LGIR 261250Z 31013KT 9999 FEW020 SCT025 20/13 Q1014 NOSIG
2026-04-26 12:20:00,METAR LGIR 261220Z 30017KT 9999 FEW020 SCT025 20/13 Q1014 NOSIG
2026-04-26 11:50:00,METAR LGIR 261150Z 30013KT 9999 FEW020 SCT025 21/12 Q1014 NOSIG
2026-04-26 11:20:00,METAR LGIR 261120Z 30015KT 9999 FEW016 SCT025 20/13 Q1014 NOSIG
2026-04-26 10:50:00,METAR LGIR 261050Z 31016KT 9999 FEW016 SCT025 20/13 Q1014 NOSIG
2026-04-26 10:20:00,METAR LGIR 261020Z 30016KT 9999 FEW016 SCT025 20/13 Q1014 NOSIG
2026-04-26 09:50:00,METAR LGIR 260950Z 30014KT 9999 FEW016 SCT025 20/13 Q1014 NOSIG
2026-04-26 09:20:00,METAR LGIR 260920Z 30015KT 9999 FEW016 SCT025 20/13 Q1014 NOSIG
2026-04-26 08:50:00,METAR LGIR 260850Z 30014KT 9999 FEW016 SCT025 20/13 Q1014 NOSIG
2026-04-26 08:20:00,METAR LGIR 260820Z 30017KT 9999 FEW016 SCT025 19/14 Q1013 NOSIG
2026-04-26 07:50:00,METAR LGIR 260750Z 29017KT 9999 FEW016 SCT025 19/14 Q1013 NOSIG
2026-04-26 07:20:00,METAR LGIR 260720Z 30016KT 9999 FEW016 SCT025 18/13 Q1013 NOSIG
2026-04-26 06:50:00,METAR LGIR 260650Z 30015KT 9999 FEW016 SCT025 18/13 Q1013 NOSIG
2026-04-26 06:20:00,METAR LGIR 260620Z 29019KT 9999 FEW016 BKN025 BKN080 17/14 Q1012 NOSIG
2026-04-26 05:50:00,METAR LGIR 260550Z 29019KT 9999 FEW016 BKN025 BKN080 17/14 Q1012 NOSIG
2026-04-26 05:20:00,METAR LGIR 260520Z 29017KT 9999 FEW012 FEW016TCU BKN025 BKN080 16/14 Q1012 NOSIG
2026-04-26 04:50:00,METAR LGIR 260450Z 28017KT 9999 FEW012 FEW016TCU BKN020 BKN080 15/13 Q1012 NOSIG
2026-04-26 04:20:00,METAR LGIR 260420Z 27013KT 9999 SCT010 FEW016TCU BKN020 BKN080 14/13 Q1012 NOSIG
2026-04-26 03:50:00,METAR LGIR 260350Z 23005KT 8000 TSRA SCT010 FEW016CB BKN020 BKN080 14/14 Q1011 NOSIG
2026-04-26 03:20:00,METAR LGIR 260320Z 30012KT 6000 TSRA SCT010 FEW016CB BKN020 BKN080 15/13 Q1011 NOSIG
2026-04-26 02:50:00,METAR LGIR 260250Z 29016KT 8000 -TSRA FEW010 FEW016CB BKN020 BKN080 15/13 Q1011 NOSIG
2026-04-26 01:50:00,METAR LGIR 260150Z 27011KT 9999 SCT010 FEW016TCU BKN020 BKN080 15/13 Q1010 NOSIG
2026-04-26 01:20:00,METAR LGIR 260120Z 29013KT 9999 -RA SCT010 FEW016TCU BKN020 BKN080 15/13 Q1011 NOSIG
2026-04-26 00:50:00,METAR LGIR 260050Z 28012KT 9999 SCT010 FEW016TCU BKN020 BKN080 15/13 Q1011 NOSIG
2026-04-26 00:20:00,METAR LGIR 260020Z 28014KT 9999 SCT010 FEW016TCU BKN020 BKN080 15/13 Q1011 NOSIG
2026-04-25 23:50:00,METAR LGIR 252350Z 28014KT 9999 SCT010 FEW016TCU BKN020 BKN080 15/13 Q1011 NOSIG
2026-04-25 23:20:00,METAR LGIR 252320Z 28013KT 9999 SCT010 FEW016TCU BKN020 BKN080 15/13 Q1011 NOSIG
2026-04-25 22:50:00,METAR LGIR 252250Z 30014KT 9999 SCT010 FEW016TCU BKN018 BKN080 15/13 Q1011 NOSIG
2026-04-25 22:20:00,METAR LGIR 252220Z 28011KT 9999 SCT010 FEW018TCU BKN020 BKN080 15/12 Q1011 NOSIG
2026-04-25 21:50:00,METAR LGIR 252150Z 29009KT 9999 SCT010 FEW018TCU BKN020 BKN080 14/13 Q1011 NOSIG
2026-04-25 21:20:00,METAR LGIR 252120Z 30009KT 9999 SCT010 FEW018TCU BKN020 BKN080 14/13 Q1011 NOSIG
2026-04-25 20:50:00,METAR LGIR 252050Z 28006KT 9999 SCT010 FEW018TCU BKN020 BKN080 14/12 Q1011 NOSIG
2026-04-25 20:20:00,METAR LGIR 252020Z 21003KT 9999 SCT010 FEW018TCU BKN020 BKN080 13/12 Q1011 NOSIG
2026-04-25 19:50:00,METAR LGIR 251950Z 19003KT 9999 FEW010 FEW018TCU BKN020 BKN080 13/11 Q1011 NOSIG
2026-04-25 19:20:00,METAR LGIR 251920Z 17003KT 9999 FEW010 FEW018TCU SCT020 BKN080 13/11 Q1011 NOSIG
2026-04-25 18:50:00,METAR LGIR 251850Z 26004KT 9999 FEW010 FEW018TCU SCT020 13/12 Q1011 NOSIG
2026-04-25 18:20:00,METAR LGIR 251820Z 29007KT 9999 SCT010 FEW018TCU BKN020 BKN080 14/12 Q1011 NOSIG
2026-04-25 17:50:00,METAR LGIR 251750Z 29011KT 9999 SCT010 FEW018TCU BKN020 BKN080 14/13 Q1011 NOSIG
2026-04-25 17:20:00,METAR LGIR 251720Z 31012KT 9999 SCT010 FEW018TCU BKN020 BKN080 14/13 Q1010 NOSIG
2026-04-25 16:50:00,METAR LGIR 251650Z 33012KT 9999 SCT010 FEW018CB BKN020 BKN080 14/13 Q1010 NOSIG
2026-04-25 16:20:00,METAR LGIR 251620Z 32010KT 9999 SCT010 FEW018CB BKN020 BKN080 14/13 Q1010 NOSIG
2026-04-25 15:50:00,METAR LGIR 251550Z 30007KT 9999 -TSRA SCT010 FEW018CB BKN020 BKN080 14/13 Q1010 RERA NOSIG
2026-04-25 15:20:00,METAR LGIR 251520Z 32005KT 3000 TSRA SCT010 FEW018CB BKN020 BKN080 14/13 Q1010 NOSIG
2026-04-25 14:50:00,METAR LGIR 251450Z 10005KT 3000 TSRA SCT010 FEW018CB BKN020 BKN080 13/13 Q1010 NOSIG
2026-04-25 14:20:00,METAR LGIR 251420Z 10011KT 3000 RA SCT010 FEW018TCU BKN020 BKN080 14/13 Q1010 NOSIG
2026-04-25 13:50:00,METAR LGIR 251350Z 09008KT 9999 -RA SCT010 BKN020 BKN080 15/13 Q1010 NOSIG
2026-04-25 13:20:00,METAR LGIR 251320Z 03007KT 9999 SCT010 BKN020 BKN080 15/14 Q1010 NOSIG
2026-04-25 12:50:00,METAR LGIR 251250Z 31008KT 9999 -RA SCT010 BKN020 BKN080 15/14 Q1010 NOSIG
2026-04-25 12:20:00,METAR LGIR 251220Z 32008KT 9999 FEW010 BKN020 BKN080 15/14 Q1010 NOSIG
2026-04-25 11:50:00,METAR LGIR 251150Z 32006KT 9999 FEW010 BKN020 BKN080 16/13 Q1010 NOSIG
2026-04-25 11:20:00,METAR LGIR 251120Z 32006KT 9999 FEW010 BKN020 BKN080 16/13 Q1011 NOSIG
2026-04-25 10:50:00,METAR LGIR 251050Z 32007KT 9999 FEW010 BKN020 BKN080 15/13 Q1010 NOSIG
2026-04-25 10:20:00,METAR LGIR 251020Z 29005KT 9999 FEW010 BKN020 BKN080 15/13 Q1011 NOSIG
2026-04-25 09:50:00,METAR LGIR 250950Z 26004KT 9999 FEW010 BKN020 BKN080 14/13 Q1011 NOSIG
2026-04-25 09:20:00,METAR LGIR 250920Z 18003KT 9999 FEW010 BKN020 BKN080 14/13 Q1011 NOSIG
2026-04-25 08:50:00,METAR LGIR 250850Z 28006KT 9999 FEW010 BKN020 BKN080 14/13 Q1011 NOSIG
2026-04-25 08:20:00,METAR LGIR 250820Z 30004KT 9999 FEW010 BKN020 BKN080 13/12 Q1012 NOSIG
2026-04-25 07:50:00,METAR LGIR 250750Z 19003KT 9999 SCT010 BKN020 OVC080 12/11 Q1012 NOSIG
2026-04-25 07:20:00,METAR LGIR 250720Z 16004KT 9999 SCT010 BKN020 OVC080 12/11 Q1012 NOSIG
2026-04-25 06:50:00,METAR LGIR 250650Z 22005KT 9999 SCT010 BKN020 OVC080 18/11 Q1011 NOSIG
2026-04-25 06:20:00,METAR LGIR 250620Z 25006KT 9999 SCT010 BKN020 OVC080 12/10 Q1011 NOSIG
2026-04-25 05:50:00,METAR LGIR 250550Z 24006KT 9999 SCT010 BKN020 BKN080 12/10 Q1011 RERA NOSIG
2026-04-25 05:20:00,METAR LGIR 250520Z 20003KT 6000 RA SCT010 BKN020 BKN080 11/10 Q1011 NOSIG
2026-04-25 04:50:00,METAR LGIR 250450Z 18003KT 5000 RA SCT010 BKN025 BKN080 11/10 Q1011 NOSIG
2026-04-25 04:20:00,METAR LGIR 250420Z 22005KT 9999 -RA SCT010 BKN025 BKN080 11/10 Q1011 NOSIG
2026-04-25 03:50:00,METAR LGIR 250350Z 21004KT 9999 -RA SCT010 BKN025 BKN080 11/10 Q1011 NOSIG
2026-04-25 03:20:00,METAR LGIR 250320Z 25007KT 9999 -RA SCT010 BKN025 BKN080 11/11 Q1011 NOSIG
2026-04-25 02:50:00,METAR LGIR 250250Z 25006KT 9999 -RA SCT010 BKN025 BKN080 11/11 Q1011 NOSIG
2026-04-25 02:20:00,METAR LGIR 250220Z 22006KT 9999 -RA SCT010 BKN025 BKN080 11/11 Q1011 NOSIG
2026-04-25 01:50:00,METAR LGIR 250150Z 23006KT 9999 -RA SCT010 BKN025 BKN080 11/11 Q1011 NOSIG
2026-04-25 01:20:00,METAR LGIR 250120Z 24007KT 9999 -RA SCT010 BKN025 BKN080 12/12 Q1011 NOSIG
2026-04-25 00:50:00,METAR LGIR 250050Z 24003KT 9999 -RA SCT010 BKN025 BKN080 12/12 Q1011 NOSIG
2026-04-25 00:20:00,METAR LGIR 250020Z 21002KT 9999 -RA SCT010 BKN025 BKN080 12/12 Q1011 NOSIG
2026-04-24 23:50:00,METAR LGIR 242350Z 21002KT 9999 -RA SCT010 BKN025 BKN080 12/12 Q1011 NOSIG
2026-04-24 23:20:00,METAR LGIR 242320Z 24003KT 9999 -RA SCT010 BKN025 BKN080 12/12 Q1012 NOSIG
2026-04-24 22:50:00,METAR LGIR 242250Z 19002KT 9999 -RA SCT010 BKN025 BKN080 12/11 Q1012 NOSIG
2026-04-24 22:20:00,METAR LGIR 242220Z 22003KT 9999 -RA SCT010 BKN025 BKN080 12/11 Q1012 NOSIG
2026-04-24 21:50:00,METAR LGIR 242150Z 18002KT 9999 -RA SCT010 BKN025 BKN080 12/11 Q1012 NOSIG
2026-04-24 21:20:00,METAR LGIR 242120Z 17005KT 9999 -RA SCT010 BKN025 BKN080 12/11 Q1013 NOSIG
2026-04-24 20:50:00,METAR LGIR 242050Z COR 18003KT 9999 -RA SCT010 BKN025 BKN080 12/11 Q1013 NOSIG
2026-04-24 20:20:00,METAR LGIR 242020Z 18003KT 9999 SCT010 BKN025 BKN080 12/12 Q1013 NOSIG
2026-04-24 19:50:00,METAR LGIR 241950Z 20002KT 9999 SCT010 BKN025 BKN080 12/12 Q1013 NOSIG
2026-04-24 19:20:00,METAR LGIR 241920Z 23004KT 9999 -RA SCT010 BKN025 BKN080 12/12 Q1013 NOSIG
2026-04-24 18:50:00,METAR LGIR 241850Z 22004KT 9999 -RA SCT010 BKN025 BKN080 12/12 Q1012 NOSIG
2026-04-24 18:20:00,METAR LGIR 241820Z 22003KT 9999 -RA SCT010 BKN025 BKN080 12/12 Q1013 NOSIG
2026-04-24 17:50:00,METAR LGIR 241750Z 24003KT 9999 -RA SCT010 BKN025 BKN080 12/12 Q1013 RERA NOSIG
2026-04-24 17:20:00,METAR LGIR 241720Z 20003KT 9999 RA SCT010 BKN025 BKN080 13/12 Q1013 NOSIG
2026-04-24 16:50:00,METAR LGIR 241650Z 18002KT 9999 RA SCT010 BKN025 BKN080 13/12 Q1013 NOSIG
2026-04-24 16:20:00,METAR LGIR 241620Z COR 34003KT 9999 -RA SCT010 BKN025 BKN080 14/11 Q1013 NOSIG
2026-04-24 15:50:00,METAR LGIR 241550Z 03004KT 9999 -RA SCT010 BKN025 BKN080 14/11 Q1012 NOSIG
2026-04-24 15:20:00,METAR LGIR 241520Z 02007KT 9999 -RA SCT010 BKN025 BKN080 14/11 Q1012 NOSIG
2026-04-24 14:50:00,METAR LGIR 241450Z 36006KT 9999 -RA SCT010 BKN025 BKN080 14/11 Q1012 NOSIG
2026-04-24 14:20:00,METAR LGIR 241420Z 36006KT 9999 SCT010 BKN025 BKN080 14/12 Q1012 NOSIG
2026-04-24 13:50:00,METAR LGIR 241350Z 36007KT 9999 SCT010 BKN025 BKN080 14/12 Q1012 NOSIG
2026-04-24 13:20:00,METAR LGIR 241320Z 34005KT 9999 SCT010 BKN025 BKN080 14/12 Q1012 NOSIG
2026-04-24 12:50:00,METAR LGIR 241250Z 35006KT 9999 SCT010 BKN025 BKN080 14/12 Q1013 NOSIG
2026-04-24 12:20:00,METAR LGIR 241220Z 35008KT 9999 -RA SCT010 BKN025 BKN080 14/12 Q1013 NOSIG
2026-04-24 11:50:00,METAR LGIR 241150Z 31008KT 9000 -RA SCT010 BKN025 BKN080 14/12 Q1013 NOSIG
2026-04-24 11:20:00,METAR LGIR 241120Z 29008KT 9000 -RA SCT010 BKN025 BKN080 13/12 Q1013 RERA NOSIG
2026-04-24 10:50:00,METAR LGIR 241050Z 28005KT 9000 RA SCT010 BKN025 BKN080 13/11 Q1013 NOSIG
2026-04-24 10:20:00,METAR LGIR 241020Z 27005KT 9000 -RA FEW010 BKN025 BKN080 13/11 Q1013 NOSIG
2026-04-24 09:50:00,METAR LGIR 240950Z 24004KT 9999 -RA FEW010 BKN025 BKN080 13/11 Q1013 NOSIG
2026-04-24 08:50:00,METAR LGIR 240850Z 23005KT 8000 -RA FEW010 BKN025 BKN080 13/11 Q1014 NOSIG
2026-04-24 08:20:00,METAR LGIR 240820Z 24005KT 9000 -RA FEW010 BKN025 BKN080 13/11 Q1014 NOSIG
2026-04-24 07:50:00,METAR LGIR 240750Z 27005KT 9000 -RA FEW010 BKN025 BKN080 13/11 Q1014 NOSIG
2026-04-24 06:50:00,METAR LGIR 240650Z 29006KT 7000 RA FEW010 BKN025 BKN080 13/11 Q1014 NOSIG
2026-04-24 06:20:00,METAR LGIR 240620Z 29006KT 9999 -RA FEW012 BKN025 BKN080 14/11 Q1014 NOSIG
2026-04-24 05:50:00,METAR LGIR 240550Z 31006KT 9999 -RA FEW012 BKN025 BKN080 14/11 Q1013 NOSIG
2026-04-24 05:20:00,METAR LGIR 240520Z VRB02KT 9999 FEW012 BKN025 BKN080 14/11 Q1013 NOSIG
2026-04-24 04:50:00,METAR LGIR 240450Z VRB03KT 9999 FEW012 BKN025 BKN080 14/11 Q1012 NOSIG
2026-04-24 04:20:00,METAR LGIR 240420Z VRB03KT 9999 SCT010 BKN025 BKN080 14/11 Q1013 NOSIG
2026-04-24 03:50:00,METAR LGIR 240350Z 01005KT 9999 SCT010 BKN020 BKN080 13/11 Q1012 NOSIG
2026-04-24 03:20:00,METAR LGIR 240320Z 34007KT 9999 SCT010 FEW018TCU BKN020 BKN080 13/11 Q1013 NOSIG
2026-04-24 02:50:00,METAR LGIR 240250Z 33009KT 9999 SCT010 FEW018TCU BKN020 BKN080 14/11 Q1013 NOSIG
2026-04-24 02:20:00,METAR LGIR 240220Z 33010KT 9999 -RA SCT010 FEW018TCU BKN020 BKN080 14/11 Q1013 NOSIG
2026-04-24 01:50:00,METAR LGIR 240150Z 36007KT 9999 SCT010 FEW018TCU BKN020 BKN080 15/11 Q1012 NOSIG
2026-04-24 01:20:00,METAR LGIR 240120Z VRB03KT 9999 SCT010 BKN020 BKN080 15/11 Q1012 NOSIG
2026-04-24 00:50:00,METAR LGIR 240050Z VRB03KT 9999 SCT010 BKN020 BKN080 15/11 Q1013 NOSIG
2026-04-24 00:20:00,METAR LGIR 240020Z 01004KT 9999 SCT010 BKN020 BKN080 15/11 Q1013 NOSIG
2026-04-23 23:50:00,METAR LGIR 232350Z 34006KT 9999 SCT010 BKN020 BKN080 15/11 Q1013 NOSIG
2026-04-23 23:20:00,METAR LGIR 232320Z 35008KT 9999 SCT010 BKN020 BKN080 15/11 Q1013 NOSIG
2026-04-23 22:50:00,METAR LGIR 232250Z 01006KT 9999 SCT010 BKN020 BKN080 15/11 Q1013 NOSIG
2026-04-23 22:20:00,METAR LGIR 232220Z 35005KT 9999 SCT010 BKN020 BKN080 14/12 Q1013 NOSIG
2026-04-23 21:50:00,METAR LGIR 232150Z 01005KT 9999 SCT010 BKN020 BKN080 14/12 Q1013 NOSIG
2026-04-23 21:20:00,METAR LGIR 232120Z 22003KT 9999 SCT010 BKN020 BKN080 14/13 Q1013 NOSIG
2026-04-23 20:50:00,METAR LGIR 232050Z 18004KT 9999 SCT010 BKN020 BKN080 14/13 Q1013 NOSIG
2026-04-23 20:20:00,METAR LGIR 232020Z 19003KT 9999 SCT010 BKN020 BKN080 14/13 Q1013 NOSIG
2026-04-23 19:50:00,METAR LGIR 231950Z 05004KT 9999 SCT010 BKN020 BKN080 14/13 Q1013 NOSIG
2026-04-23 19:20:00,METAR LGIR 231920Z 07004KT 9999 SCT010 BKN020 BKN080 14/13 Q1013 NOSIG
2026-04-23 18:50:00,METAR LGIR 231850Z 02005KT 9999 SCT010 BKN020 BKN080 15/13 Q1013 NOSIG
2026-04-23 18:20:00,METAR LGIR 231820Z 03005KT 9999 SCT010 BKN020 BKN080 15/13 Q1013 NOSIG
2026-04-23 17:50:00,METAR LGIR 231750Z 36007KT 9999 SCT010 BKN020 BKN080 15/13 Q1013 NOSIG
2026-04-23 17:20:00,METAR LGIR 231720Z VRB03KT 9999 FEW010 BKN020 BKN080 15/14 Q1012 NOSIG
2026-04-23 16:50:00,METAR LGIR 231650Z VRB01KT 9999 FEW010 BKN025 BKN080 15/14 Q1012 NOSIG
2026-04-23 16:20:00,METAR LGIR 231620Z VRB02KT 9999 FEW010 BKN025 BKN080 15/14 Q1012 NOSIG
2026-04-23 15:50:00,METAR LGIR 231550Z VRB02KT 9000 -RA FEW010 BKN025 BKN080 15/14 Q1012 NOSIG
2026-04-23 15:20:00,METAR LGIR 231520Z VRB02KT 4000 -RA FEW018 BKN025 BKN080 15/14 Q1012 NOSIG
2026-04-23 14:50:00,METAR LGIR 231450Z 00000KT 4000 -RA FEW018 BKN025 BKN080 15/14 Q1012 NOSIG
2026-04-23 14:20:00,METAR LGIR 231420Z 03004KT 7000 -RA FEW018 BKN025 BKN080 16/14 Q1012 NOSIG
2026-04-23 13:50:00,METAR LGIR 231350Z 02006KT 7000 -RA FEW018 BKN025 BKN080 16/14 Q1012 NOSIG
2026-04-23 13:20:00,METAR LGIR 231320Z 04007KT 9999 FEW018 BKN025 17/14 Q1012 NOSIG
2026-04-23 12:50:00,METAR LGIR 231250Z 04007KT 9999 FEW018 BKN025 17/14 Q1012 NOSIG
2026-04-23 12:20:00,METAR LGIR 231220Z 05007KT 9999 FEW018 BKN025 18/14 Q1012 NOSIG
2026-04-23 11:20:00,METAR LGIR 231120Z 01011KT 9999 FEW018 BKN025 19/14 Q1012 NOSIG
2026-04-23 10:50:00,METAR LGIR 231050Z 01011KT 9999 FEW018 BKN025 19/14 Q1012 NOSIG
2026-04-23 10:20:00,METAR LGIR 231020Z 33012KT 9999 FEW018 BKN025 19/14 Q1012 NOSIG
2026-04-23 09:50:00,METAR LGIR 230950Z 31016KT 9999 FEW018 BKN025 19/14 Q1012 NOSIG
2026-04-23 09:20:00,METAR LGIR 230920Z 31015KT 9999 FEW018 BKN025 19/14 Q1012 NOSIG
2026-04-23 08:50:00,METAR LGIR 230850Z 33012KT 9999 FEW018 BKN025 19/14 Q1012 NOSIG
2026-04-23 08:20:00,METAR LGIR 230820Z 34009KT 9999 FEW018 BKN025 19/14 Q1012 NOSIG
2026-04-23 07:50:00,METAR LGIR 230750Z 34005KT 9999 FEW018 BKN025 19/14 Q1012 NOSIG
2026-04-23 07:20:00,METAR LGIR 230720Z 35004KT 9999 FEW018 BKN025 19/14 Q1012 NOSIG
2026-04-23 06:50:00,METAR LGIR 230650Z VRB03KT 9999 FEW018 BKN025 19/14 Q1012 NOSIG
2026-04-23 06:20:00,METAR LGIR 230620Z VRB02KT 9999 FEW018 SCT020 18/14 Q1012 NOSIG
2026-04-23 05:50:00,METAR LGIR 230550Z VRB02KT 9999 FEW018 SCT020 18/14 Q1012 NOSIG
2026-04-23 05:20:00,METAR LGIR 230520Z VRB02KT 9999 FEW018 SCT020 16/12 Q1012 NOSIG
2026-04-23 04:50:00,METAR LGIR 230450Z 18005KT 9999 FEW018 SCT020 15/13 Q1011 NOSIG
2026-04-23 04:20:00,METAR LGIR 230420Z 18006KT 9999 FEW018 SCT020 14/12 Q1011 NOSIG
2026-04-23 03:50:00,METAR LGIR 230350Z 17007KT 9999 SCT020 13/11 Q1011 NOSIG
2026-04-23 03:20:00,METAR LGIR 230320Z 17007KT 9999 SCT020 13/11 Q1011 NOSIG
2026-04-23 02:50:00,METAR LGIR 230250Z 17007KT 9999 FEW020 13/11 Q1011 NOSIG
2026-04-23 02:20:00,METAR LGIR 230220Z 17007KT CAVOK 14/12 Q1011 NOSIG
2026-04-23 01:50:00,METAR LGIR 230150Z 17007KT CAVOK 14/12 Q1011 NOSIG
2026-04-23 01:20:00,METAR LGIR 230120Z 18007KT CAVOK 14/12 Q1011 NOSIG
2026-04-23 00:50:00,METAR LGIR 230050Z 18007KT CAVOK 14/12 Q1011 NOSIG
2026-04-23 00:20:00,METAR LGIR 230020Z 18007KT 9999 FEW020 14/12 Q1011 NOSIG
2026-04-22 23:50:00,METAR LGIR 222350Z 18005KT 9999 FEW020 15/12 Q1011 NOSIG
2026-04-22 23:20:00,METAR LGIR 222320Z 15007KT 9999 FEW020 14/12 Q1011 NOSIG
2026-04-22 22:50:00,METAR LGIR 222250Z 21002KT 9999 FEW020 14/12 Q1011 NOSIG
2026-04-22 22:20:00,METAR LGIR 222220Z 20004KT 9999 FEW020 15/12 Q1011 NOSIG
2026-04-22 21:50:00,METAR LGIR 222150Z 18008KT 9999 FEW020 16/12 Q1011 NOSIG
2026-04-22 21:20:00,METAR LGIR 222120Z 17007KT 9999 FEW020 16/13 Q1011 NOSIG
2026-04-22 20:50:00,METAR LGIR 222050Z 18006KT 9999 FEW020 16/13 Q1011 NOSIG
2026-04-22 20:20:00,METAR LGIR 222020Z 15006KT 9999 FEW020 15/14 Q1011 NOSIG
2026-04-22 19:50:00,METAR LGIR 221950Z 14004KT 9999 FEW020 15/14 Q1012 NOSIG
2026-04-22 19:20:00,METAR LGIR 221920Z 17003KT 9999 FEW020 15/14 Q1012 NOSIG
2026-04-22 18:50:00,METAR LGIR 221850Z 16005KT 9999 FEW020 15/14 Q1012 NOSIG
2026-04-22 18:20:00,METAR LGIR 221820Z 17003KT 9999 FEW020 16/14 Q1012 NOSIG
2026-04-22 17:50:00,METAR LGIR 221750Z 16003KT 9999 FEW020 16/14 Q1012 NOSIG
2026-04-22 17:20:00,METAR LGIR 221720Z 08005KT 9999 FEW020 18/15 Q1012 NOSIG
2026-04-22 16:50:00,METAR LGIR 221650Z 05005KT 9999 FEW020 18/15 Q1012 NOSIG
2026-04-22 16:20:00,METAR LGIR 221620Z 04004KT 9999 FEW020 19/15 Q1012 NOSIG
2026-04-22 15:50:00,METAR LGIR 221550Z 05006KT 9999 FEW020 19/15 Q1012 NOSIG
2026-04-22 15:20:00,METAR LGIR 221520Z 05005KT 9999 FEW020 19/15 Q1012 NOSIG
2026-04-22 14:50:00,METAR LGIR 221450Z 06006KT 9999 FEW020 20/14 Q1012 NOSIG
2026-04-22 14:20:00,METAR LGIR 221420Z 06007KT 9999 FEW020 20/15 Q1012 NOSIG
2026-04-22 13:50:00,METAR LGIR 221350Z 06007KT 9999 FEW020 20/15 Q1012 NOSIG
2026-04-22 13:20:00,METAR LGIR 221320Z 05007KT 9999 FEW020 20/15 Q1013 NOSIG
2026-04-22 12:50:00,METAR LGIR 221250Z 05007KT 9999 FEW020 20/15 Q1013 NOSIG
2026-04-22 12:20:00,METAR LGIR 221220Z 05008KT 9999 FEW020 20/15 Q1013 NOSIG
2026-04-22 11:50:00,METAR LGIR 221150Z 05007KT 9999 FEW020 20/14 Q1013 NOSIG
2026-04-22 11:20:00,METAR LGIR 221120Z 06007KT 9999 FEW020 20/14 Q1013 NOSIG
2026-04-22 10:50:00,METAR LGIR 221050Z 07006KT 9999 FEW020 20/14 Q1013 NOSIG
2026-04-22 10:20:00,METAR LGIR 221020Z 06006KT 9999 FEW020 20/14 Q1014 NOSIG
2026-04-22 09:50:00,METAR LGIR 220950Z 01005KT 9999 FEW020 20/13 Q1014 NOSIG
2026-04-22 09:20:00,METAR LGIR 220920Z 35006KT 9999 FEW020 21/14 Q1014 NOSIG
2026-04-22 08:50:00,METAR LGIR 220850Z 35005KT 9999 FEW020 21/14 Q1014 NOSIG
2026-04-22 08:20:00,METAR LGIR 220820Z 35005KT 9999 FEW020 20/12 Q1014 NOSIG
2026-04-22 07:50:00,METAR LGIR 220750Z 36004KT 9999 FEW020 20/12 Q1014 NOSIG
2026-04-22 07:20:00,METAR LGIR 220720Z 34006KT 9999 FEW020 20/12 Q1014 NOSIG
2026-04-22 06:50:00,METAR LGIR 220650Z 00000KT 9999 FEW020 20/12 Q1014 NOSIG
2026-04-22 06:20:00,METAR LGIR 220620Z 15007KT 9999 FEW020 19/13 Q1013 NOSIG
2026-04-22 05:50:00,METAR LGIR 220550Z 16008KT 9999 FEW020 18/12 Q1013 NOSIG
2026-04-22 05:20:00,METAR LGIR 220520Z 17007KT 9999 FEW020 17/12 Q1013 NOSIG
2026-04-22 04:50:00,METAR LGIR 220450Z 16009KT 9999 FEW020 15/12 Q1013 NOSIG
2026-04-22 04:20:00,METAR LGIR 220420Z 17011KT 9999 FEW020 14/11 Q1013 NOSIG
2026-04-22 03:50:00,METAR LGIR 220350Z 17009KT 9999 FEW020 14/11 Q1013 NOSIG
2026-04-22 03:20:00,METAR LGIR 220320Z 17011KT 9999 FEW020 14/11 Q1013 NOSIG
2026-04-22 02:50:00,METAR LGIR 220250Z 17010KT 9999 FEW020 14/11 Q1013 NOSIG
2026-04-22 02:20:00,METAR LGIR 220220Z 17011KT 9999 FEW020 14/11 Q1013 NOSIG
2026-04-22 01:50:00,METAR LGIR 220150Z 17010KT 9999 FEW020 14/11 Q1013 NOSIG
2026-04-22 01:20:00,METAR LGIR 220120Z 17008KT 9999 FEW020 14/12 Q1013 NOSIG
2026-04-22 00:50:00,METAR LGIR 220050Z 17010KT 9999 FEW020 14/12 Q1013 NOSIG
2026-04-22 00:20:00,METAR LGIR 220020Z 17008KT 9999 FEW020 14/13 Q1013 NOSIG
2026-04-21 23:50:00,METAR LGIR 212350Z 16006KT 9999 FEW020 14/12 Q1013 NOSIG
2026-04-21 23:20:00,METAR LGIR 212320Z 17006KT 9999 FEW020 14/12 Q1013 NOSIG
2026-04-21 22:50:00,METAR LGIR 212250Z 17006KT 9999 FEW020 14/12 Q1014 NOSIG
2026-04-21 22:20:00,METAR LGIR 212220Z 17008KT 9999 FEW020 15/12 Q1014 NOSIG
2026-04-21 21:50:00,METAR LGIR 212150Z 18007KT 9999 FEW020 15/12 Q1014 NOSIG
2026-04-21 21:20:00,METAR LGIR 212120Z 17009KT 9999 FEW020 15/12 Q1014 NOSIG
2026-04-21 20:50:00,METAR LGIR 212050Z 17009KT 9999 FEW020 15/12 Q1014 NOSIG
2026-04-21 20:20:00,METAR LGIR 212020Z 19008KT 9999 FEW020 15/12 Q1014 NOSIG
2026-04-21 19:50:00,METAR LGIR 211950Z 16005KT 9999 FEW020 15/12 Q1014 NOSIG
2026-04-21 19:20:00,METAR LGIR 211920Z 17005KT 9999 FEW020 15/12 Q1014 NOSIG
2026-04-21 18:50:00,METAR LGIR 211850Z 16007KT 9999 FEW020 15/12 Q1014 NOSIG
2026-04-21 18:20:00,METAR LGIR 211820Z 17005KT 9999 FEW020 16/13 Q1014 NOSIG
2026-04-21 17:50:00,METAR LGIR 211750Z 17003KT 9999 FEW020 16/13 Q1014 NOSIG
2026-04-21 17:20:00,METAR LGIR 211720Z 08003KT 9999 FEW020 17/13 Q1014 NOSIG
2026-04-21 16:50:00,METAR LGIR 211650Z 08003KT 9999 FEW020 18/14 Q1014 NOSIG RMK FEW180
2026-04-21 16:20:00,METAR LGIR 211620Z 04003KT 9999 FEW020 18/13 Q1014 NOSIG
2026-04-21 15:50:00,METAR LGIR 211550Z 05004KT 9999 FEW020 18/13 Q1014 NOSIG
2026-04-21 15:20:00,METAR LGIR 211520Z VRB03KT 9999 FEW020 19/14 Q1014 NOSIG
2026-04-21 14:50:00,METAR LGIR 211450Z VRB03KT 9999 FEW020 19/14 Q1014 NOSIG
2026-04-21 14:20:00,METAR LGIR 211420Z 36004KT 9999 FEW020 20/15 Q1014 NOSIG
2026-04-21 13:50:00,METAR LGIR 211350Z 34007KT 9999 FEW020 20/15 Q1014 NOSIG
2026-04-21 13:20:00,METAR LGIR 211320Z 31009KT 9999 FEW020 20/15 Q1014 NOSIG
2026-04-21 12:50:00,METAR LGIR 211250Z 32010KT 9999 FEW020 20/15 Q1014 NOSIG
2026-04-21 12:20:00,METAR LGIR 211220Z 31012KT 9999 FEW020 20/15 Q1014 NOSIG
2026-04-21 11:50:00,METAR LGIR 211150Z 31013KT 9999 FEW020 20/15 Q1014 NOSIG
2026-04-21 11:20:00,METAR LGIR 211120Z 33012KT 9999 FEW020 20/15 Q1014 NOSIG
2026-04-21 10:50:00,METAR LGIR 211050Z 32012KT 9999 FEW020 20/15 Q1014 NOSIG
2026-04-21 10:20:00,METAR LGIR 211020Z 32014KT 9999 FEW020 20/15 Q1014 NOSIG
2026-04-21 09:50:00,METAR LGIR 210950Z 32011KT 9999 FEW020 20/15 Q1014 NOSIG
2026-04-21 09:20:00,METAR LGIR 210920Z 33010KT 9999 FEW020 20/13 Q1015 NOSIG
2026-04-21 08:50:00,METAR LGIR 210850Z 33010KT CAVOK 20/11 Q1014 NOSIG
2026-04-21 08:20:00,METAR LGIR 210820Z 31009KT CAVOK 20/11 Q1015 NOSIG
2026-04-21 07:50:00,METAR LGIR 210750Z 32005KT CAVOK 20/11 Q1014 NOSIG
2026-04-21 07:20:00,METAR LGIR 210720Z 34004KT CAVOK 19/09 Q1014 NOSIG
2026-04-21 06:50:00,METAR LGIR 210650Z 36005KT CAVOK 19/09 Q1014 NOSIG
2026-04-21 06:20:00,METAR LGIR 210620Z 33004KT CAVOK 19/10 Q1014 NOSIG
2026-04-21 05:50:00,METAR LGIR 210550Z 17005KT CAVOK 18/08 Q1014 NOSIG
2026-04-21 05:20:00,METAR LGIR 210520Z 16006KT CAVOK 16/08 Q1014 NOSIG
2026-04-21 04:50:00,METAR LGIR 210450Z 16009KT 9999 FEW020 14/06 Q1014 NOSIG
2026-04-21 04:20:00,METAR LGIR 210420Z 17007KT 9999 FEW020 12/07 Q1014 NOSIG
2026-04-21 03:50:00,METAR LGIR 210350Z 17007KT 9999 FEW020 11/07 Q1014 NOSIG
2026-04-21 03:20:00,METAR LGIR 210320Z 17007KT 9999 FEW020 12/07 Q1014 NOSIG
2026-04-21 02:50:00,METAR LGIR 210250Z 17006KT 9999 FEW020 12/07 Q1014 NOSIG
2026-04-21 02:20:00,METAR LGIR 210220Z 17006KT 9999 FEW020 12/07 Q1014 NOSIG
2026-04-21 01:50:00,METAR LGIR 210150Z 17006KT 9999 FEW020 12/07 Q1014 NOSIG
2026-04-21 01:20:00,METAR LGIR 210120Z 17006KT 9999 FEW020 12/07 Q1014 NOSIG
2026-04-21 00:50:00,METAR LGIR 210050Z 17006KT 9999 FEW020 12/07 Q1014 NOSIG
2026-04-21 00:20:00,METAR LGIR 210020Z 17006KT 9999 FEW020 12/07 Q1014 NOSIG
2026-04-20 23:50:00,METAR LGIR 202350Z 17006KT 9999 FEW020 12/07 Q1014 NOSIG
2026-04-20 23:20:00,METAR LGIR 202320Z 17005KT 9999 FEW020 13/06 Q1015 NOSIG
2026-04-20 22:50:00,METAR LGIR 202250Z 16009KT 9999 FEW020 13/06 Q1015 NOSIG
2026-04-20 22:20:00,METAR LGIR 202220Z 21005KT 9999 FEW020 13/06 Q1015 NOSIG
2026-04-20 21:50:00,METAR LGIR 202150Z 21005KT 9999 FEW020 13/06 Q1015 NOSIG
2026-04-20 20:50:00,METAR LGIR 202050Z 17009KT 9999 FEW020 13/06 Q1015 NOSIG
2026-04-20 20:20:00,METAR LGIR 202020Z 17005KT 9999 FEW020 13/06 Q1015 NOSIG
2026-04-20 19:50:00,METAR LGIR 201950Z 17006KT 9999 FEW020 13/06 Q1015 NOSIG
2026-04-20 19:20:00,METAR LGIR 201920Z 16009KT 9999 FEW020 14/07 Q1015 NOSIG
2026-04-20 18:50:00,METAR LGIR 201850Z 15005KT 9999 FEW020 15/08 Q1015 NOSIG
2026-04-20 18:20:00,METAR LGIR 201820Z 16005KT 9999 FEW020 16/09 Q1015 NOSIG
2026-04-20 17:50:00,METAR LGIR 201750Z 18005KT 9999 FEW020 17/09 Q1015 NOSIG
2026-04-20 17:20:00,METAR LGIR 201720Z 30006KT 9999 FEW020 18/10 Q1014 NOSIG
2026-04-20 16:50:00,METAR LGIR 201650Z 30012KT 9999 FEW020 18/10 Q1014 NOSIG
2026-04-20 16:20:00,METAR LGIR 201620Z 30013KT 9999 FEW020 18/10 Q1014 NOSIG
2026-04-20 15:50:00,METAR LGIR 201550Z 30014KT 9999 FEW020 19/09 Q1014 NOSIG
2026-04-20 15:20:00,METAR LGIR 201520Z 31015KT 9999 FEW020 20/12 Q1014 NOSIG
2026-04-20 14:50:00,METAR LGIR 201450Z 31013KT 9999 FEW020 20/12 Q1014 NOSIG
2026-04-20 14:20:00,METAR LGIR 201420Z 34007KT 9999 FEW020 20/12 Q1015 NOSIG
2026-04-20 13:50:00,METAR LGIR 201350Z 34008KT 9999 FEW020 20/12 Q1015 NOSIG
2026-04-20 13:20:00,METAR LGIR 201320Z 34007KT 9999 FEW020 20/12 Q1015 NOSIG
2026-04-20 12:50:00,METAR LGIR 201250Z 34007KT 9999 FEW020 20/12 Q1015 NOSIG
2026-04-20 12:20:00,METAR LGIR 201220Z 34007KT 9999 FEW020 21/13 Q1016 NOSIG
2026-04-20 11:50:00,METAR LGIR 201150Z 34007KT 9999 FEW020 21/13 Q1016 NOSIG
2026-04-20 11:20:00,METAR LGIR 201120Z 36006KT 9999 FEW020 21/11 Q1016 NOSIG
2026-04-20 10:50:00,METAR LGIR 201050Z 36007KT 9999 FEW020 21/11 Q1016 NOSIG
2026-04-20 10:20:00,METAR LGIR 201020Z 35005KT 9999 FEW020 21/10 Q1016 NOSIG
2026-04-20 09:50:00,METAR LGIR 200950Z 01005KT 9999 FEW020 20/11 Q1016 NOSIG
2026-04-20 09:20:00,METAR LGIR 200920Z 01005KT 9999 FEW020 20/12 Q1016 NOSIG
2026-04-20 08:50:00,METAR LGIR 200850Z 36005KT 9999 FEW020 20/12 Q1017 NOSIG
2026-04-20 08:20:00,METAR LGIR 200820Z 34005KT 9999 FEW020 20/12 Q1017 NOSIG
2026-04-20 07:50:00,METAR LGIR 200750Z 34007KT 9999 FEW020 19/12 Q1016 NOSIG
2026-04-20 07:20:00,METAR LGIR 200720Z 32009KT 9999 FEW020 19/10 Q1016 NOSIG
2026-04-20 06:50:00,METAR LGIR 200650Z 33009KT 9999 FEW020 18/10 Q1016 NOSIG
2026-04-20 06:20:00,METAR LGIR 200620Z 32010KT 9999 FEW020 18/10 Q1016 NOSIG
2026-04-20 05:50:00,METAR LGIR 200550Z 31004KT 9999 FEW020 18/10 Q1016 NOSIG
2026-04-20 05:20:00,METAR LGIR 200520Z 15004KT 9999 FEW020 16/09 Q1016 NOSIG
2026-04-20 04:50:00,METAR LGIR 200450Z 00000KT 9999 FEW020 14/10 Q1016 NOSIG
2026-04-20 04:20:00,METAR LGIR 200420Z 17003KT 9999 FEW020 13/10 Q1016 NOSIG
2026-04-20 03:50:00,METAR LGIR 200350Z 30009KT 9999 FEW020 15/11 Q1016 NOSIG
2026-04-20 03:20:00,METAR LGIR 200320Z 30011KT 9999 FEW020 15/11 Q1016 NOSIG
2026-04-20 02:50:00,METAR LGIR 200250Z 30011KT 9999 FEW020 16/10 Q1016 NOSIG
2026-04-20 02:20:00,METAR LGIR 200220Z 30010KT 9999 FEW020 15/10 Q1016 NOSIG
2026-04-20 01:50:00,METAR LGIR 200150Z 31010KT 9999 FEW020 15/10 Q1016 NOSIG
2026-04-20 01:20:00,METAR LGIR 200120Z 30009KT 9999 FEW020 15/10 Q1016 NOSIG
2026-04-20 00:50:00,METAR LGIR 200050Z 29011KT 9999 FEW020 16/09 Q1016 NOSIG
2026-04-20 00:20:00,METAR LGIR 200020Z 30012KT 9999 FEW020 16/09 Q1016 NOSIG
2026-04-19 23:50:00,METAR LGIR 192350Z 30010KT 9999 FEW020 16/09 Q1016 NOSIG
2026-04-19 23:20:00,METAR LGIR 192320Z 30009KT 9999 FEW020 15/08 Q1016 NOSIG
2026-04-19 22:50:00,METAR LGIR 192250Z 29006KT 9999 FEW020 15/08 Q1016 NOSIG
2026-04-19 22:20:00,METAR LGIR 192220Z 21003KT 9999 FEW020 15/09 Q1017 NOSIG
2026-04-19 21:50:00,METAR LGIR 192150Z 25005KT 9999 FEW020 15/09 Q1016 NOSIG
2026-04-19 21:20:00,METAR LGIR 192120Z 30007KT 9999 FEW020 15/09 Q1017 NOSIG
2026-04-19 20:50:00,METAR LGIR 192050Z 30007KT 9999 FEW020 16/10 Q1017 NOSIG
2026-04-19 20:20:00,METAR LGIR 192020Z 30008KT 9999 FEW020 16/10 Q1016 NOSIG
2026-04-19 19:50:00,METAR LGIR 191950Z 31009KT 9999 FEW020 16/10 Q1016 NOSIG
2026-04-19 19:20:00,METAR LGIR 191920Z 31009KT 9999 FEW020 16/10 Q1016 NOSIG
2026-04-19 18:50:00,METAR LGIR 191850Z 30010KT 9999 FEW020 16/10 Q1016 NOSIG
2026-04-19 18:20:00,METAR LGIR 191820Z 29010KT 9999 FEW020 16/10 Q1016 NOSIG
2026-04-19 17:50:00,METAR LGIR 191750Z 29011KT 9999 FEW020 16/10 Q1016 NOSIG
2026-04-19 17:20:00,METAR LGIR 191720Z 30012KT 9999 FEW025 17/10 Q1016 NOSIG
2026-04-19 16:50:00,METAR LGIR 191650Z 31011KT 9999 FEW025 17/10 Q1016 NOSIG
2026-04-19 16:20:00,METAR LGIR 191620Z 32011KT 9999 FEW025 18/10 Q1016 NOSIG
2026-04-19 15:50:00,METAR LGIR 191550Z 32012KT 9999 SCT025 18/11 Q1016 NOSIG
2026-04-19 15:20:00,METAR LGIR 191520Z 32012KT 9999 SCT025 18/10 Q1016 NOSIG
2026-04-19 14:50:00,METAR LGIR 191450Z 32012KT 9999 SCT025 18/10 Q1016 NOSIG
2026-04-19 14:20:00,METAR LGIR 191420Z 31013KT 9999 SCT025 18/10 Q1016 NOSIG
2026-04-19 13:50:00,METAR LGIR 191350Z 31014KT 9999 SCT025 19/10 Q1016 NOSIG
2026-04-19 13:20:00,METAR LGIR 191320Z 31013KT 9999 SCT025 19/10 Q1016 NOSIG
2026-04-19 12:50:00,METAR LGIR 191250Z 32014KT 9999 SCT025 19/10 Q1016 NOSIG
2026-04-19 12:20:00,METAR LGIR 191220Z 32013KT 9999 SCT025 19/10 Q1016 NOSIG
2026-04-19 11:50:00,METAR LGIR 191150Z 32013KT 9999 SCT025 19/10 Q1016 NOSIG
2026-04-19 11:20:00,METAR LGIR 191120Z 32013KT 9999 SCT025 19/09 Q1016 NOSIG
2026-04-19 10:50:00,METAR LGIR 191050Z 32014KT 9999 SCT025 19/09 Q1016 NOSIG
2026-04-19 10:20:00,METAR LGIR 191020Z 32012KT 9999 SCT025 19/09 Q1016 NOSIG
2026-04-19 09:50:00,METAR LGIR 190950Z 33012KT 9999 SCT025 19/09 Q1016 NOSIG
2026-04-19 09:20:00,METAR LGIR 190920Z 32012KT 9999 SCT025 18/09 Q1016 NOSIG
2026-04-19 08:50:00,METAR LGIR 190850Z 33014KT 9999 SCT025 18/09 Q1016 NOSIG
2026-04-19 08:20:00,METAR LGIR 190820Z 33014KT 9999 SCT025 18/11 Q1016 NOSIG
2026-04-19 07:50:00,METAR LGIR 190750Z 34014KT 9999 SCT025 18/11 Q1015 NOSIG
2026-04-19 07:20:00,METAR LGIR 190720Z 33013KT 9999 SCT025 18/09 Q1015 NOSIG
2026-04-19 06:50:00,METAR LGIR 190650Z 33012KT 9999 SCT025 18/09 Q1015 NOSIG
2026-04-19 06:20:00,METAR LGIR 190620Z 31014KT 9999 SCT025 17/09 Q1014 NOSIG
2026-04-19 05:50:00,METAR LGIR 190550Z 33013KT 9999 SCT025 17/09 Q1014 NOSIG
2026-04-19 05:20:00,METAR LGIR 190520Z 32012KT 9999 SCT025 17/10 Q1014 NOSIG
2026-04-19 04:50:00,METAR LGIR 190450Z 32015KT 9999 SCT025 16/10 Q1014 NOSIG
2026-04-19 04:20:00,METAR LGIR 190420Z 31016KT 9999 SCT025 16/10 Q1014 NOSIG
2026-04-19 03:50:00,METAR LGIR 190350Z 31016KT 9999 FEW020 16/11 Q1013 NOSIG
2026-04-19 03:20:00,METAR LGIR 190320Z 31016KT 9999 FEW020 16/11 Q1013 NOSIG
2026-04-19 02:50:00,METAR LGIR 190250Z 29013KT 9999 FEW020 15/11 Q1013 NOSIG
2026-04-19 02:20:00,METAR LGIR 190220Z 29013KT 9999 FEW020 15/11 Q1013 NOSIG
2026-04-19 01:50:00,METAR LGIR 190150Z 29013KT 9999 FEW020 15/11 Q1013 NOSIG
2026-04-19 00:50:00,METAR LGIR 190050Z 29013KT 9999 FEW020 15/11 Q1013 NOSIG
2026-04-19 00:20:00,METAR LGIR 190020Z 29013KT 9999 FEW020 15/11 Q1013 NOSIG
2026-04-18 23:50:00,METAR LGIR 182350Z 29013KT 9999 FEW020 15/11 Q1013 NOSIG
2026-04-18 23:20:00,METAR LGIR 182320Z 30013KT 9999 FEW020 16/11 Q1013 NOSIG
2026-04-18 21:50:00,METAR LGIR 182150Z 30013KT 9999 FEW020 16/11 Q1012 NOSIG
2026-04-18 21:20:00,METAR LGIR 182120Z 30013KT 9999 FEW020 16/11 Q1012 NOSIG
2026-04-18 20:50:00,METAR LGIR 182050Z 30013KT 9999 FEW020 16/11 Q1012 NOSIG
2026-04-18 20:20:00,METAR LGIR 182020Z 30013KT 9999 FEW020 16/11 Q1012 NOSIG
2026-04-18 19:50:00,METAR LGIR 181950Z 30013KT 9999 FEW020 16/11 Q1012 NOSIG
2026-04-18 19:20:00,METAR LGIR 181920Z 31014KT 9999 FEW020 16/11 Q1012 NOSIG
2026-04-18 18:50:00,METAR LGIR 181850Z 30013KT 9999 FEW020 16/11 Q1012 NOSIG
2026-04-18 18:20:00,METAR LGIR 181820Z 31014KT 9999 FEW020 16/11 Q1011 NOSIG
2026-04-18 17:50:00,METAR LGIR 181750Z 31014KT 9999 FEW020 16/11 Q1011 NOSIG
2026-04-18 17:20:00,METAR LGIR 181720Z 32014KT 9999 SCT020 17/12 Q1010 NOSIG
2026-04-18 16:50:00,METAR LGIR 181650Z 32014KT 9999 FEW020 17/12 Q1010 NOSIG
2026-04-18 16:20:00,METAR LGIR 181620Z 32014KT 9999 SCT020 17/12 Q1010 NOSIG
2026-04-18 15:50:00,METAR LGIR 181550Z 32014KT 9999 SCT020 17/12 Q1010 NOSIG
2026-04-18 14:50:00,METAR LGIR 181450Z 31019KT 9999 FEW020 SCT025 18/12 Q1010 NOSIG
2026-04-18 14:20:00,METAR LGIR 181420Z 30020KT 9999 FEW020 SCT025 18/14 Q1010 NOSIG
2026-04-18 13:50:00,METAR LGIR 181350Z 30020KT 9999 FEW020 SCT025 18/14 Q1010 NOSIG
2026-04-18 12:50:00,METAR LGIR 181250Z 30019KT 9999 FEW020 SCT025 18/11 Q1009 NOSIG
2026-04-18 12:20:00,METAR LGIR 181220Z 30019KT 9999 FEW020 SCT025 18/11 Q1009 NOSIG
2026-04-18 11:50:00,METAR LGIR 181150Z 30019KT 9999 FEW020 SCT025 18/11 Q1009 NOSIG
2026-04-18 11:20:00,METAR LGIR 181120Z 30019KT 9999 FEW020 SCT025 18/11 Q1009 NOSIG
2026-04-18 10:50:00,METAR LGIR 181050Z 30020KT 9999 FEW020 SCT025 18/11 Q1009 NOSIG
2026-04-18 10:20:00,METAR LGIR 181020Z 30021KT 9999 FEW020 BKN025 18/11 Q1009 NOSIG
2026-04-18 09:50:00,METAR LGIR 180950Z 30020KT 9999 FEW020 BKN025 18/11 Q1009 NOSIG
2026-04-18 09:20:00,METAR LGIR 180920Z 30017KT 9999 FEW020 BKN025 17/11 Q1009 NOSIG
2026-04-18 08:50:00,METAR LGIR 180850Z 31014KT 9999 FEW020 BKN025 17/11 Q1009 NOSIG
2026-04-18 08:20:00,METAR LGIR 180820Z 30017KT 9999 FEW020 BKN025 18/10 Q1008 NOSIG
2026-04-18 07:50:00,METAR LGIR 180750Z 30018KT 9999 FEW020 BKN025 18/10 Q1008 NOSIG
2026-04-18 07:20:00,METAR LGIR 180720Z 30020KT 9999 FEW020 BKN025 17/11 Q1008 NOSIG
2026-04-18 06:50:00,METAR LGIR 180650Z 31016KT 9999 FEW020 BKN025 17/11 Q1008 NOSIG
2026-04-18 06:20:00,METAR LGIR 180620Z 30017KT 9999 FEW020 BKN025 17/11 Q1007 NOSIG
2026-04-18 05:50:00,METAR LGIR 180550Z 30019KT 9999 FEW020 BKN025 17/11 Q1007 NOSIG
2026-04-18 05:20:00,METAR LGIR 180520Z 31018KT 9999 FEW020 BKN025 16/11 Q1007 NOSIG
2026-04-18 04:50:00,METAR LGIR 180450Z 32016KT 9999 FEW020 SCT025 16/11 Q1007 NOSIG
2026-04-18 04:20:00,METAR LGIR 180420Z 31017KT 9999 FEW020 SCT025 16/10 Q1006 NOSIG
2026-04-18 03:50:00,METAR LGIR 180350Z 30016KT 9999 FEW020 16/12 Q1006 NOSIG
2026-04-18 03:20:00,METAR LGIR 180320Z 28018KT 9999 FEW020 SCT080 16/10 Q1006 NOSIG
2026-04-18 02:50:00,METAR LGIR 180250Z 28018KT 9999 FEW020 16/10 Q1005 NOSIG
2026-04-18 02:20:00,METAR LGIR 180220Z 29014KT 9999 FEW020 16/12 Q1005 NOSIG
2026-04-18 01:50:00,METAR LGIR 180150Z 32014KT 9999 FEW020 16/12 Q1005 NOSIG
2026-04-18 01:20:00,METAR LGIR 180120Z 31020KT 9999 FEW020 16/12 Q1005 NOSIG
2026-04-18 00:50:00,METAR LGIR 180050Z 30016KT 9999 FEW020 16/12 Q1005 NOSIG
2026-04-18 00:20:00,METAR LGIR 180020Z 31020KT 9999 FEW020 16/12 Q1005 NOSIG
2026-04-17 23:50:00,METAR LGIR 172350Z 29022KT 9999 FEW020 16/12 Q1006 NOSIG
2026-04-17 23:20:00,METAR LGIR 172320Z 29014KT 9999 FEW020 16/12 Q1006 NOSIG
2026-04-17 22:50:00,METAR LGIR 172250Z 31018KT 9999 FEW020 16/12 Q1006 NOSIG
2026-04-17 22:20:00,METAR LGIR 172220Z 29018KT 9999 FEW020 SCT080 16/12 Q1006 NOSIG
2026-04-17 21:50:00,METAR LGIR 172150Z 30018KT 9999 FEW020 16/12 Q1006 NOSIG
2026-04-17 21:20:00,METAR LGIR 172120Z 29018KT 9999 FEW020 SCT080 16/12 Q1006 NOSIG
2026-04-17 20:50:00,METAR LGIR 172050Z 29018KT 9999 FEW020 SCT080 16/12 Q1006 NOSIG
2026-04-17 20:20:00,METAR LGIR 172020Z 29012KT 9999 FEW016 SCT020 16/12 Q1007 NOSIG
2026-04-17 19:50:00,METAR LGIR 171950Z 29018KT 9999 FEW016 SCT020 16/12 Q1006 NOSIG
2026-04-17 19:20:00,METAR LGIR 171920Z 30014KT 9999 FEW016 SCT020 16/13 Q1006 NOSIG
2026-04-17 18:50:00,METAR LGIR 171850Z 31018KT 9999 FEW016 SCT020 17/13 Q1006 NOSIG
2026-04-17 18:20:00,METAR LGIR 171820Z 30018KT 9999 FEW016 SCT020 16/14 Q1006 NOSIG
2026-04-17 17:50:00,METAR LGIR 171750Z 30016KT 9999 FEW016 SCT020 16/14 Q1006 NOSIG
2026-04-17 17:20:00,METAR LGIR 171720Z 31016KT 9999 FEW016 BKN020 BKN080 16/14 Q1005 NOSIG
2026-04-17 16:50:00,METAR LGIR 171650Z 30014KT 9999 FEW016 SCT020 16/14 Q1005 NOSIG
2026-04-17 16:20:00,METAR LGIR 171620Z 31016KT 9999 FEW016 BKN020 BKN080 16/14 Q1005 NOSIG
2026-04-17 15:50:00,METAR LGIR 171550Z 31016KT 9999 FEW016 BKN020 BKN080 17/14 Q1005 NOSIG
2026-04-17 15:20:00,METAR LGIR 171520Z 31016KT 9000 FEW016 BKN020 BKN080 17/15 Q1005 NOSIG
2026-04-17 14:50:00,METAR LGIR 171450Z 31016KT 9000 FEW016 BKN020 BKN080 17/15 Q1005 NOSIG
2026-04-17 14:20:00,METAR LGIR 171420Z 31016KT 8000 FEW016 BKN020 BKN080 18/15 Q1005 NOSIG
2026-04-17 13:20:00,METAR LGIR 171320Z 31014KT 9000 FEW016 BKN020 BKN080 17/14 Q1005 NOSIG
2026-04-17 12:50:00,METAR LGIR 171250Z 31012KT 9000 FEW016 BKN020 BKN080 17/14 Q1005 NOSIG
2026-04-17 12:20:00,METAR LGIR 171220Z 30013KT 9000 FEW016 BKN020 BKN080 18/14 Q1005 NOSIG
2026-04-17 11:50:00,METAR LGIR 171150Z 32014KT 9000 FEW016 BKN020 BKN080 18/14 Q1005 NOSIG
2026-04-17 11:20:00,METAR LGIR 171120Z 31014KT 9000 FEW016 BKN020 BKN080 18/14 Q1005 NOSIG
2026-04-17 10:50:00,METAR LGIR 171050Z 31016KT 9000 FEW016 BKN020 BKN080 17/14 Q1005 NOSIG
2026-04-17 10:20:00,METAR LGIR 171020Z 31010KT 9000 FEW016 BKN020 BKN080 17/15 Q1005 NOSIG
2026-04-17 09:50:00,METAR LGIR 170950Z 32018KT 8000 -RA FEW016 BKN020 BKN080 17/15 Q1005 NOSIG
2026-04-17 09:20:00,METAR LGIR 170920Z 33022KT 8000 -RA FEW016 BKN020 BKN080 18/15 Q1005 NOSIG
2026-04-17 08:50:00,METAR LGIR 170850Z 31016KT 9000 FEW016 BKN020 BKN080 18/15 Q1006 NOSIG
2026-04-17 08:20:00,METAR LGIR 170820Z 31014KT 9000 FEW016 BKN020 BKN080 18/15 Q1005 NOSIG
2026-04-17 07:50:00,METAR LGIR 170750Z 32014KT 9000 FEW016 BKN020 BKN080 18/15 Q1005 NOSIG
2026-04-17 07:20:00,METAR LGIR 170720Z 31016KT 9999 FEW016 BKN020 BKN080 18/15 Q1005 NOSIG
2026-04-17 06:50:00,METAR LGIR 170650Z 31016KT 9000 FEW016 BKN020 BKN080 17/15 Q1005 NOSIG
2026-04-17 06:20:00,METAR LGIR 170620Z 30018KT 9000 -RA FEW016 BKN020 BKN080 17/15 Q1005 NOSIG
2026-04-17 05:50:00,METAR LGIR 170550Z 30012KT 9000 -RA FEW016 BKN020 BKN080 17/15 Q1005 NOSIG
2026-04-17 05:20:00,METAR LGIR 170520Z 31014KT 9999 -RA FEW016 BKN020 BKN080 17/16 Q1005 NOSIG
2026-04-17 04:50:00,METAR LGIR 170450Z 31014KT 9999 -RA FEW016 BKN020 BKN080 17/16 Q1005 NOSIG
2026-04-17 04:20:00,METAR LGIR 170420Z 32011KT 9999 -RA FEW016 BKN020 BKN080 17/09 Q1006 NOSIG
2026-04-17 03:50:00,METAR LGIR 170350Z 32010KT 9999 FEW016 BKN020 BKN080 17/09 Q1006 NOSIG
2026-04-17 03:20:00,METAR LGIR 170320Z 32010KT 9999 FEW016 BKN020 BKN080 17/09 Q1006 NOSIG
2026-04-17 02:50:00,METAR LGIR 170250Z 33007KT 9999 FEW016 BKN020 BKN080 17/09 Q1006 NOSIG
2026-04-17 02:20:00,METAR LGIR 170220Z 33007KT 9999 FEW016 BKN020 BKN080 17/09 Q1007 NOSIG
2026-04-17 01:50:00,METAR LGIR 170150Z 33007KT 9999 FEW016 BKN020 BKN080 17/09 Q1007 NOSIG
2026-04-17 01:20:00,METAR LGIR 170120Z 33007KT 9999 FEW016 BKN020 BKN080 17/09 Q1007 NOSIG
2026-04-17 00:50:00,METAR LGIR 170050Z 33007KT 9999 FEW016 BKN020 BKN080 17/09 Q1007 NOSIG
2026-04-17 00:20:00,METAR LGIR 170020Z 33007KT 9999 FEW016 BKN020 BKN080 17/15 Q1007 NOSIG
2026-04-16 23:50:00,METAR LGIR 162350Z 33007KT 9999 -RA FEW016 BKN020 BKN080 17/15 Q1008 NOSIG
2026-04-16 23:20:00,METAR LGIR 162320Z 31010KT 9999 FEW016 BKN020 BKN080 18/15 Q1008 NOSIG
2026-04-16 22:50:00,METAR LGIR 162250Z 02005KT 9999 FEW016 BKN020 BKN080 18/15 Q1009 NOSIG
2026-04-16 22:20:00,METAR LGIR 162220Z 32011KT 9999 FEW016 BKN020 BKN080 18/15 Q1009 NOSIG
2026-04-16 21:50:00,METAR LGIR 162150Z 28006KT 9999 FEW016 BKN020 BKN080 18/15 Q1009 NOSIG
2026-04-16 21:20:00,METAR LGIR 162120Z 31012KT 9999 FEW016 BKN020 BKN080 18/15 Q1008 NOSIG
2026-04-16 20:50:00,METAR LGIR 162050Z 31008KT 9999 FEW016 BKN020 BKN080 18/14 Q1009 NOSIG
2026-04-16 20:20:00,METAR LGIR 162020Z 30010KT 9999 FEW016 BKN020 BKN080 18/15 Q1009 NOSIG
2026-04-16 19:50:00,METAR LGIR 161950Z 31009KT 9999 FEW016 BKN020 BKN080 18/15 Q1009 NOSIG
2026-04-16 19:20:00,METAR LGIR 161920Z 32009KT 9999 FEW016 BKN020 BKN080 18/15 Q1009 NOSIG
2026-04-16 18:50:00,METAR LGIR 161850Z 32008KT 9999 FEW016 BKN020 BKN080 18/15 Q1009 NOSIG
2026-04-16 18:20:00,METAR LGIR 161820Z 33012KT 9999 FEW016 BKN020 BKN080 18/15 Q1009 NOSIG
2026-04-16 17:50:00,METAR LGIR 161750Z 33011KT 9999 FEW016 BKN020 BKN080 18/15 Q1009 NOSIG
2026-04-16 17:20:00,METAR LGIR 161720Z 35010KT 9999 FEW016 BKN020 BKN080 17/15 Q1008 NOSIG
2026-04-16 16:50:00,METAR LGIR 161650Z 29008KT 9999 FEW016 BKN020 BKN080 17/04 Q1008 NOSIG
2026-04-16 16:20:00,METAR LGIR 161620Z 31007KT 9999 FEW016 BKN020 BKN080 18/14 Q1009 NOSIG
2026-04-16 15:50:00,METAR LGIR 161550Z 33007KT 9999 FEW016 SCT080 18/14 Q1009 NOSIG
2026-04-16 14:50:00,METAR LGIR 161450Z 33007KT 9999 FEW016 SCT080 19/15 Q1009 NOSIG
2026-04-16 14:20:00,METAR LGIR 161420Z 33007KT 9999 FEW016 SCT080 19/15 Q1010 NOSIG
2026-04-16 13:50:00,METAR LGIR 161350Z 33007KT 9999 FEW016 SCT080 19/15 Q1010 NOSIG
2026-04-16 13:20:00,METAR LGIR 161320Z 33007KT 9999 FEW016 SCT080 19/15 Q1010 NOSIG RMK BKN180
2026-04-16 12:50:00,METAR LGIR 161250Z 33007KT 9999 FEW016 SCT080 19/15 Q1010 NOSIG
2026-04-16 12:20:00,METAR LGIR 161220Z 33007KT 9999 FEW016 SCT080 19/15 Q1010 NOSIG
2026-04-16 11:50:00,METAR LGIR 161150Z 33007KT 9999 FEW016 SCT080 19/15 Q1010 NOSIG
2026-04-16 11:20:00,METAR LGIR 161120Z 31008KT 9999 FEW016 SCT080 19/15 Q1010 NOSIG
2026-04-16 10:50:00,METAR LGIR 161050Z 32007KT 9999 FEW016 SCT080 19/15 Q1010 NOSIG
2026-04-16 10:20:00,METAR LGIR 161020Z 32009KT 9999 FEW016 SCT080 19/15 Q1011 NOSIG
2026-04-16 09:50:00,METAR LGIR 160950Z 32009KT 9999 FEW016 SCT080 19/15 Q1011 NOSIG
2026-04-16 09:20:00,METAR LGIR 160920Z 31008KT 9999 FEW016 SCT080 18/15 Q1011 NOSIG
2026-04-16 08:50:00,METAR LGIR 160850Z 31008KT 9999 FEW016 SCT080 18/15 Q1011 NOSIG
2026-04-16 08:20:00,METAR LGIR 160820Z 31008KT 9999 FEW016 SCT080 19/15 Q1011 NOSIG
2026-04-16 07:50:00,METAR LGIR 160750Z 29008KT 9999 FEW016 SCT080 18/14 Q1011 NOSIG
2026-04-16 07:20:00,METAR LGIR 160720Z 29007KT 9999 FEW016 SCT080 18/15 Q1011 NOSIG
2026-04-16 06:50:00,METAR LGIR 160650Z 30006KT 9999 FEW016 SCT080 18/14 Q1011 NOSIG
2026-04-16 06:20:00,METAR LGIR 160620Z 28005KT 9999 SCT016 SCT080 17/14 Q1011 NOSIG
2026-04-16 05:50:00,METAR LGIR 160550Z 28005KT 9999 SCT016 SCT080 16/13 Q1011 NOSIG
2026-04-16 05:20:00,METAR LGIR 160520Z 26004KT 9999 SCT018 SCT080 15/14 Q1011 NOSIG
2026-04-16 04:50:00,METAR LGIR 160450Z 00000KT 9999 SCT018 SCT080 15/13 Q1011 NOSIG
2026-04-16 04:20:00,METAR LGIR 160420Z 23003KT 9999 SCT018 SCT080 15/13 Q1011 NOSIG
2026-04-16 03:50:00,METAR LGIR 160350Z VRB03KT 9999 FEW020 SCT080 14/14 Q1011 NOSIG
2026-04-16 03:20:00,METAR LGIR 160320Z 36003KT 9999 FEW020 SCT080 15/14 Q1011 NOSIG
2026-04-16 02:50:00,METAR LGIR 160250Z 36003KT 9999 FEW020 SCT080 15/14 Q1011 NOSIG
2026-04-16 02:20:00,METAR LGIR 160220Z 31004KT 9999 FEW020 SCT080 16/15 Q1011 NOSIG
2026-04-16 01:50:00,METAR LGIR 160150Z 31003KT 9999 FEW020 SCT080 16/15 Q1012 NOSIG
2026-04-16 00:50:00,METAR LGIR 160050Z 27004KT 9999 FEW020 SCT080 14/13 Q1013 NOSIG
2026-04-16 00:20:00,METAR LGIR 160020Z VRB02KT 9999 FEW020 SCT080 14/13 Q1013 NOSIG
2026-04-15 23:50:00,METAR LGIR 152350Z VRB02KT 9999 FEW020 SCT080 14/13 Q1013 NOSIG
2026-04-15 23:20:00,METAR LGIR 152320Z VRB03KT 9999 FEW020 SCT080 14/13 Q1013 NOSIG
2026-04-15 22:50:00,METAR LGIR 152250Z VRB03KT 9999 FEW020 SCT080 14/13 Q1013 NOSIG
2026-04-15 22:20:00,METAR LGIR 152220Z VRB03KT 9999 FEW020 SCT080 14/13 Q1014 NOSIG
2026-04-15 21:50:00,METAR LGIR 152150Z VRB03KT 9999 FEW020 SCT080 15/13 Q1014 NOSIG
2026-04-15 21:20:00,METAR LGIR 152120Z 00000KT 9999 FEW020 SCT080 15/13 Q1014 NOSIG
2026-04-15 20:50:00,METAR LGIR 152050Z 00000KT 9999 FEW020 SCT080 15/13 Q1015 NOSIG
2026-04-15 20:20:00,METAR LGIR 152020Z VRB01KT 9999 FEW020 SCT080 16/14 Q1015 NOSIG
2026-04-15 19:50:00,METAR LGIR 151950Z VRB01KT 9999 FEW020 SCT080 16/14 Q1015 NOSIG
2026-04-15 19:20:00,METAR LGIR 151920Z 08004KT 9999 FEW020 SCT080 16/14 Q1015 NOSIG
2026-04-15 18:50:00,METAR LGIR 151850Z 03003KT 9999 FEW020 SCT080 17/15 Q1015 NOSIG
2026-04-15 18:20:00,METAR LGIR 151820Z 05004KT 9999 FEW020 SCT080 17/15 Q1015 NOSIG
2026-04-15 17:50:00,METAR LGIR 151750Z 04004KT 9999 FEW020 SCT080 17/15 Q1015 NOSIG
2026-04-15 17:20:00,METAR LGIR 151720Z 04003KT 9999 FEW020 SCT080 17/14 Q1015 NOSIG
2026-04-15 16:50:00,METAR LGIR 151650Z 06004KT 9999 FEW020 SCT080 17/14 Q1015 NOSIG
2026-04-15 16:20:00,METAR LGIR 151620Z 07006KT 9999 FEW020 17/15 Q1014 NOSIG
2026-04-15 15:50:00,METAR LGIR 151550Z 07006KT 9999 FEW020 18/25 Q1014 NOSIG
2026-04-15 15:20:00,METAR LGIR 151520Z 06006KT 9999 FEW020 18/15 Q1015 NOSIG
2026-04-15 14:50:00,METAR LGIR 151450Z 06006KT 9999 FEW020 18/15 Q1014 NOSIG
2026-04-15 14:20:00,METAR LGIR 151420Z 06008KT 9999 FEW020 19/14 Q1015 NOSIG
2026-04-15 13:50:00,METAR LGIR 151350Z 06008KT 9999 FEW020 19/14 Q1014 NOSIG
2026-04-15 13:20:00,METAR LGIR 151320Z 06008KT 9999 FEW020 20/13 Q1015 NOSIG
2026-04-15 12:50:00,METAR LGIR 151250Z 06010KT 9999 FEW020 19/15 Q1015 NOSIG
2026-04-15 12:20:00,METAR LGIR 151220Z 07012KT 9999 FEW020 BKN080 20/13 Q1015 NOSIG
2026-04-15 11:50:00,METAR LGIR 151150Z 07006KT 9999 FEW020 BKN080 20/13 Q1016 NOSIG
2026-04-15 11:20:00,METAR LGIR 151120Z 06004KT 9999 FEW020 BKN080 20/12 Q1016 NOSIG
2026-04-15 10:50:00,METAR LGIR 151050Z VRB02KT 9999 FEW020 BKN080 20/12 Q1016 NOSIG
2026-04-15 10:20:00,METAR LGIR 151020Z VRB03KT 9999 FEW020 SCT080 20/12 Q1016 NOSIG
2026-04-15 09:50:00,METAR LGIR 150950Z 32009KT 9999 FEW020 SCT080 19/12 Q1016 NOSIG
2026-04-15 09:20:00,METAR LGIR 150920Z 30007KT 9999 FEW020 SCT080 19/12 Q1017 NOSIG
2026-04-15 08:50:00,METAR LGIR 150850Z 30006KT 9999 FEW020 SCT080 19/12 Q1017 NOSIG
2026-04-15 08:20:00,METAR LGIR 150820Z VRB03KT 9999 FEW020 SCT080 18/10 Q1016 NOSIG
2026-04-15 07:50:00,METAR LGIR 150750Z VRB03KT 9999 FEW020 SCT080 18/10 Q1016 NOSIG
2026-04-15 07:20:00,METAR LGIR 150720Z VRB03KT 9999 FEW020 SCT080 18/13 Q1016 NOSIG
2026-04-15 06:50:00,METAR LGIR 150650Z 21003KT 9999 FEW020 SCT080 18/13 Q1016 NOSIG
2026-04-15 06:20:00,METAR LGIR 150620Z 16003KT 9999 FEW020 SCT080 16/11 Q1016 NOSIG
2026-04-15 05:50:00,METAR LGIR 150550Z 15003KT 9999 FEW020 SCT080 16/11 Q1016 NOSIG
2026-04-15 05:20:00,METAR LGIR 150520Z 17006KT 9999 FEW020 SCT080 15/10 Q1016 NOSIG
2026-04-15 04:50:00,METAR LGIR 150450Z 17008KT 9999 FEW020 SCT080 15/11 Q1016 NOSIG
2026-04-15 04:20:00,METAR LGIR 150420Z 16005KT 9999 FEW020 SCT080 14/10 Q1016 NOSIG
2026-04-15 03:50:00,METAR LGIR 150350Z 17006KT 9999 FEW020 SCT080 14/10 Q1016 NOSIG
2026-04-15 03:20:00,METAR LGIR 150320Z 16008KT 9999 FEW020 SCT080 14/10 Q1016 NOSIG
2026-04-15 02:50:00,METAR LGIR 150250Z 16008KT 9999 FEW020 SCT080 14/10 Q1016 NOSIG
2026-04-15 02:20:00,METAR LGIR 150220Z 16008KT 9999 FEW020 SCT080 15/10 Q1017 NOSIG
2026-04-15 01:50:00,METAR LGIR 150150Z 17008KT 9999 FEW020 SCT080 15/10 Q1017 NOSIG
2026-04-15 01:20:00,METAR LGIR 150120Z 16008KT 9999 FEW020 SCT080 15/10 Q1017 NOSIG
2026-04-15 00:50:00,METAR LGIR 150050Z 16008KT 9999 FEW020 SCT080 15/10 Q1017 NOSIG
2026-04-14 23:50:00,METAR LGIR 142350Z 16008KT 9999 FEW020 SCT080 15/10 Q1017 NOSIG
2026-04-14 23:20:00,METAR LGIR 142320Z 18007KT 9999 FEW020 SCT080 14/08 Q1017 NOSIG
2026-04-14 22:50:00,METAR LGIR 142250Z 18006KT 9999 FEW020 SCT080 14/08 Q1017 NOSIG
2026-04-14 22:20:00,METAR LGIR 142220Z 18006KT 9999 FEW020 SCT080 14/08 Q1017 NOSIG
2026-04-14 21:50:00,METAR LGIR 142150Z 17007KT 9999 FEW020 SCT080 15/08 Q1017 NOSIG
2026-04-14 21:20:00,METAR LGIR 142120Z 17006KT 9999 FEW020 BKN080 16/08 Q1017 NOSIG
2026-04-14 20:50:00,METAR LGIR 142050Z 18004KT 9999 FEW020 BKN080 17/07 Q1017 NOSIG
2026-04-14 20:20:00,METAR LGIR 142020Z 14007KT 9999 FEW020 BKN080 17/07 Q1017 NOSIG
2026-04-14 19:50:00,METAR LGIR 141950Z 15008KT 9999 FEW020 BKN080 17/07 Q1018 NOSIG
2026-04-14 19:20:00,METAR LGIR 141920Z 17009KT 9999 FEW020 BKN080 18/06 Q1018 NOSIG
2026-04-14 18:50:00,METAR LGIR 141850Z 17010KT 9999 FEW020 BKN080 18/06 Q1018 NOSIG
2026-04-14 18:20:00,METAR LGIR 141820Z 17011KT 9999 FEW020 BKN080 18/06 Q1018 NOSIG
2026-04-14 17:50:00,METAR LGIR 141750Z 16010KT 9999 FEW020 BKN080 18/06 Q1017 NOSIG
2026-04-14 17:20:00,METAR LGIR 141720Z 16006KT 9999 FEW020 BKN080 19/07 Q1018 NOSIG
2026-04-14 16:50:00,METAR LGIR 141650Z 12005KT 9999 FEW020 BKN080 20/08 Q1018 NOSIG
2026-04-14 16:20:00,METAR LGIR 141620Z 13004KT 9999 FEW020 BKN080 20/10 Q1018 NOSIG
2026-04-14 15:50:00,METAR LGIR 141550Z 00000KT 9999 FEW020 BKN080 20/14 Q1018 NOSIG
2026-04-14 15:20:00,METAR LGIR 141520Z 12007KT 9999 FEW020 BKN080 20/14 Q1017 NOSIG
2026-04-14 14:50:00,METAR LGIR 141450Z 19013KT 9999 FEW020 BKN080 20/14 Q1017 NOSIG
2026-04-14 14:20:00,METAR LGIR 141420Z 18018KT 9999 FEW020 BKN080 20/14 Q1017 NOSIG
2026-04-14 13:50:00,METAR LGIR 141350Z 17018KT 9999 FEW020 BKN080 20/14 Q1017 NOSIG
2026-04-14 13:20:00,METAR LGIR 141320Z 17019KT 9999 FEW020 BKN080 21/15 Q1017 NOSIG
2026-04-14 12:50:00,METAR LGIR 141250Z 16025KT 9999 FEW020 BKN080 22/15 Q1017 NOSIG
2026-04-14 11:50:00,METAR LGIR 141150Z 16025KT 9999 FEW020 BKN080 22/15 Q1017 NOSIG
2026-04-14 11:20:00,METAR LGIR 141120Z 16025KT 9999 FEW020 BKN080 22/15 Q1017 NOSIG
2026-04-14 10:50:00,METAR LGIR 141050Z 16025KT 9999 FEW020 BKN080 23/15 Q1017 NOSIG
2026-04-14 10:20:00,METAR LGIR 141020Z 16015KT 9999 FEW020 BKN080 23/15 Q1017 NOSIG
2026-04-14 09:50:00,METAR LGIR 140950Z 16011KT 9999 FEW020 BKN080 23/15 Q1017 NOSIG
2026-04-14 09:20:00,METAR LGIR 140920Z 16011KT 9999 FEW020 BKN080 23/15 Q1017 NOSIG
2026-04-14 08:50:00,METAR LGIR 140850Z 16011KT 9999 FEW020 BKN080 23/15 Q1017 NOSIG
2026-04-14 08:20:00,METAR LGIR 140820Z 16014KT 9999 FEW020 BKN080 22/14 Q1018 NOSIG
2026-04-14 07:50:00,METAR LGIR 140750Z 16014KT 9999 FEW020 BKN080 20/12 Q1018 NOSIG
2026-04-14 07:20:00,METAR LGIR 140720Z 16014KT 9999 FEW020 BKN080 17/09 Q1017 NOSIG
2026-04-14 06:50:00,METAR LGIR 140650Z 16014KT 9999 FEW020 BKN080 17/09 Q1017 NOSIG
2026-04-14 06:20:00,METAR LGIR 140620Z 13007KT 9999 FEW020 BKN080 17/09 Q1017 NOSIG
2026-04-14 05:50:00,METAR LGIR 140550Z 13007KT 9999 FEW020 BKN080 17/09 Q1017 NOSIG
2026-04-14 05:20:00,METAR LGIR 140520Z 13007KT 9999 FEW020 BKN080 16/08 Q1017 NOSIG
2026-04-14 04:50:00,METAR LGIR 140450Z 12008KT 9999 FEW020 BKN080 15/08 Q1017 NOSIG
2026-04-14 04:20:00,METAR LGIR 140420Z 12008KT 9999 FEW020 BKN080 15/08 Q1017 NOSIG
2026-04-14 03:50:00,METAR LGIR 140350Z 12007KT 9999 FEW020 BKN080 15/08 Q1016 NOSIG
2026-04-14 03:20:00,METAR LGIR 140320Z 12010KT 9999 FEW018 BKN070 15/08 Q1017 NOSIG
2026-04-14 02:50:00,METAR LGIR 140250Z 12010KT 9999 FEW018 15/09 Q1017 NOSIG
2026-04-14 02:20:00,METAR LGIR 140220Z 12011KT 9999 FEW018 15/09 Q1017 NOSIG
2026-04-14 01:50:00,METAR LGIR 140150Z 13009KT 9999 FEW018 15/10 Q1017 NOSIG
2026-04-14 01:20:00,METAR LGIR 140120Z 14007KT 9999 FEW018 14/10 Q1017 NOSIG
2026-04-14 00:50:00,METAR LGIR 140050Z 15006KT 9999 FEW018 14/10 Q1017 NOSIG
2026-04-14 00:20:00,METAR LGIR 140020Z 17008KT 9999 FEW018 14/11 Q1018 NOSIG
2026-04-13 23:50:00,METAR LGIR 132350Z 17006KT 9999 FEW018 14/11 Q1018 NOSIG
2026-04-13 23:20:00,METAR LGIR 132320Z 16006KT 9999 FEW018 14/13 Q1018 NOSIG
2026-04-13 22:50:00,METAR LGIR 132250Z 14008KT 9999 FEW018 14/12 Q1018 NOSIG
2026-04-13 22:20:00,METAR LGIR 132220Z 18004KT 9999 FEW018 14/13 Q1019 NOSIG
2026-04-13 21:50:00,METAR LGIR 132150Z 18004KT 9999 FEW018 14/13 Q1019 NOSIG
2026-04-13 21:20:00,METAR LGIR 132120Z 19004KT 9999 FEW018 14/11 Q1019 NOSIG
2026-04-13 20:50:00,METAR LGIR 132050Z 14004KT 9999 FEW018 14/11 Q1019 NOSIG
2026-04-13 20:20:00,METAR LGIR 132020Z 17006KT 9999 FEW018 14/11 Q1019 NOSIG
2026-04-13 19:50:00,METAR LGIR 131950Z 17006KT 9999 FEW018 14/11 Q1019 NOSIG
2026-04-13 19:20:00,METAR LGIR 131920Z VRB03KT 9999 FEW018 15/12 Q1019 NOSIG
2026-04-13 18:50:00,METAR LGIR 131850Z VRB03KT 9999 FEW018 16/11 Q1019 NOSIG
2026-04-13 18:20:00,METAR LGIR 131820Z VRB03KT 9999 FEW018 15/12 Q1018 NOSIG
2026-04-13 17:50:00,METAR LGIR 131750Z 10004KT 9999 FEW018 16/12 Q1018 NOSIG
2026-04-13 17:20:00,METAR LGIR 131720Z 14005KT 9999 FEW018 16/11 Q1018 NOSIG
2026-04-13 16:50:00,METAR LGIR 131650Z 12006KT 9999 FEW018 17/11 Q1019 NOSIG
2026-04-13 16:20:00,METAR LGIR 131620Z 08013KT 9999 FEW018 18/12 Q1018 NOSIG
2026-04-13 15:50:00,METAR LGIR 131550Z 08014KT 9999 FEW018 18/12 Q1018 NOSIG
2026-04-13 15:20:00,METAR LGIR 131520Z 07017KT 9999 FEW018 18/12 Q1018 NOSIG
2026-04-13 14:50:00,METAR LGIR 131450Z 07017KT 9999 FEW018 18/12 Q1018 NOSIG
2026-04-13 14:20:00,METAR LGIR 131420Z 07016KT 9999 FEW018 19/11 Q1018 NOSIG
2026-04-13 13:50:00,METAR LGIR 131350Z 07018KT 9999 FEW018 19/11 Q1018 NOSIG
2026-04-13 13:20:00,METAR LGIR 131320Z 07016KT 9999 FEW018 19/12 Q1018 NOSIG
2026-04-13 12:50:00,METAR LGIR 131250Z 07012KT 9999 FEW018 19/12 Q1018 NOSIG
2026-04-13 12:20:00,METAR LGIR 131220Z 07012KT 9999 FEW018 19/12 Q1018 NOSIG
2026-04-13 11:50:00,METAR LGIR 131150Z 07012KT 9999 FEW018 20/13 Q1019 NOSIG
2026-04-13 11:20:00,METAR LGIR 131120Z 06012KT 9999 FEW018 19/13 Q1019 NOSIG
2026-04-13 10:50:00,METAR LGIR 131050Z 06012KT 9999 FEW018 20/13 Q1019 NOSIG
2026-04-13 10:20:00,METAR LGIR 131020Z 06010KT 9999 FEW018 19/13 Q1019 NOSIG
2026-04-13 09:50:00,METAR LGIR 130950Z 06010KT 9999 FEW018 19/13 Q1019 NOSIG
2026-04-13 09:20:00,METAR LGIR 130920Z 06010KT CAVOK 19/13 Q1019 NOSIG
2026-04-13 08:50:00,METAR LGIR 130850Z 06010KT CAVOK 19/13 Q1019 NOSIG
2026-04-13 08:20:00,METAR LGIR 130820Z 06006KT CAVOK 19/13 Q1019 NOSIG
2026-04-13 07:50:00,METAR LGIR 130750Z 07006KT CAVOK 18/13 Q1019 NOSIG
2026-04-13 07:20:00,METAR LGIR 130720Z 08004KT CAVOK 18/12 Q1019 NOSIG
2026-04-13 06:50:00,METAR LGIR 130650Z 08004KT CAVOK 16/13 Q1019 NOSIG
2026-04-13 06:20:00,METAR LGIR 130620Z VRB02KT 9999 FEW020 16/12 Q1019 NOSIG
2026-04-13 05:50:00,METAR LGIR 130550Z 17004KT 9999 FEW020 16/12 Q1019 NOSIG
2026-04-13 05:20:00,METAR LGIR 130520Z 16006KT 9999 FEW020 13/11 Q1019 NOSIG
2026-04-13 04:50:00,METAR LGIR 130450Z 18006KT 9999 FEW020 12/10 Q1019 NOSIG
2026-04-13 04:20:00,METAR LGIR 130420Z 17006KT 9999 FEW020 11/10 Q1019 NOSIG
2026-04-13 03:50:00,METAR LGIR 130350Z 19004KT 9999 FEW020 12/10 Q1019 NOSIG
2026-04-13 03:20:00,METAR LGIR 130320Z 18004KT 9999 FEW020 12/10 Q1018 NOSIG
2026-04-13 02:50:00,METAR LGIR 130250Z 18004KT 9999 FEW020 12/10 Q1018 NOSIG
2026-04-13 02:20:00,METAR LGIR 130220Z 18004KT 9999 FEW020 12/10 Q1018 NOSIG
2026-04-13 01:50:00,METAR LGIR 130150Z 18004KT 9999 FEW020 12/10 Q1018 NOSIG
2026-04-13 01:20:00,METAR LGIR 130120Z 19004KT 9999 FEW020 12/10 Q1018 NOSIG
2026-04-13 00:50:00,METAR LGIR 130050Z 19004KT 9999 FEW020 12/10 Q1018 NOSIG
2026-04-13 00:20:00,METAR LGIR 130020Z 18004KT 9999 FEW020 13/12 Q1018 NOSIG
2026-04-12 23:50:00,METAR LGIR 122350Z 18004KT 9999 FEW020 13/12 Q1018 NOSIG
2026-04-12 23:20:00,METAR LGIR 122320Z 20004KT 9999 FEW020 13/12 Q1019 NOSIG
2026-04-12 22:50:00,METAR LGIR 122250Z 19005KT 9999 FEW020 13/12 Q1019 NOSIG
2026-04-12 22:20:00,METAR LGIR 122220Z 20004KT 9999 FEW020 13/11 Q1019 NOSIG
2026-04-12 21:50:00,METAR LGIR 122150Z 20005KT 9999 FEW020 13/11 Q1019 NOSIG
2026-04-12 21:20:00,METAR LGIR 122120Z 20003KT 9999 FEW020 13/11 Q1019 NOSIG
2026-04-12 20:50:00,METAR LGIR 122050Z 20004KT 9999 FEW020 13/11 Q1019 NOSIG
2026-04-12 20:20:00,METAR LGIR 122020Z 20004KT 9999 FEW020 14/11 Q1019 NOSIG
2026-04-12 19:50:00,METAR LGIR 121950Z 20004KT 9999 FEW020 14/11 Q1019 NOSIG
2026-04-12 19:20:00,METAR LGIR 121920Z 16003KT 9999 FEW020 14/11 Q1020 NOSIG
2026-04-12 18:50:00,METAR LGIR 121850Z 17002KT 9999 FEW020 14/11 Q1019 NOSIG
2026-04-12 18:20:00,METAR LGIR 121820Z 07005KT 9999 FEW020 16/11 Q1019 NOSIG
2026-04-12 17:50:00,METAR LGIR 121750Z 07003KT 9999 FEW020 16/11 Q1019 NOSIG
2026-04-12 17:20:00,METAR LGIR 121720Z 07007KT 9999 FEW020 16/11 Q1019 NOSIG
2026-04-12 16:50:00,METAR LGIR 121650Z 07007KT 9999 FEW020 16/11 Q1018 NOSIG
2026-04-12 16:20:00,METAR LGIR 121620Z 06007KT 9999 FEW020 17/12 Q1018 NOSIG
2026-04-12 15:50:00,METAR LGIR 121550Z 06007KT 9999 FEW020 17/12 Q1018 NOSIG
2026-04-12 14:50:00,METAR LGIR 121450Z 05007KT 9999 FEW020 18/13 Q1018 NOSIG
2026-04-12 14:20:00,METAR LGIR 121420Z 05005KT 9999 FEW020 18/13 Q1018 NOSIG
2026-04-12 13:50:00,METAR LGIR 121350Z 06006KT 9999 FEW020 18/13 Q1018 NOSIG
2026-04-12 13:20:00,METAR LGIR 121320Z 05007KT 9999 FEW020 19/13 Q1018 NOSIG
2026-04-12 12:50:00,METAR LGIR 121250Z 06006KT 9999 FEW020 19/13 Q1018 NOSIG
2026-04-12 12:20:00,METAR LGIR 121220Z 06007KT 9999 FEW020 19/14 Q1018 NOSIG
2026-04-12 11:50:00,METAR LGIR 121150Z 08007KT 9999 FEW020 19/14 Q1018 NOSIG
2026-04-12 11:20:00,METAR LGIR 121120Z 05007KT 9999 FEW020 19/14 Q1018 NOSIG
2026-04-12 10:50:00,METAR LGIR 121050Z 05007KT 9999 FEW020 19/14 Q1019 NOSIG
2026-04-12 10:20:00,METAR LGIR 121020Z 06007KT 9999 FEW020 19/14 Q1019 NOSIG
2026-04-12 09:50:00,METAR LGIR 120950Z 06009KT 9999 FEW020 19/14 Q1019 NOSIG
2026-04-12 09:20:00,METAR LGIR 120920Z 06008KT 9999 FEW020 19/14 Q1019 NOSIG
2026-04-12 08:50:00,METAR LGIR 120850Z 05007KT 9999 FEW020 19/14 Q1019 NOSIG
2026-04-12 08:20:00,METAR LGIR 120820Z 04004KT 9999 FEW020 18/13 Q1019 NOSIG
2026-04-12 07:50:00,METAR LGIR 120750Z 05003KT 9999 FEW020 18/13 Q1019 NOSIG
2026-04-12 07:20:00,METAR LGIR 120720Z VRB03KT 9999 FEW020 18/13 Q1018 NOSIG
2026-04-12 06:50:00,METAR LGIR 120650Z 00000KT 9999 FEW020 18/13 Q1018 NOSIG
2026-04-12 06:20:00,METAR LGIR 120620Z 00000KT 9999 FEW020 17/13 Q1018 NOSIG
2026-04-12 05:50:00,METAR LGIR 120550Z 15002KT 9999 FEW020 17/13 Q1018 NOSIG
2026-04-12 05:20:00,METAR LGIR 120520Z 18004KT 9999 FEW020 15/12 Q1018 NOSIG
2026-04-12 04:50:00,METAR LGIR 120450Z 18004KT 9999 FEW020 13/12 Q1018 NOSIG
2026-04-12 04:20:00,METAR LGIR 120420Z 18005KT 9999 SCT018 12/10 Q1017 NOSIG
2026-04-12 03:50:00,METAR LGIR 120350Z 19005KT 9999 SCT018 11/10 Q1017 NOSIG
2026-04-12 03:20:00,METAR LGIR 120320Z 18006KT 9999 SCT018 11/10 Q1017 NOSIG
2026-04-12 02:50:00,METAR LGIR 120250Z 18006KT 9999 FEW018 11/10 Q1017 NOSIG
2026-04-12 02:20:00,METAR LGIR 120220Z 19005KT 9999 FEW018 11/10 Q1017 NOSIG
2026-04-12 01:50:00,METAR LGIR 120150Z 17005KT 9999 FEW018 11/09 Q1017 NOSIG
2026-04-12 01:20:00,METAR LGIR 120120Z 18006KT 9999 FEW018 11/10 Q1016 NOSIG
2026-04-12 00:50:00,METAR LGIR 120050Z 17007KT 9999 FEW018 11/11 Q1017 NOSIG
2026-04-12 00:20:00,METAR LGIR 120020Z 17007KT 9999 FEW018 12/11 Q1017 NOSIG
2026-04-11 23:50:00,METAR LGIR 112350Z 17005KT 9999 FEW018 12/11 Q1017 NOSIG
2026-04-11 23:20:00,METAR LGIR 112320Z 17006KT 9999 FEW018 12/11 Q1017 NOSIG
2026-04-11 22:50:00,METAR LGIR 112250Z 17007KT 9999 FEW018 12/11 Q1017 NOSIG
2026-04-11 22:20:00,METAR LGIR 112220Z 18007KT 9999 FEW018 12/11 Q1017 NOSIG
2026-04-11 21:50:00,METAR LGIR 112150Z 18006KT 9999 FEW018 12/11 Q1018 NOSIG
2026-04-11 21:20:00,METAR LGIR 112120Z 18005KT 9999 FEW020 12/11 Q1018 NOSIG
2026-04-11 20:50:00,METAR LGIR 112050Z 18005KT 9999 FEW020 12/11 Q1018 NOSIG
2026-04-11 20:20:00,METAR LGIR 112020Z 19004KT 9999 FEW020 13/12 Q1018 NOSIG
2026-04-11 19:50:00,METAR LGIR 111950Z 19004KT 9999 FEW020 13/11 Q1018 NOSIG
2026-04-11 19:20:00,METAR LGIR 111920Z 18004KT 9999 FEW020 14/12 Q1018 NOSIG
2026-04-11 18:50:00,METAR LGIR 111850Z 19004KT 9999 FEW020 14/12 Q1018 NOSIG
2026-04-11 18:20:00,METAR LGIR 111820Z 18003KT 9999 FEW020 15/12 Q1017 NOSIG
2026-04-11 17:50:00,METAR LGIR 111750Z 19003KT 9999 FEW020 15/13 Q1017 NOSIG
2026-04-11 17:20:00,METAR LGIR 111720Z 08004KT 9999 FEW020 16/13 Q1017 NOSIG
2026-04-11 16:50:00,METAR LGIR 111650Z 07005KT 9999 FEW020 17/13 Q1017 NOSIG
2026-04-11 16:20:00,METAR LGIR 111620Z 06006KT 9999 FEW020 18/13 Q1017 NOSIG
2026-04-11 15:50:00,METAR LGIR 111550Z 06006KT 9999 FEW020 18/13 Q1017 NOSIG
2026-04-11 15:20:00,METAR LGIR 111520Z 06008KT 9999 FEW020 18/13 Q1017 NOSIG
2026-04-11 14:50:00,METAR LGIR 111450Z 07008KT 9999 FEW020 19/13 Q1017 NOSIG
2026-04-11 14:20:00,METAR LGIR 111420Z 07008KT 9999 FEW020 19/13 Q1017 NOSIG
2026-04-11 13:50:00,METAR LGIR 111350Z 07008KT 9999 FEW020 19/13 Q1017 NOSIG
2026-04-11 13:20:00,METAR LGIR 111320Z 07009KT 9999 FEW020 19/13 Q1017 NOSIG
2026-04-11 12:50:00,METAR LGIR 111250Z 07008KT 9999 FEW020 19/13 Q1017 NOSIG
2026-04-11 12:20:00,METAR LGIR 111220Z 07008KT 9999 FEW020 19/13 Q1017 NOSIG
2026-04-11 11:50:00,METAR LGIR 111150Z 07008KT 9999 FEW020 19/13 Q1017 NOSIG
2026-04-11 11:20:00,METAR LGIR 111120Z 07008KT 9999 FEW020 19/12 Q1017 NOSIG
2026-04-11 10:50:00,METAR LGIR 111050Z 06006KT 9999 FEW020 19/13 Q1017 NOSIG
2026-04-11 10:20:00,METAR LGIR 111020Z 06007KT 9999 FEW020 19/13 Q1017 NOSIG
2026-04-11 09:50:00,METAR LGIR 110950Z 06008KT 9999 FEW020 19/13 Q1017 NOSIG
2026-04-11 09:20:00,METAR LGIR 110920Z 05007KT 9999 FEW020 19/13 Q1017 NOSIG
2026-04-11 08:50:00,METAR LGIR 110850Z 04006KT 9999 FEW020 19/13 Q1018 NOSIG
2026-04-11 08:20:00,METAR LGIR 110820Z 01007KT 9999 FEW020 19/12 Q1018 NOSIG
2026-04-11 07:50:00,METAR LGIR 110750Z 01005KT 9999 FEW020 19/12 Q1018 NOSIG
2026-04-11 07:20:00,METAR LGIR 110720Z 05004KT 9999 FEW020 18/11 Q1017 NOSIG
2026-04-11 06:50:00,METAR LGIR 110650Z 12003KT 9999 FEW020 18/11 Q1017 NOSIG
2026-04-11 06:20:00,METAR LGIR 110620Z 16004KT 9999 FEW020 16/11 Q1017 NOSIG
2026-04-11 05:50:00,METAR LGIR 110550Z 16006KT 9999 FEW020 15/11 Q1017 NOSIG
2026-04-11 05:20:00,METAR LGIR 110520Z 17005KT 9999 FEW020 13/11 Q1017 NOSIG
2026-04-11 04:50:00,METAR LGIR 110450Z 18006KT 9999 FEW020 12/09 Q1017 NOSIG
2026-04-11 04:20:00,METAR LGIR 110420Z 18006KT 9999 FEW020 11/09 Q1017 NOSIG
2026-04-11 03:50:00,METAR LGIR 110350Z COR 18006KT 9999 FEW020 10/10 Q1017 NOSIG
2026-04-11 03:20:00,METAR LGIR 110320Z 19006KT 9999 FEW020 10/10 Q1017 NOSIG
2026-04-11 02:50:00,METAR LGIR 110250Z 18006KT 9999 FEW020 11/11 Q1017 NOSIG
2026-04-11 02:20:00,METAR LGIR 110220Z 18006KT 9999 FEW020 12/11 Q1017 NOSIG
2026-04-11 01:50:00,METAR LGIR 110150Z 18006KT 9999 FEW020 12/11 Q1017 NOSIG
2026-04-11 01:20:00,METAR LGIR 110120Z 17008KT 9999 FEW020 12/11 Q1017 NOSIG
2026-04-11 00:50:00,METAR LGIR 110050Z 16003KT 9999 FEW020 12/11 Q1016 NOSIG
2026-04-11 00:20:00,METAR LGIR 110020Z 16004KT 9999 FEW020 12/11 Q1016 NOSIG
2026-04-10 23:50:00,METAR LGIR 102350Z 16010KT 9999 FEW020 12/11 Q1017 NOSIG
2026-04-10 23:20:00,METAR LGIR 102320Z 17004KT 9999 FEW020 12/11 Q1017 NOSIG
2026-04-10 22:50:00,METAR LGIR 102250Z 16006KT 9999 FEW020 12/11 Q1018 NOSIG
2026-04-10 22:20:00,METAR LGIR 102220Z 17004KT 9999 FEW020 12/11 Q1018 NOSIG
2026-04-10 21:50:00,METAR LGIR 102150Z 20004KT 9999 FEW020 12/11 Q1018 NOSIG
2026-04-10 21:20:00,METAR LGIR 102120Z 17004KT 9999 FEW020 12/11 Q1018 NOSIG
2026-04-10 20:50:00,METAR LGIR 102050Z 17004KT 9999 FEW020 12/11 Q1018 NOSIG
2026-04-10 20:20:00,METAR LGIR 102020Z 19004KT 9999 FEW020 13/12 Q1018 NOSIG
2026-04-10 19:50:00,METAR LGIR 101950Z 19004KT 9999 FEW020 13/12 Q1017 NOSIG
2026-04-10 19:20:00,METAR LGIR 101920Z 31006KT 9999 FEW020 15/13 Q1017 NOSIG
2026-04-10 18:50:00,METAR LGIR 101850Z 31008KT 9999 FEW020 16/13 Q1017 NOSIG
2026-04-10 18:20:00,METAR LGIR 101820Z 30010KT 9999 FEW020 16/13 Q1017 NOSIG
2026-04-10 17:50:00,METAR LGIR 101750Z 30012KT 9999 FEW020 16/13 Q1016 NOSIG
2026-04-10 17:20:00,METAR LGIR 101720Z 30012KT 9999 FEW020 16/13 Q1016 NOSIG
2026-04-10 16:50:00,METAR LGIR 101650Z 31012KT 9999 FEW020 17/13 Q1016 NOSIG
2026-04-10 16:20:00,METAR LGIR 101620Z 32012KT 9999 FEW020 17/13 Q1016 NOSIG
2026-04-10 15:50:00,METAR LGIR 101550Z 32010KT 9999 SCT025 18/12 Q1016 NOSIG
2026-04-10 15:20:00,METAR LGIR 101520Z 32011KT 9999 FEW020 SCT025 18/13 Q1016 NOSIG
2026-04-10 14:50:00,METAR LGIR 101450Z 32010KT 9999 FEW020 SCT025 18/13 Q1016 NOSIG
2026-04-10 14:20:00,METAR LGIR 101420Z 32010KT 9999 FEW020 SCT025 19/13 Q1015 NOSIG
2026-04-10 13:50:00,METAR LGIR 101350Z 32008KT 9999 FEW020 SCT025 19/13 Q1015 NOSIG
2026-04-10 13:20:00,METAR LGIR 101320Z 36007KT 9999 SCT025 20/13 Q1016 NOSIG
2026-04-10 12:50:00,METAR LGIR 101250Z 35007KT 9999 SCT025 20/13 Q1016 NOSIG
2026-04-10 12:20:00,METAR LGIR 101220Z 36007KT 9999 SCT025 19/13 Q1016 NOSIG
2026-04-10 11:50:00,METAR LGIR 101150Z 36007KT 9999 SCT025 19/13 Q1016 NOSIG
2026-04-10 11:20:00,METAR LGIR 101120Z 36006KT 9999 FEW020 SCT025 19/14 Q1016 NOSIG
2026-04-10 10:50:00,METAR LGIR 101050Z 35006KT 9999 FEW020 SCT025 19/14 Q1016 NOSIG
2026-04-10 10:20:00,METAR LGIR 101020Z 33009KT 9999 FEW020 SCT025 19/14 Q1016 NOSIG
2026-04-10 09:50:00,METAR LGIR 100950Z 33010KT 9999 FEW020 SCT025 19/14 Q1016 NOSIG
2026-04-10 09:20:00,METAR LGIR 100920Z 32013KT 9999 FEW020 SCT025 18/13 Q1016 NOSIG
2026-04-10 08:50:00,METAR LGIR 100850Z 31014KT 9999 FEW020 SCT025 18/13 Q1016 NOSIG
2026-04-10 08:20:00,METAR LGIR 100820Z 31014KT 9999 FEW020 SCT025 18/12 Q1016 NOSIG
2026-04-10 07:50:00,METAR LGIR 100750Z 34012KT 9999 FEW020 SCT025 18/12 Q1016 NOSIG
2026-04-10 07:20:00,METAR LGIR 100720Z 34006KT 9999 FEW020 SCT025 18/12 Q1016 NOSIG
2026-04-10 06:50:00,METAR LGIR 100650Z 30008KT 9999 FEW020 SCT025 18/12 Q1015 NOSIG
2026-04-10 06:20:00,METAR LGIR 100620Z 25006KT 9999 FEW020 SCT025 17/11 Q1015 NOSIG
2026-04-10 05:50:00,METAR LGIR 100550Z 24005KT 9999 FEW020 SCT025 16/10 Q1015 NOSIG
2026-04-10 04:50:00,METAR LGIR 100450Z 22005KT 9999 FEW020 SCT025 14/10 Q1015 NOSIG
2026-04-10 04:20:00,METAR LGIR 100420Z 19006KT 9999 FEW020 SCT025 12/10 Q1014 NOSIG
2026-04-10 03:50:00,METAR LGIR 100350Z 17006KT 9999 FEW020 12/11 Q1014 NOSIG
2026-04-10 03:20:00,METAR LGIR 100320Z 17006KT 9999 FEW020 12/10 Q1014 NOSIG
2026-04-10 02:50:00,METAR LGIR 100250Z 17005KT 9999 FEW020 12/11 Q1014 NOSIG
2026-04-10 02:20:00,METAR LGIR 100220Z 17005KT 9999 FEW020 12/11 Q1014 NOSIG
2026-04-10 01:50:00,METAR LGIR 100150Z 17005KT 9999 FEW020 12/11 Q1014 NOSIG
2026-04-10 01:20:00,METAR LGIR 100120Z 17006KT 9999 FEW020 12/11 Q1014 NOSIG
2026-04-10 00:50:00,METAR LGIR 100050Z 17007KT 9999 FEW020 12/11 Q1014 NOSIG
2026-04-10 00:20:00,METAR LGIR 100020Z 17006KT 9999 FEW020 12/11 Q1014 NOSIG
2026-04-09 23:50:00,METAR LGIR 092350Z 17006KT 9999 FEW020 13/11 Q1014 NOSIG
2026-04-09 23:20:00,METAR LGIR 092320Z 17006KT 9999 FEW020 13/12 Q1014 NOSIG
2026-04-09 22:50:00,METAR LGIR 092250Z 18005KT 9999 FEW020 13/12 Q1014 NOSIG
2026-04-09 22:20:00,METAR LGIR 092220Z 17005KT 9999 FEW020 13/12 Q1015 NOSIG
2026-04-09 21:50:00,METAR LGIR 092150Z 17005KT 9999 FEW020 13/12 Q1015 NOSIG
2026-04-09 21:20:00,METAR LGIR 092120Z 17004KT 9999 FEW020 14/13 Q1015 NOSIG
2026-04-09 20:50:00,METAR LGIR 092050Z 17005KT 9999 FEW020 14/13 Q1014 NOSIG
2026-04-09 20:20:00,METAR LGIR 092020Z 16004KT 9999 FEW020 14/13 Q1015 NOSIG
2026-04-09 19:50:00,METAR LGIR 091950Z 16004KT 9999 SCT020 15/13 Q1014 NOSIG
2026-04-09 19:20:00,METAR LGIR 091920Z 16003KT 9999 SCT020 15/13 Q1014 NOSIG
2026-04-09 18:50:00,METAR LGIR 091850Z 16003KT 9999 SCT020 15/13 Q1014 NOSIG
2026-04-09 18:20:00,METAR LGIR 091820Z 32003KT 9999 SCT020 16/14 Q1014 NOSIG
2026-04-09 17:50:00,METAR LGIR 091750Z 32004KT 9999 SCT020 16/14 Q1014 NOSIG
2026-04-09 17:20:00,METAR LGIR 091720Z 31004KT 9999 SCT020 16/14 Q1014 NOSIG
2026-04-09 16:50:00,METAR LGIR 091650Z 32007KT 9999 SCT020 17/15 Q1014 NOSIG
2026-04-09 16:20:00,METAR LGIR 091620Z 31009KT 9999 SCT020 17/15 Q1014 NOSIG
2026-04-09 15:50:00,METAR LGIR 091550Z COR 30013KT 9999 SCT020 18/15 Q1014 NOSIG
2026-04-09 15:20:00,METAR LGIR 091520Z 30014KT 9999 FEW020 18/15 Q1014 NOSIG
2026-04-09 14:50:00,METAR LGIR 091450Z 31013KT 9999 FEW020 19/15 Q1014 NOSIG
2026-04-09 14:20:00,METAR LGIR 091420Z 30016KT 9999 FEW020 19/15 Q1013 NOSIG
2026-04-09 13:50:00,METAR LGIR 091350Z 30016KT 9999 FEW020 19/15 Q1013 NOSIG
2026-04-09 13:20:00,METAR LGIR 091320Z 30016KT 9999 FEW020 19/15 Q1013 NOSIG
2026-04-09 12:50:00,METAR LGIR 091250Z 30019KT 9999 FEW020 20/15 Q1013 NOSIG
2026-04-09 12:20:00,METAR LGIR 091220Z 30019KT 9999 FEW020 20/15 Q1013 NOSIG
2026-04-09 11:50:00,METAR LGIR 091150Z 31021KT 9999 FEW020 20/15 Q1013 NOSIG
2026-04-09 11:20:00,METAR LGIR 091120Z 31020KT 9999 FEW020 20/15 Q1013 NOSIG
2026-04-09 10:50:00,METAR LGIR 091050Z 31021KT 9999 FEW020 20/14 Q1013 NOSIG
2026-04-09 10:20:00,METAR LGIR 091020Z 31018KT 9999 FEW020 20/14 Q1012 NOSIG
2026-04-09 09:50:00,METAR LGIR 090950Z 31018KT 9999 FEW020 20/14 Q1013 NOSIG
2026-04-09 09:20:00,METAR LGIR 090920Z 30018KT 9999 FEW020 20/14 Q1013 NOSIG
2026-04-09 08:50:00,METAR LGIR 090850Z 31018KT 9999 FEW020 20/14 Q1013 NOSIG
2026-04-09 08:20:00,METAR LGIR 090820Z 31015KT 9999 FEW020 20/12 Q1013 NOSIG
2026-04-09 07:50:00,METAR LGIR 090750Z 30010KT 9999 FEW020 20/12 Q1013 NOSIG
2026-04-09 07:20:00,METAR LGIR 090720Z 07004KT 9999 FEW020 20/11 Q1013 NOSIG
2026-04-09 06:50:00,METAR LGIR 090650Z 02003KT 9999 FEW020 20/11 Q1012 NOSIG
2026-04-09 06:20:00,METAR LGIR 090620Z 00000KT 9999 FEW020 19/12 Q1012 NOSIG
2026-04-09 05:50:00,METAR LGIR 090550Z 16005KT CAVOK 18/12 Q1012 NOSIG
2026-04-09 05:20:00,METAR LGIR 090520Z 18007KT CAVOK 16/11 Q1012 NOSIG
2026-04-09 04:50:00,METAR LGIR 090450Z 17007KT CAVOK 15/10 Q1012 NOSIG
2026-04-09 04:20:00,METAR LGIR 090420Z 17008KT CAVOK 14/10 Q1012 NOSIG
2026-04-09 03:50:00,METAR LGIR 090350Z 16008KT CAVOK 14/11 Q1012 NOSIG
2026-04-09 03:20:00,METAR LGIR 090320Z 16010KT CAVOK 14/11 Q1012 NOSIG
2026-04-09 02:50:00,METAR LGIR 090250Z 16010KT CAVOK 14/11 Q1013 NOSIG
2026-04-09 02:20:00,METAR LGIR 090220Z 16010KT 9999 FEW020 14/11 Q1013 NOSIG
2026-04-09 01:50:00,METAR LGIR 090150Z 17008KT 9999 FEW020 14/10 Q1013 NOSIG
2026-04-09 01:20:00,METAR LGIR 090120Z 17008KT 9999 FEW020 14/11 Q1014 NOSIG
2026-04-09 00:50:00,METAR LGIR 090050Z 14006KT 9999 FEW020 12/10 Q1014 NOSIG
2026-04-09 00:20:00,METAR LGIR 090020Z 17008KT 9999 FEW020 14/11 Q1014 NOSIG
2026-04-08 23:50:00,METAR LGIR 082350Z 19006KT 9999 FEW020 14/11 Q1014 NOSIG
2026-04-08 23:20:00,METAR LGIR 082320Z 16008KT 9999 FEW020 13/09 Q1015 NOSIG
2026-04-08 22:50:00,METAR LGIR 082250Z 16008KT 9999 FEW020 14/11 Q1015 NOSIG
2026-04-08 22:20:00,METAR LGIR 082220Z 16008KT 9999 FEW020 13/09 Q1015 NOSIG
2026-04-08 21:50:00,METAR LGIR 082150Z 16010KT 9999 FEW020 14/09 Q1015 NOSIG
2026-04-08 21:20:00,METAR LGIR 082120Z 16008KT 9999 FEW020 13/09 Q1015 NOSIG
2026-04-08 20:20:00,METAR LGIR 082020Z 17008KT 9999 FEW020 13/09 Q1015 NOSIG
2026-04-08 19:50:00,METAR LGIR 081950Z 18008KT 9999 FEW020 13/09 Q1015 NOSIG
2026-04-08 19:20:00,METAR LGIR 081920Z 15004KT 9999 FEW020 15/07 Q1016 NOSIG
2026-04-08 18:50:00,METAR LGIR 081850Z 18006KT 9999 FEW020 14/07 Q1016 NOSIG
2026-04-08 18:20:00,METAR LGIR 081820Z 16003KT 9999 FEW020 16/09 Q1016 NOSIG
2026-04-08 17:50:00,METAR LGIR 081750Z 29003KT 9999 FEW020 17/12 Q1016 NOSIG
2026-04-08 17:20:00,METAR LGIR 081720Z 29004KT 9999 FEW020 18/13 Q1015 NOSIG
2026-04-08 16:50:00,METAR LGIR 081650Z 29010KT 9999 FEW020 18/13 Q1015 NOSIG
2026-04-08 16:20:00,METAR LGIR 081620Z 29010KT 9999 FEW020 19/12 Q1015 NOSIG
2026-04-08 15:50:00,METAR LGIR 081550Z 29014KT 9999 FEW020 20/11 Q1015 NOSIG
2026-04-08 14:50:00,METAR LGIR 081450Z 30017KT 9999 FEW020 20/11 Q1015 NOSIG
2026-04-08 14:20:00,METAR LGIR 081420Z 30016KT 9999 FEW020 21/10 Q1015 NOSIG
2026-04-08 13:50:00,METAR LGIR 081350Z 29017KT 9999 FEW020 22/09 Q1015 NOSIG
2026-04-08 13:20:00,METAR LGIR 081320Z 29018KT 9999 FEW020 22/09 Q1015 NOSIG
2026-04-08 12:20:00,METAR LGIR 081220Z 29018KT CAVOK 22/10 Q1016 NOSIG
2026-04-08 11:50:00,METAR LGIR 081150Z 29018KT CAVOK 22/10 Q1016 NOSIG
2026-04-08 11:20:00,METAR LGIR 081120Z 30017KT CAVOK 23/09 Q1016 NOSIG
2026-04-08 10:20:00,METAR LGIR 081020Z 30020KT CAVOK 23/09 Q1016 NOSIG
2026-04-08 09:50:00,METAR LGIR 080950Z 30018KT CAVOK 23/09 Q1016 NOSIG
2026-04-08 09:20:00,METAR LGIR 080920Z 30016KT CAVOK 23/08 Q1016 NOSIG
2026-04-08 08:50:00,METAR LGIR 080850Z 30014KT CAVOK 22/10 Q1016 NOSIG
2026-04-08 08:20:00,METAR LGIR 080820Z 32006KT CAVOK 22/08 Q1017 NOSIG
2026-04-08 07:50:00,METAR LGIR 080750Z 35004KT CAVOK 21/07 Q1017 NOSIG
2026-04-08 06:50:00,METAR LGIR 080650Z VRB03KT CAVOK 19/10 Q1017 NOSIG
2026-04-08 06:20:00,METAR LGIR 080620Z 16005KT CAVOK 18/08 Q1017 NOSIG
2026-04-08 05:50:00,METAR LGIR 080550Z 16007KT CAVOK 17/09 Q1017 NOSIG
2026-04-08 05:20:00,METAR LGIR 080520Z 16010KT CAVOK 15/09 Q1017 NOSIG
2026-04-08 04:50:00,METAR LGIR 080450Z 17008KT CAVOK 14/08 Q1017 NOSIG
2026-04-08 04:20:00,METAR LGIR 080420Z 17010KT CAVOK 13/07 Q1017 NOSIG
2026-04-08 03:50:00,METAR LGIR 080350Z 17008KT CAVOK 13/07 Q1017 NOSIG
2026-04-08 03:20:00,METAR LGIR 080320Z 17007KT 9999 FEW020 12/07 Q1017 NOSIG
2026-04-08 02:50:00,METAR LGIR 080250Z 17007KT 9999 FEW020 12/07 Q1017 NOSIG
2026-04-08 02:20:00,METAR LGIR 080220Z 17007KT 9999 FEW020 12/07 Q1018 NOSIG
2026-04-08 01:50:00,METAR LGIR 080150Z 17007KT 9999 FEW020 12/07 Q1018 NOSIG
2026-04-08 01:20:00,METAR LGIR 080120Z 17007KT 9999 FEW020 12/07 Q1018 NOSIG
2026-04-08 00:50:00,METAR LGIR 080050Z 17007KT 9999 FEW020 12/07 Q1018 NOSIG
2026-04-08 00:20:00,METAR LGIR 080020Z 17007KT 9999 FEW020 12/07 Q1018 NOSIG
2026-04-07 23:50:00,METAR LGIR 072350Z 17006KT 9999 FEW020 12/07 Q1018 NOSIG
2026-04-07 23:20:00,METAR LGIR 072320Z 17007KT 9999 FEW020 11/07 Q1018 NOSIG
2026-04-07 22:50:00,METAR LGIR 072250Z 17008KT 9999 FEW020 11/08 Q1018 NOSIG
2026-04-07 22:20:00,METAR LGIR 072220Z 17007KT 9999 FEW020 12/09 Q1019 NOSIG
2026-04-07 21:50:00,METAR LGIR 072150Z 17007KT 9999 FEW020 12/09 Q1019 NOSIG
2026-04-07 21:20:00,METAR LGIR 072120Z 17005KT 9999 FEW020 12/10 Q1019 NOSIG
2026-04-07 20:50:00,METAR LGIR 072050Z 17005KT 9999 FEW020 12/11 Q1019 NOSIG
2026-04-07 20:20:00,METAR LGIR 072020Z 17006KT 9999 FEW020 12/11 Q1020 NOSIG
2026-04-07 19:50:00,METAR LGIR 071950Z 16008KT 9999 FEW020 13/11 Q1020 NOSIG
2026-04-07 19:20:00,METAR LGIR 071920Z 16008KT 9999 FEW020 14/12 Q1020 NOSIG
2026-04-07 18:50:00,METAR LGIR 071850Z 16006KT 9999 FEW020 14/12 Q1020 NOSIG
2026-04-07 18:20:00,METAR LGIR 071820Z 00000KT 9999 FEW020 16/12 Q1020 NOSIG
2026-04-07 17:50:00,METAR LGIR 071750Z 00000KT 9999 FEW020 16/12 Q1020 NOSIG
2026-04-07 17:20:00,METAR LGIR 071720Z 00000KT 9999 FEW020 17/13 Q1019 NOSIG
2026-04-07 16:50:00,METAR LGIR 071650Z 00000KT 9999 FEW020 18/13 Q1019 NOSIG
2026-04-07 16:20:00,METAR LGIR 071620Z 35004KT 9999 FEW020 19/14 Q1019 NOSIG
2026-04-07 15:50:00,METAR LGIR 071550Z 35004KT 9999 FEW020 19/14 Q1019 NOSIG
2026-04-07 15:20:00,METAR LGIR 071520Z 35004KT 9999 FEW020 19/14 Q1019 NOSIG
2026-04-07 14:50:00,METAR LGIR 071450Z 35004KT 9999 FEW020 19/14 Q1019 NOSIG
2026-04-07 14:20:00,METAR LGIR 071420Z 36004KT CAVOK 19/14 Q1020 NOSIG
2026-04-07 13:50:00,METAR LGIR 071350Z 36004KT CAVOK 19/14 Q1020 NOSIG
2026-04-07 13:20:00,METAR LGIR 071320Z 36004KT CAVOK 19/14 Q1020 NOSIG
2026-04-07 12:50:00,METAR LGIR 071250Z 36004KT CAVOK 20/14 Q1021 NOSIG
2026-04-07 12:20:00,METAR LGIR 071220Z 36004KT CAVOK 20/14 Q1021 NOSIG
2026-04-07 11:50:00,METAR LGIR 071150Z 36004KT CAVOK 20/14 Q1021 NOSIG
2026-04-07 11:20:00,METAR LGIR 071120Z VRB03KT 9999 FEW020 20/12 Q1021 NOSIG
2026-04-07 10:50:00,METAR LGIR 071050Z VRB03KT 9999 FEW020 20/13 Q1021 NOSIG
2026-04-07 10:20:00,METAR LGIR 071020Z 06004KT CAVOK 20/13 Q1021 NOSIG
2026-04-07 09:50:00,METAR LGIR 070950Z 06004KT CAVOK 20/13 Q1021 NOSIG
2026-04-07 09:20:00,METAR LGIR 070920Z VRB03KT CAVOK 20/11 Q1021 NOSIG
2026-04-07 08:50:00,METAR LGIR 070850Z VRB03KT CAVOK 20/11 Q1022 NOSIG
2026-04-07 08:20:00,METAR LGIR 070820Z VRB03KT CAVOK 19/09 Q1021 NOSIG
2026-04-07 07:50:00,METAR LGIR 070750Z VRB03KT CAVOK 19/09 Q1021 NOSIG
2026-04-07 07:20:00,METAR LGIR 070720Z VRB03KT CAVOK 18/09 Q1021 NOSIG
2026-04-07 06:50:00,METAR LGIR 070650Z VRB03KT CAVOK 18/09 Q1021 NOSIG
2026-04-07 06:20:00,METAR LGIR 070620Z 16004KT 9999 FEW020 18/09 Q1021 NOSIG
2026-04-07 05:50:00,METAR LGIR 070550Z 17005KT 9999 FEW020 16/09 Q1021 NOSIG
2026-04-07 05:20:00,METAR LGIR 070520Z 17009KT 9999 FEW020 12/08 Q1021 NOSIG
2026-04-07 04:20:00,METAR LGIR 070420Z 17008KT 9999 FEW020 10/07 Q1021 NOSIG
2026-04-07 03:50:00,METAR LGIR 070350Z 17006KT 9999 FEW020 10/07 Q1020 NOSIG
2026-04-07 03:20:00,METAR LGIR 070320Z 17006KT 9999 FEW020 10/07 Q1020 NOSIG
2026-04-07 02:50:00,METAR LGIR 070250Z 16006KT 9999 FEW020 10/07 Q1020 NOSIG
2026-04-07 02:20:00,METAR LGIR 070220Z 17008KT 9999 FEW020 10/05 Q1020 NOSIG
2026-04-07 01:50:00,METAR LGIR 070150Z 17008KT 9999 FEW020 10/08 Q1020 NOSIG
2026-04-07 01:20:00,METAR LGIR 070120Z 17006KT 9999 FEW020 11/08 Q1020 NOSIG
2026-04-07 00:50:00,METAR LGIR 070050Z 17006KT 9999 FEW020 11/08 Q1020 NOSIG
2026-04-07 00:20:00,METAR LGIR 070020Z 16004KT 9999 FEW020 11/08 Q1021 NOSIG
2026-04-06 23:50:00,METAR LGIR 062350Z 16005KT 9999 FEW020 11/08 Q1021 NOSIG
2026-04-06 23:20:00,METAR LGIR 062320Z 17006KT 9999 FEW020 11/09 Q1021 NOSIG
2026-04-06 22:50:00,METAR LGIR 062250Z 17008KT 9999 FEW020 12/10 Q1021 NOSIG
2026-04-06 22:20:00,METAR LGIR 062220Z 17006KT 9999 FEW020 11/09 Q1021 NOSIG
2026-04-06 21:50:00,METAR LGIR 062150Z 16006KT 9999 FEW020 12/10 Q1021 NOSIG
2026-04-06 21:20:00,METAR LGIR 062120Z 17006KT 9999 FEW020 11/09 Q1021 NOSIG
2026-04-06 20:50:00,METAR LGIR 062050Z 16006KT 9999 FEW020 11/09 Q1021 NOSIG
2026-04-06 20:20:00,METAR LGIR 062020Z 16004KT 9999 FEW020 12/09 Q1021 NOSIG
2026-04-06 19:50:00,METAR LGIR 061950Z 16005KT 9999 FEW020 12/09 Q1021 NOSIG
2026-04-06 19:20:00,METAR LGIR 061920Z 18004KT 9999 FEW020 13/10 Q1021 NOSIG
2026-04-06 18:50:00,METAR LGIR 061850Z 24003KT 9999 FEW020 14/11 Q1021 NOSIG
2026-04-06 18:20:00,METAR LGIR 061820Z 26006KT 9999 FEW020 15/10 Q1021 NOSIG
2026-04-06 17:50:00,METAR LGIR 061750Z 28008KT 9999 FEW020 15/10 Q1021 NOSIG
2026-04-06 17:20:00,METAR LGIR 061720Z 28010KT 9999 FEW025 16/11 Q1020 NOSIG
2026-04-06 16:50:00,METAR LGIR 061650Z 28010KT 9999 FEW010 16/11 Q1020 NOSIG
2026-04-06 16:20:00,METAR LGIR 061620Z 29010KT 9999 FEW025 17/11 Q1020 NOSIG
2026-04-06 15:50:00,METAR LGIR 061550Z 31012KT 9999 SCT025 17/11 Q1020 NOSIG
2026-04-06 14:50:00,METAR LGIR 061450Z 30013KT 9999 FEW018 SCT025 18/11 Q1020 NOSIG
2026-04-06 14:20:00,METAR LGIR 061420Z 30013KT 9999 FEW018 SCT025 18/12 Q1020 NOSIG
2026-04-06 13:50:00,METAR LGIR 061350Z 30013KT 9999 FEW018 SCT025 18/12 Q1020 NOSIG
2026-04-06 13:20:00,METAR LGIR 061320Z 30013KT 9999 FEW018 SCT025 18/12 Q1020 NOSIG
2026-04-06 12:50:00,METAR LGIR 061250Z 30015KT 9999 FEW018 SCT025 19/12 Q1021 NOSIG
2026-04-06 12:20:00,METAR LGIR 061220Z 30015KT 9999 FEW018 SCT025 19/12 Q1021 NOSIG
2026-04-06 11:50:00,METAR LGIR 061150Z 30015KT 9999 FEW018 SCT025 19/12 Q1021 NOSIG
2026-04-06 11:20:00,METAR LGIR 061120Z 31014KT 9999 FEW018 SCT025 19/12 Q1021 NOSIG
2026-04-06 10:50:00,METAR LGIR 061050Z 31013KT 9999 FEW018 SCT025 18/12 Q1021 NOSIG
2026-04-06 10:20:00,METAR LGIR 061020Z 31012KT 9999 FEW018 SCT025 18/12 Q1022 NOSIG
2026-04-06 09:50:00,METAR LGIR 060950Z 31012KT 9999 FEW018 SCT025 18/12 Q1022 NOSIG
2026-04-06 09:20:00,METAR LGIR 060920Z 31012KT 9999 FEW018 SCT025 18/13 Q1022 NOSIG
2026-04-06 08:50:00,METAR LGIR 060850Z 31011KT 9999 FEW018 SCT025 18/13 Q1022 NOSIG
2026-04-06 08:20:00,METAR LGIR 060820Z 31011KT 9999 FEW018 BKN025 18/11 Q1021 NOSIG
2026-04-06 07:50:00,METAR LGIR 060750Z 31010KT 9999 FEW018 BKN025 18/11 Q1021 NOSIG
2026-04-06 07:20:00,METAR LGIR 060720Z 32009KT 9999 FEW018 BKN025 17/12 Q1021 NOSIG
2026-04-06 06:50:00,METAR LGIR 060650Z 31012KT 9999 FEW018 BKN025 17/12 Q1021 NOSIG
2026-04-06 06:20:00,METAR LGIR 060620Z 31011KT 9999 FEW018 BKN025 17/12 Q1021 NOSIG
2026-04-06 05:50:00,METAR LGIR 060550Z 31010KT 9999 FEW018 BKN025 16/12 Q1021 NOSIG
2026-04-06 05:20:00,METAR LGIR 060520Z 30010KT 9999 FEW018 BKN025 16/13 Q1021 NOSIG
2026-04-06 04:50:00,METAR LGIR 060450Z 29012KT 9999 FEW018 BKN025 16/14 Q1020 NOSIG
2026-04-06 04:20:00,METAR LGIR 060420Z 29013KT 9999 FEW018 BKN025 16/13 Q1020 NOSIG
2026-04-06 03:50:00,METAR LGIR 060350Z 30013KT 9999 SCT020 15/13 Q1020 NOSIG
2026-04-06 03:20:00,METAR LGIR 060320Z 30013KT 9999 FEW020 SCT080 15/13 Q1020 NOSIG
2026-04-06 02:50:00,METAR LGIR 060250Z 30013KT 9999 FEW020 SCT080 15/13 Q1020 NOSIG
2026-04-06 02:20:00,METAR LGIR 060220Z 30009KT 9999 FEW020 SCT080 15/13 Q1020 NOSIG
2026-04-06 01:50:00,METAR LGIR 060150Z 30009KT 9999 FEW020 SCT080 15/13 Q1020 NOSIG
2026-04-06 01:20:00,METAR LGIR 060120Z 30009KT 9999 FEW020 SCT080 15/13 Q1020 NOSIG
2026-04-06 00:50:00,METAR LGIR 060050Z 30009KT 9999 FEW020 SCT080 15/13 Q1020 NOSIG
2026-04-06 00:20:00,METAR LGIR 060020Z 30009KT 9999 FEW020 SCT080 15/13 Q1020 NOSIG
2026-04-05 23:50:00,METAR LGIR 052350Z 30009KT 9999 FEW020 SCT080 15/13 Q1020 NOSIG
2026-04-05 23:20:00,METAR LGIR 052320Z 31010KT 9999 FEW020 SCT080 15/13 Q1020 NOSIG
2026-04-05 22:50:00,METAR LGIR 052250Z 31010KT 9999 FEW020 SCT080 15/13 Q1020 NOSIG
2026-04-05 22:20:00,METAR LGIR 052220Z 31011KT 9999 FEW020 SCT080 16/12 Q1020 NOSIG
2026-04-05 21:50:00,METAR LGIR 052150Z 32011KT 9999 FEW020 SCT080 16/12 Q1020 NOSIG
2026-04-05 21:20:00,METAR LGIR 052120Z 32010KT 9999 FEW020 SCT080 16/12 Q1020 NOSIG
2026-04-05 20:50:00,METAR LGIR 052050Z 31009KT 9999 FEW020 SCT080 16/12 Q1020 NOSIG
2026-04-05 20:20:00,METAR LGIR 052020Z 33010KT 9999 FEW020 SCT080 15/13 Q1021 NOSIG
2026-04-05 19:50:00,METAR LGIR 051950Z 33012KT 9999 FEW018TCU SCT025 BKN080 15/13 Q1021 NOSIG
2026-04-05 19:20:00,METAR LGIR 051920Z 33010KT 9999 FEW018TCU SCT025 BKN080 15/13 Q1020 NOSIG
2026-04-05 18:50:00,METAR LGIR 051850Z 33010KT 9999 FEW018TCU SCT025 BKN080 15/13 Q1020 NOSIG
2026-04-05 18:20:00,METAR LGIR 051820Z 33008KT 9999 FEW018TCU SCT025 BKN080 16/13 Q1020 NOSIG
2026-04-05 17:50:00,METAR LGIR 051750Z 33010KT 9999 FEW018TCU SCT025 BKN080 16/13 Q1020 NOSIG
2026-04-05 17:20:00,METAR LGIR 051720Z 33011KT 9999 FEW018TCU SCT025 BKN080 16/13 Q1019 NOSIG
2026-04-05 16:50:00,METAR LGIR 051650Z 33011KT 9999 FEW018TCU SCT025 BKN080 16/13 Q1019 NOSIG
2026-04-05 16:20:00,METAR LGIR 051620Z 34006KT 9999 -RA FEW018TCU SCT025 BKN080 16/13 Q1019 NOSIG
2026-04-05 15:50:00,METAR LGIR 051550Z 33009KT 9999 FEW018TCU SCT025 BKN080 17/13 Q1019 NOSIG
2026-04-05 15:20:00,METAR LGIR 051520Z 33009KT 9999 FEW018TCU SCT025 BKN080 17/13 Q1019 NOSIG
2026-04-05 14:50:00,METAR LGIR 051450Z 34007KT 9999 FEW018TCU SCT025 BKN080 17/13 Q1019 NOSIG
2026-04-05 12:50:00,METAR LGIR 051250Z 33008KT 9999 FEW018 SCT025 BKN080 17/13 Q1019 NOSIG
2026-04-05 12:20:00,METAR LGIR 051220Z 33008KT 9999 FEW018 SCT025 BKN080 17/13 Q1019 NOSIG
2026-04-05 11:50:00,METAR LGIR 051150Z 33008KT 9999 FEW018 SCT025 BKN080 17/13 Q1019 NOSIG
2026-04-05 11:20:00,METAR LGIR 051120Z 34007KT 9999 FEW018 SCT025 BKN080 17/13 Q1019 NOSIG
2026-04-05 10:50:00,METAR LGIR 051050Z 33008KT 9999 FEW018 SCT025 BKN080 17/13 Q1019 NOSIG
2026-04-05 10:20:00,METAR LGIR 051020Z 33008KT 9999 FEW018 SCT025 BKN080 18/13 Q1018 NOSIG
2026-04-05 09:50:00,METAR LGIR 050950Z 33005KT 9999 FEW018 SCT025 BKN080 18/13 Q1018 NOSIG
2026-04-05 09:20:00,METAR LGIR 050920Z 33009KT 9999 FEW018 SCT025 BKN080 18/14 Q1018 NOSIG
2026-04-05 08:50:00,METAR LGIR 050850Z 05004KT 9999 FEW018 SCT025 BKN080 17/12 Q1018 NOSIG
2026-04-05 08:20:00,METAR LGIR 050820Z 06003KT 9999 FEW018 SCT025 BKN080 17/11 Q1018 NOSIG
2026-04-05 07:50:00,METAR LGIR 050750Z 02003KT 9999 FEW018 SCT025 BKN080 17/11 Q1018 NOSIG
2026-04-05 07:20:00,METAR LGIR 050720Z 00000KT 9999 FEW018 SCT025 BKN080 16/12 Q1018 NOSIG
2026-04-05 06:50:00,METAR LGIR 050650Z VRB02KT 9999 FEW018 SCT025 BKN080 16/12 Q1018 NOSIG
2026-04-05 06:20:00,METAR LGIR 050620Z 16004KT 9999 FEW018 SCT025 15/11 Q1018 NOSIG
2026-04-05 05:50:00,METAR LGIR 050550Z 17006KT 9999 FEW018 SCT025 13/10 Q1017 NOSIG
2026-04-05 05:20:00,METAR LGIR 050520Z 16008KT 9999 FEW018 SCT025 12/10 Q1017 NOSIG
2026-04-05 04:50:00,METAR LGIR 050450Z 16006KT 9999 FEW018 SCT025 11/10 Q1017 NOSIG
2026-04-05 04:20:00,METAR LGIR 050420Z 17005KT 9999 FEW018 SCT025 10/09 Q1017 NOSIG
2026-04-05 03:50:00,METAR LGIR 050350Z 16008KT 9999 FEW010 FEW018TCU 11/09 Q1017 NOSIG
2026-04-05 03:20:00,METAR LGIR 050320Z 17006KT 9999 FEW018TCU 11/10 Q1017 NOSIG
2026-04-05 02:50:00,METAR LGIR 050250Z 17004KT 9999 FEW018 12/11 Q1016 NOSIG
2026-04-05 02:20:00,METAR LGIR 050220Z 18006KT 9999 FEW018 12/11 Q1016 NOSIG
2026-04-05 01:50:00,METAR LGIR 050150Z 16008KT 9999 FEW018 11/10 Q1016 NOSIG
2026-04-05 01:20:00,METAR LGIR 050120Z 17007KT 9999 FEW018 12/11 Q1017 NOSIG
2026-04-05 00:50:00,METAR LGIR 050050Z 17008KT 9999 FEW018 11/09 Q1017 NOSIG
2026-04-05 00:20:00,METAR LGIR 050020Z 17007KT 9999 FEW018 10/09 Q1017 NOSIG
2026-04-04 23:50:00,METAR LGIR 042350Z 16005KT 9999 FEW018 10/09 Q1017 NOSIG
2026-04-04 23:20:00,METAR LGIR 042320Z 17005KT 9999 FEW018 11/10 Q1017 NOSIG
2026-04-04 22:50:00,METAR LGIR 042250Z 17006KT 9999 FEW018 11/10 Q1016 NOSIG
2026-04-04 22:20:00,METAR LGIR 042220Z 17005KT 9999 FEW018 12/10 Q1016 NOSIG
2026-04-04 21:50:00,METAR LGIR 042150Z 17004KT 9999 FEW018 12/11 Q1016 NOSIG
2026-04-04 21:20:00,METAR LGIR 042120Z 17004KT 9999 SCT018 12/10 Q1016 NOSIG
2026-04-04 20:50:00,METAR LGIR 042050Z 17004KT 9999 SCT018 12/11 Q1016 NOSIG
2026-04-04 20:20:00,METAR LGIR 042020Z 18004KT 9999 FEW008 13/10 Q1016 NOSIG
2026-04-04 19:50:00,METAR LGIR 041950Z 23004KT 9999 FEW008 14/11 Q1016 NOSIG
2026-04-04 19:20:00,METAR LGIR 041920Z 20004KT 9999 FEW008 14/11 Q1016 NOSIG
2026-04-04 18:50:00,METAR LGIR 041850Z 20004KT 9999 FEW008 14/11 Q1015 NOSIG
2026-04-04 18:20:00,METAR LGIR 041820Z 25005KT 9999 FEW008 15/11 Q1015 NOSIG
2026-04-04 17:50:00,METAR LGIR 041750Z 28010KT 9999 FEW008 15/11 Q1015 NOSIG
2026-04-04 17:20:00,METAR LGIR 041720Z 28010KT 9999 FEW008 SCT025 15/12 Q1014 NOSIG
2026-04-04 16:50:00,METAR LGIR 041650Z 28010KT 9999 FEW018TCU SCT025 16/12 Q1014 NOSIG
2026-04-04 16:20:00,METAR LGIR 041620Z 29012KT 9999 FEW018TCU SCT025 16/12 Q1014 NOSIG
2026-04-04 15:50:00,METAR LGIR 041550Z 29012KT 9999 FEW018TCU SCT025 16/12 Q1014 NOSIG
2026-04-04 15:20:00,METAR LGIR 041520Z 29012KT 9999 FEW018TCU SCT025 17/12 Q1014 NOSIG
2026-04-04 14:50:00,METAR LGIR 041450Z 29012KT 9999 FEW018TCU SCT025 17/12 Q1013 NOSIG
2026-04-04 14:20:00,METAR LGIR 041420Z 29012KT 9999 FEW018TCU BKN025 16/11 Q1013 NOSIG
2026-04-04 13:50:00,METAR LGIR 041350Z 24010KT 9999 FEW018TCU BKN025 16/11 Q1013 NOSIG
2026-04-04 13:20:00,METAR LGIR 041320Z 26014KT 9999 FEW018TCU BKN025 16/11 Q1013 NOSIG
2026-04-04 12:50:00,METAR LGIR 041250Z 29014KT 9999 FEW018TCU BKN025 16/11 Q1013 NOSIG
2026-04-04 12:20:00,METAR LGIR 041220Z 26012KT 9999 FEW018TCU BKN025 16/11 Q1013 NOSIG
2026-04-04 11:50:00,METAR LGIR 041150Z 26010KT 9999 FEW018TCU BKN025 16/11 Q1013 NOSIG
2026-04-04 11:20:00,METAR LGIR 041120Z 28013KT 9999 FEW018TCU BKN025 BKN080 17/10 Q1013 NOSIG
2026-04-04 10:50:00,METAR LGIR 041050Z 28010KT 9999 FEW018TCU BKN025 BKN080 18/11 Q1013 NOSIG
2026-04-04 10:20:00,METAR LGIR 041020Z 29013KT 9999 FEW018TCU BKN025 BKN080 16/11 Q1013 NOSIG
2026-04-04 09:50:00,METAR LGIR 040950Z 31012KT 9999 FEW018TCU BKN025 BKN080 17/10 Q1013 NOSIG
2026-04-04 09:20:00,METAR LGIR 040920Z 33007KT 9999 FEW018TCU BKN025 BKN080 17/10 Q1013 NOSIG
2026-04-04 08:50:00,METAR LGIR 040850Z COR 33007KT 9999 FEW018TCU BKN025 BKN080 17/10 Q1013 NOSIG
2026-04-04 08:20:00,METAR LGIR 040820Z 33005KT 9999 FEW018TCU SCT025 BKN080 18/07 Q1012 NOSIG
2026-04-04 07:50:00,METAR LGIR 040750Z 25004KT 9999 FEW018TCU SCT025 BKN080 18/07 Q1012 NOSIG
2026-04-04 07:20:00,METAR LGIR 040720Z 21006KT 9999 FEW018TCU SCT025 18/09 Q1012 NOSIG
2026-04-04 06:50:00,METAR LGIR 040650Z COR 18007KT 9999 FEW018TCU SCT025 15/11 Q1011 NOSIG
2026-04-04 06:20:00,METAR LGIR 040620Z 17010KT 9999 -RA FEW018TCU SCT025 15/12 Q1011 NOSIG
2026-04-04 05:50:00,METAR LGIR 040550Z 21008KT 9999 -RA FEW018TCU SCT025 16/10 Q1011 NOSIG
2026-04-04 05:20:00,METAR LGIR 040520Z 24006KT 9999 FEW020 16/09 Q1011 NOSIG
2026-04-04 04:50:00,METAR LGIR 040450Z 16006KT 9999 FEW020 14/09 Q1011 NOSIG
2026-04-04 04:20:00,METAR LGIR 040420Z 16006KT 9999 FEW020 SCT080 15/09 Q1010 NOSIG
2026-04-04 03:50:00,METAR LGIR 040350Z 18004KT 9999 FEW020 SCT080 14/09 Q1010 NOSIG
2026-04-04 03:20:00,METAR LGIR 040320Z 17004KT 9999 FEW020 SCT080 14/09 Q1010 NOSIG
2026-04-04 02:50:00,METAR LGIR 040250Z 21008KT 9999 FEW020 BKN080 15/10 Q1010 NOSIG
2026-04-04 02:20:00,METAR LGIR 040220Z 21008KT 9999 FEW020 BKN080 15/10 Q1010 NOSIG
2026-04-04 01:50:00,METAR LGIR 040150Z 21008KT 9999 FEW020 BKN080 15/10 Q1010 NOSIG
2026-04-04 01:20:00,METAR LGIR 040120Z 21008KT 9999 FEW020 BKN080 15/10 Q1010 NOSIG
2026-04-04 00:50:00,METAR LGIR 040050Z 22010KT 9999 FEW020 BKN080 15/10 Q1010 NOSIG
2026-04-04 00:20:00,METAR LGIR 040020Z 20006KT 9999 FEW020 BKN080 15/10 Q1010 NOSIG
2026-04-03 23:50:00,METAR LGIR 032350Z 19006KT 9999 FEW020 SCT080 15/10 Q1010 NOSIG
2026-04-03 23:20:00,METAR LGIR 032320Z 22009KT 9999 FEW020 SCT080 15/09 Q1010 NOSIG
2026-04-03 22:50:00,METAR LGIR 032250Z 22008KT 9999 FEW020 SCT080 15/09 Q1010 NOSIG
2026-04-03 22:20:00,METAR LGIR 032220Z 21012KT 9999 FEW020 SCT080 15/10 Q1011 NOSIG
2026-04-03 21:50:00,METAR LGIR 032150Z 20014KT 9999 FEW020 SCT080 15/10 Q1010 NOSIG
2026-04-03 21:20:00,METAR LGIR 032120Z 23011KT 9999 FEW020 SCT080 15/10 Q1010 NOSIG
2026-04-03 20:50:00,METAR LGIR 032050Z 23012KT 9999 FEW020 SCT080 15/10 Q1010 NOSIG
2026-04-03 20:20:00,METAR LGIR 032020Z 22008KT 9999 FEW020 15/09 Q1010 NOSIG
2026-04-03 19:50:00,METAR LGIR 031950Z 22012KT 9999 FEW020 15/09 Q1010 NOSIG
2026-04-03 19:20:00,METAR LGIR 031920Z 21010KT 9999 FEW020 15/09 Q1010 NOSIG
2026-04-03 18:50:00,METAR LGIR 031850Z 21009KT 9999 FEW020 15/09 Q1010 NOSIG
2026-04-03 18:20:00,METAR LGIR 031820Z 22008KT 9999 FEW020 15/10 Q1009 NOSIG
2026-04-03 17:50:00,METAR LGIR 031750Z 22009KT 9999 FEW020 15/10 Q1009 NOSIG
2026-04-03 17:20:00,METAR LGIR 031720Z 20013KT 9999 FEW018TCU SCT020 16/09 Q1009 NOSIG
2026-04-03 16:50:00,METAR LGIR 031650Z 19014KT 9999 FEW018TCU SCT020 16/09 Q1008 NOSIG
2026-04-03 16:20:00,METAR LGIR 031620Z 20014KT 9999 FEW018TCU SCT020 16/09 Q1008 NOSIG
2026-04-03 15:50:00,METAR LGIR 031550Z 20014KT 9999 FEW018TCU SCT020 17/09 Q1008 NOSIG
2026-04-03 15:20:00,METAR LGIR 031520Z 20014KT 9999 FEW018TCU SCT020 17/09 Q1008 NOSIG
2026-04-03 14:50:00,METAR LGIR 031450Z 20013KT 9999 FEW018TCU SCT020 17/09 Q1008 NOSIG
2026-04-03 14:20:00,METAR LGIR 031420Z 20013KT 9999 FEW018TCU SCT020 17/09 Q1008 NOSIG
2026-04-03 13:50:00,METAR LGIR 031350Z 20014KT 9999 FEW012 FEW018TCU SCT020 17/09 Q1008 NOSIG
2026-04-03 13:20:00,METAR LGIR 031320Z 20014KT 9999 FEW012 FEW018TCU SCT020 17/09 Q1008 NOSIG
2026-04-03 12:50:00,METAR LGIR 031250Z 20015KT 9999 FEW012 FEW018TCU BKN020 16/09 Q1008 NOSIG
2026-04-03 12:20:00,METAR LGIR 031220Z 20012KT 9999 FEW012 FEW018TCU BKN020 16/11 Q1008 NOSIG
2026-04-03 11:50:00,METAR LGIR 031150Z 22013KT 9999 FEW018TCU BKN020 17/10 Q1008 NOSIG
2026-04-03 11:20:00,METAR LGIR 031120Z 20020KT 9999 FEW012 FEW016TCU BKN025 17/10 Q1008 NOSIG
2026-04-03 10:50:00,METAR LGIR 031050Z 20015KT 9999 -RA FEW012 FEW016TCU BKN025 16/11 Q1008 NOSIG
2026-04-03 10:20:00,METAR LGIR 031020Z 20024KT 9999 FEW018TCU SCT025 18/09 Q1008 NOSIG
2026-04-03 09:50:00,METAR LGIR 030950Z 20020G30KT 9999 FEW018TCU SCT025 18/09 Q1007 NOSIG
2026-04-03 09:20:00,METAR LGIR 030920Z 19022G32KT 9999 FEW012 FEW018TCU SCT025 17/10 Q1007 NOSIG
2026-04-03 08:50:00,METAR LGIR 030850Z 19020KT 9999 FEW012 FEW018TCU SCT025 17/10 Q1007 NOSIG
2026-04-03 08:20:00,METAR LGIR 030820Z 19024KT 9999 FEW012 FEW018TCU SCT025 17/09 Q1007 NOSIG
2026-04-03 07:50:00,METAR LGIR 030750Z 21018KT 9999 FEW012 FEW018TCU SCT025 17/09 Q1007 NOSIG
2026-04-03 07:20:00,METAR LGIR 030720Z 20012G22KT 9999 FEW012 FEW018TCU SCT025 15/10 Q1007 NOSIG
2026-04-03 06:50:00,METAR LGIR 030650Z 19013KT 9999 FEW012 FEW018TCU BKN025 14/09 Q1007 NOSIG
2026-04-03 06:20:00,METAR LGIR 030620Z 20018KT 9999 -RA FEW012 FEW018TCU BKN025 15/09 Q1007 NOSIG
2026-04-03 05:50:00,METAR LGIR 030550Z 19015G25KT 9999 FEW012 FEW018TCU BKN025 15/08 Q1007 NOSIG
2026-04-03 05:20:00,METAR LGIR 030520Z 20015KT 9999 FEW012 FEW018TCU BKN025 14/09 Q1007 NOSIG
2026-04-03 04:50:00,METAR LGIR 030450Z 19016KT 9999 FEW018TCU BKN025 14/09 Q1006 NOSIG
2026-04-03 04:20:00,METAR LGIR 030420Z 19016KT 9999 FEW018TCU BKN025 13/08 Q1006 NOSIG
2026-04-03 03:50:00,METAR LGIR 030350Z 19013KT 9999 -RA FEW018TCU SCT025 13/07 Q1006 NOSIG
2026-04-03 03:20:00,METAR LGIR 030320Z 19013KT 9999 -RA FEW018TCU FEW025 14/07 Q1006 NOSIG
2026-04-03 02:50:00,METAR LGIR 030250Z 19013G23KT 9999 FEW018TCU SCT025 14/05 Q1005 NOSIG
2026-04-03 02:20:00,METAR LGIR 030220Z 16014KT 9999 FEW018TCU SCT025 12/07 Q1005 NOSIG
2026-04-03 01:50:00,METAR LGIR 030150Z 18017G27KT 9999 SCT025 SCT080 12/07 Q1005 NOSIG
2026-04-03 01:20:00,METAR LGIR 030120Z 20016G26KT 9999 FEW018TCU SCT025 14/06 Q1005 NOSIG
2026-04-03 00:50:00,METAR LGIR 030050Z 19014KT 9999 FEW018TCU SCT025 14/06 Q1004 NOSIG
2026-04-03 00:20:00,METAR LGIR 030020Z 19017KT 9999 FEW018TCU SCT025 14/07 Q1005 NOSIG
2026-04-02 23:50:00,METAR LGIR 022350Z 19016G26KT 9999 FEW018TCU SCT025 14/06 Q1005 NOSIG
2026-04-02 23:20:00,METAR LGIR 022320Z 17013KT 9999 FEW018TCU SCT025 14/06 Q1006 NOSIG
2026-04-02 22:50:00,METAR LGIR 022250Z 21016KT 9999 FEW018TCU SCT025 14/07 Q1005 NOSIG
2026-04-02 22:20:00,METAR LGIR 022220Z 19014KT 9999 FEW018TCU BKN025 13/08 Q1005 NOSIG
2026-04-02 21:50:00,METAR LGIR 022150Z 20012KT 9999 FEW018TCU BKN025 13/09 Q1005 NOSIG
2026-04-02 21:20:00,METAR LGIR 022120Z 20015G25KT 9999 FEW018TCU BKN025 14/08 Q1006 NOSIG
2026-04-02 20:50:00,METAR LGIR 022050Z 20021G31KT 9999 FEW018TCU BKN025 13/09 Q1005 NOSIG
2026-04-02 20:20:00,METAR LGIR 022020Z 19014G24KT 9999 FEW018 SCT025 14/08 Q1005 NOSIG
2026-04-02 19:50:00,METAR LGIR 021950Z 19017G27KT 9999 FEW018 SCT025 14/08 Q1005 NOSIG
2026-04-02 19:20:00,METAR LGIR 021920Z 19022G32KT 9999 FEW018 SCT025 14/08 Q1004 NOSIG
2026-04-02 18:50:00,METAR LGIR 021850Z 20020G32KT 9999 FEW018 SCT025 14/07 Q1004 NOSIG
2026-04-02 18:20:00,METAR LGIR 021820Z 19012G22KT 9999 FEW018 SCT025 14/06 Q1004 NOSIG
2026-04-02 17:50:00,METAR LGIR 021750Z 19018G28KT 9999 FEW018 SCT025 14/06 Q1003 NOSIG
2026-04-02 17:20:00,METAR LGIR 021720Z 19013G23KT 9999 FEW018 SCT025 14/04 Q1003 NOSIG
2026-04-02 16:50:00,METAR LGIR 021650Z 19020KT 9999 FEW012 FEW016TCU BKN025 13/06 Q1002 NOSIG
2026-04-02 16:20:00,METAR LGIR 021620Z 22014G24KT 9999 FEW012 FEW016TCU BKN025 13/06 Q1003 NOSIG
2026-04-02 15:50:00,METAR LGIR 021550Z 20009KT 9999 FEW012 FEW016TCU BKN025 12/07 Q1003 NOSIG
2026-04-02 15:20:00,METAR LGIR 021520Z 20017G27KT 9000 -RA FEW012 FEW016TCU BKN025 13/08 Q1003 NOSIG
2026-04-02 14:50:00,METAR LGIR 021450Z 21015KT 9000 -RA FEW016TCU BKN025 14/09 Q1002 NOSIG
2026-04-02 14:20:00,METAR LGIR 021420Z 20015KT 9000 FEW016TCU BKN025 15/10 Q1002 NOSIG
2026-04-02 13:50:00,METAR LGIR 021350Z 18022G32KT 7000 FEW016TCU SCT025 17/06 Q1001 NOSIG
2026-04-02 13:20:00,METAR LGIR 021320Z 18025G35KT 7000 -RA FEW020 SCT025 17/06 Q1001 NOSIG
2026-04-02 12:50:00,METAR LGIR 021250Z COR 17023G36KT 6000 FEW020 SCT025 18/07 Q1001 NOSIG
2026-04-02 12:20:00,METAR LGIR 021220Z 16022G35KT 8000 FEW020 SCT025 18/09 Q1001 NOSIG
2026-04-02 11:50:00,METAR LGIR 021150Z 20015G25KT 8000 FEW020 SCT025 18/09 Q1002 NOSIG
2026-04-02 11:20:00,METAR LGIR 021120Z 20025KT 7000 FEW020 SCT025 18/09 Q1002 NOSIG
2026-04-02 10:50:00,METAR LGIR 021050Z 20024KT 8000 FEW020 SCT025 18/09 Q1002 NOSIG
2026-04-02 10:20:00,METAR LGIR 021020Z 19021G31KT 8000 FEW020 SCT025 18/09 Q1002 NOSIG
2026-04-02 09:50:00,METAR LGIR 020950Z 20018G28KT 8000 FEW020 SCT025 18/09 Q1002 NOSIG
2026-04-02 09:20:00,METAR LGIR 020920Z 20015KT 9999 SCT020 17/08 Q1002 NOSIG
2026-04-02 08:50:00,METAR LGIR 020850Z 19010KT 9999 SCT020 17/08 Q1002 NOSIG
2026-04-02 08:20:00,METAR LGIR 020820Z 20015KT 9999 SCT020 17/06 Q1002 NOSIG
2026-04-02 07:50:00,METAR LGIR 020750Z 19015KT 9999 FEW018 SCT020 16/06 Q1002 NOSIG
2026-04-02 07:20:00,METAR LGIR 020720Z 18015KT 9999 FEW015 SCT020 15/04 Q1002 NOSIG
2026-04-02 06:50:00,METAR LGIR 020650Z 19017KT 9999 FEW015 SCT020 15/04 Q1002 NOSIG
2026-04-02 06:20:00,METAR LGIR 020620Z 18015KT 9999 FEW015 SCT020 15/04 Q1002 NOSIG
2026-04-02 05:50:00,METAR LGIR 020550Z 18013KT 9999 FEW015 SCT020 15/04 Q1001 NOSIG
2026-04-02 05:20:00,METAR LGIR 020520Z 19008KT 9999 FEW015 SCT020 14/06 Q1001 NOSIG
2026-04-02 04:50:00,METAR LGIR 020450Z 12009KT 9999 FEW015 SCT020 14/06 Q1001 NOSIG
2026-04-02 04:20:00,METAR LGIR 020420Z 18010KT 9999 FEW015 SCT020 14/04 Q1001 NOSIG
2026-04-02 03:50:00,METAR LGIR 020350Z 21010G20KT 9999 FEW015 SCT020 14/04 Q1000 NOSIG
2026-04-02 03:20:00,METAR LGIR 020320Z 18012KT 9999 FEW015 SCT020 15/08 Q1000 NOSIG
2026-04-02 02:50:00,METAR LGIR 020250Z 18010G20KT 9999 FEW015 SCT020 15/08 Q0999 NOSIG
2026-04-02 02:20:00,METAR LGIR 020220Z 18008KT 9999 FEW015 SCT018 15/09 Q0999 NOSIG
2026-04-02 01:50:00,METAR LGIR 020150Z 18010KT 9999 FEW015 BKN018 15/09 Q0999 NOSIG
2026-04-02 01:20:00,METAR LGIR 020120Z 18012KT 9999 FEW015 SCT018 15/09 Q0999 NOSIG
2026-04-02 00:50:00,METAR LGIR 020050Z 16012KT 9999 FEW015 SCT018 15/09 Q0999 NOSIG
2026-04-02 00:20:00,METAR LGIR 020020Z 18014KT 9999 FEW015 SCT018 15/09 Q1000 NOSIG
2026-04-01 23:50:00,METAR LGIR 012350Z 19014KT 9999 FEW015 SCT018 15/09 Q1000 NOSIG
2026-04-01 23:20:00,METAR LGIR 012320Z 20015G25KT 9999 FEW015 SCT018 15/10 Q1000 NOSIG
2026-04-01 22:50:00,METAR LGIR 012250Z 21016G26KT 9999 FEW015 SCT018 15/10 Q1000 NOSIG
2026-04-01 22:20:00,METAR LGIR 012220Z 22013KT 9999 FEW015 SCT018 16/12 Q0999 NOSIG
2026-04-01 21:50:00,METAR LGIR 012150Z 21015G25KT 9999 FEW015 SCT018 16/12 Q0998 NOSIG
2026-04-01 21:20:00,METAR LGIR 012120Z 19014KT 9999 FEW015 SCT018 16/12 Q0998 NOSIG
2026-04-01 20:50:00,METAR LGIR 012050Z 21017KT 9999 FEW015 SCT018 16/13 Q0997 NOSIG
2026-04-01 20:20:00,METAR LGIR 012020Z 20019G29KT 9999 FEW015 SCT018 16/13 Q0996 NOSIG
2026-04-01 19:50:00,METAR LGIR 011950Z 19023G33KT 9999 FEW015 SCT018 16/13 Q0996 NOSIG
2026-04-01 19:20:00,METAR LGIR 011920Z 19024G38KT 9999 FEW012 SCT018 17/14 Q0994 NOSIG
2026-04-01 18:50:00,METAR LGIR 011850Z 19020G32KT 6000 FEW012 SCT018 17/14 Q0993 NOSIG
2026-04-01 18:20:00,METAR LGIR 011820Z 19023G33KT 6000 FEW012 SCT018 18/16 Q0992 NOSIG
2026-04-01 17:50:00,METAR LGIR 011750Z 21015G25KT 6000 -RA FEW012 SCT018 18/16 Q0992 NOSIG
2026-04-01 17:20:00,METAR LGIR 011720Z 19010G30KT 4000 DU FEW016TCU BKN018 18/15 Q0991 NOSIG
2026-04-01 16:50:00,METAR LGIR 011650Z 18015G32KT 0250 -RA DU FEW016TCU OVC018 19/17 Q0991 NOSIG
2026-04-01 16:20:00,METAR LGIR 011620Z 17015G25KT 0150 -RA DU OVC012 20/17 Q0992 NOSIG
2026-04-01 15:50:00,METAR LGIR 011550Z 15020G35KT 0150 DU OVC012 21/16 Q0991 NOSIG
2026-04-01 15:20:00,METAR LGIR 011520Z 17018G28KT 0200 DU OVC012 21/17 Q0990 NOSIG
2026-04-01 14:50:00,METAR LGIR 011450Z 17015G35KT 0200 DU OVC012 21/17 Q0991 NOSIG
2026-04-01 13:50:00,METAR LGIR 011350Z 16022G42KT 0600 DU BKN012 20/17 Q0991 NOSIG
2026-04-01 13:20:00,METAR LGIR 011320Z 16022G42KT 0600 DU BKN015 21/16 Q0991 NOSIG
2026-04-01 12:50:00,METAR LGIR 011250Z 15012G32KT 0600 DU BKN015 21/16 Q0993 NOSIG
2026-04-01 12:20:00,METAR LGIR 011220Z 12008KT 090V150 4000 1500E DU SCT018 21/16 Q0994 NOSIG
2026-04-01 11:50:00,METAR LGIR 011150Z 10012KT 9999 SCT018 SCT080 19/14 Q0995 NOSIG
2026-04-01 11:20:00,METAR LGIR 011120Z COR 08010G20KT 7000 FEW018TCU SCT020 19/13 Q0996 NOSIG
2026-04-01 10:50:00,METAR LGIR 011050Z 07012KT 7000 -RA FEW018TCU SCT020 19/13 Q0997 NOSIG
2026-04-01 10:20:00,METAR LGIR 011020Z 06015G25KT 8000 FEW020 19/13 Q0998 NOSIG
2026-04-01 09:50:00,METAR LGIR 010950Z 09008G18KT 060V120 8000 FEW020 19/13 Q0998 NOSIG
2026-04-01 09:20:00,METAR LGIR 010920Z 09010KT 060V120 9999 FEW020 19/13 Q0999 NOSIG
2026-04-01 08:50:00,METAR LGIR 010850Z VRB03KT 9999 FEW018TCU SCT080 19/13 Q1000 NOSIG
2026-04-01 08:20:00,METAR LGIR 010820Z 28004KT 9999 FEW018TCU SCT080 18/14 Q1001 NOSIG
2026-04-01 07:50:00,METAR LGIR 010750Z 26006KT 9999 FEW018TCU SCT020 17/13 Q1001 NOSIG
2026-04-01 07:20:00,METAR LGIR 010720Z 22006KT 9999 -RA FEW018TCU SCT020 16/13 Q1003 NOSIG
2026-04-01 06:50:00,METAR LGIR 010650Z 10006KT 9999 FEW018TCU SCT020 15/13 Q1002 NOSIG
2026-04-01 06:20:00,METAR LGIR 010620Z 11010KT 9999 FEW018TCU SCT020 14/13 Q1003 NOSIG
2026-04-01 05:50:00,METAR LGIR 010550Z 16010KT 9999 FEW018TCU SCT020 14/14 Q1003 NOSIG
2026-04-01 05:20:00,METAR LGIR 010520Z 22006KT 9999 FEW018TCU SCT020 14/14 Q1004 RETS NOSIG
2026-04-01 04:50:00,METAR LGIR 010450Z 35006KT 9999 -RA FEW018TCU BKN020 BKN080 14/14 Q1004 NOSIG
2026-04-01 04:20:00,METAR LGIR 010420Z 27014KT 3000 TSRA SCT018CB BKN025 BKN080 14/14 Q1005 NOSIG
2026-04-01 03:50:00,METAR LGIR 010350Z 27007KT 9999 -TSRA FEW018CB SCT025 BKN080 13/09 Q1004 TEMPO TSRA
2026-04-01 03:20:00,METAR LGIR 010320Z 17004KT 9999 SCT020 BKN080 13/09 Q1004 NOSIG
2026-04-01 02:50:00,METAR LGIR 010250Z 17008KT 9999 FEW020 BKN080 12/09 Q1005 NOSIG
2026-04-01 02:20:00,METAR LGIR 010220Z 17008KT 9999 FEW020 BKN080 12/09 Q1005 NOSIG
2026-04-01 01:50:00,METAR LGIR 010150Z 17008KT 9999 FEW020 BKN080 12/09 Q1005 NOSIG
2026-04-01 01:20:00,METAR LGIR 010120Z 17008KT 9999 FEW020 BKN080 12/09 Q1005 NOSIG
2026-04-01 00:50:00,METAR LGIR 010050Z 17007KT 9999 FEW020 BKN080 12/09 Q1006 NOSIG
2026-04-01 00:20:00,METAR LGIR 010020Z 17008KT 9999 FEW020 BKN080 12/09 Q1007 NOSIG
2026-03-31 23:50:00,METAR LGIR 312350Z VRB02KT 9999 FEW020 BKN080 12/08 Q1008 NOSIG
2026-03-31 23:20:00,METAR LGIR 312320Z VRB03KT 9999 FEW020 BKN080 13/08 Q1009 NOSIG
2026-03-31 22:50:00,METAR LGIR 312250Z 06004KT 9999 SCT020 BKN080 14/08 Q1009 NOSIG
2026-03-31 22:20:00,METAR LGIR 312220Z 11004KT 9999 SCT020 BKN080 14/08 Q1009 NOSIG
2026-03-31 21:50:00,METAR LGIR 312150Z 17007KT 9999 SCT020 BKN080 15/08 Q1009 NOSIG
2026-03-31 21:20:00,METAR LGIR 312120Z 11005KT 9999 SCT020 BKN080 14/09 Q1009 NOSIG
2026-03-31 20:50:00,METAR LGIR 312050Z 16004KT 9999 SCT020 BKN080 13/09 Q1009 NOSIG
2026-03-31 20:20:00,METAR LGIR 312020Z 15007KT 9999 SCT020 BKN080 13/09 Q1009 NOSIG
2026-03-31 19:50:00,METAR LGIR 311950Z 16006KT 9999 SCT020 BKN080 14/09 Q1009 NOSIG
2026-03-31 19:20:00,METAR LGIR 311920Z 17007KT 9999 SCT020 BKN080 14/09 Q1009 NOSIG
2026-03-31 18:50:00,METAR LGIR 311850Z 16007KT 9999 SCT020 BKN080 15/07 Q1009 NOSIG
2026-03-31 18:20:00,METAR LGIR 311820Z 17011KT 9999 SCT020 BKN080 15/08 Q1009 NOSIG
2026-03-31 17:50:00,METAR LGIR 311750Z 17014KT 9999 SCT020 BKN080 15/08 Q1008 NOSIG
2026-03-31 17:20:00,METAR LGIR 311720Z 17010KT 9999 SCT020 BKN080 15/08 Q1008 NOSIG
2026-03-31 16:50:00,METAR LGIR 311650Z 17010KT 9999 SCT020 BKN080 15/08 Q1008 NOSIG
2026-03-31 16:20:00,METAR LGIR 311620Z 18013KT 9999 SCT020 BKN080 16/08 Q1008 NOSIG
2026-03-31 15:50:00,METAR LGIR 311550Z 18013KT 9999 SCT020 BKN080 16/08 Q1008 NOSIG
2026-03-31 15:20:00,METAR LGIR 311520Z 18013KT 9999 SCT020 BKN080 16/08 Q1008 NOSIG
2026-03-31 14:50:00,METAR LGIR 311450Z 18013KT 9999 SCT020 BKN080 16/08 Q1008 NOSIG
2026-03-31 14:20:00,METAR LGIR 311420Z 18015KT 9999 SCT020 BKN080 18/07 Q1009 NOSIG
2026-03-31 13:50:00,METAR LGIR 311350Z 18015KT 9999 SCT020 BKN080 18/07 Q1009 NOSIG
2026-03-31 13:20:00,METAR LGIR 311320Z 17015KT 9999 SCT020 BKN080 18/07 Q1009 NOSIG
2026-03-31 12:50:00,METAR LGIR 311250Z 17015KT 9999 SCT020 BKN080 18/07 Q1009 NOSIG
2026-03-31 12:20:00,METAR LGIR 311220Z 17015KT 9999 SCT020 BKN080 18/07 Q1009 NOSIG
2026-03-31 11:50:00,METAR LGIR 311150Z 18016KT 9999 SCT020 BKN080 17/08 Q1009 NOSIG
2026-03-31 11:20:00,METAR LGIR 311120Z 17015KT 9999 SCT020 BKN080 17/09 Q1009 NOSIG
2026-03-31 10:50:00,METAR LGIR 311050Z 16015KT 9999 SCT020 BKN080 18/09 Q1010 NOSIG
2026-03-31 10:20:00,METAR LGIR 311020Z 18015KT 9999 SCT020 BKN080 16/08 Q1009 NOSIG
2026-03-31 09:50:00,METAR LGIR 310950Z 17015KT 9999 SCT020 BKN080 16/09 Q1010 NOSIG
2026-03-31 09:20:00,METAR LGIR 310920Z 16013KT 9999 SCT020 BKN080 16/07 Q1010 NOSIG
2026-03-31 08:50:00,METAR LGIR 310850Z COR 17011KT 9999 SCT020 BKN080 17/07 Q1009 NOSIG
2026-03-31 08:20:00,METAR LGIR 310820Z 17005KT 9999 SCT020 BKN080 17/08 Q1010 NOSIG
2026-03-31 07:50:00,METAR LGIR 310750Z VRB03KT 9999 SCT020 BKN080 18/09 Q1009 NOSIG
2026-03-31 07:20:00,METAR LGIR 310720Z 14005KT 9999 BKN020 SCT080 15/09 Q1009 NOSIG
2026-03-31 06:50:00,METAR LGIR 310650Z 16005KT 9999 BKN020 SCT080 15/10 Q1010 NOSIG
2026-03-31 06:20:00,METAR LGIR 310620Z 15007KT 9999 BKN020 SCT080 14/10 Q1010 NOSIG
2026-03-31 05:50:00,METAR LGIR 310550Z 16007KT 9999 BKN020 SCT080 15/09 Q1010 NOSIG
2026-03-31 05:20:00,METAR LGIR 310520Z 15010KT 9999 SCT020 SCT080 12/10 Q1010 NOSIG
2026-03-31 04:50:00,METAR LGIR 310450Z 16006KT 9999 SCT020 SCT080 12/09 Q1010 NOSIG
2026-03-31 04:20:00,METAR LGIR 310420Z 16007KT 9999 FEW020 11/09 Q1009 NOSIG
2026-03-31 03:50:00,METAR LGIR 310350Z 17010KT 9999 FEW020 11/09 Q1009 NOSIG
2026-03-31 03:20:00,METAR LGIR 310320Z 17008KT 9999 FEW020 11/09 Q1009 NOSIG
2026-03-31 02:50:00,METAR LGIR 310250Z 16009KT 9999 FEW020 11/09 Q1009 NOSIG
2026-03-31 02:20:00,METAR LGIR 310220Z 17005KT 9999 FEW020 11/09 Q1009 NOSIG
2026-03-31 01:50:00,METAR LGIR 310150Z 17006KT 9999 FEW020 11/09 Q1009 NOSIG
2026-03-31 01:20:00,METAR LGIR 310120Z 22004KT 9999 FEW020 12/09 Q1009 NOSIG
2026-03-31 00:50:00,METAR LGIR 310050Z 22006KT 9999 FEW020 12/09 Q1009 NOSIG
2026-03-31 00:20:00,METAR LGIR 310020Z 21003KT 9999 FEW020 11/10 Q1010 NOSIG
2026-03-30 23:50:00,METAR LGIR 302350Z 15004KT 9999 FEW020 11/10 Q1010 NOSIG
2026-03-30 23:20:00,METAR LGIR 302320Z 16006KT 9999 FEW020 12/11 Q1010 NOSIG
2026-03-30 22:50:00,METAR LGIR 302250Z 15008KT 9999 FEW020 12/11 Q1010 NOSIG
2026-03-30 22:20:00,METAR LGIR 302220Z 16007KT 9999 FEW020 12/11 Q1010 NOSIG
2026-03-30 21:50:00,METAR LGIR 302150Z 19006KT 9999 FEW020 12/11 Q1011 NOSIG
2026-03-30 21:20:00,METAR LGIR 302120Z 16007KT 9999 FEW018 SCT025 12/11 Q1011 NOSIG
2026-03-30 20:50:00,METAR LGIR 302050Z 16006KT 9999 FEW018 SCT025 12/11 Q1011 NOSIG
2026-03-30 20:20:00,METAR LGIR 302020Z 16007KT 9999 FEW018 SCT025 13/11 Q1011 NOSIG
2026-03-30 19:50:00,METAR LGIR 301950Z 17007KT 9999 FEW018 SCT025 13/11 Q1011 NOSIG
2026-03-30 19:20:00,METAR LGIR 301920Z 17004KT 9999 FEW018 SCT025 13/11 Q1011 NOSIG
2026-03-30 18:50:00,METAR LGIR 301850Z 30004KT 9999 FEW018 SCT025 14/11 Q1011 NOSIG
2026-03-30 18:20:00,METAR LGIR 301820Z 30008KT 9999 FEW018 SCT025 15/11 Q1010 NOSIG
2026-03-30 17:50:00,METAR LGIR 301750Z 31008KT 9999 FEW018 SCT025 15/11 Q1010 NOSIG
2026-03-30 17:20:00,METAR LGIR 301720Z 31009KT 9999 FEW018 BKN025 16/10 Q1010 NOSIG
2026-03-30 16:50:00,METAR LGIR 301650Z 31010KT 9999 FEW018 BKN025 16/10 Q1010 NOSIG
2026-03-30 16:20:00,METAR LGIR 301620Z 31012KT 9999 FEW018 BKN025 16/09 Q1010 NOSIG
2026-03-30 15:50:00,METAR LGIR 301550Z 30011KT 9999 FEW018 BKN025 16/09 Q1010 NOSIG
2026-03-30 15:20:00,METAR LGIR 301520Z 30012KT 9999 FEW018 BKN025 16/09 Q1010 NOSIG
2026-03-30 14:50:00,METAR LGIR 301450Z 30013KT 9999 FEW018 BKN025 17/09 Q1010 NOSIG
2026-03-30 14:20:00,METAR LGIR 301420Z 30016KT 9999 FEW020 BKN025 16/10 Q1010 NOSIG
2026-03-30 13:50:00,METAR LGIR 301350Z 30016KT 9999 FEW020 SCT025 16/10 Q1010 NOSIG
2026-03-30 13:20:00,METAR LGIR 301320Z 31013KT 9999 SCT025 17/11 Q1010 NOSIG
2026-03-30 12:50:00,METAR LGIR 301250Z 31012KT 9999 SCT025 17/11 Q1010 NOSIG
2026-03-30 12:20:00,METAR LGIR 301220Z 32012KT 9999 SCT025 17/11 Q1010 NOSIG
2026-03-30 11:50:00,METAR LGIR 301150Z 32012KT 9999 SCT025 17/11 Q1011 NOSIG
2026-03-30 11:20:00,METAR LGIR 301120Z 32013KT 9999 SCT025 17/09 Q1011 NOSIG
2026-03-30 10:50:00,METAR LGIR 301050Z 33012KT 9999 SCT025 17/09 Q1011 NOSIG
2026-03-30 10:20:00,METAR LGIR 301020Z 32014KT 9999 SCT025 17/09 Q1011 NOSIG
2026-03-30 09:50:00,METAR LGIR 300950Z 31013KT 9999 SCT025 17/09 Q1011 NOSIG
2026-03-30 09:20:00,METAR LGIR 300920Z 31012KT 9999 SCT025 17/08 Q1012 NOSIG
2026-03-30 08:20:00,METAR LGIR 300820Z 30007KT 9999 FEW020 17/08 Q1012 NOSIG
2026-03-30 07:50:00,METAR LGIR 300750Z 29006KT 9999 FEW020 17/08 Q1012 NOSIG
2026-03-30 07:20:00,METAR LGIR 300720Z 29007KT 9999 FEW020 16/08 Q1012 NOSIG
2026-03-30 06:50:00,METAR LGIR 300650Z 27004KT 9999 FEW020 16/08 Q1012 NOSIG
2026-03-30 06:20:00,METAR LGIR 300620Z 22004KT 9999 FEW020 15/07 Q1012 NOSIG
2026-03-30 05:20:00,METAR LGIR 300520Z 16006KT 9999 FEW020 13/06 Q1012 NOSIG
2026-03-30 04:50:00,METAR LGIR 300450Z 20005KT 9999 FEW020 12/05 Q1011 NOSIG
2026-03-30 04:20:00,METAR LGIR 300420Z 20005KT 9999 FEW020 11/06 Q1011 NOSIG
2026-03-30 03:50:00,METAR LGIR 300350Z 20005KT 9999 FEW020 11/05 Q1011 NOSIG
2026-03-30 03:20:00,METAR LGIR 300320Z 20005KT 9999 FEW020 11/05 Q1011 NOSIG
2026-03-30 02:50:00,METAR LGIR 300250Z 20006KT 9999 FEW020 11/05 Q1011 NOSIG
2026-03-30 02:20:00,METAR LGIR 300220Z 20005KT 9999 FEW020 11/05 Q1011 NOSIG
2026-03-30 01:50:00,METAR LGIR 300150Z 20004KT 9999 FEW020 11/06 Q1011 NOSIG
2026-03-30 01:20:00,METAR LGIR 300120Z 22005KT 9999 FEW020 11/06 Q1011 NOSIG
2026-03-30 00:50:00,METAR LGIR 300050Z 20005KT 9999 FEW020 12/07 Q1011 NOSIG
2026-03-30 00:20:00,METAR LGIR 300020Z 19005KT 9999 FEW020 12/07 Q1011 NOSIG
2026-03-29 23:50:00,METAR LGIR 292350Z 20003KT 9999 FEW020 11/06 Q1011 NOSIG
2026-03-29 23:20:00,METAR LGIR 292320Z 23005KT 9999 FEW020 12/08 Q1011 NOSIG
2026-03-29 22:50:00,METAR LGIR 292250Z VRB03KT 9999 FEW020 12/08 Q1011 NOSIG
2026-03-29 22:20:00,METAR LGIR 292220Z 20004KT 9999 FEW020 12/08 Q1011 NOSIG
2026-03-29 21:50:00,METAR LGIR 292150Z 19004KT 9999 FEW020 12/08 Q1011 NOSIG
2026-03-29 21:20:00,METAR LGIR 292120Z 19004KT 9999 FEW020 12/08 Q1011 NOSIG
2026-03-29 20:50:00,METAR LGIR 292050Z 19004KT 9999 FEW020 12/08 Q1011 NOSIG
2026-03-29 20:20:00,METAR LGIR 292020Z 21003KT 9999 FEW020 12/08 Q1011 NOSIG
2026-03-29 19:20:00,METAR LGIR 291920Z 24006KT 9999 SCT020 13/08 Q1011 NOSIG
2026-03-29 18:50:00,METAR LGIR 291850Z 25006KT 9999 SCT020 13/07 Q1010 NOSIG
2026-03-29 18:20:00,METAR LGIR 291820Z 27006KT 9999 SCT020 14/08 Q1010 NOSIG
2026-03-29 17:50:00,METAR LGIR 291750Z 27009KT 9999 SCT020 15/07 Q1010 NOSIG
2026-03-29 17:20:00,METAR LGIR 291720Z 27009KT 9999 SCT020 15/07 Q1009 NOSIG
2026-03-29 16:50:00,METAR LGIR 291650Z 28011KT 9999 SCT020 15/07 Q1009 NOSIG
2026-03-29 16:20:00,METAR LGIR 291620Z 29014KT 9999 SCT020 15/08 Q1009 NOSIG
2026-03-29 15:20:00,METAR LGIR 291520Z 30012KT 9999 SCT020 15/09 Q1008 NOSIG
2026-03-29 14:50:00,METAR LGIR 291450Z 30013KT 9999 FEW018 SCT025 16/08 Q1008 NOSIG
2026-03-29 14:20:00,METAR LGIR 291420Z 29012KT 9999 FEW018 SCT025 16/08 Q1008 NOSIG
2026-03-29 13:50:00,METAR LGIR 291350Z 30015KT 9999 FEW018 SCT025 17/09 Q1007 NOSIG
2026-03-29 13:20:00,METAR LGIR 291320Z 30013KT 9999 FEW018 SCT025 17/08 Q1007 NOSIG
2026-03-29 12:50:00,METAR LGIR 291250Z 30016KT 9999 FEW018 SCT025 17/09 Q1007 NOSIG
2026-03-29 12:20:00,METAR LGIR 291220Z 30017KT 9999 FEW018 SCT025 17/09 Q1007 NOSIG
2026-03-29 11:50:00,METAR LGIR 291150Z 30016KT 9999 FEW018 SCT025 17/08 Q1007 NOSIG
2026-03-29 11:20:00,METAR LGIR 291120Z 30017KT 9999 FEW018 SCT025 17/08 Q1007 NOSIG
2026-03-29 10:50:00,METAR LGIR 291050Z 30015KT 9999 FEW018 BKN025 16/08 Q1007 NOSIG
2026-03-29 10:20:00,METAR LGIR 291020Z 30014KT 9999 FEW018 BKN025 16/08 Q1007 NOSIG
2026-03-29 09:50:00,METAR LGIR 290950Z 30013KT 9999 FEW018 BKN025 16/08 Q1006 NOSIG
2026-03-29 09:20:00,METAR LGIR 290920Z 30014KT 9999 FEW018 BKN025 15/07 Q1006 NOSIG
2026-03-29 08:50:00,METAR LGIR 290850Z COR 30010KT 9999 FEW018 BKN025 15/07 Q1006 NOSIG
2026-03-29 08:20:00,METAR LGIR 290820Z 29010KT 9999 FEW020 SCT025 15/06 Q1006 NOSIG
2026-03-29 07:50:00,METAR LGIR 290750Z 27008KT 9999 FEW020 SCT025 15/06 Q1006 NOSIG
2026-03-29 07:20:00,METAR LGIR 290720Z 29010KT 9999 FEW020 SCT025 14/06 Q1006 NOSIG
2026-03-29 06:50:00,METAR LGIR 290650Z 27006KT 9999 FEW020 SCT025 14/06 Q1005 NOSIG
2026-03-29 06:20:00,METAR LGIR 290620Z 24008KT 9999 FEW020 SCT025 14/06 Q1005 NOSIG
2026-03-29 05:50:00,METAR LGIR 290550Z 24009KT 9999 FEW020 SCT025 13/04 Q1005 NOSIG
2026-03-29 05:20:00,METAR LGIR 290520Z 26008KT 9999 SCT020 13/06 Q1004 NOSIG
2026-03-29 04:50:00,METAR LGIR 290450Z 24010KT 9999 SCT020 12/06 Q1004 NOSIG
2026-03-29 04:20:00,METAR LGIR 290420Z 27007KT 9999 FEW020 12/04 Q1003 NOSIG
2026-03-29 03:50:00,METAR LGIR 290350Z 25007KT 9999 FEW020 12/04 Q1004 NOSIG
2026-03-29 03:20:00,METAR LGIR 290320Z 27007KT 9999 FEW020 12/04 Q1003 NOSIG
2026-03-29 02:50:00,METAR LGIR 290250Z 27007KT 9999 FEW020 12/04 Q1003 NOSIG
2026-03-29 02:20:00,METAR LGIR 290220Z 23005KT 9999 FEW020 10/05 Q1003 NOSIG
2026-03-29 01:50:00,METAR LGIR 290150Z 23005KT 9999 FEW020 10/05 Q1003 NOSIG
2026-03-29 01:20:00,METAR LGIR 290120Z 23005KT 9999 FEW020 10/05 Q1003 NOSIG
2026-03-29 00:50:00,METAR LGIR 290050Z 20004KT 9999 FEW020 09/06 Q1004 NOSIG
2026-03-29 00:20:00,METAR LGIR 290020Z 20004KT 9999 SCT020 09/05 Q1004 NOSIG
2026-03-28 23:50:00,METAR LGIR 282350Z 19005KT 9999 FEW020 09/05 Q1004 NOSIG
2026-03-28 23:20:00,METAR LGIR 282320Z 17004KT 9999 FEW020 10/05 Q1004 NOSIG
2026-03-28 22:50:00,METAR LGIR 282250Z 22004KT 9999 FEW020 11/05 Q1004 NOSIG
2026-03-28 22:20:00,METAR LGIR 282220Z 25009KT 9999 FEW020 12/05 Q1004 NOSIG
2026-03-28 21:50:00,METAR LGIR 282150Z 24010KT 9999 FEW020 12/05 Q1004 NOSIG
2026-03-28 21:20:00,METAR LGIR 282120Z 24009KT 9999 FEW020 12/05 Q1004 NOSIG
2026-03-28 20:50:00,METAR LGIR 282050Z 21006KT 9999 FEW020 11/06 Q1004 NOSIG
2026-03-28 20:20:00,METAR LGIR 282020Z 20005KT 9999 SCT020 10/06 Q1004 NOSIG
2026-03-28 19:50:00,METAR LGIR 281950Z 18004KT 9999 SCT020 10/07 Q1004 NOSIG
2026-03-28 19:20:00,METAR LGIR 281920Z 21005KT 9999 SCT020 SCT080 11/07 Q1004 NOSIG
2026-03-28 18:50:00,METAR LGIR 281850Z 16004KT 9999 BKN020 BKN080 12/09 Q1003 NOSIG
2026-03-28 18:20:00,METAR LGIR 281820Z 20004KT 9999 BKN020 BKN080 12/09 Q1003 NOSIG
2026-03-28 17:50:00,METAR LGIR 281750Z 20004KT 9999 BKN020 BKN080 12/09 Q1003 NOSIG
2026-03-28 17:20:00,METAR LGIR 281720Z 27004KT 9999 BKN020 BKN080 12/09 Q1001 NOSIG
2026-03-28 16:50:00,METAR LGIR 281650Z 27004KT 9999 BKN020 BKN080 12/09 Q1001 NOSIG
2026-03-28 16:20:00,METAR LGIR 281620Z 31006KT 9999 BKN020 BKN080 13/09 Q1002 NOSIG
2026-03-28 15:50:00,METAR LGIR 281550Z 31006KT 9999 BKN020 BKN080 13/09 Q1002 NOSIG
2026-03-28 15:20:00,METAR LGIR 281520Z 31006KT 9999 BKN020 BKN080 13/09 Q1002 NOSIG
2026-03-28 14:50:00,METAR LGIR 281450Z 31006KT 9999 BKN020 BKN080 13/09 Q1002 NOSIG
2026-03-28 14:20:00,METAR LGIR 281420Z 32008KT 9999 BKN020 BKN080 13/09 Q1002 NOSIG
2026-03-28 13:50:00,METAR LGIR 281350Z 32008KT 9999 SCT020 BKN080 13/09 Q1002 NOSIG
2026-03-28 13:20:00,METAR LGIR 281320Z 20015KT 9999 SCT020 BKN080 14/09 Q1003 NOSIG
2026-03-28 12:50:00,METAR LGIR 281250Z 20015KT 9999 -RA SCT020 BKN080 14/09 Q1002 NOSIG
2026-03-28 12:20:00,METAR LGIR 281220Z 18012G22KT 9999 SCT020 BKN080 15/08 Q1002 NOSIG
2026-03-28 11:50:00,METAR LGIR 281150Z 18014G24KT 9999 SCT020 BKN080 15/08 Q1002 NOSIG
2026-03-28 11:20:00,METAR LGIR 281120Z 19012KT 9999 SCT020 BKN080 15/08 Q1003 NOSIG
2026-03-28 10:50:00,METAR LGIR 281050Z 19011KT 9999 SCT020 BKN080 15/08 Q1003 NOSIG
2026-03-28 10:20:00,METAR LGIR 281020Z 20011KT 9999 SCT020 BKN080 14/08 Q1004 NOSIG
2026-03-28 09:50:00,METAR LGIR 280950Z 19010KT 9999 SCT020 BKN080 14/10 Q1005 NOSIG
2026-03-28 09:20:00,METAR LGIR 280920Z COR 22004KT 9999 -RA SCT020 BKN080 15/11 Q1005 NOSIG
2026-03-28 08:50:00,METAR LGIR 280850Z 20005KT 9999 -RA SCT020 BKN080 15/11 Q1005 NOSIG
2026-03-28 08:20:00,METAR LGIR 280820Z 19007KT 9999 SCT020 BKN080 15/09 Q1005 NOSIG
2026-03-28 07:50:00,METAR LGIR 280750Z 19007KT 9999 SCT020 BKN080 14/10 Q1005 NOSIG
2026-03-28 07:20:00,METAR LGIR 280720Z 19005KT 9999 SCT020 BKN080 14/10 Q1005 NOSIG
2026-03-28 06:50:00,METAR LGIR 280650Z 20007KT 9999 SCT020 BKN080 14/10 Q1004 NOSIG
2026-03-28 06:20:00,METAR LGIR 280620Z 20007KT 9999 SCT020 BKN080 14/09 Q1005 NOSIG
2026-03-28 05:50:00,METAR LGIR 280550Z 18007KT 9999 SCT020 BKN080 14/09 Q1005 NOSIG
2026-03-28 05:20:00,METAR LGIR 280520Z 21006KT 9999 FEW018 SCT025 BKN080 14/09 Q1005 NOSIG
2026-03-28 04:50:00,METAR LGIR 280450Z 17004KT 9999 FEW018 SCT025 BKN080 13/10 Q1005 NOSIG
2026-03-28 04:20:00,METAR LGIR 280420Z 27005KT 9999 FEW018 SCT025 BKN080 15/10 Q1005 NOSIG
2026-03-28 03:50:00,METAR LGIR 280350Z 23005KT 9999 FEW018 SCT025 BKN080 15/10 Q1005 NOSIG
2026-03-28 03:20:00,METAR LGIR 280320Z VRB03KT 9999 FEW018 SCT025 BKN080 14/11 Q1005 NOSIG
2026-03-28 02:50:00,METAR LGIR 280250Z 00000KT 9999 FEW018 SCT025 BKN080 14/11 Q1005 NOSIG
2026-03-28 02:20:00,METAR LGIR 280220Z 00000KT 9999 FEW018 SCT025 BKN080 14/12 Q1005 NOSIG
2026-03-28 01:50:00,METAR LGIR 280150Z 00000KT 9999 FEW018 SCT025 BKN080 14/12 Q1005 NOSIG
2026-03-28 01:20:00,METAR LGIR 280120Z 00000KT 9999 FEW018 SCT025 BKN080 15/14 Q1006 NOSIG
2026-03-28 00:50:00,METAR LGIR 280050Z 00000KT 9999 FEW018 SCT025 BKN080 15/14 Q1006 NOSIG
2026-03-28 00:20:00,METAR LGIR 280020Z VRB03KT 9999 FEW018 SCT025 BKN080 15/14 Q1006 NOSIG
2026-03-27 23:50:00,METAR LGIR 272350Z VRB03KT 9999 FEW018 SCT025 BKN080 15/14 Q1006 NOSIG
2026-03-27 23:20:00,METAR LGIR 272320Z 36006KT 9999 FEW018 SCT025 BKN080 15/14 Q1007 NOSIG
2026-03-27 22:50:00,METAR LGIR 272250Z 01006KT 9999 FEW018 SCT025 BKN080 15/14 Q1007 NOSIG
2026-03-27 22:20:00,METAR LGIR 272220Z 36005KT 9999 FEW018 SCT025 BKN080 16/13 Q1007 NOSIG
2026-03-27 21:50:00,METAR LGIR 272150Z 36006KT 9999 FEW018 SCT025 BKN080 16/13 Q1007 NOSIG
2026-03-27 21:20:00,METAR LGIR 272120Z 29006KT 9999 FEW018 SCT025 BKN080 16/11 Q1007 NOSIG
2026-03-27 20:50:00,METAR LGIR 272050Z 30005KT 9999 FEW018 SCT025 BKN080 16/11 Q1007 NOSIG
2026-03-27 20:20:00,METAR LGIR 272020Z VRB03KT 9999 FEW018 SCT025 BKN080 16/11 Q1007 NOSIG
2026-03-27 19:50:00,METAR LGIR 271950Z VRB03KT 9999 FEW018 SCT025 BKN080 16/11 Q1007 NOSIG
2026-03-27 19:20:00,METAR LGIR 271920Z 31004KT 9999 FEW018 SCT025 BKN080 17/11 Q1007 NOSIG
2026-03-27 18:50:00,METAR LGIR 271850Z 17012KT 9999 FEW018 SCT025 BKN080 17/11 Q1007 NOSIG
2026-03-27 18:20:00,METAR LGIR 271820Z 16013KT 9999 FEW025 SCT080 16/11 Q1006 NOSIG
2026-03-27 17:50:00,METAR LGIR 271750Z 15016KT 9999 FEW025 SCT080 16/11 Q1006 NOSIG
2026-03-27 17:20:00,METAR LGIR 271720Z 15010KT 9999 FEW025 SCT080 16/10 Q1007 NOSIG
2026-03-27 16:50:00,METAR LGIR 271650Z 15012KT 9999 FEW025 SCT080 16/10 Q1007 NOSIG
2026-03-27 16:20:00,METAR LGIR 271620Z 15011KT 9999 FEW018 SCT025 16/10 Q1006 NOSIG
2026-03-25 14:50:00,METAR LGIR 251450Z 34024KT 9999 FEW010 FEW018TCU BKN020 BKN080 14/10 Q1002 NOSIG
2026-03-25 14:20:00,METAR LGIR 251420Z 34026KT 9999 FEW010 FEW018TCU BKN020 BKN080 14/10 Q1002 NOSIG
2026-03-25 13:50:00,METAR LGIR 251350Z 34020G31KT 9999 FEW010 FEW018TCU BKN020 BKN080 14/11 Q1002 NOSIG
2026-03-25 13:20:00,METAR LGIR 251320Z 35019G29KT 9999 FEW010 FEW018TCU BKN020 BKN080 14/10 Q1001 NOSIG
2026-03-25 12:50:00,METAR LGIR 251250Z 35018G28KT 9999 FEW010 FEW018TCU BKN020 BKN080 14/10 Q1001 NOSIG
2026-03-25 12:20:00,METAR LGIR 251220Z 35018G28KT 9999 FEW010 FEW018TCU BKN020 BKN080 14/11 Q1001 NOSIG
2026-03-25 11:50:00,METAR LGIR 251150Z 06007KT 9999 FEW010 FEW018TCU BKN020 BKN080 12/11 Q1001 RETS NOSIG
2026-03-25 11:20:00,METAR LGIR 251120Z 07014KT 8000 -TSRA FEW010 FEW018CB BKN020 BKN080 12/11 Q1001 NOSIG
2026-03-25 10:50:00,METAR LGIR 251050Z 34013G23KT 7000 -TSRA FEW010 FEW018CB BKN020 BKN080 13/11 Q1001 RERA NOSIG
2026-03-25 09:20:00,METAR LGIR 250920Z 35017KT 6000 TSRA FEW010 FEW018CB BKN020 BKN080 12/10 Q1002 NOSIG
2026-03-25 08:50:00,METAR LGIR 250850Z 34018KT 9999 FEW018TCU BKN025 BKN080 14/10 Q1002 NOSIG
2026-03-25 08:20:00,METAR LGIR 250820Z 34017KT 9999 FEW018TCU BKN025 BKN080 14/10 Q1002 NOSIG
2026-03-25 07:50:00,METAR LGIR 250750Z 34017KT 9999 FEW018TCU BKN025 BKN080 14/10 Q1002 NOSIG
2026-03-25 07:20:00,METAR LGIR 250720Z 34016KT 9999 FEW018TCU BKN025 BKN080 13/10 Q1002 NOSIG
2026-03-25 06:50:00,METAR LGIR 250650Z 34014KT 9999 FEW016CB FEW018TCU BKN025 BKN080 13/10 Q1002 RETS NOSIG
2026-03-25 05:50:00,METAR LGIR 250550Z COR 32024KT 8000 -TSRA SCT016CB SCT018TCU BKN025 11/10 Q1003 RERA NOSIG
2026-03-25 05:20:00,METAR LGIR 250520Z 29021KT 8000 TSRA SCT016CB SCT018TCU BKN025 11/10 Q1003 RETS NOSIG
2026-03-25 04:50:00,METAR LGIR 250450Z 30014KT 8000 TSRA SCT016CB SCT018TCU BKN025 11/10 Q1003 RETS NOSIG
2026-03-25 04:20:00,METAR LGIR 250420Z 29017KT 8000 -TSRA SCT016CB SCT018TCU BKN025 11/10 Q1003 NOSIG
2026-03-25 03:50:00,METAR LGIR 250350Z COR 31015KT 7000 -TSRA FEW016CB FEW018TCU BKN025 BKN080 11/10 Q1003 NOSIG
2026-03-25 03:20:00,METAR LGIR 250320Z 31016KT 6000 -RA FEW015 FEW018TCU BKN025 BKN080 11/10 Q1003 NOSIG
2026-03-25 02:50:00,METAR LGIR 250250Z 31017KT 6000 -RA FEW015 FEW018TCU BKN025 BKN080 11/09 Q1003 NOSIG
2026-03-25 02:20:00,METAR LGIR 250220Z 31011KT 6000 -RA FEW015 SCT018TCU BKN025 11/10 Q1004 NOSIG
2026-03-25 01:50:00,METAR LGIR 250150Z COR 32017KT 6000 RA FEW015 SCT018TCU BKN025 11/10 Q1004 NOSIG
2026-03-25 01:20:00,METAR LGIR 250120Z 29014G30KT 9000 RA FEW015 FEW018TCU BKN025 BKN080 11/10 Q1004 NOSIG
2026-03-25 00:50:00,METAR LGIR 250050Z 31010KT 9000 -RA FEW015 FEW018TCU BKN025 BKN080 11/09 Q1005 NOSIG
2026-03-25 00:20:00,METAR LGIR 250020Z 34011KT 9000 -RA FEW015 FEW018TCU BKN025 BKN080 11/09 Q1005 NOSIG
2026-03-24 23:50:00,METAR LGIR 242350Z 30015KT 9000 -RA FEW015 FEW018TCU BKN025 BKN080 11/09 Q1005 NOSIG
2026-03-24 23:20:00,METAR LGIR 242320Z 01008KT 9000 FEW015 FEW018TCU BKN025 BKN080 11/09 Q1005 NOSIG
2026-03-24 22:50:00,METAR LGIR 242250Z 33003KT 9000 FEW015 FEW018TCU BKN025 BKN080 11/09 Q1006 NOSIG
2026-03-24 22:20:00,METAR LGIR 242220Z 22007KT 9000 -RA FEW015 FEW018TCU BKN025 BKN080 11/09 Q1006 NOSIG
2026-03-24 21:50:00,METAR LGIR 242150Z 23008KT 9000 -RA FEW015 FEW018TCU BKN025 BKN080 11/09 Q1006 RETS NOSIG
2026-03-24 21:20:00,METAR LGIR 242120Z 23012KT 8000 -TSRA FEW016CB FEW018TCU BKN025 BKN080 11/10 Q1007 NOSIG
2026-03-24 20:50:00,METAR LGIR 242050Z 27013KT 9000 -TSRA FEW016CB FEW018TCU BKN025 BKN080 11/10 Q1007 NOSIG
2026-03-24 20:20:00,METAR LGIR 242020Z 31014KT 9000 -RA FEW015 FEW018TCU BKN025 BKN080 11/10 Q1007 NOSIG
2026-03-24 19:50:00,METAR LGIR 241950Z 36015KT 9000 -RA FEW015 FEW018TCU BKN025 BKN080 11/10 Q1008 NOSIG
2026-03-24 19:20:00,METAR LGIR 241920Z 34011G21KT 9000 -RA FEW015 FEW018TCU BKN025 BKN080 11/10 Q1008 NOSIG
2026-03-24 18:50:00,METAR LGIR 241850Z 31010KT 9000 -RA FEW015 FEW018TCU BKN025 BKN080 11/10 Q1008 NOSIG
2026-03-24 18:20:00,METAR LGIR 241820Z 26007KT 9000 -RA FEW015 FEW018TCU BKN025 BKN080 11/09 Q1007 NOSIG
2026-03-24 17:50:00,METAR LGIR 241750Z 25008KT 9000 -RA FEW015 FEW018TCU BKN025 BKN080 11/09 Q1008 NOSIG
2026-03-24 17:20:00,METAR LGIR 241720Z 28016KT 9000 -RA FEW016 FEW018TCU BKN025 BKN080 11/09 Q1007 NOSIG
2026-03-24 16:50:00,METAR LGIR 241650Z 28015KT 9000 -RA FEW016 BKN025 BKN080 11/09 Q1008 NOSIG
2026-03-24 16:20:00,METAR LGIR 241620Z COR 24007KT 9999 -RA FEW016 BKN025 BKN080 12/09 Q1008 NOSIG
2026-03-24 15:50:00,METAR LGIR 241550Z 27009KT 9999 FEW016 BKN025 BKN080 13/08 Q1008 NOSIG
2026-03-24 15:20:00,METAR LGIR 241520Z 30012KT 9999 FEW016 BKN025 BKN080 13/08 Q1008 NOSIG
2026-03-24 14:50:00,METAR LGIR 241450Z 30011KT 9999 FEW016 BKN025 BKN080 13/08 Q1008 NOSIG
2026-03-24 14:20:00,METAR LGIR 241420Z 29006KT 9999 FEW018 BKN025 BKN080 13/10 Q1008 NOSIG
2026-03-24 13:50:00,METAR LGIR 241350Z 27005KT 9999 FEW018 BKN025 BKN080 13/10 Q1008 NOSIG
2026-03-24 13:20:00,METAR LGIR 241320Z 33008KT 9999 -RA FEW018 BKN025 BKN080 13/10 Q1008 NOSIG
2026-03-24 12:50:00,METAR LGIR 241250Z 32013KT 9000 FEW018 BKN025 BKN080 13/10 Q1009 NOSIG
2026-03-24 12:20:00,METAR LGIR 241220Z 30013KT 9999 FEW018 BKN025 BKN080 14/09 Q1009 NOSIG
2026-03-24 11:50:00,METAR LGIR 241150Z 31014KT 9999 FEW018 BKN025 BKN080 15/10 Q1009 NOSIG
2026-03-24 11:20:00,METAR LGIR 241120Z 31014KT 9999 FEW018 BKN025 15/08 Q1009 NOSIG
2026-03-24 10:50:00,METAR LGIR 241050Z 30013KT 9999 FEW018 BKN025 15/08 Q1009 NOSIG
2026-03-24 10:20:00,METAR LGIR 241020Z 30013KT 9999 FEW018 SCT025 15/07 Q1009 NOSIG
2026-03-24 09:50:00,METAR LGIR 240950Z 30012KT 9999 FEW018 SCT025 15/07 Q1010 NOSIG
2026-03-24 09:20:00,METAR LGIR 240920Z 30013KT 9999 FEW018 SCT025 15/07 Q1009 NOSIG
2026-03-24 08:50:00,METAR LGIR 240850Z 30012KT 9999 FEW018 BKN025 15/07 Q1010 NOSIG
2026-03-24 07:50:00,METAR LGIR 240750Z 30012KT 9999 FEW018 BKN025 15/07 Q1010 NOSIG
2026-03-24 07:20:00,METAR LGIR 240720Z 30012KT 9999 FEW018 BKN025 14/08 Q1010 NOSIG RMK FEW080
2026-03-24 06:50:00,METAR LGIR 240650Z 28011KT 9999 FEW018 BKN025 13/08 Q1010 NOSIG
2026-03-24 06:20:00,METAR LGIR 240620Z 23006KT 9999 FEW018 BKN025 12/08 Q1010 NOSIG
2026-03-24 05:50:00,METAR LGIR 240550Z 23006KT 9999 FEW018 BKN025 11/07 Q1010 NOSIG
2026-03-24 05:20:00,METAR LGIR 240520Z 23006KT 9999 SCT018 11/08 Q1010 NOSIG
2026-03-24 04:50:00,METAR LGIR 240450Z 23006KT 9999 SCT018 11/08 Q1010 NOSIG
2026-03-24 04:20:00,METAR LGIR 240420Z 22006KT 9999 SCT018 10/09 Q1010 NOSIG
2026-03-24 03:50:00,METAR LGIR 240350Z 23005KT 9999 SCT018 10/09 Q1010 NOSIG
2026-03-24 03:20:00,METAR LGIR 240320Z 22006KT 9999 SCT018 10/09 Q1010 NOSIG
2026-03-24 02:50:00,METAR LGIR 240250Z 23006KT 9999 SCT018 11/09 Q1010 NOSIG
2026-03-24 02:20:00,METAR LGIR 240220Z 23006KT 9999 SCT018 11/09 Q1010 NOSIG
2026-03-24 01:50:00,METAR LGIR 240150Z 22006KT 9999 SCT018 11/09 Q1011 NOSIG
2026-03-24 01:20:00,METAR LGIR 240120Z 23005KT 9999 FEW018 SCT020 12/08 Q1011 NOSIG
2026-03-24 00:50:00,METAR LGIR 240050Z 23005KT 9999 FEW018 BKN020 12/08 Q1011 NOSIG
2026-03-24 00:20:00,METAR LGIR 240020Z 23005KT 9999 FEW018 BKN020 11/08 Q1011 NOSIG
2026-03-23 23:50:00,METAR LGIR 232350Z 23004KT 9999 FEW018 BKN020 12/08 Q1011 NOSIG
2026-03-23 23:20:00,METAR LGIR 232320Z 23005KT 9999 FEW018 BKN020 11/08 Q1011 NOSIG
2026-03-23 22:50:00,METAR LGIR 232250Z 23005KT 9999 FEW018 BKN020 11/08 Q1011 NOSIG
2026-03-23 22:20:00,METAR LGIR 232220Z 23006KT 9999 FEW018 BKN020 11/08 Q1012 NOSIG
2026-03-23 21:50:00,METAR LGIR 232150Z 24005KT 9999 FEW018 BKN020 11/09 Q1012 NOSIG
2026-03-23 21:20:00,METAR LGIR 232120Z 25007KT 9999 FEW018 BKN020 12/09 Q1012 NOSIG
2026-03-23 20:50:00,METAR LGIR 232050Z 24007KT 9999 FEW018 BKN020 12/09 Q1012 NOSIG
2026-03-23 20:20:00,METAR LGIR 232020Z 23005KT 9999 FEW018 BKN020 12/09 Q1012 NOSIG
2026-03-23 19:50:00,METAR LGIR 231950Z 23005KT 9999 FEW018 BKN020 12/09 Q1012 NOSIG
2026-03-23 19:20:00,METAR LGIR 231920Z 24005KT 9999 FEW018 BKN020 12/10 Q1012 NOSIG
2026-03-23 18:50:00,METAR LGIR 231850Z 24005KT 9999 FEW018 BKN020 12/10 Q1012 NOSIG
2026-03-23 18:20:00,METAR LGIR 231820Z 23005KT 9999 FEW018 BKN020 12/10 Q1012 NOSIG
2026-03-23 17:50:00,METAR LGIR 231750Z 24003KT 9999 FEW018 BKN020 12/10 Q1012 NOSIG
2026-03-23 17:20:00,METAR LGIR 231720Z 23006KT 9999 -RA FEW018 BKN020 SCT060 11/10 Q1011 NOSIG
2026-03-23 16:50:00,METAR LGIR 231650Z 24008KT 9000 -RA FEW018 BKN020 BKN060 12/11 Q1011 NOSIG
2026-03-23 16:20:00,METAR LGIR 231620Z 31010KT 9999 FEW018 BKN020 SCT060 13/10 Q1011 NOSIG
2026-03-23 15:50:00,METAR LGIR 231550Z 33010KT 9999 FEW018 BKN020 BKN060 13/10 Q1011 NOSIG
2026-03-23 15:20:00,METAR LGIR 231520Z 32006KT 9999 -RA FEW018TCU BKN020 BKN060 13/11 Q1011 NOSIG
2026-03-23 14:50:00,METAR LGIR 231450Z 27008KT 9999 -RA FEW018TCU BKN020 BKN060 12/12 Q1011 NOSIG
2026-03-23 14:20:00,METAR LGIR 231420Z VRB03KT 9999 -RA FEW018TCU BKN020 BKN060 13/12 Q1011 NOSIG
2026-03-23 13:50:00,METAR LGIR 231350Z 14006KT 9999 -RA FEW018TCU BKN020 BKN060 13/12 Q1011 NOSIG
2026-03-23 13:20:00,METAR LGIR 231320Z 02006KT 9999 -RA FEW018TCU BKN020 BKN060 12/11 Q1011 NOSIG
2026-03-23 12:50:00,METAR LGIR 231250Z 26004KT 9999 -RA FEW018TCU BKN020 BKN060 14/13 Q1011 NOSIG
2026-03-23 12:20:00,METAR LGIR 231220Z 30010KT 9999 -RA FEW018TCU BKN020 14/12 Q1011 NOSIG
2026-03-23 11:50:00,METAR LGIR 231150Z 30010KT 9999 -RA FEW018TCU BKN020 14/12 Q1011 NOSIG
2026-03-23 11:20:00,METAR LGIR 231120Z 26006KT 9999 -RA FEW018TCU BKN020 14/13 Q1011 NOSIG
2026-03-23 10:20:00,METAR LGIR 231020Z 27006KT 9999 FEW018TCU SCT020 15/12 Q1011 NOSIG
2026-03-23 09:50:00,METAR LGIR 230950Z 24006KT CAVOK 15/12 Q1011 NOSIG
2026-03-23 09:20:00,METAR LGIR 230920Z 27008KT 9999 -RA FEW018TCU BKN020 13/11 Q1011 RERA NOSIG
2026-03-23 07:50:00,METAR LGIR 230750Z 32010KT 9999 FEW018 SCT025 15/10 Q1011 NOSIG
2026-03-23 07:20:00,METAR LGIR 230720Z 34012KT 9999 FEW018TCU BKN025 14/11 Q1011 NOSIG
2026-03-23 06:50:00,METAR LGIR 230650Z 33010KT 9999 FEW018TCU BKN025 14/11 Q1011 NOSIG
2026-03-23 06:20:00,METAR LGIR 230620Z 33014KT 9999 -RA FEW018TCU BKN025 13/10 Q1011 NOSIG
2026-03-23 05:50:00,METAR LGIR 230550Z 33015G25KT 9999 -RA FEW018TCU BKN025 13/10 Q1010 NOSIG
2026-03-23 05:20:00,METAR LGIR 230520Z 27006KT 9999 -RA FEW018 BKN025 13/10 Q1010 NOSIG
2026-03-23 04:50:00,METAR LGIR 230450Z 32009KT 9999 FEW018 BKN025 13/10 Q1010 NOSIG
2026-03-23 04:20:00,METAR LGIR 230420Z 31010KT 9999 FEW018 BKN025 12/10 Q1010 NOSIG
2026-03-23 03:50:00,METAR LGIR 230350Z 22006KT 9999 FEW018 BKN025 12/10 Q1010 NOSIG
2026-03-23 03:20:00,METAR LGIR 230320Z 23007KT 9999 FEW018 BKN025 11/10 Q1010 NOSIG
2026-03-23 02:50:00,METAR LGIR 230250Z 29005KT 9999 FEW018 BKN025 11/10 Q1010 NOSIG
2026-03-23 02:20:00,METAR LGIR 230220Z 28007KT 9999 FEW016 BKN020 13/10 Q1010 NOSIG
2026-03-23 01:50:00,METAR LGIR 230150Z 32010KT 9999 FEW016 BKN020 13/10 Q1010 NOSIG
2026-03-23 01:20:00,METAR LGIR 230120Z 32010KT 9999 FEW016 BKN020 13/10 Q1010 NOSIG
2026-03-23 00:50:00,METAR LGIR 230050Z 32011KT 9999 FEW016 BKN020 13/10 Q1010 NOSIG
2026-03-23 00:20:00,METAR LGIR 230020Z 32010KT 9999 FEW016 BKN020 13/10 Q1010 NOSIG
2026-03-22 23:50:00,METAR LGIR 222350Z 33011KT 9999 FEW016 BKN020 13/10 Q1010 NOSIG
2026-03-22 23:20:00,METAR LGIR 222320Z 27006KT 9999 FEW016 BKN020 12/10 Q1011 NOSIG
2026-03-22 22:50:00,METAR LGIR 222250Z 23004KT 9999 FEW016 BKN020 12/10 Q1011 NOSIG
2026-03-22 22:20:00,METAR LGIR 222220Z 29004KT 9999 FEW016 BKN020 BKN080 12/10 Q1011 NOSIG
2026-03-22 21:50:00,METAR LGIR 222150Z 30010KT 9999 FEW016 BKN020 BKN080 12/10 Q1011 NOSIG
2026-03-22 21:20:00,METAR LGIR 222120Z 31011KT 9999 FEW016 BKN020 BKN080 12/10 Q1011 NOSIG
2026-03-22 20:50:00,METAR LGIR 222050Z 33008KT 9999 FEW016 BKN020 BKN080 12/10 Q1011 NOSIG
2026-03-22 20:20:00,METAR LGIR 222020Z 33012KT 9999 FEW016 BKN020 BKN080 13/10 Q1011 NOSIG
2026-03-22 19:50:00,METAR LGIR 221950Z 33014KT 9999 FEW016 BKN020 BKN080 13/10 Q1011 NOSIG
2026-03-22 19:20:00,METAR LGIR 221920Z 33014KT 9999 FEW016 BKN020 BKN080 13/10 Q1011 NOSIG
2026-03-22 18:50:00,METAR LGIR 221850Z 33016KT 9999 FEW016 BKN020 BKN080 13/10 Q1011 NOSIG
2026-03-22 18:20:00,METAR LGIR 221820Z 31012KT 9999 FEW016 BKN020 BKN080 14/11 Q1010 NOSIG
2026-03-22 17:50:00,METAR LGIR 221750Z 32011KT 9999 FEW016 BKN020 BKN080 12/10 Q1010 NOSIG
2026-03-22 17:20:00,METAR LGIR 221720Z 32012KT 9999 FEW016 BKN020 BKN080 12/10 Q1010 NOSIG
2026-03-22 16:50:00,METAR LGIR 221650Z 33012KT 9999 FEW016 BKN020 BKN080 12/10 Q1010 NOSIG
2026-03-22 16:20:00,METAR LGIR 221620Z 28014KT 9999 -RA FEW016 BKN020 BKN080 12/08 Q1010 NOSIG
2026-03-22 15:50:00,METAR LGIR 221550Z 32017KT 9999 FEW016 BKN020 BKN080 13/10 Q1010 NOSIG
2026-03-22 15:20:00,METAR LGIR 221520Z 32013KT 9999 FEW016 BKN020 BKN080 13/10 Q1010 NOSIG
2026-03-22 14:50:00,METAR LGIR 221450Z 31014KT 9999 FEW016 BKN020 BKN080 13/10 Q1010 NOSIG
2026-03-22 14:20:00,METAR LGIR 221420Z 27009KT 9999 FEW016 BKN020 BKN080 13/10 Q1010 NOSIG
2026-03-22 13:50:00,METAR LGIR 221350Z 31013KT 9999 FEW016 BKN020 BKN080 13/10 Q1010 NOSIG
2026-03-22 13:20:00,METAR LGIR 221320Z 32018KT 9999 -RA FEW016 BKN020 BKN080 13/10 Q1010 NOSIG
2026-03-22 12:50:00,METAR LGIR 221250Z 30014KT 9999 -RA FEW016 BKN020 BKN080 14/09 Q1010 NOSIG
2026-03-22 12:20:00,METAR LGIR 221220Z 32016KT 9999 FEW016 BKN020 BKN080 14/10 Q1010 NOSIG
2026-03-22 11:50:00,METAR LGIR 221150Z 31016KT 9999 FEW016 BKN020 BKN080 14/10 Q1010 NOSIG
2026-03-22 11:20:00,METAR LGIR 221120Z 31016KT 9999 FEW016 BKN020 BKN080 14/08 Q1010 NOSIG
2026-03-22 10:50:00,METAR LGIR 221050Z 31016KT 9999 FEW016 BKN020 BKN080 14/08 Q1010 NOSIG
2026-03-22 10:20:00,METAR LGIR 221020Z 30017KT 9999 FEW016 BKN020 BKN080 13/08 Q1010 NOSIG
2026-03-22 09:50:00,METAR LGIR 220950Z 32017KT 9999 FEW016 BKN020 BKN080 13/08 Q1010 NOSIG
2026-03-22 09:20:00,METAR LGIR 220920Z 33017KT 8000 -RA FEW016 BKN020 BKN080 13/09 Q1010 NOSIG
2026-03-22 08:50:00,METAR LGIR 220850Z 32016KT 9999 FEW016 BKN020 14/09 Q1010 NOSIG
2026-03-22 07:50:00,METAR LGIR 220750Z 31018KT 9999 -RA FEW016 BKN020 BKN080 13/09 Q1010 NOSIG
2026-03-22 07:20:00,METAR LGIR 220720Z 31017KT 9999 FEW016 BKN020 BKN080 13/08 Q1010 NOSIG
2026-03-22 06:50:00,METAR LGIR 220650Z 31016KT 9999 FEW016 BKN020 BKN080 13/08 Q1010 NOSIG
2026-03-22 06:20:00,METAR LGIR 220620Z 31015KT 9999 FEW016 BKN020 BKN080 13/08 Q1010 NOSIG
2026-03-22 05:50:00,METAR LGIR 220550Z 32017KT 9999 FEW016 BKN020 BKN080 13/08 Q1010 NOSIG
2026-03-22 05:20:00,METAR LGIR 220520Z 32012KT 9999 -RA FEW016 BKN020 BKN080 12/08 Q1010 NOSIG
2026-03-22 04:50:00,METAR LGIR 220450Z 32015KT 9999 FEW016 BKN020 BKN080 12/08 Q1009 NOSIG
2026-03-22 04:20:00,METAR LGIR 220420Z 32018KT 9999 FEW016 BKN020 BKN080 12/09 Q1009 NOSIG
2026-03-22 03:50:00,METAR LGIR 220350Z 31016KT 9999 FEW016 BKN020 12/10 Q1009 NOSIG
2026-03-22 03:20:00,METAR LGIR 220320Z 32018KT 9999 FEW016 BKN020 12/09 Q1009 NOSIG
2026-03-22 02:50:00,METAR LGIR 220250Z 33018KT 9999 FEW016 BKN020 12/09 Q1009 NOSIG
2026-03-22 02:20:00,METAR LGIR 220220Z 33020KT 9999 FEW016 BKN020 13/08 Q1009 NOSIG
2026-03-22 01:50:00,METAR LGIR 220150Z 32017KT 9999 FEW016 BKN020 13/08 Q1008 NOSIG
2026-03-22 01:20:00,METAR LGIR 220120Z 32018KT 9999 FEW016 BKN020 13/09 Q1008 NOSIG
2026-03-22 00:50:00,METAR LGIR 220050Z 35017KT 9999 FEW016 BKN020 12/08 Q1008 NOSIG
2026-03-22 00:20:00,METAR LGIR 220020Z 32020KT 9999 FEW016 BKN020 13/08 Q1008 NOSIG
2026-03-21 23:50:00,METAR LGIR 212350Z 32020KT 9999 FEW016 BKN020 13/08 Q1009 NOSIG
2026-03-21 23:20:00,METAR LGIR 212320Z 32019KT 9999 FEW016 BKN020 13/08 Q1009 NOSIG
2026-03-21 22:50:00,METAR LGIR 212250Z 32020KT 9999 FEW016 BKN020 13/09 Q1009 NOSIG
2026-03-21 22:20:00,METAR LGIR 212220Z 32019KT 9999 FEW010 FEW016TCU BKN020 13/09 Q1009 NOSIG
2026-03-21 21:50:00,METAR LGIR 212150Z 35017KT 9999 FEW010 FEW016TCU BKN020 BKN080 12/10 Q1009 NOSIG
2026-03-21 21:20:00,METAR LGIR 212120Z 34017KT 9999 FEW010 FEW016TCU BKN020 BKN080 12/10 Q1009 NOSIG
2026-03-21 20:50:00,METAR LGIR 212050Z 35017KT 9999 FEW010 FEW016TCU BKN020 BKN080 12/09 Q1009 NOSIG
2026-03-21 20:20:00,METAR LGIR 212020Z 36014KT 9999 -RA FEW016TCU BKN020 BKN080 11/09 Q1009 RERA NOSIG
2026-03-21 19:50:00,METAR LGIR 211950Z 35017KT 9999 FEW016TCU BKN020 BKN080 11/09 Q1009 REDZ NOSIG
2026-03-21 19:20:00,METAR LGIR 211920Z 34023KT 9999 DZ FEW016TCU BKN020 BKN080 11/09 Q1009 NOSIG
2026-03-21 18:50:00,METAR LGIR 211850Z 33024KT 9999 FEW016TCU BKN020 BKN080 12/08 Q1008 NOSIG
2026-03-21 18:20:00,METAR LGIR 211820Z 34023KT 9999 FEW016 BKN020 BKN080 13/08 Q1008 NOSIG
2026-03-21 17:50:00,METAR LGIR 211750Z 32024KT 9999 FEW016 BKN025 BKN080 13/08 Q1008 NOSIG
2026-03-21 17:20:00,METAR LGIR 211720Z 32023KT 9999 FEW016 BKN025 BKN080 12/08 Q1007 NOSIG
2026-03-21 16:50:00,METAR LGIR 211650Z 33024KT 9999 FEW016 BKN025 BKN080 12/08 Q1007 NOSIG
2026-03-21 16:20:00,METAR LGIR 211620Z 32022KT 9999 -RA FEW016 BKN025 BKN080 12/08 Q1007 NOSIG
2026-03-21 15:50:00,METAR LGIR 211550Z 32021KT 9999 FEW016 BKN025 BKN080 12/08 Q1007 NOSIG
2026-03-21 14:50:00,METAR LGIR 211450Z 32022KT 9999 FEW016 BKN025 BKN080 12/08 Q1006 NOSIG
2026-03-21 14:20:00,METAR LGIR 211420Z 34020KT 8000 -RA FEW016 BKN025 BKN080 12/08 Q1006 NOSIG
2026-03-21 13:50:00,METAR LGIR 211350Z 32020KT 9999 FEW016 BKN025 BKN080 13/07 Q1006 NOSIG
2026-03-21 13:20:00,METAR LGIR 211320Z 32020KT 9999 FEW016 BKN025 BKN080 13/07 Q1006 NOSIG
2026-03-21 12:50:00,METAR LGIR 211250Z 32020KT 9999 FEW016 BKN025 BKN080 13/07 Q1006 NOSIG
2026-03-21 12:20:00,METAR LGIR 211220Z 30020KT 9999 FEW016 BKN025 BKN080 12/08 Q1006 NOSIG
2026-03-21 11:50:00,METAR LGIR 211150Z 32020KT 9999 FEW016 BKN025 BKN080 12/08 Q1006 NOSIG
2026-03-21 11:20:00,METAR LGIR 211120Z 31020KT 9999 -RA FEW016 BKN025 BKN080 12/08 Q1006 NOSIG
2026-03-21 10:50:00,METAR LGIR 211050Z 32015KT 9999 FEW015 BKN025 BKN080 12/08 Q1006 NOSIG
2026-03-21 10:20:00,METAR LGIR 211020Z 33022KT 9999 FEW015 BKN025 BKN080 12/08 Q1007 NOSIG
2026-03-21 09:50:00,METAR LGIR 210950Z 32015KT 9999 FEW015 BKN025 BKN080 12/08 Q1007 NOSIG
2026-03-21 09:20:00,METAR LGIR 210920Z 32020KT 9999 FEW015 BKN025 BKN080 12/08 Q1007 NOSIG
2026-03-21 08:50:00,METAR LGIR 210850Z 30018KT 9999 FEW015 BKN025 BKN080 12/08 Q1006 NOSIG
2026-03-21 08:20:00,METAR LGIR 210820Z 30010KT 9000 -RA FEW015 BKN025 BKN080 10/08 Q1006 NOSIG
2026-03-21 07:50:00,METAR LGIR 210750Z COR 30014KT 8000 -RA FEW015 BKN025 BKN080 11/08 Q1006 NOSIG
2026-03-21 07:20:00,METAR LGIR 210720Z 30020G30KT 9000 RA FEW015 BKN025 BKN080 11/07 Q1006 NOSIG
2026-03-21 06:50:00,METAR LGIR 210650Z 33019G29KT 8000 RA FEW015 BKN025 BKN080 11/06 Q1006 NOSIG
2026-03-21 06:20:00,METAR LGIR 210620Z 32022KT 9999 FEW015 BKN025 BKN080 11/06 Q1006 NOSIG
2026-03-21 05:50:00,METAR LGIR 210550Z 33022KT 9999 FEW015 BKN025 BKN080 11/06 Q1006 NOSIG
2026-03-21 05:20:00,METAR LGIR 210520Z 32018KT 9999 -RA FEW015 BKN025 BKN080 11/08 Q1005 NOSIG
2026-03-21 04:50:00,METAR LGIR 210450Z 33023KT 9999 -RA FEW015 BKN025 BKN080 11/08 Q1005 NOSIG
2026-03-21 04:20:00,METAR LGIR 210420Z 33020KT 9999 FEW012 FEW020TCU BKN025 BKN080 11/07 Q1005 NOSIG
2026-03-21 03:50:00,METAR LGIR 210350Z 33021KT 9999 FEW012 FEW020TCU BKN025 BKN080 11/07 Q1005 NOSIG
2026-03-21 03:20:00,METAR LGIR 210320Z 33021KT 9999 FEW012 FEW020TCU BKN025 BKN080 12/07 Q1005 NOSIG
2026-03-21 02:50:00,METAR LGIR 210250Z 33023KT 9999 FEW012 FEW020TCU BKN025 BKN080 12/07 Q1005 NOSIG
2026-03-21 02:20:00,METAR LGIR 210220Z 32022KT 9999 FEW012 FEW020TCU BKN025 BKN080 12/07 Q1005 NOSIG
2026-03-21 01:50:00,METAR LGIR 210150Z 32022KT 9999 FEW012 FEW020TCU BKN025 BKN080 12/07 Q1005 NOSIG
2026-03-21 01:20:00,METAR LGIR 210120Z 31015G25KT 9999 FEW012 FEW020TCU BKN025 12/07 Q1005 NOSIG
2026-03-21 00:50:00,METAR LGIR 210050Z 31015G25KT 9999 FEW012 FEW020TCU BKN025 12/07 Q1005 NOSIG
2026-03-21 00:20:00,METAR LGIR 210020Z 32025G35KT 9999 FEW012 FEW020TCU BKN025 12/07 Q1005 NOSIG
2026-03-20 23:50:00,METAR LGIR 202350Z 32015G25KT 9999 FEW012 FEW020TCU BKN025 12/07 Q1006 NOSIG
2026-03-20 23:20:00,METAR LGIR 202320Z 33022KT 9999 FEW012 FEW020TCU BKN025 12/07 Q1006 NOSIG
2026-03-20 22:50:00,METAR LGIR 202250Z 32015G25KT 9999 FEW012 FEW020TCU BKN025 12/07 Q1006 NOSIG
2026-03-20 22:20:00,METAR LGIR 202220Z 33016G26KT 9999 FEW012 FEW020TCU BKN025 12/07 Q1006 NOSIG
2026-03-20 21:50:00,METAR LGIR 202150Z 33016G26KT 9999 FEW012 FEW020TCU BKN025 12/07 Q1006 NOSIG
2026-03-20 21:20:00,METAR LGIR 202120Z 32020KT 9000 FEW012 FEW020TCU BKN025 12/08 Q1006 NOSIG
2026-03-20 19:50:00,METAR LGIR 201950Z 33020G30KT 9000 FEW012 FEW020TCU BKN025 12/08 Q1006 NOSIG
2026-03-20 19:20:00,METAR LGIR 201920Z 32022G32KT 9000 FEW012 FEW020TCU BKN025 BKN080 12/08 Q1006 NOSIG
2026-03-20 18:20:00,METAR LGIR 201820Z 34022KT 9000 FEW012 FEW020TCU BKN025 BKN080 11/09 Q1006 NOSIG
2026-03-20 17:50:00,METAR LGIR 201750Z 33025G35KT 9000 -RA FEW012 FEW020TCU BKN025 BKN080 11/09 Q1006 NOSIG
2026-03-20 17:20:00,METAR LGIR 201720Z 31025KT 9000 FEW012 FEW020TCU BKN025 BKN080 12/08 Q1006 NOSIG
2026-03-20 16:50:00,METAR LGIR 201650Z 32025KT 9000 FEW012 FEW020TCU BKN025 BKN080 12/08 Q1006 NOSIG
2026-03-20 16:20:00,METAR LGIR 201620Z 32026KT 9000 FEW012 SCT020TCU BKN025 12/09 Q1005 NOSIG
2026-03-20 15:50:00,METAR LGIR 201550Z 32027G38KT 9000 -RA FEW012 SCT020TCU BKN025 12/09 Q1005 NOSIG
2026-03-20 15:20:00,METAR LGIR 201520Z 33024G34KT 8000 RA FEW012 SCT020TCU BKN025 11/09 Q1005 NOSIG
2026-03-20 14:50:00,METAR LGIR 201450Z 33024G36KT 8000 -RA FEW012 SCT020TCU BKN025 11/09 Q1005 NOSIG
2026-03-20 14:20:00,METAR LGIR 201420Z 32024KT 9000 -RA FEW012 SCT020TCU BKN025 12/09 Q1005 NOSIG
2026-03-20 13:50:00,METAR LGIR 201350Z 32029G39KT 9000 -RA FEW012 SCT020TCU BKN025 11/10 Q1005 NOSIG
2026-03-20 13:20:00,METAR LGIR 201320Z 33024G34KT 9000 -RA FEW012 SCT020TCU BKN025 12/10 Q1004 NOSIG
2026-03-20 12:50:00,METAR LGIR 201250Z 31026G36KT 9000 FEW012 SCT020TCU BKN025 12/10 Q1004 NOSIG
2026-03-20 12:20:00,METAR LGIR 201220Z 31027KT 9000 -RA FEW012 SCT020TCU BKN025 11/09 Q1004 NOSIG
2026-03-20 11:50:00,METAR LGIR 201150Z 31026KT 9000 -RA FEW012 SCT020TCU BKN025 12/10 Q1004 NOSIG
2026-03-20 11:20:00,METAR LGIR 201120Z 31026KT 9000 -RA FEW012 SCT020TCU BKN025 12/10 Q1004 NOSIG
2026-03-20 10:50:00,METAR LGIR 201050Z 32024KT 9000 FEW012 SCT020TCU BKN025 13/09 Q1004 NOSIG
2026-03-20 10:20:00,METAR LGIR 201020Z 33019G29KT 9000 FEW012 SCT020TCU BKN025 12/09 Q1004 NOSIG
2026-03-20 09:50:00,METAR LGIR 200950Z 32024KT 9000 FEW012 SCT020TCU BKN025 12/09 Q1004 NOSIG
2026-03-20 09:20:00,METAR LGIR 200920Z 33023G33KT 8000 -RA FEW012 SCT020TCU BKN025 11/09 Q1004 NOSIG
2026-03-20 08:50:00,METAR LGIR 200850Z 33022KT 9000 -RA FEW012 SCT020TCU BKN025 12/09 Q1004 NOSIG
2026-03-20 08:20:00,METAR LGIR 200820Z 31024KT 9000 -RA FEW012 SCT020TCU BKN025 11/10 Q1004 NOSIG
2026-03-20 07:50:00,METAR LGIR 200750Z 33023G33KT 9000 -RA FEW012 SCT020TCU BKN025 12/10 Q1003 NOSIG
2026-03-20 07:20:00,METAR LGIR 200720Z COR 33024KT 9000 -RA FEW012 SCT020TCU BKN025 12/10 Q1003 NOSIG
2026-03-20 06:50:00,METAR LGIR 200650Z 34024KT 9000 -RA FEW012 SCT020TCU BKN025 12/10 Q1002 NOSIG
2026-03-20 06:20:00,METAR LGIR 200620Z 33024KT 8000 -RA FEW012 SCT020TCU BKN025 12/10 Q1002 NOSIG
2026-03-20 05:50:00,METAR LGIR 200550Z 33027G37KT 7000 -RA SCT010 FEW018CB SCT020TCU BKN070 12/10 Q1001 NOSIG
2026-03-20 05:20:00,METAR LGIR 200520Z 34020G30KT 6000 -RA SCT010 FEW018CB SCT020TCU BKN070 11/10 Q1001 RETS NOSIG
2026-03-20 04:50:00,METAR LGIR 200450Z 34023G33KT 3000 TSRA SCT010 FEW018CB BKN020 BKN080 11/10 Q1000 NOSIG
2026-03-20 04:20:00,METAR LGIR 200420Z 30017KT 3000 TSRA SCT010 FEW018CB BKN020 BKN080 10/09 Q1000 NOSIG
2026-03-20 03:50:00,METAR LGIR 200350Z 31013KT 7000 -TSRA FEW010 FEW018CB BKN020 BKN080 11/10 Q1000 NOSIG
2026-03-20 03:20:00,METAR LGIR 200320Z 25008KT 6000 -RA FEW010 FEW018TCU BKN020 BKN080 11/10 Q1000 NOSIG
2026-03-20 02:50:00,METAR LGIR 200250Z 16004KT 9999 FEW010 FEW018TCU BKN020 BKN080 11/10 Q1000 NOSIG
2026-03-20 02:20:00,METAR LGIR 200220Z 15005KT 9999 FEW010 FEW018TCU BKN020 BKN080 11/10 Q1000 NOSIG
2026-03-20 01:50:00,METAR LGIR 200150Z 14003KT 5000 -RA FEW010 FEW018TCU BKN020 BKN080 11/10 Q1000 NOSIG
2026-03-20 01:20:00,METAR LGIR 200120Z 00000KT 5000 -RA FEW010 FEW018TCU BKN020 BKN080 11/10 Q1001 NOSIG
2026-03-20 00:50:00,METAR LGIR 200050Z 18003KT 6000 -RA FEW010 FEW018TCU BKN020 BKN080 11/10 Q1001 NOSIG
2026-03-20 00:20:00,METAR LGIR 200020Z 17006KT 7000 -RA FEW010 BKN020 BKN080 11/10 Q1002 NOSIG
2026-03-19 23:50:00,METAR LGIR 192350Z 17006KT 7000 -RA FEW012 BKN020 BKN080 11/10 Q1002 NOSIG
2026-03-19 23:20:00,METAR LGIR 192320Z 16005KT 9000 -RA FEW012 SCT020 11/10 Q1003 NOSIG
2026-03-19 22:50:00,METAR LGIR 192250Z 16006KT 9999 FEW012 SCT020 11/10 Q1003 NOSIG
2026-03-19 22:20:00,METAR LGIR 192220Z 16006KT 9999 FEW012 BKN020 SCT070 11/10 Q1004 NOSIG
2026-03-19 21:50:00,METAR LGIR 192150Z 17004KT 9999 FEW012 BKN020 BKN070 12/10 Q1004 NOSIG
2026-03-19 21:20:00,METAR LGIR 192120Z 16005KT 9999 FEW012 BKN020 BKN070 12/10 Q1005 NOSIG
2026-03-19 20:50:00,METAR LGIR 192050Z 16005KT 9999 FEW012 BKN020 BKN070 12/11 Q1005 NOSIG
2026-03-19 20:20:00,METAR LGIR 192020Z 17004KT 9999 FEW012 BKN020 BKN070 13/10 Q1006 NOSIG
2026-03-19 19:50:00,METAR LGIR 191950Z 19004KT 9999 FEW012 BKN020 BKN070 13/10 Q1006 NOSIG
2026-03-19 19:20:00,METAR LGIR 191920Z 25006KT 9999 FEW012 BKN020 13/10 Q1006 NOSIG
2026-03-19 18:50:00,METAR LGIR 191850Z 32010KT 9999 FEW012 BKN020 14/09 Q1006 NOSIG
2026-03-19 18:20:00,METAR LGIR 191820Z 31007KT 9999 FEW012 BKN020 BKN070 14/09 Q1006 NOSIG
2026-03-19 17:50:00,METAR LGIR 191750Z 32011KT 9999 FEW012 BKN020 BKN070 14/09 Q1006 NOSIG
2026-03-19 17:20:00,METAR LGIR 191720Z 31012KT 9999 FEW012 BKN020 BKN070 14/09 Q1006 NOSIG
2026-03-19 16:50:00,METAR LGIR 191650Z 31013KT 9999 FEW012 BKN020 BKN070 14/10 Q1006 NOSIG
2026-03-19 16:20:00,METAR LGIR 191620Z 31013KT 9999 FEW012 BKN020 BKN070 14/10 Q1006 NOSIG
2026-03-19 15:50:00,METAR LGIR 191550Z 31013KT 9999 FEW012 BKN020 BKN070 14/10 Q1006 NOSIG
2026-03-19 15:20:00,METAR LGIR 191520Z 31014KT 9999 FEW012 BKN020 BKN070 14/10 Q1006 NOSIG
2026-03-19 14:50:00,METAR LGIR 191450Z 32014KT 9999 FEW012 BKN020 BKN070 14/10 Q1006 NOSIG
2026-03-19 14:20:00,METAR LGIR 191420Z 32015KT 9999 FEW012 BKN020 BKN070 15/10 Q1006 NOSIG
2026-03-19 13:50:00,METAR LGIR 191350Z 32015KT 9999 FEW012 BKN020 BKN070 15/10 Q1007 NOSIG
2026-03-19 13:20:00,METAR LGIR 191320Z 32015KT 9999 FEW012 BKN020 BKN070 15/10 Q1007 NOSIG
2026-03-19 12:50:00,METAR LGIR 191250Z 32014KT 9999 FEW012 BKN020 BKN070 15/10 Q1007 NOSIG
2026-03-19 12:20:00,METAR LGIR 191220Z 33015KT 9999 FEW012 BKN020 BKN070 15/10 Q1007 NOSIG
2026-03-19 11:50:00,METAR LGIR 191150Z 33015KT 9999 FEW012 BKN020 BKN070 15/10 Q1007 NOSIG
2026-03-19 11:20:00,METAR LGIR 191120Z 33015KT 9999 FEW012 BKN020 BKN070 15/10 Q1007 NOSIG
2026-03-19 10:50:00,METAR LGIR 191050Z 33016KT 9999 FEW012 BKN020 BKN070 15/10 Q1007 NOSIG
2026-03-19 10:20:00,METAR LGIR 191020Z 33017KT 9999 FEW012 BKN020 BKN070 15/09 Q1008 NOSIG
2026-03-19 09:50:00,METAR LGIR 190950Z 33017KT 9999 FEW012 BKN020 BKN070 15/10 Q1008 NOSIG
2026-03-19 09:20:00,METAR LGIR 190920Z 34016KT 9999 FEW012 BKN020 BKN070 15/10 Q1008 NOSIG
2026-03-19 08:50:00,METAR LGIR 190850Z 33016KT 9999 FEW012 BKN020 BKN070 15/10 Q1008 NOSIG
2026-03-19 08:20:00,METAR LGIR 190820Z 34015KT 9999 FEW012 BKN020 BKN070 15/11 Q1008 NOSIG
2026-03-19 07:50:00,METAR LGIR 190750Z 34016KT 9999 FEW012 BKN020 BKN070 15/11 Q1007 NOSIG
2026-03-19 07:20:00,METAR LGIR 190720Z 34016KT 9999 FEW012 SCT020 BKN070 15/11 Q1007 NOSIG
2026-03-19 06:50:00,METAR LGIR 190650Z 34017KT 9999 FEW012 SCT020 BKN070 15/11 Q1007 NOSIG
2026-03-19 06:20:00,METAR LGIR 190620Z 34017KT 9999 FEW010 BKN020 14/11 Q1007 NOSIG
2026-03-19 05:50:00,METAR LGIR 190550Z 34019KT 9999 FEW010 FEW016TCU BKN020 14/12 Q1006 NOSIG
2026-03-19 05:20:00,METAR LGIR 190520Z 35017KT 9999 FEW010 FEW016TCU BKN020 14/12 Q1006 NOSIG
2026-03-19 04:50:00,METAR LGIR 190450Z 34014KT 9999 -RA FEW010 BKN020 14/13 Q1006 NOSIG
2026-03-19 04:20:00,METAR LGIR 190420Z 36010KT 9999 -RA FEW010 BKN020 14/13 Q1006 NOSIG
2026-03-19 03:50:00,METAR LGIR 190350Z 16006KT 9999 FEW010 BKN020 12/12 Q1006 NOSIG
2026-03-19 02:50:00,METAR LGIR 190250Z 23003KT 9999 SCT020 12/11 Q1006 NOSIG
2026-03-19 02:20:00,METAR LGIR 190220Z 21004KT 9999 SCT020 12/11 Q1006 NOSIG
2026-03-19 01:50:00,METAR LGIR 190150Z 19003KT 9999 SCT020 12/11 Q1006 NOSIG
2026-03-19 01:20:00,METAR LGIR 190120Z 20004KT 9999 SCT020 12/11 Q1006 NOSIG
2026-03-19 00:50:00,METAR LGIR 190050Z 28005KT 9999 -RA FEW018TCU SCT020 12/11 Q1006 NOSIG
2026-03-19 00:20:00,METAR LGIR 190020Z 23003KT 9999 FEW018TCU BKN020 13/11 Q1006 NOSIG
2026-03-18 23:50:00,METAR LGIR 182350Z 27004KT 9999 FEW018TCU BKN020 13/11 Q1007 NOSIG
2026-03-18 23:20:00,METAR LGIR 182320Z 19004KT 9999 FEW018TCU SCT020 12/11 Q1007 NOSIG
2026-03-18 22:50:00,METAR LGIR 182250Z 26006KT 9999 FEW018TCU SCT020 13/10 Q1007 NOSIG
2026-03-18 22:20:00,METAR LGIR 182220Z 27010KT 9999 FEW018TCU SCT020 13/09 Q1007 NOSIG
2026-03-18 21:50:00,METAR LGIR 182150Z 29010KT 9999 FEW018TCU SCT020 13/09 Q1007 NOSIG
2026-03-18 21:20:00,METAR LGIR 182120Z 29012KT 9999 FEW018TCU SCT020 13/09 Q1007 NOSIG
2026-03-18 20:50:00,METAR LGIR 182050Z 29007KT 9999 FEW018TCU SCT020 13/09 Q1007 NOSIG
2026-03-18 20:20:00,METAR LGIR 182020Z 25006KT 9999 FEW018TCU SCT020 BKN080 13/08 Q1007 NOSIG
2026-03-18 19:50:00,METAR LGIR 181950Z 19004KT 9999 FEW018TCU SCT020 BKN080 13/08 Q1007 NOSIG
2026-03-18 19:20:00,METAR LGIR 181920Z 24004KT 9999 FEW018TCU SCT020 BKN080 13/09 Q1007 NOSIG
2026-03-18 18:50:00,METAR LGIR 181850Z 20004KT 9999 FEW018TCU SCT020 BKN080 13/09 Q1007 NOSIG
2026-03-18 18:20:00,METAR LGIR 181820Z 10002KT 9999 FEW018TCU SCT020 BKN080 14/09 Q1006 NOSIG
2026-03-18 17:50:00,METAR LGIR 181750Z 36002KT 9999 FEW018TCU SCT020 BKN080 14/09 Q1006 NOSIG
2026-03-18 17:20:00,METAR LGIR 181720Z VRB02KT 9999 FEW018TCU SCT020 BKN080 15/09 Q1005 NOSIG
2026-03-18 16:50:00,METAR LGIR 181650Z 17014KT 9999 FEW018TCU SCT020 15/10 Q1005 NOSIG
2026-03-18 16:20:00,METAR LGIR 181620Z 17016KT 9999 FEW018TCU SCT020 17/11 Q1004 NOSIG
2026-03-18 15:50:00,METAR LGIR 181550Z 21010KT 9999 FEW018TCU SCT020 17/11 Q1004 NOSIG
2026-03-18 15:20:00,METAR LGIR 181520Z COR 17014KT 9999 FEW018TCU SCT020 18/12 Q1004 NOSIG
2026-03-18 14:50:00,METAR LGIR 181450Z 17010G20KT 9999 FEW018TCU SCT020 19/12 Q1003 NOSIG
2026-03-18 14:20:00,METAR LGIR 181420Z 17012KT 9999 FEW018TCU SCT020 19/12 Q1003 NOSIG
2026-03-18 13:50:00,METAR LGIR 181350Z 15015KT 9999 FEW018TCU SCT020 19/12 Q1004 NOSIG
2026-03-18 13:20:00,METAR LGIR 181320Z 16010KT 9999 FEW018TCU SCT020 18/12 Q1003 NOSIG
2026-03-18 12:50:00,METAR LGIR 181250Z 17010G20KT 9999 FEW018TCU SCT020 18/12 Q1004 NOSIG
2026-03-18 12:20:00,METAR LGIR 181220Z 17010G20KT 9999 FEW018TCU SCT020 20/11 Q1003 NOSIG
2026-03-18 11:50:00,METAR LGIR 181150Z 17015G25KT 9999 SCT020 22/09 Q1004 NOSIG
2026-03-18 11:20:00,METAR LGIR 181120Z 17015G30KT 9999 FEW020 22/08 Q1004 NOSIG
2026-03-18 10:50:00,METAR LGIR 181050Z 17010G20KT 9999 FEW020 22/08 Q1004 NOSIG
2026-03-18 10:20:00,METAR LGIR 181020Z 16015KT 9999 FEW020TCU 22/08 Q1004 NOSIG
2026-03-18 09:50:00,METAR LGIR 180950Z 10006KT 9999 FEW020TCU 22/09 Q1004 NOSIG
2026-03-18 09:20:00,METAR LGIR 180920Z 10004KT 9999 FEW020 20/11 Q1005 NOSIG
2026-03-18 08:50:00,METAR LGIR 180850Z 12004KT 9999 FEW020 19/12 Q1005 NOSIG
2026-03-18 08:20:00,METAR LGIR 180820Z 05003KT 9999 FEW010 FEW018TCU 18/13 Q1005 NOSIG
2026-03-18 07:50:00,METAR LGIR 180750Z 00000KT 9999 FEW010 FEW018TCU 18/13 Q1005 NOSIG
2026-03-18 07:20:00,METAR LGIR 180720Z VRB03KT 9999 FEW010 FEW018TCU 15/11 Q1005 NOSIG
2026-03-18 06:50:00,METAR LGIR 180650Z 20003KT 9999 FEW010 FEW018TCU 16/11 Q1005 NOSIG
2026-03-18 06:20:00,METAR LGIR 180620Z 20004KT 9999 FEW020 16/12 Q1005 NOSIG
2026-03-18 05:50:00,METAR LGIR 180550Z 17006KT 9999 FEW020 13/09 Q1005 NOSIG
2026-03-18 05:20:00,METAR LGIR 180520Z 19006KT 9999 FEW020 11/09 Q1005 NOSIG
2026-03-18 04:50:00,METAR LGIR 180450Z 19006KT 9999 FEW020 10/08 Q1005 NOSIG
2026-03-18 04:20:00,METAR LGIR 180420Z 18006KT 9999 FEW020 10/08 Q1005 NOSIG
2026-03-18 03:50:00,METAR LGIR 180350Z 17010KT 9999 FEW020 10/08 Q1005 NOSIG
2026-03-18 03:20:00,METAR LGIR 180320Z 19006KT 9999 SCT020 11/08 Q1005 NOSIG
2026-03-18 02:50:00,METAR LGIR 180250Z 18006KT 9999 SCT020 10/08 Q1005 NOSIG
2026-03-18 02:20:00,METAR LGIR 180220Z 20004KT 9999 SCT020 12/08 Q1005 NOSIG
2026-03-18 01:50:00,METAR LGIR 180150Z 21006KT 9999 SCT020 12/08 Q1005 NOSIG
2026-03-18 01:20:00,METAR LGIR 180120Z 23004KT 9999 FEW020 11/08 Q1005 NOSIG
2026-03-18 00:50:00,METAR LGIR 180050Z 19004KT 9999 FEW020 10/08 Q1006 NOSIG
2026-03-18 00:20:00,METAR LGIR 180020Z 18005KT 9999 FEW020 10/08 Q1006 NOSIG
2026-03-17 23:50:00,METAR LGIR 172350Z 18006KT 9999 FEW020 SCT080 10/08 Q1006 NOSIG
2026-03-17 23:20:00,METAR LGIR 172320Z 18005KT 9999 FEW020 BKN080 11/08 Q1006 NOSIG
2026-03-17 22:50:00,METAR LGIR 172250Z 18005KT 9999 FEW020 BKN080 11/08 Q1007 NOSIG
2026-03-17 22:20:00,METAR LGIR 172220Z 18005KT 9999 FEW020 BKN080 12/09 Q1007 NOSIG
2026-03-17 21:50:00,METAR LGIR 172150Z 17004KT 9999 FEW020 BKN080 12/09 Q1007 NOSIG
2026-03-17 21:20:00,METAR LGIR 172120Z 17005KT 9999 FEW020 BKN080 12/09 Q1007 NOSIG
2026-03-17 20:50:00,METAR LGIR 172050Z 17004KT 9999 FEW020 BKN080 13/10 Q1008 NOSIG
2026-03-17 20:20:00,METAR LGIR 172020Z 15004KT 9999 FEW020 BKN080 14/10 Q1008 NOSIG
2026-03-17 19:50:00,METAR LGIR 171950Z 07009KT 9999 FEW020 BKN080 15/09 Q1008 NOSIG
2026-03-17 19:20:00,METAR LGIR 171920Z 06010KT 9999 FEW020 BKN080 15/09 Q1008 NOSIG
2026-03-17 18:50:00,METAR LGIR 171850Z 06012KT 9999 FEW020 BKN080 15/09 Q1008 NOSIG
2026-03-17 18:20:00,METAR LGIR 171820Z 06012KT 9999 FEW020 BKN080 15/11 Q1008 NOSIG
2026-03-17 17:50:00,METAR LGIR 171750Z 06013KT 9999 FEW020 BKN080 15/11 Q1008 NOSIG
2026-03-17 17:20:00,METAR LGIR 171720Z 06012KT 9999 FEW020 BKN080 15/11 Q1008 NOSIG
2026-03-17 16:50:00,METAR LGIR 171650Z 06012KT 9999 FEW020 BKN080 15/11 Q1008 NOSIG
2026-03-17 16:20:00,METAR LGIR 171620Z 07013KT 9999 SCT020 SCT080 15/11 Q1009 NOSIG
2026-03-17 15:50:00,METAR LGIR 171550Z 07010KT 9999 SCT020 SCT080 15/11 Q1009 NOSIG
2026-03-17 14:50:00,METAR LGIR 171450Z 06011KT 9999 SCT020 BKN070 15/12 Q1009 NOSIG
2026-03-17 14:20:00,METAR LGIR 171420Z 05009KT 9999 SCT020 BKN070 15/12 Q1009 NOSIG
2026-03-17 13:50:00,METAR LGIR 171350Z 06011KT 9999 SCT020 BKN070 15/12 Q1010 NOSIG
2026-03-17 13:20:00,METAR LGIR 171320Z 06012KT 9999 -RA SCT020 BKN070 15/12 Q1010 NOSIG
2026-03-17 12:50:00,METAR LGIR 171250Z 05009KT 9999 -RA SCT020 BKN070 15/12 Q1010 NOSIG
2026-03-17 12:20:00,METAR LGIR 171220Z 03005KT 9999 SCT020 BKN070 15/11 Q1011 NOSIG
2026-03-17 11:50:00,METAR LGIR 171150Z 06006KT 9999 SCT020 BKN070 15/11 Q1012 NOSIG
2026-03-17 11:20:00,METAR LGIR 171120Z 08008KT 9999 SCT020 BKN070 15/10 Q1012 NOSIG
2026-03-17 10:50:00,METAR LGIR 171050Z 08009KT 9999 SCT020 BKN070 15/11 Q1012 NOSIG
2026-03-17 10:20:00,METAR LGIR 171020Z 07011KT 9999 SCT020 BKN070 15/12 Q1011 NOSIG
2026-03-17 09:50:00,METAR LGIR 170950Z 01003KT 9999 SCT020 BKN070 16/12 Q1012 NOSIG
2026-03-17 09:20:00,METAR LGIR 170920Z 33004KT 9999 SCT025 BKN070 15/12 Q1012 NOSIG
2026-03-17 08:50:00,METAR LGIR 170850Z 30004KT 9999 SCT025 BKN070 14/11 Q1013 NOSIG
2026-03-17 08:20:00,METAR LGIR 170820Z 01004KT 9999 SCT025 BKN070 14/11 Q1012 NOSIG
2026-03-17 07:50:00,METAR LGIR 170750Z 04003KT 9999 SCT025 BKN070 13/11 Q1012 REDZ NOSIG
2026-03-17 07:20:00,METAR LGIR 170720Z 22005KT 9999 DZ SCT025 BKN070 12/11 Q1013 NOSIG
2026-03-17 06:50:00,METAR LGIR 170650Z 18005KT 9999 FEW020 BKN070 12/10 Q1012 NOSIG
2026-03-17 06:20:00,METAR LGIR 170620Z 17003KT 9999 FEW020 BKN080 12/10 Q1012 NOSIG
2026-03-17 05:50:00,METAR LGIR 170550Z 17005KT 9999 FEW020 BKN080 11/09 Q1012 NOSIG
2026-03-17 05:20:00,METAR LGIR 170520Z 18005KT 9999 FEW020 SCT080 11/09 Q1013 NOSIG
2026-03-17 04:50:00,METAR LGIR 170450Z 18006KT 9999 SCT020 SCT080 11/10 Q1013 NOSIG
2026-03-17 04:20:00,METAR LGIR 170420Z 18006KT 9999 FEW020 SCT080 10/09 Q1013 NOSIG
2026-03-17 03:50:00,METAR LGIR 170350Z 17004KT 9999 FEW020 SCT080 10/09 Q1013 NOSIG
2026-03-17 03:20:00,METAR LGIR 170320Z 18006KT 9999 FEW020 09/08 Q1013 NOSIG
2026-03-17 02:50:00,METAR LGIR 170250Z 18006KT 9999 FEW020 09/08 Q1013 NOSIG
2026-03-17 02:20:00,METAR LGIR 170220Z 17006KT 9999 FEW020 09/08 Q1013 NOSIG
2026-03-17 01:50:00,METAR LGIR 170150Z 17006KT 9999 FEW020 09/08 Q1013 NOSIG
2026-03-17 01:20:00,METAR LGIR 170120Z 18004KT 9999 FEW020 09/08 Q1013 NOSIG
2026-03-17 00:50:00,METAR LGIR 170050Z 18004KT 9999 FEW020 09/08 Q1013 NOSIG
2026-03-17 00:20:00,METAR LGIR 170020Z 18006KT 9999 FEW020 10/09 Q1013 NOSIG
2026-03-16 23:50:00,METAR LGIR 162350Z 17006KT 9999 FEW020 10/09 Q1014 NOSIG
2026-03-16 23:20:00,METAR LGIR 162320Z 17004KT 9999 FEW020 10/09 Q1014 NOSIG
2026-03-16 22:50:00,METAR LGIR 162250Z 18006KT 9999 FEW020 10/09 Q1014 NOSIG
2026-03-16 22:20:00,METAR LGIR 162220Z 17006KT 9999 FEW020 10/09 Q1014 NOSIG
2026-03-16 21:50:00,METAR LGIR 162150Z 17006KT 9999 FEW020 10/09 Q1014 NOSIG RMK SCT180
2026-03-16 21:20:00,METAR LGIR 162120Z 17006KT 9999 FEW020 10/09 Q1015 NOSIG
2026-03-16 20:50:00,METAR LGIR 162050Z 17006KT 9999 FEW020 10/09 Q1015 NOSIG
2026-03-16 20:20:00,METAR LGIR 162020Z 18006KT 9999 FEW020 11/10 Q1015 NOSIG
2026-03-16 19:50:00,METAR LGIR 161950Z 18005KT 9999 FEW020 11/09 Q1015 NOSIG
2026-03-16 19:20:00,METAR LGIR 161920Z 17006KT 9999 FEW020 10/09 Q1015 NOSIG
2026-03-16 18:50:00,METAR LGIR 161850Z 18004KT 9999 FEW020 10/09 Q1015 NOSIG
2026-03-16 18:20:00,METAR LGIR 161820Z 19004KT 9999 FEW020 11/10 Q1015 NOSIG
2026-03-16 17:50:00,METAR LGIR 161750Z 19006KT 9999 FEW020 12/10 Q1015 NOSIG
2026-03-16 17:20:00,METAR LGIR 161720Z VRB03KT 9999 FEW020 13/09 Q1015 NOSIG RMK SCT180
2026-03-16 16:50:00,METAR LGIR 161650Z 05003KT 9999 FEW020 14/09 Q1015 NOSIG
2026-03-16 16:20:00,METAR LGIR 161620Z 05003KT 9999 FEW020 14/09 Q1015 NOSIG
2026-03-16 15:50:00,METAR LGIR 161550Z 03003KT 9999 FEW020 15/09 Q1015 NOSIG
2026-03-16 15:20:00,METAR LGIR 161520Z 04003KT 9999 FEW020 15/09 Q1015 NOSIG
2026-03-16 14:50:00,METAR LGIR 161450Z 04003KT 9999 FEW020 15/09 Q1015 NOSIG
2026-03-16 14:20:00,METAR LGIR 161420Z 03004KT 9999 FEW020 16/09 Q1015 NOSIG
2026-03-16 13:50:00,METAR LGIR 161350Z 04006KT 9999 FEW020 16/09 Q1015 NOSIG
2026-03-16 13:20:00,METAR LGIR 161320Z 01006KT 9999 FEW020 16/09 Q1014 NOSIG
2026-03-16 12:50:00,METAR LGIR 161250Z 35005KT 9999 FEW020 16/09 Q1015 NOSIG
2026-03-16 12:20:00,METAR LGIR 161220Z 35006KT 9999 FEW020 17/09 Q1015 NOSIG
2026-03-16 11:50:00,METAR LGIR 161150Z 34006KT 9999 FEW020 17/09 Q1015 NOSIG
2026-03-16 11:20:00,METAR LGIR 161120Z 35006KT 9999 FEW020 17/09 Q1015 NOSIG
2026-03-16 10:50:00,METAR LGIR 161050Z 35006KT 9999 FEW020 17/09 Q1015 NOSIG
2026-03-16 10:20:00,METAR LGIR 161020Z 35006KT 9999 FEW020 16/09 Q1015 NOSIG
2026-03-16 09:50:00,METAR LGIR 160950Z 36006KT 9999 FEW020 16/09 Q1015 NOSIG
2026-03-16 09:20:00,METAR LGIR 160920Z 36005KT 9999 FEW020 16/08 Q1016 NOSIG
2026-03-16 08:50:00,METAR LGIR 160850Z 36004KT 9999 FEW020 16/08 Q1015 NOSIG
2026-03-16 08:20:00,METAR LGIR 160820Z VRB03KT 9999 FEW020 15/09 Q1015 NOSIG
2026-03-16 07:50:00,METAR LGIR 160750Z VRB03KT 9999 FEW020 15/09 Q1015 NOSIG
2026-03-16 07:20:00,METAR LGIR 160720Z VRB02KT 9999 FEW020 15/09 Q1015 NOSIG
2026-03-16 06:50:00,METAR LGIR 160650Z 14004KT 9999 FEW020 15/07 Q1014 NOSIG
2026-03-16 06:20:00,METAR LGIR 160620Z 16006KT 9999 FEW020 13/07 Q1014 NOSIG
2026-03-16 05:50:00,METAR LGIR 160550Z 17007KT 9999 FEW020 10/06 Q1014 NOSIG
2026-03-16 05:20:00,METAR LGIR 160520Z 17008KT 9999 FEW020 09/06 Q1014 NOSIG
2026-03-16 04:50:00,METAR LGIR 160450Z 17007KT 9999 FEW020 09/05 Q1014 NOSIG
2026-03-16 04:20:00,METAR LGIR 160420Z 17007KT 9999 FEW020 08/04 Q1013 NOSIG
2026-03-16 03:50:00,METAR LGIR 160350Z 17007KT 9999 FEW020 08/04 Q1013 NOSIG
2026-03-16 03:20:00,METAR LGIR 160320Z 17007KT 9999 FEW020 08/04 Q1013 NOSIG
2026-03-16 02:50:00,METAR LGIR 160250Z 17007KT 9999 FEW020 08/04 Q1012 NOSIG
2026-03-16 02:20:00,METAR LGIR 160220Z 17007KT 9999 FEW020 08/04 Q1012 NOSIG
2026-03-16 01:50:00,METAR LGIR 160150Z 17007KT 9999 FEW020 08/04 Q1012 NOSIG
2026-03-16 01:20:00,METAR LGIR 160120Z 17006KT 9999 FEW020 08/05 Q1013 NOSIG
2026-03-16 00:50:00,METAR LGIR 160050Z 17005KT 9999 FEW020 08/05 Q1013 NOSIG
2026-03-16 00:20:00,METAR LGIR 160020Z 17007KT 9999 FEW020 08/06 Q1013 NOSIG
2026-03-15 23:50:00,METAR LGIR 152350Z 16007KT 9999 FEW020 08/05 Q1013 NOSIG
2026-03-15 23:20:00,METAR LGIR 152320Z 16005KT 9999 FEW020 08/06 Q1013 NOSIG
2026-03-15 22:50:00,METAR LGIR 152250Z 17005KT 9999 FEW020 08/06 Q1013 NOSIG
2026-03-15 22:20:00,METAR LGIR 152220Z 16007KT 9999 FEW020 08/06 Q1013 NOSIG
2026-03-15 21:50:00,METAR LGIR 152150Z 16006KT 9999 FEW020 09/06 Q1013 NOSIG
2026-03-15 21:20:00,METAR LGIR 152120Z 17007KT 9999 FEW020 08/05 Q1013 NOSIG
2026-03-15 20:50:00,METAR LGIR 152050Z 17007KT 9999 FEW020 08/05 Q1013 NOSIG
2026-03-15 20:20:00,METAR LGIR 152020Z 17007KT 9999 FEW020 09/06 Q1013 NOSIG
2026-03-15 19:50:00,METAR LGIR 151950Z 16006KT 9999 FEW020 09/06 Q1013 NOSIG
2026-03-15 19:20:00,METAR LGIR 151920Z 16007KT 9999 FEW020 09/06 Q1012 NOSIG
2026-03-15 18:50:00,METAR LGIR 151850Z 30008KT 9999 FEW020 13/07 Q1012 NOSIG
2026-03-15 18:20:00,METAR LGIR 151820Z 30008KT 9999 FEW020 13/07 Q1012 NOSIG
2026-03-15 17:50:00,METAR LGIR 151750Z 30008KT 9999 FEW020 13/07 Q1012 NOSIG
2026-03-15 17:20:00,METAR LGIR 151720Z 31010KT 9999 FEW020 13/07 Q1010 NOSIG
2026-03-15 16:50:00,METAR LGIR 151650Z 31010KT 9999 FEW020 13/07 Q1011 NOSIG
2026-03-15 16:20:00,METAR LGIR 151620Z 31010KT 9999 FEW020 14/06 Q1010 NOSIG
2026-03-15 15:50:00,METAR LGIR 151550Z 31010KT 9999 FEW020 15/06 Q1010 NOSIG
2026-03-15 15:20:00,METAR LGIR 151520Z 31010KT 9999 FEW020 15/06 Q1010 NOSIG
2026-03-15 14:50:00,METAR LGIR 151450Z 31010KT 9999 FEW020 15/06 Q1010 NOSIG
2026-03-15 14:20:00,METAR LGIR 151420Z 30011KT 9999 FEW020 16/06 Q1010 NOSIG
2026-03-15 13:50:00,METAR LGIR 151350Z 33010KT 9999 FEW020 16/06 Q1010 NOSIG
2026-03-15 13:20:00,METAR LGIR 151320Z 33010KT 9999 FEW020 16/06 Q1010 NOSIG
2026-03-15 12:50:00,METAR LGIR 151250Z 33010KT 9999 FEW020 16/06 Q1010 NOSIG
2026-03-15 12:20:00,METAR LGIR 151220Z 33010KT 9999 FEW020 16/06 Q1010 NOSIG
2026-03-15 11:50:00,METAR LGIR 151150Z 32012KT 9999 FEW018 SCT020 16/07 Q1010 NOSIG
2026-03-15 11:20:00,METAR LGIR 151120Z 32011KT 9999 FEW018 BKN020 16/05 Q1010 NOSIG
2026-03-15 10:50:00,METAR LGIR 151050Z 32011KT 9999 FEW018 BKN020 16/05 Q1010 NOSIG
2026-03-15 10:20:00,METAR LGIR 151020Z 32013KT 9999 FEW018 BKN020 15/04 Q1010 NOSIG
2026-03-15 09:50:00,METAR LGIR 150950Z 32013KT 9999 FEW018 BKN020 15/05 Q1010 NOSIG
2026-03-15 09:20:00,METAR LGIR 150920Z 33014KT 9999 FEW018 BKN020 15/07 Q1010 NOSIG
2026-03-15 08:50:00,METAR LGIR 150850Z 33013KT 9999 FEW018 BKN020 15/07 Q1010 NOSIG
2026-03-15 08:20:00,METAR LGIR 150820Z 33013KT 9999 FEW018 BKN020 15/08 Q1009 NOSIG
