Time_recorded,METAR
2026-05-02 14:51:00,METAR KORD 021451Z 29005KT 10SM FEW045 FEW250 08/M05 A3012 RMK AO2 SLP202 T00831050 50003 $
2026-05-02 13:51:00,METAR KORD 021351Z 32006KT 10SM FEW250 07/M03 A3012 RMK AO2 SLP203 T00721033 $
2026-05-02 12:51:00,METAR KORD 021251Z 31004KT 10SM FEW250 06/M01 A3011 RMK AO2 SLP202 T00561011 $
2026-05-02 11:51:00,METAR KORD 021151Z 00000KT 10SM FEW060 FEW250 02/M01 A3011 RMK AO2 SLP200 T00171011 10022 20000 53005 $
2026-05-02 10:51:00,METAR KORD 021051Z 00000KT 10SM FEW250 01/M02 A3009 RMK AO2 SLP196 T00061017 $
2026-05-02 09:51:00,METAR KORD 020951Z 00000KT 10SM FEW250 01/M02 A3009 RMK AO2 SLP196 T00061017 $
2026-05-02 08:51:00,METAR KORD 020851Z 00000KT 10SM CLR 01/M02 A3009 RMK AO2 SLP195 T00061017 55005 $
2026-05-02 07:51:00,METAR KORD 020751Z 00000KT 10SM CLR 01/M02 A3008 RMK AO2 SLP193 T00061017 $
2026-05-02 06:51:00,METAR KORD 020651Z 28003KT 10SM FEW050 01/M02 A3010 RMK AO2 SLP196 T00111017 $
2026-05-02 05:51:00,METAR KORD 020551Z 26003KT 10SM FEW050 02/M02 A3011 RMK AO2 SLP199 T00221022 10056 20017 401000017 51004 $
2026-05-02 04:51:00,METAR KORD 020451Z 23003KT 10SM CLR 02/M02 A3011 RMK AO2 SLP198 T00221022 $
2026-05-02 03:51:00,METAR KORD 020351Z 00000KT 10SM CLR 04/M03 A3010 RMK AO2 SLP197 T00391033 $
2026-05-02 02:51:00,METAR KORD 020251Z 12003KT 10SM FEW060 FEW085 03/M03 A3009 RMK AO2 SLP194 T00331033 51013 $
2026-05-02 01:51:00,METAR KORD 020151Z 04008KT 10SM FEW034 FEW060 SCT085 04/M04 A3008 RMK AO2 SLP191 T00391039 $
2026-05-02 00:51:00,METAR KORD 020051Z 05008KT 10SM FEW034 SCT055 BKN100 03/M01 A3007 RMK AO2 SLP187 VCSH T00331011 $
2026-05-01 23:51:00,METAR KORD 012351Z 05009KT 10SM FEW031 BKN050 BKN070 06/M02 A3006 RMK AO2 SLP182 60000 T00561017 10083 20056 51003 $
2026-05-01 22:51:00,METAR KORD 012251Z 04005KT 10SM FEW030 BKN055 BKN070 07/00 A3005 RMK AO2 RAE08 SLP180 P0000 T00670000 $
2026-05-01 21:51:00,METAR KORD 012151Z 02008KT 10SM -RA FEW027 OVC060 07/00 A3005 RMK AO2 RAB48 SLP181 P0000 T00670000 $
2026-05-01 20:51:00,METAR KORD 012051Z 05007KT 10SM FEW027 SCT047 BKN060 07/01 A3005 RMK AO2 RAB17E46 SLP178 P0000 60000 T00670006 51010 $
2026-05-01 19:51:00,METAR KORD 011951Z 04009KT 10SM FEW060 SCT070 OVC090 07/00 A3004 RMK AO2 SLP176 VCSH T00720000 $
2026-05-01 18:51:00,METAR KORD 011851Z 06012KT 10SM FEW044 BKN060 OVC080 07/00 A3003 RMK AO2 SLP173 T00720000 $
2026-05-01 17:51:00,METAR KORD 011751Z 05010G18KT 10SM FEW042 BKN060 BKN080 08/01 A3001 RMK AO2 SLP167 T00830011 10100 20050 53001 $
2026-05-01 16:51:00,METAR KORD 011651Z 36015KT 10SM FEW037 BKN055 BKN080 09/M03 A3001 RMK AO2 SLP165 T00941028 $
2026-05-01 15:51:00,METAR KORD 011551Z 35011KT 10SM FEW032 SCT043 BKN060 09/M02 A3001 RMK AO2 SLP166 T00941017 $
2026-05-01 14:51:00,METAR KORD 011451Z 32009KT 10SM SCT026 BKN037 BKN070 08/02 A3001 RMK AO2 SLP166 T00830017 51008 $
2026-05-01 13:51:00,METAR KORD 011351Z 30005KT 10SM SCT019 SCT070 07/02 A3001 RMK AO2 SLP165 T00670022 $
2026-05-01 13:44:00,SPECI KORD 011344Z 29006KT 10SM SCT019 SCT070 06/02 A3001 RMK AO2 T00610017 $
2026-05-01 13:02:00,SPECI KORD 011302Z 35009KT 10SM BKN015 BKN036 BKN065 06/02 A3001 RMK AO2 T00610022 $
2026-05-01 12:51:00,METAR KORD 011251Z 35008KT 10SM SCT015 BKN037 BKN060 06/02 A3001 RMK AO2 SLP164 T00610022 $
2026-05-01 11:51:00,METAR KORD 011151Z 34006KT 10SM FEW018 SCT038 SCT070 SCT150 05/03 A2999 RMK AO2 SLP159 60003 70021 T00500028 10056 20039 53009 $
2026-05-01 10:51:00,METAR KORD 011051Z 03005KT 10SM FEW017 FEW040 SCT070 BKN200 05/01 A2997 RMK AO2 RAE0952 SLP153 P0000 T00500011 $
2026-05-01 09:51:00,METAR KORD 010951Z 03004KT 10SM -RA BKN037 BKN070 OVC095 04/02 A2997 RMK AO2 SLP151 P0003 T00440017 $
2026-05-01 08:58:00,SPECI KORD 010858Z 36006KT 6SM -RA BR SCT011 OVC030 05/03 A2996 RMK AO2 P0001 T00500028
2026-05-01 08:51:00,METAR KORD 010851Z 01007KT 9SM -RA SCT009 OVC028 05/03 A2996 RMK AO2 RAB33 SLP149 P0000 60000 T00500028 51002
2026-05-01 08:47:00,SPECI KORD 010847Z 01006KT 10SM -RA SCT009 OVC028 05/03 A2996 RMK AO2 RAB33 P0000
2026-05-01 07:51:00,METAR KORD 010751Z 03008KT 10SM BKN009 BKN024 OVC080 05/03 A2995 RMK AO2 SLP147 T00500033
2026-05-01 06:51:00,METAR KORD 010651Z 04007KT 10SM BKN009 BKN020 OVC075 05/04 A2995 RMK AO2 RAB40E50 SLP146 P0000 T00500039
2026-05-01 06:40:00,SPECI KORD 010640Z 03006KT 10SM -RA BKN009 BKN020 OVC070 05/04 A2995 RMK AO2 RAB40 CIG 007V013 P0000 T00500039
2026-05-01 06:32:00,SPECI KORD 010632Z 03007KT 10SM SCT009 BKN020 OVC065 05/04 A2996 RMK AO2 T00500039
2026-05-01 06:21:00,SPECI KORD 010621Z 04007KT 10SM SCT009 BKN045 OVC065 06/04 A2995 RMK AO2 T00560039
2026-05-01 05:51:00,METAR KORD 010551Z 06007KT 10SM BKN030 BKN042 OVC065 05/03 A2995 RMK AO2 RAE48 SLP147 P0007 60015 T00500033 10061 20050 401330028 58008
2026-05-01 04:58:00,SPECI KORD 010458Z 00000KT 7SM -RA BKN025 OVC034 05/02 A2997 RMK AO2 P0000 T00500022
2026-05-01 04:51:00,METAR KORD 010451Z 00000KT 7SM -RA SCT025 OVC034 05/03 A2998 RMK AO2 RAB23 SLP153 P0003 T00500028
2026-05-01 03:51:00,METAR KORD 010351Z 09005KT 10SM OVC030 05/02 A2997 RMK AO2 RAE09 SLP151 P0000 T00500017
2026-05-01 02:51:00,METAR KORD 010251Z 08007KT 10SM -RA OVC032 05/01 A2998 RMK AO2 SLP155 P0004 60005 T00500011 53007
2026-05-01 01:51:00,METAR KORD 010151Z 07008KT 10SM -RA BKN034 OVC041 06/00 A2996 RMK AO2 RAB42 SLP150 P0001 T00560000
2026-05-01 00:51:00,METAR KORD 010051Z 07008KT 10SM SCT030 BKN044 OVC055 06/01 A2996 RMK AO2 RAE36 SLP147 P0000 T00560011
2026-05-01 00:36:00,SPECI KORD 010036Z 06007KT 10SM BKN030 OVC048 06/01 A2996 RMK AO2 RAE36 P0000 T00560011
2026-05-01 00:14:00,SPECI KORD 010014Z 08006KT 10SM -RA BKN028 OVC034 06/02 A2996 RMK AO2 P0000 T00560022
2026-04-30 23:51:00,METAR KORD 302351Z 07008KT 10SM -RA SCT028 OVC032 06/03 A2996 RMK AO2 SLP150 P0001 60003 T00610028 10106 20061 58002
2026-04-30 22:51:00,METAR KORD 302251Z 07009KT 10SM -RA BKN036 OVC050 07/03 A2996 RMK AO2 SLP150 P0002 T00670028
2026-04-30 21:51:00,METAR KORD 302151Z 09007KT 10SM -RA BKN042 OVC060 08/02 A2996 RMK AO2 RAB04E12B43 SLP150 P0000 T00780022
2026-04-30 20:51:00,METAR KORD 302051Z 07010KT 10SM FEW050 BKN060 BKN080 09/02 A2996 RMK AO2 SLP150 T00890022 58009
2026-04-30 19:51:00,METAR KORD 301951Z 05009KT 10SM FEW050 BKN065 BKN080 BKN250 09/03 A2998 RMK AO2 SLP154 VIRGA W T00940028
2026-04-30 18:51:00,METAR KORD 301851Z 06010KT 10SM BKN070 OVC100 09/03 A2998 RMK AO2 SLP156 VIRGA W T00940033
2026-04-30 17:51:00,METAR KORD 301751Z 09009KT 10SM BKN060 OVC110 11/03 A2999 RMK AO2 SLP159 T01060033 10133 20050 58009
2026-04-30 17:44:00,SPECI KORD 301744Z 07011KT 10SM BKN060 OVC110 11/03 A2999 RMK AO2 WSHFT 40 T01060033
2026-04-30 16:51:00,METAR KORD 301651Z 29008KT 10SM FEW035 BKN060 BKN080 12/M01 A3000 RMK AO2 SLP161 T01221011
2026-04-30 15:51:00,METAR KORD 301551Z VRB03KT 10SM FEW040 BKN065 BKN085 12/M01 A3001 RMK AO2 SLP165 T01171011
2026-04-30 14:51:00,METAR KORD 301451Z 00000KT 10SM SCT070 SCT110 11/02 A3002 RMK AO2 SLP168 T01060017 58002
2026-04-30 13:51:00,METAR KORD 301351Z VRB03KT 10SM SCT080 08/03 A3003 RMK AO2 SLP172 T00830033
2026-04-30 12:51:00,METAR KORD 301251Z 00000KT 10SM FEW085 06/03 A3003 RMK AO2 SLP173 T00610033
2026-04-30 11:51:00,METAR KORD 301151Z 00000KT 10SM FEW080 05/03 A3002 RMK AO2 SLP171 T00500028 10050 20028 53005
2026-04-30 10:51:00,METAR KORD 301051Z 33003KT 10SM FEW080 03/02 A3002 RMK AO2 SLP169 T00330022
2026-04-30 09:51:00,METAR KORD 300951Z 00000KT 10SM CLR 04/02 A3001 RMK AO2 SLP166 T00390022
2026-04-30 08:51:00,METAR KORD 300851Z 21003KT 10SM CLR 04/03 A3001 RMK AO2 SLP165 T00390028 55004
2026-04-30 07:51:00,METAR KORD 300751Z 25005KT 9SM CLR 04/03 A3000 RMK AO2 SLP163 T00440028
2026-04-30 06:51:00,METAR KORD 300651Z 24004KT 9SM CLR 04/03 A3001 RMK AO2 SLP166 T00440033
2026-04-30 05:51:00,METAR KORD 300551Z 23004KT 10SM CLR 05/04 A3002 RMK AO2 SLP168 60000 T00500039 10083 20050 401390050 55001
2026-04-30 04:51:00,METAR KORD 300451Z 00000KT 10SM FEW090 05/04 A3002 RMK AO2 SLP167 T00500039
2026-04-30 03:51:00,METAR KORD 300351Z 00000KT 10SM FEW060 FEW090 06/03 A3002 RMK AO2 SLP169 T00610033
2026-04-30 02:51:00,METAR KORD 300251Z 01004KT 10SM FEW029 SCT050 SCT085 06/04 A3002 RMK AO2 RAB06E21 SLP170 P0000 60000 T00610039 51016
2026-04-30 01:51:00,METAR KORD 300151Z 02009KT 10SM FEW020 BKN033 BKN080 07/03 A3002 RMK AO2 SLP169 T00670033
2026-04-30 00:51:00,METAR KORD 300051Z 05007KT 10SM FEW021 BKN033 BKN080 BKN250 07/03 A3000 RMK AO2 SLP162 T00720033
2026-04-29 23:51:00,METAR KORD 292351Z 02009KT 10SM FEW018 SCT029 BKN080 08/04 A2998 RMK AO2 SLP154 60000 T00780039 10117 20078 53008
2026-04-29 22:51:00,METAR KORD 292251Z 02010KT 10SM FEW014 SCT026 BKN080 08/04 A2997 RMK AO2 SLP149 T00830044
2026-04-29 21:51:00,METAR KORD 292151Z 04010KT 10SM SCT021 BKN050 BKN085 08/04 A2996 RMK AO2 RAE2058 SLP145 P0000 T00830044
2026-04-29 20:51:00,METAR KORD 292051Z 01013KT 10SM -RA SCT022 BKN037 OVC070 09/04 A2995 RMK AO2 RAB12E26B47 SLP144 P0000 60000 T00890044 51009
2026-04-29 20:34:00,SPECI KORD 292034Z 35013KT 10SM SCT023 BKN032 BKN065 10/04 A2995 RMK AO2 RAB12E26 P0000 T01000044
2026-04-29 19:51:00,METAR KORD 291951Z 01010KT 10SM BKN017 BKN041 BKN070 11/06 A2995 RMK AO2 RAB23E35 SLP143 VCSH SW-NW P0000 T01060061
2026-04-29 19:26:00,SPECI KORD 291926Z 36011KT 10SM -RA SCT018 BKN039 BKN060 09/06 A2995 RMK AO2 RAB23 P0000 T00940061
2026-04-29 18:51:00,METAR KORD 291851Z 35014KT 10SM BKN019 BKN048 OVC065 10/06 A2994 RMK AO2 SLP139 T01000056
2026-04-29 17:51:00,METAR KORD 291751Z 33014KT 10SM BKN020 OVC033 11/07 A2993 RMK AO2 RAB10E41 SLP135 P0000 60000 T01110072 10133 20100 53006
2026-04-29 17:09:00,SPECI KORD 291709Z 35017G22KT 10SM BKN020 BKN032 OVC065 11/06 A2992 RMK AO2 T01110061
2026-04-29 16:51:00,METAR KORD 291651Z 02010KT 10SM BKN030 BKN043 OVC090 12/07 A2991 RMK AO2 SLP130 T01170067
2026-04-29 15:51:00,METAR KORD 291551Z 35007KT 10SM OVC032 12/06 A2991 RMK AO2 SLP129 T01220061
2026-04-29 15:21:00,SPECI KORD 291521Z 35006KT 10SM SCT025 BKN033 OVC049 12/06 A2991 RMK AO2 T01170061
2026-04-29 14:51:00,METAR KORD 291451Z 36008KT 10SM BKN025 BKN050 12/06 A2991 RMK AO2 SLP129 T01220061 58001
2026-04-29 13:51:00,METAR KORD 291351Z 33007KT 10SM SCT070 SCT090 BKN130 12/07 A2991 RMK AO2 SLP129 T01220067
2026-04-29 12:51:00,METAR KORD 291251Z 35007KT 10SM BKN060 10/06 A2992 RMK AO2 SLP131 T01000061
2026-04-29 11:51:00,METAR KORD 291151Z 35006KT 10SM OVC060 10/06 A2991 RMK AO2 RAB07E17B34E49 SLP130 P0000 60000 T01000061 10139 20100 51014
2026-04-29 10:51:00,METAR KORD 291051Z 36011KT 10SM OVC060 11/05 A2990 RMK AO2 SLP126 T01110050 $
2026-04-29 09:51:00,METAR KORD 290951Z 33010KT 10SM BKN060 OVC085 12/03 A2988 RMK AO2 SLP117 T01220033 $
2026-04-29 08:51:00,METAR KORD 290851Z 34009KT 10SM BKN060 BKN075 OVC090 12/05 A2987 RMK AO2 SLP114 T01220050 58007 $
2026-04-29 07:51:00,METAR KORD 290751Z 32008KT 10SM BKN060 OVC100 13/05 A2988 RMK AO2 SLP118 T01280050 $
2026-04-29 06:51:00,METAR KORD 290651Z 30006KT 10SM FEW060 BKN120 BKN200 13/04 A2989 RMK AO2 SLP121 T01280044 $
2026-04-29 05:51:00,METAR KORD 290551Z 32005KT 10SM BKN100 14/04 A2989 RMK AO2 SLP122 T01390044 10167 20133 401780100 55008 $
2026-04-29 04:51:00,METAR KORD 290451Z 34009KT 10SM FEW050 BKN130 BKN250 13/06 A2989 RMK AO2 SLP120 T01330056 $
2026-04-29 03:51:00,METAR KORD 290351Z 25005KT 10SM SCT050 BKN100 BKN250 14/08 A2992 RMK AO2 SLP133 T01440078 $
2026-04-29 02:51:00,METAR KORD 290251Z 24004KT 10SM SCT050 BKN120 OVC250 15/08 A2992 RMK AO2 SLP131 T01500078 53012 $
2026-04-29 01:51:00,METAR KORD 290151Z 21003KT 10SM SCT130 OVC250 15/07 A2990 RMK AO2 SLP127 T01500072 $
2026-04-29 00:51:00,METAR KORD 290051Z 26005KT 10SM SCT150 OVC250 16/07 A2988 RMK AO2 SLP120 T01610072 $
2026-04-28 23:51:00,METAR KORD 282351Z 26004KT 10SM BKN140 OVC250 17/07 A2988 RMK AO2 SLP119 T01670067 10178 20144 56010 $
2026-04-28 22:51:00,METAR KORD 282251Z 31004KT 10SM FEW030 FEW120 SCT250 18/07 A2989 RMK AO2 SLP121 T01780072 $
2026-04-28 21:51:00,METAR KORD 282151Z 31009KT 10SM FEW033 BKN250 17/07 A2990 RMK AO2 SLP125 T01720072 $
2026-04-28 20:51:00,METAR KORD 282051Z 27008G16KT 10SM FEW033 BKN250 17/08 A2991 RMK AO2 SLP128 T01720078 58011 $
2026-04-28 19:51:00,METAR KORD 281951Z 29014G21KT 10SM FEW032 SCT250 16/07 A2992 RMK AO2 SLP130 T01610072 $
2026-04-28 18:51:00,METAR KORD 281851Z 24012G25KT 10SM SCT032 SCT250 16/07 A2995 RMK AO2 SLP141 T01560072 $
2026-04-28 17:51:00,METAR KORD 281751Z 23013G20KT 10SM BKN030 BKN250 14/07 A2995 RMK AO2 SLP140 T01440067 10150 20100 $
2026-04-28 16:51:00,METAR KORD 281651Z 25010G17KT 10SM BKN030 BKN250 14/07 A2993 RMK AO2 SLP135 T01390067 $
2026-04-28 15:57:00,SPECI KORD 281557Z 25011G17KT 10SM BKN026 OVC031 12/06 A2994 RMK AO2 T01220061 $
2026-04-28 15:43:00,SPECI KORD 281543Z 25011KT 10SM OVC024 12/06 A2993 RMK AO2 T01170061 $
2026-04-28 14:51:00,METAR KORD 281451Z 26012G18KT 10SM OVC025 11/06 A2991 RMK AO2 SLP128 T01110061 51034 $
2026-04-28 14:10:00,SPECI KORD 281410Z 26009KT 10SM OVC025 11/06 A2990 RMK AO2 T01110056 $
2026-04-28 13:51:00,METAR KORD 281351Z 26011G18KT 10SM OVC022 11/06 A2989 RMK AO2 SLP123 T01060056 $
2026-04-28 12:51:00,METAR KORD 281251Z 25009G17KT 10SM OVC017 11/07 A2985 RMK AO2 SLP109 T01060067
2026-04-28 11:51:00,METAR KORD 281151Z 27010G21KT 10SM OVC020 11/06 A2981 RMK AO2 PK WND 27031/1052 SLP093 70092 T01060061 10156 20106 53034
2026-04-28 10:51:00,METAR KORD 281051Z 27018G32KT 10SM OVC019 11/07 A2976 RMK AO2 PK WND 27032/1048 SLP077 T01060067 $
2026-04-28 09:51:00,METAR KORD 280951Z 27014G29KT 10SM OVC019 11/07 A2973 RMK AO2 PK WND 27031/0918 SLP067 T01110072 $
2026-04-28 08:51:00,METAR KORD 280851Z 27017G33KT 10SM OVC020 12/08 A2971 RMK AO2 PK WND 29033/0851 SLP058 T01220083 53019 $
2026-04-28 07:51:00,METAR KORD 280751Z 26013G25KT 10SM OVC020 13/09 A2968 RMK AO2 PK WND 28034/0736 SLP050 T01280094 $
2026-04-28 06:51:00,METAR KORD 280651Z 26016G26KT 10SM OVC023 15/11 A2966 RMK AO2 PK WND 25026/0651 SLP041 T01500111 $
2026-04-28 05:58:00,SPECI KORD 280558Z 24010KT 10SM SCT010 BKN016 OVC034 16/14 A2965 RMK AO2 T01560144 $
2026-04-28 05:51:00,METAR KORD 280551Z 23010KT 10SM BKN011 BKN016 OVC034 16/14 A2965 RMK AO2 TSE11 SLP039 60038 T01560144 10194 20156 402000083 53010 $
2026-04-28 05:12:00,SPECI KORD 280512Z 22010G17KT 10SM OVC010 16/14 A2964 RMK AO2 TSE11 CB DSNT E MOV E T01560144 $
2026-04-28 04:51:00,METAR KORD 280451Z 21012G19KT 9SM TS BKN010 OVC065CB 16/14 A2963 RMK AO2 RAB27E48 TSB12 SLP034 OCNL LTGICCG E TS E MOV E P0017 T01560139 $
2026-04-28 04:44:00,SPECI KORD 280444Z 21011G20KT 6SM -TSRA BR BKN010 OVC065CB 16/14 A2963 RMK AO2 RAB27 TSB12 FRQ LTGICCG NE-S TS NE-S MOV E P0017 T01560144 $
2026-04-28 04:36:00,SPECI KORD 280436Z 20011KT 2SM R10L/4000VP6000FT +TSRA BR BKN010 OVC065CB 16/14 A2964 RMK AO2 RAB27 TSB12 FRQ LTGICCG OHD TS OHD MOV E P0015 T01560144 $
2026-04-28 04:32:00,SPECI KORD 280432Z 20011KT 3SM R10L/4000VP6000FT +TSRA BR BKN010 OVC065CB 16/14 A2964 RMK AO2 RAB27 TSB12 FRQ LTGICCG OHD TS OHD MOV E P0006 T01560144 $
2026-04-28 04:26:00,SPECI KORD 280426Z 23011KT 10SM TS FEW012 FEW035CB BKN100 OVC250 16/14 A2964 RMK AO2 TSB12 PRESRR FRQ LTGICCG SW-N TS SW-N MOV E T01610144 $
2026-04-28 03:51:00,METAR KORD 280351Z 18012KT 10SM SCT012 BKN085 BKN100 OVC250 16/14 A2962 RMK AO2 LTG DSNT NW SLP027 OCNL LTGICCC DSNT W-N CB W-N MOV E T01610144 $
2026-04-28 03:48:00,SPECI KORD 280348Z 18011G20KT 10SM SCT012 BKN085 BKN100 OVC250 16/14 A2962 RMK AO2 LTG DSNT W AND NW OCNL LTGICCC DSNT W-N CB W-N MOV E $
2026-04-28 02:51:00,METAR KORD 280251Z 20009G18KT 10SM BKN012 BKN090 OVC250 17/15 A2962 RMK AO2 SLP030 60021 T01670150 50024 $
2026-04-28 02:46:00,SPECI KORD 280246Z 20008KT 10SM BKN012 BKN090 OVC250 17/15 A2963 RMK AO2 $
2026-04-28 01:51:00,METAR KORD 280151Z 28012G17KT 10SM FEW012 SCT060 OVC150 17/15 A2958 RMK AO2 RAE37 TSE43 PRESRR SLP014 OCNL LTGIC DSNT E CB DSNT E MOV E P0007 T01670150 $
2026-04-28 01:47:00,SPECI KORD 280147Z 27013G23KT 10SM FEW012 SCT055 OVC150 17/15 A2955 RMK AO2 RAE37 TSE43 OCNL LTGIC DSNT NE-E CB DSNT NE-E MOV E P0007 $
2026-04-28 01:24:00,SPECI KORD 280124Z 13016G23KT 6SM -TSRA BKN015CB BKN022 OVC045 17/16 A2955 RMK AO2 PRESFR OCNL LTGICCC OHD TS OHD MOV E P0006 T01670156 $
2026-04-28 01:08:00,SPECI KORD 280108Z 18011KT 6SM -TSRA SCT020 BKN029CB OVC045 17/16 A2962 RMK AO2 OCNL LTGICCG OHD TS OHD MOV E P0003 T01720156 $
2026-04-28 00:51:00,METAR KORD 280051Z 17012G18KT 6SM -TSRA SCT021 BKN045 OVC095 17/16 A2963 RMK AO2 TSE37B45 SLP031 LTGICCG OHD TS OHD MOV E P0014 T01720156 $
2026-04-28 00:46:00,SPECI KORD 280046Z 17011KT 6SM -TSRA SCT021 BKN045 OVC095 17/16 A2963 RMK AO2 TSE37B45 LTGICCG OHD TS OHD MOV E P0013 $
2026-04-28 00:43:00,SPECI KORD 280043Z 19006KT 6SM -RA SCT021 BKN047 OVC095 17/16 A2964 RMK AO2 TSE37 P0012 T01720156 $
2026-04-28 00:23:00,SPECI KORD 280023Z 14014G17KT 2 1/2SM -TSRA FEW030 BKN040CB OVC050 17/16 A2959 RMK AO2 OCNL LTGICCG W TS W MOV E P0010 T01720156 $
2026-04-28 00:06:00,SPECI KORD 280006Z 17005KT 1 1/2SM TSRA FEW028 BKN036CB OVC050 18/15 A2963 RMK AO2 FRQ LTGICCG OHD TS OHD MOV NE P0002 T01830150 $
2026-04-27 23:51:00,METAR KORD 272351Z 20007KT 10SM -TSRA OVC050CB 19/14 A2961 RMK AO2 RAB43 TSB32 SLP026 FRQ LTGICCG NW-N TS SW-NW MOV NE P0000 60023 T01940144 10200 20139 51010 $
2026-04-27 23:32:00,SPECI KORD 272332Z COR 19006KT 10SM TS OVC048CB 19/14 A2960 RMK AO2 TSB32 OCNL LTG ICCG TS SW-NW MOV NE T01940139 $
2026-04-27 22:51:00,METAR KORD 272251Z 19012G20KT 10SM BKN050 OVC250 20/14 A2961 RMK AO2 RAB28E33 SLP025 CB DSNT SW MOV NE P0000 T02000144 $
2026-04-27 21:51:00,METAR KORD 272151Z 16010G19KT 10SM SCT065 BKN250 19/14 A2959 RMK AO2 PK WND 18029/2128 SLP017 T01940144 $
2026-04-27 20:51:00,METAR KORD 272051Z 17007KT 140V210 10SM FEW015 OVC250 18/15 A2958 RMK AO2 SLP016 60023 T01830150 53008 $
2026-04-27 19:51:00,METAR KORD 271951Z 13015KT 9SM FEW008 OVC220 17/14 A2956 RMK AO2 PK WND 15046/1852 SLP010 T01670144 $
2026-04-27 19:22:00,SPECI KORD 271922Z 14021G37KT 8SM SCT008 OVC180 16/14 A2957 RMK AO2 PK WND 15046/1852 T01560139 $
2026-04-27 18:51:00,METAR KORD 271851Z 14027G40KT 8SM BKN010 OVC180 14/13 A2955 RMK AO2 PK WND 11047/1838 WSHFT 1812 RAE44 TSE11B12E32 SLP007 P0023 T01440133 $
2026-04-27 18:38:00,SPECI KORD 271838Z 11030G47KT 4SM -RA FEW004 BKN039 OVC055 14/13 A2949 RMK AO2 PK WND 11047/1838 WSHFT 1812 TSE11B12E32 PRESFR P0022 T01390128 $
2026-04-27 18:30:00,SPECI KORD 271830Z 11029G38KT 3SM -TSRA BR FEW004 BKN050CB OVC070 14/13 A2956 RMK AO2 PK WND 11038/1824 WSHFT 1812 TSE11B12 PRESFR OCNL LTGIC NE TS NE MOV N P0022 T01390128 $
2026-04-27 18:24:00,SPECI KORD 271824Z 11031G38KT 2SM -TSRA BR SCT009 BKN050CB OVC070 14/13 A2966 RMK AO2 PK WND 11038/1824 TSE11B12 PRESFR OCNL LTGIC NE TS NE MOV N P0021 T01390128 $
2026-04-27 18:17:00,SPECI KORD 271817Z 16011G18KT 1 3/4SM R10L/5500VP6000FT -TSRA BR FEW035 BKN047CB OVC070 14/13 A2979 RMK AO2 TSE11B12 PRESFR OCNL LTGIC OHD TS OHD MOV N P0017 T01390128 $
2026-04-27 18:00:00,SPECI KORD 271800Z 18009KT 2SM R10L/6000VP6000FT -TSRA BR FEW026 BKN049CB OVC065 14/13 A2982 RMK AO2 OCNL LTGIC OHD TS OHD MOV N P0007 T01390128 $
2026-04-27 17:51:00,METAR KORD 271751Z 18009KT 1 3/4SM R10L/5500VP6000FT -TSRA BR BKN026 BKN040CB OVC075 14/13 A2982 RMK AO2 TSB09E24B34 SLP101 OCNL LTGIC OHD TS OHD MOV N P0026 60031 T01390128 10150 20128 53003 $
2026-04-27 17:42:00,SPECI KORD 271742Z 17010G17KT 2SM -TSRA BR BKN026 BKN043CB OVC090 14/13 A2983 RMK AO2 TSB09E24B34 OCNL LTGIC OHD TS OHD MOV N P0019 T01390128 $
2026-04-27 17:34:00,SPECI KORD 271734Z 19006KT 3SM -TSRA BR BKN026 BKN047CB OVC085 14/13 A2983 RMK AO2 TSB09E24B34 OCNL LTGIC OHD TS OHD MOV N P0014 T01440128 $
2026-04-27 17:30:00,SPECI KORD 271730Z 19008KT 3SM -RA BR SCT026 BKN049 OVC085 14/12 A2983 RMK AO2 TSB09E24 P0012 T01440122 $
2026-04-27 17:15:00,SPECI KORD 271715Z 19006KT 3SM -TSRA BR FEW029 BKN060CB OVC100 14/12 A2982 RMK AO2 TSB09 OCNL LTGIC N TS N MOV N P0006 T01440122 $
2026-04-27 17:04:00,SPECI KORD 271704Z 19007KT 3SM -RA FEW027 BKN055 OVC110 15/12 A2981 RMK AO2 T01500117 PNO $
2026-04-27 16:51:00,METAR KORD 271651Z 16009KT 10SM -RA FEW090 BKN110 BKN180 OVC250 15/11 A2978 RMK AO2 RAB42 PRESRR SLP086 P0000 T01500111 $
2026-04-27 15:51:00,METAR KORD 271551Z 14011KT 10SM FEW047 FEW075 OVC100 14/12 A2979 RMK AO2 RAE27 SLP089 P0003 T01390117 $
2026-04-27 14:51:00,METAR KORD 271451Z 14010KT 5SM -RA SCT070 OVC095 14/11 A2981 RMK AO2 RAB1353 SLP097 P0002 60002 T01390111 56022 $
2026-04-27 13:51:00,METAR KORD 271351Z 16010KT 10SM BKN095 BKN120 OVC250 14/09 A2984 RMK AO2 SLP106 T01390094 $
2026-04-27 12:51:00,METAR KORD 271251Z 13013KT 10SM SCT075 BKN100 BKN130 OVC250 13/09 A2984 RMK AO2 RAB28E34 PRESFR SLP105 VCSH SE P0000 T01330094 $
2026-04-27 11:51:00,METAR KORD 271151Z 13008KT 10SM FEW075 FEW100 BKN130 OVC250 13/09 A2988 RMK AO2 SLP119 T01280089 10128 20083 56013
2026-04-27 10:51:00,METAR KORD 271051Z 14009KT 10SM FEW100 BKN160 OVC250 12/09 A2989 RMK AO2 SLP122 T01220089 $
2026-04-27 09:51:00,METAR KORD 270951Z 13011KT 10SM BKN160 BKN210 OVC300 12/09 A2988 RMK AO2 SLP118 T01220089 $
2026-04-27 08:51:00,METAR KORD 270851Z 12008KT 10SM BKN190 OVC240 12/09 A2992 RMK AO2 SLP133 T01170089 57021 $
2026-04-27 07:51:00,METAR KORD 270751Z 11007KT 10SM BKN210 OVC250 11/08 A2994 RMK AO2 SLP140 T01060083 $
2026-04-27 06:51:00,METAR KORD 270651Z 07004KT 10SM OVC210 09/07 A2996 RMK AO2 SLP148 T00940067 $
2026-04-27 05:51:00,METAR KORD 270551Z 06004KT 9SM OVC210 08/06 A2999 RMK AO2 SLP155 T00830061 10139 20078 401500056 56018 $
2026-04-27 04:51:00,METAR KORD 270451Z 08010KT 9SM OVC250 08/06 A2999 RMK AO2 SLP157 T00780056 $
2026-04-27 03:51:00,METAR KORD 270351Z 08009KT 10SM OVC250 08/06 A3001 RMK AO2 SLP166 T00780056 $
2026-04-27 02:51:00,METAR KORD 270251Z 07007KT 10SM OVC250 08/06 A3004 RMK AO2 SLP174 T00830061 53015 $
2026-04-27 01:51:00,METAR KORD 270151Z 07007KT 10SM OVC250 10/07 A3002 RMK AO2 SLP168 T01000067 $
2026-04-27 00:51:00,METAR KORD 270051Z 08009KT 10SM FEW200 BKN250 13/08 A3000 RMK AO2 SLP161 T01280078 $
2026-04-26 23:51:00,METAR KORD 262351Z 08008KT 10SM FEW200 SCT250 14/08 A2999 RMK AO2 SLP158 T01390078 10150 20117 56004 $
2026-04-26 22:51:00,METAR KORD 262251Z 09010KT 10SM SCT250 15/08 A3001 RMK AO2 SLP163 T01500078 $
2026-04-26 21:51:00,METAR KORD 262151Z 08011KT 10SM BKN250 14/08 A2999 RMK AO2 SLP157 T01440078 $
2026-04-26 20:51:00,METAR KORD 262051Z 06012G17KT 10SM FEW200 BKN250 14/08 A3001 RMK AO2 SLP162 T01440078 58024 $
2026-04-26 19:51:00,METAR KORD 261951Z 08010KT 10SM FEW019 BKN250 14/08 A3004 RMK AO2 SLP173 T01440078 $
2026-04-26 18:51:00,METAR KORD 261851Z 06011KT 10SM FEW019 SCT250 13/08 A3005 RMK AO2 SLP179 T01330078 $
2026-04-26 18:18:00,SPECI KORD 261818Z 08008KT 10SM SCT016 BKN250 13/07 A3007 RMK AO2 T01280072 $
2026-04-26 17:51:00,METAR KORD 261751Z 05007KT 10SM BKN015 BKN250 12/07 A3008 RMK AO2 SLP188 T01170072 10122 20089 58003 $
2026-04-26 16:51:00,METAR KORD 261651Z 06009KT 10SM OVC011 11/07 A3009 RMK AO2 SLP192 T01110072
2026-04-26 16:41:00,SPECI KORD 261641Z 06009KT 10SM OVC010 11/07 A3009 RMK AO2 T01060072
2026-04-26 15:51:00,METAR KORD 261551Z 09008KT 9SM OVC008 09/07 A3010 RMK AO2 SLP194 T00940072
2026-04-26 14:51:00,METAR KORD 261451Z 07009KT 5SM BR OVC007 09/07 A3009 RMK AO2 SLP191 T00940072 51008
2026-04-26 14:40:00,SPECI KORD 261440Z 06009KT 5SM BR OVC007 09/07 A3008 RMK AO2 T00940072
2026-04-26 14:09:00,SPECI KORD 261409Z 06008KT 4SM BR OVC007 09/07 A3009 RMK AO2 T00940072
2026-04-26 14:01:00,SPECI KORD 261401Z 08008KT 5SM BR OVC007 09/07 A3009 RMK AO2 T00940072
2026-04-26 13:51:00,METAR KORD 261351Z 08007KT 4SM BR OVC006 09/07 A3008 RMK AO2 SLP190 T00940072
2026-04-26 13:21:00,SPECI KORD 261321Z 07007KT 4SM BR OVC006 09/07 A3008 RMK AO2 T00890072
2026-04-26 12:58:00,SPECI KORD 261258Z 09007KT 3SM BR OVC004 09/08 A3007 RMK AO2 T00890078
2026-04-26 12:51:00,METAR KORD 261251Z 08006KT 2 1/2SM BR OVC003 09/08 A3007 RMK AO2 SLP186 T00890078
2026-04-26 12:37:00,SPECI KORD 261237Z VRB06KT 2 1/2SM BR OVC003 08/07 A3008 RMK AO2 T00830072
2026-04-26 12:04:00,SPECI KORD 261204Z 08004KT 4SM R10L/4000VP6000FT BR OVC003 08/07 A3006 RMK AO2 T00780067
2026-04-26 11:51:00,METAR KORD 261151Z 05003KT 5SM BR OVC003 07/07 A3006 RMK AO2 SLP183 T00720067 10072 20056 53011
2026-04-26 10:56:00,SPECI KORD 261056Z 08004KT 6SM BR BKN004 OVC006 07/06 A3005 RMK AO2 T00720056
2026-04-26 10:51:00,METAR KORD 261051Z 03004KT 8SM SCT004 OVC007 07/05 A3005 RMK AO2 SLP179 T00670050
2026-04-26 10:02:00,SPECI KORD 261002Z 03005KT 10SM BKN008 06/04 A3004 RMK AO2 T00610044
2026-04-26 09:51:00,METAR KORD 260951Z 02004KT 10SM SCT009 06/04 A3004 RMK AO2 SLP174 T00560039
2026-04-26 09:32:00,SPECI KORD 260932Z 06005KT 10SM FEW008 06/04 A3003 RMK AO2 T00610044
2026-04-26 08:51:00,METAR KORD 260851Z 35003KT 10SM CLR 06/04 A3003 RMK AO2 SLP171 T00610039 53002
2026-04-26 07:51:00,METAR KORD 260751Z 09005KT 10SM CLR 06/04 A3000 RMK AO2 SLP162 T00560039
2026-04-26 06:51:00,METAR KORD 260651Z 04005KT 10SM FEW300 06/04 A3002 RMK AO2 SLP167 T00610039
2026-04-26 05:51:00,METAR KORD 260551Z 03007KT 10SM FEW250 06/04 A3002 RMK AO2 SLP169 T00610039 10089 20061 401330061 55001
2026-04-26 04:51:00,METAR KORD 260451Z 05008KT 10SM FEW250 07/04 A3001 RMK AO2 SLP164 T00670039
2026-04-26 03:51:00,METAR KORD 260351Z 06010KT 10SM FEW180 SCT250 08/04 A3002 RMK AO2 SLP166 T00780044
2026-04-26 02:51:00,METAR KORD 260251Z 03008KT 10SM FEW180 SCT250 08/04 A3002 RMK AO2 SLP169 T00780044 51008
2026-04-26 01:51:00,METAR KORD 260151Z 02009KT 10SM FEW007 FEW180 SCT250 08/04 A3002 RMK AO2 SLP167 T00830044
2026-04-26 00:51:00,METAR KORD 260051Z 03011KT 10SM FEW007 FEW180 SCT250 08/05 A3001 RMK AO2 SLP165 T00780050
2026-04-25 23:51:00,METAR KORD 252351Z 04011KT 10SM FEW007 BKN250 09/05 A3000 RMK AO2 SLP161 T00890050 10133 20089 50004
2026-04-25 22:51:00,METAR KORD 252251Z 03011G21KT 10SM FEW007 BKN250 11/06 A3000 RMK AO2 SLP162 T01060056
2026-04-25 21:51:00,METAR KORD 252151Z 03011KT 10SM FEW008 BKN250 12/06 A3000 RMK AO2 SLP159 T01170056
2026-04-25 20:51:00,METAR KORD 252051Z 02011KT 10SM FEW008 SCT250 13/06 A2999 RMK AO2 SLP155 T01280061 50000
2026-04-25 19:51:00,METAR KORD 251951Z 05011G19KT 10SM FEW008 FEW030 FEW250 12/06 A2999 RMK AO2 SLP158 T01170061
2026-04-25 18:51:00,METAR KORD 251851Z 04011G18KT 10SM FEW008 FEW030 FEW250 11/06 A3000 RMK AO2 SLP160 T01110056
2026-04-25 18:05:00,SPECI KORD 251805Z 02011KT 10SM FEW008 FEW020 FEW250 12/06 A3000 RMK AO2 T01170061
2026-04-25 17:51:00,METAR KORD 251751Z 03012KT 10SM FEW010 FEW250 12/06 A2999 RMK AO2 SLP155 60000 T01220061 10128 20078 53002
2026-04-25 16:51:00,METAR KORD 251651Z 03011G17KT 10SM FEW020 FEW250 13/06 A2998 RMK AO2 SLP153 T01280061
2026-04-25 15:51:00,METAR KORD 251551Z 02011KT 10SM FEW012 FEW020 FEW250 12/07 A2998 RMK AO2 SLP152 T01170067
2026-04-25 14:51:00,METAR KORD 251451Z 02012KT 10SM SCT012 10/06 A2998 RMK AO2 SLP152 60000 T01000056 56001
2026-04-25 14:45:00,SPECI KORD 251445Z 02013G21KT 10SM SCT012 10/06 A2998 RMK AO2
2026-04-25 14:22:00,SPECI KORD 251422Z 04015KT 10SM BKN010 09/06 A2998 RMK AO2 T00890056
2026-04-25 13:51:00,METAR KORD 251351Z 04015KT 10SM OVC009 08/06 A2998 RMK AO2 DZE30 SLP153 P0000 T00830056
2026-04-25 13:08:00,SPECI KORD 251308Z 03012KT 6SM -DZ BR OVC007 08/07 A2998 RMK AO2 P0000 T00830067
2026-04-25 12:51:00,METAR KORD 251251Z 03013KT 4SM -DZ BR OVC007 08/07 A2998 RMK AO2 SLP153 P0000 T00830067
2026-04-25 12:27:00,SPECI KORD 251227Z 01009KT 4SM -DZ BR OVC007 08/07 A2998 RMK AO2 P0000 T00830067
2026-04-25 11:51:00,METAR KORD 251151Z 02012KT 10SM -DZ OVC009 08/06 A2997 RMK AO2 DZB44 SLP147 P0000 60000 T00830061 10089 20072 51018
2026-04-25 10:56:00,SPECI KORD 251056Z 03015KT 10SM OVC005 08/06 A2995 RMK AO2 T00780056
2026-04-25 10:51:00,METAR KORD 251051Z 03014KT 10SM OVC004 08/06 A2995 RMK AO2 DZB01E32 SLP142 P0000 T00780056
2026-04-25 10:33:00,SPECI KORD 251033Z 03012KT 6SM BR OVC004 08/07 A2995 RMK AO2 DZB01E32 P0000 T00780067
2026-04-25 10:25:00,SPECI KORD 251025Z 03011KT 3SM -DZ BR OVC004 08/07 A2994 RMK AO2 DZB01 P0000 T00780067
2026-04-25 10:18:00,SPECI KORD 251018Z 03010KT 1 1/2SM -DZ BR OVC004 08/07 A2994 RMK AO2 DZB01 P0000 T00780067
2026-04-25 10:02:00,SPECI KORD 251002Z 03007KT 2SM -DZ BR OVC006 08/07 A2993 RMK AO2 DZB01 P0000 T00780067
2026-04-25 09:51:00,METAR KORD 250951Z 01010KT 7SM OVC009 08/06 A2993 RMK AO2 SLP134 T00780061
2026-04-25 08:51:00,METAR KORD 250851Z 03011KT 10SM OVC009 08/06 A2991 RMK AO2 SLP129 T00830061 53014
2026-04-25 07:58:00,SPECI KORD 250758Z 03010KT 10SM OVC008 09/07 A2989 RMK AO2 T00890067
2026-04-25 07:51:00,METAR KORD 250751Z 04009KT 10SM OVC010 09/07 A2989 RMK AO2 SLP119 T00890067
2026-04-25 07:43:00,SPECI KORD 250743Z 02009KT 10SM OVC010 09/06 A2988 RMK AO2 T00890061
2026-04-25 06:51:00,METAR KORD 250651Z 03008KT 10SM BKN009 09/06 A2987 RMK AO2 SLP115 T00890056
2026-04-25 06:47:00,SPECI KORD 250647Z 03009KT 10SM BKN009 09/06 A2987 RMK AO2
2026-04-25 05:51:00,METAR KORD 250551Z 04012KT 10SM SCT009 SCT250 09/06 A2986 RMK AO2 SLP111 T00890061 10206 20089 402170089 51015
2026-04-25 05:38:00,SPECI KORD 250538Z 03013KT 10SM SCT009 SCT250 09/06 A2986 RMK AO2 T00940061
2026-04-25 04:51:00,METAR KORD 250451Z 03011KT 10SM BKN008 BKN045 BKN250 10/08 A2986 RMK AO2 SLP110 T01000083
2026-04-25 04:41:00,SPECI KORD 250441Z 03013KT 10SM FEW008 FEW045 SCT250 10/08 A2985 RMK AO2 T01000083
2026-04-25 03:51:00,METAR KORD 250351Z 03006KT 10SM FEW045 SCT250 15/11 A2983 RMK AO2 SLP100 T01500111
2026-04-25 02:51:00,METAR KORD 250251Z 01007KT 10SM FEW045 BKN250 16/10 A2982 RMK AO2 SLP095 T01560100 53024
2026-04-25 01:51:00,METAR KORD 250151Z 35010KT 10SM FEW045 BKN250 18/10 A2979 RMK AO2 SLP085 T01780100
2026-04-25 00:51:00,METAR KORD 250051Z 30006KT 10SM FEW043 BKN250 19/11 A2975 RMK AO2 SLP072 T01940106
2026-04-24 23:51:00,METAR KORD 242351Z 31009KT 10SM SCT042 BKN250 21/11 A2974 RMK AO2 SLP068 T02060106 10211 20194 53007
2026-04-24 22:51:00,METAR KORD 242251Z 28010KT 10SM BKN042 BKN250 21/12 A2973 RMK AO2 SLP063 T02060117
2026-04-24 21:51:00,METAR KORD 242151Z 27007KT 10SM SCT039 BKN250 21/12 A2972 RMK AO2 SLP058 T02060122
2026-04-24 20:51:00,METAR KORD 242051Z 26009KT 10SM BKN032 BKN041 BKN250 20/12 A2972 RMK AO2 SLP062 T02000122 50006
2026-04-24 19:51:00,METAR KORD 241951Z 27010KT 10SM BKN037 OVC250 19/12 A2972 RMK AO2 SLP063 T01940122
2026-04-24 18:51:00,METAR KORD 241851Z 28008KT 10SM SCT030 BKN130 OVC250 20/13 A2971 RMK AO2 SLP058 T02000128
2026-04-24 17:51:00,METAR KORD 241751Z 27009KT 10SM FEW030 SCT130 BKN160 OVC250 21/13 A2970 RMK AO2 SLP055 T02060128 10217 20194 51013
2026-04-24 16:51:00,METAR KORD 241651Z 27010KT 10SM FEW040 FEW100 BKN170 BKN250 21/12 A2970 RMK AO2 SLP053 T02110117
2026-04-24 15:51:00,METAR KORD 241551Z 26009G20KT 10SM FEW028 SCT043 BKN200 BKN250 21/12 A2969 RMK AO2 SLP049 T02060117
2026-04-24 14:51:00,METAR KORD 241451Z 28012G21KT 10SM SCT026 BKN032 OVC110 19/13 A2967 RMK AO2 SLP042 T01940128 53021
2026-04-24 13:51:00,METAR KORD 241351Z 22009KT 10SM FEW035 SCT110 BKN200 BKN250 21/16 A2964 RMK AO2 SLP033 T02110156
2026-04-24 12:51:00,METAR KORD 241251Z 21008G15KT 10SM FEW030 SCT150 BKN200 BKN250 20/15 A2963 RMK AO2 PRESRR SLP028 T02000150
2026-04-24 11:51:00,METAR KORD 241151Z 17005KT 10SM FEW030 FEW070 BKN190 BKN250 20/14 A2960 RMK AO2 SLP019 T02000144 10217 20200 58010
2026-04-24 10:51:00,METAR KORD 241051Z 21005KT 10SM BKN031 BKN070 BKN250 20/14 A2962 RMK AO2 SLP025 T02000144
2026-04-24 09:51:00,METAR KORD 240951Z 20007KT 10SM BKN043 BKN070 BKN250 21/14 A2963 RMK AO2 SLP027 T02060139
2026-04-24 08:51:00,METAR KORD 240851Z 19009G17KT 10SM SCT055 BKN250 20/13 A2963 RMK AO2 SLP030 T02000133 56016
2026-04-24 07:51:00,METAR KORD 240751Z 18012KT 10SM SCT060 BKN250 21/13 A2965 RMK AO2 SLP034 T02060133
2026-04-24 06:51:00,METAR KORD 240651Z 19011KT 10SM SCT060 BKN150 BKN250 21/13 A2967 RMK AO2 SLP042 T02110128
2026-04-24 05:51:00,METAR KORD 240551Z 19010G19KT 10SM FEW090 OVC250 22/12 A2968 RMK AO2 SLP046 T02170122 10256 20211 402720111 58010
2026-04-24 04:51:00,METAR KORD 240451Z 18010G18KT 10SM SCT090 BKN250 22/12 A2971 RMK AO2 LTG DSNT E SLP055 T02170117
2026-04-24 03:51:00,METAR KORD 240351Z 18010KT 10SM FEW085 BKN250 22/11 A2971 RMK AO2 SLP057 T02220111
2026-04-24 02:51:00,METAR KORD 240251Z 17010KT 10SM BKN250 23/11 A2971 RMK AO2 LTG DSNT S SLP056 T02330106 53007
2026-04-24 01:51:00,METAR KORD 240151Z 17009KT 10SM BKN250 23/11 A2970 RMK AO2 SLP052 T02330106
2026-04-24 00:51:00,METAR KORD 240051Z 18009KT 10SM BKN250 25/11 A2969 RMK AO2 SLP050 T02500106
2026-04-23 23:51:00,METAR KORD 232351Z 18014G25KT 10SM FEW065 SCT300 26/11 A2969 RMK AO2 PK WND 18028/2258 SLP051 T02560106 10272 20250 56023
2026-04-23 22:51:00,METAR KORD 232251Z 18017G25KT 10SM SCT065 BKN300 27/12 A2971 RMK AO2 SLP058 T02670117
2026-04-23 21:51:00,METAR KORD 232151Z 21013G21KT 10SM SCT065 BKN300 27/11 A2973 RMK AO2 PK WND 21028/2058 SLP064 T02670111
2026-04-23 20:51:00,METAR KORD 232051Z 21012G22KT 10SM SCT065 BKN300 27/12 A2976 RMK AO2 PK WND 18026/2032 SLP074 T02670117 58027
2026-04-23 19:51:00,METAR KORD 231951Z 19017G26KT 10SM SCT060 OVC300 27/11 A2979 RMK AO2 PK WND 18026/1947 SLP085 T02670111
2026-04-23 18:51:00,METAR KORD 231851Z 18011G22KT 10SM SCT055 BKN250 26/13 A2982 RMK AO2 SLP094 T02610128
2026-04-23 17:51:00,METAR KORD 231751Z 19012G24KT 10SM BKN050 BKN250 26/13 A2984 RMK AO2 SLP102 T02560133 10256 20139 57016
2026-04-23 16:51:00,METAR KORD 231651Z 17013G20KT 10SM SCT046 SCT250 25/13 A2986 RMK AO2 SLP108 T02500133
2026-04-23 15:51:00,METAR KORD 231551Z 18008KT 10SM FEW042 FEW250 24/14 A2988 RMK AO2 SLP115 T02390144
2026-04-23 14:51:00,METAR KORD 231451Z 19005KT 10SM FEW050 FEW250 22/14 A2989 RMK AO2 SLP120 T02220144 58009
2026-04-23 13:51:00,METAR KORD 231351Z 19005KT 10SM FEW040 FEW250 20/14 A2991 RMK AO2 SLP126 T02000144
2026-04-23 12:51:00,METAR KORD 231251Z 20006KT 10SM FEW250 17/13 A2992 RMK AO2 SLP130 T01670128
2026-04-23 11:51:00,METAR KORD 231151Z 21005KT 10SM FEW250 14/11 A2992 RMK AO2 SLP131 T01390111 10139 20111 53003
2026-04-23 10:51:00,METAR KORD 231051Z 21006KT 10SM FEW250 12/09 A2991 RMK AO2 SLP128 T01220089
2026-04-23 09:51:00,METAR KORD 230951Z 00000KT 8SM FEW250 12/08 A2990 RMK AO2 SLP125 T01170078
2026-04-23 08:51:00,METAR KORD 230851Z 00000KT 10SM FEW250 11/06 A2991 RMK AO2 SLP128 T01110061 56010
2026-04-23 07:51:00,METAR KORD 230751Z 25003KT 10SM FEW250 11/05 A2992 RMK AO2 SLP130 T01110050
2026-04-23 06:51:00,METAR KORD 230651Z 00000KT 10SM FEW250 11/04 A2993 RMK AO2 SLP133 T01110039
2026-04-23 05:51:00,METAR KORD 230551Z 00000KT 10SM FEW250 11/03 A2994 RMK AO2 SLP139 T01110028 10156 20106 402280106 56002
2026-04-23 04:51:00,METAR KORD 230451Z 00000KT 10SM FEW250 11/02 A2995 RMK AO2 SLP141 T01110022
2026-04-23 03:51:00,METAR KORD 230351Z 10004KT 10SM FEW250 11/01 A2994 RMK AO2 SLP139 T01060011
2026-04-23 02:51:00,METAR KORD 230251Z 09006KT 10SM FEW250 11/01 A2995 RMK AO2 SLP141 T01110006 51006
2026-04-23 01:51:00,METAR KORD 230151Z 06007KT 10SM FEW250 12/00 A2995 RMK AO2 SLP140 T01170000
2026-04-23 00:51:00,METAR KORD 230051Z 05009KT 10SM SCT250 13/02 A2994 RMK AO2 SLP139 T01280022
2026-04-22 23:51:00,METAR KORD 222351Z 06007KT 10SM SCT250 16/08 A2993 RMK AO2 SLP133 T01560078 10228 20156 56006
2026-04-22 22:51:00,METAR KORD 222251Z 07009KT 10SM SCT250 17/09 A2993 RMK AO2 SLP133 T01720089
2026-04-22 21:51:00,METAR KORD 222151Z 07010KT 10SM FEW035 18/09 A2993 RMK AO2 SLP135 T01830094
2026-04-22 20:51:00,METAR KORD 222051Z 06009KT 10SM FEW035 19/11 A2995 RMK AO2 SLP138 T01940106 56003
2026-04-22 19:51:00,METAR KORD 221951Z 03012KT 10SM FEW037 21/12 A2995 RMK AO2 SLP139 T02110117
2026-04-22 18:51:00,METAR KORD 221851Z 05006KT 10SM FEW010 FEW029 22/14 A2995 RMK AO2 SLP139 T02220139
2026-04-22 17:51:00,METAR KORD 221751Z 11006KT 10SM FEW026 FEW250 21/14 A2995 RMK AO2 SLP141 T02110139 10211 20156 58001
2026-04-22 16:51:00,METAR KORD 221651Z 08005KT 10SM SCT026 SCT250 18/11 A2997 RMK AO2 SLP145 T01830111
2026-04-22 16:45:00,SPECI KORD 221645Z 08006KT 10SM BKN026 18/11 A2997 RMK AO2
2026-04-22 15:51:00,METAR KORD 221551Z 03008KT 10SM BKN022 16/09 A2996 RMK AO2 SLP143 T01560094
2026-04-22 14:51:00,METAR KORD 221451Z 28008KT 10SM BKN021 20/14 A2994 RMK AO2 SLP135 T02000144 51008
2026-04-22 14:12:00,SPECI KORD 221412Z 26009KT 10SM BKN020 BKN090 20/14 A2993 RMK AO2 T02000144
2026-04-22 13:51:00,METAR KORD 221351Z 28010KT 10SM SCT022 SCT090 SCT250 19/14 A2993 RMK AO2 SLP131 T01940144
2026-04-22 12:51:00,METAR KORD 221251Z 26008KT 10SM FEW065 FEW100 FEW250 18/14 A2993 RMK AO2 SLP130 T01830139
2026-04-22 11:51:00,METAR KORD 221151Z 24010G18KT 10SM FEW060 FEW100 FEW250 17/13 A2991 RMK AO2 SLP125 T01720133 10172 20161 53011
2026-04-22 10:51:00,METAR KORD 221051Z 23009KT 10SM FEW100 FEW250 17/13 A2990 RMK AO2 SLP120 T01670128 $
2026-04-22 09:51:00,METAR KORD 220951Z 23006KT 10SM SCT110 SCT250 17/12 A2989 RMK AO2 SLP117 T01670122 $
2026-04-22 08:51:00,METAR KORD 220851Z 24007KT 10SM FEW100 FEW250 17/12 A2988 RMK AO2 SLP115 T01670122 55000 $
2026-04-22 07:51:00,METAR KORD 220751Z 23005KT 10SM CLR 16/12 A2987 RMK AO2 SLP113 T01610122 $
2026-04-22 06:51:00,METAR KORD 220651Z 23006KT 10SM CLR 17/12 A2987 RMK AO2 SLP112 T01720117 $
2026-04-22 05:51:00,METAR KORD 220551Z 23006KT 10SM CLR 17/12 A2988 RMK AO2 SLP115 T01720122 10239 20172 402440100 58001 $
2026-04-22 04:51:00,METAR KORD 220451Z 24006KT 10SM CLR 18/12 A2988 RMK AO2 SLP115 T01830122 $
2026-04-22 03:51:00,METAR KORD 220351Z 24006KT 10SM FEW250 19/12 A2988 RMK AO2 SLP116 T01890117 $
2026-04-22 02:51:00,METAR KORD 220251Z 23005KT 10SM FEW250 19/12 A2988 RMK AO2 SLP116 T01940117 51010 $
2026-04-22 01:51:00,METAR KORD 220151Z 22004KT 10SM SCT250 21/12 A2987 RMK AO2 SLP114 T02110117 $
2026-04-22 00:51:00,METAR KORD 220051Z 24004KT 10SM FEW060 BKN250 22/11 A2986 RMK AO2 SLP110 T02220106 $
2026-04-21 23:51:00,METAR KORD 212351Z 28009KT 10SM FEW060 BKN250 24/11 A2985 RMK AO2 SLP107 60000 T02390106 10244 20217 53001 $
2026-04-21 22:51:00,METAR KORD 212251Z 26013G18KT 10SM SCT060 BKN250 24/11 A2985 RMK AO2 SLP106 T02440106 $
2026-04-21 21:51:00,METAR KORD 212151Z 27011G21KT 10SM BKN060 24/11 A2984 RMK AO2 PK WND 26026/2139 SLP101 T02440111 $
2026-04-21 20:51:00,METAR KORD 212051Z 27011KT 10SM BKN055 BKN095 BKN250 23/11 A2985 RMK AO2 RAB1959E08 TSE28 SLP105 P0000 60000 T02280106 58005 $
2026-04-21 20:34:00,SPECI KORD 212034Z 24008G15KT 10SM BKN055 BKN095 BKN120 OVC250 22/10 A2985 RMK AO2 RAB1959E08 TSE28 P0000 T02220100 $
2026-04-21 19:51:00,METAR KORD 211951Z 26014G19KT 10SM TS SCT055CB BKN095 BKN120 OVC250 22/09 A2986 RMK AO2 TSB45 SLP108 OCNL LTGICCG N TS N MOV SE T02220094 $
2026-04-21 19:45:00,SPECI KORD 211945Z 26009G17KT 10SM TS SCT055CB BKN095 BKN120 OVC250 22/09 A2985 RMK AO2 TSB45 OCNL LTGICCG N TS N MOV SE $
2026-04-21 18:51:00,METAR KORD 211851Z 23012G25KT 10SM FEW050 SCT065 SCT100 BKN150 BKN250 23/09 A2986 RMK AO2 PK WND 21030/1833 PRESRR SLP111 CB DSNT NE MOV SE T02330094 $
2026-04-21 17:51:00,METAR KORD 211751Z 21014G23KT 10SM FEW060 FEW110 SCT200 BKN300 22/09 A2986 RMK AO2 PK WND 23027/1703 SLP111 CB DSNT N MOV SE T02220094 10222 20111 58022 $
2026-04-21 16:51:00,METAR KORD 211651Z 24018G25KT 10SM FEW060 FEW100 SCT200 SCT250 21/08 A2989 RMK AO2 PK WND 23028/1606 SLP119 CB DSNT N MOV SE T02060083 $
2026-04-21 15:51:00,METAR KORD 211551Z 23015G26KT 10SM FEW070 FEW170 SCT250 19/07 A2992 RMK AO2 PK WND 23026/1507 SLP131 CB DSNT N-NE T01940072 $
2026-04-21 14:51:00,METAR KORD 211451Z 23015G30KT 10SM FEW180 SCT250 18/06 A2993 RMK AO2 PK WND 22030/1450 SLP134 T01780061 58018 $
2026-04-21 13:51:00,METAR KORD 211351Z 21014G23KT 10SM FEW180 SCT250 16/06 A2995 RMK AO2 SLP142 T01560056 $
2026-04-21 12:51:00,METAR KORD 211251Z 21009KT 10SM SCT180 BKN250 13/04 A2997 RMK AO2 SLP149 T01280044 $
2026-04-21 11:51:00,METAR KORD 211151Z 20009G18KT 10SM BKN180 BKN250 11/03 A2998 RMK AO2 SLP153 VIRGA OHD T01110033 10111 20100 58014
2026-04-21 10:51:00,METAR KORD 211051Z 20009KT 10SM SCT170 SCT220 11/02 A3000 RMK AO2 SLP158 T01060017 $
2026-04-21 09:51:00,METAR KORD 210951Z 19009KT 10SM SCT220 11/01 A3001 RMK AO2 SLP164 T01060006 $
2026-04-21 08:51:00,METAR KORD 210851Z 19010KT 10SM BKN220 11/M01 A3002 RMK AO2 SLP169 T01061011 56022 $
2026-04-21 07:51:00,METAR KORD 210751Z 18009KT 10SM BKN220 11/M01 A3004 RMK AO2 SLP174 T01061011 $
2026-04-21 06:51:00,METAR KORD 210651Z 19010G18KT 10SM BKN250 11/M02 A3007 RMK AO2 SLP184 T01061022 $
2026-04-21 05:51:00,METAR KORD 210551Z 19008KT 10SM BKN250 11/M02 A3009 RMK AO2 SLP191 T01061022 10128 20100 401330006 56014 $
2026-04-21 04:51:00,METAR KORD 210451Z 17009KT 10SM BKN250 10/M02 A3009 RMK AO2 SLP193 T01001022 $
2026-04-21 03:51:00,METAR KORD 210351Z 18009G16KT 10SM BKN240 11/M03 A3011 RMK AO2 SLP199 T01061028 $
2026-04-21 02:51:00,METAR KORD 210251Z 19011G15KT 10SM FEW170 FEW250 11/M03 A3013 RMK AO2 SLP206 T01111028 56009 $
2026-04-21 01:51:00,METAR KORD 210151Z 18008KT 10SM FEW170 SCT250 12/M03 A3013 RMK AO2 SLP206 T01171033 $
2026-04-21 00:51:00,METAR KORD 210051Z 17008G16KT 10SM SCT170 BKN250 12/M04 A3013 RMK AO2 SLP206 T01221039 $
2026-04-20 23:51:00,METAR KORD 202351Z 18011KT 10SM SCT170 BKN250 13/M04 A3016 RMK AO2 SLP217 T01281044 10133 20100 58027 $
2026-04-20 22:51:00,METAR KORD 202251Z 18007KT 10SM SCT210 BKN250 13/M04 A3019 RMK AO2 SLP228 T01331044 $
2026-04-20 21:51:00,METAR KORD 202151Z 19007G17KT 10SM SCT180 BKN250 13/M05 A3022 RMK AO2 SLP238 T01331050 $
2026-04-20 20:51:00,METAR KORD 202051Z 22012G17KT 10SM SCT250 13/M06 A3024 RMK AO2 SLP245 T01281056 58025 $
2026-04-20 19:51:00,METAR KORD 201951Z 18009KT 10SM SCT250 12/M05 A3028 RMK AO2 SLP256 T01171050 $
2026-04-20 18:51:00,METAR KORD 201851Z 22007G16KT 10SM FEW060 FEW250 11/M06 A3029 RMK AO2 SLP261 T01111061 $
2026-04-20 17:51:00,METAR KORD 201751Z 20007KT 160V240 10SM FEW055 SCT250 11/M07 A3032 RMK AO2 SLP270 T01061067 10106 20028 58010 $
2026-04-20 16:51:00,METAR KORD 201651Z 20007KT 10SM FEW047 SCT250 09/M07 A3034 RMK AO2 SLP278 T00891072 $
2026-04-20 15:51:00,METAR KORD 201551Z 19005KT 10SM FEW044 SCT050 SCT250 09/M05 A3035 RMK AO2 SLP280 T00891050 $
2026-04-20 14:51:00,METAR KORD 201451Z 17007KT 10SM SCT039 SCT250 07/M04 A3035 RMK AO2 SLP282 T00671039 50004 $
2026-04-20 13:51:00,METAR KORD 201351Z 13006KT 10SM FEW038 SCT250 07/M02 A3036 RMK AO2 SLP283 T00671017
2026-04-20 12:51:00,METAR KORD 201251Z 12005KT 10SM FEW250 05/M02 A3036 RMK AO2 SLP283 T00501017
2026-04-20 11:51:00,METAR KORD 201151Z 11003KT 10SM FEW250 03/M01 A3034 RMK AO2 SLP278 70001 T00281011 10039 20006 53018
2026-04-20 10:51:00,METAR KORD 201051Z 02003KT 10SM CLR 02/M02 A3031 RMK AO2 SLP270 T00221022 $
2026-04-20 09:51:00,METAR KORD 200951Z 00000KT 10SM CLR 02/M01 A3029 RMK AO2 SLP262 T00171011 $
2026-04-20 08:51:00,METAR KORD 200851Z 00000KT 10SM CLR 01/M02 A3028 RMK AO2 SLP259 T00111022 53007 $
2026-04-20 07:51:00,METAR KORD 200751Z 24003KT 10SM CLR 02/M02 A3027 RMK AO2 SLP254 T00171017 $
2026-04-20 06:51:00,METAR KORD 200651Z 00000KT 10SM CLR 03/M02 A3027 RMK AO2 SLP254 T00281022 $
2026-04-20 05:51:00,METAR KORD 200551Z 00000KT 10SM CLR 04/M03 A3026 RMK AO2 SLP251 T00391028 10083 20033 401000022 53012 $
2026-04-20 04:51:00,METAR KORD 200451Z 08004KT 10SM FEW085 04/M03 A3025 RMK AO2 SLP247 T00441033 $
2026-04-20 03:51:00,METAR KORD 200351Z 09006KT 10SM SCT085 04/M03 A3023 RMK AO2 SLP242 T00441028 $
2026-04-20 02:51:00,METAR KORD 200251Z 10004KT 10SM BKN085 04/M02 A3022 RMK AO2 SLP239 VIRGA T00441017 53025 $
2026-04-20 01:51:00,METAR KORD 200151Z 00000KT 10SM FEW075 BKN090 06/M04 A3020 RMK AO2 SLP229 VIRGA T00611039 $
2026-04-20 00:51:00,METAR KORD 200051Z 34007KT 10SM SCT075 BKN090 BKN250 08/M08 A3017 RMK AO2 SLP219 VIRGA T00781083 $
2026-04-19 23:51:00,METAR KORD 192351Z 36008KT 10SM BKN075 BKN090 BKN250 08/M04 A3015 RMK AO2 SLP214 60001 T00781044 10100 20050 53007 $
2026-04-19 22:51:00,METAR KORD 192251Z 33011G21KT 10SM SCT060 BKN085 BKN250 08/M04 A3013 RMK AO2 SLP209 VIRGA T00831039 $
2026-04-19 21:51:00,METAR KORD 192151Z 32009G21KT 10SM FEW045 BKN065 BKN090 BKN250 09/M05 A3013 RMK AO2 SLP205 T00891050 $
2026-04-19 20:51:00,METAR KORD 192051Z 34016G26KT 10SM SCT055 BKN075 BKN090 BKN250 08/M01 A3013 RMK AO2 PK WND 36026/2045 RAB22E32 SLP206 VCSH P0000 60001 T00781006 51009 $
2026-04-19 19:51:00,METAR KORD 191951Z 31011G22KT 10SM FEW020 SCT047 BKN090 BKN250 09/M02 A3012 RMK AO2 SLP202 RAE1854 P0000 T00891017 $
2026-04-19 18:51:00,METAR KORD 191851Z COR 26007KT 10SM -RA FEW017 BKN033 BKN075 BKN250 06/01 A3012 RMK AO2 PK WND 31027/1808 RAB05 TSB35E50 SLP205 P0001 T00610011 $
2026-04-19 18:38:00,SPECI KORD 191838Z 30009KT 10SM -TSRA BKN033CB BKN046 BKN060 BKN250 05/01 A3013 RMK AO2 PK WND 31027/1808 RAB05 TSB35 OCNL LTGIC OHD TS OHD MOV SE P0001 T00500011 $
2026-04-19 17:51:00,METAR KORD 191751Z 27016G26KT 10SM SCT047 BKN070 BKN250 09/M03 A3010 RMK AO2 PK WND 28026/1748 RAE00 SLP196 P0000 60000 T00891033 10094 20028 58001 $
2026-04-19 16:51:00,METAR KORD 191651Z 27015G30KT 10SM -RA BKN050 OVC250 07/M02 A3012 RMK AO2 PK WND 30031/1601 RAB50 SLP204 P0000 T00671022 $
2026-04-19 15:51:00,METAR KORD 191551Z 29012G24KT 10SM FEW075 SCT100 BKN250 09/M05 A3010 RMK AO2 PK WND 28027/1537 SLP196 T00891050 $
2026-04-19 14:51:00,METAR KORD 191451Z 26015G26KT 10SM FEW060 SCT080 BKN250 08/M07 A3010 RMK AO2 PK WND 29026/1447 SLP198 T00781072 53006 $
2026-04-19 13:51:00,METAR KORD 191351Z 24007KT 10SM BKN090 BKN250 07/M03 A3009 RMK AO2 SLP194 T00671033 $
2026-04-19 12:51:00,METAR KORD 191251Z 24006KT 10SM FEW100 BKN250 05/M03 A3010 RMK AO2 SLP195 T00501028 $
2026-04-19 11:51:00,METAR KORD 191151Z 23006KT 10SM FEW100 03/M03 A3009 RMK AO2 SLP193 T00281028 10044 20022 53002 $
2026-04-19 10:51:00,METAR KORD 191051Z 23005KT 10SM CLR 02/M03 A3008 RMK AO2 SLP190 T00221028 $
2026-04-19 09:51:00,METAR KORD 190951Z 23006KT 10SM CLR 03/M03 A3008 RMK AO2 SLP191 T00281033 $
2026-04-19 08:51:00,METAR KORD 190851Z 23005KT 10SM CLR 03/M03 A3008 RMK AO2 SLP190 T00281028 53004 $
2026-04-19 07:51:00,METAR KORD 190751Z 24006KT 10SM CLR 03/M03 A3007 RMK AO2 SLP186 T00331033 $
2026-04-19 06:51:00,METAR KORD 190651Z 24005KT 10SM CLR 04/M03 A3007 RMK AO2 SLP185 T00391033 $
2026-04-19 05:51:00,METAR KORD 190551Z 25005KT 10SM CLR 04/M03 A3007 RMK AO2 SLP185 T00441033 10078 20044 401720044 51005 $
2026-04-19 04:51:00,METAR KORD 190451Z 27005KT 10SM CLR 06/M04 A3006 RMK AO2 SLP183 T00561044 $
2026-04-19 03:51:00,METAR KORD 190351Z 26006KT 10SM CLR 06/M04 A3006 RMK AO2 SLP183 T00561039 $
2026-04-19 02:51:00,METAR KORD 190251Z 27009KT 10SM CLR 06/M04 A3005 RMK AO2 SLP180 T00611039 53023 $
2026-04-19 01:51:00,METAR KORD 190151Z 27012G20KT 10SM FEW050 07/M04 A3003 RMK AO2 PK WND 26030/0055 SLP172 T00671044 $
2026-04-19 00:51:00,METAR KORD 190051Z 28012G26KT 10SM FEW050 FEW250 07/M04 A3000 RMK AO2 PK WND 30035/0012 SLP163 T00721039 $
2026-04-18 23:51:00,METAR KORD 182351Z 27021G32KT 10SM SCT050 SCT250 08/M05 A2998 RMK AO2 PK WND 27034/2313 SLP155 T00781050 10106 20078 53023 $
2026-04-18 22:51:00,METAR KORD 182251Z 29017G28KT 10SM FEW050 FEW250 09/M03 A2996 RMK AO2 PK WND 26034/2227 SLP147 T00891033 $
2026-04-18 21:51:00,METAR KORD 182151Z 26019G32KT 10SM SCT047 SCT250 09/M02 A2993 RMK AO2 PK WND 27036/2139 SLP136 T00941022 $
2026-04-18 20:51:00,METAR KORD 182051Z 28019G27KT 10SM BKN048 BKN250 09/M02 A2991 RMK AO2 PK WND 29034/2009 SLP130 T00941017 51008 $
2026-04-18 19:51:00,METAR KORD 181951Z 26019G28KT 10SM BKN046 BKN250 09/M02 A2991 RMK AO2 PK WND 27033/1932 SLP128 T00941017 $
2026-04-18 18:51:00,METAR KORD 181851Z 27013G27KT 240V310 10SM FEW039 FEW250 09/M01 A2991 RMK AO2 PK WND 25027/1845 SLP127 T00941011 $
2026-04-18 17:51:00,METAR KORD 181751Z 27014G26KT 10SM SCT034 SCT250 09/M01 A2989 RMK AO2 PK WND 26027/1741 SLP121 T00891011 10089 20067 51023 $
2026-04-18 16:51:00,METAR KORD 181651Z 28015G22KT 10SM SCT029 SCT250 08/M01 A2987 RMK AO2 SLP116 T00781006 $
2026-04-18 15:51:00,METAR KORD 181551Z 28013G24KT 10SM SCT026 BKN250 07/00 A2986 RMK AO2 SLP111 T00720000 $
2026-04-18 14:51:00,METAR KORD 181451Z 29013G19KT 10SM FEW024 SCT120 SCT220 BKN250 07/01 A2982 RMK AO2 SLP097 T00670006 51029 $
2026-04-18 13:51:00,METAR KORD 181351Z 28014G25KT 10SM SCT024 SCT100 BKN210 OVC250 07/02 A2980 RMK AO2 SLP090 T00720017 $
2026-04-18 13:43:00,SPECI KORD 181343Z 28016G25KT 10SM SCT023 SCT070 OVC230 07/02 A2980 RMK AO2 T00720017 $
2026-04-18 13:20:00,SPECI KORD 181320Z 28014G21KT 10SM BKN023 BKN070 OVC220 08/02 A2978 RMK AO2 T00780022 $
2026-04-18 12:51:00,METAR KORD 181251Z 29014G22KT 10SM SCT024 SCT070 SCT130 OVC220 08/02 A2976 RMK AO2 PK WND 30027/1205 SLP077 T00780022 $
2026-04-18 12:32:00,SPECI KORD 181232Z 29012G20KT 10SM SCT022 BKN065 OVC120 08/02 A2975 RMK AO2 PK WND 30027/1205 T00780022 $
2026-04-18 11:51:00,METAR KORD 181151Z 27014G22KT 10SM BKN017 OVC050 08/04 A2973 RMK AO2 SLP066 CIG 015V020 60011 70061 T00830044 10172 20083 53034 $
2026-04-18 11:43:00,SPECI KORD 181143Z 27013G23KT 10SM OVC017 08/04 A2973 RMK AO2 T00830044 $
2026-04-18 10:51:00,METAR KORD 181051Z 28014G22KT 10SM OVC011 09/07 A2968 RMK AO2 SLP049 T00940067 $
2026-04-18 09:58:00,SPECI KORD 180958Z 27016G23KT 10SM OVC010 11/08 A2966 RMK AO2 T01060083 $
2026-04-18 09:51:00,METAR KORD 180951Z 26014G21KT 10SM OVC009 11/08 A2966 RMK AO2 SLP039 T01060083 $
2026-04-18 08:51:00,METAR KORD 180851Z 26013G21KT 10SM BKN009 OVC036 13/12 A2963 RMK AO2 SLP030 60011 T01330117 51016 $
2026-04-18 08:49:00,SPECI KORD 180849Z 27012G21KT 10SM BKN009 OVC036 13/12 A2963 RMK AO2 $
2026-04-18 08:13:00,SPECI KORD 180813Z 24015G25KT 10SM BKN012 BKN020 OVC027 16/13 A2961 RMK AO2 T01560133 $
2026-04-18 07:51:00,METAR KORD 180751Z 22017G24KT 10SM FEW008 BKN016 OVC120 16/14 A2959 RMK AO2 RAE13 SLP017 P0003 T01610144 $
2026-04-18 07:43:00,SPECI KORD 180743Z 22010G17KT 10SM FEW008 BKN016 OVC120 16/15 A2959 RMK AO2 RAE13 P0003 T01610150 $
2026-04-18 07:22:00,SPECI KORD 180722Z 22009KT 10SM BKN016 BKN095 OVC120 16/15 A2959 RMK AO2 RAE13 P0003 T01610150 $
2026-04-18 06:51:00,METAR KORD 180651Z 21007KT 5SM RA BR BKN075 OVC090 17/15 A2958 RMK AO2 PK WND 23029/0608 PRESFR SLP013 P0008 T01670150 $
2026-04-18 05:51:00,METAR KORD 180551Z 23016G25KT 10SM -RA FEW070 OVC100 17/15 A2963 RMK AO2 SLP029 RAE0458B41 P0000 60050 T01720150 10256 20167 402720094 55012 $
2026-04-18 04:51:00,METAR KORD 180451Z COR 21012G21KT 10SM -RA SCT070 OVC130 17/15 A2959 RMK AO2 TSE47 SLP017 P0012 T01670150 $
2026-04-18 03:51:00,METAR KORD 180351Z 23013G23KT 5SM TSRA BR FEW040CB BKN080 OVC150 17/16 A2967 RMK AO2 WSHFT 0239 SLP042 FRQ LTGICCCCG ALQDS TS ALQDS MOV NE P0019 T01720156 $
2026-04-18 03:22:00,SPECI KORD 180322Z 24010G16KT 5SM -TSRA BR FEW010 SCT040CB OVC085 17/16 A2965 RMK AO2 WSHFT 0239 CONS LTGICCG NE-S TS NE-S MOV NE P0011 T01720156 $
2026-04-18 02:59:00,SPECI KORD 180259Z 25011G24KT 3SM TSRA BR BKN043CB BKN060 OVC100 18/16 A2964 RMK AO2 WSHFT 0239 CONS LTGICCG OHD TS OHD MOV NE P0008 T01780156 $
2026-04-18 02:51:00,METAR KORD 180251Z 24013G41KT 3SM +TSRA BR BKN043CB BKN060 OVC100 18/16 A2966 RMK AO2 PK WND 24041/0245 SLP042 FRQ LTGICCG OHD TS OHD MOV NE P0018 60019 T01830156 53017 $
2026-04-18 01:51:00,METAR KORD 180151Z 16009KT 8SM -TSRA BKN049CB BKN070 BKN100 OVC130 23/18 A2962 RMK AO2 PK WND 18028/0054 SLP027 FRQ LTGICCG OHD RAB31 TSB31 TS OHD MOV NE P0001 T02330183 $
2026-04-18 01:37:00,SPECI KORD 180137Z 18014G26KT 10SM -TSRA BKN047CB BKN130 OVC250 24/18 A2965 RMK AO2 PK WND 18028/0054 FRQ LTGICCG OHD RAB31 TSB31 TS OHD MOV NE P0000 T02440178 $
2026-04-18 00:51:00,METAR KORD 180051Z 16017G28KT 10SM SCT055 BKN150 OVC250 25/17 A2960 RMK AO2 PK WND 17031/0005 SLP019 T02500172 $
2026-04-17 23:51:00,METAR KORD 172351Z 17018G28KT 10SM FEW055 SCT150 OVC250 26/17 A2961 RMK AO2 PK WND 18033/2306 SLP025 T02560167 10272 20250 56033 $
2026-04-17 22:51:00,METAR KORD 172251Z 17020G29KT 10SM SCT055 OVC250 26/16 A2965 RMK AO2 PK WND 15034/2239 SLP036 T02610161 $
2026-04-17 21:51:00,METAR KORD 172151Z 18020G34KT 10SM SCT055 OVC250 27/16 A2965 RMK AO2 PK WND 19034/2149 SLP037 T02670156 $
2026-04-17 20:51:00,METAR KORD 172051Z 18012G28KT 10SM SCT047 OVC250 27/16 A2971 RMK AO2 PK WND 17031/1959 SLP058 T02670156 56042 $
2026-04-17 19:51:00,METAR KORD 171951Z 17018G28KT 10SM SCT047 BKN250 26/16 A2973 RMK AO2 PK WND 19029/1940 PRESFR SLP067 T02560161 $
2026-04-17 18:51:00,METAR KORD 171851Z 17014G27KT 10SM FEW038 BKN055 BKN250 25/17 A2981 RMK AO2 PK WND 17027/1845 SLP093 T02500167 $
2026-04-17 17:51:00,METAR KORD 171751Z 18012G22KT 10SM FEW035 FEW060 BKN250 25/16 A2984 RMK AO2 SLP101 T02500161 10250 20100 58020 $
2026-04-17 16:51:00,METAR KORD 171651Z 17014G22KT 10SM BKN250 23/16 A2986 RMK AO2 SLP109 T02280161 $
2026-04-17 15:51:00,METAR KORD 171551Z 16007KT 10SM BKN250 22/15 A2989 RMK AO2 SLP119 T02220150 $
2026-04-17 14:51:00,METAR KORD 171451Z 15009KT 10SM BKN250 20/13 A2990 RMK AO2 SLP123 T02000133 58006 $
2026-04-17 13:51:00,METAR KORD 171351Z 15009KT 7SM BKN250 17/12 A2991 RMK AO2 SLP127 T01670122 $
2026-04-17 13:06:00,SPECI KORD 171306Z 14006KT 5SM HZ BKN250 14/11 A2991 RMK AO2 T01390111 $
2026-04-17 12:51:00,METAR KORD 171251Z 14004KT 4SM BR BKN250 13/11 A2991 RMK AO2 SLP129 T01330111
2026-04-17 12:29:00,SPECI KORD 171229Z 13005KT 3SM BR BKN250 12/11 A2991 RMK AO2 T01220111
2026-04-17 11:51:00,METAR KORD 171151Z 14004KT 2SM BR FEW002 FEW250 10/10 A2992 RMK AO2 SLP131 70007 T01000100 10100 20094 53001
2026-04-17 11:18:00,SPECI KORD 171118Z 14003KT 2SM BR FEW001 SCT250 10/09 A2991 RMK AO2 T01000094 $
2026-04-17 11:04:00,SPECI KORD 171104Z 13004KT 1 1/4SM BR SCT001 SCT250 09/09 A2991 RMK AO2 T00940094 $
2026-04-17 10:51:00,METAR KORD 171051Z 14004KT 1/2SM R10L/P6000FT FG BKN000 10/09 A2991 RMK AO2 SLP128 FG BKN000 T01000094 $
2026-04-17 10:47:00,SPECI KORD 171047Z 15004KT 1/2SM R10L/P6000FT FG BKN000 09/09 A2991 RMK AO2 FG BKN000 $
2026-04-17 10:33:00,SPECI KORD 171033Z 11003KT 1SM R10L/P6000FT BR BKN002 10/09 A2990 RMK AO2 T01000094 $
2026-04-17 09:51:00,METAR KORD 170951Z 10004KT 1/8SM R10L/2400VP6000FT FG VV002 10/09 A2991 RMK AO2 SLP128 T01000094 $
2026-04-17 09:17:00,SPECI KORD 170917Z 17003KT 1/8SM R10L/1600V3500FT FG VV002 10/10 A2992 RMK AO2 T01000100 $
2026-04-17 08:51:00,METAR KORD 170851Z 13003KT 1/2SM R10L/P6000FT FG BKN002 09/09 A2991 RMK AO2 SLP129 T00940089 58009 $
2026-04-17 08:34:00,SPECI KORD 170834Z 16004KT 1SM R10L/P6000FT BR BKN002 09/09 A2992 RMK AO2 T00940089 $
2026-04-17 07:51:00,METAR KORD 170751Z 09004KT 1/2SM R10L/P6000FT FG BKN002 09/09 A2992 RMK AO2 SLP133 T00940094 $
2026-04-17 07:25:00,SPECI KORD 170725Z 12005KT 1/2SM R10L/2400VP6000FT FG VV002 10/09 A2993 RMK AO2 T01000094 $
2026-04-17 07:13:00,SPECI KORD 170713Z 09003KT 1/8SM R10L/2000V2600FT FG VV001 09/09 A2993 RMK AO2 T00940094 $
2026-04-17 07:04:00,SPECI KORD 170704Z 09003KT 1/8SM R10L/1400V2200FT FG VV001 09/09 A2993 RMK AO2 T00940094 $
2026-04-17 06:51:00,METAR KORD 170651Z 09003KT 1/8SM R10L/1400V3500FT FG VV001 09/09 A2994 RMK AO2 SLP137 T00940094 $
2026-04-17 06:08:00,SPECI KORD 170608Z 09005KT 1/8SM R10L/1600VP6000FT FG VV001 09/09 A2994 RMK AO2 T00940089 $
2026-04-17 05:51:00,METAR KORD 170551Z 09004KT 1/4SM R10L/4000VP6000FT FG OVC002 09/09 A2994 RMK AO2 SLP138 T00940089 10150 20094 402330094 58001 $
2026-04-17 05:48:00,SPECI KORD 170548Z 10004KT 1/4SM R10L/4000VP6000FT FG OVC002 09/09 A2994 RMK AO2 $
2026-04-17 05:19:00,SPECI KORD 170519Z 10005KT 1/2SM R10L/P6000FT FG VV002 10/09 A2994 RMK AO2 T01000094 $
2026-04-17 04:58:00,SPECI KORD 170458Z 09005KT 1SM R10L/P6000FT BR BKN004 10/09 A2994 RMK AO2 T01000094 $
2026-04-17 04:51:00,METAR KORD 170451Z 08005KT 1SM R10L/P6000FT BR BKN005 10/09 A2995 RMK AO2 SLP140 T01000094 $
2026-04-17 04:34:00,SPECI KORD 170434Z 07005KT 2SM BR BKN005 11/09 A2995 RMK AO2 T01060094 $
2026-04-17 04:20:00,SPECI KORD 170420Z 05004KT 4SM BR BKN005 11/09 A2995 RMK AO2 VIS NW-NE 1 T01060094 $
2026-04-17 04:08:00,SPECI KORD 170408Z 09005KT 5SM BR BKN005 11/09 A2994 RMK AO2 T01060094 $
2026-04-17 03:51:00,METAR KORD 170351Z 10004KT 9SM SCT005 11/09 A2994 RMK AO2 SLP139 T01060094 $
2026-04-17 02:51:00,METAR KORD 170251Z 11005KT 10SM FEW005 11/09 A2993 RMK AO2 SLP135 T01060094 53020 $
2026-04-17 01:51:00,METAR KORD 170151Z 08006KT 10SM FEW005 12/09 A2991 RMK AO2 SLP127 T01170094 $
2026-04-17 00:51:00,METAR KORD 170051Z 04006KT 10SM FEW005 FEW045 12/11 A2989 RMK AO2 SLP121 T01220106 $
2026-04-16 23:51:00,METAR KORD 162351Z 08006KT 10SM FEW005 SCT045 15/12 A2987 RMK AO2 SLP115 T01500117 10233 20150 53020 $
2026-04-16 23:45:00,SPECI KORD 162345Z 04009KT 10SM FEW005 SCT045 15/12 A2987 RMK AO2 $
2026-04-16 22:51:00,METAR KORD 162251Z 05011KT 10SM BKN047 18/13 A2985 RMK AO2 SLP107 T01780128 $
2026-04-16 21:51:00,METAR KORD 162151Z 06008KT 10SM BKN045 23/12 A2983 RMK AO2 SLP099 WSHFT 13 T02330117 $
2026-04-16 21:25:00,SPECI KORD 162125Z 06008KT 10SM BKN045TCU BKN075 23/11 A2982 RMK AO2 WSHFT 13 TCU E-SE T02280111 $
2026-04-16 21:15:00,SPECI KORD 162115Z 05012G19KT 10SM BKN045TCU BKN075 23/12 A2982 RMK AO2 WSHFT 13 TCU E-SE T02280122 $
2026-04-16 20:51:00,METAR KORD 162051Z 28012KT 10SM BKN043TCU BKN070 22/12 A2981 RMK AO2 SLP093 TCU NE-SE T02170122 51011 $
2026-04-16 19:51:00,METAR KORD 161951Z 28010G16KT 10SM BKN045TCU BKN060 22/13 A2980 RMK AO2 SLP090 TCU NE-E T02220133 $
2026-04-16 18:51:00,METAR KORD 161851Z 27013G20KT 10SM SCT031 SCT050 BKN080 22/13 A2979 RMK AO2 SLP086 CB DSNT E-SE T02170133 $
2026-04-16 17:51:00,METAR KORD 161751Z 26010G16KT 10SM FEW027 SCT042 BKN055 21/16 A2978 RMK AO2 SLP082 RAB10E16 TSB05E22 CB DSNT NE-E P0000 60007 T02110156 10211 20156 51014 $
2026-04-16 17:40:00,SPECI KORD 161740Z 27013KT 10SM FEW021 SCT027 BKN042TCU 21/15 A2978 RMK AO2 RAB10E16 TSB05E22 CB DSNT NE-E TCU OHD P0000 T02060150 $
2026-04-16 17:24:00,SPECI KORD 161724Z 27008G18KT 10SM SCT021 BKN027 BKN042TCU 19/15 A2978 RMK AO2 RAB10E16 TSB05E22 CB DSNT NE-E TCU OHD P0000 T01940150 $
2026-04-16 17:05:00,SPECI KORD 161705Z 25011KT 10SM TS BKN021 BKN042CB BKN080 21/16 A2977 RMK AO2 TSE03B05 OCNL LTGICCG NE TS NE MOV E T02060156 $
2026-04-16 16:51:00,METAR KORD 161651Z 24011G20KT 10SM BKN017 BKN042TCU 19/16 A2977 RMK AO2 SLP080 CB DSNT NE TCU N T01940156 $
2026-04-16 16:18:00,SPECI KORD 161618Z 25012G19KT 10SM BKN017 BKN025 19/16 A2977 RMK AO2 T01940161 $
2026-04-16 16:05:00,SPECI KORD 161605Z 23015G21KT 10SM FEW017 BKN025 BKN045 19/16 A2977 RMK AO2 T01890161 $
2026-04-16 15:51:00,METAR KORD 161551Z 24010G19KT 10SM FEW016 SCT024 BKN049 18/16 A2976 RMK AO2 RAB20E39 SLP076 TCU DSNT N-E P0007 T01830161 $
2026-04-16 15:39:00,SPECI KORD 161539Z 23011G18KT 8SM SCT019 BKN042 18/16 A2976 RMK AO2 RAB20E39 P0007 T01830156 $
2026-04-16 15:30:00,SPECI KORD 161530Z 26010G21KT 4SM R10L/5500VP6000FT -RA SCT017 BKN022 BKN060 18/16 A2975 RMK AO2 RAB20 P0006 T01830156 $
2026-04-16 14:51:00,METAR KORD 161451Z 23009G19KT 10SM SCT016 BKN043 19/16 A2974 RMK AO2 SLP068 T01890156 53001 $
2026-04-16 14:48:00,SPECI KORD 161448Z 23013G23KT 10SM SCT016 BKN043 19/16 A2974 RMK AO2 $
2026-04-16 14:06:00,SPECI KORD 161406Z 22010G19KT 10SM BKN015 18/16 A2973 RMK AO2 T01780156 $
2026-04-16 13:51:00,METAR KORD 161351Z 23008KT 10SM OVC013 17/15 A2973 RMK AO2 SLP065 T01720150 $
2026-04-16 12:51:00,METAR KORD 161251Z 22009KT 10SM OVC011 16/14 A2974 RMK AO2 SLP066 T01610144 $
2026-04-16 12:18:00,SPECI KORD 161218Z 20009KT 10SM OVC013 16/14 A2973 RMK AO2 T01610144 $
2026-04-16 11:51:00,METAR KORD 161151Z 18007KT 10SM BKN017 OVC023 16/14 A2973 RMK AO2 RAB1057E26 SLP063 P0003 60012 70060 T01560139 10161 20150 51005
2026-04-16 11:28:00,SPECI KORD 161128Z 17009KT 10SM OVC023 16/14 A2972 RMK AO2 RAB1057E26 P0003 T01560139
2026-04-16 11:09:00,SPECI KORD 161109Z 18008KT 9SM -RA SCT023 BKN028 OVC036 16/14 A2972 RMK AO2 RAB1057 P0002 T01560139 $
2026-04-16 10:51:00,METAR KORD 161051Z 17008KT 10SM BKN038 OVC045 16/14 A2972 RMK AO2 RAB0955E51 SLP061 P0009 T01560139 $
2026-04-16 09:51:00,METAR KORD 160951Z 18007KT 9SM BKN040 OVC047 16/13 A2972 RMK AO2 SLP062 T01560133 $
2026-04-16 08:51:00,METAR KORD 160851Z 15007KT 10SM BKN090 BKN150 OVC250 16/14 A2971 RMK AO2 SLP057 T01560139 58016 $
2026-04-16 07:51:00,METAR KORD 160751Z 15010KT 10SM SCT065 BKN150 OVC250 16/14 A2973 RMK AO2 SLP065 T01560139 $
2026-04-16 06:51:00,METAR KORD 160651Z 14006KT 10SM SCT070 BKN110 OVC250 16/14 A2976 RMK AO2 SLP075 T01610144 $
2026-04-16 05:51:00,METAR KORD 160551Z 11009KT 10SM BKN080 BKN100 OVC250 16/14 A2976 RMK AO2 RAE35 SLP074 P0001 60042 T01610144 10222 20156 402220156 58009 $
2026-04-16 04:51:00,METAR KORD 160451Z 32012KT 7SM RA FEW050 BKN070 OVC090 16/14 A2982 RMK AO2 TSE02 SLP095 P0009 T01560144 $
2026-04-16 04:03:00,SPECI KORD 160403Z 31009KT 10SM RA SCT036 BKN044 OVC050 16/14 A2981 RMK AO2 TSE02 OCNL LTGIC DSNT SE CB DSNT SE MOV SE P0001 T01610144
2026-04-16 03:51:00,METAR KORD 160351Z 35009KT 7SM -TSRA SCT025 BKN038CB OVC045 16/14 A2978 RMK AO2 PK WND 31039/0319 WSHFT 0302 RAB17 TSB08 SLP084 OCNL LTGICCG E-SW TS E-SW MOV SE P0032 T01560144
2026-04-16 03:28:00,SPECI KORD 160328Z 30015G39KT 3SM R10L/5500VP6000FT +TSRA BR FEW018 BKN025 OVC038CB 16/14 A2981 RMK AO2 PK WND 31039/0319 WSHFT 0302 RAB17 TSB08 PRESRR OCNL LTGICCG OHD TS OHD MOV SE P0008 T01560139
2026-04-16 03:17:00,SPECI KORD 160317Z 32018G30KT 10SM -TSRA BKN025CB BKN070 OVC095 18/13 A2979 RMK AO2 PK WND 30030/0317 WSHFT 0302 RAB17 TSB08 PRESRR OCNL LTGICCG W-NW TS W-NW MOV SE P0000 T01830133
2026-04-16 03:10:00,SPECI KORD 160310Z 24013G24KT 10SM TS BKN025CB BKN070 OVC095 21/17 A2975 RMK AO2 TSB08 OCNL LTGICCG W-NW TS W-NW MOV SE T02110167
2026-04-16 02:51:00,METAR KORD 160251Z 21014G21KT 10SM BKN025 BKN070 OVC095 21/17 A2974 RMK AO2 PK WND 22028/0204 SLP067 OCNL LTGICCG DSNT W-NW CB DSNT W-NW MOV SE T02110167 53002
2026-04-16 02:16:00,SPECI KORD 160216Z 21016G24KT 10SM BKN027 BKN035 OVC047 22/16 A2975 RMK AO2 PK WND 22028/0204 T02170161
2026-04-16 01:51:00,METAR KORD 160151Z 20017G35KT 10SM SCT028 BKN037 BKN055 OVC250 22/16 A2972 RMK AO2 PK WND 20035/0141 SLP063 T02170161
2026-04-16 00:51:00,METAR KORD 160051Z 20016G26KT 10SM FEW031 SCT043 BKN080 OVC250 22/16 A2973 RMK AO2 PK WND 21026/0044 SLP064 T02220161
2026-04-15 23:51:00,METAR KORD 152351Z 19016G25KT 10SM SCT027 BKN041 BKN100 OVC250 22/17 A2973 RMK AO2 SLP064 60000 T02220167 10222 20194 58020
2026-04-15 22:51:00,METAR KORD 152251Z 19009KT 10SM SCT028 BKN100 BKN170 BKN250 22/17 A2976 RMK AO2 SLP072 T02220172
2026-04-15 21:51:00,METAR KORD 152151Z 21011KT 10SM FEW020 SCT100 BKN250 22/16 A2978 RMK AO2 SLP080 T02170161
2026-04-15 20:51:00,METAR KORD 152051Z 23009KT 10SM SCT100 OVC250 21/16 A2979 RMK AO2 SLP085 60000 T02110161 58001
2026-04-15 19:51:00,METAR KORD 151951Z 22011KT 10SM FEW015 BKN090 OVC200 20/16 A2981 RMK AO2 SLP091 T02000161
2026-04-15 18:51:00,METAR KORD 151851Z 23012G18KT 10SM FEW015 FEW080 BKN110 OVC250 20/16 A2981 RMK AO2 RAB27E42 SLP090 P0000 T02000156
2026-04-15 17:51:00,METAR KORD 151751Z 22012KT 10SM FEW012 BKN140 BKN170 OVC250 19/16 A2979 RMK AO2 SLP086 60006 T01940156 10194 20172 51010
2026-04-15 16:51:00,METAR KORD 151651Z 18011KT 10SM FEW012 BKN140 OVC250 18/16 A2979 RMK AO2 RAE17 SLP085 P0000 T01830156
2026-04-15 15:51:00,METAR KORD 151551Z 16012G22KT 10SM -RA OVC100 18/15 A2978 RMK AO2 SLP084 P0000 T01780150
2026-04-15 14:51:00,METAR KORD 151451Z 20003KT 10SM -RA OVC100 17/15 A2976 RMK AO2 RAB00E19B44 SLP074 P0000 60006 T01720150 56014
2026-04-15 13:51:00,METAR KORD 151351Z 18007KT 10SM BKN090 OVC110 17/16 A2977 RMK AO2 SLP078 T01720156
2026-04-15 12:51:00,METAR KORD 151251Z 00000KT 10SM FEW060 FEW100 OVC160 17/15 A2976 RMK AO2 RAE47 SLP074 P0006 T01720150
2026-04-15 12:21:00,SPECI KORD 151221Z 26007KT 8SM -RA FEW046 BKN095 OVC120 17/15 A2979 RMK AO2 P0006 T01720150
2026-04-15 12:10:00,SPECI KORD 151210Z 27009KT 2 1/2SM +RA BR SCT049 OVC085 17/15 A2980 RMK AO2 P0005 T01720150
2026-04-15 11:51:00,METAR KORD 151151Z 27009KT 7SM RA SCT055 BKN070 OVC090 18/16 A2980 RMK AO2 SLP088 P0005 60005 70227 T01780156 10206 20178 53030
2026-04-15 10:51:00,METAR KORD 151051Z 26007KT 10SM -RA BKN055 BKN100 OVC250 20/17 A2976 RMK AO2 RAB14 SLP072 P0000 T02000172
2026-04-15 09:51:00,METAR KORD 150951Z 23007KT 10SM BKN030 BKN070 OVC250 20/18 A2974 RMK AO2 SLP065 OCNL LTGIC DSNT SW CB DSNT SW MOV NE T02000178
2026-04-15 08:51:00,METAR KORD 150851Z 14006KT 8SM BKN040 OVC250 18/17 A2971 RMK AO2 LTG DSNT N AND NW SLP056 OCNL LTGIC DSNT N CB DSNT N MOV E 60000 T01780167 58002
2026-04-15 07:51:00,METAR KORD 150751Z 10004KT 10SM BKN045 OVC250 18/17 A2973 RMK AO2 LTG DSNT NE AND NW SLP062 T01830172
2026-04-15 06:51:00,METAR KORD 150651Z 15008KT 10SM FEW032 SCT050 BKN150 OVC250 18/16 A2970 RMK AO2 RAE0559 TSE12 SLP054 OCNL LTGIC DSNT N-E CB DSNT N-E MOV E P0000 T01780161
2026-04-15 06:14:00,SPECI KORD 150614Z 15008KT 10SM BKN032 BKN045 OVC060 18/17 A2972 RMK AO2 RAE0559 TSE12 OCNL LTGICCG DSNT NE CB DSNT NE MOV E P0000 T01830167
2026-04-15 05:51:00,METAR KORD 150551Z 00000KT 7SM -TSRA FEW020 BKN034CB OVC150 18/16 A2972 RMK AO2 SLP058 OCNL LTGICCCCG NW-E TS NW-E MOV E P0049 60221 T01830161 10267 20167 402780139 56005
2026-04-15 05:48:00,SPECI KORD 150548Z 33004KT 7SM -TSRA FEW020 BKN034CB OVC150 19/16 A2972 RMK AO2 OCNL LTGICCCCG NW-E TS NW-E MOV E P0049
2026-04-15 05:32:00,SPECI KORD 150532Z 17013KT 1SM R10L/3500VP6000FT TSRA BR FEW020 BKN034CB OVC150 18/16 A2971 RMK AO2 FRQ LTGICCCCG OHD TS OHD MOV E P0048 T01780161
2026-04-15 05:15:00,SPECI KORD 150515Z 10004KT 2 1/2SM R10L/4000VP6000FT +TSRA BR FEW020 BKN034CB OVC150 18/17 A2972 RMK AO2 VIS 1 3/4V4 FRQ LTGICCCCG OHD TS OHD MOV E P0015 T01780167
2026-04-15 04:51:00,METAR KORD 150451Z 16008KT 10SM -TSRA FEW019 BKN036CB OVC046 18/17 A2973 RMK AO2 PK WND 32026/0401 GRE0354 SLP062 OCNL LTGICCCCG ALQDS TS ALQDS MOV E P0071 T01780167
2026-04-15 04:44:00,SPECI KORD 150444Z VRB03KT 7SM -TSRA FEW019 BKN036CB OVC046 18/17 A2974 RMK AO2 PK WND 32026/0401 GRE0354 FRQ LTGICCCCG ALQDS TS ALQDS MOV E P0071 T01780167
2026-04-15 04:26:00,SPECI KORD 150426Z 34005KT 4SM -TSRA BR SCT021 BKN033CB OVC046 17/16 A2972 RMK AO2 PK WND 32026/0401 GRE0354 CONS LTGICCCCG ALQDS TS ALQDS MOV E P0070 T01720161
2026-04-15 03:56:00,SPECI KORD 150356Z 30010G22KT 1SM R10L/3500VP6000FT +TSRA BR SCT013 BKN030CB OVC070 17/17 A2974 RMK AO2 GRE54 CONS LTGICCCCG OHD TS OHD MOV E P0009 T01720167
2026-04-15 03:51:00,METAR KORD 150351Z 27013G37KT 1/2SM R10L/1400VP6000FT +TSGRRA SCT015 BKN030CB OVC070 18/17 A2973 RMK AO2 PK WND 29043/0341 RAB09GRB44 SLP065 WSHFT 04 CONS LTGICCCCG OHD TS OHD MOV E GR 1/2 P0101 T01780172
2026-04-15 03:45:00,SPECI KORD 150345Z 32022G43KT 1/2SM R10L/1400VP6000FT +TSGRRA SCT019 BKN039CB OVC070 17/17 A2971 RMK AO2 PK WND 29043/0341 RAB09GRB44 WSHFT 04 CONS LTGICCCCG OHD TS OHD MOV E GR 1/2 P0071
2026-04-15 03:21:00,SPECI KORD 150321Z 32015G29KT 1SM R10L/6000VP6000FT +TSRA BR SCT019 BKN039CB OVC070 17/15 A2975 RMK AO2 PK WND 36033/0311 RAB09 WSHFT 04 CONS LTGICCCCG OHD TS OHD MOV E P0006 T01670150
2026-04-15 03:16:00,SPECI KORD 150316Z 32016G33KT 4SM R10L/6000VP6000FT TSRA BR BKN050CB BKN070 OVC140 17/16 A2974 RMK AO2 PK WND 36033/0311 RAB09 WSHFT 04 CONS LTGICCCCG OHD TS OHD MOV E P0002 T01720156
2026-04-15 02:51:00,METAR KORD 150251Z 20018G28KT 10SM TS SCT048CB BKN075 BKN140 OVC220 26/18 A2964 RMK AO2 PK WND 19028/0249 SLP033 TSB48 LTGICCCCG W-N TS W-N MOV E T02610183 55008
2026-04-15 02:49:00,SPECI KORD 150249Z 19019G28KT 10SM TS SCT048CB BKN080 BKN150 OVC240 26/18 A2964 RMK AO2 PK WND 19028/0249 TSB48 LTGICCCCG W-N TS W-N MOV E
2026-04-15 01:51:00,METAR KORD 150151Z 20011G23KT 10SM FEW044 BKN150 OVC250 26/18 A2966 RMK AO2 SLP040 CONS LTGICCCCA DSNT NW-N CB DSNT NW-N MOV E T02610183
2026-04-15 00:51:00,METAR KORD 150051Z 20015G22KT 10SM FEW046 SCT140 BKN240 OVC300 27/18 A2967 RMK AO2 SLP043 T02670178
2026-04-14 23:51:00,METAR KORD 142351Z 21011G28KT 10SM FEW040 SCT048 SCT140 BKN240 OVC300 27/18 A2965 RMK AO2 PK WND 20028/2335 SLP036 T02670178 10278 20256 58024
2026-04-14 22:51:00,METAR KORD 142251Z 21020G30KT 10SM SCT039 SCT140 BKN250 27/19 A2968 RMK AO2 PK WND 21031/2247 SLP046 T02670189
2026-04-14 21:51:00,METAR KORD 142151Z 21020G27KT 10SM SCT039 BKN050 BKN150 BKN250 27/18 A2971 RMK AO2 PK WND 19027/2133 SLP057 T02670183
2026-04-14 21:27:00,SPECI KORD 142127Z 22015G25KT 10SM SCT040 BKN150 BKN250 27/18 A2972 RMK AO2 PK WND 19027/2056 T02670178
2026-04-14 20:51:00,METAR KORD 142051Z 17016G23KT 10SM FEW041 SCT140 BKN250 28/18 A2972 RMK AO2 SLP060 T02780183 58022
2026-04-14 19:51:00,METAR KORD 141951Z 21013G26KT 10SM SCT040 BKN160 BKN250 26/17 A2977 RMK AO2 PK WND 19026/1942 SLP076 T02610172
2026-04-14 18:51:00,METAR KORD 141851Z 24014G23KT 10SM SCT036 BKN250 27/17 A2977 RMK AO2 PK WND 23026/1759 SLP077 T02670172
2026-04-14 17:51:00,METAR KORD 141751Z 21013G21KT 10SM FEW034 SCT250 26/17 A2978 RMK AO2 SLP081 60001 T02560172 10256 20139 58013
2026-04-14 16:51:00,METAR KORD 141651Z 21011KT 10SM BKN034 BKN230 24/16 A2982 RMK AO2 SLP092 T02390161
2026-04-14 15:51:00,METAR KORD 141551Z 19009KT 10SM BKN038 22/16 A2982 RMK AO2 SLP094 T02170161
2026-04-14 14:51:00,METAR KORD 141451Z 18008KT 10SM FEW050 SCT200 BKN250 19/15 A2982 RMK AO2 SLP096 60001 T01890150 58003
2026-04-14 13:51:00,METAR KORD 141351Z 18011G17KT 10SM BKN040 OVC060 16/13 A2985 RMK AO2 SLP106 T01560128
2026-04-14 12:51:00,METAR KORD 141251Z 15011KT 10SM FEW030 BKN065 BKN180 OVC230 14/13 A2983 RMK AO2 RAB1154E28 TSE00 SLP099 P0001 T01390128
2026-04-14 12:06:00,SPECI KORD 141206Z 14010KT 10SM -RA FEW031 BKN050 BKN110 OVC250 14/13 A2983 RMK AO2 RAB1154 TSE00 CB DSNT NE AND DSNT S-SW P0000 T01390128
2026-04-14 11:51:00,METAR KORD 141151Z 13008KT 10SM TS SCT034CB BKN060 BKN100 OVC250 14/13 A2983 RMK AO2 RAE51 TSB1058 SLP100 OCNL LTGICCG N-NE TS N-NE MOV NE P0018 60021 70026 T01390128 10222 20139 50006
2026-04-14 11:49:00,SPECI KORD 141149Z 12009KT 10SM -TSRA SCT034CB BKN055 BKN100 OVC250 14/13 A2984 RMK AO2 TSB1058 OCNL LTGICCG N-NE TS N-NE MOV NE P0018
2026-04-14 11:40:00,SPECI KORD 141140Z 10008KT 4SM +TSRA BR SCT038CB BKN055 OVC100 14/13 A2983 RMK AO2 TSB1058 FRQ LTGICCG OHD TS OHD MOV NE P0015 T01390128
2026-04-14 11:04:00,SPECI KORD 141104Z 08006KT 10SM -TSRA BKN037CB BKN060 OVC150 14/12 A2983 RMK AO2 TSB1058 OCNL LTGICCCCG W-NW TS W-NW MOV E P0000 T01440122
2026-04-14 10:51:00,METAR KORD 141051Z 07005KT 6SM -RA BR FEW015 BKN037 BKN055 OVC150 14/12 A2985 RMK AO2 RAB45 SLP104 P0001 T01440122
2026-04-14 09:51:00,METAR KORD 140951Z 05010KT 10SM SCT042 BKN050 BKN085 OVC250 16/13 A2982 RMK AO2 RAB0858E19 TSE28 SLP093 P0002 T01610133
2026-04-14 09:29:00,SPECI KORD 140929Z 09008KT 10SM SCT042 BKN050 BKN085 OVC250 16/14 A2980 RMK AO2 RAB0858E19 TSE28 OCNL LTGIC DSNT SE CB DSNT SE MOV SE P0002 T01610139
2026-04-14 08:51:00,METAR KORD 140851Z 34010KT 10SM TS SCT023 BKN031CB OVC040 17/13 A2982 RMK AO2 PK WND 01031/0821 WSHFT 0756 RAB46E50 TSB24 SLP096 FRQ LTGICCG OHD TS OHD MOV SE P0000 60000 T01670133 53024
2026-04-14 08:25:00,SPECI KORD 140825Z 35016G31KT 10SM TS SCT026 BKN040CB OVC250 18/13 A2981 RMK AO2 PK WND 01031/0821 WSHFT 0756 TSB24 OCNL LTGICCG NW-NE TS NW-NE MOV SE T01780128
2026-04-14 08:13:00,SPECI KORD 140813Z 35022G30KT 10SM SCT027 BKN050 BKN250 18/13 A2980 RMK AO2 PK WND 33030/0813 WSHFT 0756 OCNL LTGICCG DSNT NW-NE CB DSNT NW-NE MOV SE T01780133
2026-04-14 08:05:00,SPECI KORD 140805Z 35024G29KT 10SM FEW025 21/15 A2980 RMK AO2 PK WND 35029/0805 WSHFT 0751 PRESRR T02060150
2026-04-14 07:51:00,METAR KORD 140751Z 22019G27KT 10SM SCT050 BKN250 22/17 A2973 RMK AO2 PK WND 20027/0658 SLP064 OCNL LTGIC DSNT NW CB DSNT NW MOV SE T02170167
2026-04-14 06:51:00,METAR KORD 140651Z 21019G29KT 10SM FEW050 BKN250 22/17 A2973 RMK AO2 PK WND 20032/0616 SLP064 T02170167
2026-04-14 05:51:00,METAR KORD 140551Z 21015G28KT 10SM FEW048 BKN250 22/17 A2975 RMK AO2 PK WND 21029/0510 SLP071 60000 T02220167 10233 20222 402610167 50001
2026-04-14 04:51:00,METAR KORD 140451Z 20016G32KT 10SM BKN250 22/17 A2976 RMK AO2 PK WND 19032/0446 SLP073 T02220167
2026-04-14 03:51:00,METAR KORD 140351Z 19014G24KT 10SM SCT250 22/17 A2976 RMK AO2 PK WND 19029/0300 SLP075 T02220167
2026-04-14 02:51:00,METAR KORD 140251Z 19013G23KT 10SM FEW250 23/17 A2975 RMK AO2 PK WND 17029/0159 SLP070 60000 T02280167 55020
2026-04-14 01:51:00,METAR KORD 140151Z 17015G26KT 10SM FEW170 BKN250 23/17 A2974 RMK AO2 PK WND 18026/0141 SLP068 T02330167
2026-04-14 00:51:00,METAR KORD 140051Z 17012G22KT 10SM FEW060 FEW120 SCT180 OVC250 23/16 A2978 RMK AO2 RAE2353 TSE15 SLP080 P0000 T02280156
2026-04-14 00:21:00,SPECI KORD 140021Z 16009KT 10SM FEW060 SCT120 BKN160 OVC250 22/14 A2980 RMK AO2 RAE2353 TSE15 P0000 T02220139
2026-04-13 23:51:00,METAR KORD 132351Z 18007KT 10SM -TSRA FEW030 FEW060 SCT100CB BKN150 OVC250 23/14 A2981 RMK AO2 RAB25 TSB16 SLP090 OCNL LTGICCG OHD TS OHD MOV E P0005 60005 T02280139 10261 20222 58010
2026-04-13 23:17:00,SPECI KORD 132317Z 19008KT 10SM TS SCT120CB BKN170 OVC250 24/12 A2982 RMK AO2 TSB16 OCNL LTGICCG W TS W MOV E T02440122
2026-04-13 22:51:00,METAR KORD 132251Z 20010KT 10SM SCT120 BKN170 BKN250 25/12 A2984 RMK AO2 SLP101 TCU DSNT E T02500122
2026-04-13 21:51:00,METAR KORD 132151Z 19013G19KT 10SM FEW040 SCT110 BKN160 OVC250 26/16 A2983 RMK AO2 SLP097 T02560161
2026-04-13 20:51:00,METAR KORD 132051Z 20009KT 10SM FEW040 FEW130 BKN190 BKN250 25/17 A2984 RMK AO2 SLP101 CB DSNT SW MOV NE T02500167 58023
2026-04-13 19:51:00,METAR KORD 131951Z 22008KT 10SM SCT028 BKN043 BKN150 OVC250 23/17 A2990 RMK AO2 SLP121 T02280172
2026-04-13 18:51:00,METAR KORD 131851Z 21011G17KT 10SM FEW022 SCT032 BKN170 BKN250 23/17 A2990 RMK AO2 SLP122 T02330172
2026-04-13 18:31:00,SPECI KORD 131831Z 23011KT 10SM SCT024 BKN030 BKN250 23/17 A2990 RMK AO2 T02280172
2026-04-13 17:51:00,METAR KORD 131751Z 22011KT 10SM OVC025 22/17 A2991 RMK AO2 SLP126 60000 T02220172 10222 20178 56007
2026-04-13 16:51:00,METAR KORD 131651Z 21012G18KT 10SM SCT016 OVC027 22/18 A2991 RMK AO2 SLP127 T02170178
2026-04-13 16:26:00,SPECI KORD 131626Z 21010KT 10SM BKN015 OVC028 21/18 A2992 RMK AO2 T02110178
2026-04-13 15:51:00,METAR KORD 131551Z 21008KT 10SM BKN011 OVC027 20/17 A2993 RMK AO2 SLP132 T02000172
2026-04-13 15:02:00,SPECI KORD 131502Z 22008G16KT 10SM BKN010 OVC016 19/17 A2993 RMK AO2 T01890172
2026-04-13 14:51:00,METAR KORD 131451Z 22009KT 10SM BKN008 OVC015 19/17 A2993 RMK AO2 SLP133 60000 T01890167 51018
2026-04-13 13:51:00,METAR KORD 131351Z 21007KT 8SM BKN009 OVC027 18/17 A2991 RMK AO2 DZE49 SLP128 P0000 T01780167
2026-04-13 13:12:00,SPECI KORD 131312Z 21008KT 7SM -DZ BKN009 OVC028 18/17 A2991 RMK AO2 P0000 T01780167
2026-04-13 12:51:00,METAR KORD 131251Z 22009KT 8SM -DZ BKN010 BKN024 OVC030 18/17 A2990 RMK AO2 DZB21 SLP124 P0000 T01780167
2026-04-13 12:27:00,SPECI KORD 131227Z 22009KT 9SM -DZ BKN012 BKN019 OVC024 18/17 A2990 RMK AO2 DZB21 P0000 T01830167
2026-04-13 11:51:00,METAR KORD 131151Z 22009KT 10SM FEW013 BKN022 OVC035 18/16 A2988 RMK AO2 SLP114 60001 70014 T01830161 10183 20167 51014
2026-04-13 11:49:00,SPECI KORD 131149Z 22009G18KT 10SM FEW013 BKN020 OVC035 18/16 A2988 RMK AO2
2026-04-13 11:17:00,SPECI KORD 131117Z 23013G19KT 10SM BKN013 OVC027 18/16 A2986 RMK AO2 T01830161 $
2026-04-13 10:51:00,METAR KORD 131051Z 22013G20KT 10SM SCT011 BKN015 OVC032 18/16 A2985 RMK AO2 SLP105 T01830161 $
2026-04-13 10:35:00,SPECI KORD 131035Z 23012KT 10SM SCT012 OVC016 18/16 A2985 RMK AO2 T01830161 $
2026-04-13 09:51:00,METAR KORD 130951Z 23013G20KT 10SM OVC012 18/16 A2984 RMK AO2 SLP100 T01830161 $
2026-04-13 08:51:00,METAR KORD 130851Z 23013G20KT 10SM OVC010 18/16 A2981 RMK AO2 SLP090 60001 T01780161 53004 $
2026-04-13 07:51:00,METAR KORD 130751Z 23011KT 10SM OVC012 17/16 A2979 RMK AO2 SLP085 T01720156 $
2026-04-13 07:22:00,SPECI KORD 130722Z 23013G23KT 10SM OVC011 17/16 A2979 RMK AO2 T01720156 $
2026-04-13 06:51:00,METAR KORD 130651Z 23011KT 10SM OVC009 17/16 A2979 RMK AO2 RAB0553E14 SLP085 P0001 T01670156 $
2026-04-13 05:51:00,METAR KORD 130551Z 24013G27KT 10SM BKN009 BKN014 OVC030 17/15 A2980 RMK AO2 PK WND 21027/0549 RAE24 SLP086 P0002 60013 T01670150 10239 20161 402720133 55005 $
2026-04-13 05:13:00,SPECI KORD 130513Z 22010KT 5SM -RA BR BKN009 BKN021 OVC030 16/15 A2977 RMK AO2 P0002 T01610150 $
2026-04-13 05:02:00,SPECI KORD 130502Z 22011G18KT 5SM -RA BR FEW009 BKN016 OVC033 16/15 A2977 RMK AO2 P0001 T01610150 $
2026-04-13 04:51:00,METAR KORD 130451Z 21010KT 7SM -RA BKN019 BKN027 OVC050 16/15 A2978 RMK AO2 RAE01B21 SLP079 P0003 T01610150 $
2026-04-13 04:39:00,SPECI KORD 130439Z 21009KT 4SM -RA BR BKN016 BKN025 OVC050 16/15 A2978 RMK AO2 RAE01B21 P0003 T01610150 $
2026-04-13 04:21:00,SPECI KORD 130421Z 23008KT 8SM -RA BKN019 BKN034 OVC070 17/15 A2978 RMK AO2 RAE01B21 P0000 T01670150 $
2026-04-13 03:51:00,METAR KORD 130351Z 20006KT 6SM -RA BR FEW014 BKN036 OVC055 17/15 A2979 RMK AO2 SLP085 P0004 T01670150 $
2026-04-13 02:51:00,METAR KORD 130251Z 20009G22KT 6SM -RA BR SCT042 BKN049 OVC060 17/15 A2981 RMK AO2 SLP091 P0002 60004 T01720150 50005 $
2026-04-13 01:51:00,METAR KORD 130151Z 21010G22KT 7SM -RA BKN043 OVC055 18/14 A2981 RMK AO2 PK WND 20029/0113 SLP092 P0002 T01780144 $
2026-04-13 00:51:00,METAR KORD 130051Z 19013G27KT 10SM -RA FEW060 SCT075 OVC100 21/13 A2980 RMK AO2 PK WND 19038/0023 SLP088 P0000 T02110128 $
2026-04-12 23:51:00,METAR KORD 122351Z 20022G37KT 10SM -RA SCT060 OVC100 24/12 A2980 RMK AO2 PK WND 19041/2326 RAB44 SLP087 P0000 60000 T02390117 10272 20239 55008 $
2026-04-12 22:51:00,METAR KORD 122251Z 20022G36KT 10SM SCT065 SCT100 BKN160 OVC250 26/11 A2979 RMK AO2 PK WND 20037/2211 SLP083 T02560111 $
2026-04-12 22:36:00,SPECI KORD 122236Z 20015G25KT 10SM FEW065 SCT100 BKN150 BKN250 26/11 A2979 RMK AO2 PK WND 20037/2211 T02560111 $
2026-04-12 21:51:00,METAR KORD 122151Z 20026G36KT 10SM SCT065 BKN100 BKN220 BKN250 26/11 A2981 RMK AO2 PK WND 19037/2104 SLP089 T02610111 $
2026-04-12 20:51:00,METAR KORD 122051Z 21014G35KT 10SM SCT065 SCT100 BKN150 BKN250 26/12 A2982 RMK AO2 PK WND 20039/2004 SLP094 T02610117 56024 $
2026-04-12 19:51:00,METAR KORD 121951Z 21021G34KT 10SM SCT060 BKN100 BKN150 BKN250 26/13 A2984 RMK AO2 PK WND 18034/1945 SLP102 T02610128 $
2026-04-12 18:51:00,METAR KORD 121851Z 21022G33KT 10SM FEW055 SCT070 SCT090 BKN140 BKN250 26/13 A2987 RMK AO2 PK WND 20037/1809 SLP112 T02610133 $
2026-04-12 17:51:00,METAR KORD 121751Z 23018G34KT 10SM FEW050 BKN060 BKN140 26/14 A2989 RMK AO2 PK WND 22034/1742 SLP120 T02560139 10256 20156 58020 $
2026-04-12 16:51:00,METAR KORD 121651Z 21017G33KT 10SM FEW070 FEW140 BKN250 25/13 A2992 RMK AO2 PK WND 20033/1553 SLP127 T02500133 $
2026-04-12 15:51:00,METAR KORD 121551Z 20016G23KT 10SM BKN120 BKN250 22/14 A2994 RMK AO2 PK WND 20028/1536 SLP137 T02220139 $
2026-04-12 14:51:00,METAR KORD 121451Z 20015G30KT 10SM SCT120 BKN250 21/13 A2995 RMK AO2 PK WND 19031/1418 SLP143 T02060128 58014 $
2026-04-12 13:51:00,METAR KORD 121351Z 19013G22KT 10SM SCT060 BKN140 OVC250 18/12 A2998 RMK AO2 SLP152 T01830117 $
2026-04-12 12:51:00,METAR KORD 121251Z 19010G23KT 10SM FEW070 SCT110 BKN250 17/11 A2999 RMK AO2 SLP157 T01670111 $
2026-04-12 11:51:00,METAR KORD 121151Z 19013KT 10SM SCT110 BKN250 16/11 A3000 RMK AO2 SLP158 T01560106 10156 20133 55013 $
2026-04-12 10:51:00,METAR KORD 121051Z 18011G21KT 10SM FEW120 BKN250 15/09 A2999 RMK AO2 SLP157 T01500094 $
2026-04-12 09:51:00,METAR KORD 120951Z 18012G22KT 10SM FEW120 BKN130 OVC250 16/09 A3002 RMK AO2 SLP165 T01560089 $
2026-04-12 08:51:00,METAR KORD 120851Z 18010KT 10SM SCT120 BKN140 OVC250 14/06 A3004 RMK AO2 SLP172 T01440061 58026 $
2026-04-12 07:51:00,METAR KORD 120751Z 17008KT 10SM SCT110 BKN250 14/05 A3006 RMK AO2 SLP181 T01390050 $
2026-04-12 06:51:00,METAR KORD 120651Z 17008KT 10SM FEW110 SCT130 OVC250 13/04 A3009 RMK AO2 SLP191 T01330044 $
2026-04-12 05:51:00,METAR KORD 120551Z 15008KT 10SM BKN100 OVC130 13/05 A3012 RMK AO2 SLP199 T01330050 10133 20089 401330017 58021 $
2026-04-12 04:51:00,METAR KORD 120451Z 15008KT 10SM BKN085 OVC110 12/05 A3014 RMK AO2 SLP208 T01170050 $
2026-04-12 03:51:00,METAR KORD 120351Z 13006KT 10SM SCT049 OVC090 11/04 A3016 RMK AO2 SLP216 T01110039 $
2026-04-12 02:51:00,METAR KORD 120251Z 12004KT 10SM FEW055 BKN070 OVC095 09/02 A3018 RMK AO2 SLP222 T00940022 58019 $
2026-04-12 01:51:00,METAR KORD 120151Z 09006KT 10SM SCT055 BKN070 OVC090 09/01 A3020 RMK AO2 SLP230 T00890006 $
2026-04-12 00:51:00,METAR KORD 120051Z 09007KT 10SM BKN055 BKN140 OVC250 09/00 A3023 RMK AO2 SLP239 T00940000 $
2026-04-11 23:51:00,METAR KORD 112351Z 09009KT 10SM BKN070 BKN120 BKN180 OVC250 11/01 A3024 RMK AO2 SLP243 T01060011 10128 20106 58021 $
2026-04-11 22:51:00,METAR KORD 112251Z 09008KT 10SM BKN110 BKN180 OVC250 12/02 A3027 RMK AO2 SLP255 T01170017 $
2026-04-11 21:51:00,METAR KORD 112151Z 12007KT 10SM SCT110 BKN210 OVC250 12/03 A3029 RMK AO2 SLP262 T01220028 $
2026-04-11 20:51:00,METAR KORD 112051Z 14008KT 10SM FEW110 OVC250 13/03 A3030 RMK AO2 SLP264 T01280028 58026 $
2026-04-11 19:51:00,METAR KORD 111951Z 12005KT 10SM SCT110 OVC250 12/03 A3033 RMK AO2 SLP274 T01220028 $
2026-04-11 18:51:00,METAR KORD 111851Z 11011KT 10SM BKN100 BKN250 12/02 A3036 RMK AO2 SLP284 T01220022 $
2026-04-11 17:51:00,METAR KORD 111751Z 10010KT 10SM FEW100 SCT160 BKN250 12/M01 A3038 RMK AO2 SLP291 T01171011 10117 20028 58023 $
2026-04-11 16:51:00,METAR KORD 111651Z 09009KT 10SM FEW045 FEW100 FEW150 BKN250 11/M04 A3041 RMK AO2 SLP303 T01111039 $
2026-04-11 15:51:00,METAR KORD 111551Z 12014KT 10SM FEW100 SCT150 BKN250 11/M03 A3043 RMK AO2 SLP310 T01061033 $
2026-04-11 14:51:00,METAR KORD 111451Z 14007KT 10SM FEW100 SCT250 10/M01 A3045 RMK AO2 SLP314 T01001006 53008 $
2026-04-11 13:51:00,METAR KORD 111351Z 10007KT 10SM FEW100 FEW250 08/M01 A3042 RMK AO2 SLP307 T00831006 $
2026-04-11 12:51:00,METAR KORD 111251Z 11003KT 10SM FEW100 FEW250 06/02 A3042 RMK AO2 SLP304 T00560017 $
2026-04-11 11:51:00,METAR KORD 111151Z 00000KT 10SM FEW060 03/01 A3042 RMK AO2 SLP307 70001 T00280006 10039 20017 51011 $
2026-04-11 10:51:00,METAR KORD 111051Z 00000KT 10SM CLR 02/00 A3041 RMK AO2 SLP303 T00170000 $
2026-04-11 09:51:00,METAR KORD 110951Z 00000KT 10SM CLR 03/01 A3040 RMK AO2 SLP298 T00280006 $
2026-04-11 08:51:00,METAR KORD 110851Z 00000KT 10SM CLR 03/01 A3039 RMK AO2 SLP294 T00280006 53004 $
2026-04-11 07:51:00,METAR KORD 110751Z 00000KT 10SM CLR 02/01 A3038 RMK AO2 SLP293 T00220006 $
2026-04-11 06:51:00,METAR KORD 110651Z 07003KT 10SM CLR 03/01 A3038 RMK AO2 SLP290 T00330006 $
2026-04-11 05:51:00,METAR KORD 110551Z 00000KT 10SM CLR 03/01 A3038 RMK AO2 SLP290 T00330006 10083 20033 401220028 55003 $
2026-04-11 04:51:00,METAR KORD 110451Z 06004KT 10SM CLR 04/01 A3037 RMK AO2 SLP287 T00390006 $
2026-04-11 03:51:00,METAR KORD 110351Z 08004KT 10SM CLR 04/01 A3038 RMK AO2 SLP290 T00440006 $
2026-04-11 02:51:00,METAR KORD 110251Z 10004KT 10SM CLR 04/01 A3038 RMK AO2 SLP293 T00440006 51019 $
2026-04-11 01:51:00,METAR KORD 110151Z 09006KT 10SM FEW045 05/01 A3037 RMK AO2 SLP289 T00500006 $
2026-04-11 00:51:00,METAR KORD 110051Z 07008KT 10SM FEW047 SCT050 07/04 A3034 RMK AO2 SLP280 T00670044 $
2026-04-10 23:51:00,METAR KORD 102351Z 05011KT 10SM SCT039 BKN050 08/04 A3033 RMK AO2 WSHFT 2313 SLP274 T00830044 10122 20083 53013
2026-04-10 23:33:00,SPECI KORD 102333Z 06012KT 10SM SCT039 BKN050 09/04 A3032 RMK AO2 WSHFT 2313 T00940044
2026-04-10 22:51:00,METAR KORD 102251Z 35011KT 10SM SCT035 BKN046 12/04 A3030 RMK AO2 SLP263 T01220039
2026-04-10 21:51:00,METAR KORD 102151Z 30006KT 10SM SCT029 BKN041 BKN055 12/04 A3029 RMK AO2 SLP261 T01170044
2026-04-10 20:51:00,METAR KORD 102051Z 31006KT 10SM BKN024 BKN035 11/05 A3029 RMK AO2 SLP260 T01060050 51008
2026-04-10 19:51:00,METAR KORD 101951Z 27006KT 10SM OVC020 10/06 A3029 RMK AO2 SLP260 T01000056
2026-04-10 18:51:00,METAR KORD 101851Z 34007KT 10SM OVC021 09/05 A3028 RMK AO2 SLP255 T00940050
2026-04-10 17:51:00,METAR KORD 101751Z 34005KT 10SM OVC017 09/06 A3026 RMK AO2 SLP251 60001 T00940056 10094 20061 51017
2026-04-10 16:51:00,METAR KORD 101651Z 36009KT 10SM BKN015 OVC023 09/06 A3025 RMK AO2 SLP245 T00890056
2026-04-10 16:37:00,SPECI KORD 101637Z 36008KT 10SM FEW010 BKN015 OVC023 09/06 A3024 RMK AO2 T00890056
2026-04-10 15:51:00,METAR KORD 101551Z 36012KT 10SM OVC010 08/05 A3024 RMK AO2 SLP241 T00780050
2026-04-10 14:51:00,METAR KORD 101451Z 01011KT 10SM OVC007 08/06 A3021 RMK AO2 RAE1358 SLP233 P0000 60001 T00780056 53017
2026-04-10 14:09:00,SPECI KORD 101409Z 03009KT 6SM BR OVC007 07/06 A3019 RMK AO2 RAE1358 P0000 T00720061
2026-04-10 13:51:00,METAR KORD 101351Z 02008KT 3SM -RA BR BKN007 OVC021 07/06 A3018 RMK AO2 DZE05RAB23 SLP221 P0000 T00720056
2026-04-10 13:29:00,SPECI KORD 101329Z 01008KT 4SM -RA BR BKN006 OVC019 07/06 A3018 RMK AO2 DZE05RAB23 P0000 T00670056
2026-04-10 12:51:00,METAR KORD 101251Z 36011KT 5SM -DZ BR OVC006 07/06 A3017 RMK AO2 RAE19DZB26 SLP217 P0001 T00670056
2026-04-10 12:46:00,SPECI KORD 101246Z 36016G20KT 5SM -DZ BR OVC005 07/06 A3016 RMK AO2 RAE19DZB26 P0001
2026-04-10 12:35:00,SPECI KORD 101235Z 35011KT 3SM -DZ BR OVC005 07/06 A3015 RMK AO2 RAE19DZB26 P0001 T00670056
2026-04-10 12:14:00,SPECI KORD 101214Z 35009KT 2 1/2SM -RA BR OVC004 07/06 A3015 RMK AO2 P0000 T00670056
2026-04-10 11:51:00,METAR KORD 101151Z 34011KT 3SM -RA BR OVC004 06/06 A3014 RMK AO2 RAB42 SLP208 P0000 60032 70033 T00610056 10072 20061 53025
2026-04-10 11:16:00,SPECI KORD 101116Z 35009KT 7SM OVC004 07/06 A3011 RMK AO2 T00670061
2026-04-10 10:51:00,METAR KORD 101051Z 36008KT 7SM OVC005 07/06 A3010 RMK AO2 SLP193 T00720061
2026-04-10 10:26:00,SPECI KORD 101026Z 03006KT 7SM OVC005 07/06 A3009 RMK AO2 T00720061
2026-04-10 10:13:00,SPECI KORD 101013Z 04006KT 7SM OVC004 07/06 A3008 RMK AO2 T00720061
2026-04-10 09:51:00,METAR KORD 100951Z 04007KT 7SM OVC005 07/06 A3008 RMK AO2 RAE11 SLP187 P0001 T00720061
2026-04-10 09:09:00,SPECI KORD 100909Z 08007KT 5SM -RA BR BKN005 BKN039 OVC050 07/06 A3007 RMK AO2 P0001 T00670056
2026-04-10 09:01:00,SPECI KORD 100901Z 09006KT 5SM -RA BR SCT005 BKN039 OVC050 07/06 A3008 RMK AO2 P0000 T00670056
2026-04-10 08:51:00,METAR KORD 100851Z 10008KT 4SM -RA BR SCT005 BKN041 OVC050 07/06 A3007 RMK AO2 SLP183 P0022 60031 T00670056 58017
2026-04-10 08:43:00,SPECI KORD 100843Z 11008KT 3SM RA BR BKN006 OVC048 07/06 A3006 RMK AO2 PRESFR P0018 T00670056
2026-04-10 08:23:00,SPECI KORD 100823Z 11006KT 4SM RA BR SCT006 OVC060 06/06 A3009 RMK AO2 P0008 T00610056
2026-04-10 08:07:00,SPECI KORD 100807Z 08004KT 4SM RA BR OVC070 07/05 A3009 RMK AO2 P0003 T00670050
2026-04-10 07:51:00,METAR KORD 100751Z 07006KT 5SM -RA BR OVC065 06/05 A3009 RMK AO2 SLP191 P0009 T00610050
2026-04-10 06:51:00,METAR KORD 100651Z 01012KT 10SM -RA OVC080 07/04 A3012 RMK AO2 SLP201 P0000 T00670039
2026-04-10 05:51:00,METAR KORD 100551Z 01013KT 10SM -RA OVC085 07/03 A3012 RMK AO2 RAB15 SLP200 P0000 60000 T00720033 10183 20072 402110072 53001
2026-04-10 04:51:00,METAR KORD 100451Z 01011KT 10SM SCT110 OVC150 09/04 A3009 RMK AO2 SLP191 T00940039
2026-04-10 03:51:00,METAR KORD 100351Z 01009KT 10SM SCT085 OVC110 11/05 A3011 RMK AO2 SLP196 T01110050
2026-04-10 02:51:00,METAR KORD 100251Z 29004KT 10SM FEW065 BKN080 OVC120 15/08 A3012 RMK AO2 SLP198 60000 T01500078 55005
2026-04-10 01:51:00,METAR KORD 100151Z 02003KT 10SM BKN085 OVC100 14/07 A3010 RMK AO2 SLP193 T01440072
2026-04-10 00:51:00,METAR KORD 100051Z 33007KT 10SM BKN100 OVC250 14/08 A3011 RMK AO2 RAE39 SLP197 P0000 T01440078
2026-04-09 23:51:00,METAR KORD 092351Z 30010KT 10SM -RA BKN075 OVC250 18/06 A3013 RMK AO2 RAB2252E06B48 PRESRR SLP204 P0001 60001 T01830061 10211 20183 53010
2026-04-09 22:51:00,METAR KORD 092251Z 29007KT 10SM BKN075 OVC250 20/04 A3011 RMK AO2 SLP196 T02000044
2026-04-09 21:51:00,METAR KORD 092151Z 23008KT 10SM BKN075 OVC250 21/04 A3011 RMK AO2 SLP194 T02060039
2026-04-09 20:51:00,METAR KORD 092051Z 24007G19KT 10SM FEW085 OVC250 21/04 A3010 RMK AO2 SLP191 T02110039 58012
2026-04-09 19:51:00,METAR KORD 091951Z 25014G18KT 10SM SCT085 BKN250 21/03 A3012 RMK AO2 SLP198 T02060028
2026-04-09 18:51:00,METAR KORD 091851Z 24007KT 10SM FEW085 BKN250 20/03 A3012 RMK AO2 SLP198 T02000033
2026-04-09 17:51:00,METAR KORD 091751Z 26011G17KT 10SM FEW110 SCT250 20/02 A3014 RMK AO2 SLP203 60000 T02000017 10200 20128 50004
2026-04-09 16:51:00,METAR KORD 091651Z 27007G18KT 10SM FEW070 FEW110 SCT250 18/02 A3014 RMK AO2 SLP206 T01830017
2026-04-09 15:51:00,METAR KORD 091551Z 26008KT 10SM SCT110 SCT250 18/01 A3014 RMK AO2 SLP206 T01780011
2026-04-09 14:51:00,METAR KORD 091451Z 24007KT 210V280 10SM FEW100 SCT140 16/02 A3012 RMK AO2 SLP200 60000 T01610022 51013
2026-04-09 13:51:00,METAR KORD 091351Z 21006KT 10SM SCT100 BKN130 14/06 A3012 RMK AO2 SLP198 T01440056
2026-04-09 12:51:00,METAR KORD 091251Z 21006KT 10SM BKN085 BKN110 13/07 A3011 RMK AO2 RAB21E35 SLP196 VIRGA P0000 T01280072
2026-04-09 11:51:00,METAR KORD 091151Z 20003KT 10SM BKN100 BKN150 13/07 A3009 RMK AO2 SLP186 VIRGA 60000 T01280067 10183 20128 51027
2026-04-09 10:51:00,METAR KORD 091051Z 23003KT 10SM BKN100 OVC120 13/07 A3007 RMK AO2 SLP180 T01330072 $
2026-04-09 09:51:00,METAR KORD 090951Z 28007KT 10SM BKN090 OVC110 14/07 A3004 RMK AO2 SLP170 T01440067 $
2026-04-09 08:51:00,METAR KORD 090851Z 22014G22KT 10SM FEW075 BKN100 OVC120 16/06 A3001 RMK AO2 RAB40E49 SLP158 P0000 60000 T01560061 53005 $
2026-04-09 07:51:00,METAR KORD 090751Z 20015G24KT 10SM OVC090 16/06 A2997 RMK AO2 PK WND 20026/0737 SLP148 T01610056 $
2026-04-09 06:51:00,METAR KORD 090651Z 20018G32KT 10SM SCT055 BKN075 OVC090 16/06 A3000 RMK AO2 PK WND 20032/0650 WSHFT 0600 RAB29E42 SLP158 P0000 T01610056
2026-04-09 06:17:00,SPECI KORD 090617Z 24012G29KT 10SM OVC085 17/04 A3001 RMK AO2 PK WND 27029/0608 WSHFT 0600 T01720044
2026-04-09 05:51:00,METAR KORD 090551Z 20015G24KT 10SM OVC095 18/04 A2999 RMK AO2 PK WND 19032/0521 SLP154 T01780039 10211 20172 402170017 58003
2026-04-09 04:51:00,METAR KORD 090451Z 20016G27KT 10SM BKN110 BKN220 17/04 A2999 RMK AO2 PK WND 20032/0426 SLP156 T01720039
2026-04-09 03:51:00,METAR KORD 090351Z 19018G27KT 10SM BKN220 17/04 A3000 RMK AO2 PK WND 19028/0314 SLP158 T01720039
2026-04-09 02:51:00,METAR KORD 090251Z 18016G27KT 10SM SCT170 BKN250 18/04 A3000 RMK AO2 PK WND 18027/0251 SLP159 T01780039 50006
2026-04-09 01:51:00,METAR KORD 090151Z 19015G23KT 10SM FEW150 BKN250 19/04 A3000 RMK AO2 SLP160 T01940039
2026-04-09 00:51:00,METAR KORD 090051Z 20012G22KT 10SM FEW080 FEW150 BKN250 20/03 A2999 RMK AO2 PK WND 21028/2357 SLP157 T02000033
2026-04-08 23:51:00,METAR KORD 082351Z 19018G32KT 10SM FEW080 FEW150 SCT250 21/03 A2998 RMK AO2 PK WND 20035/2252 SLP153 T02110033 10217 20167 55013
2026-04-08 22:51:00,METAR KORD 082251Z 20024G34KT 10SM FEW080 FEW170 SCT250 22/03 A2998 RMK AO2 PK WND 18034/2227 SLP153 T02170033
2026-04-08 21:51:00,METAR KORD 082151Z 20021G31KT 10SM FEW170 FEW250 22/04 A3000 RMK AO2 PK WND 20038/2118 SLP158 T02170039
2026-04-08 20:51:00,METAR KORD 082051Z 20018G33KT 10SM FEW200 FEW250 21/03 A3002 RMK AO2 PK WND 20034/2008 SLP167 T02110033 58031
2026-04-08 19:51:00,METAR KORD 081951Z 20016G32KT 10SM FEW200 SCT250 20/03 A3005 RMK AO2 PK WND 22034/1922 SLP178 T02000028
2026-04-08 18:51:00,METAR KORD 081851Z 20018G29KT 10SM FEW190 BKN250 18/02 A3009 RMK AO2 PK WND 17031/1830 SLP191 T01830017
2026-04-08 17:51:00,METAR KORD 081751Z 18018G26KT 10SM FEW180 SCT250 OVC300 17/01 A3012 RMK AO2 PK WND 16028/1703 SLP201 T01670011 10167 20033 58034
2026-04-08 16:51:00,METAR KORD 081651Z 18018G25KT 10SM FEW130 BKN220 BKN300 13/M01 A3015 RMK AO2 SLP214 T01331006
2026-04-08 15:51:00,METAR KORD 081551Z 16014G24KT 10SM FEW130 BKN230 11/M02 A3018 RMK AO2 SLP225 T01111022
2026-04-08 14:51:00,METAR KORD 081451Z 18014G22KT 10SM FEW050 SCT150 BKN250 09/M04 A3022 RMK AO2 SLP237 T00891039 58017
2026-04-08 13:51:00,METAR KORD 081351Z 17016G23KT 10SM FEW090 SCT140 BKN250 07/M04 A3024 RMK AO2 SLP246 T00671039
2026-04-08 12:51:00,METAR KORD 081251Z 16011KT 10SM BKN085 BKN140 BKN250 04/M04 A3026 RMK AO2 SLP252 T00441044
2026-04-08 11:51:00,METAR KORD 081151Z 15011KT 10SM SCT080 BKN130 OVC250 03/M04 A3027 RMK AO2 SLP257 60001 70001 T00331039 10033 20017 56011
2026-04-08 10:51:00,METAR KORD 081051Z 14010KT 10SM BKN085 OVC140 03/M04 A3028 RMK AO2 SLP259 T00281039 $
2026-04-08 09:51:00,METAR KORD 080951Z 14009KT 10SM FEW060 BKN080 OVC120 02/M03 A3029 RMK AO2 RAE22 SLP262 P0000 T00221033 $
2026-04-08 08:51:00,METAR KORD 080851Z COR 14005KT 10SM -RA FEW060 BKN075 OVC095 02/M03 A3030 RMK AO2 RAB0757 SLP267 P0001 60001 T00221033 56010 $
2026-04-08 07:51:00,METAR KORD 080751Z 15008KT 10SM SCT060 BKN080 OVC120 03/M06 A3031 RMK AO2 SLP270 T00331061 $
2026-04-08 06:51:00,METAR KORD 080651Z 14007KT 10SM BKN120 OVC250 03/M06 A3032 RMK AO2 SLP272 T00281061 $
2026-04-08 05:51:00,METAR KORD 080551Z 12005KT 10SM FEW080 BKN120 OVC250 02/M03 A3033 RMK AO2 SLP279 T00171028 10017 20000 400891022 58018 $
2026-04-08 04:51:00,METAR KORD 080451Z 10008KT 10SM BKN130 BKN250 01/M03 A3035 RMK AO2 SLP284 T00111033 $
2026-04-08 03:51:00,METAR KORD 080351Z 10007KT 10SM SCT140 OVC250 01/M04 A3037 RMK AO2 SLP293 T00111044 $
2026-04-08 02:51:00,METAR KORD 080251Z 10006KT 10SM SCT130 OVC250 01/M05 A3039 RMK AO2 SLP297 T00061050 56006 $
2026-04-08 01:51:00,METAR KORD 080151Z 08008KT 10SM FEW110 OVC250 00/M06 A3039 RMK AO2 SLP298 T00001061 $
2026-04-08 00:51:00,METAR KORD 080051Z 07007KT 10SM FEW100 OVC250 01/M07 A3040 RMK AO2 SLP301 T00061072 $
2026-04-07 23:51:00,METAR KORD 072351Z 09007KT 10SM FEW120 OVC250 01/M08 A3040 RMK AO2 SLP304 T00111078 10039 20011 56012 $
2026-04-07 22:51:00,METAR KORD 072251Z 10010KT 10SM BKN250 03/M09 A3041 RMK AO2 SLP307 T00281089 $
2026-04-07 21:51:00,METAR KORD 072151Z 11008KT 10SM BKN250 03/M13 A3042 RMK AO2 SLP310 T00331128 $
2026-04-07 20:51:00,METAR KORD 072051Z 07009KT 10SM BKN250 03/M09 A3044 RMK AO2 SLP315 T00281094 58022 $
2026-04-07 19:51:00,METAR KORD 071951Z 08008KT 10SM BKN250 03/M09 A3047 RMK AO2 SLP324 T00331089 $
2026-04-07 18:51:00,METAR KORD 071851Z 07009KT 10SM FEW040 FEW250 03/M08 A3049 RMK AO2 SLP333 T00281083 $
2026-04-07 17:51:00,METAR KORD 071751Z 07010KT 10SM FEW040 FEW250 02/M09 A3051 RMK AO2 SLP337 T00221089 10022 21022 58009 $
2026-04-07 16:51:00,METAR KORD 071651Z 06010G15KT 10SM FEW038 01/M09 A3053 RMK AO2 SLP345 T00111094 $
2026-04-07 15:51:00,METAR KORD 071551Z 07008G14KT 030V110 10SM FEW038 02/M09 A3054 RMK AO2 SLP349 T00171094 $
2026-04-07 14:51:00,METAR KORD 071451Z 07010KT 10SM FEW037 01/M09 A3053 RMK AO2 SLP346 T00061094 51017 $
2026-04-07 13:51:00,METAR KORD 071351Z 07009KT 10SM FEW036 FEW250 00/M09 A3052 RMK AO2 SLP342 T00001094 $
2026-04-07 12:51:00,METAR KORD 071251Z 03013KT 10SM FEW035 FEW250 M01/M11 A3050 RMK AO2 SLP336 T10111106 $
2026-04-07 11:51:00,METAR KORD 071151Z 03010KT 10SM FEW035 FEW250 M02/M10 A3048 RMK AO2 SLP328 T10171100 10006 21022 53017
2026-04-07 10:51:00,METAR KORD 071051Z 03012KT 10SM FEW032 FEW250 M02/M09 A3046 RMK AO2 SLP321 T10171089 $
2026-04-07 09:51:00,METAR KORD 070951Z 03015KT 10SM FEW032 SCT250 M01/M08 A3044 RMK AO2 SLP314 T10111078 $
2026-04-07 08:51:00,METAR KORD 070851Z 03011KT 10SM SCT031 SCT250 M01/M08 A3043 RMK AO2 SLP310 T10111078 53013 $
2026-04-07 07:51:00,METAR KORD 070751Z 04013KT 10SM BKN030 M01/M07 A3042 RMK AO2 SLP305 T10061067 $
2026-04-07 07:04:00,SPECI KORD 070704Z 04013KT 10SM BKN030 00/M07 A3041 RMK AO2 T00001067 $
2026-04-07 06:51:00,METAR KORD 070651Z 03014KT 10SM BKN029 00/M06 A3040 RMK AO2 SLP301 T00001056 $
2026-04-07 05:58:00,SPECI KORD 070558Z 03015KT 10SM BKN025 01/M06 A3039 RMK AO2 T00061056 $
2026-04-07 05:51:00,METAR KORD 070551Z 04015KT 10SM OVC023 01/M05 A3039 RMK AO2 SLP296 T00061050 10089 20006 401060006 51021 $
2026-04-07 04:51:00,METAR KORD 070451Z 03014KT 10SM OVC022 01/M04 A3037 RMK AO2 SLP289 T00061044 $
2026-04-07 04:11:00,SPECI KORD 070411Z 02015KT 10SM BKN020 OVC075 01/M04 A3036 RMK AO2 T00061044 $
2026-04-07 03:51:00,METAR KORD 070351Z 03015KT 10SM BKN014 OVC075 01/M03 A3035 RMK AO2 SLP284 T00111033 $
2026-04-07 02:51:00,METAR KORD 070251Z 03016KT 10SM BKN014 BKN075 02/M02 A3033 RMK AO2 SLP275 T00171022 53043 $
2026-04-07 02:29:00,SPECI KORD 070229Z 04014G23KT 10SM BKN013 BKN070 02/M02 A3032 RMK AO2 T00221017 $
2026-04-07 01:51:00,METAR KORD 070151Z 04017G24KT 10SM SCT017 BKN065 03/M01 A3028 RMK AO2 WSHFT 0055 PRESRR SLP260 T00331006 $
2026-04-07 01:15:00,SPECI KORD 070115Z 04015KT 10SM BKN065 BKN250 06/M03 A3025 RMK AO2 WSHFT 0055 T00561028 $
2026-04-07 00:51:00,METAR KORD 070051Z 36012KT 10SM BKN070 BKN250 07/M04 A3023 RMK AO2 SLP239 T00721044 $
2026-04-06 23:51:00,METAR KORD 062351Z 34013G20KT 10SM BKN065 BKN250 09/M04 A3020 RMK AO2 SLP230 T00891044 10106 20083 53004 $
2026-04-06 22:51:00,METAR KORD 062251Z 31016KT 10SM BKN060 10/M03 A3019 RMK AO2 SLP227 T01001028 $
2026-04-06 21:51:00,METAR KORD 062151Z 29012G21KT 10SM BKN055 10/M03 A3018 RMK AO2 SLP225 T01001028 $
2026-04-06 20:51:00,METAR KORD 062051Z 28014G20KT 10SM BKN055 10/M02 A3019 RMK AO2 SLP226 T01001022 58012 $
2026-04-06 19:51:00,METAR KORD 061951Z 29012G23KT 10SM BKN055 09/M03 A3020 RMK AO2 SLP231 T00941033 $
2026-04-06 18:51:00,METAR KORD 061851Z 30015G23KT 10SM BKN049 09/M02 A3022 RMK AO2 SLP237 T00891017 $
2026-04-06 17:51:00,METAR KORD 061751Z 31017G27KT 10SM SCT040 BKN055 09/M02 A3022 RMK AO2 PK WND 32027/1745 SLP237 T00941017 10094 20050 50002 $
2026-04-06 16:51:00,METAR KORD 061651Z 31014KT 10SM FEW037 BKN048 09/00 A3023 RMK AO2 SLP239 T00940000 $
2026-04-06 15:51:00,METAR KORD 061551Z 29012KT 10SM SCT032 BKN041 09/01 A3023 RMK AO2 SLP239 T00890006 $
2026-04-06 15:29:00,SPECI KORD 061529Z 31012KT 10SM SCT025 BKN033 BKN041 08/01 A3023 RMK AO2 T00830011 $
2026-04-06 14:51:00,METAR KORD 061451Z 31013KT 10SM BKN023 07/01 A3022 RMK AO2 SLP236 T00720011 51019
2026-04-06 14:39:00,SPECI KORD 061439Z 32015G20KT 10SM BKN023 07/02 A3022 RMK AO2 T00720017
2026-04-06 13:51:00,METAR KORD 061351Z 30013G20KT 10SM SCT020 06/02 A3021 RMK AO2 SLP232 T00610017
2026-04-06 12:51:00,METAR KORD 061251Z 31008KT 10SM FEW016 FEW045 06/02 A3019 RMK AO2 SLP227 T00560017
2026-04-06 11:51:00,METAR KORD 061151Z 32010KT 10SM FEW018 FEW045 05/02 A3016 RMK AO2 SLP217 60003 70008 T00500022 10067 20050 53018
2026-04-06 10:51:00,METAR KORD 061051Z 31009KT 10SM FEW012 SCT048 06/04 A3013 RMK AO2 SLP205 T00560039 $
2026-04-06 09:51:00,METAR KORD 060951Z 26005KT 10SM FEW033 SCT070 05/04 A3012 RMK AO2 SLP201 T00500039 $
2026-04-06 08:51:00,METAR KORD 060851Z 22004KT 10SM FEW037 FEW048 SCT085 06/04 A3011 RMK AO2 SLP198 60003 T00560044 56016 $
2026-04-06 07:51:00,METAR KORD 060751Z 25006KT 10SM SCT037 BKN050 BKN075 06/04 A3012 RMK AO2 RAB08E25 SLP201 P0001 T00610044 $
2026-04-06 06:51:00,METAR KORD 060651Z 27003KT 10SM SCT044 BKN055 BKN100 07/04 A3013 RMK AO2 RAE08 TSE0553 SLP205 P0002 T00670039 $
2026-04-06 05:54:00,SPECI KORD 060554Z 26010G18KT 5SM RA BR FEW027 BKN032 OVC046 07/04 A3015 RMK AO2 TSE53 P0001 T00670039 $
2026-04-06 05:51:00,METAR KORD 060551Z 26010G23KT 5SM TSRA BR BKN031 OVC044CB 07/04 A3016 RMK AO2 TSB35 SLP215 OCNL LTGICCC OHD TS OHD MOV SE P0005 60005 T00670039 10106 20067 401170028 53004 $
2026-04-06 05:37:00,SPECI KORD 060537Z 32011KT 6SM -TSRA SCT031 BKN043CB OVC060 08/03 A3016 RMK AO2 TSB35 PRESRR OCNL LTGICCC OHD TS OHD MOV SE P0001 T00780028 $
2026-04-06 04:51:00,METAR KORD 060451Z 24011KT 10SM -RA BKN050 BKN070 OVC120 08/01 A3013 RMK AO2 RAB49 SLP208 P0000 T00830006 $
2026-04-06 03:51:00,METAR KORD 060351Z 23009KT 10SM FEW045 SCT100 BKN150 08/00 A3014 RMK AO2 SLP212 T00780000 $
2026-04-06 02:51:00,METAR KORD 060251Z 23006KT 10SM FEW045 08/M01 A3014 RMK AO2 SLP212 T00831006 58000 $
2026-04-06 01:51:00,METAR KORD 060151Z 24008KT 10SM CLR 09/M02 A3015 RMK AO2 SLP215 T00891017 $
2026-04-06 00:51:00,METAR KORD 060051Z 24008KT 10SM FEW250 09/M03 A3015 RMK AO2 SLP213 T00941028 $
2026-04-05 23:51:00,METAR KORD 052351Z 27008KT 10SM FEW035 FEW250 11/M04 A3015 RMK AO2 SLP212 T01061044 10117 20083 50000 $
2026-04-05 22:51:00,METAR KORD 052251Z 26008G18KT 10SM FEW035 FEW250 11/M06 A3016 RMK AO2 SLP215 T01111056 $
2026-04-05 21:51:00,METAR KORD 052151Z 29010G21KT 10SM FEW250 12/M06 A3015 RMK AO2 SLP213 T01171056 $
2026-04-05 20:51:00,METAR KORD 052051Z 31013G21KT 10SM FEW035 12/M06 A3015 RMK AO2 SLP212 T01171061 58003 $
2026-04-05 19:51:00,METAR KORD 051951Z 32014G27KT 10SM FEW035 11/M06 A3016 RMK AO2 PK WND 28027/1935 SLP216 T01061061 $
2026-04-05 18:51:00,METAR KORD 051851Z 30015G22KT 10SM FEW035 09/M06 A3015 RMK AO2 SLP215 T00941061 $
2026-04-05 17:51:00,METAR KORD 051751Z 29015G21KT 10SM FEW032 08/M04 A3016 RMK AO2 SLP216 T00831039 10083 20028 51013 $
2026-04-05 16:51:00,METAR KORD 051651Z 30013KT 10SM FEW032 07/M02 A3015 RMK AO2 SLP212 T00721022 $
2026-04-05 15:51:00,METAR KORD 051551Z 27007G24KT 10SM FEW032 06/M02 A3014 RMK AO2 SLP211 T00611022 $
2026-04-05 14:51:00,METAR KORD 051451Z 29013G21KT 10SM SCT032 04/M03 A3012 RMK AO2 SLP204 T00441028 53026 $
2026-04-05 12:51:00,METAR KORD 051251Z 29008G20KT 10SM BKN029 OVC037 03/M03 A3007 RMK AO2 SLP186 T00281028 $
2026-04-05 11:51:00,METAR KORD 051151Z 28011G23KT 10SM FEW030 BKN043 03/M02 A3004 RMK AO2 SLP177 70003 T00281022 10050 20028 53019 $
2026-04-05 10:51:00,METAR KORD 051051Z 28013G21KT 10SM FEW030 BKN038 BKN050 03/M02 A3002 RMK AO2 SLP169 T00331022 $
2026-04-05 09:51:00,METAR KORD 050951Z 27010G21KT 10SM SCT031 BKN049 04/M02 A3000 RMK AO2 SLP162 T00391017 $
2026-04-05 08:51:00,METAR KORD 050851Z 27014G23KT 10SM FEW034 BKN050 04/M03 A2999 RMK AO2 SLP157 T00391028 53006 $
2026-04-05 07:51:00,METAR KORD 050751Z 26014G22KT 10SM FEW035 BKN055 04/M03 A2997 RMK AO2 SLP152 T00441028 $
2026-04-05 06:51:00,METAR KORD 050651Z 27013G25KT 10SM FEW035 BKN050 04/M03 A2997 RMK AO2 SLP152 T00441028 $
2026-04-05 05:51:00,METAR KORD 050551Z 26014G22KT 10SM FEW023 BKN033 OVC045 05/M01 A2997 RMK AO2 SLP151 60000 T00501006 10061 20050 401330033 53002 $
2026-04-05 05:17:00,SPECI KORD 050517Z 27008G17KT 10SM FEW025 BKN035 OVC045 05/00 A2996 RMK AO2 T00500000 $
2026-04-05 04:51:00,METAR KORD 050451Z 26009KT 10SM BKN028 BKN050 05/00 A2996 RMK AO2 SLP150 SHRA AT AP T00500000 $
2026-04-05 04:12:00,SPECI KORD 050412Z 25014G23KT 10SM BKN027 OVC034 05/00 A2996 RMK AO2 T00500000 $
2026-04-05 03:51:00,METAR KORD 050351Z 26010G19KT 10SM BKN031 BKN047 05/M01 A2995 RMK AO2 PK WND 27026/0257 RAB37E45 SLP147 SHRA AT AP P0000 T00501006 $
2026-04-05 02:51:00,METAR KORD 050251Z 25011G20KT 10SM FEW036 OVC050 05/M02 A2996 RMK AO2 PK WND 26030/0204 SLP149 T00501017 51012 $
2026-04-05 01:51:00,METAR KORD 050151Z 27017G26KT 10SM FEW030 BKN036 OVC047 06/M02 A2996 RMK AO2 PK WND 26035/0115 SLP148 T00561022 $
2026-04-05 00:51:00,METAR KORD 050051Z 26012G29KT 10SM SCT030 BKN037 BKN048 BKN250 06/M01 A2994 RMK AO2 PK WND 27030/2352 SLP141 T00561006 $
2026-04-04 23:51:00,METAR KORD 042351Z 26020G29KT 10SM BKN030 BKN036 BKN045 06/M01 A2993 RMK AO2 PK WND 26033/2315 SLP137 T00611006 10094 20061 51020 $
2026-04-04 23:23:00,SPECI KORD 042323Z 28016G33KT 10SM BKN030 OVC036 06/00 A2992 RMK AO2 PK WND 26033/2315 T00610000 $
2026-04-04 22:51:00,METAR KORD 042251Z 27015G26KT 10SM BKN027 OVC033 07/01 A2991 RMK AO2 PK WND 27032/2226 SLP133 T00670006 $
2026-04-04 22:17:00,SPECI KORD 042217Z 27019G27KT 10SM OVC025 07/01 A2990 RMK AO2 PK WND 26030/2155 T00720011 $
2026-04-04 21:51:00,METAR KORD 042151Z 27019G33KT 10SM OVC022 07/02 A2989 RMK AO2 PK WND 26033/2151 SLP126 T00720017 $
2026-04-04 20:51:00,METAR KORD 042051Z 26015G23KT 10SM OVC022 08/03 A2987 RMK AO2 PK WND 25028/2019 SLP117 T00830033 53006 $
2026-04-04 19:51:00,METAR KORD 041951Z 26015G26KT 10SM BKN018 BKN110 BKN250 09/04 A2986 RMK AO2 PK WND 27027/1938 SLP115 T00890044 $
2026-04-04 19:12:00,SPECI KORD 041912Z 25017G24KT 10SM BKN015 BKN110 BKN250 09/06 A2985 RMK AO2 T00890056 $
2026-04-04 18:51:00,METAR KORD 041851Z 27015G24KT 10SM BKN014 BKN075 BKN110 OVC250 09/06 A2985 RMK AO2 PK WND 26029/1840 SLP111 T00890056 $
2026-04-04 18:14:00,SPECI KORD 041814Z 26014G27KT 10SM BKN010 BKN015 OVC110 09/06 A2984 RMK AO2 PK WND 25027/1812 T00890056 $
2026-04-04 17:51:00,METAR KORD 041751Z 25016G25KT 10SM OVC009 08/06 A2985 RMK AO2 PK WND 25027/1738 SLP111 60003 T00780061 10133 20078 51015 $
2026-04-04 16:51:00,METAR KORD 041651Z 24013G23KT 10SM OVC006 09/08 A2983 RMK AO2 RAE02 SLP106 P0000 T00890078 $
2026-04-04 15:51:00,METAR KORD 041551Z 26021KT 7SM -RA BKN005 OVC011 10/09 A2983 RMK AO2 RAE21B47 SLP103 P0002 T01000094 $
2026-04-04 15:16:00,SPECI KORD 041516Z 26015G23KT 5SM -RA BR BKN005 OVC009 11/10 A2981 RMK AO2 P0002 T01110100 $
2026-04-04 15:01:00,SPECI KORD 041501Z 25014G24KT 4SM -RA BR BKN005 OVC012 11/11 A2981 RMK AO2 P0000 T01110106 $
2026-04-04 14:51:00,METAR KORD 041451Z 25015G28KT 2SM -RA BR BKN003 OVC009 12/11 A2981 RMK AO2 PK WND 25028/1448 RAB50 PRESRR SLP095 P0000 60001 T01170111 53003 $
2026-04-04 14:34:00,SPECI KORD 041434Z 24013G22KT 1SM R10L/5500VP6000FT BR OVC002 13/12 A2978 RMK AO2 T01280122 $
2026-04-04 14:27:00,SPECI KORD 041427Z 24014G22KT 1 1/4SM BR OVC003 13/13 A2978 RMK AO2 T01330128 $
2026-04-04 14:17:00,SPECI KORD 041417Z 23009G16KT 2 1/2SM BR OVC003 13/12 A2977 RMK AO2 T01280122 $
2026-04-04 13:59:00,SPECI KORD 041359Z 20003KT 4SM BR BKN004 BKN008 OVC019 12/11 A2976 RMK AO2 T01170111 $
2026-04-04 13:51:00,METAR KORD 041351Z 17003KT 2 1/2SM BR BKN004 BKN008 OVC050 11/11 A2976 RMK AO2 SLP081 T01110106 $
2026-04-04 13:20:00,SPECI KORD 041320Z 19005KT 2 1/2SM BR BKN003 OVC010 10/09 A2980 RMK AO2 T01000094 $
2026-04-04 12:51:00,METAR KORD 041251Z 19007KT 4SM BR BKN003 OVC070 09/08 A2981 RMK AO2 RAE30 SLP097 P0001 T00890083 $
2026-04-04 12:17:00,SPECI KORD 041217Z 15006KT 3SM -RA BR BKN004 BKN080 OVC110 08/07 A2980 RMK AO2 P0001 T00830072 $
2026-04-04 11:51:00,METAR KORD 041151Z 00000KT 4SM -RA BR SCT004 BKN080 OVC110 08/07 A2980 RMK AO2 RAB1054 SLP093 P0005 60026 70052 T00830072 10083 20050 58019 $
2026-04-04 11:25:00,SPECI KORD 041125Z 06004KT 4SM RA BR BKN004 BKN080 OVC100 08/07 A2980 RMK AO2 RAB1054 PRESFR P0002 T00780072 $
2026-04-04 10:51:00,METAR KORD 041051Z 11003KT 6SM BR SCT003 BKN080 BKN130 OVC240 08/07 A2982 RMK AO2 WSHFT 0945 RAE38 TSE09 SLP101 P0020 T00780067 $
2026-04-04 10:19:00,SPECI KORD 041019Z 11006KT 6SM -RA BR FEW003 BKN038 OVC075 07/07 A2984 RMK AO2 WSHFT 0945 TSE09 P0019 T00720067 $
2026-04-04 10:12:00,SPECI KORD 041012Z 09006KT 4SM -RA BR SCT003 BKN021 OVC036 07/07 A2983 RMK AO2 WSHFT 0945 TSE09 PRESFR OCNL LTGIC DSNT NE AND SE CB DSNT NE AND SE MOV NE P0019 T00720067 $
2026-04-04 10:05:00,SPECI KORD 041005Z 09010KT 1 3/4SM -TSRA BR BKN003 BKN015CB OVC034 07/07 A2985 RMK AO2 WSHFT 0945 PRESFR OCNL LTGIC OHD TS OHD MOV NE P0016 T00720067 $
2026-04-04 09:53:00,SPECI KORD 040953Z 35013KT 1 3/4SM R10L/2800VP6000FT TSRA BR OVC003CB 07/06 A2986 RMK AO2 OCNL LTGIC OHD TS OHD MOV NE P0006 T00670061 $
2026-04-04 09:51:00,METAR KORD 040951Z 36013G18KT 7SM R10L/2800VP6000FT -TSRA OVC003CB 07/06 A2987 RMK AO2 RAE0857B46 TSB39 SLP118 OCNL LTGIC OHD TS OHD MOV NE P0001 T00670061 $
2026-04-04 09:41:00,SPECI KORD 040941Z COR 36007G25KT 330V040 7SM TS OVC003CB 07/06 A2988 RMK AO2 RAE0857 TSB39 OCNL LTGIC E AND SW-W TS E AND SW-W MOV NE P0000 T00670061 $
2026-04-04 08:51:00,METAR KORD 040851Z 04008KT 6SM -RA BR OVC003 06/06 A2985 RMK AO2 RAB47 SLP113 P0000 60000 T00610056 56042 $
2026-04-04 07:51:00,METAR KORD 040751Z VRB04KT 8SM OVC004 06/05 A2988 RMK AO2 SLP121 T00560050 $
2026-04-04 07:31:00,SPECI KORD 040731Z 07007KT 10SM BKN004 OVC015 06/05 A2989 RMK AO2 OCNL LTGIC DSNT SE AND NW CB DSNT SE AND NW MOV NE T00560050 $
2026-04-04 06:51:00,METAR KORD 040651Z 06007KT 10SM FEW005 OVC007 06/04 A2993 RMK AO2 RAE20 TSB0558E19 SLP137 P0000 T00560044 $
2026-04-04 06:25:00,SPECI KORD 040625Z 08010G18KT 10SM FEW005 BKN007 OVC020 05/04 A2994 RMK AO2 RAE20 TSB0558E19 OCNL LTGIC DSNT NE CB DSNT NE MOV NE P0000 T00500039 $
2026-04-04 05:58:00,SPECI KORD 040558Z 03010KT 5SM TSRA BR BKN008 OVC030CB 05/04 A2999 RMK AO2 TSB58 OCNL LTGIC NW TS NW MOV NE P0000 T00500039 $
2026-04-04 05:51:00,METAR KORD 040551Z 04011KT 10SM -RA OVC008 05/04 A2998 RMK AO2 SLP154 P0001 60026 T00500039 10061 20039 401670039 56029 $
2026-04-04 05:41:00,SPECI KORD 040541Z 04010KT 10SM -RA BKN009 OVC070 05/04 A2998 RMK AO2 P0001 T00500039 $
2026-04-04 05:02:00,SPECI KORD 040502Z 06008KT 10SM -RA FEW008 BKN012 OVC110 06/03 A3000 RMK AO2 P0000 T00560033 $
2026-04-04 04:51:00,METAR KORD 040451Z 06009KT 10SM -RA BKN016 BKN095 OVC120 05/03 A3000 RMK AO2 SLP161 OCNL LTGICCG DSNT SE-SW CB DSNT SE-SW MOV NE P0000 T00500033 $
2026-04-04 04:24:00,SPECI KORD 040424Z 08011KT 10SM -RA BKN023 BKN048 OVC110 05/03 A3001 RMK AO2 FRQ LTGIC DSNT SE-S CB DSNT SE-S MOV NE P0000 T00500028
2026-04-04 03:51:00,METAR KORD 040351Z 07008KT 10SM -RA SCT022 BKN070 BKN120 OVC250 04/02 A3004 RMK AO2 RAE18B36 TSE07 SLP177 P0002 T00440022
2026-04-04 03:13:00,SPECI KORD 040313Z 08011KT 10SM -RA SCT032 BKN047 OVC110 04/02 A3005 RMK AO2 TSE07 OCNL LTGICCG DSNT NE CB DSNT NE MOV NE P0002 T00440022
2026-04-04 02:51:00,METAR KORD 040251Z 06012KT 5SM TSRA BR SCT020CB BKN047 OVC080 04/02 A3007 RMK AO2 RAB13 TSE04B06 SLP185 OCNL LTGICCG OHD TS OHD MOV NE P0023 60023 T00440017 58012
2026-04-04 02:39:00,SPECI KORD 040239Z 05011KT 3SM R10L/3000VP6000FT +TSRA SCT020CB BKN047 OVC080 04/02 A3006 RMK AO2 RAB13 TSE04B06 OCNL LTGICCG OHD TS OHD MOV NE P0013 T00440017
2026-04-04 02:06:00,SPECI KORD 040206Z 07013G22KT 10SM TS OVC020CB 05/00 A3009 RMK AO2 TSE04B06 OCNL LTGICCG S-SW TS S-SW MOV NE T00500000
2026-04-04 01:51:00,METAR KORD 040151Z 06016G26KT 10SM OVC020 05/00 A3009 RMK AO2 PK WND 05027/0133 SLP192 T00500000
2026-04-04 00:51:00,METAR KORD 040051Z 06015KT 10SM OVC022 05/01 A3011 RMK AO2 SLP198 T00500011
2026-04-04 00:04:00,SPECI KORD 040004Z 06015G24KT 10SM OVC023 06/02 A3009 RMK AO2 T00560022
2026-04-03 23:51:00,METAR KORD 032351Z 06014G20KT 10SM FEW017 OVC025 06/02 A3010 RMK AO2 SLP197 T00610022 10144 20061 50004
2026-04-03 22:51:00,METAR KORD 032251Z 03013KT 10SM FEW017 BKN026 OVC045 07/02 A3012 RMK AO2 PRESRR SLP204 T00670022
2026-04-03 21:51:00,METAR KORD 032151Z 06016KT 10SM SCT026 OVC041 08/03 A3010 RMK AO2 SLP194 T00780028
2026-04-03 20:51:00,METAR KORD 032051Z 07010KT 10SM SCT031 BKN042 OVC250 09/04 A3009 RMK AO2 SLP191 T00940039 53006
2026-04-03 19:51:00,METAR KORD 031951Z 06010G18KT 10SM BKN034 OVC250 12/06 A3009 RMK AO2 SLP189 T01170056
2026-04-03 18:51:00,METAR KORD 031851Z VRB03KT 10SM FEW020 FEW200 BKN250 13/06 A3007 RMK AO2 SLP182 T01330056
2026-04-03 17:51:00,METAR KORD 031751Z 06004KT 10SM FEW020 BKN250 12/06 A3007 RMK AO2 SLP183 T01220061 10122 20078 51007
2026-04-03 16:51:00,METAR KORD 031651Z 28005KT 10SM SCT017 BKN250 11/06 A3007 RMK AO2 SLP183 T01060056
2026-04-03 15:51:00,METAR KORD 031551Z 31007KT 10SM BKN015 BKN250 09/06 A3007 RMK AO2 SLP184 T00940056
2026-04-03 15:33:00,SPECI KORD 031533Z 26007KT 10SM BKN015 BKN250 09/05 A3006 RMK AO2 T00890050
2026-04-03 14:51:00,METAR KORD 031451Z 27007KT 10SM OVC014 08/05 A3005 RMK AO2 SLP177 T00830050 51025
2026-04-03 13:51:00,METAR KORD 031351Z 25006KT 10SM OVC013 08/05 A3004 RMK AO2 SLP172 T00780050
2026-04-03 12:51:00,METAR KORD 031251Z 26009KT 10SM OVC013 08/05 A3001 RMK AO2 SLP162 T00780050
2026-04-03 11:51:00,METAR KORD 031151Z 24010G16KT 10SM OVC013 08/06 A2997 RMK AO2 SLP150 70053 T00830061 10167 20083 53033
2026-04-03 08:51:00,METAR KORD 030851Z 25018G25KT 10SM OVC013 11/08 A2987 RMK AO2 PK WND 24026/0754 SLP116 T01060078 51042 $
2026-04-03 08:28:00,SPECI KORD 030828Z 25016G24KT 10SM OVC013 11/08 A2986 RMK AO2 PK WND 24026/0754 T01110083 $
2026-04-03 06:00:00,SPECI KORD 030600Z 23011G19KT 10SM BKN024 OVC035 17/14 A2976 RMK AO2 T01670139 $
2026-04-03 05:51:00,METAR KORD 030551Z 23009G21KT 10SM SCT022 BKN030 BKN045 17/13 A2975 RMK AO2 PK WND 25026/0535 SLP073 60037 T01670133 10206 20156 402110033 53025 $
2026-04-03 04:51:00,METAR KORD 030451Z 23009KT 10SM FEW025 FEW250 16/14 A2972 RMK AO2 LTG DSNT SE SLP063 T01610144 $
2026-04-03 03:51:00,METAR KORD 030351Z 20007KT 10SM FEW020 BKN035 BKN080 OVC250 16/14 A2970 RMK AO2 RAE35 TSE51 SLP057 FRQ LTGICCC DSNT E-S CB DSNT E-S MOV NE P0019 T01560144 $
2026-04-03 03:27:00,SPECI KORD 030327Z 22004KT 6SM -TSRA BR FEW020 BKN035CB OVC080 16/14 A2970 RMK AO2 FRQ LTGICCCCG NE-S TS NE-S MOV NE P0019 T01560144 $
2026-04-03 03:19:00,SPECI KORD 030319Z 22007G25KT 2SM R10L/3500VP6000FT TSRA BR FEW018 BKN031CB OVC080 16/14 A2970 RMK AO2 CONS LTGICCCCG OHD TS OHD MOV NE P0017 T01610144 $
2026-04-03 02:58:00,SPECI KORD 030258Z 20012G21KT 7SM -TSRA FEW018 BKN031CB OVC080 17/14 A2967 RMK AO2 FRQ LTGICCCCG OHD TS OHD MOV NE P0003 T01670139 $
2026-04-03 02:51:00,METAR KORD 030251Z 19011G21KT 3SM TSRA BKN031CB BKN055 OVC100 17/14 A2967 RMK AO2 RAE0154B11 TSB19 SLP049 FRQ LTGICCCCG OHD TS OHD MOV NE P0003 60018 T01720139 53015 $
2026-04-03 02:48:00,SPECI KORD 030248Z 20011KT 4SM TSRA BKN034CB BKN055 OVC100 17/14 A2968 RMK AO2 RAE0154B11 TSB19 PRESRR FRQ LTGICCCCG OHD TS OHD MOV NE P0002 $
2026-04-03 02:19:00,SPECI KORD 030219Z 19013G20KT 10SM -TSRA SCT026CB BKN080 BKN110 OVC160 17/13 A2964 RMK AO2 RAE0154B11 TSB19 OCNL LTGICCCCG SW-NW TS SW-NW MOV NE P0000 T01670133
2026-04-03 01:51:00,METAR KORD 030151Z 19011G23KT 10SM -RA SCT022 BKN070 BKN100 OVC160 17/12 A2964 RMK AO2 PK WND 23041/0119 RAB17 TSB13E50 SLP039 FRQ LTGICCCCG DSNT NW-NE-SE-SW CB DSNT NW-NE-SE-SW MOV NE P0015 T01670117
2026-04-03 01:30:00,SPECI KORD 030130Z 20020G41KT 8SM R10L/5500VP6000FT -TSRA FEW012 SCT025CB BKN070 BKN140 OVC180 18/14 A2966 RMK AO2 PK WND 23041/0119 RAB17 TSB13 FRQ LTGICCCCG NE-SE TS NE-SE MOV NE P0015 T01780139
2026-04-03 01:24:00,SPECI KORD 030124Z 20028G41KT 5SM R10L/3500VP6000FT +TSRA BR FEW018 BKN025CB OVC075 18/16 A2968 RMK AO2 PK WND 23041/0119 RAB17 TSB13 VIS E 1 OCNL LTGICCCCG OHD TS OHD MOV NE P0014 T01830161
2026-04-03 01:20:00,SPECI KORD 030120Z 21023G41KT 1 1/4SM R10L/3500VP6000FT +TSRA BR BKN026CB OVC034 19/16 A2968 RMK AO2 PK WND 23041/0119 RAB17 TSB13 PRESRR OCNL LTGICCCCG OHD TS OHD MOV NE P0001 T01940161
2026-04-03 01:19:00,SPECI KORD 030119Z 22024G41KT 2 1/2SM R10L/4500VP6000FT TSRA BR BKN026CB BKN034 OVC060 19/16 A2969 RMK AO2 PK WND 23041/0119 RAB17 TSB13 PRESRR OCNL LTGICCCCG SW-W TS SW-W MOV NE P0000 T01940161
2026-04-03 01:13:00,SPECI KORD 030113Z 19015G27KT 10SM TS BKN026CB BKN034 BKN060 BKN140 OVC200 20/16 A2965 RMK AO2 PK WND 21038/0056 TSB13 FRQ LTGICCCCG SW-W TS SW-W MOV NE T02000156
2026-04-03 00:51:00,METAR KORD 030051Z 19022G39KT 10SM BKN027 BKN065 BKN120 BKN250 21/16 A2963 RMK AO2 PK WND 20039/0045 SLP035 FRQ LTGICCC DSNT SW-NW CB DSNT SW-NW MOV NE T02060156
2026-04-03 00:24:00,SPECI KORD 030024Z 18021G35KT 10SM BKN027 BKN034 BKN070 BKN140 BKN250 21/16 A2962 RMK AO2 PK WND 19037/0004 T02060156
2026-04-02 23:51:00,METAR KORD 022351Z 19022G36KT 10SM BKN030 BKN036 BKN075 BKN150 BKN250 21/16 A2963 RMK AO2 PK WND 20041/2327 SLP033 60002 T02060161 10211 20133 58002
2026-04-02 22:51:00,METAR KORD 022251Z 19016G32KT 10SM FEW034 BKN065 BKN095 BKN160 BKN250 21/16 A2963 RMK AO2 PK WND 19036/2152 RAE11 SLP034 P0000 T02060161
2026-04-02 21:51:00,METAR KORD 022151Z 19017G30KT 10SM -RA SCT031 BKN048 OVC100 21/16 A2964 RMK AO2 PK WND 17040/2107 RAB03E12B43 SLP038 CB DSNT N MOV NE P0000 T02060161
2026-04-02 20:51:00,METAR KORD 022051Z 18027G40KT 10SM BKN031 BKN043 OVC055 21/16 A2964 RMK AO2 PK WND 18040/2049 SLP035 CB DSNT W-NW MOV NE 60002 T02110161 56030
2026-04-02 20:02:00,SPECI KORD 022002Z 19017G28KT 10SM SCT030 BKN044 OVC090 21/17 A2966 RMK AO2 PK WND 19028/2002 T02060167
2026-04-02 19:51:00,METAR KORD 021951Z 19015G25KT 10SM BKN028 BKN035 OVC055 20/17 A2966 RMK AO2 PK WND 18032/1924 RAE1853B11E35 SLP045 VCSH P0002 T02000167
2026-04-02 18:51:00,METAR KORD 021851Z 18010G17KT 9SM -RA BKN026 OVC033 19/17 A2969 RMK AO2 RAB19 SLP055 P0000 T01940172
2026-04-02 18:29:00,SPECI KORD 021829Z 00000KT 5SM -RA BR SCT028 BKN033 OVC049 15/14 A2970 RMK AO2 RAB19 P0000 T01500139
2026-04-02 17:57:00,SPECI KORD 021757Z COR 11005KT 3SM BR SCT005 BKN033 OVC049 14/13 A2971 RMK AO2 T01390128
2026-04-02 17:51:00,METAR KORD 021751Z 11004KT 2 1/2SM BR SCT005 BKN012 OVC049 13/12 A2972 RMK AO2 RAB27E38 SLP067 P0000 60014 T01330122 10133 20039 58034
2026-04-02 17:44:00,SPECI KORD 021744Z 11004KT 2 1/2SM BR SCT005 BKN012 OVC049 13/12 A2973 RMK AO2 RAB27E38 P0000 T01280122
2026-04-02 17:08:00,SPECI KORD 021708Z 10007KT 030V110 2 1/2SM BR BKN005 OVC010 11/10 A2975 RMK AO2 T01060100
2026-04-02 16:51:00,METAR KORD 021651Z 10006KT 2SM BR OVC004 10/09 A2976 RMK AO2 LTG DSNT W RAE13B21E45 TSB19E39 SLP082 P0007 T01000094
2026-04-02 16:40:00,SPECI KORD 021640Z 10006KT 2SM -RA BR OVC004 09/09 A2977 RMK AO2 LTG DSNT N RAE13B21 TSB19E39 P0007 T00940089
2026-04-02 16:20:00,SPECI KORD 021620Z 12007KT 2SM TS BR OVC004CB 09/08 A2979 RMK AO2 RAE13 TSB19 OCNL LTGICCG W TS W MOV NE P0006 T00890083
2026-04-02 16:10:00,SPECI KORD 021610Z 11006KT 2SM R10L/5000VP6000FT -RA BR OVC004 08/08 A2979 RMK AO2 LTG DSNT SW P0006 T00830078
2026-04-02 15:58:00,SPECI KORD 021558Z 12009KT 1SM R10L/4000VP6000FT RA BR OVC003 08/07 A2980 RMK AO2 P0001 T00780072
2026-04-02 15:51:00,METAR KORD 021551Z 11008KT 2SM -RA BR OVC003 08/07 A2980 RMK AO2 SLP096 P0005 T00780072
2026-04-02 15:18:00,SPECI KORD 021518Z 11007KT 2SM -RA BR OVC003 07/06 A2981 RMK AO2 P0004 T00670061
2026-04-02 15:08:00,SPECI KORD 021508Z 11006KT 1 1/2SM R10L/3500VP6000FT -RA BR OVC003 07/06 A2982 RMK AO2 P0003 T00670061
2026-04-02 14:51:00,METAR KORD 021451Z 11006KT 2SM -RA BR OVC003 06/06 A2983 RMK AO2 RAE1356B22 TSB1353E10 SLP104 P0000 60002 T00610056 58024
2026-04-02 14:11:00,SPECI KORD 021411Z 09006KT 2 1/2SM BR OVC003 05/04 A2984 RMK AO2 RAE1356 TSB1353E10 P0000 T00500044
2026-04-02 13:54:00,SPECI KORD 021354Z 08006KT 3SM -TSRA BR OVC004CB 05/04 A2985 RMK AO2 TSB53 OCNL LTGICCG SE TS SE MOV NE P0000 T00500039
2026-04-02 13:51:00,METAR KORD 021351Z 08006KT 3SM -RA BR OVC004 05/04 A2985 RMK AO2 RAB04 SLP113 P0002 T00500039
2026-04-02 12:51:00,METAR KORD 021251Z 09006KT 3SM BR OVC004 04/03 A2988 RMK AO2 RAB1152E02 SLP123 P0000 T00390033
2026-04-02 12:12:00,SPECI KORD 021212Z 08008KT 3SM BR OVC004 04/03 A2989 RMK AO2 RAB1152E02 P0000 T00390028
2026-04-02 11:51:00,METAR KORD 021151Z 09008KT 4SM BR OVC005 04/03 A2990 RMK AO2 RAB10E22 SLP130 P0002 60053 70062 T00390028 10039 20033 56012
2026-04-02 11:45:00,SPECI KORD 021145Z 08009KT 4SM BR OVC005 04/03 A2990 RMK AO2 RAB10E22 P0002
2026-04-02 10:51:00,METAR KORD 021051Z 07009KT 6SM BR OVC006 04/02 A2992 RMK AO2 LTG DSNT NE RAE38 SLP138 P0004 T00390022
2026-04-02 09:51:00,METAR KORD 020951Z 10012KT 5SM -RA BR OVC006 03/02 A2993 RMK AO2 RAE0855B18 SLP142 P0005 T00330022
2026-04-02 08:51:00,METAR KORD 020851Z 09011KT 8SM -RA OVC007 03/02 A2996 RMK AO2 SLP151 P0009 60042 T00330022 58030
2026-04-02 08:03:00,SPECI KORD 020803Z 09012KT 7SM RA BKN009 OVC013 04/02 A3000 RMK AO2 P0004 T00390022
2026-04-02 07:51:00,METAR KORD 020751Z 10008KT 4SM -RA BR BKN007 OVC013 04/03 A3002 RMK AO2 SLP171 P0021 T00390028
2026-04-02 07:02:00,SPECI KORD 020702Z 10015KT 4SM RA BR OVC009 04/02 A3004 RMK AO2 P0004 T00390022
2026-04-02 06:51:00,METAR KORD 020651Z 08015G23KT 6SM RA BR OVC010 04/02 A3003 RMK AO2 SLP174 P0012 T00390022
2026-04-02 06:27:00,SPECI KORD 020627Z 10013KT 9SM -RA BKN011 OVC050 04/02 A3006 RMK AO2 P0008 T00390022
2026-04-02 06:17:00,SPECI KORD 020617Z 09013KT 6SM -RA BR SCT009 BKN016 OVC050 03/02 A3005 RMK AO2 P0007 T00330022
2026-04-02 05:51:00,METAR KORD 020551Z 08013KT 7SM -RA OVC016 03/02 A3005 RMK AO2 SLP182 P0007 60009 T00330017 10044 20028 400440022 58021
2026-04-02 04:51:00,METAR KORD 020451Z 08010G20KT 7SM -RA OVC019 04/01 A3010 RMK AO2 RAB30 SLP199 P0002 T00390011
2026-04-02 03:51:00,METAR KORD 020351Z 08013G21KT 10SM OVC022 04/00 A3009 RMK AO2 SLP194 T00440000
2026-04-02 02:51:00,METAR KORD 020251Z 07013G19KT 10SM OVC023 04/00 A3012 RMK AO2 SLP204 T00440000 58013
2026-04-02 01:51:00,METAR KORD 020151Z 05014KT 10SM OVC022 04/00 A3014 RMK AO2 SLP213 T00390000
2026-04-02 01:30:00,SPECI KORD 020130Z 05014G20KT 10SM OVC023 03/00 A3015 RMK AO2 T00330000
2026-04-02 00:51:00,METAR KORD 020051Z 06013KT 10SM OVC026 03/M01 A3017 RMK AO2 SLP222 T00331006
2026-04-02 00:27:00,SPECI KORD 020027Z 05016KT 10SM BKN026 OVC065 03/M01 A3016 RMK AO2 T00281006
2026-04-01 23:51:00,METAR KORD 012351Z 05017G24KT 10SM SCT026 BKN065 OVC250 03/M01 A3016 RMK AO2 SLP217 T00331006 10039 20028 58003
2026-04-01 23:36:00,SPECI KORD 012336Z 05016G24KT 10SM SCT026 BKN065 OVC250 03/M01 A3016 RMK AO2 T00331006
2026-04-01 22:51:00,METAR KORD 012251Z 06017KT 10SM FEW016 BKN026 OVC045 03/M01 A3016 RMK AO2 PK WND 05027/2228 SLP217 T00331006
2026-04-01 21:51:00,METAR KORD 012151Z 06018KT 10SM SCT016 OVC025 04/M01 A3017 RMK AO2 SLP222 T00391006
2026-04-01 21:12:00,SPECI KORD 012112Z 05014G25KT 10SM SCT016 OVC025 04/M01 A3016 RMK AO2 T00391006
2026-04-01 20:51:00,METAR KORD 012051Z 05015KT 10SM BKN015 OVC025 04/M01 A3016 RMK AO2 SLP220 T00391006 58016
2026-04-01 19:51:00,METAR KORD 011951Z 05020KT 10SM OVC015 03/M01 A3018 RMK AO2 PK WND 05027/1949 SLP225 T00331011
2026-04-01 18:51:00,METAR KORD 011851Z 04017KT 10SM OVC015 03/M01 A3021 RMK AO2 SLP236 T00331011
2026-04-01 18:15:00,SPECI KORD 011815Z 06018KT 10SM OVC015 03/M01 A3021 RMK AO2 T00281011
2026-04-01 17:51:00,METAR KORD 011751Z 03019G26KT 10SM OVC014 03/M01 A3021 RMK AO2 PK WND 04027/1717 SLP236 T00281011 10033 20022 58000
2026-04-01 16:51:00,METAR KORD 011651Z 03022G27KT 10SM OVC014 03/M02 A3021 RMK AO2 PK WND 03030/1607 SLP237 T00281017
2026-04-01 15:51:00,METAR KORD 011551Z 03022KT 10SM BKN014 OVC022 03/M01 A3021 RMK AO2 PK WND 04030/1509 SLP236 T00281011
2026-04-01 14:51:00,METAR KORD 011451Z 03022G28KT 10SM BKN014 OVC022 02/M01 A3021 RMK AO2 PK WND 03028/1413 SLP236 T00221011 51013
2026-04-01 13:51:00,METAR KORD 011351Z 03021G26KT 10SM BKN012 OVC020 02/M01 A3021 RMK AO2 PK WND 04028/1321 SLP236 T00221006
2026-04-01 12:51:00,METAR KORD 011251Z 03020KT 10SM OVC012 02/M01 A3020 RMK AO2 PK WND 04028/1235 SLP231 T00221011
2026-04-01 11:51:00,METAR KORD 011151Z 03019KT 10SM OVC012 02/M01 A3017 RMK AO2 PK WND 01029/1107 SLP222 70010 T00221011 10039 20022 53019
2026-04-01 10:51:00,METAR KORD 011051Z 02021G27KT 10SM BKN014 OVC130 02/M01 A3014 RMK AO2 PK WND 03029/1030 SLP211 T00221011 $
2026-04-01 10:40:00,SPECI KORD 011040Z 03022KT 10SM BKN014 OVC130 02/M01 A3013 RMK AO2 PK WND 03029/1030 T00221011 $
2026-04-01 09:51:00,METAR KORD 010951Z 03018KT 10SM BKN130 OVC200 03/M02 A3013 RMK AO2 PK WND 04028/0857 SLP206 T00281017 $
2026-04-01 08:51:00,METAR KORD 010851Z 03018G25KT 10SM FEW020 OVC200 03/M02 A3012 RMK AO2 PK WND 03034/0802 SLP200 T00281017 50005 $
2026-04-01 07:51:00,METAR KORD 010751Z 03019KT 10SM SCT015 BKN250 03/M01 A3012 RMK AO2 PK WND 04027/0655 SLP201 T00331006 $
2026-04-01 07:36:00,SPECI KORD 010736Z 05015G25KT 10SM SCT015 BKN250 03/00 A3012 RMK AO2 PK WND 04027/0655 T00330000 $
2026-04-01 06:51:00,METAR KORD 010651Z 05016G25KT 10SM BKN015 BKN250 03/00 A3012 RMK AO2 PK WND 04028/0639 SLP200 T00330000 $
2026-04-01 06:35:00,SPECI KORD 010635Z 04021G26KT 10SM BKN015 BKN250 04/01 A3011 RMK AO2 PK WND 02027/0605 T00390006 $
2026-04-01 05:51:00,METAR KORD 010551Z 03019G27KT 10SM FEW019 SCT250 04/01 A3010 RMK AO2 PK WND 02027/0546 SLP195 T00390006 10072 20039 402000039 53026 $
2026-04-01 05:17:00,SPECI KORD 010517Z 03018KT 10SM SCT019 SCT250 04/01 A3008 RMK AO2 PK WND 04027/0504 T00440011 $
2026-04-01 04:51:00,METAR KORD 010451Z 03017G26KT 10SM OVC017 05/02 A3006 RMK AO2 PK WND 03026/0442 SLP181 T00500017 $
2026-04-01 03:51:00,METAR KORD 010351Z 03013KT 10SM OVC009 05/03 A3004 RMK AO2 SLP174 T00500028 $
2026-04-01 02:59:00,SPECI KORD 010259Z 04012KT 10SM OVC009 05/03 A3003 RMK AO2 T00500028 $
2026-04-01 02:51:00,METAR KORD 010251Z 03013KT 10SM OVC010 05/03 A3002 RMK AO2 SLP167 T00500028 51038 $
2026-04-01 01:51:00,METAR KORD 010151Z 03018KT 10SM BKN010 OVC018 06/03 A3000 RMK AO2 SLP158 T00560028 $
2026-04-01 00:51:00,METAR KORD 010051Z 03012KT 10SM BKN010 OVC045 06/03 A2995 RMK AO2 SLP141 T00610033 $
2026-04-01 00:05:00,SPECI KORD 010005Z 03015KT 9SM BKN010 OVC021 07/04 A2992 RMK AO2 T00670044 $
2026-03-31 23:51:00,METAR KORD 312351Z 04010KT 9SM SCT014 OVC022 07/05 A2991 RMK AO2 SLP128 60000 T00720050 10200 20072 52038 $
2026-03-31 23:34:00,SPECI KORD 312334Z 03008KT 10SM SCT011 OVC017 07/05 A2990 RMK AO2 T00720050 $
2026-03-31 23:08:00,SPECI KORD 312308Z 04012KT 10SM BKN011 OVC019 08/06 A2989 RMK AO2 T00830056 $
2026-03-31 22:51:00,METAR KORD 312251Z 03011KT 10SM FEW014 OVC019 09/06 A2987 RMK AO2 SLP115 T00890061 $
2026-03-31 21:51:00,METAR KORD 312151Z 03007KT 10SM FEW015 OVC020 09/06 A2983 RMK AO2 PK WND 01028/2056 WSHFT 2052 SLP102 T00940056 $
2026-03-31 21:06:00,SPECI KORD 312106Z 05012KT 10SM BKN025 OVC031 09/06 A2980 RMK AO2 PK WND 01028/2056 WSHFT 2052 T00940056
2026-03-31 20:51:00,METAR KORD 312051Z 29008KT 250V040 10SM BKN032 BKN055 OVC080 19/14 A2980 RMK AO2 SLP087 60000 T01940139 53008
2026-03-31 19:51:00,METAR KORD 311951Z 24012G19KT 10SM BKN037 BKN055 BKN080 OVC150 20/15 A2978 RMK AO2 SLP080 T02000150
2026-03-31 18:51:00,METAR KORD 311851Z 23007KT 10SM FEW039 SCT110 BKN170 OVC250 19/16 A2975 RMK AO2 RAB19E31 SLP072 P0000 T01890156
2026-03-31 17:51:00,METAR KORD 311751Z 23012G19KT 10SM FEW036 SCT090 BKN150 OVC250 18/15 A2977 RMK AO2 RAE35 SLP078 P0000 60010 T01830150 10200 20167 51008
2026-03-31 16:51:00,METAR KORD 311651Z 20014G21KT 8SM -RA OVC110 17/15 A2977 RMK AO2 PK WND 22026/1552 TSE16 SLP078 P0003 T01720150
2026-03-31 16:22:00,SPECI KORD 311622Z 21011G19KT 8SM -RA FEW055 BKN110 OVC250 17/14 A2977 RMK AO2 PK WND 22026/1552 TSE16 CB DSNT N-NE MOV NE P0000 T01720144
2026-03-31 15:51:00,METAR KORD 311551Z 22016G23KT 7SM -TSRA SCT049CB BKN100 OVC250 17/14 A2976 RMK AO2 PK WND 21032/1453 RAB39 TSB29 SLP076 FRQ LTGICCCCG NE-E TS NE-E MOV NE P0007 T01720144
2026-03-31 15:44:00,SPECI KORD 311544Z 22016G25KT 3SM +TSRA SCT047CB BKN095 BKN180 OVC250 18/14 A2977 RMK AO2 PK WND 21032/1453 RAB39 TSB29 FRQ LTGICCCCG OHD TS OHD MOV NE P0004 T01780144
2026-03-31 15:35:00,SPECI KORD 311535Z 21016G27KT 10SM TS SCT047CB BKN095 BKN180 OVC250 19/13 A2978 RMK AO2 PK WND 21032/1453 TSB29 FRQ LTGICCCCG SW-W TS SW-W MOV NE T01890133
2026-03-31 14:51:00,METAR KORD 311451Z 21014G26KT 10SM FEW050 SCT190 BKN250 20/13 A2975 RMK AO2 PK WND 21026/1442 RAE02 TSE07 SLP069 CB DSNT SW TCU DSNT W P0000 60000 T02000128 56003
2026-03-31 14:13:00,SPECI KORD 311413Z 21011G22KT 10SM FEW055 FEW110 SCT190 BKN250 19/13 A2974 RMK AO2 RAE02 TSE07 CB DSNT SE P0000 T01940128
2026-03-31 13:51:00,METAR KORD 311351Z 23012G21KT 10SM -TSRA SCT055CB SCT110 BKN140 BKN250 19/13 A2976 RMK AO2 PK WND 23028/1302 RAB47 TSB51 SLP072 OCNL LTGICCG S TS S MOV E P0000 T01940128
2026-03-31 12:51:00,METAR KORD 311251Z 21016G24KT 10SM FEW050 SCT110 BKN160 OVC250 19/13 A2975 RMK AO2 SLP069 VIRGA T01890128
2026-03-31 11:51:00,METAR KORD 311151Z 20016G22KT 10SM FEW080 BKN160 OVC250 19/12 A2976 RMK AO2 SLP071 VIRGA 70002 T01890122 10200 20189 55011
2026-03-31 10:51:00,METAR KORD 311051Z 19011KT 10SM FEW090 BKN150 OVC250 19/13 A2974 RMK AO2 SLP066 T01890133 $
2026-03-31 09:51:00,METAR KORD 310951Z 21009KT 10SM SCT080 BKN150 OVC250 19/13 A2978 RMK AO2 SLP078 T01940133 $
2026-03-31 08:51:00,METAR KORD 310851Z 23014G23KT 10SM FEW060 SCT150 OVC250 20/13 A2979 RMK AO2 SLP083 T02000133 53014 $
2026-03-31 07:51:00,METAR KORD 310751Z 21012G24KT 10SM FEW150 BKN250 20/13 A2976 RMK AO2 PK WND 21026/0710 SLP074 T02000133 $
2026-03-31 06:51:00,METAR KORD 310651Z 20015G22KT 10SM BKN250 20/14 A2976 RMK AO2 SLP071 T02000139 $
2026-03-31 05:51:00,METAR KORD 310551Z 19011G22KT 10SM FEW050 SCT250 20/14 A2975 RMK AO2 SLP069 60002 T02000144 10261 20178 402720100 50001 $
2026-03-31 04:51:00,METAR KORD 310451Z 18014G23KT 10SM FEW050 SCT070 BKN090 OVC250 19/15 A2975 RMK AO2 PK WND 23033/0354 RAE07B31E46 TSE47 SLP072 OCNL LTGICCC DSNT E CB DSNT E MOV E P0001 T01940150 $
2026-03-31 03:51:00,METAR KORD 310351Z 21018G29KT 9SM -TSRA FEW050CB SCT075 BKN140 OVC250 21/16 A2976 RMK AO2 PK WND 19037/0304 RAB43 TSB02 SLP074 CONS LTGICCCCG SW TS SW MOV E P0001 T02110156 $
2026-03-31 03:03:00,SPECI KORD 310303Z 21019G33KT 10SM TS FEW050CB BKN075 BKN140 OVC250 23/14 A2976 RMK AO2 PK WND 22033/0301 TSB02 CONS LTGICCCCG SW-NW TS SW-NW MOV E T02330144 $
2026-03-31 02:51:00,METAR KORD 310251Z 20018G28KT 10SM SCT075 BKN140 OVC250 23/14 A2974 RMK AO2 PK WND 19030/0240 PRESFR SLP068 CONS LTGICCG DSNT SW-NW CB DSNT SW-NW MOV E T02330144 53010
2026-03-31 01:51:00,METAR KORD 310151Z 20013G24KT 10SM FEW120 SCT170 BKN250 24/13 A2972 RMK AO2 PK WND 20026/0123 SLP063 T02440128
2026-03-31 00:51:00,METAR KORD 310051Z 19015G28KT 10SM FEW170 BKN250 25/12 A2970 RMK AO2 PK WND 19028/0048 SLP054 T02500122
2026-03-30 23:51:00,METAR KORD 302351Z 21012G23KT 10SM FEW055 FEW150 BKN300 26/12 A2971 RMK AO2 PK WND 21030/2323 SLP059 T02610122 10272 20233 56016
2026-03-30 22:51:00,METAR KORD 302251Z 22018G27KT 10SM FEW060 BKN300 27/12 A2972 RMK AO2 PK WND 24029/2234 SLP061 T02670117
2026-03-30 21:51:00,METAR KORD 302151Z 21014G24KT 10SM FEW060 SCT300 27/12 A2974 RMK AO2 PK WND 21028/2130 SLP069 T02670117
2026-03-30 20:51:00,METAR KORD 302051Z 22013G27KT 10SM FEW055 SCT300 27/12 A2976 RMK AO2 PK WND 19027/1959 SLP076 T02670117 56031
2026-03-30 19:51:00,METAR KORD 301951Z 22016G25KT 10SM FEW055 BKN300 26/11 A2979 RMK AO2 PK WND 19026/1905 SLP087 T02560111
2026-03-30 18:51:00,METAR KORD 301851Z 21011G21KT 10SM FEW300 25/11 A2982 RMK AO2 SLP095 T02500111
2026-03-30 17:51:00,METAR KORD 301751Z 24011G19KT 10SM FEW080 FEW300 23/10 A2986 RMK AO2 SLP109 T02330100 10233 20122 58018
2026-03-30 16:51:00,METAR KORD 301651Z 22014G20KT 10SM FEW080 22/09 A2989 RMK AO2 SLP119 T02220094
2026-03-30 15:51:00,METAR KORD 301551Z 22015G20KT 10SM FEW250 20/08 A2989 RMK AO2 SLP120 T02000083
2026-03-30 14:51:00,METAR KORD 301451Z 20011G21KT 10SM SCT085 BKN250 17/07 A2991 RMK AO2 SLP129 T01720072 58007
2026-03-30 13:51:00,METAR KORD 301351Z 20006KT 10SM SCT070 BKN085 BKN250 14/06 A2993 RMK AO2 SLP133 T01440061
2026-03-30 12:51:00,METAR KORD 301251Z 21008KT 10SM OVC080 13/05 A2993 RMK AO2 SLP135 T01330050
2026-03-30 11:51:00,METAR KORD 301151Z 20006KT 10SM BKN070 BKN250 12/04 A2993 RMK AO2 SLP136 T01220044 10122 20100 56003
2026-03-30 10:51:00,METAR KORD 301051Z 21008KT 10SM FEW070 FEW250 12/03 A2994 RMK AO2 SLP136 T01170033 $
2026-03-30 09:51:00,METAR KORD 300951Z 21006KT 10SM FEW150 12/03 A2994 RMK AO2 SLP138 T01170028 $
2026-03-30 08:51:00,METAR KORD 300851Z 20006KT 10SM FEW150 11/02 A2994 RMK AO2 SLP139 T01110022 58013 $
2026-03-30 07:51:00,METAR KORD 300751Z 20005KT 10SM SCT150 10/01 A2996 RMK AO2 SLP145 T01000006 $
2026-03-30 06:51:00,METAR KORD 300651Z 00000KT 10SM CLR 11/00 A2998 RMK AO2 SLP151 T01060000 $
2026-03-30 05:51:00,METAR KORD 300551Z 19004KT 10SM CLR 11/00 A2998 RMK AO2 SLP153 T01110000 10161 20111 401720050 58017 $
2026-03-30 04:51:00,METAR KORD 300451Z 18006KT 10SM CLR 12/00 A3000 RMK AO2 SLP158 T01170000 $
2026-03-30 03:51:00,METAR KORD 300351Z 20005KT 10SM FEW055 13/M01 A3002 RMK AO2 SLP168 T01281006 $
2026-03-30 02:51:00,METAR KORD 300251Z 21005KT 10SM SCT050 BKN250 14/M01 A3003 RMK AO2 SLP170 T01391006 53003 $
2026-03-30 01:51:00,METAR KORD 300151Z 20008G16KT 10SM BKN043 BKN055 OVC250 15/M01 A3003 RMK AO2 SLP170 T01501011 $
2026-03-30 00:51:00,METAR KORD 300051Z 21012G18KT 10SM BKN048 BKN060 OVC250 16/M02 A3002 RMK AO2 SLP167 T01561022 $
2026-03-29 23:51:00,METAR KORD 292351Z 21011G17KT 10SM BKN045 BKN060 OVC250 16/M03 A3002 RMK AO2 SLP168 T01611028 10172 20161 55012 $
2026-03-29 22:51:00,METAR KORD 292251Z 21013G20KT 10SM SCT050 BKN065 OVC250 17/M03 A3002 RMK AO2 SLP166 T01671033 $
2026-03-29 21:51:00,METAR KORD 292151Z 20012G21KT 10SM BKN070 OVC250 17/M03 A3003 RMK AO2 SLP172 T01671033 $
2026-03-29 20:51:00,METAR KORD 292051Z 19012G20KT 10SM SCT065 BKN080 BKN250 17/M04 A3006 RMK AO2 SLP181 T01721039 56025 $
2026-03-29 19:51:00,METAR KORD 291951Z 22012G19KT 10SM OVC070 17/M05 A3009 RMK AO2 SLP190 T01671050 $
2026-03-29 18:51:00,METAR KORD 291851Z 23013G23KT 10SM BKN080 BKN200 BKN250 17/M06 A3011 RMK AO2 SLP196 T01671061 $
2026-03-29 17:51:00,METAR KORD 291751Z 19013G20KT 10SM BKN090 BKN200 BKN250 16/M04 A3014 RMK AO2 SLP207 T01561044 10156 20050 58020 $
2026-03-29 16:51:00,METAR KORD 291651Z 20014G19KT 10SM BKN100 BKN250 14/M04 A3016 RMK AO2 SLP215 T01441039 $
2026-03-29 14:51:00,METAR KORD 291451Z 22011G21KT 10SM BKN110 BKN250 10/M03 A3020 RMK AO2 SLP229 T01001033 58009 $
2026-03-29 13:51:00,METAR KORD 291351Z 21013KT 10SM BKN110 BKN250 08/M03 A3021 RMK AO2 SLP235 T00781033 $
2026-03-29 12:51:00,METAR KORD 291251Z 19010KT 10SM BKN110 BKN250 06/M03 A3022 RMK AO2 SLP236 T00611028 $
2026-03-29 11:51:00,METAR KORD 291151Z 19008KT 10SM BKN110 BKN200 BKN250 06/M02 A3023 RMK AO2 SLP239 T00561022 10067 20050 56010 $
2026-03-29 10:51:00,METAR KORD 291051Z 20008KT 10SM FEW120 SCT210 BKN250 05/M02 A3023 RMK AO2 SLP242 T00501022 $
2026-03-29 09:51:00,METAR KORD 290951Z 21006KT 10SM FEW120 BKN210 BKN250 05/M02 A3024 RMK AO2 SLP244 T00501017 $
2026-03-29 08:51:00,METAR KORD 290851Z 21006KT 10SM SCT110 SCT220 BKN250 05/M02 A3026 RMK AO2 SLP250 T00501017 58012
2026-03-29 07:51:00,METAR KORD 290751Z 21005KT 10SM FEW110 BKN230 OVC250 06/M02 A3028 RMK AO2 SLP256 T00561017
2026-03-29 06:51:00,METAR KORD 290651Z 21006KT 10SM BKN200 OVC250 06/M02 A3028 RMK AO2 SLP259 T00611022
2026-03-29 05:51:00,METAR KORD 290551Z 21009KT 10SM FEW110 SCT200 OVC250 07/M02 A3029 RMK AO2 SLP262 T00671022 10089 20061 400891044 55004
2026-03-29 04:51:00,METAR KORD 290451Z 19011KT 10SM FEW110 BKN250 07/M03 A3029 RMK AO2 SLP261 T00671028
2026-03-29 03:51:00,METAR KORD 290351Z 20010KT 10SM FEW110 BKN250 07/M03 A3029 RMK AO2 SLP263 T00671028
2026-03-29 02:51:00,METAR KORD 290251Z 19010G19KT 10SM SCT100 BKN250 07/M03 A3030 RMK AO2 SLP268 T00721033 58013
2026-03-29 01:51:00,METAR KORD 290151Z 19009KT 10SM BKN100 BKN250 08/M04 A3033 RMK AO2 SLP275 T00781039
2026-03-29 00:51:00,METAR KORD 290051Z 21011G17KT 10SM BKN100 BKN250 08/M05 A3033 RMK AO2 SLP278 T00831050
2026-03-28 23:51:00,METAR KORD 282351Z 20011KT 10SM BKN110 BKN250 09/M06 A3034 RMK AO2 SLP282 T00891056 10089 20050 56029
2026-03-28 22:51:00,METAR KORD 282251Z 21012G20KT 10SM BKN120 BKN250 09/M06 A3037 RMK AO2 SLP289 T00891061
2026-03-28 21:51:00,METAR KORD 282151Z 22014G20KT 10SM BKN120 BKN250 08/M07 A3040 RMK AO2 SLP301 T00831072
2026-03-28 20:51:00,METAR KORD 282051Z 21012KT 10SM FEW120 FEW170 SCT250 08/M07 A3043 RMK AO2 SLP311 T00831072 58046
2026-03-28 19:51:00,METAR KORD 281951Z 21011G17KT 10SM FEW170 SCT250 07/M08 A3049 RMK AO2 SLP330 T00721078
2026-03-28 18:51:00,METAR KORD 281851Z 21011G18KT 170V240 10SM FEW180 SCT250 06/M09 A3052 RMK AO2 SLP342 T00611089
2026-03-28 17:51:00,METAR KORD 281751Z COR 23006G17KT 10SM SCT170 BKN250 05/M10 A3057 RMK AO2 SLP359 T00501100 10050 21039 58024
2026-03-28 16:51:00,METAR KORD 281651Z 24008KT 10SM BKN170 BKN250 03/M11 A3060 RMK AO2 SLP369 T00331111
2026-03-28 15:51:00,METAR KORD 281551Z 22005KT 10SM FEW250 02/M11 A3062 RMK AO2 SLP375 T00171111
2026-03-28 14:51:00,METAR KORD 281451Z 18003KT 10SM FEW250 00/M11 A3064 RMK AO2 SLP383 T00001111 51010
2026-03-28 13:51:00,METAR KORD 281351Z 19003KT 10SM FEW025 FEW250 M01/M11 A3064 RMK AO2 SLP383 T10111111
2026-03-28 12:51:00,METAR KORD 281251Z 27004KT 10SM FEW025 FEW250 M02/M10 A3065 RMK AO2 SLP386 T10171100
2026-03-28 11:51:00,METAR KORD 281151Z 36006KT 10SM FEW025 FEW250 M03/M11 A3061 RMK AO2 SLP373 T10331111 11011 21044 53000
2026-03-28 10:51:00,METAR KORD 281051Z 36005KT 10SM CLR M03/M11 A3059 RMK AO2 SLP366 T10331111
2026-03-28 09:51:00,METAR KORD 280951Z 36006KT 10SM CLR M04/M11 A3061 RMK AO2 SLP372 T10391106
2026-03-28 08:51:00,METAR KORD 280851Z 34007KT 10SM CLR M02/M11 A3061 RMK AO2 SLP372 T10221106 53010
2026-03-28 07:51:00,METAR KORD 280751Z 35009KT 10SM CLR M02/M09 A3059 RMK AO2 SLP367 T10221094
2026-03-28 06:51:00,METAR KORD 280651Z 35006KT 10SM CLR M02/M07 A3058 RMK AO2 SLP364 T10171067
2026-03-28 05:51:00,METAR KORD 280551Z 35006KT 10SM CLR M01/M05 A3058 RMK AO2 SLP362 T10111050 10061 21011 400781011 52029
2026-03-28 04:51:00,METAR KORD 280451Z 03006KT 10SM FEW065 01/M04 A3054 RMK AO2 SLP350 T00061044
2026-03-28 03:51:00,METAR KORD 280351Z 02007KT 10SM SCT070 01/M04 A3052 RMK AO2 SLP343 T00111039
2026-03-28 02:51:00,METAR KORD 280251Z 03004KT 10SM BKN070 02/M04 A3049 RMK AO2 SLP332 T00221039 53028
2026-03-28 01:51:00,METAR KORD 280151Z 12003KT 10SM BKN075 02/M04 A3046 RMK AO2 SLP323 T00221039
2026-03-28 00:51:00,METAR KORD 280051Z 10006KT 10SM BKN080 03/M04 A3043 RMK AO2 SLP310 T00281044
2026-03-27 23:51:00,METAR KORD 272351Z 32012G18KT 10SM BKN075 06/M09 A3040 RMK AO2 SLP302 T00611089 10078 20044 53008
2026-03-27 22:51:00,METAR KORD 272251Z 34014G21KT 10SM BKN065 07/M08 A3038 RMK AO2 SLP295 T00671083
2026-03-27 21:51:00,METAR KORD 272151Z 33013G20KT 10SM BKN060 07/M08 A3038 RMK AO2 PK WND 31030/2140 SLP292 T00671083
2026-03-27 20:51:00,METAR KORD 272051Z 32014G21KT 10SM BKN055 07/M07 A3038 RMK AO2 SLP293 T00671072 58003
2026-03-27 19:51:00,METAR KORD 271951Z 30011G22KT 10SM BKN050 07/M07 A3038 RMK AO2 SLP295 T00671067
2026-03-27 18:51:00,METAR KORD 271851Z 31014G19KT 10SM FEW046 06/M06 A3039 RMK AO2 SLP297 T00561061
2026-03-27 17:51:00,METAR KORD 271751Z 33011G20KT 10SM FEW036 05/M07 A3039 RMK AO2 SLP296 T00501067 10050 21006 58004
2026-03-27 16:51:00,METAR KORD 271651Z 34008KT 10SM FEW032 03/M06 A3040 RMK AO2 SLP300 T00331061
2026-03-27 15:51:00,METAR KORD 271551Z 35012G17KT 10SM SCT028 02/M06 A3041 RMK AO2 SLP306 T00171056
2026-03-25 14:51:00,METAR KORD 251451Z 21010KT 10SM FEW070 BKN220 12/M03 A3002 RMK AO2 SLP167 T01171028 56021
2026-03-25 13:51:00,METAR KORD 251351Z 19008G17KT 10SM FEW150 OVC220 09/M02 A3003 RMK AO2 SLP174 T00891022
2026-03-25 12:51:00,METAR KORD 251251Z 18010KT 10SM FEW070 FEW150 BKN250 07/M02 A3006 RMK AO2 SLP182 T00721022
2026-03-25 11:51:00,METAR KORD 251151Z 18007KT 10SM FEW070 SCT150 BKN250 06/M03 A3008 RMK AO2 SLP189 T00611028 10067 20056 58014
2026-03-25 10:51:00,METAR KORD 251051Z 16007KT 10SM FEW070 BKN160 OVC250 06/M03 A3009 RMK AO2 SLP190 T00611033
2026-03-25 09:51:00,METAR KORD 250951Z 16005KT 10SM BKN160 BKN250 06/M03 A3012 RMK AO2 SLP203 T00611033
2026-03-25 08:51:00,METAR KORD 250851Z 16005KT 10SM OVC160 06/M04 A3012 RMK AO2 SLP203 T00611039 56021
2026-03-25 07:51:00,METAR KORD 250751Z 16006KT 10SM OVC130 06/M04 A3014 RMK AO2 SLP211 T00611039
2026-03-25 06:51:00,METAR KORD 250651Z 14006KT 10SM BKN130 BKN250 06/M03 A3016 RMK AO2 SLP217 T00611033
2026-03-25 05:51:00,METAR KORD 250551Z 11003KT 10SM BKN130 BKN250 06/M03 A3018 RMK AO2 SLP225 T00611033 10100 20044 401111011 56013
2026-03-25 04:51:00,METAR KORD 250451Z 14005KT 10SM BKN140 BKN250 06/M04 A3018 RMK AO2 SLP225 T00611039
2026-03-25 03:51:00,METAR KORD 250351Z 11005KT 10SM SCT140 SCT250 05/M04 A3020 RMK AO2 SLP233 T00501039
2026-03-25 02:51:00,METAR KORD 250251Z 10004KT 10SM BKN140 BKN250 05/M04 A3022 RMK AO2 SLP240 T00501044 55002
2026-03-25 01:51:00,METAR KORD 250151Z 10007KT 10SM SCT180 SCT250 05/M04 A3022 RMK AO2 SLP238 T00501044
2026-03-25 00:51:00,METAR KORD 250051Z 09007KT 10SM BKN160 BKN250 07/M04 A3022 RMK AO2 SLP240 T00721044
2026-03-24 23:51:00,METAR KORD 242351Z 16003KT 10SM SCT160 BKN250 10/M09 A3023 RMK AO2 SLP241 T01001094 10111 20072 55007
2026-03-24 22:51:00,METAR KORD 242251Z 18005KT 10SM CLR 11/M09 A3022 RMK AO2 SLP240 T01061094
2026-03-24 21:51:00,METAR KORD 242151Z 18003KT 10SM SCT170 BKN200 BKN250 11/M09 A3023 RMK AO2 SLP243 T01061089
2026-03-24 20:51:00,METAR KORD 242051Z 20007KT 10SM FEW080 SCT150 OVC250 09/M09 A3025 RMK AO2 SLP248 T00941089 56025
2026-03-24 19:51:00,METAR KORD 241951Z 18009KT 10SM SCT085 OVC250 08/M09 A3027 RMK AO2 SLP255 T00831094
2026-03-24 18:51:00,METAR KORD 241851Z 22007KT 10SM BKN090 OVC250 08/M09 A3030 RMK AO2 SLP265 T00831094
2026-03-24 17:51:00,METAR KORD 241751Z 21009KT 10SM BKN090 OVC250 07/M09 A3032 RMK AO2 SLP274 T00721094 10072 21011 58017
2026-03-24 16:51:00,METAR KORD 241651Z 18010KT 10SM SCT095 BKN130 OVC250 06/M08 A3033 RMK AO2 SLP278 T00611078
2026-03-24 15:51:00,METAR KORD 241551Z 19007KT 10SM BKN100 BKN140 BKN250 04/M08 A3036 RMK AO2 SLP289 T00441083
2026-03-24 14:51:00,METAR KORD 241451Z 18009KT 10SM FEW110 BKN130 OVC250 03/M08 A3037 RMK AO2 SLP292 T00281078 52002
2026-03-24 13:51:00,METAR KORD 241351Z 19012KT 10SM BKN130 BKN250 01/M08 A3037 RMK AO2 SLP292 T00111078
2026-03-24 12:51:00,METAR KORD 241251Z 19008KT 10SM BKN120 BKN250 00/M08 A3037 RMK AO2 SLP290 T00001083
2026-03-24 11:51:00,METAR KORD 241151Z 20005KT 10SM FEW110 BKN140 BKN250 M01/M09 A3037 RMK AO2 SLP290 T10111094 10000 21011 55001
2026-03-24 10:51:00,METAR KORD 241051Z 18007KT 10SM BKN140 M01/M10 A3036 RMK AO2 SLP290 T10111100
2026-03-24 09:51:00,METAR KORD 240951Z 19007KT 10SM BKN110 M01/M11 A3036 RMK AO2 SLP287 T10061106
2026-03-24 08:51:00,METAR KORD 240851Z 19006KT 10SM BKN110 M01/M11 A3037 RMK AO2 SLP291 T10061106 58014
2026-03-24 07:51:00,METAR KORD 240751Z 17006KT 10SM BKN110 M01/M08 A3040 RMK AO2 SLP301 T10061083
2026-03-24 06:51:00,METAR KORD 240651Z 00000KT 10SM BKN150 00/M07 A3042 RMK AO2 SLP308 T00001067
2026-03-24 05:51:00,METAR KORD 240551Z 16005KT 10SM FEW130 FEW250 M01/M07 A3041 RMK AO2 SLP305 T10061072 10017 21011 400611022 55006
2026-03-24 04:51:00,METAR KORD 240451Z 15005KT 10SM FEW250 M01/M07 A3041 RMK AO2 SLP304 T10061067
2026-03-24 03:51:00,METAR KORD 240351Z 15006KT 10SM FEW250 M01/M07 A3041 RMK AO2 SLP306 T10061072
2026-03-24 02:51:00,METAR KORD 240251Z 14007KT 10SM CLR M01/M07 A3043 RMK AO2 SLP311 T10061072 58001
2026-03-24 01:51:00,METAR KORD 240151Z 11008KT 10SM FEW250 00/M07 A3044 RMK AO2 SLP316 T00001072
2026-03-24 00:51:00,METAR KORD 240051Z 10009KT 10SM FEW250 01/M08 A3043 RMK AO2 SLP314 T00061083
2026-03-23 23:51:00,METAR KORD 232351Z 10010KT 10SM FEW250 02/M08 A3043 RMK AO2 SLP312 T00171083 10061 20017 53006
2026-03-23 22:51:00,METAR KORD 232251Z 09010KT 10SM FEW250 03/M09 A3042 RMK AO2 SLP310 T00331089
2026-03-23 21:51:00,METAR KORD 232151Z 08012G18KT 10SM FEW250 04/M09 A3041 RMK AO2 SLP306 T00441094
2026-03-23 20:51:00,METAR KORD 232051Z 04005KT 10SM FEW250 05/M09 A3041 RMK AO2 SLP306 T00501094 58004
2026-03-23 19:51:00,METAR KORD 231951Z 03006KT 10SM FEW250 05/M09 A3042 RMK AO2 SLP308 T00501089
2026-03-23 18:51:00,METAR KORD 231851Z 06008KT 10SM FEW050 FEW250 04/M09 A3043 RMK AO2 SLP312 T00441094
2026-03-23 17:51:00,METAR KORD 231751Z 02009G17KT 10SM FEW045 FEW250 04/M11 A3043 RMK AO2 PK WND 36030/1731 SLP310 T00391111 10044 21011 51015
2026-03-23 16:51:00,METAR KORD 231651Z 02015G22KT 10SM FEW040 FEW250 03/M11 A3041 RMK AO2 SLP306 T00331111
2026-03-23 15:51:00,METAR KORD 231551Z 36016G20KT 10SM FEW038 02/M09 A3040 RMK AO2 SLP302 T00221094
2026-03-23 14:51:00,METAR KORD 231451Z 36019G26KT 10SM SCT038 02/M09 A3038 RMK AO2 PK WND 35026/1442 SLP295 T00171089 52026
2026-03-23 13:51:00,METAR KORD 231351Z 34015G21KT 10SM FEW032 01/M08 A3035 RMK AO2 SLP286 T00061083
2026-03-23 12:51:00,METAR KORD 231251Z 34012KT 10SM FEW030 M01/M07 A3033 RMK AO2 SLP277 T10061072
2026-03-23 12:11:00,SPECI KORD 231211Z 35008KT 10SM SCT029 M01/M06 A3031 RMK AO2 T10111061
2026-03-23 11:51:00,METAR KORD 231151Z 36006KT 10SM BKN027 M01/M06 A3030 RMK AO2 SLP269 T10111061 11006 21022 53023
2026-03-23 10:51:00,METAR KORD 231051Z 35010KT 10SM OVC028 M01/M06 A3028 RMK AO2 SLP262 T10111061
2026-03-23 09:51:00,METAR KORD 230951Z 36008KT 10SM OVC029 M02/M06 A3025 RMK AO2 SLP252 T10171056
2026-03-23 09:35:00,SPECI KORD 230935Z 35009KT 10SM OVC029 M02/M06 A3024 RMK AO2 T10171056
2026-03-23 08:51:00,METAR KORD 230851Z 35009KT 10SM FEW020 BKN032 M02/M05 A3023 RMK AO2 SLP245 T10171050 51024
2026-03-23 07:51:00,METAR KORD 230751Z 35010KT 10SM FEW020 FEW033 M02/M06 A3021 RMK AO2 SLP236 T10171056
2026-03-23 06:51:00,METAR KORD 230651Z 01011KT 10SM FEW020 M01/M05 A3019 RMK AO2 SLP229 T10111050
2026-03-23 05:51:00,METAR KORD 230551Z 01012KT 10SM FEW020 M01/M05 A3016 RMK AO2 SLP220 T10061050 10011 21006 402061006 53033
2026-03-23 04:51:00,METAR KORD 230451Z 01015KT 10SM FEW021 00/M05 A3012 RMK AO2 PK WND 01026/0417 SLP206 T00001050
2026-03-23 03:51:00,METAR KORD 230351Z 01015KT 10SM FEW023 00/M05 A3009 RMK AO2 PK WND 01028/0300 SLP197 T00001050
2026-03-23 02:51:00,METAR KORD 230251Z 36018G26KT 10SM FEW023 00/M04 A3006 RMK AO2 PK WND 36029/0235 SLP185 T00001044 53012
2026-03-23 01:51:00,METAR KORD 230151Z 36019KT 10SM SCT022 BKN110 01/M04 A3004 RMK AO2 PK WND 01029/0138 SLP179 T00061044
2026-03-23 00:51:00,METAR KORD 230051Z 36019KT 10SM SCT020 BKN120 01/M04 A3002 RMK AO2 PK WND 36031/0005 SLP172 T00111039
2026-03-22 23:51:00,METAR KORD 222351Z 02020G29KT 10SM BKN017 BKN075 BKN110 01/M03 A2998 RMK AO2 PK WND 02036/2337 RAE02 SLP157 P0000 60000 T00111033 10033 20011 53018
2026-03-22 22:51:00,METAR KORD 222251Z 03025G38KT 10SM -RA BKN018 BKN070 OVC090 01/M03 A2994 RMK AO2 PK WND 02038/2242 RAB48 SLP143 P0000 T00111028
2026-03-22 21:51:00,METAR KORD 222151Z 02021KT 10SM BKN017 BKN022 OVC090 02/M03 A2996 RMK AO2 PK WND 02034/2053 RAE42 SLP148 P0000 T00171028
2026-03-22 21:26:00,SPECI KORD 222126Z 01021G31KT 10SM -RA BKN017 OVC032 02/M02 A2997 RMK AO2 PK WND 02034/2053 P0000 T00171017
2026-03-22 20:51:00,METAR KORD 222051Z 02023G36KT 10SM -RA BKN015 BKN032 OVC080 02/M01 A2993 RMK AO2 PK WND 01036/2045 SLP136 RAB1954 P0000 60000 T00171011 51026
2026-03-22 19:51:00,METAR KORD 221951Z 02018G33KT 10SM BKN015 OVC021 03/M02 A2990 RMK AO2 PK WND 03039/1939 SLP126 T00281017
2026-03-22 18:51:00,METAR KORD 221851Z 01029G37KT 10SM BKN017 BKN022 OVC140 03/M02 A2989 RMK AO2 PK WND 02040/1839 SLP122 T00331017
2026-03-22 18:31:00,SPECI KORD 221831Z 02029G38KT 10SM BKN016 BKN022 OVC140 03/M02 A2985 RMK AO2 PK WND 02038/1821 T00331017
2026-03-22 17:51:00,METAR KORD 221751Z 03026G35KT 10SM OVC014 03/M01 A2985 RMK AO2 PK WND 01036/1738 SLP108 T00331011 10078 20028 51024
2026-03-22 16:51:00,METAR KORD 221651Z 02023G32KT 10SM BKN013 OVC150 04/00 A2983 RMK AO2 PK WND 04034/1631 SLP100 T00440000
2026-03-22 16:39:00,SPECI KORD 221639Z 03025G34KT 10SM BKN013 OVC150 04/00 A2983 RMK AO2 PK WND 04034/1631 T00440000
2026-03-22 16:24:00,SPECI KORD 221624Z 02021G30KT 10SM SCT013 BKN160 OVC250 05/01 A2980 RMK AO2 PK WND 03030/1622 T00500006
2026-03-22 15:51:00,METAR KORD 221551Z 02022G31KT 10SM BKN013 BKN200 BKN250 04/01 A2981 RMK AO2 PK WND 02031/1542 SLP095 T00440006
2026-03-22 14:51:00,METAR KORD 221451Z 02018G29KT 10SM BKN014 BKN200 BKN250 05/01 A2978 RMK AO2 PK WND 03033/1434 SLP083 T00500011 53025
2026-03-22 14:38:00,SPECI KORD 221438Z 02022G33KT 10SM BKN014 BKN200 BKN250 05/01 A2975 RMK AO2 PK WND 03033/1434 T00500006
2026-03-22 13:51:00,METAR KORD 221351Z 04018KT 10SM FEW150 BKN190 BKN250 06/01 A2971 RMK AO2 PK WND 02035/1303 SLP061 T00560011
2026-03-22 12:51:00,METAR KORD 221251Z 02017G26KT 10SM FEW120 BKN170 BKN250 06/01 A2975 RMK AO2 PK WND 02037/1157 SLP073 T00610011
2026-03-22 11:51:00,METAR KORD 221151Z 02020G31KT 10SM FEW150 BKN190 BKN250 08/03 A2970 RMK AO2 PK WND 02035/1137 SLP057 T00780028 10206 20078 53058
2026-03-22 10:51:00,METAR KORD 221051Z 02016KT 10SM FEW150 SCT200 BKN250 10/04 A2962 RMK AO2 PK WND 03026/1008 SLP029 T01000039
2026-03-22 09:51:00,METAR KORD 220951Z VRB06KT 10SM BKN150 BKN200 17/10 A2957 RMK AO2 SLP010 T01720100
2026-03-22 08:51:00,METAR KORD 220851Z 22012G18KT 10SM OVC150 20/11 A2953 RMK AO2 SLP995 T02000106 58017
2026-03-22 07:51:00,METAR KORD 220751Z 22015G21KT 10SM FEW170 BKN190 20/09 A2955 RMK AO2 SLP002 T02000094
2026-03-22 06:51:00,METAR KORD 220651Z 22013G23KT 10SM SCT180 20/09 A2956 RMK AO2 SLP006 T02000089
2026-03-22 05:51:00,METAR KORD 220551Z 21014G24KT 10SM FEW150 FEW250 21/08 A2958 RMK AO2 SLP012 T02060083 10239 20206 402500050 58014
2026-03-22 04:51:00,METAR KORD 220451Z 21013G22KT 10SM SCT250 21/07 A2960 RMK AO2 SLP019 T02110072
2026-03-22 03:51:00,METAR KORD 220351Z 20009G17KT 10SM SCT250 BKN300 22/07 A2961 RMK AO2 SLP024 T02170067
2026-03-22 02:51:00,METAR KORD 220251Z 21012G18KT 10SM BKN250 22/07 A2962 RMK AO2 SLP027 T02220067 58012
2026-03-22 01:51:00,METAR KORD 220151Z 21010KT 10SM BKN250 22/07 A2963 RMK AO2 SLP033 T02220072
2026-03-22 00:51:00,METAR KORD 220051Z 21009KT 10SM FEW200 BKN250 23/07 A2965 RMK AO2 SLP038 T02280072
2026-03-21 23:51:00,METAR KORD 212351Z 22010KT 10SM FEW200 BKN250 24/07 A2965 RMK AO2 SLP040 T02390072 10250 20172 56021
2026-03-21 22:51:00,METAR KORD 212251Z 21012G23KT 10SM BKN250 25/07 A2966 RMK AO2 SLP043 T02500072
2026-03-21 21:51:00,METAR KORD 212151Z 20010KT 10SM BKN250 23/07 A2968 RMK AO2 SLP051 T02330067
2026-03-21 20:51:00,METAR KORD 212051Z 20015G23KT 10SM FEW100 BKN250 22/06 A2972 RMK AO2 SLP061 T02170056 56046
2026-03-21 19:51:00,METAR KORD 211951Z 19010KT 10SM FEW100 SCT250 21/06 A2975 RMK AO2 SLP075 T02110056
2026-03-21 18:51:00,METAR KORD 211851Z 20011G17KT 10SM FEW110 FEW250 19/04 A2981 RMK AO2 SLP093 T01890039
2026-03-21 17:51:00,METAR KORD 211751Z 19010KT 10SM FEW110 FEW250 17/05 A2985 RMK AO2 SLP111 T01670050 10167 20067 58022
2026-03-21 16:51:00,METAR KORD 211651Z 17010KT 9SM FEW110 SCT250 15/07 A2988 RMK AO2 SLP119 T01500067
2026-03-21 15:51:00,METAR KORD 211551Z 18006KT 8SM BKN100 OVC250 13/06 A2991 RMK AO2 SLP129 T01280056
2026-03-21 14:51:00,METAR KORD 211451Z 16005KT 9SM BKN120 BKN250 12/05 A2992 RMK AO2 SLP134 T01170050 58000
2026-03-21 13:51:00,METAR KORD 211351Z 14006KT 8SM BKN140 BKN250 09/04 A2992 RMK AO2 SLP135 T00940039
2026-03-21 12:51:00,METAR KORD 211251Z 09004KT 9SM BKN130 BKN250 07/03 A2993 RMK AO2 SLP137 T00720028
2026-03-21 11:51:00,METAR KORD 211151Z 10004KT 10SM BKN130 OVC250 07/03 A2992 RMK AO2 SLP135 T00670028 10078 20050 56007
2026-03-21 10:51:00,METAR KORD 211051Z 10003KT 10SM BKN150 OVC250 06/02 A2992 RMK AO2 SLP135 T00610022
2026-03-21 09:51:00,METAR KORD 210951Z 10004KT 10SM SCT150 BKN180 OVC250 07/02 A2993 RMK AO2 SLP136 T00670022
2026-03-21 08:51:00,METAR KORD 210851Z 03003KT 10SM SCT170 BKN220 OVC250 08/02 A2994 RMK AO2 SLP140 T00780022 55004
2026-03-21 07:51:00,METAR KORD 210751Z 00000KT 10SM BKN220 OVC250 06/02 A2994 RMK AO2 SLP138 T00610022
2026-03-21 06:51:00,METAR KORD 210651Z 00000KT 10SM SCT180 OVC220 06/02 A2994 RMK AO2 SLP140 T00610022
2026-03-21 05:51:00,METAR KORD 210551Z 00000KT 10SM SCT180 OVC210 06/02 A2995 RMK AO2 SLP144 T00610017 10089 20056 402220044 50003
2026-03-21 04:51:00,METAR KORD 210451Z 11003KT 10SM SCT200 OVC250 06/02 A2996 RMK AO2 SLP145 T00610017
2026-03-21 03:51:00,METAR KORD 210351Z 03004KT 10SM BKN200 OVC250 07/02 A2995 RMK AO2 SLP143 T00670022
2026-03-21 02:51:00,METAR KORD 210251Z 01004KT 10SM OVC210 07/02 A2995 RMK AO2 SLP142 T00720022 51015
2026-03-21 01:51:00,METAR KORD 210151Z 02007KT 10SM OVC240 07/02 A2994 RMK AO2 SLP141 T00720022
2026-03-21 00:51:00,METAR KORD 210051Z 03011KT 10SM OVC250 08/03 A2993 RMK AO2 SLP137 T00780028
2026-03-20 23:51:00,METAR KORD 202351Z 04009KT 10SM OVC250 09/03 A2990 RMK AO2 SLP126 T00890033 10222 20089 51026
2026-03-20 22:51:00,METAR KORD 202251Z 03012KT 10SM OVC250 11/04 A2988 RMK AO2 SLP120 T01060039
2026-03-20 21:51:00,METAR KORD 202151Z 04011KT 10SM OVC250 13/04 A2985 RMK AO2 SLP108 T01280044
2026-03-20 20:51:00,METAR KORD 202051Z 03016KT 10SM BKN250 14/06 A2982 RMK AO2 WSHFT 1941 SLP099 T01390056 53021
2026-03-20 20:01:00,SPECI KORD 202001Z 04014G22KT 10SM BKN250 17/07 A2979 RMK AO2 WSHFT 1941 T01720072
2026-03-20 19:51:00,METAR KORD 201951Z 04016G23KT 10SM BKN250 18/07 A2978 RMK AO2 WSHFT 1937 SLP085 T01830072
2026-03-20 18:51:00,METAR KORD 201851Z 31009G17KT 10SM BKN250 22/08 A2977 RMK AO2 SLP081 T02170078
2026-03-20 17:51:00,METAR KORD 201751Z 28007KT 10SM BKN250 21/07 A2976 RMK AO2 SLP076 T02060072 10206 20106 58002
2026-03-20 16:51:00,METAR KORD 201651Z 29008KT 10SM FEW200 BKN250 18/07 A2977 RMK AO2 SLP082 T01830067
2026-03-20 15:51:00,METAR KORD 201551Z 26009KT 10SM SCT200 BKN250 17/07 A2977 RMK AO2 SLP083 T01670067
2026-03-20 14:51:00,METAR KORD 201451Z 25012G19KT 10SM BKN200 BKN250 15/06 A2976 RMK AO2 SLP080 T01500061 55004
2026-03-20 13:51:00,METAR KORD 201351Z 23011KT 10SM FEW160 OVC250 12/06 A2976 RMK AO2 SLP080 T01220056
2026-03-20 12:51:00,METAR KORD 201251Z 23010G18KT 10SM SCT160 OVC250 11/05 A2977 RMK AO2 SLP082 T01110050
2026-03-20 11:51:00,METAR KORD 201151Z 23011KT 10SM FEW140 BKN170 OVC250 11/05 A2978 RMK AO2 SLP084 T01110050 10111 20044 56017
2026-03-20 10:51:00,METAR KORD 201051Z 23010KT 10SM BKN200 OVC250 11/05 A2979 RMK AO2 SLP088 T01060050 $
2026-03-20 09:51:00,METAR KORD 200951Z 22009KT 10SM OVC180 09/04 A2980 RMK AO2 SLP094 T00940044 $
2026-03-20 08:51:00,METAR KORD 200851Z 21007KT 10SM FEW150 SCT250 07/03 A2983 RMK AO2 SLP101 T00720033 56033 $
2026-03-20 07:51:00,METAR KORD 200751Z 22005KT 10SM FEW150 FEW250 07/02 A2986 RMK AO2 SLP111 T00720022 $
2026-03-20 06:51:00,METAR KORD 200651Z 22004KT 10SM FEW150 BKN250 04/01 A2989 RMK AO2 SLP124 T00440006 $
2026-03-20 05:51:00,METAR KORD 200551Z COR 00000KT 10SM BKN2560 05/01 A2993 RMK AO2 SLP135 T00500006 10083 20044 401670011 56025 $
2026-03-20 04:51:00,METAR KORD 200451Z 00000KT 10SM BKN250 05/01 A2995 RMK AO2 SLP143 T00500006 $
2026-03-20 03:51:00,METAR KORD 200351Z 00000KT 10SM BKN250 05/00 A2997 RMK AO2 SLP152 T00500000 $
2026-03-20 02:51:00,METAR KORD 200251Z 10004KT 10SM SCT250 06/M01 A3000 RMK AO2 SLP163 T00561006 58012 $
2026-03-20 01:51:00,METAR KORD 200151Z 07004KT 10SM FEW250 06/M01 A3002 RMK AO2 SLP170 T00561006 $
2026-03-20 00:51:00,METAR KORD 200051Z 07008KT 10SM FEW250 07/M01 A3004 RMK AO2 SLP175 T00671006 /
2026-03-19 23:51:00,METAR KORD 192351Z 07006KT 10SM FEW250 08/M01 A3004 RMK AO2 SLP175 T00831011 10167 20083 58004 $
2026-03-19 22:51:00,METAR KORD 192251Z 07007KT 10SM BKN250 10/M01 A3006 RMK AO2 SLP181 T01001006 $
2026-03-19 21:51:00,METAR KORD 192151Z 07008KT 10SM BKN250 12/01 A3006 RMK AO2 SLP182 T01170006 $
2026-03-19 20:51:00,METAR KORD 192051Z 08009KT 10SM BKN250 13/01 A3005 RMK AO2 SLP178 T01280011 56010 $
2026-03-19 19:51:00,METAR KORD 191951Z 06010KT 10SM BKN250 13/02 A3005 RMK AO2 SLP181 T01330017 $
2026-03-19 18:51:00,METAR KORD 191851Z 07004KT 10SM FEW250 17/03 A3007 RMK AO2 SLP183 T01670028 $
2026-03-19 17:51:00,METAR KORD 191751Z 07003KT 10SM FEW250 15/02 A3008 RMK AO2 SLP188 T01500022 10150 20022 58002 $
2026-03-19 16:51:00,METAR KORD 191651Z 12003KT 10SM FEW250 13/02 A3008 RMK AO2 SLP188 T01330017 $
2026-03-19 15:51:00,METAR KORD 191551Z 10003KT 10SM FEW180 FEW250 11/01 A3009 RMK AO2 SLP192 T01060006 $
2026-03-19 14:51:00,METAR KORD 191451Z 16004KT 10SM FEW070 SCT180 SCT250 08/01 A3008 RMK AO2 SLP191 T00830006 53013 $
2026-03-19 13:51:00,METAR KORD 191351Z 19005KT 10SM FEW060 FEW120 SCT250 06/00 A3007 RMK AO2 SLP187 T00560000 $
2026-03-19 12:51:00,METAR KORD 191251Z 16003KT 9SM FEW060 FEW110 SCT250 03/M01 A3005 RMK AO2 SLP183 T00281011 $
2026-03-19 11:51:00,METAR KORD 191151Z 21004KT 8SM FEW060 FEW100 SCT250 02/M01 A3005 RMK AO2 SLP179 T00221011 10028 20011 53003 $
2026-03-19 10:51:00,METAR KORD 191051Z 22006KT 9SM FEW070 SCT120 03/M01 A3003 RMK AO2 SLP175 T00281011 $
2026-03-19 09:51:00,METAR KORD 190951Z 15004KT 9SM BKN120 02/M02 A3002 RMK AO2 SLP171 T00221017 $
2026-03-19 08:51:00,METAR KORD 190851Z 00000KT 10SM SCT120 OVC250 01/M02 A3004 RMK AO2 SLP177 T00111017 56003 $
2026-03-19 07:51:00,METAR KORD 190751Z 00000KT 10SM SCT110 OVC250 02/M02 A3004 RMK AO2 SLP177 T00221017 $
2026-03-19 06:51:00,METAR KORD 190651Z 00000KT 10SM SCT120 BKN180 OVC250 03/M02 A3004 RMK AO2 SLP178 T00281017 $
2026-03-19 05:51:00,METAR KORD 190551Z 00000KT 10SM FEW120 BKN180 OVC250 03/M02 A3005 RMK AO2 SLP180 T00281017 10061 20022 400781050 55000 $
2026-03-19 04:51:00,METAR KORD 190451Z 00000KT 10SM BKN180 OVC250 03/M02 A3004 RMK AO2 SLP179 T00281017 $
2026-03-19 03:51:00,METAR KORD 190351Z 00000KT 10SM BKN180 OVC250 03/M02 A3004 RMK AO2 SLP179 T00331017 $
2026-03-19 02:51:00,METAR KORD 190251Z 33003KT 10SM BKN180 OVC250 03/M02 A3005 RMK AO2 SLP181 T00331022 51013 $
2026-03-19 01:51:00,METAR KORD 190151Z 31005KT 10SM BKN190 OVC250 04/M02 A3004 RMK AO2 SLP181 T00391017 $
2026-03-19 00:51:00,METAR KORD 190051Z 28005KT 10SM OVC240 05/M01 A3003 RMK AO2 SLP175 T00501011 $
2026-03-18 23:51:00,METAR KORD 182351Z 28005KT 10SM BKN250 06/M01 A3001 RMK AO2 SLP168 T00611011 10078 20028 53013 $
2026-03-18 22:51:00,METAR KORD 182251Z 25006KT 10SM FEW250 08/M01 A2997 RMK AO2 SLP156 T00781011 $
2026-03-18 21:51:00,METAR KORD 182151Z 21009KT 10SM CLR 08/M01 A2997 RMK AO2 SLP154 T00781011 $
2026-03-18 20:51:00,METAR KORD 182051Z 27006KT 10SM SCT039 07/M02 A2997 RMK AO2 SLP154 T00671017 55009 $
2026-03-18 19:51:00,METAR KORD 181951Z 21010KT 10SM BKN041 06/M03 A2996 RMK AO2 SLP152 T00561028 $
2026-03-18 18:51:00,METAR KORD 181851Z 22011KT 10SM FEW031 OVC043 04/M03 A2998 RMK AO2 SLP159 T00441033 $
2026-03-18 17:51:00,METAR KORD 181751Z 22013G20KT 10SM FEW031 FEW055 03/M04 A2999 RMK AO2 SLP164 60000 T00281044 10028 21044 58008 $
2026-03-18 16:51:00,METAR KORD 181651Z 19013KT 10SM FEW025 SCT055 01/M04 A3000 RMK AO2 SLP167 T00111044 $
2026-03-18 15:51:00,METAR KORD 181551Z 18012G21KT 10SM FEW032 OVC060 M01/M06 A3002 RMK AO2 SLP173 T10111061
2026-03-18 14:51:00,METAR KORD 181451Z 18010G19KT 10SM BKN033 OVC060 M03/M07 A3002 RMK AO2 SNE48 SLP174 P0000 60000 T10281067 58001
2026-03-18 14:11:00,SPECI KORD 181411Z 19009G18KT 5SM -SN SCT036 OVC060 M03/M07 A3002 RMK AO2 P0000 T10331067
2026-03-18 14:01:00,SPECI KORD 181401Z 18009G22KT 2 1/2SM -SN BKN038 OVC055 M03/M07 A3002 RMK AO2 P0000 T10331067
2026-03-18 13:51:00,METAR KORD 181351Z 18013G20KT 4SM -SN BKN043 OVC055 M03/M07 A3002 RMK AO2 SLP176 P0000 T10331072
2026-03-18 13:44:00,SPECI KORD 181344Z 18009G23KT 5SM -SN BKN045 OVC060 M03/M07 A3002 RMK AO2 P0000 T10331072
2026-03-18 13:26:00,SPECI KORD 181326Z 17011KT 4SM -SN SCT041 BKN050 OVC060 M03/M07 A3002 RMK AO2 P0000 T10331072
2026-03-18 12:51:00,METAR KORD 181251Z 17014G19KT 10SM -SN FEW015 BKN041 OVC060 M04/M07 A3002 RMK AO2 SNB18 SLP176 P0000 T10391072
2026-03-18 12:34:00,SPECI KORD 181234Z 17014G21KT 10SM -SN FEW015 OVC060 M04/M07 A3002 RMK AO2 SNB18 P0000 T10391072
2026-03-18 12:19:00,SPECI KORD 181219Z 17012G20KT 9SM -SN BKN015 BKN042 OVC065 M04/M07 A3003 RMK AO2 SNB18 P0000 T10391072
2026-03-18 12:05:00,SPECI KORD 181205Z 18012KT 10SM BKN015 OVC042 M04/M07 A3003 RMK AO2 T10441072
2026-03-18 11:51:00,METAR KORD 181151Z 18011G23KT 10SM OVC014 M04/M07 A3002 RMK AO2 SNE25 SLP176 P0000 60001 70001 T10441072 11044 21050 58006
2026-03-18 11:27:00,SPECI KORD 181127Z 17010G19KT 10SM BKN014 OVC045 M04/M07 A3002 RMK AO2 SNE25 P0000 T10441072 $
2026-03-18 11:15:00,SPECI KORD 181115Z 17011KT 6SM -SN SCT015 BKN031 OVC045 M04/M07 A3003 RMK AO2 P0000 T10441072 $
2026-03-18 11:06:00,SPECI KORD 181106Z 16011KT 4SM -SN SCT015 OVC045 M04/M07 A3003 RMK AO2 P0000 T10441072 $
2026-03-18 10:51:00,METAR KORD 181051Z 17009KT 7SM -SN BKN015 OVC039 M04/M07 A3003 RMK AO2 SLP179 P0000 T10441072 $
2026-03-18 09:51:00,METAR KORD 180951Z 18012G18KT 7SM -SN BKN015 BKN033 OVC042 M04/M07 A3004 RMK AO2 SLP182 P0000 T10441072 $
2026-03-18 09:47:00,SPECI KORD 180947Z 18010G18KT 7SM -SN BKN015 OVC033 M04/M07 A3004 RMK AO2 P0000 $
2026-03-18 09:28:00,SPECI KORD 180928Z 18012KT 7SM -SN SCT015 SCT037 OVC045 M04/M07 A3004 RMK AO2 P0000 T10441072 $
2026-03-18 08:51:00,METAR KORD 180851Z 18010KT 4SM -SN BR FEW015 BKN037 OVC060 M05/M07 A3006 RMK AO2 SLP187 P0000 60001 T10501072 58023 $
2026-03-18 08:28:00,SPECI KORD 180828Z 18010KT 4SM -SN FEW015 BKN037 OVC060 M05/M08 A3007 RMK AO2 P0000 T10501078 $
2026-03-18 07:51:00,METAR KORD 180751Z 18008KT 6SM -SN BR SCT013 BKN049 OVC070 M05/M07 A3008 RMK AO2 SLP196 P0001 T10501072 $
2026-03-18 07:41:00,SPECI KORD 180741Z 18008KT 6SM -SN BR SCT014 BKN039 OVC070 M05/M07 A3008 RMK AO2 P0001 T10501072 $
2026-03-18 07:01:00,SPECI KORD 180701Z 18006KT 4SM -SN BR FEW011 FEW016 OVC029 M05/M07 A3010 RMK AO2 P0000 T10501072 $
2026-03-18 06:51:00,METAR KORD 180651Z 18005KT 2SM -SN BR FEW016 OVC028 M05/M07 A3011 RMK AO2 SLP204 P0000 T10501072 $
2026-03-18 06:30:00,SPECI KORD 180630Z 18006KT 2SM R10L/3000VP6000FT -SN BR FEW015 OVC028 M05/M07 A3011 RMK AO2 P0000 T10501072 $
2026-03-18 05:58:00,SPECI KORD 180558Z 17008KT 3SM -SN OVC028 M05/M08 A3012 RMK AO2 P0000 T10501078 $
2026-03-18 05:51:00,METAR KORD 180551Z 17009KT 3SM -SN OVC030 M05/M08 A3013 RMK AO2 SNB21 SLP211 P0000 60000 T10501083 11044 21056 410441100 58011 $
2026-03-18 05:31:00,SPECI KORD 180531Z 17009G16KT 3SM -SN BKN038 OVC060 M04/M09 A3014 RMK AO2 SNB21 P0000 T10441094 $
2026-03-18 05:26:00,SPECI KORD 180526Z 20010G16KT 5SM -SN BKN038 OVC060 M04/M10 A3014 RMK AO2 SNB21 P0000 T10441100 $
2026-03-18 04:51:00,METAR KORD 180451Z 19007KT 10SM BKN060 OVC075 M04/M11 A3014 RMK AO2 SLP217 T10441111 $
2026-03-18 03:51:00,METAR KORD 180351Z 19009KT 10SM BKN070 OVC160 M05/M12 A3016 RMK AO2 SLP224 T10501122 $
2026-03-18 02:51:00,METAR KORD 180251Z 19005KT 10SM OVC095 M05/M13 A3016 RMK AO2 SLP224 T10501128 55004 $
2026-03-18 01:51:00,METAR KORD 180151Z 22006KT 10SM SCT095 BKN130 BKN200 OVC250 M06/M14 A3016 RMK AO2 SLP224 T10561139
2026-03-18 00:51:00,METAR KORD 180051Z 22010KT 10SM BKN110 OVC250 M06/M14 A3017 RMK AO2 SLP229 T10561144
2026-03-17 23:51:00,METAR KORD 172351Z 21009KT 10SM BKN120 OVC250 M06/M16 A3017 RMK AO2 SLP228 T10561156 11044 21061 53004
2026-03-17 22:51:00,METAR KORD 172251Z 20009KT 10SM OVC250 M06/M16 A3017 RMK AO2 SLP228 T10561156
2026-03-17 21:51:00,METAR KORD 172151Z 24005G15KT 10SM OVC250 M06/M16 A3015 RMK AO2 SLP221 T10561161
2026-03-17 20:51:00,METAR KORD 172051Z 24008KT 10SM OVC250 M06/M18 A3016 RMK AO2 SLP224 T10561178 58007
2026-03-17 19:51:00,METAR KORD 171951Z 29012G19KT 10SM FEW040 BKN250 M06/M18 A3018 RMK AO2 SLP230 T10561178
2026-03-17 18:51:00,METAR KORD 171851Z 25010KT 10SM FEW050 BKN250 M06/M17 A3018 RMK AO2 SLP232 T10561172
2026-03-17 17:51:00,METAR KORD 171751Z 32009KT 10SM FEW045 SCT250 M06/M16 A3018 RMK AO2 SLP231 T10561161 11056 21100 51012
2026-03-17 16:51:00,METAR KORD 171651Z 29009KT 10SM FEW040 M07/M17 A3017 RMK AO2 SLP227 T10671167
2026-03-17 15:51:00,METAR KORD 171551Z VRB04KT 10SM FEW034 M08/M17 A3016 RMK AO2 SLP224 T10781167
2026-03-17 14:51:00,METAR KORD 171451Z VRB05KT 10SM FEW030 M08/M16 A3014 RMK AO2 SLP219 T10831161 51024
2026-03-17 13:51:00,METAR KORD 171351Z 33009KT 10SM FEW030 M09/M16 A3012 RMK AO2 SLP211 T10941156
2026-03-17 12:51:00,METAR KORD 171251Z 30009KT 10SM FEW030 M10/M16 A3010 RMK AO2 SLP205 T11001156
2026-03-17 11:51:00,METAR KORD 171151Z 30008KT 10SM FEW030 M10/M17 A3007 RMK AO2 SLP193 4/001 T11001167 11078 21100 53021 $
2026-03-17 10:51:00,METAR KORD 171051Z 30009G17KT 10SM FEW065 M09/M17 A3005 RMK AO2 SLP187 T10941172 $
2026-03-17 09:51:00,METAR KORD 170951Z 31011G18KT 10SM BKN070 M09/M18 A3002 RMK AO2 SLP177 T10891178 $
2026-03-17 08:51:00,METAR KORD 170851Z 32013G20KT 10SM BKN065 M08/M18 A3001 RMK AO2 SLP172 T10831183 53018 $
2026-03-17 07:51:00,METAR KORD 170751Z 31010KT 10SM BKN060 M08/M18 A2999 RMK AO2 SLP165 T10831183 $
2026-03-17 06:51:00,METAR KORD 170651Z 33013G19KT 10SM SCT055 SCT080 M08/M18 A2996 RMK AO2 SLP157 T10831183 $
2026-03-17 05:51:00,METAR KORD 170551Z 32014G21KT 10SM BKN045 M08/M17 A2995 RMK AO2 SLP154 4/001 60000 T10781172 11039 21078 410111078 51019 $
2026-03-17 04:51:00,METAR KORD 170451Z 33015G21KT 10SM BKN037 M07/M16 A2994 RMK AO2 SNB0357E19 SLP148 P0000 T10721156 $
2026-03-17 04:19:00,SPECI KORD 170419Z 31012G19KT 10SM BKN037 M07/M13 A2993 RMK AO2 SNB0357E19 P0000 T10671133 $
2026-03-17 03:59:00,SPECI KORD 170359Z 32012G21KT 5SM -SN BKN037 M06/M13 A2992 RMK AO2 SNB57 P0000 T10611128 $
2026-03-17 03:51:00,METAR KORD 170351Z 31015G21KT 10SM BKN039 M06/M13 A2992 RMK AO2 SLP140 T10611133 $
2026-03-17 02:51:00,METAR KORD 170251Z 29014G21KT 10SM BKN042 M06/M13 A2990 RMK AO2 SLP133 T10611128 51030 $
2026-03-17 01:51:00,METAR KORD 170151Z 29011G23KT 10SM FEW034 BKN042 M06/M12 A2988 RMK AO2 PK WND 30034/0058 SLP128 T10561122 $
2026-03-17 00:51:00,METAR KORD 170051Z 29014G28KT 10SM SCT033 OVC042 M05/M12 A2984 RMK AO2 PK WND 30031/2352 SLP115 T10501122 $
2026-03-16 23:51:00,METAR KORD 162351Z COR 29018G30KT 10SM SCT029 BKN036 OVC045 M04/M11 A2981 RMK AO2 PK WND 30030/2318 SNE44 SLP103 P0000 60000 4/001 T10391106 11022 21039 53030 $
2026-03-16 23:45:00,SPECI KORD 162345Z 29014G27KT 10SM SCT029 BKN036 OVC045 M04/M11 A2980 RMK AO2 PK WND 30030/2318 SNE44 P0000 $
2026-03-16 22:51:00,METAR KORD 162251Z 30019G31KT 9SM -SN FEW028 BKN037 BKN045 M03/M10 A2977 RMK AO2 PK WND 30031/2250 SLP089 P0000 T10281100 $
2026-03-16 21:51:00,METAR KORD 162151Z 32019G30KT 9SM -SN SCT027 BKN034 BKN043 M02/M09 A2975 RMK AO2 PK WND 31032/2120 SLP081 P0000 T10221094 $
2026-03-16 20:51:00,METAR KORD 162051Z 31016G31KT 7SM -SN SCT028 BKN036 OVC044 M03/M08 A2972 RMK AO2 PK WND 31033/1953 SLP071 P0000 60000 T10281083 53028 $
2026-03-16 19:51:00,METAR KORD 161951Z 32024G33KT 8SM -SN SCT027 BKN035 OVC044 M03/M09 A2968 RMK AO2 PK WND 31033/1951 SLP058 P0000 T10281094 $
2026-03-16 19:31:00,SPECI KORD 161931Z 32020G33KT 6SM -SN BR SCT027 BKN033 OVC044 M03/M09 A2967 RMK AO2 PK WND 33033/1924 P0000 T10331094
2026-03-16 19:26:00,SPECI KORD 161926Z 32023G33KT 2 1/2SM -SN BR SCT027 BKN033 OVC044 M03/M09 A2967 RMK AO2 PK WND 33033/1924 P0000 T10331089
2026-03-16 19:21:00,SPECI KORD 161921Z 31019G29KT 6SM -SN BR SCT027 BKN033 OVC044 M03/M09 A2967 RMK AO2 PK WND 31030/1854 P0000 T10331094
2026-03-16 19:13:00,SPECI KORD 161913Z 32018G28KT 2 1/2SM -SN BR SCT027 BKN036 OVC047 M03/M09 A2967 RMK AO2 PK WND 31030/1854 P0000 T10331094
2026-03-16 18:51:00,METAR KORD 161851Z 33023G34KT 7SM -SN FEW029 BKN035 OVC048 M03/M11 A2965 RMK AO2 PK WND 32034/1845 SLP049 P0000 T10331106
2026-03-16 17:51:00,METAR KORD 161751Z 31021G34KT 7SM -SN BKN030 BKN041 OVC055 M03/M10 A2963 RMK AO2 PK WND 31038/1704 SLP042 DRSN 4/001 P0000 60000 T10331100 11033 21050 53023
2026-03-16 16:51:00,METAR KORD 161651Z 31017G28KT 6SM -SN BKN029 BKN042 OVC050 M03/M09 A2960 RMK AO2 PK WND 29034/1638 SLP033 DRSN P0000 T10331094
2026-03-16 16:11:00,SPECI KORD 161611Z 31019G27KT 5SM -SN BKN026 BKN036 OVC047 M03/M09 A2960 RMK AO2 PK WND 29033/1553 DRSN P0000 T10331089
2026-03-16 15:51:00,METAR KORD 161551Z 30017G29KT 4SM -SN FEW019 BKN026 OVC043 M04/M09 A2959 RMK AO2 PK WND 30030/1530 SLP027 DRSN P0000 T10391089
2026-03-16 15:44:00,SPECI KORD 161544Z 31021G29KT 3SM -SN FEW019 BKN025 OVC043 M04/M08 A2959 RMK AO2 PK WND 30030/1530 DRSN P0000 T10391083
2026-03-16 15:35:00,SPECI KORD 161535Z 31017G30KT 2SM -SN SCT017 BKN025 OVC044 M04/M08 A2958 RMK AO2 PK WND 30030/1530 DRSN P0000 T10391083
2026-03-16 15:18:00,SPECI KORD 161518Z 29016G26KT 1 1/2SM -SN BKN019 BKN026 OVC044 M04/M07 A2958 RMK AO2 PK WND 30027/1455 DRSN P0000 T10391072
2026-03-16 14:59:00,SPECI KORD 161459Z 29017G27KT 1 1/4SM R10L/6000VP6000FT -SN BKN021 BKN030 OVC038 M04/M08 A2956 RMK AO2 PK WND 30027/1455 DRSN P0000 T10391078
2026-03-16 14:51:00,METAR KORD 161451Z 29014G24KT 2 1/2SM -SN BKN023 BKN033 OVC047 M04/M08 A2956 RMK AO2 PK WND 30031/1414 SLP018 DRSN P0000 60000 T10391083 51045
2026-03-16 14:06:00,SPECI KORD 161406Z 31017G26KT 2 1/2SM -SN BKN022 BKN031 OVC044 M04/M08 A2954 RMK AO2 PK WND 29029/1354 DRSN P0000 T10441083
2026-03-16 13:51:00,METAR KORD 161351Z 30016G27KT 3SM -SN BKN024 BKN031 OVC055 M04/M08 A2953 RMK AO2 PK WND 30027/1329 SLP008 DRSN P0000 T10441083
2026-03-16 12:51:00,METAR KORD 161251Z 30014G29KT 4SM -SN BKN023 BKN046 OVC060 M05/M08 A2948 RMK AO2 PK WND 32034/1205 PRESRR SLP992 DRSN P0000 T10501083
2026-03-16 12:41:00,SPECI KORD 161241Z 30018G32KT 3SM -SN BLSN BKN023 BKN042 OVC055 M04/M08 A2947 RMK AO2 PK WND 32034/1205 PRESRR P0000 T10441083
2026-03-16 12:19:00,SPECI KORD 161219Z 31018G31KT 2SM -SN BLSN FEW012 BKN022 OVC044 M04/M08 A2945 RMK AO2 PK WND 32034/1205 P0000 T10441078
2026-03-16 12:06:00,SPECI KORD 161206Z 31020G34KT 1 1/4SM -SN BLSN FEW009 BKN015 OVC024 M04/M07 A2943 RMK AO2 PK WND 32034/1205 VIS 3/4V1 3/4 P0000 T10441072
2026-03-16 11:56:00,SPECI KORD 161156Z 30017G31KT 1/2SM R10L/4000VP6000FT SN BLSN VV010 M04/M06 A2943 RMK AO2 PK WND 30031/1153 P0000 T10441061 $
2026-03-16 11:51:00,METAR KORD 161151Z 30015G22KT 1SM R10L/6000VP6000FT -SN BLSN SCT011 BKN015 OVC024 M04/M06 A2943 RMK AO2 PK WND 33034/1109 SLP971 4/001 P0000 60007 70183 T10441061 11006 21044 53040 $
2026-03-16 11:37:00,SPECI KORD 161137Z 30015G22KT 1 1/2SM -SN BLSN BKN016 BKN021 OVC034 M04/M07 A2941 RMK AO2 PK WND 33034/1109 P0000 T10391067 $
2026-03-16 11:18:00,SPECI KORD 161118Z 32019G34KT 1SM R10L/P6000FT -SN BLSN BKN014 OVC023 M04/M07 A2940 RMK AO2 PK WND 33034/1109 PRESRR VIS 3/4V1 1/2 P0000 T10441067 $
2026-03-16 10:51:00,METAR KORD 161051Z 30015G22KT 1 1/4SM -SN BR SCT018 OVC023 M04/M06 A2937 RMK AO2 PK WND 30034/1022 SLP952 DRSN P0000 T10391061 $
2026-03-16 10:38:00,SPECI KORD 161038Z 31020G30KT 1 1/4SM -SN BR SCT018 OVC029 M04/M06 A2936 RMK AO2 PK WND 30034/1022 DRSN P0000 T10391061 $
2026-03-16 10:31:00,SPECI KORD 161031Z 31019G34KT 1 3/4SM -SN BR SCT016 OVC031 M03/M06 A2935 RMK AO2 PK WND 30034/1022 DRSN P0000 T10331061 $
2026-03-16 10:03:00,SPECI KORD 161003Z 31017G29KT 2SM -SN BR OVC026 M03/M06 A2933 RMK AO2 PK WND 33029/1000 P0000 T10331056 $
2026-03-16 09:51:00,METAR KORD 160951Z 31016G23KT 2SM -SN BR FEW012 OVC022 M03/M05 A2933 RMK AO2 PK WND 30027/0930 SLP937 P0001 T10331050 $
2026-03-16 09:41:00,SPECI KORD 160941Z 31015G25KT 2SM -SN BR FEW012 OVC022 M03/M05 A2934 RMK AO2 PK WND 30027/0930 P0001 T10331050 $
2026-03-16 08:51:00,METAR KORD 160851Z 30011G24KT 1 1/4SM -SN BR OVC019 M03/M04 A2931 RMK AO2 PK WND 30027/0819 SLP926 P0001 60006 T10281044 50020 $
2026-03-16 08:43:00,SPECI KORD 160843Z 30014G25KT 1 1/4SM -SN BR OVC019 M03/M04 A2931 RMK AO2 PK WND 30027/0819 P0001 T10281044 $
2026-03-16 08:33:00,SPECI KORD 160833Z 30017G25KT 1 1/4SM -SN BR OVC014 M03/M04 A2931 RMK AO2 PK WND 30027/0819 P0001 T10281039 $
2026-03-16 08:02:00,SPECI KORD 160802Z 28014G25KT 3/4SM R10L/P6000FT -SN BR VV010 M03/M03 A2932 RMK AO2 P0001 T10281033 $
2026-03-16 07:51:00,METAR KORD 160751Z 28018G27KT 3/4SM R10L/6000VP6000FT -SN BR VV009 M02/M03 A2931 RMK AO2 PK WND 26027/0750 SLP928 P0004 T10221033 $
2026-03-16 07:16:00,SPECI KORD 160716Z 27010G18KT 3/4SM R10L/4500VP6000FT -SN BR VV009 M02/M03 A2933 RMK AO2 P0001 T10171028 $
2026-03-16 07:05:00,SPECI KORD 160705Z 27007KT 1 1/4SM -SN BR OVC013 M01/M02 A2931 RMK AO2 P0001 T10111022 $
2026-03-16 06:51:00,METAR KORD 160651Z 27009KT 1 3/4SM -SN BR BKN013 OVC019 M01/M02 A2930 RMK AO2 PRESRR SLP924 P0001 T10111022 $
2026-03-16 06:40:00,SPECI KORD 160640Z 31010G20KT 1 1/2SM -SN BR FEW008 BKN013 OVC017 M01/M02 A2929 RMK AO2 P0000 T10111022 $
2026-03-16 06:17:00,SPECI KORD 160617Z 32012G21KT 1 1/4SM -SN BR BKN013 OVC019 M01/M02 A2928 RMK AO2 P0000 T10111022 $
2026-03-16 06:07:00,SPECI KORD 160607Z 33011G25KT 1 1/2SM -SN BR BKN012 OVC019 M01/M02 A2925 RMK AO2 P0000 T10111022 $
2026-03-16 05:51:00,METAR KORD 160551Z 34017G25KT 2SM -SN BR FEW008 BKN012 OVC021 M01/M02 A2925 RMK AO2 SLP906 P0000 60060 T10061022 10033 21011 401721011 58013 $
2026-03-16 05:37:00,SPECI KORD 160537Z 35016G25KT 2SM -SN BR SCT008 BKN014 OVC026 M01/M02 A2922 RMK AO2 P0000 T10061017 $
2026-03-16 05:12:00,SPECI KORD 160512Z 35015G25KT 1 1/2SM -SN BR FEW008 BKN011 OVC018 M01/M02 A2924 RMK AO2 P0000 T10061017 $
2026-03-16 05:05:00,SPECI KORD 160505Z 34018G25KT 1 1/4SM -SN BR SCT008 OVC015 M01/M02 A2924 RMK AO2 PRESFR P0000 T10061017 $
2026-03-16 04:51:00,METAR KORD 160451Z 34017G25KT 1 1/2SM -SN BR SCT008 OVC013 M01/M02 A2927 RMK AO2 PK WND 36027/0352 SLP913 P0003 T10061017 $
2026-03-16 04:44:00,SPECI KORD 160444Z 34017G24KT 1 1/2SM -SN BR SCT008 OVC013 M01/M02 A2928 RMK AO2 PK WND 36027/0352 P0003 T10061017 $
2026-03-16 03:51:00,METAR KORD 160351Z 35020G25KT 1 1/2SM -SN BR OVC010 00/M01 A2928 RMK AO2 PK WND 35030/0324 RAE25PLB14E19SNB19 SLP919 P0000 T00001011 $
2026-03-16 03:26:00,SPECI KORD 160326Z 34018G30KT 1 1/2SM -SN BR OVC010 01/M01 A2929 RMK AO2 PK WND 35030/0324 RAE25PLB14E19SNB19 P0000 T00061011 $
2026-03-16 03:21:00,SPECI KORD 160321Z 33016G23KT 9SM -RASN OVC010 01/M01 A2929 RMK AO2 PLB14E19SNB19 P0000 T00061006 $
2026-03-16 02:51:00,METAR KORD 160251Z 35017G23KT 10SM -RA OVC010 01/M01 A2929 RMK AO2 PK WND 01032/0216 SLP919 P0011 60057 T00111006 56016 $
2026-03-16 02:21:00,SPECI KORD 160221Z 02023G32KT 5SM -RA BR BKN010 OVC015 01/M01 A2924 RMK AO2 PK WND 01032/0216 PRESFR P0008 T00111006 $
2026-03-16 01:51:00,METAR KORD 160151Z 36018KT 4SM RA BR BKN009 OVC028 01/00 A2929 RMK AO2 PK WND 36027/0145 TSE15 SLP922 P0028 T00110000 $
2026-03-16 01:16:00,SPECI KORD 160116Z 01018G23KT 4SM RA BR BKN009 OVC015 01/00 A2932 RMK AO2 LTG DSNT E AND S TSE15 P0013 T00110000 $
2026-03-16 00:51:00,METAR KORD 160051Z 35018KT 4SM TSRA BR BKN008 OVC013CB 02/00 A2932 RMK AO2 TSB29 SLP931 OCNL LTGICCG OHD TS OHD MOV NE P0018 T00170000 $
2026-03-16 00:30:00,SPECI KORD 160030Z 36015KT 4SM TSRA BR BKN008 OVC014CB 02/01 A2932 RMK AO2 TSB29 OCNL LTGIC OHD TS OHD MOV NE P0009 T00170006 $
2026-03-16 00:24:00,SPECI KORD 160024Z 01015KT 4SM RA BR BKN008 OVC014 02/01 A2932 RMK AO2 LTG DSNT E-S P0007 T00220006 $
2026-03-16 00:02:00,SPECI KORD 160002Z 36017G25KT 5SM -RA BR OVC008 02/01 A2932 RMK AO2 LTG DSNT ALQDS P0003 T00220006 $
2026-03-15 23:51:00,METAR KORD 152351Z 01018G28KT 3SM RA BR BKN007 OVC011 03/02 A2933 RMK AO2 PK WND 01028/2350 WSHFT 2247 TSE32 SLP937 P0029 60104 T00330017 10172 20022 50012 $
2026-03-15 23:32:00,SPECI KORD 152332Z 02015G19KT 2 1/2SM RA BR BKN006 OVC011 02/01 A2932 RMK AO2 WSHFT 2247 TSE32 P0023 T00220011 $
2026-03-15 23:21:00,SPECI KORD 152321Z 02016KT 1 1/2SM R10L/4500VP6000FT +TSRA BR BKN006 OVC031CB 02/01 A2930 RMK AO2 WSHFT 2247 OCNL LTGICCG OHD TS OHD MOV NE P0019 T00220011 $
2026-03-15 23:17:00,SPECI KORD 152317Z 36013KT 2 1/2SM -TSRA BR BKN006 OVC031CB 02/01 A2934 RMK AO2 WSHFT 2247 PRESRR OCNL LTGICCG OHD TS OHD MOV NE P0014 T00220011 $
2026-03-15 23:03:00,SPECI KORD 152303Z 02015KT 3SM R10L/4500VP6000FT TSRA BR SCT006 BKN034CB OVC085 02/01 A2929 RMK AO2 WSHFT 2247 PRESFR FRQ LTGICCG OHD TS OHD MOV NE P0013 T00220011 $
2026-03-15 22:59:00,SPECI KORD 152259Z 02018G23KT 2SM R10L/3500VP6000FT +TSRA BR BKN006 BKN011CB OVC026 02/01 A2929 RMK AO2 PRESFR FRQ LTGICCG OHD TS OHD MOV NE P0011 T00220011 $
2026-03-15 22:51:00,METAR KORD 152251Z 35013G26KT 1SM R10L/3500VP6000FT +TSRA BR BKN005 OVC010CB 02/01 A2936 RMK AO2 PK WND 01028/2223 WSHFT 2233 TSB27 SLP946 FRQ LTGIC OHD TS OHD MOV NE P0054 T00220011 $
2026-03-15 22:49:00,SPECI KORD 152249Z 34014G26KT 1SM R10L/3500VP6000FT +TSRA BR BKN005 OVC010CB 02/01 A2937 RMK AO2 PK WND 01028/2223 WSHFT 2233 TSB27 PRESRR FRQ LTGIC OHD TS OHD MOV NE P0044 $
2026-03-15 22:28:00,SPECI KORD 152228Z 01017G28KT 1 3/4SM R10L/4500VP6000FT +TSRA BR BKN005 BKN010CB OVC016 03/02 A2931 RMK AO2 PK WND 01028/2223 TSB27 OCNL LTGIC OHD TS OHD MOV NE P0024 T00330022 $
2026-03-15 22:14:00,SPECI KORD 152214Z 36013KT 1 3/4SM R10L/3500VP6000FT +RA BR BKN005 BKN014 OVC020 03/03 A2930 RMK AO2 LTG DSNT NE P0019 T00330028 $
2026-03-15 22:00:00,SPECI KORD 152200Z 01015KT 1 1/2SM R10L/4500VP6000FT +RA BR SCT005 BKN011 OVC017 04/03 A2930 RMK AO2 P0005 T00390028 $
2026-03-15 21:51:00,METAR KORD 152151Z 01016KT 1 1/2SM R10L/5000VP6000FT +RA BR BKN017 OVC023 04/03 A2930 RMK AO2 PK WND 32034/2108 WSHFT 2059 LTG DSNT NE RAB15 SLP926 P0018 T00390033 $
2026-03-15 21:43:00,SPECI KORD 152143Z 01014G24KT 2SM R10L/3500VP6000FT RA BR BKN017 OVC023 04/03 A2930 RMK AO2 PK WND 32034/2108 WSHFT 2059 RAB15 P0014 T00390028 $
2026-03-15 21:31:00,SPECI KORD 152131Z 35017G24KT 1SM R10L/3500VP6000FT +RA BR FEW012 BKN025 OVC032 04/03 A2929 RMK AO2 PK WND 32034/2108 WSHFT 2059 RAB15 P0005 T00390033 $
2026-03-15 21:26:00,SPECI KORD 152126Z 35022G32KT 2SM R10L/3500VP6000FT +RA BR FEW012 BKN025 OVC032 04/03 A2929 RMK AO2 PK WND 32034/2108 WSHFT 2059 RAB15 T00440033 PNO $
2026-03-15 21:19:00,SPECI KORD 152119Z 35024G32KT 6SM R10L/4500VP6000FT RA BR SCT017 OVC032 06/04 A2930 RMK AO2 PK WND 32034/2108 WSHFT 2059 LTG DSNT N RAB15 PRESRR P0000 T00560044 $
2026-03-15 21:11:00,SPECI KORD 152111Z 34023G34KT 9SM SCT020 OVC032 12/07 A2928 RMK AO2 PK WND 32034/2108 WSHFT 2057 LTG DSNT N PRESRR T01170067 $
2026-03-15 20:51:00,METAR KORD 152051Z 19015G29KT 10SM BKN030 OVC036 17/12 A2924 RMK AO2 PK WND 20034/2033 LTG DSNT W-N RAE30 SLP903 P0001 60003 T01670117 56029 $
2026-03-15 19:51:00,METAR KORD 151951Z 19017G30KT 9SM -RA SCT026 BKN037 OVC048 16/12 A2925 RMK AO2 PK WND 20030/1944 RAE05B34 SLP908 P0001 T01560117 $
2026-03-15 19:35:00,SPECI KORD 151935Z 19015G25KT 10SM -RA SCT026 OVC037 15/11 A2927 RMK AO2 PK WND 17029/1917 RAE05B34 P0000 T01500111 $
2026-03-15 19:08:00,SPECI KORD 151908Z 19013G27KT 10SM BKN026 OVC037 15/11 A2928 RMK AO2 PK WND 18028/1855 RAE05 P0000 T01500111 $
2026-03-15 18:51:00,METAR KORD 151851Z 18015G27KT 9SM -RA SCT026 OVC037 15/11 A2930 RMK AO2 PK WND 16032/1840 RAB26 SLP922 P0001 T01500111 $
2026-03-15 17:51:00,METAR KORD 151751Z 18015G26KT 10SM FEW027 BKN036 OVC044 14/11 A2933 RMK AO2 PK WND 19026/1749 SLP934 60012 T01440106 10144 20033 58027 $
2026-03-15 16:51:00,METAR KORD 151651Z 17014G20KT 10SM BKN032 OVC075 12/10 A2937 RMK AO2 PK WND 18029/1601 RAE51 SLP948 P0012 T01220100 $
2026-03-15 16:34:00,SPECI KORD 151634Z 18013G26KT 5SM -RA OVC070 12/09 A2939 RMK AO2 PK WND 18029/1601 P0010 T01220094 $
2026-03-15 16:21:00,SPECI KORD 151621Z 18015G26KT 4SM RA BKN070 OVC080 12/09 A2938 RMK AO2 PK WND 18029/1601 P0007 T01220094 $
2026-03-15 15:51:00,METAR KORD 151551Z 18012G25KT 10SM -RA OVC080 13/07 A2939 RMK AO2 PK WND 20027/1528 RAB30 PRESFR SLP954 P0000 T01280067 $
2026-03-15 14:51:00,METAR KORD 151451Z 17013G22KT 10SM FEW060 SCT140 OVC250 12/03 A2941 RMK AO2 SLP963 T01170028 56050 $
2026-03-15 13:51:00,METAR KORD 151351Z 12007KT 10SM FEW100 BKN150 OVC250 07/M01 A2945 RMK AO2 SLP976 T00721011 $
2026-03-15 12:51:00,METAR KORD 151251Z 10006KT 10SM FEW100 BKN140 OVC250 04/M02 A2952 RMK AO2 PRESFR SLP000 T00441022 $
2026-03-15 11:51:00,METAR KORD 151151Z 09006KT 10SM SCT150 BKN250 03/M03 A2956 RMK AO2 SLP017 60000 70001 T00331028 10039 20022 56056 $
2026-03-15 10:51:00,METAR KORD 151051Z 06006KT 10SM SCT200 03/M03 A2962 RMK AO2 SLP037 T00331028 $
2026-03-15 09:51:00,METAR KORD 150951Z 07009KT 10SM BKN110 03/M03 A2967 RMK AO2 DZB02E10RAB10E16 PRESFR SLP053 P0000 T00331028 $
2026-03-15 08:51:00,METAR KORD 150851Z 07008KT 10SM BKN110 03/M03 A2973 RMK AO2 LTG DSNT W AND NW SLP074 60000 T00281028 58047 $
