Time_recorded,METAR
2026-05-02 15:20:00,METAR LGAV 021520Z 01014G24KT 9999 SCT020 14/M01 Q1017 NOSIG
2026-05-02 14:50:00,METAR LGAV 021450Z 01015KT 9999 FEW018 BKN025 13/M01 Q1017 NOSIG
2026-05-02 14:20:00,METAR LGAV 021420Z 36017KT 9999 FEW018 BKN025 12/00 Q1017 NOSIG
2026-05-02 13:50:00,METAR LGAV 021350Z 35017KT 9999 FEW018 BKN025 12/01 Q1018 NOSIG
2026-05-02 13:20:00,METAR LGAV 021320Z 01023KT 9999 FEW018 BKN025 13/M00 Q1018 NOSIG
2026-05-02 12:50:00,METAR LGAV 021250Z 01019KT 9999 FEW018 BKN025 13/M00 Q1018 NOSIG
2026-05-02 12:20:00,METAR LGAV 021220Z 01020KT 9999 FEW018 BKN025 13/00 Q1018 NOSIG
2026-05-02 11:50:00,METAR LGAV 021150Z 01021KT 9999 FEW018 SCT025 13/01 Q1018 NOSIG
2026-05-02 11:20:00,METAR LGAV 021120Z 03018KT 9999 FEW018 SCT025 14/M00 Q1018 NOSIG
2026-05-02 10:50:00,METAR LGAV 021050Z 03019KT 9999 FEW018 SCT025 13/M00 Q1018 NOSIG
2026-05-02 10:20:00,METAR LGAV 021020Z 03019KT 9999 FEW018 SCT025 14/00 Q1019 NOSIG
2026-05-02 09:50:00,METAR LGAV 020950Z 02018KT 9999 FEW018 BKN025 12/01 Q1019 NOSIG
2026-05-02 09:20:00,METAR LGAV 020920Z 04017KT 9999 FEW018 SCT025 13/01 Q1018 NOSIG
2026-05-02 08:50:00,METAR LGAV 020850Z 04020G30KT 9999 SCT020 14/02 Q1018 NOSIG
2026-05-02 08:20:00,METAR LGAV 020820Z 03020KT 9999 SCT020 13/01 Q1018 NOSIG
2026-05-02 07:50:00,METAR LGAV 020750Z 03016KT 9999 SCT020 12/01 Q1018 NOSIG
2026-05-02 07:20:00,METAR LGAV 020720Z 03020KT 9999 SCT020 13/01 Q1018 NOSIG
2026-05-02 06:50:00,METAR LGAV 020650Z 04018KT 9999 SCT020 12/02 Q1018 NOSIG
2026-05-02 06:20:00,METAR LGAV 020620Z 03018KT 9999 FEW018 SCT030 14/02 Q1018 NOSIG
2026-05-02 05:50:00,METAR LGAV 020550Z 03014G24KT 9999 FEW018 SCT030 12/03 Q1018 NOSIG
2026-05-02 05:20:00,METAR LGAV 020520Z 02011KT 350V060 9999 FEW018 SCT035 12/03 Q1018 NOSIG
2026-05-02 04:50:00,METAR LGAV 020450Z 02010KT 9999 FEW018 SCT035 12/03 Q1018 NOSIG
2026-05-02 04:20:00,METAR LGAV 020420Z 02012KT 9999 FEW018 SCT035 12/03 Q1018 NOSIG
2026-05-02 03:50:00,METAR LGAV 020350Z 02009KT 9999 SCT025 BKN060 12/03 Q1018 NOSIG
2026-05-02 03:20:00,METAR LGAV 020320Z 01017KT 9999 SCT025 BKN060 11/05 Q1017 NOSIG
2026-05-02 02:50:00,METAR LGAV 020250Z 01016KT 9999 SCT025 BKN060 12/05 Q1018 NOSIG
2026-05-02 02:20:00,METAR LGAV 020220Z 01013KT 9999 SCT025 BKN060 11/05 Q1018 NOSIG
2026-05-02 01:50:00,METAR LGAV 020150Z 01013KT 9999 SCT025 BKN060 11/04 Q1018 NOSIG
2026-05-02 01:20:00,METAR LGAV 020120Z 01017KT 9999 SCT025 BKN060 12/04 Q1018 NOSIG
2026-05-02 00:50:00,METAR LGAV 020050Z 01014KT 9999 SCT025 BKN060 12/05 Q1018 NOSIG
2026-05-02 00:20:00,METAR LGAV 020020Z 01015KT 9999 SCT025 BKN060 11/05 Q1018 NOSIG
2026-05-01 23:50:00,METAR LGAV 012350Z 01013KT 9999 SCT025 BKN060 12/05 Q1018 NOSIG
2026-05-01 23:20:00,METAR LGAV 012320Z 02015KT 9999 SCT025 BKN060 12/05 Q1019 NOSIG
2026-05-01 22:50:00,METAR LGAV 012250Z 02013KT 9999 SCT025 BKN060 12/06 Q1019 NOSIG
2026-05-01 22:20:00,METAR LGAV 012220Z 02013KT 9999 SCT025 BKN060 12/05 Q1019 NOSIG
2026-05-01 21:50:00,METAR LGAV 012150Z 03011KT 9999 BKN025 12/06 Q1019 NOSIG
2026-05-01 21:20:00,METAR LGAV 012120Z 03014G26KT 9999 BKN025 12/06 Q1019 NOSIG
2026-05-01 20:50:00,METAR LGAV 012050Z 03012KT 9999 BKN025 12/06 Q1020 NOSIG
2026-05-01 20:20:00,METAR LGAV 012020Z 04015G25KT 9999 BKN025 12/06 Q1019 NOSIG
2026-05-01 19:50:00,METAR LGAV 011950Z 04014KT 9999 BKN025 12/06 Q1019 NOSIG
2026-05-01 19:20:00,METAR LGAV 011920Z 02016KT 9999 SCT025 12/06 Q1019 NOSIG
2026-05-01 18:50:00,METAR LGAV 011850Z 02016KT 9999 SCT020 12/06 Q1019 NOSIG
2026-05-01 18:20:00,METAR LGAV 011820Z 03014KT 9999 BKN030 12/07 Q1019 NOSIG
2026-05-01 17:50:00,METAR LGAV 011750Z 02017KT 9999 DZ BKN030 12/06 Q1019 NOSIG
2026-05-01 17:20:00,METAR LGAV 011720Z 02019KT 9999 BKN030 12/06 Q1019 NOSIG
2026-05-01 16:50:00,METAR LGAV 011650Z 02017KT 9999 SCT025 BKN040 12/06 Q1019 NOSIG
2026-05-01 16:20:00,METAR LGAV 011620Z 01017KT 9999 SCT025 BKN040 12/06 Q1018 NOSIG
2026-05-01 15:50:00,METAR LGAV 011550Z 01017KT 9999 SCT020 BKN030 12/07 Q1018 NOSIG
2026-05-01 15:20:00,METAR LGAV 011520Z 02020KT 9999 -RA SCT020 BKN030 12/07 Q1019 NOSIG
2026-05-01 14:50:00,METAR LGAV 011450Z 02018KT 9999 -RA BKN025 BKN060 12/07 Q1018 NOSIG
2026-05-01 14:20:00,METAR LGAV 011420Z 02019KT 9999 -RA BKN025 BKN060 13/06 Q1019 NOSIG
2026-05-01 13:50:00,METAR LGAV 011350Z 02018KT 9999 BKN025 BKN060 13/07 Q1018 NOSIG
2026-05-01 13:20:00,METAR LGAV 011320Z 02021KT 9999 SCT020 BKN040 BKN060 13/07 Q1019 NOSIG
2026-05-01 12:50:00,METAR LGAV 011250Z 03019KT 9999 SCT020 BKN040 13/07 Q1019 NOSIG
2026-05-01 12:20:00,METAR LGAV 011220Z 02018G29KT 9999 SCT020 BKN040 13/07 Q1019 NOSIG
2026-05-01 11:50:00,METAR LGAV 011150Z 02019KT 9999 FEW018 SCT020 BKN060 13/07 Q1019 NOSIG
2026-05-01 11:20:00,METAR LGAV 011120Z 03019KT 9999 FEW018 SCT020 BKN060 13/06 Q1019 NOSIG
2026-05-01 10:50:00,METAR LGAV 011050Z 03018KT 9999 FEW018 SCT020 BKN060 13/06 Q1019 NOSIG
2026-05-01 10:20:00,METAR LGAV 011020Z 03016KT 9999 FEW018 SCT020 BKN060 13/07 Q1019 NOSIG
2026-05-01 09:50:00,METAR LGAV 010950Z 03017KT 9999 FEW018 SCT020 BKN060 14/06 Q1019 NOSIG
2026-05-01 09:20:00,METAR LGAV 010920Z 03016KT 9999 FEW018 SCT020 BKN060 13/06 Q1019 NOSIG
2026-05-01 08:50:00,METAR LGAV 010850Z 03016KT 9999 FEW015 SCT020 BKN060 13/06 Q1019 NOSIG
2026-05-01 08:20:00,METAR LGAV 010820Z 03014G24KT 9999 FEW015 SCT020 BKN060 13/06 Q1019 NOSIG
2026-05-01 07:50:00,METAR LGAV 010750Z 03013KT 9999 FEW015 SCT020 BKN050 13/06 Q1019 NOSIG
2026-05-01 07:20:00,METAR LGAV 010720Z 02014KT 9999 FEW015 SCT020 BKN050 13/07 Q1018 NOSIG
2026-05-01 06:50:00,METAR LGAV 010650Z 03013KT 9999 FEW015 SCT020 BKN050 13/07 Q1018 NOSIG
2026-05-01 06:20:00,METAR LGAV 010620Z 03013KT 9999 FEW015 SCT020 BKN050 12/07 Q1018 NOSIG
2026-05-01 05:50:00,METAR LGAV 010550Z 03014KT 9999 FEW015 BKN025 BKN060 12/07 Q1017 NOSIG
2026-05-01 05:20:00,METAR LGAV 010520Z 02012KT 340V050 9999 FEW015 BKN025 BKN060 12/08 Q1017 NOSIG
2026-05-01 04:50:00,METAR LGAV 010450Z 03012KT 9999 DZ FEW015 BKN025 BKN060 12/08 Q1017 NOSIG
2026-05-01 04:20:00,METAR LGAV 010420Z 02015KT 9999 -RA FEW013 BKN025 BKN060 12/09 Q1017 NOSIG
2026-05-01 03:50:00,METAR LGAV 010350Z 03013KT 9999 FEW013 BKN025 BKN060 12/09 Q1017 NOSIG
2026-05-01 03:20:00,METAR LGAV 010320Z 02013G23KT 9999 FEW015 SCT025 BKN060 12/09 Q1017 NOSIG
2026-05-01 02:50:00,METAR LGAV 010250Z 01014KT 9999 FEW013 SCT025 BKN070 12/10 Q1016 NOSIG
2026-05-01 02:20:00,METAR LGAV 010220Z 36016KT 9999 FEW015 SCT025 BKN070 13/10 Q1016 NOSIG
2026-05-01 01:50:00,METAR LGAV 010150Z 36015KT 9999 FEW017 BKN070 13/10 Q1016 NOSIG
2026-05-01 01:20:00,METAR LGAV 010120Z 01014KT 9999 FEW018 BKN070 13/09 Q1016 NOSIG
2026-05-01 00:50:00,METAR LGAV 010050Z 36014KT 9999 -RA FEW025 BKN070 14/10 Q1015 NOSIG
2026-05-01 00:20:00,METAR LGAV 010020Z 01013KT 9999 FEW025 SCT070 14/10 Q1015 NOSIG
2026-04-30 23:50:00,METAR LGAV 302350Z 01014KT 9999 FEW025 SCT070 15/10 Q1015 NOSIG
2026-04-30 23:20:00,METAR LGAV 302320Z 01014KT 9999 FEW025 SCT070 15/09 Q1015 NOSIG
2026-04-30 22:50:00,METAR LGAV 302250Z 02019KT 9999 FEW025 SCT070 15/10 Q1015 NOSIG
2026-04-30 22:20:00,METAR LGAV 302220Z 02013KT 9999 FEW025 SCT070 15/10 Q1015 NOSIG
2026-04-30 21:50:00,METAR LGAV 302150Z 03013KT 9999 FEW025 SCT070 16/10 Q1015 NOSIG
2026-04-30 21:20:00,METAR LGAV 302120Z 05009KT 010V080 9999 FEW025 SCT070 16/11 Q1015 NOSIG
2026-04-30 20:50:00,METAR LGAV 302050Z 05010KT 9999 FEW025 SCT070 16/12 Q1015 NOSIG
2026-04-30 20:20:00,METAR LGAV 302020Z 03012KT 9999 FEW025 SCT070 16/13 Q1015 NOSIG
2026-04-30 19:50:00,METAR LGAV 301950Z 02015KT 9999 FEW025 SCT070 17/12 Q1015 NOSIG
2026-04-30 19:20:00,METAR LGAV 301920Z 03005KT 9999 FEW025 SCT070 17/13 Q1015 NOSIG
2026-04-30 18:50:00,METAR LGAV 301850Z 01003KT 9999 FEW025 SCT070 17/13 Q1014 NOSIG
2026-04-30 18:20:00,METAR LGAV 301820Z 02003KT 9999 FEW025 SCT070 16/13 Q1014 NOSIG
2026-04-30 17:50:00,METAR LGAV 301750Z 03003KT 9999 FEW025 SCT070 17/13 Q1013 NOSIG
2026-04-30 17:20:00,METAR LGAV 301720Z 04003KT 9999 FEW025 17/13 Q1013 NOSIG RMK QNH 1013.7 BKN180
2026-04-30 16:50:00,METAR LGAV 301650Z 03003KT 9999 FEW025 18/12 Q1013 NOSIG
2026-04-30 16:20:00,METAR LGAV 301620Z VRB02KT 9999 FEW025 19/12 Q1013 NOSIG
2026-04-30 15:50:00,METAR LGAV 301550Z VRB02KT 9999 FEW025 20/11 Q1013 NOSIG
2026-04-30 14:50:00,METAR LGAV 301450Z 09006KT 9999 FEW025 20/10 Q1013 NOSIG
2026-04-30 14:20:00,METAR LGAV 301420Z 11008KT 9999 FEW025 20/11 Q1013 NOSIG
2026-04-30 13:50:00,METAR LGAV 301350Z 08007KT 060V120 9999 FEW025 21/11 Q1014 NOSIG
2026-04-30 13:20:00,METAR LGAV 301320Z 08008KT 9999 FEW025 22/12 Q1014 NOSIG
2026-04-30 12:50:00,METAR LGAV 301250Z 10007KT 040V130 9999 FEW025 23/11 Q1014 NOSIG
2026-04-30 12:20:00,METAR LGAV 301220Z 07007KT 030V100 9999 FEW025 23/10 Q1014 NOSIG
2026-04-30 11:50:00,METAR LGAV 301150Z 06006KT 020V100 9999 FEW025 23/10 Q1015 NOSIG
2026-04-30 11:20:00,METAR LGAV 301120Z 11008KT 9999 FEW025 23/10 Q1015 NOSIG
2026-04-30 10:50:00,METAR LGAV 301050Z 06007KT 020V100 9999 FEW025 23/07 Q1015 NOSIG
2026-04-30 10:20:00,METAR LGAV 301020Z 06008KT 030V100 9999 FEW025 23/08 Q1015 NOSIG
2026-04-30 09:50:00,METAR LGAV 300950Z 06006KT 030V120 CAVOK 23/08 Q1015 NOSIG
2026-04-30 09:20:00,METAR LGAV 300920Z 07006KT 020V120 CAVOK 23/08 Q1016 NOSIG
2026-04-30 08:50:00,METAR LGAV 300850Z 10006KT 070V140 CAVOK 22/08 Q1016 NOSIG
2026-04-30 08:20:00,METAR LGAV 300820Z 10005KT 040V120 CAVOK 22/08 Q1016 NOSIG
2026-04-30 07:50:00,METAR LGAV 300750Z 05004KT 010V090 CAVOK 21/07 Q1016 NOSIG
2026-04-30 07:20:00,METAR LGAV 300720Z 09004KT 040V150 CAVOK 20/10 Q1016 NOSIG
2026-04-30 06:50:00,METAR LGAV 300650Z 10004KT 060V160 CAVOK 20/11 Q1016 NOSIG
2026-04-30 06:20:00,METAR LGAV 300620Z VRB03KT CAVOK 19/09 Q1016 NOSIG
2026-04-30 05:50:00,METAR LGAV 300550Z VRB02KT CAVOK 18/09 Q1016 NOSIG
2026-04-30 05:20:00,METAR LGAV 300520Z 00000KT CAVOK 17/08 Q1016 NOSIG
2026-04-30 04:50:00,METAR LGAV 300450Z 00000KT CAVOK 15/08 Q1016 NOSIG
2026-04-30 04:20:00,METAR LGAV 300420Z 00000KT CAVOK 13/07 Q1016 NOSIG
2026-04-30 03:50:00,METAR LGAV 300350Z 35002KT CAVOK 11/06 Q1015 NOSIG
2026-04-30 03:20:00,METAR LGAV 300320Z 36003KT CAVOK 11/06 Q1015 NOSIG
2026-04-30 02:50:00,METAR LGAV 300250Z 01003KT CAVOK 11/06 Q1015 NOSIG
2026-04-30 02:20:00,METAR LGAV 300220Z VRB02KT CAVOK 11/06 Q1015 NOSIG
2026-04-30 01:50:00,METAR LGAV 300150Z 25003KT CAVOK 11/06 Q1015 NOSIG
2026-04-30 01:20:00,METAR LGAV 300120Z VRB02KT CAVOK 11/06 Q1016 NOSIG
2026-04-30 00:20:00,METAR LGAV 300020Z 03002KT CAVOK 09/06 Q1016 NOSIG
2026-04-29 23:50:00,METAR LGAV 292350Z 01002KT CAVOK 10/06 Q1016 NOSIG
2026-04-29 23:20:00,METAR LGAV 292320Z VRB02KT CAVOK 09/06 Q1016 NOSIG
2026-04-29 22:50:00,METAR LGAV 292250Z 01002KT CAVOK 11/07 Q1016 NOSIG
2026-04-29 22:20:00,METAR LGAV 292220Z 00000KT CAVOK 11/07 Q1016 NOSIG
2026-04-29 21:50:00,METAR LGAV 292150Z 00000KT CAVOK 11/07 Q1016 NOSIG
2026-04-29 21:20:00,METAR LGAV 292120Z VRB01KT CAVOK 12/06 Q1016 NOSIG
2026-04-29 20:50:00,METAR LGAV 292050Z 24003KT CAVOK 13/06 Q1016 NOSIG
2026-04-29 20:20:00,METAR LGAV 292020Z 33001KT CAVOK 14/06 Q1016 NOSIG
2026-04-29 19:50:00,METAR LGAV 291950Z 28001KT CAVOK 14/07 Q1017 NOSIG
2026-04-29 19:20:00,METAR LGAV 291920Z 27003KT CAVOK 15/07 Q1017 NOSIG
2026-04-29 18:50:00,METAR LGAV 291850Z VRB01KT CAVOK 15/07 Q1016 NOSIG
2026-04-29 18:20:00,METAR LGAV 291820Z 24001KT CAVOK 15/08 Q1016 NOSIG
2026-04-29 17:50:00,METAR LGAV 291750Z VRB02KT CAVOK 17/07 Q1016 NOSIG
2026-04-29 17:20:00,METAR LGAV 291720Z VRB01KT CAVOK 18/07 Q1016 NOSIG
2026-04-29 16:50:00,METAR LGAV 291650Z 22005KT CAVOK 19/07 Q1016 NOSIG
2026-04-29 16:20:00,METAR LGAV 291620Z 22007KT CAVOK 21/06 Q1016 NOSIG
2026-04-29 15:50:00,METAR LGAV 291550Z 22006KT 160V250 CAVOK 22/05 Q1016 NOSIG
2026-04-29 15:20:00,METAR LGAV 291520Z 13005KT CAVOK 22/05 Q1016 NOSIG
2026-04-29 14:50:00,METAR LGAV 291450Z 10007KT 060V130 CAVOK 23/06 Q1016 NOSIG
2026-04-29 14:20:00,METAR LGAV 291420Z 10006KT 070V130 CAVOK 23/05 Q1016 NOSIG
2026-04-29 13:50:00,METAR LGAV 291350Z 07006KT CAVOK 23/05 Q1016 NOSIG
2026-04-29 13:20:00,METAR LGAV 291320Z 07008KT CAVOK 23/04 Q1016 NOSIG
2026-04-29 12:50:00,METAR LGAV 291250Z 08007KT 050V110 CAVOK 24/04 Q1016 NOSIG
2026-04-29 12:20:00,METAR LGAV 291220Z 08007KT 050V110 9999 FEW030 24/05 Q1017 NOSIG
2026-04-29 11:50:00,METAR LGAV 291150Z 08007KT 9999 FEW030 24/05 Q1017 NOSIG
2026-04-29 11:20:00,METAR LGAV 291120Z 10008KT 9999 FEW030 23/05 Q1017 NOSIG
2026-04-29 10:50:00,METAR LGAV 291050Z 10008KT 070V140 9999 FEW030 23/06 Q1017 NOSIG
2026-04-29 10:20:00,METAR LGAV 291020Z 10008KT 9999 FEW030 23/05 Q1017 NOSIG
2026-04-29 09:50:00,METAR LGAV 290950Z 09006KT 060V120 9999 FEW030 23/05 Q1017 NOSIG
2026-04-29 09:20:00,METAR LGAV 290920Z VRB03KT 9999 FEW030 23/05 Q1017 NOSIG
2026-04-29 08:50:00,METAR LGAV 290850Z 10004KT 050V150 CAVOK 23/07 Q1018 NOSIG
2026-04-29 08:20:00,METAR LGAV 290820Z VRB03KT CAVOK 22/05 Q1018 NOSIG
2026-04-29 07:50:00,METAR LGAV 290750Z VRB03KT CAVOK 21/05 Q1018 NOSIG
2026-04-29 07:20:00,METAR LGAV 290720Z VRB03KT CAVOK 20/07 Q1018 NOSIG
2026-04-29 06:50:00,METAR LGAV 290650Z VRB03KT CAVOK 20/06 Q1017 NOSIG
2026-04-29 06:20:00,METAR LGAV 290620Z 07003KT CAVOK 19/08 Q1017 NOSIG
2026-04-29 05:50:00,METAR LGAV 290550Z VRB01KT CAVOK 18/08 Q1017 NOSIG
2026-04-29 05:20:00,METAR LGAV 290520Z 00000KT CAVOK 17/09 Q1017 NOSIG
2026-04-29 04:50:00,METAR LGAV 290450Z 00000KT CAVOK 15/09 Q1017 NOSIG
2026-04-29 04:20:00,METAR LGAV 290420Z 29002KT CAVOK 11/07 Q1017 NOSIG
2026-04-29 03:50:00,METAR LGAV 290350Z VRB01KT 9999 FEW030 10/07 Q1017 NOSIG
2026-04-29 03:20:00,METAR LGAV 290320Z 30002KT 9999 FEW030 10/06 Q1017 NOSIG
2026-04-29 02:50:00,METAR LGAV 290250Z VRB02KT 9999 FEW030 10/06 Q1017 NOSIG
2026-04-29 02:20:00,METAR LGAV 290220Z 28003KT 9999 FEW030 10/06 Q1017 NOSIG
2026-04-29 01:50:00,METAR LGAV 290150Z VRB01KT 9999 FEW030 09/05 Q1017 NOSIG
2026-04-29 01:20:00,METAR LGAV 290120Z VRB03KT 9999 FEW030 10/06 Q1017 NOSIG
2026-04-29 00:50:00,METAR LGAV 290050Z 00000KT CAVOK 10/06 Q1017 NOSIG
2026-04-29 00:20:00,METAR LGAV 290020Z VRB02KT CAVOK 11/06 Q1017 NOSIG
2026-04-28 23:50:00,METAR LGAV 282350Z 27004KT CAVOK 11/06 Q1017 NOSIG
2026-04-28 23:20:00,METAR LGAV 282320Z 26004KT CAVOK 11/06 Q1017 NOSIG
2026-04-28 22:20:00,METAR LGAV 282220Z VRB02KT CAVOK 11/06 Q1018 NOSIG
2026-04-28 21:50:00,METAR LGAV 282150Z 26005KT CAVOK 12/06 Q1018 NOSIG
2026-04-28 21:20:00,METAR LGAV 282120Z 27004KT CAVOK 12/06 Q1017 NOSIG
2026-04-28 20:50:00,METAR LGAV 282050Z 27004KT CAVOK 12/06 Q1017 NOSIG
2026-04-28 20:20:00,METAR LGAV 282020Z VRB02KT CAVOK 10/06 Q1017 NOSIG
2026-04-28 19:50:00,METAR LGAV 281950Z 36003KT CAVOK 12/07 Q1017 NOSIG
2026-04-28 19:20:00,METAR LGAV 281920Z VRB01KT CAVOK 13/06 Q1017 NOSIG
2026-04-28 18:50:00,METAR LGAV 281850Z 00000KT CAVOK 13/06 Q1017 NOSIG
2026-04-28 18:20:00,METAR LGAV 281820Z 05001KT CAVOK 15/06 Q1017 NOSIG
2026-04-28 17:50:00,METAR LGAV 281750Z 03002KT CAVOK 16/06 Q1017 NOSIG
2026-04-28 17:20:00,METAR LGAV 281720Z 04004KT CAVOK 16/06 Q1017 NOSIG
2026-04-28 16:50:00,METAR LGAV 281650Z 04004KT CAVOK 17/05 Q1017 NOSIG
2026-04-28 16:20:00,METAR LGAV 281620Z 04008KT CAVOK 18/04 Q1017 NOSIG
2026-04-28 15:50:00,METAR LGAV 281550Z 04006KT CAVOK 19/04 Q1017 NOSIG
2026-04-28 15:20:00,METAR LGAV 281520Z 03008KT CAVOK 20/04 Q1017 NOSIG
2026-04-28 14:50:00,METAR LGAV 281450Z 05009KT 9999 FEW030 20/04 Q1017 NOSIG
2026-04-28 14:20:00,METAR LGAV 281420Z 06009KT 9999 FEW030 20/06 Q1017 NOSIG
2026-04-28 13:50:00,METAR LGAV 281350Z 04009KT 010V080 9999 FEW030 20/07 Q1017 NOSIG
2026-04-28 13:20:00,METAR LGAV 281320Z 05011KT 020V090 9999 FEW030 20/06 Q1017 NOSIG
2026-04-28 12:50:00,METAR LGAV 281250Z 05010KT 020V080 9999 FEW030 20/06 Q1017 NOSIG
2026-04-28 12:20:00,METAR LGAV 281220Z 06012KT 020V090 9999 FEW030 20/07 Q1017 NOSIG
2026-04-28 11:50:00,METAR LGAV 281150Z 05013KT 9999 FEW030 20/06 Q1017 NOSIG
2026-04-28 11:20:00,METAR LGAV 281120Z 05015KT 9999 FEW030 20/05 Q1017 NOSIG
2026-04-28 10:50:00,METAR LGAV 281050Z 06013KT 9999 FEW030 20/05 Q1018 NOSIG
2026-04-28 10:20:00,METAR LGAV 281020Z 05016KT 9999 FEW030 21/04 Q1018 NOSIG
2026-04-28 09:50:00,METAR LGAV 280950Z 06015KT 9999 FEW030 20/04 Q1018 NOSIG
2026-04-28 09:20:00,METAR LGAV 280920Z 05015KT 9999 FEW030 21/06 Q1018 NOSIG
2026-04-28 08:50:00,METAR LGAV 280850Z 05014KT 9999 FEW030 20/05 Q1018 NOSIG
2026-04-28 08:20:00,METAR LGAV 280820Z 04014KT 9999 FEW030 20/05 Q1018 NOSIG
2026-04-28 07:50:00,METAR LGAV 280750Z 05014KT 9999 FEW030 20/04 Q1018 NOSIG
2026-04-28 07:20:00,METAR LGAV 280720Z 04012KT 9999 FEW030 19/04 Q1018 NOSIG
2026-04-28 06:50:00,METAR LGAV 280650Z 04011KT 9999 FEW030 19/04 Q1018 NOSIG
2026-04-28 06:20:00,METAR LGAV 280620Z 04010KT 010V070 9999 FEW030 18/03 Q1018 NOSIG
2026-04-28 05:50:00,METAR LGAV 280550Z 03006KT 330V070 9999 FEW030 18/04 Q1018 NOSIG
2026-04-28 05:20:00,METAR LGAV 280520Z 05007KT 010V080 9999 FEW030 17/04 Q1018 NOSIG
2026-04-28 04:50:00,METAR LGAV 280450Z 05004KT 350V090 9999 FEW030 16/04 Q1018 NOSIG
2026-04-28 04:20:00,METAR LGAV 280420Z 04006KT 9999 FEW030 15/04 Q1017 NOSIG
2026-04-28 03:50:00,METAR LGAV 280350Z 04007KT 010V070 9999 FEW035 15/04 Q1017 NOSIG
2026-04-28 03:20:00,METAR LGAV 280320Z 03009KT 9999 FEW030 14/04 Q1017 NOSIG
2026-04-28 02:50:00,METAR LGAV 280250Z 03008KT 010V070 CAVOK 15/04 Q1017 NOSIG
2026-04-28 02:20:00,METAR LGAV 280220Z 08005KT 030V110 CAVOK 15/03 Q1017 NOSIG
2026-04-28 01:50:00,METAR LGAV 280150Z VRB01KT CAVOK 14/04 Q1017 NOSIG
2026-04-28 01:20:00,METAR LGAV 280120Z 35004KT CAVOK 16/04 Q1017 NOSIG
2026-04-28 00:50:00,METAR LGAV 280050Z VRB03KT CAVOK 14/04 Q1017 NOSIG
2026-04-28 00:20:00,METAR LGAV 280020Z 08004KT CAVOK 14/03 Q1017 NOSIG
2026-04-27 23:50:00,METAR LGAV 272350Z VRB03KT CAVOK 14/03 Q1018 NOSIG
2026-04-27 23:20:00,METAR LGAV 272320Z 06006KT CAVOK 15/02 Q1018 NOSIG
2026-04-27 22:50:00,METAR LGAV 272250Z 06006KT CAVOK 15/01 Q1018 NOSIG
2026-04-27 22:20:00,METAR LGAV 272220Z 05005KT 020V080 CAVOK 15/02 Q1018 NOSIG
2026-04-27 21:50:00,METAR LGAV 272150Z 07004KT CAVOK 15/03 Q1018 NOSIG
2026-04-27 21:20:00,METAR LGAV 272120Z 05004KT 360V080 CAVOK 15/03 Q1018 NOSIG
2026-04-27 20:50:00,METAR LGAV 272050Z 07004KT CAVOK 15/05 Q1018 NOSIG
2026-04-27 20:20:00,METAR LGAV 272020Z 10004KT 030V150 CAVOK 14/07 Q1018 NOSIG
2026-04-27 19:50:00,METAR LGAV 271950Z 06004KT 020V080 CAVOK 16/05 Q1018 NOSIG
2026-04-27 19:20:00,METAR LGAV 271920Z VRB02KT CAVOK 16/06 Q1018 NOSIG
2026-04-27 18:50:00,METAR LGAV 271850Z VRB03KT CAVOK 16/07 Q1018 NOSIG
2026-04-27 18:20:00,METAR LGAV 271820Z 07007KT CAVOK 16/08 Q1018 NOSIG
2026-04-27 17:50:00,METAR LGAV 271750Z 07008KT CAVOK 16/08 Q1017 NOSIG
2026-04-27 17:20:00,METAR LGAV 271720Z 06008KT CAVOK 16/09 Q1018 NOSIG
2026-04-27 16:50:00,METAR LGAV 271650Z 07009KT CAVOK 17/09 Q1017 NOSIG
2026-04-27 16:20:00,METAR LGAV 271620Z 05010KT CAVOK 18/09 Q1018 NOSIG
2026-04-27 15:50:00,METAR LGAV 271550Z 05011KT CAVOK 18/09 Q1018 NOSIG
2026-04-27 15:20:00,METAR LGAV 271520Z 06012KT CAVOK 19/09 Q1018 NOSIG
2026-04-27 14:50:00,METAR LGAV 271450Z 07014KT 9999 FEW020 19/10 Q1018 NOSIG
2026-04-27 14:20:00,METAR LGAV 271420Z 05009KT 350V090 9999 FEW020 20/11 Q1018 NOSIG
2026-04-27 13:50:00,METAR LGAV 271350Z 05009G21KT 330V110 9999 FEW018 20/10 Q1018 NOSIG
2026-04-27 13:20:00,METAR LGAV 271320Z 03013G25KT 010V070 9999 FEW018 20/10 Q1018 NOSIG
2026-04-27 12:50:00,METAR LGAV 271250Z 04016KT 360V060 9999 FEW018 20/10 Q1018 NOSIG
2026-04-27 12:20:00,METAR LGAV 271220Z 03018G28KT 9999 FEW018 20/11 Q1018 NOSIG
2026-04-27 11:50:00,METAR LGAV 271150Z 03020KT 9999 FEW018 21/11 Q1018 NOSIG
2026-04-27 11:20:00,METAR LGAV 271120Z 04018KT 9999 FEW018 21/11 Q1018 NOSIG
2026-04-27 10:50:00,METAR LGAV 271050Z 05017KT 9999 FEW018 21/11 Q1018 NOSIG
2026-04-27 10:20:00,METAR LGAV 271020Z 05016KT 9999 FEW018 21/10 Q1019 NOSIG
2026-04-27 09:50:00,METAR LGAV 270950Z 05017KT CAVOK 21/11 Q1019 NOSIG
2026-04-27 09:20:00,METAR LGAV 270920Z 06014KT CAVOK 22/10 Q1019 NOSIG
2026-04-27 08:50:00,METAR LGAV 270850Z 07013KT CAVOK 22/08 Q1019 NOSIG
2026-04-27 08:20:00,METAR LGAV 270820Z 04015KT CAVOK 23/06 Q1018 NOSIG
2026-04-27 07:50:00,METAR LGAV 270750Z 04011KT CAVOK 23/07 Q1018 NOSIG
2026-04-27 07:20:00,METAR LGAV 270720Z 05012KT CAVOK 22/08 Q1018 NOSIG
2026-04-27 06:50:00,METAR LGAV 270650Z 06007KT 030V090 CAVOK 21/08 Q1018 NOSIG
2026-04-27 06:20:00,METAR LGAV 270620Z VRB03KT CAVOK 19/09 Q1018 NOSIG
2026-04-27 05:50:00,METAR LGAV 270550Z 00000KT CAVOK 19/08 Q1018 NOSIG
2026-04-27 05:20:00,METAR LGAV 270520Z 00000KT CAVOK 17/07 Q1017 NOSIG
2026-04-27 04:50:00,METAR LGAV 270450Z VRB01KT CAVOK 14/06 Q1017 NOSIG
2026-04-27 04:20:00,METAR LGAV 270420Z 28002KT CAVOK 12/05 Q1017 NOSIG
2026-04-27 03:50:00,METAR LGAV 270350Z 27002KT CAVOK 10/04 Q1016 NOSIG
2026-04-27 03:20:00,METAR LGAV 270320Z 28003KT CAVOK 11/05 Q1016 NOSIG
2026-04-27 02:50:00,METAR LGAV 270250Z 31001KT CAVOK 10/04 Q1016 NOSIG
2026-04-27 02:20:00,METAR LGAV 270220Z 29003KT CAVOK 10/05 Q1016 NOSIG
2026-04-27 01:50:00,METAR LGAV 270150Z 30002KT CAVOK 10/04 Q1016 NOSIG
2026-04-27 01:20:00,METAR LGAV 270120Z 29002KT CAVOK 11/05 Q1016 NOSIG
2026-04-27 00:50:00,METAR LGAV 270050Z 33001KT CAVOK 11/05 Q1016 NOSIG
2026-04-27 00:20:00,METAR LGAV 270020Z 28003KT CAVOK 11/04 Q1016 NOSIG
2026-04-26 23:50:00,METAR LGAV 262350Z 29002KT CAVOK 13/04 Q1016 NOSIG
2026-04-26 23:20:00,METAR LGAV 262320Z VRB03KT CAVOK 14/04 Q1016 NOSIG
2026-04-26 22:50:00,METAR LGAV 262250Z VRB01KT CAVOK 16/03 Q1016 NOSIG
2026-04-26 22:20:00,METAR LGAV 262220Z VRB01KT CAVOK 13/04 Q1016 NOSIG
2026-04-26 21:50:00,METAR LGAV 262150Z VRB02KT CAVOK 17/02 Q1016 NOSIG
2026-04-26 21:20:00,METAR LGAV 262120Z VRB01KT CAVOK 17/02 Q1016 NOSIG
2026-04-26 20:50:00,METAR LGAV 262050Z VRB01KT CAVOK 16/03 Q1016 NOSIG
2026-04-26 20:20:00,METAR LGAV 262020Z 27004KT CAVOK 15/05 Q1016 NOSIG
2026-04-26 19:50:00,METAR LGAV 261950Z VRB03KT CAVOK 16/05 Q1016 NOSIG
2026-04-26 19:20:00,METAR LGAV 261920Z 27003KT CAVOK 15/05 Q1016 NOSIG
2026-04-26 18:50:00,METAR LGAV 261850Z VRB01KT CAVOK 17/05 Q1015 NOSIG
2026-04-26 18:20:00,METAR LGAV 261820Z VRB03KT CAVOK 17/07 Q1015 NOSIG
2026-04-26 17:50:00,METAR LGAV 261750Z 23002KT CAVOK 17/06 Q1015 NOSIG
2026-04-26 17:20:00,METAR LGAV 261720Z 25004KT CAVOK 18/05 Q1014 NOSIG
2026-04-26 16:50:00,METAR LGAV 261650Z 23007KT CAVOK 19/04 Q1014 NOSIG
2026-04-26 16:20:00,METAR LGAV 261620Z 22007KT CAVOK 22/05 Q1014 NOSIG
2026-04-26 15:50:00,METAR LGAV 261550Z 04005KT CAVOK 23/04 Q1014 NOSIG
2026-04-26 15:20:00,METAR LGAV 261520Z 04006KT CAVOK 24/04 Q1014 NOSIG
2026-04-26 14:50:00,METAR LGAV 261450Z 05006KT 010V080 CAVOK 24/03 Q1013 NOSIG
2026-04-26 14:20:00,METAR LGAV 261420Z 08006KT 050V110 CAVOK 24/03 Q1014 NOSIG
2026-04-26 13:50:00,METAR LGAV 261350Z 07005KT 030V110 CAVOK 25/02 Q1014 NOSIG
2026-04-26 13:20:00,METAR LGAV 261320Z 09005KT 050V120 CAVOK 24/03 Q1014 NOSIG
2026-04-26 12:50:00,METAR LGAV 261250Z 07005KT 030V130 CAVOK 24/03 Q1014 NOSIG
2026-04-26 12:20:00,METAR LGAV 261220Z 07008KT CAVOK 25/02 Q1014 NOSIG
2026-04-26 11:50:00,METAR LGAV 261150Z 04008KT 010V070 CAVOK 24/04 Q1014 NOSIG
2026-04-26 11:20:00,METAR LGAV 261120Z 06008KT 020V100 CAVOK 24/03 Q1014 NOSIG
2026-04-26 10:50:00,METAR LGAV 261050Z 06008KT CAVOK 24/03 Q1015 NOSIG
2026-04-26 10:20:00,METAR LGAV 261020Z 06008KT 020V090 CAVOK 24/01 Q1015 NOSIG
2026-04-26 09:50:00,METAR LGAV 260950Z 05007KT 010V100 CAVOK 23/02 Q1015 NOSIG
2026-04-26 09:20:00,METAR LGAV 260920Z 07007KT 020V100 CAVOK 23/01 Q1015 NOSIG
2026-04-26 08:50:00,METAR LGAV 260850Z 09004KT 050V130 CAVOK 23/05 Q1015 NOSIG
2026-04-26 08:20:00,METAR LGAV 260820Z VRB02KT CAVOK 22/07 Q1015 NOSIG
2026-04-26 07:50:00,METAR LGAV 260750Z VRB02KT CAVOK 21/06 Q1015 NOSIG
2026-04-26 07:20:00,METAR LGAV 260720Z VRB02KT CAVOK 20/06 Q1015 NOSIG
2026-04-26 06:50:00,METAR LGAV 260650Z VRB01KT CAVOK 20/03 Q1015 NOSIG
2026-04-26 06:20:00,METAR LGAV 260620Z VRB01KT CAVOK 18/04 Q1015 NOSIG
2026-04-26 05:50:00,METAR LGAV 260550Z VRB01KT CAVOK 16/04 Q1015 NOSIG
2026-04-26 05:20:00,METAR LGAV 260520Z VRB02KT CAVOK 14/05 Q1015 NOSIG
2026-04-26 04:50:00,METAR LGAV 260450Z VRB02KT CAVOK 11/04 Q1015 NOSIG
2026-04-26 04:20:00,METAR LGAV 260420Z 25001KT CAVOK 11/04 Q1014 NOSIG
2026-04-26 03:20:00,METAR LGAV 260320Z 27003KT 9999 FEW030 06/04 Q1014 NOSIG
2026-04-26 02:50:00,METAR LGAV 260250Z VRB02KT 9999 FEW030 07/05 Q1013 NOSIG
2026-04-26 01:50:00,METAR LGAV 260150Z 28005KT 9999 FEW030 07/05 Q1013 NOSIG
2026-04-26 01:20:00,METAR LGAV 260120Z 29001KT 9999 FEW030 08/06 Q1013 NOSIG
2026-04-26 00:50:00,METAR LGAV 260050Z 27003KT 9999 FEW030 06/04 Q1013 NOSIG
2026-04-26 00:20:00,METAR LGAV 260020Z 28003KT 9999 FEW030 07/04 Q1013 NOSIG
2026-04-25 23:50:00,METAR LGAV 252350Z 26002KT 9999 FEW030 08/05 Q1014 NOSIG
2026-04-25 23:20:00,METAR LGAV 252320Z 27003KT CAVOK 08/04 Q1014 NOSIG
2026-04-25 22:50:00,METAR LGAV 252250Z 27004KT CAVOK 10/04 Q1014 NOSIG
2026-04-25 22:20:00,METAR LGAV 252220Z 26004KT CAVOK 09/05 Q1014 NOSIG
2026-04-25 21:50:00,METAR LGAV 252150Z VRB02KT CAVOK 10/05 Q1014 NOSIG
2026-04-25 21:20:00,METAR LGAV 252120Z 27004KT 9999 FEW030 10/05 Q1014 NOSIG
2026-04-25 20:50:00,METAR LGAV 252050Z VRB01KT 9999 FEW030 10/05 Q1014 NOSIG
2026-04-25 20:20:00,METAR LGAV 252020Z VRB01KT 9999 FEW030 11/06 Q1014 NOSIG
2026-04-25 19:50:00,METAR LGAV 251950Z 06003KT 9999 FEW030 11/06 Q1014 NOSIG
2026-04-25 19:20:00,METAR LGAV 251920Z VRB02KT 9999 FEW030 14/04 Q1014 NOSIG
2026-04-25 18:50:00,METAR LGAV 251850Z VRB02KT 9999 FEW025 14/05 Q1014 NOSIG
2026-04-25 18:20:00,METAR LGAV 251820Z VRB01KT 9999 FEW030 14/06 Q1014 NOSIG
2026-04-25 17:50:00,METAR LGAV 251750Z VRB01KT 9999 FEW030 15/06 Q1014 NOSIG
2026-04-25 17:20:00,METAR LGAV 251720Z VRB02KT 9999 FEW030 15/06 Q1013 NOSIG
2026-04-25 16:50:00,METAR LGAV 251650Z 05005KT 9999 FEW030 16/06 Q1014 NOSIG
2026-04-25 16:20:00,METAR LGAV 251620Z 04007KT 9999 FEW030 17/06 Q1014 NOSIG
2026-04-25 15:50:00,METAR LGAV 251550Z 05009KT 9999 FEW030 17/06 Q1014 NOSIG
2026-04-25 15:20:00,METAR LGAV 251520Z 06011KT 9999 FEW030 17/06 Q1014 NOSIG
2026-04-25 14:50:00,METAR LGAV 251450Z 04010KT 9999 FEW030 BKN070 18/07 Q1014 NOSIG
2026-04-25 14:20:00,METAR LGAV 251420Z 02012KT 350V060 9999 FEW030 BKN070 17/08 Q1014 NOSIG
2026-04-25 13:50:00,METAR LGAV 251350Z 03010KT 9999 FEW030 BKN070 18/07 Q1014 NOSIG
2026-04-25 13:20:00,METAR LGAV 251320Z 04010KT 9999 FEW030 BKN070 17/07 Q1015 NOSIG
2026-04-25 12:50:00,METAR LGAV 251250Z 04011KT 9999 FEW030 BKN070 18/07 Q1015 NOSIG
2026-04-25 12:20:00,METAR LGAV 251220Z 04012KT 010V070 9999 FEW030 BKN070 18/06 Q1015 NOSIG
2026-04-25 11:50:00,METAR LGAV 251150Z 04010KT 020V080 9999 FEW030 BKN070 17/06 Q1015 NOSIG
2026-04-25 11:20:00,METAR LGAV 251120Z 05014KT 9999 FEW030 BKN070 18/05 Q1015 NOSIG
2026-04-25 10:50:00,METAR LGAV 251050Z 06014KT 9999 FEW030 18/04 Q1015 NOSIG
2026-04-25 10:20:00,METAR LGAV 251020Z 06015KT 9999 FEW030 18/04 Q1015 NOSIG
2026-04-25 09:50:00,METAR LGAV 250950Z 05014KT CAVOK 18/04 Q1015 NOSIG
2026-04-25 09:20:00,METAR LGAV 250920Z 03014KT CAVOK 19/04 Q1014 NOSIG
2026-04-25 08:50:00,METAR LGAV 250850Z 04016KT CAVOK 19/03 Q1015 NOSIG
2026-04-25 08:20:00,METAR LGAV 250820Z 04013KT CAVOK 19/03 Q1015 NOSIG
2026-04-25 07:50:00,METAR LGAV 250750Z 05015KT CAVOK 18/02 Q1015 NOSIG
2026-04-25 07:20:00,METAR LGAV 250720Z 04015KT 9999 FEW030 18/03 Q1015 NOSIG
2026-04-25 06:50:00,METAR LGAV 250650Z 04013KT 9999 FEW030 18/02 Q1015 NOSIG
2026-04-25 06:20:00,METAR LGAV 250620Z 04012KT 9999 FEW030 17/01 Q1014 NOSIG
2026-04-25 05:50:00,METAR LGAV 250550Z 03007KT 9999 FEW030 17/01 Q1014 NOSIG
2026-04-25 05:20:00,METAR LGAV 250520Z VRB01KT 9999 FEW030 16/01 Q1014 NOSIG
2026-04-25 04:50:00,METAR LGAV 250450Z 35003KT 9999 FEW030 14/01 Q1014 NOSIG
2026-04-25 04:20:00,METAR LGAV 250420Z 34003KT 9999 FEW030 11/02 Q1014 NOSIG
2026-04-25 03:50:00,METAR LGAV 250350Z 00000KT 9999 FEW030 07/01 Q1014 NOSIG
2026-04-25 03:20:00,METAR LGAV 250320Z VRB01KT 9999 FEW030 06/01 Q1013 NOSIG
2026-04-25 02:50:00,METAR LGAV 250250Z 28004KT 9999 FEW030 07/01 Q1013 NOSIG
2026-04-25 02:20:00,METAR LGAV 250220Z VRB03KT 9999 FEW030 06/02 Q1013 NOSIG
2026-04-25 01:50:00,METAR LGAV 250150Z 21004KT 9999 FEW030 06/02 Q1013 NOSIG
2026-04-25 01:20:00,METAR LGAV 250120Z VRB02KT 9999 FEW030 06/02 Q1013 NOSIG
2026-04-25 00:50:00,METAR LGAV 250050Z VRB03KT 9999 FEW030 05/02 Q1013 NOSIG
2026-04-25 00:20:00,METAR LGAV 250020Z 36004KT 9999 FEW030 06/03 Q1013 NOSIG
2026-04-24 23:50:00,METAR LGAV 242350Z VRB03KT 9999 FEW030 06/03 Q1013 NOSIG
2026-04-24 23:20:00,METAR LGAV 242320Z 16002KT 9999 FEW030 06/03 Q1014 NOSIG
2026-04-24 22:50:00,METAR LGAV 242250Z 35002KT 9999 FEW030 06/04 Q1014 NOSIG
2026-04-24 22:20:00,METAR LGAV 242220Z VRB03KT CAVOK 06/03 Q1014 NOSIG
2026-04-24 21:50:00,METAR LGAV 242150Z 27004KT 9999 FEW030 06/04 Q1014 NOSIG
2026-04-24 21:20:00,METAR LGAV 242120Z VRB03KT 9999 FEW030 08/04 Q1014 NOSIG
2026-04-24 20:50:00,METAR LGAV 242050Z 25003KT 9999 FEW030 07/04 Q1014 NOSIG
2026-04-24 20:20:00,METAR LGAV 242020Z VRB03KT 9999 FEW030 08/05 Q1014 NOSIG
2026-04-24 19:50:00,METAR LGAV 241950Z 02002KT 9999 FEW030 10/05 Q1014 NOSIG
2026-04-24 19:20:00,METAR LGAV 241920Z 30002KT 9999 FEW030 12/05 Q1014 NOSIG
2026-04-24 18:50:00,METAR LGAV 241850Z VRB02KT 9999 FEW030 14/06 Q1014 NOSIG
2026-04-24 18:20:00,METAR LGAV 241820Z VRB01KT 9999 FEW030 14/06 Q1014 NOSIG
2026-04-24 17:50:00,METAR LGAV 241750Z VRB02KT 9999 FEW030 14/05 Q1014 NOSIG
2026-04-24 17:20:00,METAR LGAV 241720Z 05005KT 020V080 9999 FEW030 15/04 Q1014 NOSIG
2026-04-24 16:50:00,METAR LGAV 241650Z 05007KT 9999 FEW030 16/05 Q1013 NOSIG
2026-04-24 16:20:00,METAR LGAV 241620Z 05008KT 9999 FEW030 16/05 Q1013 NOSIG
2026-04-24 15:50:00,METAR LGAV 241550Z 07008KT 030V100 9999 FEW030 16/05 Q1013 NOSIG
2026-04-24 15:20:00,METAR LGAV 241520Z 09010KT 9999 FEW030 17/05 Q1013
2026-04-24 14:50:00,METAR LGAV 241450Z 07011KT 9999 FEW030 18/05 Q1013 NOSIG
2026-04-24 14:20:00,METAR LGAV 241420Z 08010KT 9999 FEW030 18/05 Q1013 NOSIG
2026-04-24 13:50:00,METAR LGAV 241350Z 07010KT 9999 FEW030 18/02 Q1013 NOSIG
2026-04-24 13:20:00,METAR LGAV 241320Z 05010KT 020V080 9999 FEW030 18/04 Q1013 NOSIG
2026-04-24 12:50:00,METAR LGAV 241250Z 07009KT 030V090 9999 FEW030 18/04 Q1014 NOSIG
2026-04-24 12:20:00,METAR LGAV 241220Z 07009KT 020V100 9999 FEW030 18/05 Q1014 NOSIG
2026-04-24 11:50:00,METAR LGAV 241150Z 06009KT 020V100 9999 FEW030 18/03 Q1014 NOSIG
2026-04-24 11:20:00,METAR LGAV 241120Z 08011KT 9999 FEW030 18/04 Q1014 NOSIG
2026-04-24 10:50:00,METAR LGAV 241050Z 07010KT 9999 FEW030 18/02 Q1014 NOSIG
2026-04-24 10:20:00,METAR LGAV 241020Z 08011KT 040V110 9999 FEW030 18/05 Q1014 NOSIG
2026-04-24 09:50:00,METAR LGAV 240950Z 07010KT 9999 FEW030 17/04 Q1015 NOSIG
2026-04-24 09:20:00,METAR LGAV 240920Z 05009KT 010V090 9999 FEW030 17/04 Q1015 NOSIG
2026-04-24 08:50:00,METAR LGAV 240850Z 05011KT 9999 FEW030 17/03 Q1015 NOSIG
2026-04-24 08:20:00,METAR LGAV 240820Z 03009KT 360V070 9999 FEW030 17/04 Q1015 NOSIG
2026-04-24 07:50:00,METAR LGAV 240750Z 04008KT 010V070 CAVOK 16/04 Q1015 NOSIG
2026-04-24 07:20:00,METAR LGAV 240720Z 04006KT 350V070 9999 FEW030 16/05 Q1015 NOSIG
2026-04-24 06:50:00,METAR LGAV 240650Z 04004KT 360V110 9999 FEW030 15/05 Q1015 NOSIG
2026-04-24 06:20:00,METAR LGAV 240620Z 06005KT 020V100 9999 FEW030 14/05 Q1015 NOSIG
2026-04-24 05:50:00,METAR LGAV 240550Z VRB02KT 9999 FEW030 14/06 Q1015 NOSIG
2026-04-24 05:20:00,METAR LGAV 240520Z 00000KT 9999 FEW030 11/07 Q1015 NOSIG
2026-04-24 04:50:00,METAR LGAV 240450Z 00000KT 9999 FEW030 10/06 Q1015 NOSIG
2026-04-24 04:20:00,METAR LGAV 240420Z VRB02KT CAVOK 08/05 Q1015 NOSIG
2026-04-24 03:50:00,METAR LGAV 240350Z 30004KT 9999 FEW020 07/04 Q1015 NOSIG
2026-04-24 03:20:00,METAR LGAV 240320Z 27003KT 9999 FEW020 06/04 Q1014 NOSIG
2026-04-24 02:50:00,METAR LGAV 240250Z 28004KT 9999 FEW025 07/05 Q1014 NOSIG
2026-04-24 02:20:00,METAR LGAV 240220Z 27004KT 9999 FEW025 06/04 Q1014 NOSIG
2026-04-24 01:50:00,METAR LGAV 240150Z 30004KT 9999 FEW025 06/05 Q1014 NOSIG
2026-04-24 01:20:00,METAR LGAV 240120Z VRB02KT 9999 FEW025 06/05 Q1014 NOSIG
2026-04-24 00:50:00,METAR LGAV 240050Z VRB02KT 9999 FEW025 08/06 Q1014 NOSIG
2026-04-24 00:20:00,METAR LGAV 240020Z VRB02KT 9999 FEW025 07/06 Q1014 NOSIG
2026-04-23 23:50:00,METAR LGAV 232350Z VRB01KT 9999 FEW025 08/06 Q1014 NOSIG
2026-04-23 23:20:00,METAR LGAV 232320Z VRB02KT 9999 FEW025 08/06 Q1015 NOSIG
2026-04-23 22:50:00,METAR LGAV 232250Z VRB01KT 9999 SCT025 09/06 Q1015 NOSIG
2026-04-23 22:20:00,METAR LGAV 232220Z VRB01KT 9999 FEW020 SCT035 09/07 Q1015 NOSIG
2026-04-23 21:50:00,METAR LGAV 232150Z 00000KT 9999 FEW020 SCT035 10/07 Q1015 NOSIG
2026-04-23 21:20:00,METAR LGAV 232120Z VRB02KT 9999 FEW020 SCT035 11/07 Q1015 NOSIG
2026-04-23 20:50:00,METAR LGAV 232050Z 01005KT 9999 FEW020 SCT035 11/07 Q1015 NOSIG
2026-04-23 20:20:00,METAR LGAV 232020Z 03009KT 9999 FEW020 SCT035 11/07 Q1015 NOSIG
2026-04-23 19:50:00,METAR LGAV 231950Z 03008KT 9999 FEW020 SCT035 12/07 Q1015 NOSIG
2026-04-23 19:20:00,METAR LGAV 231920Z 04005KT 9999 FEW020 BKN035 12/07 Q1015 NOSIG
2026-04-23 18:50:00,METAR LGAV 231850Z 04005KT 9999 FEW020 BKN035 12/07 Q1015 NOSIG
2026-04-23 18:20:00,METAR LGAV 231820Z 03004KT 9999 FEW020 BKN035 12/07 Q1014 NOSIG
2026-04-23 17:50:00,METAR LGAV 231750Z 03007KT 9999 FEW018 BKN025 13/07 Q1014 NOSIG
2026-04-23 17:20:00,METAR LGAV 231720Z 03008KT 9999 FEW018 BKN025 13/06 Q1014 NOSIG
2026-04-23 16:50:00,METAR LGAV 231650Z 03009KT 9999 FEW018 BKN025 13/06 Q1014 NOSIG
2026-04-23 16:20:00,METAR LGAV 231620Z 03008KT 9999 FEW018 SCT025 13/07 Q1014 NOSIG
2026-04-23 15:50:00,METAR LGAV 231550Z 04010KT 9999 FEW018 BKN025 14/07 Q1014 NOSIG
2026-04-23 15:20:00,METAR LGAV 231520Z 03010KT 9999 FEW018 BKN025 14/07 Q1014 NOSIG
2026-04-23 14:50:00,METAR LGAV 231450Z 04013KT 9999 FEW018 BKN025 15/07 Q1014 NOSIG
2026-04-23 14:20:00,METAR LGAV 231420Z 36013KT 9999 FEW018 BKN025 14/08 Q1014 NOSIG
2026-04-23 13:50:00,METAR LGAV 231350Z 02012KT 9999 FEW018 BKN025 15/08 Q1014 NOSIG
2026-04-23 13:20:00,METAR LGAV 231320Z 02015KT 9999 FEW018 BKN030 15/08 Q1014 NOSIG
2026-04-23 12:50:00,METAR LGAV 231250Z 03010KT 9999 SCT018 BKN030 13/08 Q1014 NOSIG
2026-04-23 12:20:00,METAR LGAV 231220Z 02010KT 350V070 9999 SCT018 BKN030 14/08 Q1015 NOSIG
2026-04-23 11:50:00,METAR LGAV 231150Z 01010KT 9999 SCT018 BKN030 14/08 Q1015 NOSIG
2026-04-23 11:20:00,METAR LGAV 231120Z 04011KT 9999 SCT018 BKN030 15/07 Q1015 NOSIG
2026-04-23 10:50:00,METAR LGAV 231050Z 02009KT 9999 SCT018 BKN030 15/08 Q1015 NOSIG
2026-04-23 10:20:00,METAR LGAV 231020Z 03010KT 350V060 9999 SCT018 BKN030 14/07 Q1015 NOSIG
2026-04-23 09:50:00,METAR LGAV 230950Z 03012KT 9999 SCT018 BKN030 14/09 Q1015 NOSIG
2026-04-23 09:20:00,METAR LGAV 230920Z 03011KT 9999 FEW020 BKN030 14/09 Q1015 NOSIG
2026-04-23 08:50:00,METAR LGAV 230850Z 03010KT 9999 FEW018 BKN030 13/08 Q1015 NOSIG
2026-04-23 08:20:00,METAR LGAV 230820Z 02008KT 9999 FEW018 BKN030 13/08 Q1015 NOSIG
2026-04-23 07:50:00,METAR LGAV 230750Z 03008KT 9999 DZ FEW018 BKN030 12/08 Q1015 NOSIG
2026-04-23 07:20:00,METAR LGAV 230720Z 03007KT 360V060 9999 FEW018 BKN030 12/08 Q1015 NOSIG
2026-04-23 06:50:00,METAR LGAV 230650Z 02007KT 9999 -RA FEW018 BKN030 11/08 Q1015 NOSIG
2026-04-23 06:20:00,METAR LGAV 230620Z 02009KT 9999 -RA SCT018 BKN030 11/08 Q1015 NOSIG
2026-04-23 05:50:00,METAR LGAV 230550Z 02009KT 9000 -RA SCT018 BKN030 11/08 Q1015 NOSIG
2026-04-23 05:20:00,METAR LGAV 230520Z 03009KT 9999 FEW018 BKN030 11/08 Q1014 NOSIG
2026-04-23 04:50:00,METAR LGAV 230450Z 02007KT 9999 -RA FEW018 BKN030 11/08 Q1014 NOSIG
2026-04-23 04:20:00,METAR LGAV 230420Z 02012KT 9999 DZ FEW018 BKN030 11/08 Q1014 NOSIG
2026-04-23 03:50:00,METAR LGAV 230350Z 03011KT 9999 DZ FEW018 BKN030 11/08 Q1013 NOSIG
2026-04-23 03:20:00,METAR LGAV 230320Z 01011KT 9999 FEW020 BKN030 11/09 Q1013 NOSIG
2026-04-23 02:50:00,METAR LGAV 230250Z 01013KT 9999 FEW020 BKN030 11/09 Q1012 NOSIG
2026-04-23 02:20:00,METAR LGAV 230220Z 01013KT 9999 FEW018 BKN025 11/09 Q1013 NOSIG
2026-04-23 01:50:00,METAR LGAV 230150Z 04010KT 9999 FEW018 BKN025 11/09 Q1012 NOSIG
2026-04-23 01:20:00,METAR LGAV 230120Z 04010KT 9999 DZ FEW015 BKN025 11/10 Q1012 NOSIG
2026-04-23 00:50:00,METAR LGAV 230050Z 04010KT 9999 DZ FEW018 BKN025 12/10 Q1013 NOSIG
2026-04-23 00:20:00,METAR LGAV 230020Z 03011KT 9999 FEW018 BKN025 12/10 Q1013 NOSIG
2026-04-22 23:50:00,METAR LGAV 222350Z 03010KT 9999 FEW018 BKN025 13/09 Q1013 NOSIG
2026-04-22 23:20:00,METAR LGAV 222320Z 04005KT 010V070 9999 FEW018 BKN025 13/10 Q1012 NOSIG
2026-04-22 22:50:00,METAR LGAV 222250Z 04007KT 9999 FEW018 BKN025 13/09 Q1012 NOSIG
2026-04-22 22:20:00,METAR LGAV 222220Z 05004KT 360V080 9999 FEW018 BKN025 13/09 Q1012 NOSIG
2026-04-22 21:50:00,METAR LGAV 222150Z VRB03KT 9999 FEW018 BKN025 13/09 Q1013 NOSIG
2026-04-22 21:20:00,METAR LGAV 222120Z 05008KT 9999 FEW018 BKN025 13/10 Q1012 NOSIG
2026-04-22 20:50:00,METAR LGAV 222050Z 04010KT 9999 FEW018 BKN025 13/10 Q1013 NOSIG
2026-04-22 20:20:00,METAR LGAV 222020Z 04007KT 9999 FEW015 BKN025 13/10 Q1013 NOSIG
2026-04-22 19:50:00,METAR LGAV 221950Z 01010KT 9999 FEW015 BKN025 13/10 Q1013 NOSIG
2026-04-22 19:20:00,METAR LGAV 221920Z 04011KT 9999 FEW015 BKN025 14/10 Q1013 NOSIG
2026-04-22 18:50:00,METAR LGAV 221850Z 04011KT 9999 FEW015 BKN025 14/11 Q1013 NOSIG
2026-04-22 18:20:00,METAR LGAV 221820Z 04012KT 9999 FEW015 BKN025 14/11 Q1013 NOSIG
2026-04-22 17:50:00,METAR LGAV 221750Z 04012KT 9999 FEW015 BKN025 14/11 Q1012 NOSIG
2026-04-22 17:20:00,METAR LGAV 221720Z 04013KT 9999 SCT015 BKN025 14/11 Q1012 NOSIG
2026-04-22 16:50:00,METAR LGAV 221650Z 04015KT 9999 SCT015 BKN025 15/11 Q1012 NOSIG
2026-04-22 16:20:00,METAR LGAV 221620Z 03013KT 9000 SCT015 BKN025 15/11 Q1012 NOSIG
2026-04-22 15:50:00,METAR LGAV 221550Z COR 04012KT 9000 SCT015 BKN025 15/12 Q1012 NOSIG
2026-04-22 15:20:00,METAR LGAV 221520Z 04012KT 9999 FEW018 BKN025 16/12 Q1012 NOSIG
2026-04-22 14:50:00,METAR LGAV 221450Z 04012KT 9999 FEW018 BKN025 17/12 Q1012 NOSIG
2026-04-22 14:20:00,METAR LGAV 221420Z 02012KT 9999 FEW018 BKN025 18/13 Q1012 NOSIG
2026-04-22 13:50:00,METAR LGAV 221350Z 04009KT 9999 FEW018 BKN025 18/12 Q1012 NOSIG
2026-04-22 13:20:00,METAR LGAV 221320Z 05009KT 010V080 9999 FEW018 BKN025 18/13 Q1012 NOSIG
2026-04-22 12:50:00,METAR LGAV 221250Z 08010KT 040V120 9999 SCT018 BKN025 19/13 Q1012 NOSIG
2026-04-22 12:20:00,METAR LGAV 221220Z 07009KT 9999 FEW015 BKN020 19/14 Q1013 NOSIG
2026-04-22 11:50:00,METAR LGAV 221150Z 08009KT 050V110 9999 SCT015 20/14 Q1012 NOSIG
2026-04-22 11:20:00,METAR LGAV 221120Z 09009KT 9999 SCT025 19/13 Q1012 NOSIG
2026-04-22 10:50:00,METAR LGAV 221050Z 08010KT 9999 SCT025 20/12 Q1012 NOSIG
2026-04-22 10:20:00,METAR LGAV 221020Z 08011KT 9999 SCT025 20/12 Q1012 NOSIG
2026-04-22 09:50:00,METAR LGAV 220950Z 08010KT 9999 SCT025 20/12 Q1012 NOSIG
2026-04-22 09:20:00,METAR LGAV 220920Z 08010KT 9999 SCT025 20/12 Q1012 NOSIG
2026-04-22 08:50:00,METAR LGAV 220850Z 06005KT 340V230 9999 FEW025 21/12 Q1012 NOSIG
2026-04-22 08:20:00,METAR LGAV 220820Z 10004KT 030V180 9999 FEW025 20/12 Q1012 NOSIG
2026-04-22 07:50:00,METAR LGAV 220750Z 08005KT 030V120 9999 FEW025 20/12 Q1012 NOSIG
2026-04-22 07:20:00,METAR LGAV 220720Z VRB03KT 9999 FEW025 20/12 Q1012 NOSIG
2026-04-22 06:50:00,METAR LGAV 220650Z VRB03KT 9999 FEW025 19/13 Q1012 NOSIG
2026-04-22 06:20:00,METAR LGAV 220620Z VRB03KT 9999 FEW025 18/13 Q1012 NOSIG0
2026-04-22 05:50:00,METAR LGAV 220550Z VRB01KT 9999 FEW025 17/13 Q1012 NOSIG
2026-04-22 05:20:00,METAR LGAV 220520Z 00000KT 9999 FEW020 14/11 Q1012 NOSIG
2026-04-22 04:50:00,METAR LGAV 220450Z VRB01KT 9999 FEW020 13/10 Q1012 NOSIG
2026-04-22 04:20:00,METAR LGAV 220420Z 27003KT 9999 FEW020 13/10 Q1012 NOSIG
2026-04-22 03:50:00,METAR LGAV 220350Z VRB02KT 9999 FEW025 13/10 Q1011 NOSIG
2026-04-22 03:20:00,METAR LGAV 220320Z 31002KT 9999 FEW025 11/10 Q1011 NOSIG
2026-04-22 02:50:00,METAR LGAV 220250Z 27003KT 9999 FEW025 10/08 Q1011 NOSIG
2026-04-22 02:20:00,METAR LGAV 220220Z VRB01KT 9999 FEW025 10/08 Q1011 NOSIG
2026-04-22 01:50:00,METAR LGAV 220150Z 31002KT 9999 FEW025 11/10 Q1012 NOSIG
2026-04-22 01:20:00,METAR LGAV 220120Z VRB03KT 9999 FEW025 12/10 Q1012 NOSIG
2026-04-22 00:50:00,METAR LGAV 220050Z 32002KT 9999 FEW025 12/11 Q1012 NOSIG
2026-04-22 00:20:00,METAR LGAV 220020Z VRB01KT 9999 FEW025 13/11 Q1012 NOSIG
2026-04-21 23:50:00,METAR LGAV 212350Z VRB02KT 9999 FEW025 14/12 Q1012 NOSIG
2026-04-21 23:20:00,METAR LGAV 212320Z VRB02KT 9999 FEW030 14/12 Q1012 NOSIG
2026-04-21 22:50:00,METAR LGAV 212250Z 03004KT 350V070 9999 FEW025 15/12 Q1012 NOSIG
2026-04-21 22:20:00,METAR LGAV 212220Z VRB03KT 9999 FEW025 16/09 Q1012 NOSIG
2026-04-21 21:50:00,METAR LGAV 212150Z 07004KT 020V110 9999 FEW025 18/09 Q1012 NOSIG
2026-04-21 21:20:00,METAR LGAV 212120Z VRB02KT 9999 FEW025 16/10 Q1011 NOSIG
2026-04-21 20:50:00,METAR LGAV 212050Z VRB02KT 9999 FEW025 15/10 Q1012 NOSIG
2026-04-21 20:20:00,METAR LGAV 212020Z VRB01KT 9999 FEW025 16/10 Q1012 NOSIG
2026-04-21 19:50:00,METAR LGAV 211950Z VRB01KT 9999 FEW025 16/10 Q1012 NOSIG
2026-04-21 19:20:00,METAR LGAV 211920Z 24002KT 9999 FEW025 17/10 Q1012 NOSIG
2026-04-21 18:50:00,METAR LGAV 211850Z 23005KT 9999 FEW025 17/10 Q1011 NOSIG
2026-04-21 18:20:00,METAR LGAV 211820Z 24003KT 9999 SCT025 17/08 Q1011 NOSIG
2026-04-21 17:50:00,METAR LGAV 211750Z 22006KT 9999 SCT025 18/08 Q1011 NOSIG
2026-04-21 17:20:00,METAR LGAV 211720Z 22006KT 9999 FEW025 18/08 Q1011 NOSIG
2026-04-21 16:50:00,METAR LGAV 211650Z 24007KT 9999 FEW025 19/08 Q1011 NOSIG RMK FEW080 SCT180
2026-04-21 16:20:00,METAR LGAV 211620Z 24007KT 9999 FEW025 20/07 Q1011 NOSIG
2026-04-21 15:50:00,METAR LGAV 211550Z 22008KT 9999 FEW025 21/08 Q1011 NOSIG
2026-04-21 15:20:00,METAR LGAV 211520Z 24009KT 9999 FEW025 21/08 Q1011 NOSIG
2026-04-21 14:50:00,METAR LGAV 211450Z 22013KT 9999 FEW025 22/07 Q1011 NOSIG
2026-04-21 14:20:00,METAR LGAV 211420Z 22014KT 9999 FEW025 22/07 Q1011 NOSIG
2026-04-21 13:50:00,METAR LGAV 211350Z 22014KT 9999 FEW025 22/07 Q1011 NOSIG
2026-04-21 13:20:00,METAR LGAV 211320Z 21014KT 9999 FEW025 23/06 Q1011 NOSIG
2026-04-21 12:50:00,METAR LGAV 211250Z 21013KT 9999 FEW025 22/09 Q1011 NOSIG
2026-04-21 12:20:00,METAR LGAV 211220Z 22014KT 9999 FEW025 23/09 Q1011 NOSIG
2026-04-21 11:50:00,METAR LGAV 211150Z 21012KT 9999 FEW025 23/09 Q1012 NOSIG
2026-04-21 11:20:00,METAR LGAV 211120Z 21012KT 9999 FEW025 24/08 Q1012 NOSIG
2026-04-21 10:50:00,METAR LGAV 211050Z 21013KT 9999 FEW025 25/09 Q1012 NOSIG
2026-04-21 10:20:00,METAR LGAV 211020Z 19009KT 9999 FEW025 24/11 Q1012 NOSIG
2026-04-21 09:50:00,METAR LGAV 210950Z 17009KT 140V200 9999 FEW025 24/11 Q1012 NOSIG
2026-04-21 09:20:00,METAR LGAV 210920Z 14007KT 070V190 9999 FEW025 24/10 Q1012 NOSIG
2026-04-21 08:50:00,METAR LGAV 210850Z 13007KT 9999 FEW025 23/11 Q1013 NOSIG
2026-04-21 08:20:00,METAR LGAV 210820Z VRB03KT 9999 FEW025 23/10 Q1013 NOSIG
2026-04-21 07:50:00,METAR LGAV 210750Z VRB02KT CAVOK 23/10 Q1013 NOSIG
2026-04-21 07:20:00,METAR LGAV 210720Z VRB02KT CAVOK 21/11 Q1013 NOSIG
2026-04-21 06:50:00,METAR LGAV 210650Z VRB02KT CAVOK 20/11 Q1013 NOSIG
2026-04-21 06:20:00,METAR LGAV 210620Z VRB03KT CAVOK 19/11 Q1013 NOSIG
2026-04-21 05:50:00,METAR LGAV 210550Z VRB02KT CAVOK 18/10 Q1013 NOSIG
2026-04-21 05:20:00,METAR LGAV 210520Z VRB01KT CAVOK 16/10 Q1013 NOSIG
2026-04-21 04:50:00,METAR LGAV 210450Z 25002KT 9999 FEW025 13/09 Q1013 NOSIG
2026-04-21 04:20:00,METAR LGAV 210420Z VRB02KT 9999 FEW025 12/08 Q1013 NOSIG
2026-04-21 03:50:00,METAR LGAV 210350Z VRB01KT 9999 FEW030 12/08 Q1012 NOSIG
2026-04-21 03:20:00,METAR LGAV 210320Z VRB01KT 9999 FEW030 12/09 Q1012 NOSIG
2026-04-21 02:50:00,METAR LGAV 210250Z VRB02KT CAVOK 12/09 Q1012 NOSIG
2026-04-21 02:20:00,METAR LGAV 210220Z COR VRB02KT CAVOK 12/09 Q1012 NOSIG
2026-04-21 01:50:00,METAR LGAV 210150Z VRB01KT CAVOK 16/10 Q1012 NOSIG
2026-04-21 01:20:00,METAR LGAV 210120Z 00000KT CAVOK 13/08 Q1013 NOSIG
2026-04-21 00:50:00,METAR LGAV 210050Z VRB03KT CAVOK 13/09 Q1013 NOSIG
2026-04-21 00:20:00,METAR LGAV 210020Z VRB01KT CAVOK 14/09 Q1013 NOSIG
2026-04-20 23:50:00,METAR LGAV 202350Z VRB01KT CAVOK 14/09 Q1013 NOSIG
2026-04-20 23:20:00,METAR LGAV 202320Z VRB03KT CAVOK 13/08 Q1013 NOSIG
2026-04-20 22:50:00,METAR LGAV 202250Z VRB03KT CAVOK 15/09 Q1013 NOSIG
2026-04-20 22:20:00,METAR LGAV 202220Z VRB02KT CAVOK 16/08 Q1013 NOSIG
2026-04-20 21:50:00,METAR LGAV 202150Z 05004KT CAVOK 14/08 Q1013 NOSIG
2026-04-20 20:50:00,METAR LGAV 202050Z 23005KT CAVOK 17/08 Q1013 NOSIG
2026-04-20 20:20:00,METAR LGAV 202020Z VRB03KT CAVOK 15/08 Q1013 NOSIG
2026-04-20 19:50:00,METAR LGAV 201950Z VRB03KT CAVOK 15/08 Q1013 NOSIG
2026-04-20 19:20:00,METAR LGAV 201920Z 23004KT 210V300 CAVOK 16/08 Q1013 NOSIG
2026-04-20 18:50:00,METAR LGAV 201850Z 22007KT CAVOK 16/09 Q1013 NOSIG
2026-04-20 18:20:00,METAR LGAV 201820Z 23006KT CAVOK 17/09 Q1013 NOSIG
2026-04-20 17:50:00,METAR LGAV 201750Z 23005KT CAVOK 16/10 Q1013 NOSIG
2026-04-20 17:20:00,METAR LGAV 201720Z 22010KT CAVOK 16/10 Q1013 NOSIG
2026-04-20 16:50:00,METAR LGAV 201650Z 22010KT CAVOK 17/10 Q1012 NOSIG
2026-04-20 16:20:00,METAR LGAV 201620Z 22011KT CAVOK 18/09 Q1012 NOSIG
2026-04-20 15:50:00,METAR LGAV 201550Z 22012KT 9999 FEW030 19/10 Q1012 NOSIG
2026-04-20 15:20:00,METAR LGAV 201520Z 22014KT 9999 FEW030 19/10 Q1012 NOSIG
2026-04-20 14:50:00,METAR LGAV 201450Z 22015KT 9999 FEW030 20/10 Q1012 NOSIG
2026-04-20 14:20:00,METAR LGAV 201420Z 22014KT 9999 FEW030 21/09 Q1013 NOSIG
2026-04-20 13:50:00,METAR LGAV 201350Z 22013KT 9999 FEW030 22/09 Q1013 NOSIG
2026-04-20 13:20:00,METAR LGAV 201320Z 22013KT 9999 FEW030 22/09 Q1013 NOSIG
2026-04-20 12:50:00,METAR LGAV 201250Z 24012KT 9999 FEW030 22/10 Q1013 NOSIG
2026-04-20 12:20:00,METAR LGAV 201220Z 25010KT 220V300 9999 FEW030 23/10 Q1014 NOSIG
2026-04-20 11:50:00,METAR LGAV 201150Z 21013KT 9999 FEW030 23/11 Q1014 NOSIG
2026-04-20 11:20:00,METAR LGAV 201120Z 21014KT 9999 FEW030 23/10 Q1014 NOSIG
2026-04-20 10:50:00,METAR LGAV 201050Z 24008KT 200V280 9999 FEW030 24/09 Q1014 NOSIG
2026-04-20 10:20:00,METAR LGAV 201020Z 07007KT 020V120 9999 FEW030 22/11 Q1014 NOSIG
2026-04-20 09:50:00,METAR LGAV 200950Z 07007KT 030V100 9999 FEW030 21/11 Q1015 NOSIG
2026-04-20 09:20:00,METAR LGAV 200920Z 13005KT 100V190 9999 FEW025 21/11 Q1015 NOSIG
2026-04-20 08:50:00,METAR LGAV 200850Z 15007KT 120V190 9999 FEW025 21/11 Q1015 NOSIG
2026-04-20 08:20:00,METAR LGAV 200820Z 16006KT 130V210 CAVOK 21/11 Q1015 NOSIG
2026-04-20 07:50:00,METAR LGAV 200750Z VRB02KT CAVOK 20/11 Q1015 NOSIG
2026-04-20 07:20:00,METAR LGAV 200720Z VRB01KT CAVOK 19/10 Q1015 NOSIG
2026-04-20 06:50:00,METAR LGAV 200650Z VRB01KT CAVOK 19/10 Q1015 NOSIG
2026-04-20 06:20:00,METAR LGAV 200620Z 00000KT CAVOK 18/10 Q1015 NOSIG
2026-04-20 05:50:00,METAR LGAV 200550Z 00000KT CAVOK 17/10 Q1016 NOSIG
2026-04-20 05:20:00,METAR LGAV 200520Z VRB01KT CAVOK 15/10 Q1016 NOSIG
2026-04-20 04:50:00,METAR LGAV 200450Z 00000KT CAVOK 12/09 Q1016 NOSIG
2026-04-20 04:20:00,METAR LGAV 200420Z VRB02KT CAVOK 11/07 Q1016 NOSIG
2026-04-20 03:50:00,METAR LGAV 200350Z 33003KT CAVOK 11/07 Q1016 NOSIG
2026-04-20 03:20:00,METAR LGAV 200320Z 27004KT CAVOK 07/06 Q1016 NOSIG
2026-04-20 02:50:00,METAR LGAV 200250Z VRB01KT CAVOK 08/06 Q1016 NOSIG
2026-04-20 02:20:00,METAR LGAV 200220Z 26003KT CAVOK 08/06 Q1016 NOSIG
2026-04-20 01:50:00,METAR LGAV 200150Z VRB01KT CAVOK 08/06 Q1016 NOSIG
2026-04-20 01:20:00,METAR LGAV 200120Z 01003KT CAVOK 09/06 Q1016 NOSIG
2026-04-20 00:50:00,METAR LGAV 200050Z 02003KT CAVOK 10/07 Q1016 NOSIG
2026-04-20 00:20:00,METAR LGAV 200020Z VRB01KT CAVOK 10/07 Q1016 NOSIG
2026-04-19 23:50:00,METAR LGAV 192350Z 01001KT CAVOK 11/07 Q1016 NOSIG
2026-04-19 23:20:00,METAR LGAV 192320Z VRB01KT CAVOK 11/08 Q1017 NOSIG
2026-04-19 22:50:00,METAR LGAV 192250Z VRB03KT CAVOK 13/08 Q1017 NOSIG
2026-04-19 22:20:00,METAR LGAV 192220Z VRB02KT CAVOK 11/08 Q1017 NOSIG
2026-04-19 21:50:00,METAR LGAV 192150Z VRB01KT CAVOK 12/08 Q1017 NOSIG
2026-04-19 21:20:00,METAR LGAV 192120Z VRB01KT CAVOK 13/09 Q1017 NOSIG
2026-04-19 20:50:00,METAR LGAV 192050Z 26002KT CAVOK 14/09 Q1017 NOSIG
2026-04-19 20:20:00,METAR LGAV 192020Z VRB01KT CAVOK 12/07 Q1017 NOSIG
2026-04-19 19:50:00,METAR LGAV 191950Z 28004KT CAVOK 13/08 Q1017 NOSIG
2026-04-19 19:20:00,METAR LGAV 191920Z 29002KT CAVOK 15/08 Q1017 NOSIG
2026-04-19 18:50:00,METAR LGAV 191850Z 29003KT CAVOK 14/09 Q1017 NOSIG
2026-04-19 18:20:00,METAR LGAV 191820Z 30002KT CAVOK 14/08 Q1016 NOSIG
2026-04-19 17:50:00,METAR LGAV 191750Z 16003KT CAVOK 14/09 Q1016 NOSIG
2026-04-19 17:20:00,METAR LGAV 191720Z 17004KT 130V200 CAVOK 15/09 Q1016 NOSIG
2026-04-19 16:50:00,METAR LGAV 191650Z 13004KT 9999 FEW025 16/09 Q1016 NOSIG
2026-04-19 16:20:00,METAR LGAV 191620Z 09004KT 040V120 9999 FEW025 18/07 Q1016 NOSIG
2026-04-19 15:50:00,METAR LGAV 191550Z 07004KT 9999 FEW025 19/07 Q1016 NOSIG
2026-04-19 15:20:00,METAR LGAV 191520Z 09005KT 050V130 9999 FEW025 19/07 Q1016 NOSIG
2026-04-19 14:50:00,METAR LGAV 191450Z 08005KT 050V110 9999 SCT025 20/06 Q1016 NOSIG
2026-04-19 14:20:00,METAR LGAV 191420Z 06005KT 020V090 9999 SCT025 20/07 Q1016 NOSIG
2026-04-19 13:50:00,METAR LGAV 191350Z 07006KT 9999 SCT025 19/07 Q1016 NOSIG
2026-04-19 13:20:00,METAR LGAV 191320Z 06006KT 020V090 9999 SCT025 20/07 Q1016 NOSIG
2026-04-19 12:50:00,METAR LGAV 191250Z 08005KT 050V120 9999 SCT025 20/08 Q1017 NOSIG
2026-04-19 12:20:00,METAR LGAV 191220Z 07007KT 030V100 9999 SCT025 20/08 Q1017 NOSIG
2026-04-19 11:50:00,METAR LGAV 191150Z 07008KT 9999 SCT025 20/08 Q1017 NOSIG
2026-04-19 11:20:00,METAR LGAV 191120Z 07011KT 9999 SCT025 20/06 Q1017 NOSIG
2026-04-19 10:50:00,METAR LGAV 191050Z 08011KT 9999 SCT025 20/06 Q1017 NOSIG
2026-04-19 10:20:00,METAR LGAV 191020Z 06011KT 9999 SCT025 20/04 Q1017 NOSIG
2026-04-19 09:50:00,METAR LGAV 190950Z 05012KT 9999 SCT025 19/04 Q1017 NOSIG
2026-04-19 09:20:00,METAR LGAV 190920Z 05011KT 010V080 9999 SCT025 19/07 Q1017 NOSIG
2026-04-19 08:50:00,METAR LGAV 190850Z 04010KT 9999 FEW025 19/06 Q1018 NOSIG
2026-04-19 08:20:00,METAR LGAV 190820Z 05011KT 9999 FEW025 18/07 Q1018 NOSIG
2026-04-19 07:50:00,METAR LGAV 190750Z 04012KT 9999 FEW025 18/07 Q1017 NOSIG
2026-04-19 07:20:00,METAR LGAV 190720Z 04011KT 9999 FEW025 18/06 Q1017 NOSIG
2026-04-19 06:50:00,METAR LGAV 190650Z 05007KT 010V070 9999 FEW025 18/06 Q1017 NOSIG
2026-04-19 06:20:00,METAR LGAV 190620Z 03005KT 350V060 9999 FEW025 17/06 Q1017 NOSIG
2026-04-19 05:50:00,METAR LGAV 190550Z 01006KT 330V060 9999 FEW025 16/06 Q1017 NOSIG
2026-04-19 05:20:00,METAR LGAV 190520Z VRB02KT 9999 FEW025 16/06 Q1016 NOSIG
2026-04-19 04:50:00,METAR LGAV 190450Z 02004KT 9999 FEW025 14/06 Q1016 NOSIG
2026-04-19 04:20:00,METAR LGAV 190420Z VRB01KT 9999 FEW025 14/06 Q1016 NOSIG
2026-04-19 03:50:00,METAR LGAV 190350Z 35003KT 9999 FEW025 14/05 Q1016 NOSIG
2026-04-19 03:20:00,METAR LGAV 190320Z 36008KT 9999 FEW025 11/06 Q1016 NOSIG
2026-04-19 02:50:00,METAR LGAV 190250Z 36008KT 9999 FEW025 12/06 Q1016 NOSIG
2026-04-19 02:20:00,METAR LGAV 190220Z 35005KT 9999 FEW025 12/06 Q1015 NOSIG
2026-04-19 01:50:00,METAR LGAV 190150Z 35004KT 310V020 9999 FEW025 13/06 Q1016 NOSIG
2026-04-19 01:20:00,METAR LGAV 190120Z VRB03KT 9999 FEW025 14/06 Q1016 NOSIG
2026-04-19 00:50:00,METAR LGAV 190050Z VRB03KT 9999 FEW025 15/06 Q1016 NOSIG
2026-04-19 00:20:00,METAR LGAV 190020Z 01007KT 9999 FEW025 15/06 Q1015 NOSIG
2026-04-18 23:50:00,METAR LGAV 182350Z 02007KT 9999 FEW025 15/07 Q1015 NOSIG
2026-04-18 23:20:00,METAR LGAV 182320Z 02005KT 350V060 9999 FEW025 15/07 Q1015 NOSIG
2026-04-18 22:50:00,METAR LGAV 182250Z 32004KT 290V350 9999 FEW025 15/06 Q1015 NOSIG
2026-04-18 22:20:00,METAR LGAV 182220Z 36009KT 9999 FEW025 15/06 Q1015 NOSIG
2026-04-18 21:50:00,METAR LGAV 182150Z 01016KT 9999 FEW025 15/06 Q1015 NOSIG
2026-04-18 21:20:00,METAR LGAV 182120Z 01013KT 9999 FEW025 15/06 Q1015 NOSIG
2026-04-18 20:50:00,METAR LGAV 182050Z 02009KT 350V060 9999 FEW025 15/05 Q1015 NOSIG
2026-04-18 20:20:00,METAR LGAV 182020Z 02014KT 9999 FEW025 16/06 Q1015 NOSIG
2026-04-18 19:50:00,METAR LGAV 181950Z 02013KT 9999 FEW025 16/06 Q1014 NOSIG
2026-04-18 19:20:00,METAR LGAV 181920Z 03008KT 9999 FEW025 16/06 Q1014 NOSIG
2026-04-18 18:50:00,METAR LGAV 181850Z 03011KT 9999 FEW025 16/05 Q1014 NOSIG
2026-04-18 18:20:00,METAR LGAV 181820Z 02008KT 9999 FEW025 16/05 Q1014 NOSIG
2026-04-18 17:50:00,METAR LGAV 181750Z 01007KT 9999 FEW025 16/04 Q1013 NOSIG
2026-04-18 17:20:00,METAR LGAV 181720Z 01009KT 9999 FEW025 16/03 Q1013 NOSIG
2026-04-18 16:50:00,METAR LGAV 181650Z 01012KT 9999 FEW025 17/03 Q1012 NOSIG
2026-04-18 16:20:00,METAR LGAV 181620Z 01008KT 330V050 9999 FEW025 18/03 Q1012 NOSIG
2026-04-18 15:50:00,METAR LGAV 181550Z 01007KT 340V050 9999 FEW025 SCT070 18/03 Q1012 NOSIG
2026-04-18 14:50:00,METAR LGAV 181450Z 02016KT 9999 FEW025 19/03 Q1012 NOSIG
2026-04-18 14:20:00,METAR LGAV 181420Z 03017KT 9999 FEW025 19/03 Q1011 NOSIG
2026-04-18 13:50:00,METAR LGAV 181350Z 04014KT 9999 FEW025 20/04 Q1011 NOSIG
2026-04-18 13:20:00,METAR LGAV 181320Z 02016KT 9999 FEW025 20/04 Q1012 NOSIG
2026-04-18 12:50:00,METAR LGAV 181250Z 03016KT 010V080 9999 FEW025 19/02 Q1012 NOSIG
2026-04-18 12:20:00,METAR LGAV 181220Z 04016KT 9999 FEW025 20/01 Q1012 NOSIG
2026-04-18 11:50:00,METAR LGAV 181150Z 03016KT 9999 FEW025 20/03 Q1012 NOSIG
2026-04-18 11:20:00,METAR LGAV 181120Z 05020KT 9999 FEW025 19/01 Q1011 NOSIG
2026-04-18 10:50:00,METAR LGAV 181050Z 03021G31KT 9999 FEW025 20/00 Q1011 NOSIG
2026-04-18 10:20:00,METAR LGAV 181020Z 03021G33KT 9999 FEW025 20/01 Q1011 NOSIG
2026-04-18 09:50:00,METAR LGAV 180950Z 02022KT 9999 FEW025 20/03 Q1011 NOSIG
2026-04-18 09:20:00,METAR LGAV 180920Z 03019KT 9999 FEW025 19/03 Q1011 NOSIG
2026-04-18 08:50:00,METAR LGAV 180850Z 03021KT 9999 FEW025 19/02 Q1011 NOSIG
2026-04-18 08:20:00,METAR LGAV 180820Z 03018KT 9999 FEW025 19/03 Q1011 NOSIG
2026-04-18 07:50:00,METAR LGAV 180750Z 02017G29KT 9999 FEW025 19/02 Q1011 NOSIG
2026-04-18 07:20:00,METAR LGAV 180720Z 03018KT 9999 FEW025 18/02 Q1010 NOSIG
2026-04-18 06:50:00,METAR LGAV 180650Z 03019KT 9999 FEW025 18/01 Q1009 NOSIG
2026-04-18 06:20:00,METAR LGAV 180620Z 02016KT 9999 FEW025 17/02 Q1009 NOSIG
2026-04-18 05:50:00,METAR LGAV 180550Z 02016KT 9999 FEW025 16/01 Q1009 NOSIG
2026-04-18 05:20:00,METAR LGAV 180520Z 02018KT 9999 FEW025 16/01 Q1009 NOSIG
2026-04-18 04:50:00,METAR LGAV 180450Z 36014KT 9999 FEW025 16/01 Q1009 NOSIG
2026-04-18 04:20:00,METAR LGAV 180420Z 01013KT 9999 FEW025 15/01 Q1008 NOSIG
2026-04-18 03:50:00,METAR LGAV 180350Z 01012KT 9999 FEW025 15/02 Q1008 NOSIG
2026-04-18 03:20:00,METAR LGAV 180320Z 35019KT 9999 FEW025 16/01 Q1007 NOSIG
2026-04-18 02:50:00,METAR LGAV 180250Z 35018KT 9999 FEW025 16/01 Q1007 NOSIG
2026-04-18 02:20:00,METAR LGAV 180220Z 35018KT 9999 FEW025 16/01 Q1007 NOSIG
2026-04-18 01:50:00,METAR LGAV 180150Z 35013KT 9999 FEW025 16/01 Q1007 NOSIG
2026-04-18 01:20:00,METAR LGAV 180120Z 35016KT 9999 FEW025 16/01 Q1007 NOSIG
2026-04-18 00:50:00,METAR LGAV 180050Z 01013KT 9999 FEW025 15/02 Q1007 NOSIG
2026-04-18 00:20:00,METAR LGAV 180020Z 35006KT 310V020 9999 FEW025 15/03 Q1008 NOSIG
2026-04-17 23:50:00,METAR LGAV 172350Z 36011KT 9999 FEW025 15/03 Q1007 NOSIG
2026-04-17 23:20:00,METAR LGAV 172320Z 36012KT 9999 FEW025 16/02 Q1007 NOSIG
2026-04-17 22:50:00,METAR LGAV 172250Z 36011KT 9999 FEW025 16/01 Q1008 NOSIG
2026-04-17 22:20:00,METAR LGAV 172220Z 34008KT 300V030 9999 FEW025 16/02 Q1008 NOSIG
2026-04-17 21:50:00,METAR LGAV 172150Z 34009KT 320V020 9999 FEW025 17/01 Q1008 NOSIG
2026-04-17 21:20:00,METAR LGAV 172120Z 35012KT 9999 FEW025 17/M00 Q1008 NOSIG
2026-04-17 20:50:00,METAR LGAV 172050Z 34007KT 9999 FEW025 17/M01 Q1008 NOSIG
2026-04-17 20:20:00,METAR LGAV 172020Z 33006KT 280V020 9999 FEW025 17/M01 Q1008 NOSIG
2026-04-17 19:50:00,METAR LGAV 171950Z 36006KT 9999 FEW025 17/M01 Q1008 NOSIG
2026-04-17 19:20:00,METAR LGAV 171920Z 04004KT 9999 FEW025 15/01 Q1008 NOSIG
2026-04-17 18:50:00,METAR LGAV 171850Z 04005KT 9999 FEW025 15/01 Q1008 NOSIG
2026-04-17 18:20:00,METAR LGAV 171820Z 03008KT 9999 FEW025 17/M00 Q1008 NOSIG
2026-04-17 17:50:00,METAR LGAV 171750Z 02006KT 9999 FEW025 17/M01 Q1008 NOSIG
2026-04-17 17:20:00,METAR LGAV 171720Z 02010KT 9999 FEW025 17/M00 Q1008 NOSIG
2026-04-17 16:50:00,METAR LGAV 171650Z 02010KT 9999 FEW025 17/00 Q1007 NOSIG
2026-04-17 16:20:00,METAR LGAV 171620Z 03008KT 340V100 9999 FEW025 18/M00 Q1007 NOSIG
2026-04-17 15:50:00,METAR LGAV 171550Z 04008KT 330V080 9999 FEW025 19/00 Q1006 NOSIG
2026-04-17 15:20:00,METAR LGAV 171520Z 02012KT 9999 FEW025 20/02 Q1007 NOSIG
2026-04-17 14:50:00,METAR LGAV 171450Z 01014KT 340V050 9999 FEW025 21/02 Q1007 NOSIG
2026-04-17 14:20:00,METAR LGAV 171420Z 01015KT 9999 FEW025 20/02 Q1007 NOSIG
2026-04-17 13:50:00,METAR LGAV 171350Z 01021KT 9999 FEW025 20/03 Q1007 NOSIG
2026-04-17 13:20:00,METAR LGAV 171320Z 02021KT 9999 FEW025 20/03 Q1007 NOSIG
2026-04-17 12:50:00,METAR LGAV 171250Z 01019KT 9999 FEW025 20/04 Q1007 NOSIG
2026-04-17 12:20:00,METAR LGAV 171220Z 02021KT 9999 FEW025 20/05 Q1007 NOSIG
2026-04-17 11:50:00,METAR LGAV 171150Z 02022KT 9999 FEW025 21/04 Q1007 NOSIG
2026-04-17 11:20:00,METAR LGAV 171120Z 04018G28KT 9999 FEW025 20/01 Q1008 NOSIG
2026-04-17 10:50:00,METAR LGAV 171050Z 03021KT 9999 FEW025 20/04 Q1009 NOSIG
2026-04-17 10:20:00,METAR LGAV 171020Z 01015KT 330V040 9999 FEW025 20/05 Q1009 NOSIG
2026-04-17 09:50:00,METAR LGAV 170950Z 01011G21KT 330V060 9999 FEW025 20/05 Q1009 NOSIG
2026-04-17 09:20:00,METAR LGAV 170920Z 01018KT 330V030 9999 FEW025 19/05 Q1009 NOSIG
2026-04-17 08:50:00,METAR LGAV 170850Z 01015G26KT 340V040 9999 FEW025 19/05 Q1009 NOSIG
2026-04-17 08:20:00,METAR LGAV 170820Z 01012KT 340V050 9999 FEW025 19/05 Q1010 NOSIG
2026-04-17 07:50:00,METAR LGAV 170750Z 01013G25KT 330V050 9999 FEW025 19/04 Q1010 NOSIG
2026-04-17 07:20:00,METAR LGAV 170720Z 01012KT 320V030 9999 FEW025 18/04 Q1010 NOSIG
2026-04-17 06:50:00,METAR LGAV 170650Z 01013KT 9999 FEW025 17/04 Q1010 NOSIG
2026-04-17 06:20:00,METAR LGAV 170620Z 36015KT 9999 FEW025 17/04 Q1010 NOSIG
2026-04-17 05:50:00,METAR LGAV 170550Z 01013KT 9999 FEW025 17/03 Q1011 NOSIG
2026-04-17 05:20:00,METAR LGAV 170520Z 01014KT 9999 SCT025 17/04 Q1011 NOSIG
2026-04-17 04:50:00,METAR LGAV 170450Z 01012KT 9999 SCT025 17/04 Q1011 NOSIG
2026-04-17 04:20:00,METAR LGAV 170420Z 01017KT 9999 FEW030 SCT040 17/04 Q1011 NOSIG
2026-04-17 03:50:00,METAR LGAV 170350Z 01017KT 9999 FEW030 SCT040 17/04 Q1010 NOSIG
2026-04-17 03:20:00,METAR LGAV 170320Z 36020G31KT 9999 FEW030 SCT040 17/05 Q1010 NOSIG
2026-04-17 02:50:00,METAR LGAV 170250Z 34010KT 9999 FEW030 SCT040 17/06 Q1011 NOSIG
2026-04-17 02:20:00,METAR LGAV 170220Z 35007KT 9999 FEW030 SCT040 17/06 Q1012 NOSIG
2026-04-17 01:50:00,METAR LGAV 170150Z 36011KT 320V020 9999 FEW030 SCT040 17/06 Q1012 NOSIG
2026-04-17 01:20:00,METAR LGAV 170120Z 35012KT 9999 FEW030 SCT040 17/07 Q1012 NOSIG
2026-04-17 00:50:00,METAR LGAV 170050Z 01014KT 9999 FEW030 SCT040 17/07 Q1012 NOSIG
2026-04-17 00:20:00,METAR LGAV 170020Z 01017KT 9999 FEW030 SCT040 17/07 Q1012 NOSIG
2026-04-16 23:50:00,METAR LGAV 162350Z COR 09005KT 010V150 9999 FEW030 SCT040 18/06 Q1012 NOSIG
2026-04-16 23:20:00,METAR LGAV 162320Z 01020KT 9999 FEW030 SCT040 18/05 Q1011 NOSIG
2026-04-16 22:50:00,METAR LGAV 162250Z 01019KT 9999 FEW030 SCT040 18/05 Q1011 NOSIG
2026-04-16 22:20:00,METAR LGAV 162220Z 36012KT 9999 FEW030 SCT040 19/05 Q1012 NOSIG
2026-04-16 21:50:00,METAR LGAV 162150Z VRB03KT 9999 FEW030 SCT040 19/05 Q1012 NOSIG
2026-04-16 21:20:00,METAR LGAV 162120Z 04006KT 320V110 9999 FEW030 SCT040 19/06 Q1013 NOSIG
2026-04-16 20:50:00,METAR LGAV 162050Z 05004KT 300V140 9999 FEW030 SCT040 19/06 Q1013 NOSIG
2026-04-16 20:20:00,METAR LGAV 162020Z 02006KT 320V080 9999 FEW030 SCT040 19/06 Q1013 NOSIG
2026-04-16 19:50:00,METAR LGAV 161950Z 02005G16KT 210V160 9999 FEW030 SCT040 18/06 Q1013 NOSIG
2026-04-16 19:20:00,METAR LGAV 161920Z 05006KT 340V080 9999 FEW030 SCT040 18/06 Q1013 NOSIG
2026-04-16 18:50:00,METAR LGAV 161850Z 11006KT 010V150 9999 FEW030 SCT040 19/06 Q1013 NOSIG
2026-04-16 18:20:00,METAR LGAV 161820Z 04009KT 360V070 9999 FEW030 SCT040 19/06 Q1012 NOSIG
2026-04-16 17:50:00,METAR LGAV 161750Z 02011KT 320V050 9999 FEW030 SCT040 19/06 Q1011 NOSIG
2026-04-16 17:20:00,METAR LGAV 161720Z 02014G24KT 9999 FEW030 SCT040 18/07 Q1011 NOSIG
2026-04-16 16:50:00,METAR LGAV 161650Z 05012KT 9999 FEW030 SCT040 18/07 Q1012 NOSIG
2026-04-16 16:20:00,METAR LGAV 161620Z 03016KT 9999 FEW030 SCT040 19/06 Q1012 NOSIG
2026-04-16 15:50:00,METAR LGAV 161550Z 05014KT 9999 FEW030 SCT040 19/06 Q1013 NOSIG
2026-04-16 14:50:00,METAR LGAV 161450Z 05009KT 360V080 9999 FEW030 SCT040 18/07 Q1013 NOSIG
2026-04-16 14:20:00,METAR LGAV 161420Z 04016G26KT 9999 FEW030 SCT040 18/09 Q1012 NOSIG
2026-04-16 13:50:00,METAR LGAV 161350Z 04014KT 9999 FEW030 SCT040 18/09 Q1012 NOSIG
2026-04-16 13:20:00,METAR LGAV 161320Z 05011KT 9999 FEW030 SCT040 19/09 Q1013 NOSIG RMK Q1013.5 OVC120
2026-04-16 12:50:00,METAR LGAV 161250Z 04009KT 010V070 9999 FEW030 SCT040 18/10 Q1013 NOSIG
2026-04-16 12:20:00,METAR LGAV 161220Z 04011KT 9999 FEW030 SCT040 18/09 Q1014 NOSIG
2026-04-16 11:50:00,METAR LGAV 161150Z 05011KT 9999 FEW030 SCT040 18/09 Q1014 NOSIG
2026-04-16 11:20:00,METAR LGAV 161120Z 05012KT 9999 FEW030 SCT040 18/09 Q1014 NOSIG
2026-04-16 10:50:00,METAR LGAV 161050Z 07013KT 9999 FEW030 SCT040 18/09 Q1014 NOSIG
2026-04-16 10:20:00,METAR LGAV 161020Z 08010KT 9999 FEW030 SCT040 19/10 Q1014 NOSIG
2026-04-16 09:50:00,METAR LGAV 160950Z 05009KT 9999 FEW030 SCT040 19/09 Q1014 NOSIG
2026-04-16 09:20:00,METAR LGAV 160920Z 07010KT 9999 FEW030 SCT040 18/09 Q1014 NOSIG
2026-04-16 08:50:00,METAR LGAV 160850Z 04009KT 350V070 9999 FEW030 SCT040 18/09 Q1014 NOSIG
2026-04-16 08:20:00,METAR LGAV 160820Z COR 04012KT 010V070 9999 FEW030 SCT040 18/09 Q1013 NOSIG
2026-04-16 07:50:00,METAR LGAV 160750Z 04015KT 9999 FEW030 SCT040 17/09 Q1013 NOSIG
2026-04-16 07:20:00,METAR LGAV 160720Z 05012KT 9999 FEW030 SCT040 17/08 Q1013 NOSIG
2026-04-16 06:50:00,METAR LGAV 160650Z 04015KT 9999 FEW030 SCT040 17/08 Q1013 NOSIG
2026-04-16 06:20:00,METAR LGAV 160620Z 03016KT 9999 FEW030 SCT040 17/08 Q1013 NOSIG
2026-04-16 05:50:00,METAR LGAV 160550Z 05011KT 020V090 9999 FEW030 SCT040 17/08 Q1013 NOSIG
2026-04-16 05:20:00,METAR LGAV 160520Z 05013KT 9999 FEW030 SCT040 16/07 Q1013 NOSIG
2026-04-16 04:50:00,METAR LGAV 160450Z 04015KT 9999 FEW030 SCT040 16/07 Q1013 NOSIG
2026-04-16 04:20:00,METAR LGAV 160420Z 04012KT 9999 FEW025 SCT070 16/07 Q1014 NOSIG
2026-04-16 03:50:00,METAR LGAV 160350Z 05007KT 9999 FEW020 SCT070 16/07 Q1014 NOSIG
2026-04-16 03:20:00,METAR LGAV 160320Z 04005KT 010V100 9999 FEW020 SCT070 16/08 Q1014 NOSIG
2026-04-16 02:50:00,METAR LGAV 160250Z 02009KT 350V100 9999 FEW020 BKN060 16/08 Q1014 NOSIG
2026-04-16 02:20:00,METAR LGAV 160220Z 14004G17KT 060V180 9999 FEW020 SCT060 17/07 Q1015 NOSIG
2026-04-16 01:50:00,METAR LGAV 160150Z 04007KT 9999 FEW020 SCT060 17/07 Q1014 NOSIG
2026-04-16 01:20:00,METAR LGAV 160120Z 04007KT 9999 FEW020 SCT060 16/07 Q1014 NOSIG
2026-04-16 00:50:00,METAR LGAV 160050Z VRB03KT 9999 FEW020 SCT060 16/07 Q1015 NOSIG
2026-04-16 00:20:00,METAR LGAV 160020Z VRB02KT 9999 FEW020 SCT060 15/08 Q1015 NOSIG
2026-04-15 23:50:00,METAR LGAV 152350Z VRB02KT 9999 FEW020 SCT070 13/09 Q1015 NOSIG
2026-04-15 23:20:00,METAR LGAV 152320Z VRB03KT 9999 FEW020 SCT070 12/09 Q1016 NOSIG
2026-04-15 22:50:00,METAR LGAV 152250Z VRB02KT 9999 FEW020 SCT070 12/08 Q1016 NOSIG
2026-04-15 22:20:00,METAR LGAV 152220Z 05004KT 9999 FEW020 SCT070 13/08 Q1016 NOSIG
2026-04-15 21:50:00,METAR LGAV 152150Z VRB02KT 9999 FEW020 SCT070 13/08 Q1017 NOSIG
2026-04-15 21:20:00,METAR LGAV 152120Z VRB03KT 9999 FEW020 SCT070 14/08 Q1017 NOSIG
2026-04-15 20:50:00,METAR LGAV 152050Z 07004KT 9999 FEW020 SCT070 14/07 Q1017 NOSIG
2026-04-15 20:20:00,METAR LGAV 152020Z 02008KT 9999 FEW020 SCT070 15/08 Q1017 NOSIG
2026-04-15 19:50:00,METAR LGAV 151950Z 02009KT 9999 FEW020 SCT070 15/09 Q1017 NOSIG
2026-04-15 19:20:00,METAR LGAV 151920Z 04004KT 9999 FEW018 SCT070 15/09 Q1017 NOSIG
2026-04-15 18:50:00,METAR LGAV 151850Z 05009KT 9999 FEW018 SCT070 15/09 Q1018 NOSIG
2026-04-15 18:20:00,METAR LGAV 151820Z 04007KT 9999 FEW018 SCT070 15/10 Q1017 NOSIG
2026-04-15 17:50:00,METAR LGAV 151750Z 05011KT 9999 FEW018 SCT070 15/10 Q1017 NOSIG
2026-04-15 17:20:00,METAR LGAV 151720Z 05014KT 9999 FEW018 16/10 Q1016 NOSIG
2026-04-15 16:50:00,METAR LGAV 151650Z 06013KT 9999 FEW018 16/10 Q1017 NOSIG
2026-04-15 16:20:00,METAR LGAV 151620Z 05011KT 9999 FEW020 16/11 Q1017 NOSIG
2026-04-15 15:50:00,METAR LGAV 151550Z 05012KT 9999 FEW020 16/11 Q1017 NOSIG
2026-04-15 15:20:00,METAR LGAV 151520Z 05011KT 9999 FEW020 16/11 Q1017 NOSIG
2026-04-15 14:50:00,METAR LGAV 151450Z 06015KT 9999 FEW020 17/11 Q1017 NOSIG
2026-04-15 14:20:00,METAR LGAV 151420Z 05011KT 9999 FEW020 17/12 Q1017 NOSIG
2026-04-15 13:50:00,METAR LGAV 151350Z 05011KT 010V080 9999 FEW020 18/12 Q1017 NOSIG
2026-04-15 13:20:00,METAR LGAV 151320Z 04013KT 9999 FEW025 19/11 Q1017 NOSIG
2026-04-15 12:50:00,METAR LGAV 151250Z 05013KT 9999 FEW025 19/11 Q1017 NOSIG
2026-04-15 12:20:00,METAR LGAV 151220Z 05011KT 9999 FEW025 SCT070 19/12 Q1018 NOSIG
2026-04-15 11:50:00,METAR LGAV 151150Z 03013KT 9999 FEW025 BKN070 19/13 Q1018 NOSIG
2026-04-15 11:20:00,METAR LGAV 151120Z 03011KT 9999 FEW025 BKN070 18/12 Q1018 NOSIG
2026-04-15 10:50:00,METAR LGAV 151050Z 04011KT 9999 FEW025 BKN070 19/12 Q1019 NOSIG
2026-04-15 10:20:00,METAR LGAV 151020Z 05014KT 9999 FEW025 BKN070 18/12 Q1019 NOSIG
2026-04-15 09:50:00,METAR LGAV 150950Z 05014KT 9999 FEW025 SCT070 18/12 Q1018 NOSIG
2026-04-15 09:20:00,METAR LGAV 150920Z 05010KT 9999 FEW020 SCT070 18/12 Q1019 NOSIG
2026-04-15 08:50:00,METAR LGAV 150850Z 05011KT 9999 FEW025 SCT070 18/11 Q1018 NOSIG
2026-04-15 08:20:00,METAR LGAV 150820Z 07006KT 9999 FEW025 SCT070 18/11 Q1019 NOSIG
2026-04-15 07:50:00,METAR LGAV 150750Z 04005KT 360V070 9999 FEW025 SCT070 18/11 Q1019 NOSIG
2026-04-15 07:20:00,METAR LGAV 150720Z 04007KT 9999 FEW025 SCT070 17/12 Q1019 NOSIG
2026-04-15 06:50:00,METAR LGAV 150650Z 04005KT 360V060 9999 FEW025 SCT070 17/12 Q1019 NOSIG
2026-04-15 06:20:00,METAR LGAV 150620Z VRB03KT 9999 FEW025 SCT070 16/12 Q1019 NOSIG
2026-04-15 05:50:00,METAR LGAV 150550Z VRB02KT 9999 FEW025 SCT070 14/11 Q1019 NOSIG
2026-04-15 05:20:00,METAR LGAV 150520Z VRB01KT 9999 FEW025 SCT070 13/10 Q1019 NOSIG
2026-04-15 04:50:00,METAR LGAV 150450Z VRB02KT 9999 FEW020 SCT070 12/10 Q1019 NOSIG
2026-04-15 04:20:00,METAR LGAV 150420Z VRB01KT 9999 FEW025 SCT070 11/09 Q1019 NOSIG
2026-04-15 03:50:00,METAR LGAV 150350Z 00000KT 9999 FEW025 SCT070 12/09 Q1019 NOSIG
2026-04-15 03:20:00,METAR LGAV 150320Z 00000KT 9999 FEW025 SCT070 11/10 Q1019 NOSIG
2026-04-15 02:50:00,METAR LGAV 150250Z 00000KT 9999 FEW025 SCT070 12/11 Q1019 NOSIG
2026-04-15 02:20:00,METAR LGAV 150220Z 33002KT 9999 FEW025 SCT070 12/11 Q1019 NOSIG
2026-04-15 01:50:00,METAR LGAV 150150Z 29004KT 9999 FEW025 SCT070 11/09 Q1019 NOSIG
2026-04-15 01:20:00,METAR LGAV 150120Z VRB01KT 9999 FEW025 SCT070 11/09 Q1019 NOSIG
2026-04-15 00:50:00,METAR LGAV 150050Z 27003KT 9999 FEW025 SCT070 11/09 Q1019 NOSIG
2026-04-15 00:20:00,METAR LGAV 150020Z 27004KT 9999 FEW025 SCT070 12/10 Q1019 NOSIG
2026-04-14 23:50:00,METAR LGAV 142350Z VRB01KT 9999 FEW025 SCT070 12/10 Q1019 NOSIG
2026-04-14 23:20:00,METAR LGAV 142320Z 19003KT 9999 FEW025 SCT070 12/10 Q1020 NOSIG
2026-04-14 22:50:00,METAR LGAV 142250Z 18004KT 9999 FEW025 SCT070 12/10 Q1020 NOSIG
2026-04-14 22:20:00,METAR LGAV 142220Z 31004KT 9999 FEW025 SCT070 14/12 Q1020 NOSIG
2026-04-14 21:50:00,METAR LGAV 142150Z 30005KT 9999 FEW025 SCT070 14/12 Q1021 NOSIG
2026-04-14 21:20:00,METAR LGAV 142120Z 27005KT 230V300 9999 FEW025 SCT070 14/12 Q1021 NOSIG
2026-04-14 20:50:00,METAR LGAV 142050Z VRB02KT 9999 FEW025 SCT070 14/12 Q1021 NOSIG
2026-04-14 20:20:00,METAR LGAV 142020Z 10004KT 9999 FEW025 SCT070 15/13 Q1020 NOSIG
2026-04-14 19:50:00,METAR LGAV 141950Z VRB02KT 9999 DZ FEW025 BKN070 15/13 Q1020 NOSIG
2026-04-14 19:20:00,METAR LGAV 141920Z 07008KT 9999 -RA FEW025 BKN070 15/12 Q1020 NOSIG
2026-04-14 18:50:00,METAR LGAV 141850Z 03007KT 9999 FEW025 SCT070 15/12 Q1020 NOSIG
2026-04-14 18:20:00,METAR LGAV 141820Z 02006KT 9999 DZ FEW025 SCT070 15/12 Q1021 NOSIG
2026-04-14 17:50:00,METAR LGAV 141750Z COR VRB02KT 9999 DZ FEW025 SCT070 15/12 Q1021 NOSIG
2026-04-14 17:20:00,METAR LGAV 141720Z VRB02KT 9999 FEW025 SCT070 15/11 Q1021 NOSIG
2026-04-14 16:50:00,METAR LGAV 141650Z VRB01KT 9999 FEW025 SCT070 16/11 Q1021 NOSIG
2026-04-14 16:20:00,METAR LGAV 141620Z 19004KT 9999 FEW025 SCT070 16/11 Q1021 NOSIG
2026-04-14 15:50:00,METAR LGAV 141550Z VRB02KT 9999 FEW025 SCT070 17/11 Q1020 NOSIG
2026-04-14 15:20:00,METAR LGAV 141520Z 10003KT 9999 FEW025 SCT070 17/11 Q1021 NOSIG
2026-04-14 14:50:00,METAR LGAV 141450Z 06005KT 9999 FEW025 SCT070 17/10 Q1020 NOSIG
2026-04-14 14:20:00,METAR LGAV 141420Z 07007KT 9999 FEW025 SCT070 17/10 Q1020 NOSIG
2026-04-14 13:50:00,METAR LGAV 141350Z 08005KT 050V140 9999 FEW025 SCT070 17/11 Q1019 NOSIG
2026-04-14 13:20:00,METAR LGAV 141320Z 12004KT 9999 FEW025 SCT070 17/10 Q1020 NOSIG
2026-04-14 12:50:00,METAR LGAV 141250Z 11006KT 9999 FEW025 SCT070 17/10 Q1020 NOSIG
2026-04-14 12:20:00,METAR LGAV 141220Z 09004KT 030V140 9999 FEW025 SCT070 18/10 Q1020 NOSIG
2026-04-14 11:50:00,METAR LGAV 141150Z VRB03KT 9999 FEW025 SCT070 18/10 Q1020 NOSIG
2026-04-14 11:20:00,METAR LGAV 141120Z VRB01KT 9999 FEW025 SCT070 18/10 Q1020 NOSIG
2026-04-14 10:50:00,METAR LGAV 141050Z VRB02KT 9999 FEW025 SCT070 17/10 Q1021 NOSIG
2026-04-14 10:20:00,METAR LGAV 141020Z VRB03KT 9999 FEW025 SCT070 17/10 Q1020 NOSIG
2026-04-14 09:50:00,METAR LGAV 140950Z VRB03KT 9999 FEW025 SCT070 17/09 Q1020 NOSIG
2026-04-14 09:20:00,METAR LGAV 140920Z 08008KT 9999 FEW025 SCT070 16/09 Q1019 NOSIG
2026-04-14 08:50:00,METAR LGAV 140850Z 08007KT 9999 FEW025 SCT070 17/09 Q1019 NOSIG
2026-04-14 08:20:00,METAR LGAV 140820Z 11006KT 060V150 9999 FEW025 SCT070 18/09 Q1019 NOSIG
2026-04-14 07:50:00,METAR LGAV 140750Z 11004KT 060V160 9999 FEW025 SCT070 17/09 Q1020 NOSIG
2026-04-14 07:20:00,METAR LGAV 140720Z VRB01KT 9999 FEW025 SCT070 17/08 Q1020 NOSIG
2026-04-14 06:50:00,METAR LGAV 140650Z VRB01KT 9999 FEW025 SCT070 15/08 Q1020 NOSIG
2026-04-14 06:20:00,METAR LGAV 140620Z VRB01KT 9999 FEW025 SCT070 14/08 Q1020 NOSIG
2026-04-14 05:50:00,METAR LGAV 140550Z 00000KT 9999 FEW025 SCT070 13/08 Q1020 NOSIG
2026-04-14 05:20:00,METAR LGAV 140520Z COR VRB01KT 9999 FEW025 SCT070 12/08 Q1020 NOSIG
2026-04-14 04:50:00,METAR LGAV 140450Z VRB01KT 9999 FEW025 12/07 Q1020 NOSIG
2026-04-14 04:20:00,METAR LGAV 140420Z 35002KT 9999 FEW025 11/06 Q1020 NOSIG
2026-04-14 03:50:00,METAR LGAV 140350Z 25003KT 9999 FEW025 11/06 Q1019 NOSIG
2026-04-14 03:20:00,METAR LGAV 140320Z 26003KT 9999 FEW025 07/05 Q1019 NOSIG
2026-04-14 02:50:00,METAR LGAV 140250Z VRB03KT 9999 FEW025 08/06 Q1019 NOSIG
2026-04-14 02:20:00,METAR LGAV 140220Z 27002KT 9999 FEW025 08/07 Q1018 NOSIG
2026-04-14 01:50:00,METAR LGAV 140150Z VRB01KT 9999 FEW025 08/07 Q1019 NOSIG
2026-04-14 01:20:00,METAR LGAV 140120Z 29003KT 9999 FEW025 08/06 Q1019 NOSIG
2026-04-14 00:50:00,METAR LGAV 140050Z VRB01KT 9999 FEW025 07/06 Q1019 NOSIG
2026-04-14 00:20:00,METAR LGAV 140020Z 35003KT 9999 FEW025 07/06 Q1019 NOSIG
2026-04-13 23:50:00,METAR LGAV 132350Z 29001KT 9999 FEW025 09/08 Q1020 NOSIG
2026-04-13 23:20:00,METAR LGAV 132320Z 27002KT 9999 FEW025 09/08 Q1020 NOSIG
2026-04-13 22:50:00,METAR LGAV 132250Z 00000KT 9999 FEW025 09/08 Q1020 NOSIG
2026-04-13 22:20:00,METAR LGAV 132220Z VRB01KT 9999 FEW025 11/09 Q1020 NOSIG
2026-04-13 21:50:00,METAR LGAV 132150Z VRB01KT 9999 FEW025 10/08 Q1020 NOSIG
2026-04-13 21:20:00,METAR LGAV 132120Z VRB01KT 9999 FEW025 10/08 Q1020 NOSIG
2026-04-13 20:50:00,METAR LGAV 132050Z VRB02KT 9999 FEW025 10/09 Q1020 NOSIG
2026-04-13 20:20:00,METAR LGAV 132020Z 29003KT 9999 FEW025 11/09 Q1020 NOSIG
2026-04-13 19:50:00,METAR LGAV 131950Z 03002KT 9999 FEW025 11/09 Q1020 NOSIG
2026-04-13 19:20:00,METAR LGAV 131920Z VRB02KT 9999 FEW025 12/09 Q1020 NOSIG
2026-04-13 18:50:00,METAR LGAV 131850Z 07003KT 9999 FEW025 12/08 Q1020 NOSIG
2026-04-13 18:20:00,METAR LGAV 131820Z VRB02KT 9999 FEW025 13/09 Q1020 NOSIG
2026-04-13 17:50:00,METAR LGAV 131750Z VRB02KT 9999 FEW025 14/09 Q1020 NOSIG
2026-04-13 17:20:00,METAR LGAV 131720Z 12006KT 9999 FEW025 15/09 Q1019 NOSIG
2026-04-13 16:50:00,METAR LGAV 131650Z 11007KT 9999 FEW025 16/08 Q1019 NOSIG
2026-04-13 16:20:00,METAR LGAV 131620Z 11006KT 9999 FEW025 17/09 Q1019 NOSIG
2026-04-13 15:50:00,METAR LGAV 131550Z 12006KT 080V150 9999 FEW025 17/07 Q1019 NOSIG
2026-04-13 15:20:00,METAR LGAV 131520Z 12008KT 9999 FEW025 18/07 Q1019 NOSIG
2026-04-13 14:50:00,METAR LGAV 131450Z 13008KT 9999 FEW025 18/08 Q1019 NOSIG
2026-04-13 14:20:00,METAR LGAV 131420Z 09007KT 060V130 9999 FEW025 19/09 Q1019 NOSIG
2026-04-13 13:50:00,METAR LGAV 131350Z 11008KT 9999 FEW025 19/08 Q1019 NOSIG
2026-04-13 13:20:00,METAR LGAV 131320Z 10008KT 070V130 9999 FEW025 19/09 Q1019 NOSIG
2026-04-13 12:50:00,METAR LGAV 131250Z 10007KT 060V120 9999 FEW025 19/10 Q1020 NOSIG
2026-04-13 12:20:00,METAR LGAV 131220Z 10007KT 070V140 9999 FEW025 19/10 Q1020 NOSIG
2026-04-13 11:50:00,METAR LGAV 131150Z 07007KT 040V110 9999 FEW025 19/11 Q1020 NOSIG
2026-04-13 11:20:00,METAR LGAV 131120Z 08007KT 050V110 9999 FEW025 19/10 Q1020 NOSIG
2026-04-13 10:50:00,METAR LGAV 131050Z 09009KT 060V120 9999 FEW020 18/09 Q1020 NOSIG
2026-04-13 10:20:00,METAR LGAV 131020Z 10006KT 050V160 9999 FEW025 19/08 Q1020 NOSIG
2026-04-13 09:50:00,METAR LGAV 130950Z 12004KT 350V210 9999 FEW025 18/07 Q1021 NOSIG
2026-04-13 09:20:00,METAR LGAV 130920Z 10004KT 020V160 9999 FEW025 18/09 Q1021 NOSIG
2026-04-13 08:50:00,METAR LGAV 130850Z 13004KT 320V290 9999 FEW020 18/09 Q1021 NOSIG
2026-04-13 08:20:00,METAR LGAV 130820Z VRB02KT 9999 FEW020 17/09 Q1021 NOSIG
2026-04-13 07:50:00,METAR LGAV 130750Z VRB02KT 9999 FEW020 17/09 Q1020 NOSIG
2026-04-13 07:20:00,METAR LGAV 130720Z VRB02KT 9999 FEW020 16/10 Q1020 NOSIG
2026-04-13 06:50:00,METAR LGAV 130650Z VRB01KT 9999 FEW020 15/10 Q1020 NOSIG
2026-04-13 06:20:00,METAR LGAV 130620Z VRB01KT 9999 FEW025 14/10 Q1020 NOSIG
2026-04-13 05:50:00,METAR LGAV 130550Z 00000KT 9999 FEW025 14/10 Q1020 NOSIG
2026-04-13 05:20:00,METAR LGAV 130520Z VRB01KT 9999 FEW025 12/09 Q1020 NOSIG
2026-04-13 04:50:00,METAR LGAV 130450Z 26002KT 9999 FEW025 10/08 Q1020 NOSIG
2026-04-13 04:20:00,METAR LGAV 130420Z 31001KT 9999 FEW025 08/06 Q1019 NOSIG
2026-04-13 03:50:00,METAR LGAV 130350Z 29001KT 9999 FEW025 10/08 Q1019 NOSIG
2026-04-13 03:20:00,METAR LGAV 130320Z 26003KT 9999 FEW025 07/06 Q1019 NOSIG
2026-04-13 02:50:00,METAR LGAV 130250Z 03002KT 9999 FEW025 08/07 Q1019 NOSIG
2026-04-13 02:20:00,METAR LGAV 130220Z 30002KT 9999 FEW025 09/07 Q1019 NOSIG
2026-04-13 01:50:00,METAR LGAV 130150Z 24002KT 9999 FEW025 09/08 Q1019 NOSIG
2026-04-13 01:20:00,METAR LGAV 130120Z VRB02KT 9999 FEW025 09/08 Q1019 NOSIG
2026-04-13 00:50:00,METAR LGAV 130050Z 00000KT 9999 FEW025 09/08 Q1019 NOSIG
2026-04-13 00:20:00,METAR LGAV 130020Z 17001KT 9999 FEW025 09/08 Q1020 NOSIG
2026-04-12 23:50:00,METAR LGAV 122350Z 30002KT 9999 FEW030 09/08 Q1019 NOSIG
2026-04-12 23:20:00,METAR LGAV 122320Z 29003KT 9999 FEW020 10/08 Q1020 NOSIG
2026-04-12 22:50:00,METAR LGAV 122250Z 27003KT 9999 FEW030 10/09 Q1020 NOSIG
2026-04-12 22:20:00,METAR LGAV 122220Z VRB03KT 9999 FEW025 09/08 Q1020 NOSIG
2026-04-12 21:50:00,METAR LGAV 122150Z VRB01KT 9999 FEW030 10/09 Q1020 NOSIG
2026-04-12 21:20:00,METAR LGAV 122120Z 28003KT 9999 FEW030 09/08 Q1020 NOSIG
2026-04-12 20:50:00,METAR LGAV 122050Z VRB01KT 9999 FEW030 10/08 Q1020 NOSIG
2026-04-12 20:20:00,METAR LGAV 122020Z VRB02KT 9999 FEW025 10/09 Q1020 NOSIG
2026-04-12 19:50:00,METAR LGAV 121950Z 00000KT 9999 FEW030 11/09 Q1020 NOSIG
2026-04-12 19:20:00,METAR LGAV 121920Z 30002KT 9999 FEW030 12/09 Q1020 NOSIG
2026-04-12 18:50:00,METAR LGAV 121850Z 35002KT 9999 FEW030 12/09 Q1020 NOSIG
2026-04-12 18:20:00,METAR LGAV 121820Z VRB02KT 9999 FEW030 12/09 Q1020 NOSIG
2026-04-12 17:50:00,METAR LGAV 121750Z VRB01KT 9999 FEW025 13/09 Q1019 NOSIG
2026-04-12 17:20:00,METAR LGAV 121720Z 09003KT 9999 FEW025 14/09 Q1019 NOSIG
2026-04-12 16:50:00,METAR LGAV 121650Z 09005KT 9999 FEW030 14/09 Q1019 NOSIG
2026-04-12 16:20:00,METAR LGAV 121620Z 11005KT 9999 SCT030 15/09 Q1019 NOSIG
2026-04-12 15:50:00,METAR LGAV 121550Z 12004KT 080V150 9999 SCT025 16/09 Q1019 NOSIG
2026-04-12 14:50:00,METAR LGAV 121450Z 13006KT 9999 SCT030 16/09 Q1019 NOSIG
2026-04-12 14:20:00,METAR LGAV 121420Z 10006KT 9999 BKN030 16/10 Q1019 NOSIG
2026-04-12 13:50:00,METAR LGAV 121350Z 08006KT 9999 BKN040 16/09 Q1019 NOSIG
2026-04-12 13:20:00,METAR LGAV 121320Z 07006KT 9999 BKN030 17/10 Q1019 NOSIG
2026-04-12 12:50:00,METAR LGAV 121250Z 08007KT 9999 BKN030 17/10 Q1019 NOSIG
2026-04-12 12:20:00,METAR LGAV 121220Z 07006KT 040V110 9999 BKN025 17/11 Q1019 NOSIG
2026-04-12 11:50:00,METAR LGAV 121150Z 10005KT 060V140 9999 BKN030 17/10 Q1019 NOSIG
2026-04-12 11:20:00,METAR LGAV 121120Z 11006KT 080V150 9999 BKN030 17/10 Q1019 NOSIG
2026-04-12 10:50:00,METAR LGAV 121050Z 10004KT 280V250 9999 SCT025 17/09 Q1019 NOSIG
2026-04-12 10:20:00,METAR LGAV 121020Z 10008KT 9999 SCT030 17/09 Q1019 NOSIG
2026-04-12 09:50:00,METAR LGAV 120950Z 07007KT 030V090 9999 SCT030 17/10 Q1019 NOSIG
2026-04-12 09:20:00,METAR LGAV 120920Z 11004KT 060V170 9999 SCT025 18/10 Q1019 NOSIG
2026-04-12 08:50:00,METAR LGAV 120850Z VRB03KT 9999 SCT025 17/09 Q1019 NOSIG
2026-04-12 08:20:00,METAR LGAV 120820Z VRB02KT 9999 FEW020 SCT040 17/09 Q1019 NOSIG
2026-04-12 07:50:00,METAR LGAV 120750Z 06005KT 030V090 9999 FEW018 BKN040 16/08 Q1019 NOSIG
2026-04-12 07:20:00,METAR LGAV 120720Z 05006KT 010V070 9999 FEW020 BKN040 15/08 Q1019 NOSIG
2026-04-12 06:50:00,METAR LGAV 120650Z 04005KT 9999 FEW018 BKN040 14/09 Q1019 NOSIG
2026-04-12 06:20:00,METAR LGAV 120620Z 06005KT 9999 FEW020 BKN040 14/09 Q1019 NOSIG
2026-04-12 05:50:00,METAR LGAV 120550Z 00000KT 9999 FEW020 BKN040 14/10 Q1019 NOSIG
2026-04-12 05:20:00,METAR LGAV 120520Z 27002KT 9999 FEW020 BKN030 13/09 Q1019 NOSIG
2026-04-12 04:50:00,METAR LGAV 120450Z VRB01KT 9999 FEW020 BKN030 12/09 Q1019 NOSIG
2026-04-12 04:20:00,METAR LGAV 120420Z 00000KT 9999 FEW020 BKN030 12/09 Q1018 NOSIG
2026-04-12 03:50:00,METAR LGAV 120350Z VRB02KT 9999 FEW020 BKN030 13/09 Q1018 NOSIG
2026-04-12 03:20:00,METAR LGAV 120320Z VRB01KT 9999 FEW020 BKN030 12/10 Q1018 NOSIG
2026-04-12 02:50:00,METAR LGAV 120250Z VRB03KT 9999 FEW020 BKN030 13/10 Q1018 NOSIG
2026-04-12 02:20:00,METAR LGAV 120220Z VRB02KT 9999 FEW020 BKN030 13/10 Q1018 NOSIG
2026-04-12 01:50:00,METAR LGAV 120150Z 36004KT 9999 FEW020 BKN030 13/10 Q1018 NOSIG
2026-04-12 01:20:00,METAR LGAV 120120Z 36004KT 9999 FEW020 BKN030 13/10 Q1018 NOSIG
2026-04-12 00:50:00,METAR LGAV 120050Z 36006KT 9999 FEW020 BKN030 13/10 Q1018 NOSIG
2026-04-12 00:20:00,METAR LGAV 120020Z 01006KT 9999 FEW020 BKN030 13/10 Q1018 NOSIG
2026-04-11 23:50:00,METAR LGAV 112350Z 01009KT 9999 FEW020 BKN030 13/10 Q1018 NOSIG
2026-04-11 23:20:00,METAR LGAV 112320Z 02005KT 9999 BKN030 13/09 Q1018 NOSIG
2026-04-11 22:50:00,METAR LGAV 112250Z 36004KT 9999 BKN030 13/10 Q1018 NOSIG
2026-04-11 22:20:00,METAR LGAV 112220Z 01004KT 9999 BKN030 13/10 Q1018 NOSIG
2026-04-11 21:50:00,METAR LGAV 112150Z 02004KT 9999 BKN030 13/10 Q1018 NOSIG
2026-04-11 21:20:00,METAR LGAV 112120Z 03003KT 9999 SCT030 BKN050 13/09 Q1018 NOSIG
2026-04-11 20:50:00,METAR LGAV 112050Z 03003KT 9999 SCT030 BKN050 13/10 Q1018 NOSIG
2026-04-11 20:20:00,METAR LGAV 112020Z VRB02KT 9999 SCT030 BKN050 13/10 Q1019 NOSIG
2026-04-11 19:50:00,METAR LGAV 111950Z 03004KT 9999 BKN030 13/10 Q1018 NOSIG
2026-04-11 19:20:00,METAR LGAV 111920Z 03003KT 9999 BKN030 14/08 Q1018 NOSIG
2026-04-11 18:50:00,METAR LGAV 111850Z 02004KT 9999 SCT030 BKN050 14/08 Q1018 NOSIG
2026-04-11 18:20:00,METAR LGAV 111820Z 01004KT 9999 SCT030 BKN060 14/09 Q1018 NOSIG
2026-04-11 17:50:00,METAR LGAV 111750Z 00000KT 9999 SCT030 BKN060 14/09 Q1018 NOSIG
2026-04-11 17:20:00,METAR LGAV 111720Z 06003KT 9999 DZ SCT030 14/09 Q1018 NOSIG
2026-04-11 16:50:00,METAR LGAV 111650Z 09004KT 9999 DZ SCT030 14/09 Q1017 NOSIG
2026-04-11 16:20:00,METAR LGAV 111620Z 09004KT 050V120 9999 SCT030 15/09 Q1017 NOSIG
2026-04-11 15:50:00,METAR LGAV 111550Z 08006KT 9999 SCT030 BKN050 15/09 Q1017 NOSIG
2026-04-11 15:20:00,METAR LGAV 111520Z 09005KT 9999 SCT030 BKN050 16/08 Q1017 NOSIG
2026-04-11 14:50:00,METAR LGAV 111450Z 08005KT 060V130 9999 SCT030 BKN050 16/08 Q1017 NOSIG
2026-04-11 14:20:00,METAR LGAV 111420Z 08004KT 9999 BKN030 15/09 Q1017 NOSIG
2026-04-11 13:50:00,METAR LGAV 111350Z 08005KT 9999 BKN030 15/09 Q1017 NOSIG
2026-04-11 13:20:00,METAR LGAV 111320Z 08004KT 040V120 9999 SCT030 16/09 Q1017 NOSIG
2026-04-11 12:50:00,METAR LGAV 111250Z 08006KT 9999 BKN030 16/08 Q1017 NOSIG
2026-04-11 12:20:00,METAR LGAV 111220Z VRB03KT 9999 BKN030 16/09 Q1018 NOSIG
2026-04-11 11:50:00,METAR LGAV 111150Z VRB03KT 9999 BKN030 18/09 Q1018 NOSIG
2026-04-11 11:20:00,METAR LGAV 111120Z VRB02KT 9999 BKN025 16/08 Q1018 NOSIG
2026-04-11 10:50:00,METAR LGAV 111050Z VRB01KT 9999 BKN025 16/08 Q1018 NOSIG
2026-04-11 10:20:00,METAR LGAV 111020Z 11004KT 060V140 9999 FEW020 BKN030 16/09 Q1018 NOSIG
2026-04-11 09:50:00,METAR LGAV 110950Z VRB03KT 9999 FEW020 BKN030 15/08 Q1018 NOSIG
2026-04-11 09:20:00,METAR LGAV 110920Z VRB03KT 9999 SCT020 BKN035 15/08 Q1018 NOSIG
2026-04-11 08:50:00,METAR LGAV 110850Z VRB03KT 9999 SCT020 BKN035 15/08 Q1018 NOSIG
2026-04-11 08:20:00,METAR LGAV 110820Z VRB03KT 9999 SCT020 BKN035 15/08 Q1018 NOSIG
2026-04-11 07:50:00,METAR LGAV 110750Z VRB02KT 9999 SCT030 BKN050 15/08 Q1018 NOSIG
2026-04-11 07:20:00,METAR LGAV 110720Z VRB01KT 9999 SCT030 BKN050 14/08 Q1018 NOSIG
2026-04-11 06:50:00,METAR LGAV 110650Z VRB02KT 9999 SCT030 BKN050 15/08 Q1018 NOSIG
2026-04-11 06:20:00,METAR LGAV 110620Z VRB02KT 9999 SCT030 14/09 Q1018 NOSIG
2026-04-11 05:50:00,METAR LGAV 110550Z 00000KT 9999 SCT030 13/09 Q1018 NOSIG
2026-04-11 05:20:00,METAR LGAV 110520Z VRB01KT 9999 FEW030 SCT040 13/08 Q1018 NOSIG
2026-04-11 04:50:00,METAR LGAV 110450Z VRB02KT 9999 FEW030 SCT040 12/08 Q1018 NOSIG
2026-04-11 04:20:00,METAR LGAV 110420Z VRB02KT 9999 FEW030 SCT040 11/07 Q1018 NOSIG
2026-04-11 03:50:00,METAR LGAV 110350Z 26004KT 9999 FEW030 11/07 Q1018 NOSIG
2026-04-11 03:20:00,METAR LGAV 110320Z VRB01KT 9999 SCT030 08/06 Q1017 NOSIG
2026-04-11 02:50:00,METAR LGAV 110250Z VRB01KT 9999 FEW030 09/07 Q1018 NOSIG
2026-04-11 02:20:00,METAR LGAV 110220Z 33003KT 9999 FEW030 09/07 Q1018 NOSIG
2026-04-11 01:50:00,METAR LGAV 110150Z VRB03KT 9999 FEW030 09/07 Q1018 NOSIG
2026-04-11 01:20:00,METAR LGAV 110120Z 28003KT 9999 FEW030 09/07 Q1018 NOSIG
2026-04-11 00:50:00,METAR LGAV 110050Z 35004KT 9999 FEW030 SCT040 09/08 Q1018 NOSIG
2026-04-11 00:20:00,METAR LGAV 110020Z VRB02KT 9999 FEW030 09/07 Q1018 NOSIG
2026-04-10 23:50:00,METAR LGAV 102350Z VRB02KT 9999 FEW030 09/07 Q1018 NOSIG
2026-04-10 23:20:00,METAR LGAV 102320Z 27001KT 9999 FEW030 08/06 Q1018 NOSIG
2026-04-10 22:50:00,METAR LGAV 102250Z 30002KT 9999 FEW030 SCT070 10/08 Q1018 NOSIG
2026-04-10 22:20:00,METAR LGAV 102220Z 28003KT 9999 FEW030 SCT070 10/07 Q1018 NOSIG
2026-04-10 21:50:00,METAR LGAV 102150Z VRB02KT 9999 FEW030 SCT070 10/07 Q1018 NOSIG
2026-04-10 21:20:00,METAR LGAV 102120Z VRB02KT 9999 FEW030 SCT070 11/08 Q1018 NOSIG
2026-04-10 20:50:00,METAR LGAV 102050Z VRB02KT 9999 FEW030 SCT070 12/08 Q1018 NOSIG
2026-04-10 20:20:00,METAR LGAV 102020Z VRB01KT 9999 FEW030 SCT070 13/08 Q1018 NOSIG
2026-04-10 19:50:00,METAR LGAV 101950Z 07003KT 9999 SCT030 SCT060 14/08 Q1018 NOSIG
2026-04-10 19:20:00,METAR LGAV 101920Z 09005KT 9999 FEW030 SCT060 13/08 Q1018 NOSIG
2026-04-10 18:50:00,METAR LGAV 101850Z 10004KT 9999 FEW030 SCT060 14/08 Q1018 NOSIG
2026-04-10 18:20:00,METAR LGAV 101820Z 13004KT 9999 SCT030 BKN060 14/08 Q1017 NOSIG
2026-04-10 17:50:00,METAR LGAV 101750Z 13004KT 9999 SCT030 BKN060 15/09 Q1017 NOSIG
2026-04-10 17:20:00,METAR LGAV 101720Z 12005KT 9999 SCT030 BKN070 15/09 Q1016 NOSIG
2026-04-10 16:50:00,METAR LGAV 101650Z 10007KT 9999 SCT030 BKN070 15/08 Q1016 NOSIG
2026-04-10 16:20:00,METAR LGAV 101620Z 10008KT 9999 SCT030 SCT070 15/08 Q1016 NOSIG
2026-04-10 15:50:00,METAR LGAV 101550Z 11009KT 9999 SCT030 SCT070 16/09 Q1016 NOSIG
2026-04-10 15:20:00,METAR LGAV 101520Z 11009KT 9999 FEW025 SCT035 16/09 Q1015 NOSIG
2026-04-10 14:50:00,METAR LGAV 101450Z 10009KT 9999 SCT030 17/08 Q1015 NOSIG
2026-04-10 14:20:00,METAR LGAV 101420Z 09006KT 060V140 9999 SCT030 17/09 Q1015 NOSIG
2026-04-10 13:50:00,METAR LGAV 101350Z 08007KT 9999 SCT030 17/09 Q1015 NOSIG
2026-04-10 13:20:00,METAR LGAV 101320Z 07008KT 9999 FEW025 SCT040 17/09 Q1015 NOSIG
2026-04-10 12:50:00,METAR LGAV 101250Z 08009KT 9999 FEW025 SCT035 17/09 Q1015 NOSIG
2026-04-10 12:20:00,METAR LGAV 101220Z 07008KT 9999 FEW025 SCT035 17/09 Q1016 NOSIG
2026-04-10 11:50:00,METAR LGAV 101150Z 07007KT 9999 FEW025 SCT040 17/09 Q1016 NOSIG
2026-04-10 11:20:00,METAR LGAV 101120Z 09009KT 9999 FEW020 SCT035 17/08 Q1016 NOSIG
2026-04-10 10:50:00,METAR LGAV 101050Z 08009G21KT 040V140 9999 FEW020 SCT030 BKN070 16/08 Q1016 NOSIG
2026-04-10 10:20:00,METAR LGAV 101020Z 17006KT 090V220 9999 FEW025 SCT040 19/08 Q1016 NOSIG
2026-04-10 09:50:00,METAR LGAV 100950Z 14005KT 070V230 9999 FEW025 SCT035 BKN070 18/09 Q1016 NOSIG
2026-04-10 09:20:00,METAR LGAV 100920Z VRB01KT 9999 FEW025 SCT035 BKN070 16/08 Q1016 NOSIG
2026-04-10 08:50:00,METAR LGAV 100850Z VRB02KT 9999 FEW025 SCT035 BKN070 17/07 Q1016 NOSIG
2026-04-10 08:20:00,METAR LGAV 100820Z VRB01KT 9999 FEW025 SCT035 BKN070 16/07 Q1016 NOSIG
2026-04-10 07:50:00,METAR LGAV 100750Z VRB01KT 9999 FEW025 SCT040 BKN070 16/07 Q1016 NOSIG
2026-04-10 07:20:00,METAR LGAV 100720Z VRB02KT 9999 FEW020 SCT030 BKN070 15/07 Q1016 NOSIG
2026-04-10 06:50:00,METAR LGAV 100650Z 05003KT 9999 FEW025 SCT035 14/07 Q1016 NOSIG
2026-04-10 06:20:00,METAR LGAV 100620Z VRB01KT 9999 FEW025 SCT070 16/07 Q1016 NOSIG
2026-04-10 05:50:00,METAR LGAV 100550Z 26003KT 9999 FEW025 SCT070 14/07 Q1015 NOSIG
2026-04-10 05:20:00,METAR LGAV 100520Z 25002KT 9999 FEW025 SCT070 13/07 Q1015 NOSIG
2026-04-10 04:50:00,METAR LGAV 100450Z 25003KT 9999 SCT035 BKN070 11/07 Q1015 NOSIG
2026-04-10 04:20:00,METAR LGAV 100420Z VRB02KT 9999 SCT035 BKN070 12/06 Q1015 NOSIG
2026-04-10 03:50:00,METAR LGAV 100350Z 36002KT 9999 FEW030 SCT070 11/06 Q1015 NOSIG
2026-04-10 03:20:00,METAR LGAV 100320Z 30002KT 9999 FEW030 SCT070 09/07 Q1015 NOSIG
2026-04-10 02:50:00,METAR LGAV 100250Z VRB02KT 9999 FEW030 SCT070 09/07 Q1015 NOSIG
2026-04-10 02:20:00,METAR LGAV 100220Z 19002KT 9999 FEW025 SCT070 09/06 Q1014 NOSIG
2026-04-10 01:50:00,METAR LGAV 100150Z 00000KT 9999 FEW025 SCT070 09/07 Q1015 NOSIG
2026-04-10 01:20:00,METAR LGAV 100120Z 36001KT 9999 FEW025 SCT070 09/07 Q1015 NOSIG
2026-04-10 00:50:00,METAR LGAV 100050Z 34002KT 9999 SCT040 10/07 Q1015 NOSIG
2026-04-10 00:20:00,METAR LGAV 100020Z 25004KT 9999 SCT040 10/08 Q1014 NOSIG
2026-04-09 23:50:00,METAR LGAV 092350Z 19002KT 9999 SCT040 11/08 Q1015 NOSIG
2026-04-09 23:20:00,METAR LGAV 092320Z VRB01KT 9999 FEW030 10/08 Q1015 NOSIG
2026-04-09 22:50:00,METAR LGAV 092250Z 27003KT 9999 FEW040 10/08 Q1015 NOSIG
2026-04-09 22:20:00,METAR LGAV 092220Z VRB01KT 9999 FEW040 09/07 Q1015 NOSIG
2026-04-09 21:50:00,METAR LGAV 092150Z 26003KT 9999 FEW040 09/06 Q1015 NOSIG
2026-04-09 21:20:00,METAR LGAV 092120Z 26004KT 9999 FEW030 08/06 Q1015 NOSIG
2026-04-09 20:50:00,METAR LGAV 092050Z 26003KT 9999 FEW030 09/06 Q1015 NOSIG
2026-04-09 20:20:00,METAR LGAV 092020Z VRB01KT 9999 FEW030 09/06 Q1015 NOSIG
2026-04-09 19:50:00,METAR LGAV 091950Z VRB02KT 9999 FEW025 10/06 Q1015 NOSIG
2026-04-09 19:20:00,METAR LGAV 091920Z 27002KT 9999 FEW025 13/05 Q1015 NOSIG
2026-04-09 18:50:00,METAR LGAV 091850Z 36004KT 9999 FEW025 SCT050 13/06 Q1015 NOSIG
2026-04-09 18:20:00,METAR LGAV 091820Z 36003KT 9999 FEW030 SCT050 13/06 Q1015 NOSIG
2026-04-09 17:50:00,METAR LGAV 091750Z 01003KT 9999 FEW030 12/06 Q1014 NOSIG
2026-04-09 17:20:00,METAR LGAV 091720Z 02005KT 9999 FEW030 13/06 Q1014 NOSIG
2026-04-09 16:50:00,METAR LGAV 091650Z 03004KT 9999 FEW030 14/06 Q1014 NOSIG
2026-04-09 16:20:00,METAR LGAV 091620Z 03007KT 9999 FEW030 14/07 Q1014 NOSIG
2026-04-09 15:50:00,METAR LGAV 091550Z 05006KT 010V080 9999 FEW025 15/07 Q1014 NOSIG
2026-04-09 15:20:00,METAR LGAV 091520Z 04008KT 9999 FEW030 15/06 Q1014 NOSIG
2026-04-09 14:50:00,METAR LGAV 091450Z 06008KT 9999 FEW030 16/07 Q1014 NOSIG
2026-04-09 14:20:00,METAR LGAV 091420Z 05012KT 9999 FEW025 16/08 Q1014 NOSIG
2026-04-09 13:50:00,METAR LGAV 091350Z 05012KT 020V080 9999 FEW030 17/08 Q1014 NOSIG
2026-04-09 13:20:00,METAR LGAV 091320Z 03014KT 9999 FEW025 16/08 Q1014 NOSIG
2026-04-09 12:50:00,METAR LGAV 091250Z 04014KT 010V080 9999 FEW025 17/07 Q1014 NOSIG
2026-04-09 12:20:00,METAR LGAV 091220Z 06012G22KT 030V100 9999 FEW030 17/06 Q1014 NOSIG
2026-04-09 11:50:00,METAR LGAV 091150Z 03017KT 9999 FEW025 17/06 Q1014 NOSIG
2026-04-09 11:20:00,METAR LGAV 091120Z 05017KT 9999 FEW025 17/05 Q1015 NOSIG
2026-04-09 10:50:00,METAR LGAV 091050Z 04016KT 9999 FEW025 16/05 Q1015 NOSIG
2026-04-09 10:20:00,METAR LGAV 091020Z 04021KT 9999 FEW025 SCT070 15/07 Q1015 NOSIG
2026-04-09 09:50:00,METAR LGAV 090950Z 04023KT 9999 FEW025 SCT070 16/10 Q1015 NOSIG
2026-04-09 09:20:00,METAR LGAV 090920Z 07017KT 9999 FEW025 SCT050 17/08 Q1014 NOSIG
2026-04-09 08:50:00,METAR LGAV 090850Z 05013KT 9999 FEW025 SCT040 18/09 Q1014 NOSIG
2026-04-09 08:20:00,METAR LGAV 090820Z 06011KT 9999 FEW025 SCT040 18/09 Q1014 NOSIG
2026-04-09 07:50:00,METAR LGAV 090750Z 04012KT 9999 FEW025 SCT040 17/09 Q1014 NOSIG
2026-04-09 07:20:00,METAR LGAV 090720Z 04010KT 9999 FEW025 SCT050 16/08 Q1013 NOSIG
2026-04-09 06:50:00,METAR LGAV 090650Z 05006KT 9999 FEW025 BKN050 15/08 Q1013 NOSIG
2026-04-09 06:20:00,METAR LGAV 090620Z VRB02KT 9999 FEW025 BKN050 15/09 Q1013 NOSIG
2026-04-09 05:50:00,METAR LGAV 090550Z 00000KT 9999 FEW025 BKN050 15/09 Q1013 NOSIG
2026-04-09 05:20:00,METAR LGAV 090520Z VRB01KT 9999 FEW025 BKN050 15/08 Q1013 NOSIG
2026-04-09 04:50:00,METAR LGAV 090450Z VRB01KT 9999 FEW030 BKN050 14/08 Q1013 NOSIG
2026-04-09 04:20:00,METAR LGAV 090420Z 26002KT 9999 FEW030 BKN050 12/07 Q1013 NOSIG
2026-04-09 03:50:00,METAR LGAV 090350Z 26003KT 9999 FEW030 BKN050 12/07 Q1013 NOSIG
2026-04-09 03:20:00,METAR LGAV 090320Z VRB02KT 9999 FEW030 SCT060 10/08 Q1013 NOSIG
2026-04-09 02:50:00,METAR LGAV 090250Z VRB02KT 9999 FEW030 BKN060 10/08 Q1013 NOSIG
2026-04-09 02:20:00,METAR LGAV 090220Z VRB02KT 9999 FEW030 BKN060 11/07 Q1013 NOSIG
2026-04-09 01:50:00,METAR LGAV 090150Z 27003KT 9999 FEW030 BKN060 12/07 Q1013 NOSIG
2026-04-09 01:20:00,METAR LGAV 090120Z 24002KT 9999 FEW030 BKN060 14/07 Q1014 NOSIG
2026-04-09 00:50:00,METAR LGAV 090050Z VRB02KT 9999 FEW030 BKN060 15/08 Q1014 NOSIG
2026-04-09 00:20:00,METAR LGAV 090020Z VRB02KT 9999 FEW030 BKN060 15/08 Q1014 NOSIG
2026-04-08 23:50:00,METAR LGAV 082350Z 00000KT 9999 FEW030 BKN060 14/09 Q1014 NOSIG
2026-04-08 23:20:00,METAR LGAV 082320Z VRB03KT 9999 FEW030 BKN060 14/08 Q1014 NOSIG
2026-04-08 22:50:00,METAR LGAV 082250Z VRB02KT 9999 FEW030 BKN060 15/08 Q1015 NOSIG
2026-04-08 22:20:00,METAR LGAV 082220Z 00000KT 9999 FEW030 15/08 Q1015 NOSIG
2026-04-08 21:50:00,METAR LGAV 082150Z 00000KT 9999 FEW030 14/09 Q1015 NOSIG
2026-04-08 21:20:00,METAR LGAV 082120Z 00000KT 9999 FEW030 13/09 Q1015 NOSIG
2026-04-08 20:50:00,METAR LGAV 082050Z 29002KT 9999 FEW030 SCT060 13/09 Q1015 NOSIG
2026-04-08 20:20:00,METAR LGAV 082020Z VRB03KT 9999 FEW030 SCT050 12/09 Q1015 NOSIG
2026-04-08 19:50:00,METAR LGAV 081950Z VRB01KT 9999 FEW030 SCT050 13/10 Q1015 NOSIG
2026-04-08 19:20:00,METAR LGAV 081920Z 30001KT 9999 FEW030 SCT050 16/08 Q1015 NOSIG
2026-04-08 18:50:00,METAR LGAV 081850Z 30001KT 9999 SCT030 17/08 Q1015 NOSIG
2026-04-08 18:20:00,METAR LGAV 081820Z 28002KT 9999 SCT030 17/07 Q1015 NOSIG
2026-04-08 17:50:00,METAR LGAV 081750Z VRB02KT 9999 SCT030 17/08 Q1015 NOSIG
2026-04-08 17:20:00,METAR LGAV 081720Z VRB01KT 9999 SCT030 16/09 Q1014 NOSIG
2026-04-08 16:50:00,METAR LGAV 081650Z 01002KT 9999 SCT030 17/08 Q1014 NOSIG
2026-04-08 15:50:00,METAR LGAV 081550Z 09006KT 9999 SCT030 20/07 Q1014 NOSIG
2026-04-08 15:20:00,METAR LGAV 081520Z 07010KT 9999 SCT030 21/06 Q1014 NOSIG
2026-04-08 14:50:00,METAR LGAV 081450Z 09009KT 9999 FEW030 21/06 Q1014 NOSIG
2026-04-08 14:20:00,METAR LGAV 081420Z 07008KT 9999 FEW030 21/07 Q1014 NOSIG
2026-04-08 13:50:00,METAR LGAV 081350Z 08008KT 9999 FEW030 22/06 Q1014 NOSIG
2026-04-08 13:20:00,METAR LGAV 081320Z 08009KT 9999 FEW030 22/06 Q1014 NOSIG
2026-04-08 12:50:00,METAR LGAV 081250Z 09010KT 060V120 9999 FEW030 23/05 Q1014 NOSIG
2026-04-08 12:20:00,METAR LGAV 081220Z 08010KT 9999 FEW030 24/05 Q1015 NOSIG
2026-04-08 11:50:00,METAR LGAV 081150Z 09009KT 060V120 9999 FEW030 24/05 Q1014 NOSIG
2026-04-08 11:20:00,METAR LGAV 081120Z 09004KT 320V160 9999 FEW030 24/05 Q1015 NOSIG
2026-04-08 10:50:00,METAR LGAV 081050Z 30005KT 240V340 9999 FEW030 25/05 Q1015 NOSIG
2026-04-08 10:20:00,METAR LGAV 081020Z 01007KT 320V080 9999 FEW030 24/03 Q1015 NOSIG
2026-04-08 09:50:00,METAR LGAV 080950Z 33006KT 240V360 9999 FEW030 24/05 Q1015 NOSIG
2026-04-08 09:20:00,METAR LGAV 080920Z 35007KT 310V030 9999 FEW030 24/03 Q1015 NOSIG
2026-04-08 08:50:00,METAR LGAV 080850Z 35009KT 310V020 9999 FEW030 24/05 Q1015 NOSIG
2026-04-08 08:20:00,METAR LGAV 080820Z 35010KT 9999 FEW030 24/04 Q1015 NOSIG
2026-04-08 07:50:00,METAR LGAV 080750Z 34010KT 300V010 9999 FEW030 23/05 Q1015 NOSIG
2026-04-08 07:20:00,METAR LGAV 080720Z 33010KT 9999 FEW030 22/06 Q1015 NOSIG
2026-04-08 06:50:00,METAR LGAV 080650Z 35007KT 290V100 9999 FEW030 21/05 Q1015 NOSIG
2026-04-08 06:20:00,METAR LGAV 080620Z VRB03KT 9999 FEW030 20/07 Q1015 NOSIG
2026-04-08 05:50:00,METAR LGAV 080550Z 10004KT 9999 FEW030 19/08 Q1015 NOSIG
2026-04-08 05:20:00,METAR LGAV 080520Z VRB01KT 9999 FEW030 17/08 Q1014 NOSIG
2026-04-08 04:50:00,METAR LGAV 080450Z VRB02KT 9999 FEW030 13/07 Q1014 NOSIG
2026-04-08 04:20:00,METAR LGAV 080420Z VRB03KT CAVOK 12/06 Q1014 NOSIG
2026-04-08 03:50:00,METAR LGAV 080350Z VRB02KT CAVOK 13/06 Q1014 NOSIG
2026-04-08 03:20:00,METAR LGAV 080320Z VRB03KT CAVOK 13/06 Q1014 NOSIG
2026-04-08 02:50:00,METAR LGAV 080250Z VRB02KT CAVOK 13/06 Q1014 NOSIG
2026-04-08 02:20:00,METAR LGAV 080220Z VRB01KT CAVOK 13/07 Q1014 NOSIG
2026-04-08 01:50:00,METAR LGAV 080150Z 10004KT 070V130 CAVOK 12/07 Q1014 NOSIG
2026-04-08 01:20:00,METAR LGAV 080120Z 09003KT CAVOK 13/07 Q1015 NOSIG
2026-04-08 00:50:00,METAR LGAV 080050Z 11006KT 060V120 CAVOK 15/08 Q1015 NOSIG
2026-04-08 00:20:00,METAR LGAV 080020Z VRB03KT CAVOK 15/07 Q1015 NOSIG
2026-04-07 23:50:00,METAR LGAV 072350Z 04006KT 350V080 CAVOK 17/06 Q1015 NOSIG
2026-04-07 23:20:00,METAR LGAV 072320Z 08006KT 050V120 CAVOK 16/06 Q1016 NOSIG
2026-04-07 22:50:00,METAR LGAV 072250Z VRB02KT CAVOK 17/07 Q1016 NOSIG
2026-04-07 22:20:00,METAR LGAV 072220Z VRB01KT CAVOK 17/07 Q1016 NOSIG
2026-04-07 21:50:00,METAR LGAV 072150Z VRB02KT CAVOK 17/08 Q1016 NOSIG
2026-04-07 21:20:00,METAR LGAV 072120Z VRB01KT CAVOK 16/08 Q1017 NOSIG
2026-04-07 20:50:00,METAR LGAV 072050Z VRB02KT CAVOK 15/08 Q1017 NOSIG
2026-04-07 20:20:00,METAR LGAV 072020Z VRB02KT CAVOK 16/09 Q1017 NOSIG
2026-04-07 19:50:00,METAR LGAV 071950Z VRB02KT CAVOK 17/08 Q1017 NOSIG
2026-04-07 19:20:00,METAR LGAV 071920Z VRB02KT CAVOK 15/09 Q1018 NOSIG
2026-04-07 18:50:00,METAR LGAV 071850Z 21009KT CAVOK 15/10 Q1018 NOSIG
2026-04-07 18:20:00,METAR LGAV 071820Z 21006KT CAVOK 15/10 Q1018 NOSIG
2026-04-07 17:50:00,METAR LGAV 071750Z 23006KT CAVOK 16/10 Q1018 NOSIG
2026-04-07 17:20:00,METAR LGAV 071720Z 22009KT CAVOK 16/10 Q1018 NOSIG
2026-04-07 16:50:00,METAR LGAV 071650Z 22012KT CAVOK 17/09 Q1017 NOSIG
2026-04-07 16:20:00,METAR LGAV 071620Z 22010KT CAVOK 18/10 Q1017 NOSIG
2026-04-07 15:50:00,METAR LGAV 071550Z 21013KT CAVOK 19/10 Q1017 NOSIG
2026-04-07 15:20:00,METAR LGAV 071520Z 21013KT CAVOK 20/09 Q1018 NOSIG
2026-04-07 14:50:00,METAR LGAV 071450Z 22012KT 9999 FEW020 20/10 Q1018 NOSIG
2026-04-07 14:20:00,METAR LGAV 071420Z 21012KT 9999 FEW020 21/11 Q1018 NOSIG
2026-04-07 13:50:00,METAR LGAV 071350Z 20011KT 9999 FEW020 23/11 Q1018 NOSIG
2026-04-07 13:20:00,METAR LGAV 071320Z 21010KT 9999 FEW020 23/09 Q1018 NOSIG
2026-04-07 12:50:00,METAR LGAV 071250Z 20007KT 9999 FEW020 24/09 Q1018 NOSIG
2026-04-07 12:20:00,METAR LGAV 071220Z 16006KT 110V210 9999 FEW020 24/10 Q1019 NOSIG
2026-04-07 11:50:00,METAR LGAV 071150Z 18007KT 150V220 9999 FEW020 23/09 Q1019 NOSIG
2026-04-07 11:20:00,METAR LGAV 071120Z 16009KT 120V200 9999 FEW020 23/08 Q1019 NOSIG
2026-04-07 10:50:00,METAR LGAV 071050Z 17005KT 120V240 9999 FEW020 23/12 Q1020 NOSIG
2026-04-07 10:20:00,METAR LGAV 071020Z 19005KT 160V230 9999 FEW020 23/08 Q1020 NOSIG
2026-04-07 09:50:00,METAR LGAV 070950Z VRB04KT CAVOK 22/11 Q1020 NOSIG
2026-04-07 09:20:00,METAR LGAV 070920Z VRB03KT CAVOK 22/11 Q1020 NOSIG
2026-04-07 08:50:00,METAR LGAV 070850Z VRB02KT CAVOK 22/09 Q1020 NOSIG
2026-04-07 08:20:00,METAR LGAV 070820Z VRB01KT CAVOK 21/09 Q1021 NOSIG
2026-04-07 07:50:00,METAR LGAV 070750Z VRB01KT CAVOK 20/10 Q1021 NOSIG
2026-04-07 07:20:00,METAR LGAV 070720Z VRB01KT CAVOK 19/11 Q1021 NOSIG
2026-04-07 06:50:00,METAR LGAV 070650Z VRB02KT CAVOK 18/09 Q1020 NOSIG
2026-04-07 06:20:00,METAR LGAV 070620Z VRB01KT CAVOK 16/09 Q1020 NOSIG
2026-04-07 05:50:00,METAR LGAV 070550Z VRB01KT CAVOK 15/08 Q1020 NOSIG
2026-04-07 05:20:00,METAR LGAV 070520Z VRB01KT CAVOK 12/07 Q1020 NOSIG
2026-04-07 04:50:00,METAR LGAV 070450Z VRB01KT CAVOK 11/06 Q1020 NOSIG
2026-04-07 04:20:00,METAR LGAV 070420Z 31002KT CAVOK 10/06 Q1020 NOSIG
2026-04-07 03:50:00,METAR LGAV 070350Z 28004KT CAVOK 09/05 Q1020 NOSIG
2026-04-07 03:20:00,METAR LGAV 070320Z 00000KT 9999 FEW025 08/05 Q1020 NOSIG
2026-04-07 02:50:00,METAR LGAV 070250Z 00000KT 9999 FEW025 08/06 Q1020 NOSIG
2026-04-07 02:20:00,METAR LGAV 070220Z VRB01KT 9999 FEW025 10/07 Q1020 NOSIG
2026-04-07 01:50:00,METAR LGAV 070150Z 06001KT 9999 FEW025 08/04 Q1020 NOSIG
2026-04-07 01:20:00,METAR LGAV 070120Z 31002KT 9999 FEW025 08/05 Q1020 NOSIG
2026-04-07 00:50:00,METAR LGAV 070050Z VRB03KT 9999 FEW025 08/05 Q1020 NOSIG
2026-04-07 00:20:00,METAR LGAV 070020Z 27003KT 9999 FEW025 08/06 Q1020 NOSIG
2026-04-06 23:50:00,METAR LGAV 062350Z 27004KT 9999 FEW025 09/06 Q1020 NOSIG
2026-04-06 23:20:00,METAR LGAV 062320Z 26003KT 9999 FEW025 09/06 Q1020 NOSIG
2026-04-06 22:50:00,METAR LGAV 062250Z 28004KT 9999 FEW025 10/06 Q1021 NOSIG
2026-04-06 22:20:00,METAR LGAV 062220Z 27003KT 9999 FEW025 10/06 Q1021 NOSIG
2026-04-06 21:50:00,METAR LGAV 062150Z 26004KT 230V290 9999 FEW025 08/06 Q1021 NOSIG
2026-04-06 21:20:00,METAR LGAV 062120Z 26003KT 9999 FEW025 09/06 Q1021 NOSIG
2026-04-06 20:50:00,METAR LGAV 062050Z 28004KT 9999 FEW025 11/07 Q1021 NOSIG
2026-04-06 20:20:00,METAR LGAV 062020Z 26005KT CAVOK 09/06 Q1021 NOSIG
2026-04-06 19:50:00,METAR LGAV 061950Z VRB02KT CAVOK 10/07 Q1021 NOSIG
2026-04-06 19:20:00,METAR LGAV 061920Z 28002KT CAVOK 13/05 Q1021 NOSIG
2026-04-06 18:50:00,METAR LGAV 061850Z 25003KT CAVOK 15/05 Q1021 NOSIG
2026-04-06 18:20:00,METAR LGAV 061820Z 26003KT CAVOK 16/06 Q1021 NOSIG
2026-04-06 17:50:00,METAR LGAV 061750Z VRB01KT CAVOK 17/06 Q1021 NOSIG
2026-04-06 17:20:00,METAR LGAV 061720Z VRB01KT CAVOK 16/06 Q1020 NOSIG
2026-04-06 16:50:00,METAR LGAV 061650Z COR 28005KT 9999 FEW025 17/06 Q1020 NOSIG
2026-04-06 16:20:00,METAR LGAV 061620Z 05009KT 9999 FEW025 18/06 Q1020 NOSIG
2026-04-06 15:50:00,METAR LGAV 061550Z 06011KT 9999 FEW025 19/05 Q1020 NOSIG
2026-04-06 14:50:00,METAR LGAV 061450Z 06009KT 020V080 9999 FEW025 20/05 Q1020 NOSIG
2026-04-06 14:20:00,METAR LGAV 061420Z 08009KT 9999 FEW025 21/06 Q1020 NOSIG
2026-04-06 13:50:00,METAR LGAV 061350Z 06008KT 020V090 9999 FEW025 21/05 Q1020 NOSIG
2026-04-06 13:20:00,METAR LGAV 061320Z 06007KT 010V100 9999 FEW025 21/07 Q1021 NOSIG
2026-04-06 12:50:00,METAR LGAV 061250Z 07007KT 030V100 9999 FEW025 21/07 Q1021 NOSIG
2026-04-06 12:20:00,METAR LGAV 061220Z 06008KT 020V100 9999 FEW025 21/05 Q1021 NOSIG
2026-04-06 11:50:00,METAR LGAV 061150Z 05008KT 010V090 9999 FEW025 21/05 Q1021 NOSIG
2026-04-06 11:20:00,METAR LGAV 061120Z 06012KT 030V090 9999 FEW025 21/04 Q1022 NOSIG
2026-04-06 10:50:00,METAR LGAV 061050Z 05013KT 020V080 9999 FEW025 21/07 Q1022 NOSIG
2026-04-06 10:20:00,METAR LGAV 061020Z 05011KT 9999 FEW025 20/04 Q1022 NOSIG
2026-04-06 09:50:00,METAR LGAV 060950Z 04013KT 9999 FEW025 20/05 Q1022 NOSIG
2026-04-06 09:20:00,METAR LGAV 060920Z 05010KT 010V070 9999 FEW025 20/05 Q1022 NOSIG
2026-04-06 08:50:00,METAR LGAV 060850Z 07008KT 9999 FEW025 19/08 Q1022 NOSIG
2026-04-06 08:20:00,METAR LGAV 060820Z 05008KT 360V080 9999 FEW025 19/07 Q1023 NOSIG
2026-04-06 07:50:00,METAR LGAV 060750Z 01009KT 9999 FEW025 19/06 Q1023 NOSIG
2026-04-06 07:20:00,METAR LGAV 060720Z 02008KT 350V050 9999 FEW025 19/06 Q1022 NOSIG
2026-04-06 06:50:00,METAR LGAV 060650Z 02007KT 9999 FEW025 18/07 Q1022 NOSIG
2026-04-06 06:20:00,METAR LGAV 060620Z VRB02KT 9999 FEW025 17/07 Q1022 NOSIG
2026-04-06 05:50:00,METAR LGAV 060550Z 00000KT 9999 FEW025 16/06 Q1022 NOSIG
2026-04-06 05:20:00,METAR LGAV 060520Z VRB01KT 9999 FEW025 14/06 Q1022 NOSIG
2026-04-06 04:50:00,METAR LGAV 060450Z VRB02KT 9999 FEW025 11/05 Q1022 NOSIG
2026-04-06 04:20:00,METAR LGAV 060420Z VRB01KT 9999 FEW025 13/05 Q1022 NOSIG
2026-04-06 03:50:00,METAR LGAV 060350Z 00000KT 9999 FEW025 10/05 Q1022 NOSIG
2026-04-06 03:20:00,METAR LGAV 060320Z VRB01KT 9999 FEW025 11/05 Q1022 NOSIG
2026-04-06 02:50:00,METAR LGAV 060250Z VRB03KT 9999 FEW025 12/05 Q1022 NOSIG
2026-04-06 02:20:00,METAR LGAV 060220Z 00000KT 9999 FEW025 11/05 Q1022 NOSIG
2026-04-06 01:50:00,METAR LGAV 060150Z VRB03KT 9999 FEW025 11/05 Q1022 NOSIG
2026-04-06 01:20:00,METAR LGAV 060120Z 34006KT 9999 FEW025 12/05 Q1022 NOSIG
2026-04-06 00:50:00,METAR LGAV 060050Z 33006KT 9999 FEW025 13/05 Q1022 NOSIG
2026-04-06 00:20:00,METAR LGAV 060020Z 33004KT 9999 FEW025 13/05 Q1022 NOSIG
2026-04-05 23:50:00,METAR LGAV 052350Z 34004KT 9999 FEW025 13/05 Q1022 NOSIG
2026-04-05 23:20:00,METAR LGAV 052320Z 33006KT 9999 FEW025 12/04 Q1022 NOSIG
2026-04-05 22:50:00,METAR LGAV 052250Z 32007KT 9999 FEW025 12/05 Q1022 NOSIG
2026-04-05 22:20:00,METAR LGAV 052220Z 31007KT 9999 FEW025 12/05 Q1022 NOSIG
2026-04-05 21:50:00,METAR LGAV 052150Z 30004KT 9999 FEW025 12/05 Q1022 NOSIG
2026-04-05 21:20:00,METAR LGAV 052120Z 33005KT 9999 FEW025 11/06 Q1022 NOSIG
2026-04-05 20:50:00,METAR LGAV 052050Z 34005KT 9999 FEW025 11/06 Q1022 NOSIG
2026-04-05 20:20:00,METAR LGAV 052020Z 33004KT 9999 FEW025 12/06 Q1022 NOSIG
2026-04-05 19:50:00,METAR LGAV 051950Z 31005KT 290V350 9999 FEW025 11/06 Q1022 NOSIG
2026-04-05 19:20:00,METAR LGAV 051920Z VRB02KT 9999 FEW025 14/06 Q1022 NOSIG
2026-04-05 18:50:00,METAR LGAV 051850Z 03002KT 9999 FEW025 15/06 Q1022 NOSIG
2026-04-05 18:20:00,METAR LGAV 051820Z VRB03KT 9999 FEW025 14/07 Q1022 NOSIG
2026-04-05 17:50:00,METAR LGAV 051750Z VRB03KT 9999 FEW025 14/07 Q1022 NOSIG
2026-04-05 17:20:00,METAR LGAV 051720Z 03004KT 9999 FEW025 15/06 Q1021 NOSIG
2026-04-05 16:50:00,METAR LGAV 051650Z 01006KT 9999 FEW025 16/06 Q1021 NOSIG
2026-04-05 16:20:00,METAR LGAV 051620Z 02009KT 9999 FEW025 17/06 Q1021 NOSIG
2026-04-05 15:50:00,METAR LGAV 051550Z 02011KT 9999 SCT025 17/07 Q1021 NOSIG
2026-04-05 15:20:00,METAR LGAV 051520Z 03012KT 9999 SCT025 18/07 Q1021 NOSIG
2026-04-05 14:50:00,METAR LGAV 051450Z 02014KT 9999 SCT020 18/07 Q1021 NOSIG
2026-04-05 12:50:00,METAR LGAV 051250Z 03013KT 360V080 9999 FEW018 SCT025 18/10 Q1021 NOSIG
2026-04-05 12:20:00,METAR LGAV 051220Z 03014KT 9999 FEW018 SCT025 18/10 Q1021 NOSIG
2026-04-05 11:50:00,METAR LGAV 051150Z 03016KT 9999 FEW018 BKN025 18/09 Q1021 NOSIG
2026-04-05 11:20:00,METAR LGAV 051120Z 04014KT 9999 FEW018 BKN025 17/09 Q1021 NOSIG
2026-04-05 10:50:00,METAR LGAV 051050Z 04014KT 9999 FEW018 BKN025 18/10 Q1021 NOSIG
2026-04-05 10:20:00,METAR LGAV 051020Z 05017KT 9999 FEW018 BKN025 18/10 Q1021 NOSIG
2026-04-05 09:50:00,METAR LGAV 050950Z 04017KT 9999 FEW018 BKN025 18/10 Q1021 NOSIG
2026-04-05 09:20:00,METAR LGAV 050920Z 03017KT 9999 FEW018 SCT025 17/10 Q1021 NOSIG
2026-04-05 08:50:00,METAR LGAV 050850Z 04016KT 9999 FEW018 SCT030 BKN070 17/10 Q1021 NOSIG
2026-04-05 08:20:00,METAR LGAV 050820Z 02010KT 340V050 9999 FEW018 SCT030 BKN070 17/10 Q1021 NOSIG
2026-04-05 07:50:00,METAR LGAV 050750Z 02013KT 9999 FEW018 SCT030 BKN060 16/10 Q1021 NOSIG
2026-04-05 07:20:00,METAR LGAV 050720Z 02013KT 9999 SCT020 BKN070 16/10 Q1020 NOSIG
2026-04-05 06:50:00,METAR LGAV 050650Z COR 02014KT 9999 DZ SCT020 BKN070 15/10 Q1020 NOSIG
2026-04-05 06:20:00,METAR LGAV 050620Z 03011KT 9999 SCT020 BKN070 14/10 Q1020 NOSIG
2026-04-05 05:50:00,METAR LGAV 050550Z 03009KT 9999 SCT020 BKN070 14/09 Q1020 NOSIG
2026-04-05 05:20:00,METAR LGAV 050520Z 02010KT 9999 SCT020 BKN070 14/09 Q1019 NOSIG
2026-04-05 04:50:00,METAR LGAV 050450Z 02007KT 9999 FEW025 SCT040 BKN070 14/09 Q1019 NOSIG
2026-04-05 04:20:00,METAR LGAV 050420Z 01009KT 9999 SCT025 BKN070 14/09 Q1019 NOSIG
2026-04-05 03:50:00,METAR LGAV 050350Z 02009KT 9999 SCT025 BKN050 13/09 Q1018 NOSIG
2026-04-05 03:20:00,METAR LGAV 050320Z 36010KT 9999 SCT025 BKN040 13/09 Q1018 NOSIG
2026-04-05 02:50:00,METAR LGAV 050250Z 36011KT 9999 SCT025 BKN050 14/09 Q1018 NOSIG
2026-04-05 02:20:00,METAR LGAV 050220Z 36010KT 9999 SCT025 BKN040 14/09 Q1018 NOSIG
2026-04-05 01:50:00,METAR LGAV 050150Z 36008KT 9999 FEW018 SCT025 13/09 Q1018 NOSIG
2026-04-05 01:20:00,METAR LGAV 050120Z 36010KT 9999 FEW018 SCT025 13/10 Q1017 NOSIG
2026-04-05 00:50:00,METAR LGAV 050050Z 36011KT 9999 FEW018 SCT025 BKN060 14/10 Q1017 NOSIG
2026-04-05 00:20:00,METAR LGAV 050020Z 35011KT 9999 FEW018 SCT025 BKN060 14/10 Q1017 NOSIG
2026-04-04 23:50:00,METAR LGAV 042350Z 35009KT 9999 SCT025 BKN050 13/10 Q1017 NOSIG
2026-04-04 23:20:00,METAR LGAV 042320Z 35008KT 9999 SCT025 13/09 Q1017 NOSIG
2026-04-04 22:50:00,METAR LGAV 042250Z 35008KT 9999 SCT025 13/09 Q1017 NOSIG
2026-04-04 22:20:00,METAR LGAV 042220Z 35010KT 9999 SCT025 13/09 Q1017 NOSIG
2026-04-04 21:50:00,METAR LGAV 042150Z 35009KT 9999 SCT025 13/09 Q1016 NOSIG
2026-04-04 21:20:00,METAR LGAV 042120Z 33007KT 9999 SCT025 BKN050 13/09 Q1016 NOSIG
2026-04-04 20:50:00,METAR LGAV 042050Z 34008KT 9999 SCT025 BKN050 14/09 Q1016 NOSIG
2026-04-04 20:20:00,METAR LGAV 042020Z 34006KT 9999 SCT025 BKN050 14/09 Q1016 NOSIG
2026-04-04 19:50:00,METAR LGAV 041950Z 34006KT 9999 SCT025 BKN050 13/09 Q1016 NOSIG
2026-04-04 19:20:00,METAR LGAV 041920Z 02004KT 9999 SCT025 BKN040 14/08 Q1016 NOSIG
2026-04-04 18:50:00,METAR LGAV 041850Z 36008KT 9999 SCT025 BKN040 14/08 Q1015 NOSIG
2026-04-04 18:20:00,METAR LGAV 041820Z 34006KT 9999 SCT025 BKN040 14/08 Q1015 NOSIG
2026-04-04 17:50:00,METAR LGAV 041750Z VRB03KT 9999 SCT025 BKN040 14/08 Q1015 NOSIG
2026-04-04 17:20:00,METAR LGAV 041720Z 35004KT 300V020 9999 SCT025 BKN040 15/08 Q1014 NOSIG
2026-04-04 16:50:00,METAR LGAV 041650Z VRB02KT 9999 SCT025 BKN040 15/08 Q1014 NOSIG
2026-04-04 16:20:00,METAR LGAV 041620Z 34007KT 9999 SCT025 BKN040 15/08 Q1014 NOSIG
2026-04-04 15:50:00,METAR LGAV 041550Z 35008KT 9999 SCT025 BKN040 15/07 Q1013 NOSIG
2026-04-04 15:20:00,METAR LGAV 041520Z 35008KT 9999 SCT025 BKN050 16/07 Q1013 NOSIG
2026-04-04 14:50:00,METAR LGAV 041450Z 33010KT 9999 SCT025 BKN040 16/07 Q1013 NOSIG
2026-04-04 14:20:00,METAR LGAV 041420Z 32006KT 9999 SCT025 BKN040 15/08 Q1013 NOSIG
2026-04-04 13:50:00,METAR LGAV 041350Z 34006KT 9999 SCT025 BKN040 15/09 Q1013 NOSIG
2026-04-04 13:20:00,METAR LGAV 041320Z 33006KT 9999 DZ SCT025 BKN040 14/10 Q1013 NOSIG
2026-04-04 12:50:00,METAR LGAV 041250Z 33006KT 9999 -RA SCT025 BKN040 14/10 Q1013 NOSIG
2026-04-04 12:20:00,METAR LGAV 041220Z 32010KT 9999 DZ SCT025 BKN040 15/09 Q1013 NOSIG
2026-04-04 11:50:00,METAR LGAV 041150Z 32011KT 9999 DZ SCT025 BKN040 16/10 Q1013 NOSIG
2026-04-04 11:20:00,METAR LGAV 041120Z 35010KT 9999 SCT025 BKN040 16/08 Q1013 NOSIG
2026-04-04 10:50:00,METAR LGAV 041050Z 35008KT 9999 SCT025 BKN040 15/07 Q1013 NOSIG
2026-04-04 10:20:00,METAR LGAV 041020Z 35009KT 9999 SCT025 BKN040 16/07 Q1012 NOSIG
2026-04-04 09:50:00,METAR LGAV 040950Z 36005KT 9999 SCT025 BKN040 16/08 Q1012 NOSIG
2026-04-04 09:20:00,METAR LGAV 040920Z 01008KT 9999 SCT025 BKN035 16/08 Q1012 NOSIG
2026-04-04 08:50:00,METAR LGAV 040850Z VRB03KT 9999 SCT025 BKN035 16/08 Q1012 NOSIG
2026-04-04 08:20:00,METAR LGAV 040820Z 02004KT 310V080 9999 SCT025 BKN040 17/08 Q1011 NOSIG
2026-04-04 07:50:00,METAR LGAV 040750Z 34007KT 300V020 9999 SCT025 BKN050 16/07 Q1011 NOSIG
2026-04-04 07:20:00,METAR LGAV 040720Z 35007KT 320V020 9999 FEW025 SCT050 17/07 Q1011 NOSIG
2026-04-04 06:50:00,METAR LGAV 040650Z 36007KT 320V030 9999 FEW025 SCT050 16/08 Q1011 NOSIG
2026-04-04 06:20:00,METAR LGAV 040620Z 02006KT 330V040 9999 FEW025 BKN050 16/09 Q1010 NOSIG
2026-04-04 05:50:00,METAR LGAV 040550Z VRB03KT 9999 SCT025 13/10 Q1010 NOSIG
2026-04-04 05:20:00,METAR LGAV 040520Z VRB02KT 9999 SCT025 11/08 Q1010 NOSIG
2026-04-04 04:50:00,METAR LGAV 040450Z 00000KT 9999 SCT025 10/07 Q1010 NOSIG
2026-04-04 04:20:00,METAR LGAV 040420Z VRB02KT 9999 SCT025 10/07 Q1009 NOSIG
2026-04-04 03:50:00,METAR LGAV 040350Z VRB02KT 9999 SCT025 11/08 Q1009 NOSIG
2026-04-04 03:20:00,METAR LGAV 040320Z 28002KT 9999 SCT025 09/08 Q1009 NOSIG
2026-04-04 02:50:00,METAR LGAV 040250Z 00000KT 9999 SCT025 09/08 Q1009 NOSIG
2026-04-04 02:20:00,METAR LGAV 040220Z 21002KT 9999 SCT025 09/08 Q1009 NOSIG
2026-04-04 01:50:00,METAR LGAV 040150Z 28001KT 9999 SCT025 10/09 Q1008 NOSIG
2026-04-04 01:20:00,METAR LGAV 040120Z 18003KT 9999 SCT025 09/08 Q1008 NOSIG
2026-04-04 00:50:00,METAR LGAV 040050Z VRB01KT 9999 SCT025 10/09 Q1008 NOSIG
2026-04-04 00:20:00,METAR LGAV 040020Z VRB02KT 9999 SCT025 10/09 Q1009 NOSIG
2026-04-03 23:50:00,METAR LGAV 032350Z VRB02KT 9999 SCT025 SCT070 10/09 Q1009 NOSIG
2026-04-03 23:20:00,METAR LGAV 032320Z VRB02KT 9999 SCT025 SCT080 10/08 Q1009
2026-04-03 22:50:00,METAR LGAV 032250Z VRB01KT 9999 SCT025 09/08 Q1008 NOSIG
2026-04-03 22:20:00,METAR LGAV 032220Z 02001KT 9999 SCT025 09/08 Q1008 NOSIG
2026-04-03 21:50:00,METAR LGAV 032150Z VRB01KT 9999 SCT025 10/08 Q1008 NOSIG
2026-04-03 21:20:00,METAR LGAV 032120Z VRB03KT 9999 SCT025 10/09 Q1008 NOSIG
2026-04-03 20:50:00,METAR LGAV 032050Z VRB03KT 9999 SCT025 10/09 Q1008 NOSIG
2026-04-03 20:20:00,METAR LGAV 032020Z 28003KT 9999 FEW020 SCT070 11/09 Q1008 NOSIG
2026-04-03 19:50:00,METAR LGAV 031950Z VRB01KT 9999 FEW020 SCT070 11/10 Q1008 NOSIG
2026-04-03 19:20:00,METAR LGAV 031920Z 00000KT 9999 FEW020 SCT070 12/09 Q1007 NOSIG
2026-04-03 18:50:00,METAR LGAV 031850Z 00000KT 9999 FEW020 SCT070 12/09 Q1007 NOSIG
2026-04-03 18:20:00,METAR LGAV 031820Z VRB02KT 9999 FEW020 SCT030 12/09 Q1007 NOSIG
2026-04-03 17:50:00,METAR LGAV 031750Z VRB02KT 9999 FEW018 SCT030 13/09 Q1006 NOSIG
2026-04-03 17:20:00,METAR LGAV 031720Z 12004KT 9999 FEW020 SCT030 13/09 Q1006 NOSIG
2026-04-03 16:50:00,METAR LGAV 031650Z 08004KT 9999 FEW020 SCT035 13/09 Q1005 NOSIG
2026-04-03 16:20:00,METAR LGAV 031620Z 10004KT 040V140 9999 FEW018 SCT035 14/09 Q1005 NOSIG
2026-04-03 15:50:00,METAR LGAV 031550Z 35004KT 310V080 9999 FEW020 BKN030 14/10 Q1005 NOSIG
2026-04-03 15:20:00,METAR LGAV 031520Z 08007KT 050V110 9999 FEW018 BKN030 15/09 Q1004 NOSIG
2026-04-03 14:50:00,METAR LGAV 031450Z 08007KT 9999 FEW018TCU BKN030 15/10 Q1004 NOSIG
2026-04-03 14:20:00,METAR LGAV 031420Z VRB03KT 9999 FEW020TCU SCT035 16/10 Q1003 NOSIG
2026-04-03 13:50:00,METAR LGAV 031350Z 20008KT 130V230 9999 FEW020TCU SCT040 19/10 Q1003 NOSIG
2026-04-03 13:20:00,METAR LGAV 031320Z 23007KT 9999 FEW020TCU SCT040 18/09 Q1003 NOSIG
2026-04-03 12:50:00,METAR LGAV 031250Z 26010KT 9999 FEW020TCU SCT035 18/09 Q1003 NOSIG
2026-04-03 12:20:00,METAR LGAV 031220Z 25009KT 9999 FEW018 BKN030 17/10 Q1003 NOSIG
2026-04-03 11:50:00,METAR LGAV 031150Z 22009KT 170V250 9999 FEW018 BKN030 17/09 Q1003 NOSIG
2026-04-03 11:20:00,METAR LGAV 031120Z 24006KT 210V280 9999 FEW018 BKN030 17/09 Q1003 NOSIG
2026-04-03 10:50:00,METAR LGAV 031050Z 22010KT 9999 SCT018 BKN025 16/09 Q1003 NOSIG
2026-04-03 10:20:00,METAR LGAV 031020Z 22010KT 9999 SCT018 BKN025 17/10 Q1002 NOSIG
2026-04-03 09:50:00,METAR LGAV 030950Z 22012KT 9000 SCT012 BKN025 15/11 Q1003 NOSIG
2026-04-03 09:20:00,METAR LGAV 030920Z VRB02KT 8000 -RA SCT012 BKN025 13/10 Q1003 NOSIG
2026-04-03 08:50:00,METAR LGAV 030850Z VRB01KT 8000 -RA SCT010 BKN025 14/10 Q1003 NOSIG
2026-04-03 08:20:00,METAR LGAV 030820Z 18009KT 7000 RA SCT010 BKN030 14/10 Q1003 NOSIG
2026-04-03 07:50:00,METAR LGAV 030750Z COR 19010KT 9999 DZ SCT012 BKN070 13/10 Q1003 NOSIG
2026-04-03 07:20:00,METAR LGAV 030720Z 21006KT 9999 SCT020 BKN070 14/09 Q1002 NOSIG
2026-04-03 06:50:00,METAR LGAV 030650Z 20006KT 9999 FEW020 SCT070 14/09 Q1002 NOSIG
2026-04-03 06:20:00,METAR LGAV 030620Z 19009KT 9999 FEW018 SCT035 15/09 Q1002 NOSIG
2026-04-03 05:50:00,METAR LGAV 030550Z 20010KT 9999 FEW018 SCT035 15/09 Q1001 NOSIG
2026-04-03 05:20:00,METAR LGAV 030520Z 19007KT 9999 FEW018 SCT035 14/10 Q1001 NOSIG
2026-04-03 04:50:00,METAR LGAV 030450Z 19010KT 9999 FEW018 SCT035 13/09 Q1000 NOSIG
2026-04-03 04:20:00,METAR LGAV 030420Z 20009KT 9999 FEW018 SCT035 13/09 Q1000 NOSIG
2026-04-03 03:50:00,METAR LGAV 030350Z 20010KT 9999 FEW020 SCT060 13/09 Q1000 NOSIG
2026-04-03 03:20:00,METAR LGAV 030320Z 20011KT 9999 FEW018 SCT040 13/09 Q1000 NOSIG
2026-04-03 02:50:00,METAR LGAV 030250Z 20013KT 9999 FEW018 SCT040 13/09 Q1000 NOSIG
2026-04-03 02:20:00,METAR LGAV 030220Z 20014KT 9999 FEW018 SCT040 13/09 Q1000 NOSIG
2026-04-03 01:50:00,METAR LGAV 030150Z 20014KT 9999 FEW020 SCT040 13/09 Q1000 NOSIG
2026-04-03 01:20:00,METAR LGAV 030120Z 19013KT 9999 FEW018 SCT040 13/09 Q1000 NOSIG
2026-04-03 00:50:00,METAR LGAV 030050Z 19013KT 9999 FEW018 SCT040 14/09 Q1000 NOSIG
2026-04-03 00:20:00,METAR LGAV 030020Z 20010KT 9999 FEW020 SCT040 14/09 Q1000 NOSIG
2026-04-02 23:50:00,METAR LGAV 022350Z 19011KT 9999 FEW020 SCT040 14/09 Q1000 NOSIG
2026-04-02 23:20:00,METAR LGAV 022320Z 20012KT 9999 FEW020 SCT040 14/09 Q1000 NOSIG
2026-04-02 22:50:00,METAR LGAV 022250Z 20006KT 9999 FEW020 SCT060 14/09 Q1000 NOSIG
2026-04-02 22:20:00,METAR LGAV 022220Z 19005KT 150V230 9999 FEW020 SCT060 14/09 Q1000 NOSIG
2026-04-02 21:50:00,METAR LGAV 022150Z 18007KT 9999 FEW020 SCT060 14/09 Q1000 NOSIG
2026-04-02 21:20:00,METAR LGAV 022120Z 16005KT 120V190 9999 FEW018 SCT060 14/09 Q1000 NOSIG
2026-04-02 20:50:00,METAR LGAV 022050Z 18004KT 9999 FEW018 SCT060 13/09 Q1000 NOSIG
2026-04-02 20:20:00,METAR LGAV 022020Z 18005KT 140V210 9999 FEW020 SCT060 13/09 Q1000 NOSIG
2026-04-02 19:50:00,METAR LGAV 021950Z 22006KT 9999 FEW018 SCT030 13/09 Q1000 NOSIG
2026-04-02 19:20:00,METAR LGAV 021920Z 23006KT 9999 FEW018 SCT060 13/09 Q0999 NOSIG
2026-04-02 18:50:00,METAR LGAV 021850Z 21011KT 9999 FEW018 SCT060 13/09 Q0999 NOSIG
2026-04-02 18:20:00,METAR LGAV 021820Z 21015KT 9999 SCT016 SCT060 14/10 Q0998 NOSIG
2026-04-02 17:50:00,METAR LGAV 021750Z 20012KT 9999 SCT017 SCT060 13/09 Q0998 NOSIG
2026-04-02 17:20:00,METAR LGAV 021720Z 20014KT 9999 SCT017 SCT070 13/09 Q0998 NOSIG
2026-04-02 16:50:00,METAR LGAV 021650Z 21018KT 9999 SCT017 SCT025 13/09 Q0997 NOSIG
2026-04-02 16:20:00,METAR LGAV 021620Z 21016KT 9999 -DZ SCT018 SCT025 13/09 Q0997 NOSIG
2026-04-02 15:50:00,METAR LGAV 021550Z 21015KT 9999 SCT018 SCT025 13/09 Q0997 NOSIG
2026-04-02 15:20:00,METAR LGAV 021520Z 20020KT 9000 DZ SCT018 SCT025 BKN070 14/10 Q0997 NOSIG
2026-04-02 14:50:00,METAR LGAV 021450Z 21019KT 9999 SCT018 SCT025 BKN070 14/09 Q0997 NOSIG
2026-04-02 14:20:00,METAR LGAV 021420Z 20022KT 9999 FEW018 SCT025 16/10 Q0996 NOSIG
2026-04-02 13:50:00,METAR LGAV 021350Z 20022KT 9999 SCT020 SCT025 BKN070 16/09 Q0996 NOSIG
2026-04-02 13:20:00,METAR LGAV 021320Z 20023KT 8000 SCT018 SCT025 BKN070 16/10 Q0997 NOSIG
2026-04-02 12:50:00,METAR LGAV 021250Z 20019KT 9000 SCT018 SCT025 BKN070 15/10 Q0996 NOSIG
2026-04-02 12:20:00,METAR LGAV 021220Z 20020KT 9000 SCT018 SCT025 BKN070 16/10 Q0997 NOSIG
2026-04-02 11:50:00,METAR LGAV 021150Z 21024KT 9999 FEW018 SCT025 16/10 Q0996 NOSIG
2026-04-02 11:20:00,METAR LGAV 021120Z 21024KT 9999 FEW018 SCT025 16/10 Q0997 NOSIG
2026-04-02 10:50:00,METAR LGAV 021050Z 21021KT 8000 -DZ SCT018 BKN030 BKN060 15/11 Q0997 NOSIG
2026-04-02 10:20:00,METAR LGAV 021020Z 21024G34KT 9999 SCT018 SCT030 BKN070 15/09 Q0997 NOSIG
2026-04-02 09:50:00,METAR LGAV 020950Z 21019KT 9999 FEW020 SCT030 BKN060 15/10 Q0997 NOSIG
2026-04-02 09:20:00,METAR LGAV 020920Z 21020KT 9999 FEW020 SCT030 16/08 Q0996 NOSIG
2026-04-02 08:50:00,METAR LGAV 020850Z 21017KT 9999 FEW020 SCT035 16/08 Q0997 NOSIG
2026-04-02 08:20:00,METAR LGAV 020820Z 22014KT 9999 FEW020 SCT035 15/08 Q0997 NOSIG
2026-04-02 07:50:00,METAR LGAV 020750Z 22010KT 9999 FEW020 SCT035 BKN070 15/08 Q0997 NOSIG
2026-04-02 07:20:00,METAR LGAV 020720Z 22010KT 9999 FEW018 BKN030 BKN070 13/09 Q0997 NOSIG
2026-04-02 06:50:00,METAR LGAV 020650Z 24007KT 9000 SCT018 BKN030 BKN070 12/08 Q0996 NOSIG
2026-04-02 06:20:00,METAR LGAV 020620Z 23011KT 9000 SCT018 BKN030 BKN070 12/08 Q0995 NOSIG
2026-04-02 05:50:00,METAR LGAV 020550Z 24013KT 7000 -RA SCT018 BKN025 OVC070 11/07 Q0995 NOSIG
2026-04-02 05:20:00,METAR LGAV 020520Z 23014KT 6000 -RA SCT018 BKN025 OVC070 11/08 Q0994 RERA NOSIG
2026-04-02 04:50:00,METAR LGAV 020450Z 23014KT 5000 RA SCT018 BKN025 BKN070 11/08 Q0994 NOSIG
2026-04-02 04:20:00,METAR LGAV 020420Z 23018KT 6000 -RA SCT015 BKN025 OVC070 11/08 Q0994 RERA NOSIG
2026-04-02 03:50:00,METAR LGAV 020350Z 22016KT 6000 RA SCT015 BKN025 OVC070 11/09 Q0993 NOSIG
2026-04-02 03:20:00,METAR LGAV 020320Z COR 22012G24KT 6000 RA SCT015 BKN025 OVC070 12/10 Q0993 NOSIG
2026-04-02 02:50:00,METAR LGAV 020250Z 21009KT 7000 -RA SCT015 BKN025 OVC070 12/10 Q0992 NOSIG
2026-04-02 02:20:00,METAR LGAV 020220Z 22010KT 9000 SCT015 BKN025 BKN070 13/10 Q0992 NOSIG
2026-04-02 01:50:00,METAR LGAV 020150Z 22011KT 9000 SCT015 BKN025 BKN070 13/10 Q0992 NOSIG
2026-04-02 01:20:00,METAR LGAV 020120Z 25008KT 9000 SCT015 BKN025 BKN070 13/10 Q0992 NOSIG
2026-04-02 00:50:00,METAR LGAV 020050Z VRB01KT 8000 SCT015 BKN025 BKN070 13/10 Q0991 NOSIG
2026-04-02 00:20:00,METAR LGAV 020020Z 27008KT 8000 SCT015 BKN025 BKN070 13/10 Q0991 NOSIG
2026-04-01 23:50:00,METAR LGAV 012350Z 24008KT 7000 -RA SCT015 BKN025 OVC070 13/10 Q0991 NOSIG
2026-04-01 23:20:00,METAR LGAV 012320Z 28010KT 240V310 7000 -RA SCT015 BKN025 OVC070 14/11 Q0991 NOSIG
2026-04-01 22:50:00,METAR LGAV 012250Z 34011KT 7000 -RA SCT015 BKN025 OVC070 14/11 Q0990 NOSIG
2026-04-01 22:20:00,METAR LGAV 012220Z 35018KT 8000 SCT015 BKN025 OVC070 14/12 Q0990 NOSIG
2026-04-01 21:50:00,METAR LGAV 012150Z 01024KT 7000 -RA SCT015 BKN020 OVC070 13/12 Q0989 NOSIG
2026-04-01 21:20:00,METAR LGAV 012120Z 01023KT 7000 -RA SCT015TCU BKN020 OVC070 13/12 Q0989 NOSIG
2026-04-01 20:50:00,METAR LGAV 012050Z 01027KT 6000 TSRA SCT012CB BKN020 OVC070 13/12 Q0990 NOSIG
2026-04-01 20:20:00,METAR LGAV 012020Z 02028G38KT 6000 RA SCT012TCU BKN020 OVC070 13/12 Q0990 NOSIG
2026-04-01 19:50:00,METAR LGAV 011950Z 02022G35KT 6000 RA SCT012TCU BKN020 OVC070 13/12 Q0991 NOSIG
2026-04-01 19:20:00,METAR LGAV 011920Z 04018G28KT 6000 RA SCT012TCU BKN020 OVC070 13/11 Q0991 NOSIG
2026-04-01 18:50:00,METAR LGAV 011850Z 04026KT 6000 RA SCT012TCU BKN020 OVC070 12/11 Q0992 RETS NOSIG
2026-04-01 18:20:00,METAR LGAV 011820Z 04024G34KT 6000 TSRA SCT012CB BKN020 OVC080 13/11 Q0993 NOSIG
2026-04-01 17:50:00,METAR LGAV 011750Z 04023G33KT 6000 RA SCT012TCU BKN020 OVC070 13/10 Q0993 NOSIG
2026-04-01 17:20:00,METAR LGAV 011720Z 05028KT 6000 RA SCT012 BKN020 OVC070 13/11 Q0994 NOSIG
2026-04-01 16:50:00,METAR LGAV 011650Z 04024G34KT 7000 DZ SCT012 BKN020 OVC070 13/11 Q0994 NOSIG
2026-04-01 16:20:00,METAR LGAV 011620Z 04023KT 6000 -RA SCT010 BKN020 OVC070 13/11 Q0995 NOSIG
2026-04-01 15:50:00,METAR LGAV 011550Z 04021G31KT 6000 -RA SCT010 BKN020 OVC070 13/11 Q0995 NOSIG
2026-04-01 15:20:00,METAR LGAV 011520Z 04020G30KT 6000 -RA SCT010 BKN020 OVC070 13/11 Q0997 NOSIG
2026-04-01 14:50:00,METAR LGAV 011450Z 04015KT 6000 -RA SCT012 BKN025 OVC070 13/11 Q0997 NOSIG
2026-04-01 13:50:00,METAR LGAV 011350Z 02013KT 6000 RA SCT012 BKN025 OVC070 13/12 Q0999 NOSIG
2026-04-01 13:20:00,METAR LGAV 011320Z 05010KT 6000 RA SCT012 BKN025 OVC070 13/12 Q0999 NOSIG
2026-04-01 12:50:00,METAR LGAV 011250Z 05009KT 7000 -RA SCT012 BKN015 OVC070 13/12 Q1001 NOSIG
2026-04-01 12:20:00,METAR LGAV 011220Z 06009KT 7000 -RA SCT015TCU BKN025 OVC070 13/11 Q1002 NOSIG
2026-04-01 11:50:00,METAR LGAV 011150Z 11012KT 6000 -TSRA SCT015CB BKN025 OVC070 12/10 Q1004 NOSIG
2026-04-01 11:20:00,METAR LGAV 011120Z 10017KT 8000 -RA SCT015 BKN025 OVC070 13/10 Q1004 NOSIG
2026-04-01 10:50:00,METAR LGAV 011050Z 11015KT 8000 -RA SCT015 BKN025 BKN070 13/11 Q1004 NOSIG
2026-04-01 10:20:00,METAR LGAV 011020Z 10010KT 8000 -RA SCT015 BKN025 OVC070 13/11 Q1004 RERA NOSIG
2026-04-01 09:50:00,METAR LGAV 010950Z 11015KT 6000 RA SCT015 BKN025 OVC070 14/11 Q1006 RERA NOSIG
2026-04-01 09:20:00,METAR LGAV 010920Z 12012KT 9000 RA SCT015 BKN025 BKN070 14/11 Q1006 NOSIG
2026-04-01 08:50:00,METAR LGAV 010850Z COR 11010KT 9000 RA SCT015 BKN025 BKN070 14/12 Q1005 NOSIG
2026-04-01 08:20:00,METAR LGAV 010820Z 13010KT 9000 -RA SCT015 BKN025 BKN070 14/11 Q1006 NOSIG
2026-04-01 07:50:00,METAR LGAV 010750Z 12009KT 080V140 9999 SCT015 BKN025 BKN070 14/11 Q1005 NOSIG
2026-04-01 07:20:00,METAR LGAV 010720Z 09009KT 9000 SCT015 BKN025 BKN070 14/12 Q1005 NOSIG
2026-04-01 06:50:00,METAR LGAV 010650Z 07006KT 9000 -RA SCT015 BKN025 BKN070 14/12 Q1005 NOSIG
2026-04-01 06:20:00,METAR LGAV 010620Z 07006KT 9000 -RA SCT015 BKN025 BKN070 14/12 Q1006 NOSIG
2026-04-01 05:50:00,METAR LGAV 010550Z 07004KT 9999 -DZ SCT015 BKN025 BKN070 14/11 Q1006 NOSIG
2026-04-01 05:20:00,METAR LGAV 010520Z 07005KT 9999 DZ SCT015 BKN025 BKN070 14/11 Q1006 NOSIG
2026-04-01 04:50:00,METAR LGAV 010450Z COR 09003KT 9999 -RA SCT015 BKN025 BKN070 14/11 Q1007 NOSIG
2026-04-01 04:20:00,METAR LGAV 010420Z 09003KT 9999 FEW015 SCT025 BKN070 14/11 Q1007 NOSIG
2026-04-01 03:50:00,METAR LGAV 010350Z 09005KT 9999 DZ FEW015 SCT025 BKN070 14/12 Q1007 NOSIG
2026-04-01 03:20:00,METAR LGAV 010320Z 08003KT 9999 DZ FEW015 SCT020 BKN070 14/11 Q1007 NOSIG
2026-04-01 02:50:00,METAR LGAV 010250Z 10003KT 9999 -RA FEW015 SCT020 BKN070 13/11 Q1007 NOSIG
2026-04-01 02:20:00,METAR LGAV 010220Z COR 07002KT 9999 DZ FEW015 SCT020 BKN070 13/10 Q1007 NOSIG
2026-04-01 01:50:00,METAR LGAV 010150Z 09003KT 9999 SCT020 BKN070 13/09 Q1007 NOSIG
2026-04-01 01:20:00,METAR LGAV 010120Z 11003KT 9999 SCT025 13/09 Q1007 NOSIG
2026-04-01 00:50:00,METAR LGAV 010050Z 12005KT 9999 SCT025 13/09 Q1008 NOSIG
2026-04-01 00:20:00,METAR LGAV 010020Z 10002KT 9999 SCT030 13/09 Q1008 NOSIG
2026-03-31 23:50:00,METAR LGAV 312350Z VRB01KT 9999 SCT025 12/09 Q1008 NOSIG
2026-03-31 23:20:00,METAR LGAV 312320Z VRB02KT 9999 SCT025 13/09 Q1009 NOSIG
2026-03-31 22:50:00,METAR LGAV 312250Z VRB01KT 9999 SCT025 13/09 Q1009 NOSIG
2026-03-31 22:20:00,METAR LGAV 312220Z VRB01KT 9999 SCT025 13/09 Q1009 NOSIG
2026-03-31 21:50:00,METAR LGAV 312150Z 12003KT 9999 SCT025 14/09 Q1009 NOSIG
2026-03-31 21:20:00,METAR LGAV 312120Z VRB03KT 9999 SCT020 14/09 Q1009 NOSIG
2026-03-31 20:50:00,METAR LGAV 312050Z 17003KT 9999 SCT020 14/10 Q1009 NOSIG
2026-03-31 20:20:00,METAR LGAV 312020Z 19006KT 9999 SCT018 14/09 Q1008 NOSIG
2026-03-31 19:50:00,METAR LGAV 311950Z 19008KT 9999 SCT020 14/10 Q1008 NOSIG
2026-03-31 19:20:00,METAR LGAV 311920Z 20008KT 9999 SCT020 14/10 Q1008 NOSIG
2026-03-31 18:50:00,METAR LGAV 311850Z 21007KT 9999 SCT020 14/10 Q1008 NOSIG
2026-03-31 18:20:00,METAR LGAV 311820Z 20009KT 9999 SCT020 14/09 Q1008 NOSIG
2026-03-31 17:50:00,METAR LGAV 311750Z 21011KT 9999 FEW025 14/09 Q1007 NOSIG
2026-03-31 17:20:00,METAR LGAV 311720Z 20010KT 9999 FEW025 14/08 Q1007 NOSIG
2026-03-31 16:50:00,METAR LGAV 311650Z 20010KT 9999 FEW025 15/08 Q1007 NOSIG
2026-03-31 16:20:00,METAR LGAV 311620Z 20013KT 9999 FEW025 SCT070 16/08 Q1007 NOSIG
2026-03-31 15:50:00,METAR LGAV 311550Z 20013KT 9999 FEW025 16/08 Q1007 NOSIG
2026-03-31 15:20:00,METAR LGAV 311520Z 21013KT 9999 SCT025 17/07 Q1006 NOSIG
2026-03-31 14:50:00,METAR LGAV 311450Z 21014KT 9999 SCT025 17/08 Q1006 NOSIG
2026-03-31 14:20:00,METAR LGAV 311420Z 21014KT 9999 SCT025 18/07 Q1006 NOSIG
2026-03-31 13:50:00,METAR LGAV 311350Z 20015KT 9999 SCT025 18/06 Q1006 NOSIG
2026-03-31 13:20:00,METAR LGAV 311320Z 21012KT 9999 SCT025 18/05 Q1006 NOSIG
2026-03-31 12:50:00,METAR LGAV 311250Z 21012KT 9999 SCT025 17/07 Q1006 NOSIG
2026-03-31 12:20:00,METAR LGAV 311220Z 21013KT 9999 SCT025 18/07 Q1007 NOSIG
2026-03-31 11:50:00,METAR LGAV 311150Z 21013KT 9999 SCT025 18/08 Q1007 NOSIG
2026-03-31 11:20:00,METAR LGAV 311120Z 21012KT 9999 SCT025 18/08 Q1007 NOSIG
2026-03-31 10:50:00,METAR LGAV 311050Z 22011KT 190V250 9999 SCT025 SCT070 18/07 Q1007 NOSIG
2026-03-31 10:20:00,METAR LGAV 311020Z 22011KT 9999 SCT025 BKN070 17/07 Q1007 NOSIG
2026-03-31 09:50:00,METAR LGAV 310950Z 20008KT 160V240 9999 SCT025 SCT070 18/08 Q1007 NOSIG
2026-03-31 09:20:00,METAR LGAV 310920Z VRB03KT 9999 SCT025 BKN060 16/09 Q1007 NOSIG
2026-03-31 08:50:00,METAR LGAV 310850Z VRB01KT 9999 SCT025 BKN060 16/09 Q1007 NOSIG
2026-03-31 08:20:00,METAR LGAV 310820Z VRB03KT 9999 SCT025 BKN060 16/09 Q1007 NOSIG
2026-03-31 07:50:00,METAR LGAV 310750Z VRB02KT 9999 SCT025 BKN060 16/09 Q1007 NOSIG
2026-03-31 07:20:00,METAR LGAV 310720Z 00000KT 9999 SCT025 BKN060 15/09 Q1007 NOSIG
2026-03-31 06:50:00,METAR LGAV 310650Z VRB01KT 9999 SCT025 BKN060 13/09 Q1007 NOSIG
2026-03-31 06:20:00,METAR LGAV 310620Z VRB02KT 9999 SCT020 BKN060 13/09 Q1007 NOSIG
2026-03-31 05:50:00,METAR LGAV 310550Z VRB01KT 9999 SCT020 BKN060 12/09 Q1007 NOSIG
2026-03-31 05:20:00,METAR LGAV 310520Z 23002KT 9999 SCT025 BKN060 10/08 Q1007 NOSIG
2026-03-31 04:50:00,METAR LGAV 310450Z VRB01KT 9999 SCT020 SCT060 10/07 Q1007 NOSIG
2026-03-31 04:20:00,METAR LGAV 310420Z VRB01KT 9999 FEW015 SCT020 09/07 Q1006 NOSIG
2026-03-31 03:50:00,METAR LGAV 310350Z VRB01KT 9999 SCT018 SCT060 08/06 Q1006 NOSIG
2026-03-31 03:20:00,METAR LGAV 310320Z 00000KT 9999 FEW015 SCT020 08/05 Q1006 NOSIG
2026-03-31 02:50:00,METAR LGAV 310250Z 03001KT 9999 FEW015 SCT020 08/05 Q1006 NOSIG
2026-03-31 02:20:00,METAR LGAV 310220Z 01002KT 9999 FEW015 SCT020 09/06 Q1007 NOSIG
2026-03-31 01:50:00,METAR LGAV 310150Z 03002KT 9999 FEW015 SCT020 09/06 Q1007 NOSIG
2026-03-31 01:20:00,METAR LGAV 310120Z 30001KT 9999 FEW015 SCT025 09/06 Q1007 NOSIG
2026-03-31 00:50:00,METAR LGAV 310050Z 02002KT 9999 FEW015 SCT020 08/05 Q1007 NOSIG
2026-03-31 00:20:00,METAR LGAV 310020Z 02004KT 9999 SCT020 SCT060 09/05 Q1007 NOSIG
2026-03-30 23:50:00,METAR LGAV 302350Z VRB02KT 9999 SCT020 SCT060 09/06 Q1008 NOSIG
2026-03-30 23:20:00,METAR LGAV 302320Z VRB02KT 9999 FEW025 09/06 Q1008 NOSIG
2026-03-30 22:50:00,METAR LGAV 302250Z 22002KT 9999 FEW025 08/05 Q1008 NOSIG
2026-03-30 22:20:00,METAR LGAV 302220Z 12003KT 9999 FEW025 09/06 Q1008 NOSIG
2026-03-30 21:50:00,METAR LGAV 302150Z 03004KT 9999 FEW025 09/06 Q1008 NOSIG
2026-03-30 21:20:00,METAR LGAV 302120Z 24003KT 9999 FEW025 11/06 Q1008 NOSIG
2026-03-30 20:50:00,METAR LGAV 302050Z VRB01KT 9999 FEW025 11/07 Q1008 NOSIG
2026-03-30 20:20:00,METAR LGAV 302020Z 25002KT 9999 FEW025 11/07 Q1008 NOSIG
2026-03-30 19:50:00,METAR LGAV 301950Z VRB02KT 9999 FEW025 11/07 Q1008 NOSIG
2026-03-30 19:20:00,METAR LGAV 301920Z 26005KT 9999 FEW025 13/07 Q1008 NOSIG
2026-03-30 18:50:00,METAR LGAV 301850Z 28004KT 9999 FEW025 13/08 Q1009 NOSIG
2026-03-30 18:20:00,METAR LGAV 301820Z 26005KT 9999 FEW025 13/08 Q1009 NOSIG
2026-03-30 17:50:00,METAR LGAV 301750Z 25002KT 9999 FEW025 14/08 Q1008 NOSIG
2026-03-30 17:20:00,METAR LGAV 301720Z 24005KT 9999 FEW025 14/08 Q1008 NOSIG
2026-03-30 16:50:00,METAR LGAV 301650Z 23007KT 9999 FEW025 14/08 Q1008 NOSIG
2026-03-30 16:20:00,METAR LGAV 301620Z 22011KT 9999 FEW025 15/08 Q1008 NOSIG
2026-03-30 15:50:00,METAR LGAV 301550Z 21011KT 9999 FEW025 16/09 Q1008 NOSIG
2026-03-30 15:20:00,METAR LGAV 301520Z 22011KT 9999 FEW025 16/08 Q1008 NOSIG
2026-03-30 14:50:00,METAR LGAV 301450Z 21015KT 9999 FEW025 17/06 Q1008 NOSIG
2026-03-30 14:20:00,METAR LGAV 301420Z 19015KT 9999 FEW025 18/04 Q1008 NOSIG
2026-03-30 13:50:00,METAR LGAV 301350Z 20015KT 9999 FEW025 18/03 Q1008 NOSIG
2026-03-30 13:20:00,METAR LGAV 301320Z 19017KT 9999 FEW025 18/04 Q1008 NOSIG
2026-03-30 12:50:00,METAR LGAV 301250Z 20014KT 9999 FEW025 18/05 Q1008 NOSIG
2026-03-30 12:20:00,METAR LGAV 301220Z 21011KT 9999 FEW025 19/04 Q1008 NOSIG
2026-03-30 11:50:00,METAR LGAV 301150Z COR 24010KT 210V270 9999 FEW025 19/04 Q1009 NOSIG
2026-03-30 11:20:00,METAR LGAV 301120Z 23008KT 200V260 9999 FEW025 19/02 Q1009 NOSIG
2026-03-30 10:50:00,METAR LGAV 301050Z 27007KT 220V350 9999 FEW025 19/03 Q1010 NOSIG
2026-03-30 10:20:00,METAR LGAV 301020Z 24009KT 190V300 9999 FEW025 18/03 Q1010 NOSIG
2026-03-30 09:50:00,METAR LGAV 300950Z 25010KT 220V290 9999 FEW025 18/04 Q1010 NOSIG
2026-03-30 09:20:00,METAR LGAV 300920Z 24010KT 9999 FEW025 17/08 Q1010 NOSIG
2026-03-30 08:50:00,METAR LGAV 300850Z 24006KT 170V300 9999 FEW025 17/07 Q1011 NOSIG
2026-03-30 08:20:00,METAR LGAV 300820Z VRB02KT 9999 FEW025 17/04 Q1011 NOSIG
2026-03-30 07:50:00,METAR LGAV 300750Z 34005KT 310V020 9999 FEW025 17/03 Q1011 NOSIG
2026-03-30 07:20:00,METAR LGAV 300720Z VRB01KT 9999 FEW025 16/05 Q1011 NOSIG
2026-03-30 06:50:00,METAR LGAV 300650Z 17004KT 140V220 CAVOK 14/06 Q1011 NOSIG
2026-03-30 06:20:00,METAR LGAV 300620Z VRB01KT CAVOK 13/07 Q1011 NOSIG
2026-03-30 05:50:00,METAR LGAV 300550Z 00000KT 9999 FEW025 11/07 Q1011 NOSIG
2026-03-30 05:20:00,METAR LGAV 300520Z VRB01KT 9999 FEW025 10/06 Q1011 NOSIG
2026-03-30 04:50:00,METAR LGAV 300450Z VRB02KT 9999 FEW025 07/04 Q1011 NOSIG
2026-03-30 04:20:00,METAR LGAV 300420Z VRB03KT 9999 FEW025 06/03 Q1010 NOSIG
2026-03-30 03:50:00,METAR LGAV 300350Z 29003KT 9999 FEW025 07/03 Q1010 NOSIG
2026-03-30 03:20:00,METAR LGAV 300320Z VRB02KT 9999 FEW025 06/03 Q1010 NOSIG
2026-03-30 02:50:00,METAR LGAV 300250Z 00000KT 9999 FEW025 07/04 Q1010 NOSIG
2026-03-30 02:20:00,METAR LGAV 300220Z 00000KT 9999 FEW025 06/04 Q1010 NOSIG
2026-03-30 01:50:00,METAR LGAV 300150Z 00000KT 9999 FEW025 06/03 Q1010 NOSIG
2026-03-30 01:20:00,METAR LGAV 300120Z 00000KT 9999 FEW025 07/04 Q1010 NOSIG
2026-03-30 00:50:00,METAR LGAV 300050Z 29003KT 9999 FEW025 07/04 Q1010 NOSIG
2026-03-30 00:20:00,METAR LGAV 300020Z 28003KT 9999 FEW025 06/04 Q1010 NOSIG
2026-03-29 23:50:00,METAR LGAV 292350Z VRB02KT 9999 FEW025 07/04 Q1010 NOSIG
2026-03-29 23:20:00,METAR LGAV 292320Z VRB02KT 9999 FEW025 06/04 Q1010 NOSIG
2026-03-29 22:50:00,METAR LGAV 292250Z VRB02KT 9999 FEW025 06/05 Q1010 NOSIG
2026-03-29 22:20:00,METAR LGAV 292220Z VRB03KT 9999 FEW025 07/05 Q1010 NOSIG
2026-03-29 21:50:00,METAR LGAV 292150Z VRB03KT 9999 FEW030 06/04 Q1010 NOSIG
2026-03-29 21:20:00,METAR LGAV 292120Z 27003KT 9999 FEW030 08/05 Q1010 NOSIG
2026-03-29 20:50:00,METAR LGAV 292050Z VRB02KT 9999 SCT030 08/05 Q1010 NOSIG
2026-03-29 20:20:00,METAR LGAV 292020Z 30004KT 250V330 9999 SCT030 08/05 Q1010 NOSIG
2026-03-29 19:50:00,METAR LGAV 291950Z VRB03KT 9999 SCT040 09/06 Q1010 NOSIG
2026-03-29 19:20:00,METAR LGAV 291920Z VRB03KT 9999 FEW040 SCT070 12/06 Q1009 NOSIG
2026-03-29 18:50:00,METAR LGAV 291850Z 25003KT 9999 FEW040 SCT070 12/05 Q1009 NOSIG
2026-03-29 18:20:00,METAR LGAV 291820Z 31003KT 9999 FEW040 SCT070 12/06 Q1009 NOSIG
2026-03-29 17:50:00,METAR LGAV 291750Z 33005KT 9999 FEW030 SCT070 12/06 Q1009 NOSIG
2026-03-29 17:20:00,METAR LGAV 291720Z VRB02KT 9999 SCT040 13/06 Q1008 NOSIG
2026-03-29 16:50:00,METAR LGAV 291650Z VRB02KT 9999 SCT040 14/06 Q1008 NOSIG
2026-03-29 16:20:00,METAR LGAV 291620Z 08006KT 9999 SCT040 14/05 Q1007 NOSIG
2026-03-29 15:20:00,METAR LGAV 291520Z 09005KT 9999 SCT040 15/03 Q1007 NOSIG
2026-03-29 14:50:00,METAR LGAV 291450Z 09006KT 9999 SCT040 15/05 Q1006 NOSIG
2026-03-29 14:20:00,METAR LGAV 291420Z 09005KT 9999 FEW040 15/06 Q1006 NOSIG
2026-03-29 13:50:00,METAR LGAV 291350Z 07006KT 9999 SCT040 14/06 Q1006 NOSIG
2026-03-29 13:20:00,METAR LGAV 291320Z 07006KT 9999 SCT040 15/06 Q1006 NOSIG
2026-03-29 12:50:00,METAR LGAV 291250Z 08007KT 9999 SCT040 16/06 Q1006 NOSIG
2026-03-29 12:20:00,METAR LGAV 291220Z 11006KT 070V140 9999 SCT040 15/06 Q1006 NOSIG
2026-03-29 11:50:00,METAR LGAV 291150Z 10007KT 9999 SCT040 15/06 Q1006 NOSIG
2026-03-29 11:20:00,METAR LGAV 291120Z 09006KT 060V140 9999 SCT040 14/05 Q1006 NOSIG
2026-03-29 10:50:00,METAR LGAV 291050Z 10008KT 9999 SCT030 15/05 Q1005 NOSIG
2026-03-29 10:20:00,METAR LGAV 291020Z 04005KT 250V110 9999 SCT025 16/05 Q1005 NOSIG
2026-03-29 09:50:00,METAR LGAV 290950Z 29006KT 260V360 9999 SCT025 17/03 Q1005 NOSIG
2026-03-29 09:20:00,METAR LGAV 290920Z 30007KT 250V010 9999 FEW025 16/03 Q1005 NOSIG
2026-03-29 08:50:00,METAR LGAV 290850Z 34006KT 270V030 9999 FEW025 16/03 Q1005 NOSIG
2026-03-29 08:20:00,METAR LGAV 290820Z VRB03KT 9999 FEW025 16/03 Q1004 NOSIG
2026-03-29 07:50:00,METAR LGAV 290750Z VRB02KT 9999 FEW025 15/03 Q1004 NOSIG
2026-03-29 07:20:00,METAR LGAV 290720Z VRB02KT 9999 FEW025 14/04 Q1004 NOSIG
2026-03-29 06:50:00,METAR LGAV 290650Z VRB01KT 9999 FEW025 14/05 Q1004 NOSIG
2026-03-29 06:20:00,METAR LGAV 290620Z VRB03KT 9999 FEW025 12/04 Q1004 NOSIG
2026-03-29 05:50:00,METAR LGAV 290550Z 00000KT 9999 FEW025 11/04 Q1003 NOSIG
2026-03-29 05:20:00,METAR LGAV 290520Z VRB03KT 9999 FEW025 09/03 Q1003 NOSIG
2026-03-29 04:50:00,METAR LGAV 290450Z 02004KT 330V070 9999 FEW025 SCT070 09/03 Q1003 NOSIG
2026-03-29 04:20:00,METAR LGAV 290420Z VRB01KT 9999 FEW020 09/03 Q1002 NOSIG
2026-03-29 03:50:00,METAR LGAV 290350Z VRB02KT 9999 FEW020 08/02 Q1002 NOSIG
2026-03-29 03:20:00,METAR LGAV 290320Z 31002KT 9999 FEW020 07/04 Q1002 NOSIG
2026-03-29 02:50:00,METAR LGAV 290250Z VRB02KT 9999 FEW020 06/03 Q1002 NOSIG
2026-03-29 02:20:00,METAR LGAV 290220Z 00000KT 9999 FEW020 08/04 Q1002 NOSIG
2026-03-29 01:50:00,METAR LGAV 290150Z VRB04KT 9999 FEW020 08/03 Q1002 NOSIG
2026-03-29 01:20:00,METAR LGAV 290120Z VRB01KT 9999 FEW020 07/04 Q1001 NOSIG
2026-03-29 00:50:00,METAR LGAV 290050Z 00000KT 9999 FEW020 08/05 Q1002 NOSIG
2026-03-29 00:20:00,METAR LGAV 290020Z 00000KT 9999 FEW020 06/04 Q1002 NOSIG
2026-03-28 23:50:00,METAR LGAV 282350Z 00000KT 9999 FEW020 06/04 Q1002 NOSIG
2026-03-28 23:20:00,METAR LGAV 282320Z VRB02KT 9999 FEW020 05/03 Q1002 NOSIG
2026-03-28 22:50:00,METAR LGAV 282250Z VRB01KT 9999 FEW020 06/05 Q1002 NOSIG
2026-03-28 22:20:00,METAR LGAV 282220Z VRB02KT 9999 FEW020 05/03 Q1002 NOSIG
2026-03-28 21:50:00,METAR LGAV 282150Z 00000KT 9999 FEW020 06/04 Q1002 NOSIG
2026-03-28 21:20:00,METAR LGAV 282120Z VRB01KT 9999 FEW020 06/04 Q1001 NOSIG
2026-03-28 20:50:00,METAR LGAV 282050Z VRB02KT 9999 FEW020 08/05 Q1001 NOSIG
2026-03-28 20:20:00,METAR LGAV 282020Z VRB02KT 9999 FEW020 09/05 Q1001 NOSIG
2026-03-28 19:50:00,METAR LGAV 281950Z VRB01KT 9999 SCT020 08/04 Q1001 NOSIG
2026-03-28 19:20:00,METAR LGAV 281920Z VRB02KT 9999 SCT020 09/04 Q1001 NOSIG
2026-03-28 18:50:00,METAR LGAV 281850Z VRB02KT 9999 SCT020 10/06 Q1001 NOSIG
2026-03-28 18:20:00,METAR LGAV 281820Z VRB02KT 9999 SCT020 09/06 Q1001 NOSIG
2026-03-28 17:50:00,METAR LGAV 281750Z 36004KT 9999 SCT020 10/05 Q1001 NOSIG
2026-03-28 17:20:00,METAR LGAV 281720Z 01004KT 9999 SCT020 11/06 Q1001 NOSIG
2026-03-28 16:50:00,METAR LGAV 281650Z 34006KT 9999 DZ SCT020 11/06 Q1001 NOSIG
2026-03-28 16:20:00,METAR LGAV 281620Z 02006KT 9999 SCT020 11/07 Q1001 NOSIG
2026-03-28 15:50:00,METAR LGAV 281550Z 02004KT 330V080 9999 SCT020 12/06 Q1000 NOSIG
2026-03-28 15:20:00,METAR LGAV 281520Z 04006KT 320V090 9999 SCT020 14/05 Q1000 NOSIG
2026-03-28 14:50:00,METAR LGAV 281450Z 22009KT 9999 SCT020 14/04 Q1000 NOSIG
2026-03-28 14:20:00,METAR LGAV 281420Z 21010KT 9999 SCT020 15/05 Q1000 NOSIG
2026-03-28 13:50:00,METAR LGAV 281350Z 21011KT 9999 SCT020 15/06 Q1000 NOSIG
2026-03-28 13:20:00,METAR LGAV 281320Z 22009KT 9999 FEW020 15/05 Q1000 NOSIG
2026-03-28 12:50:00,METAR LGAV 281250Z 21012KT 9999 FEW020 14/05 Q1000 NOSIG
2026-03-28 12:20:00,METAR LGAV 281220Z 20014KT 9999 FEW020 14/04 Q1001 NOSIG
2026-03-28 11:50:00,METAR LGAV 281150Z 22008KT 9999 FEW020 15/02 Q1001 NOSIG
2026-03-28 11:20:00,METAR LGAV 281120Z 23007KT 9999 FEW020 16/02 Q1001 NOSIG
2026-03-28 10:50:00,METAR LGAV 281050Z 21008KT 9999 FEW020 15/04 Q1001 NOSIG
2026-03-28 10:20:00,METAR LGAV 281020Z 20009KT 9999 FEW020 16/03 Q1001 NOSIG
2026-03-28 09:50:00,METAR LGAV 280950Z 21006KT 150V260 9999 FEW020 16/03 Q1002 NOSIG
2026-03-28 09:20:00,METAR LGAV 280920Z VRB03KT 9999 FEW020 16/04 Q1002 NOSIG
2026-03-28 08:50:00,METAR LGAV 280850Z VRB02KT 9999 FEW020 15/05 Q1002 NOSIG
2026-03-28 08:20:00,METAR LGAV 280820Z VRB01KT 9999 FEW025 15/06 Q1002 NOSIG
2026-03-28 07:50:00,METAR LGAV 280750Z VRB01KT 9999 FEW025 13/06 Q1003 NOSIG
2026-03-28 07:20:00,METAR LGAV 280720Z VRB02KT 9999 FEW025 12/07 Q1003 NOSIG
2026-03-28 06:50:00,METAR LGAV 280650Z 00000KT 9999 FEW025 10/07 Q1003 NOSIG
2026-03-28 06:20:00,METAR LGAV 280620Z VRB02KT 9999 FEW025 08/05 Q1003 NOSIG
2026-03-28 05:50:00,METAR LGAV 280550Z VRB02KT 9999 FEW025 08/05 Q1003 NOSIG
2026-03-28 05:20:00,METAR LGAV 280520Z VRB02KT 9999 FEW025 07/05 Q1003 NOSIG
2026-03-28 04:50:00,METAR LGAV 280450Z 22003KT 9999 FEW025 05/02 Q1003 NOSIG
2026-03-28 04:20:00,METAR LGAV 280420Z 26004KT 9999 FEW025 05/02 Q1003 NOSIG
2026-03-28 03:50:00,METAR LGAV 280350Z 33003KT 9999 FEW025 06/02 Q1003 NOSIG
2026-03-28 03:20:00,METAR LGAV 280320Z 00000KT 9999 FEW025 06/03 Q1002 NOSIG
2026-03-28 02:50:00,METAR LGAV 280250Z VRB01KT 9999 FEW025 06/03 Q1002 NOSIG
2026-03-28 02:20:00,METAR LGAV 280220Z VRB02KT 9999 FEW025 05/02 Q1003 NOSIG
2026-03-28 01:50:00,METAR LGAV 280150Z VRB03KT 9999 FEW025 04/02 Q1003 NOSIG
2026-03-28 01:20:00,METAR LGAV 280120Z 30002KT 9999 FEW025 05/04 Q1003 NOSIG
2026-03-28 00:50:00,METAR LGAV 280050Z VRB02KT 9999 FEW025 04/03 Q1004 NOSIG
2026-03-28 00:20:00,METAR LGAV 280020Z VRB01KT 9999 FEW025 06/04 Q1004 NOSIG
2026-03-27 23:50:00,METAR LGAV 272350Z 02006KT 9999 FEW025 04/03 Q1004 NOSIG
2026-03-27 23:20:00,METAR LGAV 272320Z 29003KT 9999 FEW025 06/05 Q1004 NOSIG
2026-03-27 22:50:00,METAR LGAV 272250Z VRB01KT 9999 FEW025 06/05 Q1004 NOSIG
2026-03-27 22:20:00,METAR LGAV 272220Z VRB02KT 9999 FEW025 05/04 Q1005 NOSIG
2026-03-27 21:50:00,METAR LGAV 272150Z VRB02KT 9999 FEW025 07/04 Q1005 NOSIG
2026-03-27 21:20:00,METAR LGAV 272120Z VRB03KT 9999 FEW025 08/05 Q1004 NOSIG
2026-03-27 20:50:00,METAR LGAV 272050Z VRB03KT 9999 FEW025 08/05 Q1005 NOSIG
2026-03-27 20:20:00,METAR LGAV 272020Z 19004KT 9999 FEW025 08/05 Q1005 NOSIG
2026-03-27 19:50:00,METAR LGAV 271950Z 01003KT 9999 FEW025 08/05 Q1005 NOSIG
2026-03-27 19:20:00,METAR LGAV 271920Z 31003KT 9999 FEW025 09/05 Q1005 NOSIG
2026-03-27 18:50:00,METAR LGAV 271850Z VRB01KT 9999 FEW025 10/06 Q1004 NOSIG
2026-03-27 18:20:00,METAR LGAV 271820Z 23004KT 9999 SCT025 10/06 Q1004 NOSIG
2026-03-27 17:50:00,METAR LGAV 271750Z 24004KT 9999 SCT025 11/06 Q1004 NOSIG
2026-03-27 17:20:00,METAR LGAV 271720Z 27007KT 9999 FEW025 11/06 Q1003 NOSIG
2026-03-27 16:50:00,METAR LGAV 271650Z 31005KT 260V330 9999 FEW025 11/06 Q1003 NOSIG
2026-03-27 16:20:00,METAR LGAV 271620Z 23012KT 9999 FEW025 12/06 Q1002 NOSIG
2026-03-27 15:50:00,METAR LGAV 271550Z 24011KT 9999 SCT025 12/07 Q1002 NOSIG
2026-03-25 14:50:00,METAR LGAV 251450Z 36020G30KT 9999 FEW030 15/03 Q1007 NOSIG
2026-03-25 14:20:00,METAR LGAV 251420Z 01024KT 9999 SCT030 15/02 Q1006 NOSIG
2026-03-25 13:50:00,METAR LGAV 251350Z 36022G32KT 9999 SCT030 15/03 Q1007 NOSIG
2026-03-25 13:20:00,METAR LGAV 251320Z 36024KT 9999 SCT030 16/03 Q1007 NOSIG
2026-03-25 12:50:00,METAR LGAV 251250Z 36027G39KT 9999 SCT030 15/03 Q1007 NOSIG
2026-03-25 12:20:00,METAR LGAV 251220Z 03021G34KT 9999 SCT030 16/02 Q1006 NOSIG
2026-03-25 11:50:00,METAR LGAV 251150Z 02023G33KT 9999 SCT030 16/02 Q1007 NOSIG
2026-03-25 11:20:00,METAR LGAV 251120Z 02021G34KT 9999 SCT030 SCT050 16/03 Q1007 NOSIG
2026-03-25 10:50:00,METAR LGAV 251050Z 01029KT 9999 SCT030 15/03 Q1007 NOSIG
2026-03-25 10:20:00,METAR LGAV 251020Z 36025G36KT 9999 FEW025 SCT040 14/03 Q1007 NOSIG
2026-03-25 09:50:00,METAR LGAV 250950Z 36025G35KT 9999 FEW025 SCT040 15/05 Q1008 NOSIG
2026-03-25 09:20:00,METAR LGAV 250920Z 36024KT 9999 SCT025 BKN040 14/05 Q1007 NOSIG
2026-03-25 08:50:00,METAR LGAV 250850Z 36023KT 9999 SCT020 BKN040 14/06 Q1008 NOSIG
2026-03-25 08:20:00,METAR LGAV 250820Z 36020G30KT 9999 SCT025 BKN040 13/06 Q1007 NOSIG
2026-03-25 07:50:00,METAR LGAV 250750Z 36017KT 9999 SCT020 BKN030 12/06 Q1008 NOSIG
2026-03-25 07:20:00,METAR LGAV 250720Z 36015G26KT 9999 SCT020 BKN035 12/07 Q1007 NOSIG
2026-03-25 06:50:00,METAR LGAV 250650Z 02015KT 9999 DZ FEW018 BKN025 12/07 Q1008 NOSIG
2026-03-25 06:20:00,METAR LGAV 250620Z 02015KT 9999 DZ FEW018 BKN025 11/07 Q1007 NOSIG
2026-03-25 05:50:00,METAR LGAV 250550Z 02013KT 9999 DZ FEW018 BKN030 11/07 Q1007 NOSIG
2026-03-25 05:20:00,METAR LGAV 250520Z 01014KT 9999 FEW018 BKN025 11/07 Q1007 NOSIG
2026-03-25 04:50:00,METAR LGAV 250450Z 02015KT 9999 FEW018 BKN030 11/07 Q1007 NOSIG
2026-03-25 04:20:00,METAR LGAV 250420Z 36014KT 9999 FEW018 BKN030 11/08 Q1007 NOSIG
2026-03-25 03:50:00,METAR LGAV 250350Z 36014KT 9999 FEW020 SCT040 BKN070 11/08 Q1007 NOSIG
2026-03-25 03:20:00,METAR LGAV 250320Z 35012KT 9999 FEW020 SCT040 BKN070 11/08 Q1007 NOSIG
2026-03-25 02:50:00,METAR LGAV 250250Z 35009KT 9999 DZ FEW020 BKN030 11/08 Q1007 NOSIG
2026-03-25 02:20:00,METAR LGAV 250220Z 35012KT 9999 DZ FEW020 BKN040 11/08 Q1007 NOSIG
2026-03-25 01:50:00,METAR LGAV 250150Z 35011KT 9999 DZ FEW020 BKN040 10/07 Q1007 NOSIG
2026-03-25 01:20:00,METAR LGAV 250120Z COR 35013KT 9999 DZ FEW025 BKN040 10/07 Q1008 NOSIG
2026-03-25 00:50:00,METAR LGAV 250050Z 36016KT 9999 FEW018 SCT040 BKN070 11/07 Q1008 NOSIG
2026-03-25 00:20:00,METAR LGAV 250020Z 36012KT 9999 FEW020 BKN040 11/07 Q1008 NOSIG
2026-03-24 23:50:00,METAR LGAV 242350Z 36011KT 9999 FEW018 SCT040 BKN070 10/07 Q1008 NOSIG
2026-03-24 23:20:00,METAR LGAV 242320Z 35011KT 9999 FEW020 SCT040 BKN070 10/07 Q1009 NOSIG
2026-03-24 22:50:00,METAR LGAV 242250Z 34010KT 9999 FEW020 SCT040 BKN070 10/06 Q1009 NOSIG
2026-03-24 22:20:00,METAR LGAV 242220Z 34010KT 9999 FEW020 SCT030 BKN070 10/07 Q1009
2026-03-24 21:50:00,METAR LGAV 242150Z 34009KT 9999 DZ FEW020 SCT040 BKN070 10/07 Q1009 NOSIG
2026-03-24 21:20:00,METAR LGAV 242120Z 33009KT 9999 DZ FEW020 SCT040 BKN070 10/07 Q1009 NOSIG
2026-03-24 20:50:00,METAR LGAV 242050Z 35006KT 9999 FEW020 SCT030 BKN070 10/08 Q1010 NOSIG
2026-03-24 20:20:00,METAR LGAV 242020Z 01003KT 9999 -RA FEW020 BKN030 10/07 Q1010 NOSIG
2026-03-24 19:50:00,METAR LGAV 241950Z 03005KT 9999 -RA FEW018 BKN030 10/07 Q1010 NOSIG
2026-03-24 19:20:00,METAR LGAV 241920Z 03004KT 9999 DZ FEW020 BKN030 10/07 Q1010 NOSIG
2026-03-24 18:50:00,METAR LGAV 241850Z 04003KT 9999 DZ FEW020 BKN030 10/07 Q1010 NOSIG
2026-03-24 18:20:00,METAR LGAV 241820Z 05004KT 9999 DZ FEW020 BKN030 10/07 Q1010 NOSIG
2026-03-24 17:50:00,METAR LGAV 241750Z 36004KT 9999 FEW020 SCT040 BKN070 10/06 Q1010 NOSIG
2026-03-24 17:20:00,METAR LGAV 241720Z 34004KT 9999 FEW020 SCT040 BKN070 10/07 Q1010 NOSIG
2026-03-24 16:50:00,METAR LGAV 241650Z 02004KT 9999 FEW020 SCT040 BKN070 10/07 Q1010 NOSIG
2026-03-24 16:20:00,METAR LGAV 241620Z 01008KT 9999 FEW020 SCT040 BKN070 10/07 Q1010 NOSIG
2026-03-24 15:50:00,METAR LGAV 241550Z 02011KT 9999 DZ FEW020 SCT040 BKN070 10/07 Q1010 NOSIG
2026-03-24 15:20:00,METAR LGAV 241520Z 03012KT 9999 DZ FEW020 SCT040 BKN070 10/07 Q1010 NOSIG
2026-03-24 14:50:00,METAR LGAV 241450Z 36012KT 9999 FEW020 SCT040 BKN070 11/07 Q1010 NOSIG
2026-03-24 14:20:00,METAR LGAV 241420Z 35012KT 9999 FEW020 SCT040 BKN070 12/07 Q1010 NOSIG
2026-03-24 13:50:00,METAR LGAV 241350Z 35010KT 9999 FEW020 SCT040 BKN070 11/07 Q1010 NOSIG
2026-03-24 13:20:00,METAR LGAV 241320Z 35009KT 9999 FEW020 SCT040 BKN070 13/07 Q1010 NOSIG
2026-03-24 12:50:00,METAR LGAV 241250Z 35006KT 9999 FEW020 BKN030 12/07 Q1010 NOSIG
2026-03-24 12:20:00,METAR LGAV 241220Z 34007KT 300V010 9999 FEW020 BKN030 12/07 Q1010 NOSIG
2026-03-24 11:50:00,METAR LGAV 241150Z 35008KT 9999 FEW018 BKN030 11/07 Q1011 NOSIG
2026-03-24 11:20:00,METAR LGAV 241120Z 36006KT 330V030 9999 FEW020 BKN030 11/07 Q1011 NOSIG
2026-03-24 10:50:00,METAR LGAV 241050Z 35008KT 9999 FEW020 BKN030 11/07 Q1011 NOSIG
2026-03-24 10:20:00,METAR LGAV 241020Z 34007KT 320V020 9999 -RA FEW020 SCT040 BKN070 11/07 Q1011 NOSIG
2026-03-24 09:50:00,METAR LGAV 240950Z 01007KT 9999 -RA FEW020 SCT040 BKN070 11/07 Q1011 NOSIG
2026-03-24 09:20:00,METAR LGAV 240920Z COR 35009KT 9999 -RA FEW020 SCT040 BKN070 12/07 Q1011 NOSIG
2026-03-24 08:50:00,METAR LGAV 240850Z 35005KT 9999 FEW020 SCT040 BKN070 11/08 Q1011 NOSIG
2026-03-24 08:20:00,METAR LGAV 240820Z 35007KT 9999 -RA FEW020 SCT040 BKN070 11/07 Q1011 NOSIG
2026-03-24 07:50:00,METAR LGAV 240750Z COR 34008KT 9999 -RA FEW020 SCT040 BKN070 11/07 Q1011 NOSIG
2026-03-24 07:20:00,METAR LGAV 240720Z 34008KT 310V010 9999 -RA FEW025 SCT040 BKN070 11/07 Q1011 NOSIG
2026-03-24 06:50:00,METAR LGAV 240650Z 35006KT 9999 FEW020 SCT040 BKN070 12/06 Q1011 NOSIG
2026-03-24 06:20:00,METAR LGAV 240620Z 34007KT 9999 FEW020 SCT040 BKN070 12/06 Q1011 NOSIG
2026-03-24 05:50:00,METAR LGAV 240550Z 35005KT 310V020 9999 FEW020 SCT035 BKN070 11/05 Q1011 NOSIG
2026-03-24 05:20:00,METAR LGAV 240520Z 35003KT 9999 FEW020 SCT035 BKN070 11/05 Q1011 NOSIG
2026-03-24 04:50:00,METAR LGAV 240450Z 34005KT 9999 FEW025 SCT035 BKN070 11/05 Q1011 NOSIG
2026-03-24 04:20:00,METAR LGAV 240420Z 34004KT 9999 FEW025 SCT035 BKN070 10/06 Q1011 NOSIG
2026-03-24 03:50:00,METAR LGAV 240350Z VRB02KT 9999 FEW025 SCT040 10/06 Q1011 NOSIG
2026-03-24 03:20:00,METAR LGAV 240320Z 36007KT 9999 FEW025 SCT040 10/06 Q1011 NOSIG
2026-03-24 02:50:00,METAR LGAV 240250Z 36003KT 9999 FEW025 SCT040 09/05 Q1011 NOSIG
2026-03-24 02:20:00,METAR LGAV 240220Z VRB02KT 9999 FEW025 SCT040 08/05 Q1011 NOSIG
2026-03-24 01:50:00,METAR LGAV 240150Z VRB02KT 9999 FEW025 SCT040 09/05 Q1011
2026-03-24 01:20:00,METAR LGAV 240120Z 05003KT 9999 FEW025 SCT040 09/05 Q1012 NOSIG
2026-03-24 00:50:00,METAR LGAV 240050Z VRB01KT 9999 FEW025 SCT040 09/05 Q1012 NOSIG
2026-03-24 00:20:00,METAR LGAV 240020Z 00000KT 9999 FEW025 SCT040 10/05 Q1012 NOSIG
2026-03-23 23:50:00,METAR LGAV 232350Z VRB02KT 9999 FEW025 SCT040 09/05 Q1012 NOSIG
2026-03-23 23:20:00,METAR LGAV 232320Z 31005KT 9999 FEW025 SCT040 09/05 Q1012 NOSIG
2026-03-23 22:50:00,METAR LGAV 232250Z VRB03KT 9999 FEW025 SCT040 09/05 Q1013 NOSIG
2026-03-23 22:20:00,METAR LGAV 232220Z VRB03KT 9999 FEW025 SCT040 09/04 Q1013 NOSIG
2026-03-23 21:50:00,METAR LGAV 232150Z 33007KT 9999 FEW025 SCT040 09/05 Q1013 NOSIG
2026-03-23 21:20:00,METAR LGAV 232120Z 31006KT 270V340 9999 FEW025 09/05 Q1013 NOSIG
2026-03-23 20:50:00,METAR LGAV 232050Z 36007KT 9999 FEW025 09/05 Q1013 NOSIG
2026-03-23 20:20:00,METAR LGAV 232020Z VRB01KT 9999 FEW025 09/04 Q1013 NOSIG
2026-03-23 19:50:00,METAR LGAV 231950Z VRB02KT 9999 FEW025 09/04 Q1013 NOSIG
2026-03-23 19:20:00,METAR LGAV 231920Z COR 03004KT 9999 FEW025 10/04 Q1013 NOSIG
2026-03-23 18:50:00,METAR LGAV 231850Z 02004KT 9999 FEW025 10/05 Q1013 NOSIG
2026-03-23 18:20:00,METAR LGAV 231820Z 36004KT 9999 FEW025 10/05 Q1013 NOSIG
2026-03-23 17:50:00,METAR LGAV 231750Z 01002KT 9999 FEW025 11/05 Q1012 NOSIG
2026-03-23 17:20:00,METAR LGAV 231720Z 03005KT 9999 FEW025 11/05 Q1012 NOSIG
2026-03-23 16:50:00,METAR LGAV 231650Z 03006KT 9999 FEW030 12/05 Q1012 NOSIG
2026-03-23 16:20:00,METAR LGAV 231620Z 05009KT 9999 FEW030 12/05 Q1012 NOSIG
2026-03-23 15:50:00,METAR LGAV 231550Z 05011KT 9999 FEW025 SCT070 13/05 Q1012 NOSIG
2026-03-23 15:20:00,METAR LGAV 231520Z 03009KT 350V070 9999 FEW025 SCT070 13/06 Q1012 NOSIG
2026-03-23 14:50:00,METAR LGAV 231450Z 02011KT 9999 FEW025 SCT070 13/06 Q1012 NOSIG
2026-03-23 14:20:00,METAR LGAV 231420Z 36009KT 9999 FEW025 SCT040 BKN070 14/06 Q1012 NOSIG
2026-03-23 13:50:00,METAR LGAV 231350Z 03009KT 010V070 9999 FEW025 SCT035 14/06 Q1012 NOSIG
2026-03-23 13:20:00,METAR LGAV 231320Z 36009KT 9999 FEW025 SCT040 14/06 Q1012 NOSIG
2026-03-23 12:50:00,METAR LGAV 231250Z 01012KT 9999 FEW025 SCT040 14/06 Q1012 NOSIG
2026-03-23 12:20:00,METAR LGAV 231220Z 02008KT 340V050 9999 FEW025 SCT040 BKN070 13/05 Q1012 NOSIG
2026-03-23 11:50:00,METAR LGAV 231150Z 02010KT 9999 FEW025 SCT035 BKN070 13/05 Q1012 NOSIG
2026-03-23 11:20:00,METAR LGAV 231120Z 04012KT 9999 FEW025 SCT035 BKN070 13/05 Q1013 NOSIG
2026-03-23 10:50:00,METAR LGAV 231050Z 04012KT 9999 FEW025 SCT035 BKN070 13/05 Q1013 NOSIG
2026-03-23 10:20:00,METAR LGAV 231020Z 04014KT 9999 FEW025 SCT035 14/05 Q1013 NOSIG
2026-03-23 09:50:00,METAR LGAV 230950Z 04014KT 9999 FEW025 SCT040 14/05 Q1013 NOSIG
2026-03-23 09:20:00,METAR LGAV 230920Z 02009KT 9999 FEW025 SCT040 13/05 Q1013 NOSIG
2026-03-23 08:50:00,METAR LGAV 230850Z 04013KT 9999 FEW025 SCT035 14/05 Q1013 NOSIG
2026-03-23 07:50:00,METAR LGAV 230750Z 04012KT 360V060 9999 FEW025 SCT035 13/05 Q1013 NOSIG
2026-03-23 07:20:00,METAR LGAV 230720Z 03013KT 350V050 9999 FEW025 SCT035 13/05 Q1013 NOSIG
2026-03-23 06:50:00,METAR LGAV 230650Z 04011KT 9999 FEW025 SCT040 13/05 Q1013 NOSIG
2026-03-23 06:20:00,METAR LGAV 230620Z 03009KT 9999 SCT025 12/05 Q1013 NOSIG
2026-03-23 05:50:00,METAR LGAV 230550Z 03008KT 9999 FEW020 11/05 Q1012 NOSIG
2026-03-23 05:20:00,METAR LGAV 230520Z 01005KT 9999 FEW020 10/05 Q1012 NOSIG
2026-03-23 04:50:00,METAR LGAV 230450Z 01005KT 9999 FEW020 10/05 Q1012 NOSIG
2026-03-23 04:20:00,METAR LGAV 230420Z 35007KT 9999 FEW020 10/05 Q1012 NOSIG
2026-03-23 03:50:00,METAR LGAV 230350Z 36008KT 9999 FEW020 10/05 Q1012 NOSIG
2026-03-23 03:20:00,METAR LGAV 230320Z 36007KT 9999 FEW020 SCT070 10/05 Q1012 NOSIG
2026-03-23 02:50:00,METAR LGAV 230250Z 35007KT 9999 FEW020 SCT070 10/06 Q1012 NOSIG
2026-03-23 02:20:00,METAR LGAV 230220Z 36004KT 9999 FEW020 10/05 Q1012 NOSIG
2026-03-23 01:50:00,METAR LGAV 230150Z 35004KT 9999 FEW020 BKN070 10/05 Q1012 NOSIG
2026-03-23 01:20:00,METAR LGAV 230120Z 35006KT 9999 FEW020 BKN070 10/05 Q1012 NOSIG
2026-03-23 00:50:00,METAR LGAV 230050Z 34007KT 9999 FEW020 SCT060 10/05 Q1012 NOSIG
2026-03-23 00:20:00,METAR LGAV 230020Z 35006KT 9999 FEW020 SCT070 10/05 Q1012 NOSIG
2026-03-22 23:50:00,METAR LGAV 222350Z 33005KT 9999 FEW020 SCT070 10/05 Q1012 NOSIG
2026-03-22 23:20:00,METAR LGAV 222320Z 34005KT 9999 SCT020 SCT070 11/05 Q1013 NOSIG
2026-03-22 22:50:00,METAR LGAV 222250Z 36008KT 9999 SCT020 SCT070 11/05 Q1013 NOSIG
2026-03-22 22:20:00,METAR LGAV 222220Z 35010KT 9999 SCT020 SCT070 11/05 Q1013 NOSIG
2026-03-22 21:50:00,METAR LGAV 222150Z 34008KT 9999 SCT020 SCT070 11/05 Q1013 NOSIG
2026-03-22 21:20:00,METAR LGAV 222120Z 34007KT 9999 SCT020 SCT070 11/06 Q1013 NOSIG
2026-03-22 20:50:00,METAR LGAV 222050Z 34007KT 9999 SCT020 SCT070 11/05 Q1013 NOSIG
2026-03-22 20:20:00,METAR LGAV 222020Z 36006KT 9999 SCT020 SCT070 11/04 Q1013 NOSIG
2026-03-22 19:50:00,METAR LGAV 221950Z 02006KT 9999 SCT020 SCT070 11/05 Q1013 NOSIG
2026-03-22 19:20:00,METAR LGAV 221920Z 36005KT 9999 SCT020 BKN060 11/05 Q1013 NOSIG
2026-03-22 18:50:00,METAR LGAV 221850Z 01005KT 9999 SCT020 BKN060 10/05 Q1013 NOSIG
2026-03-22 18:20:00,METAR LGAV 221820Z 01004KT 9999 SCT020 BKN060 10/05 Q1012 NOSIG
2026-03-22 17:50:00,METAR LGAV 221750Z 01004KT 340V040 9999 SCT020 BKN060 11/06 Q1012 NOSIG
2026-03-22 17:20:00,METAR LGAV 221720Z 33002KT 9999 SCT020 BKN060 11/06 Q1012 NOSIG
2026-03-22 16:50:00,METAR LGAV 221650Z 01006KT 9999 SCT020 BKN060 11/06 Q1012 NOSIG
2026-03-22 16:20:00,METAR LGAV 221620Z 03008KT 9999 SCT020 BKN060 11/06 Q1012 NOSIG
2026-03-22 15:50:00,METAR LGAV 221550Z 01007KT 9999 SCT020 BKN060 12/06 Q1012 NOSIG
2026-03-22 15:20:00,METAR LGAV 221520Z 35008KT 9999 SCT020 BKN060 12/06 Q1012 NOSIG
2026-03-22 14:50:00,METAR LGAV 221450Z 35012KT 9999 SCT020 BKN060 12/06 Q1012 NOSIG
2026-03-22 14:20:00,METAR LGAV 221420Z 35011KT 9999 BKN020 BKN070 12/06 Q1012 NOSIG
2026-03-22 13:50:00,METAR LGAV 221350Z 36016KT 9999 BKN020 BKN060 12/07 Q1012 NOSIG
2026-03-22 13:20:00,METAR LGAV 221320Z 35013KT 9999 SCT020 BKN060 12/07 Q1012 NOSIG
2026-03-22 12:50:00,METAR LGAV 221250Z 35012KT 9999 SCT020 BKN060 12/06 Q1012 NOSIG
2026-03-22 12:20:00,METAR LGAV 221220Z 35008KT 9999 SCT020 BKN060 12/05 Q1012 NOSIG
2026-03-22 11:50:00,METAR LGAV 221150Z 01010KT 9999 SCT020 BKN060 12/05 Q1012 NOSIG
2026-03-22 11:20:00,METAR LGAV 221120Z 01011KT 9999 SCT020 SCT060 13/06 Q1012 NOSIG
2026-03-22 10:50:00,METAR LGAV 221050Z 01011KT 9999 SCT020 SCT060 13/06 Q1012 NOSIG
2026-03-22 10:20:00,METAR LGAV 221020Z 01010KT 330V030 9999 SCT020 SCT060 14/06 Q1012 NOSIG
2026-03-22 09:50:00,METAR LGAV 220950Z 36011KT 320V040 9999 SCT020 SCT060 14/06 Q1012 NOSIG
2026-03-22 09:20:00,METAR LGAV 220920Z 01013KT 340V040 9999 SCT020 SCT060 13/06 Q1012 NOSIG
2026-03-22 08:50:00,METAR LGAV 220850Z 01012KT 9999 SCT020 SCT060 12/06 Q1012 NOSIG
2026-03-22 08:20:00,METAR LGAV 220820Z 36008KT 330V030 9999 SCT020 BKN060 11/06 Q1012 NOSIG
2026-03-22 07:50:00,METAR LGAV 220750Z 35012KT 320V020 9999 SCT020 BKN060 11/06 Q1012 NOSIG
2026-03-22 07:20:00,METAR LGAV 220720Z 02004KT 9999 -DZ SCT020 BKN060 10/06 Q1012 NOSIG
2026-03-22 06:50:00,METAR LGAV 220650Z 36009KT 9999 -DZ SCT020 BKN060 10/05 Q1012 NOSIG
2026-03-22 06:20:00,METAR LGAV 220620Z 36007KT 9999 -DZ SCT020 BKN060 10/05 Q1012 NOSIG
2026-03-22 05:50:00,METAR LGAV 220550Z 01007KT 9999 -DZ SCT020 BKN060 10/05 Q1012 NOSIG
2026-03-22 05:20:00,METAR LGAV 220520Z 03007KT 9999 SCT025 BKN060 09/05 Q1012 NOSIG
2026-03-22 04:50:00,METAR LGAV 220450Z 03007KT 9999 SCT025 BKN060 10/05 Q1011 NOSIG
2026-03-22 04:20:00,METAR LGAV 220420Z 36010KT 9999 SCT025 BKN060 10/05 Q1011 NOSIG
2026-03-22 03:50:00,METAR LGAV 220350Z 36012KT 9999 SCT025 BKN060 09/05 Q1011 NOSIG
2026-03-22 03:20:00,METAR LGAV 220320Z 33008KT 9999 SCT025 BKN060 09/05 Q1011 NOSIG
2026-03-22 02:50:00,METAR LGAV 220250Z 35009KT 9999 SCT025 BKN060 09/06 Q1011 NOSIG
2026-03-22 02:20:00,METAR LGAV 220220Z 35012KT 9999 SCT025 BKN060 10/05 Q1011 NOSIG
2026-03-22 01:50:00,METAR LGAV 220150Z 34007KT 9999 SCT025 BKN060 10/05 Q1011 NOSIG
2026-03-22 01:20:00,METAR LGAV 220120Z 35010KT 320V020 9999 SCT025 BKN060 10/04 Q1011 NOSIG
2026-03-22 00:50:00,METAR LGAV 220050Z 34006KT 9999 SCT025 SCT060 10/04 Q1011 NOSIG
2026-03-22 00:20:00,METAR LGAV 220020Z 34010KT 9999 SCT025 SCT060 10/04 Q1011 NOSIG
2026-03-21 23:50:00,METAR LGAV 212350Z 34010KT 9999 SCT025 SCT060 10/04 Q1011 NOSIG
2026-03-21 23:20:00,METAR LGAV 212320Z 34007KT 9999 SCT025 SCT060 10/04 Q1011 NOSIG
2026-03-21 22:50:00,METAR LGAV 212250Z 33008KT 9999 SCT025 SCT060 10/04 Q1011 NOSIG
2026-03-21 22:20:00,METAR LGAV 212220Z 34008KT 9999 SCT025 SCT060 10/04 Q1011 NOSIG
2026-03-21 21:50:00,METAR LGAV 212150Z 34007KT 9999 SCT025 BKN060 10/04 Q1011 NOSIG
2026-03-21 21:20:00,METAR LGAV 212120Z 32007KT 9999 SCT025 BKN060 10/04 Q1011 NOSIG
2026-03-21 20:50:00,METAR LGAV 212050Z 33008KT 9999 SCT025 BKN060 10/04 Q1011 NOSIG
2026-03-21 20:20:00,METAR LGAV 212020Z 34007KT 9999 SCT030 BKN060 10/03 Q1011 NOSIG
2026-03-21 19:50:00,METAR LGAV 211950Z 35008KT 9999 SCT030 BKN070 10/03 Q1011 NOSIG
2026-03-21 19:20:00,METAR LGAV 211920Z 36005KT 320V030 9999 SCT025 BKN060 10/03 Q1011 NOSIG
2026-03-21 18:50:00,METAR LGAV 211850Z 36006KT 330V030 9999 SCT030 BKN070 10/03 Q1011 NOSIG
2026-03-21 18:20:00,METAR LGAV 211820Z 34008KT 9999 SCT030 BKN070 10/02 Q1010 NOSIG
2026-03-21 17:50:00,METAR LGAV 211750Z 35010KT 9999 SCT030 BKN070 10/02 Q1010 NOSIG
2026-03-21 17:20:00,METAR LGAV 211720Z 35009KT 9999 SCT030 BKN070 11/03 Q1010 NOSIG
2026-03-21 16:50:00,METAR LGAV 211650Z 35008KT 9999 SCT030 BKN070 11/03 Q1010 NOSIG
2026-03-21 16:20:00,METAR LGAV 211620Z 34008KT 9999 SCT030 BKN070 11/02 Q1010 NOSIG
2026-03-21 15:50:00,METAR LGAV 211550Z 35008KT 9999 SCT030 BKN070 11/03 Q1009 NOSIG
2026-03-21 14:50:00,METAR LGAV 211450Z 35013KT 9999 SCT030 BKN070 12/03 Q1009 NOSIG
2026-03-21 14:20:00,METAR LGAV 211420Z 36012KT 9999 SCT030 BKN070 11/04 Q1009 NOSIG
2026-03-21 13:50:00,METAR LGAV 211350Z 36015KT 9999 SCT030 SCT070 11/04 Q1009 NOSIG
2026-03-21 13:20:00,METAR LGAV 211320Z 35013KT 9999 SCT030 BKN070 11/04 Q1009 NOSIG
2026-03-21 12:50:00,METAR LGAV 211250Z 35014KT 9999 SCT030 BKN070 12/04 Q1008 NOSIG
2026-03-21 12:20:00,METAR LGAV 211220Z 36012KT 9999 SCT030 13/04 Q1008 NOSIG
2026-03-21 11:50:00,METAR LGAV 211150Z 01014KT 9999 SCT030 12/03 Q1008 NOSIG
2026-03-21 11:20:00,METAR LGAV 211120Z 01014KT 9999 SCT030 11/03 Q1009 NOSIG
2026-03-21 10:50:00,METAR LGAV 211050Z 34012KT 9999 SCT030 12/03 Q1009 NOSIG
2026-03-21 10:20:00,METAR LGAV 211020Z 34014KT 9999 SCT030 12/03 Q1009 NOSIG
2026-03-21 09:50:00,METAR LGAV 210950Z 01014KT 9999 SCT030 11/03 Q1009 NOSIG
2026-03-21 09:20:00,METAR LGAV 210920Z 36013KT 9999 SCT030 11/03 Q1009 NOSIG
2026-03-21 08:50:00,METAR LGAV 210850Z 35012KT 320V040 9999 SCT030 12/04 Q1008 NOSIG
2026-03-21 08:20:00,METAR LGAV 210820Z 01013G24KT 340V040 9999 BKN030 10/04 Q1009 NOSIG
2026-03-21 07:50:00,METAR LGAV 210750Z 35009KT 9999 BKN030 10/04 Q1008 NOSIG
2026-03-21 07:20:00,METAR LGAV 210720Z 35010KT 9999 BKN025 09/04 Q1009 NOSIG
2026-03-21 06:50:00,METAR LGAV 210650Z 35007KT 320V020 9999 BKN025 09/04 Q1008 NOSIG
2026-03-21 06:20:00,METAR LGAV 210620Z 36005KT 330V030 9999 BKN025 08/04 Q1008 NOSIG
2026-03-21 05:50:00,METAR LGAV 210550Z 34006KT 9999 BKN025 09/03 Q1008 NOSIG
2026-03-21 05:20:00,METAR LGAV 210520Z 36005KT 9999 SCT030 BKN040 09/03 Q1008 NOSIG
2026-03-21 04:50:00,METAR LGAV 210450Z 35005KT 9999 SCT025 BKN050 08/02 Q1008 NOSIG
2026-03-21 04:20:00,METAR LGAV 210420Z 36009KT 9999 SCT030 BKN050 08/03 Q1007 NOSIG
2026-03-21 03:50:00,METAR LGAV 210350Z 35011KT 9999 SCT030 BKN050 08/03 Q1007 NOSIG
2026-03-21 03:20:00,METAR LGAV 210320Z 33005KT 9999 SCT030 BKN050 08/03 Q1008 NOSIG
2026-03-21 02:50:00,METAR LGAV 210250Z 35008KT 9999 SCT030 BKN050 08/03 Q1007 NOSIG
2026-03-21 02:20:00,METAR LGAV 210220Z 36005KT 320V020 9999 SCT030 BKN060 08/03 Q1007 NOSIG
2026-03-21 01:50:00,METAR LGAV 210150Z 01009KT 9999 SCT030 BKN060 08/04 Q1008 NOSIG
2026-03-21 01:20:00,METAR LGAV 210120Z 36008KT 9999 SCT030 BKN040 08/03 Q1008 NOSIG
2026-03-21 00:50:00,METAR LGAV 210050Z 36008KT 9999 SCT030 BKN040 08/04 Q1008 NOSIG
2026-03-21 00:20:00,METAR LGAV 210020Z 35009KT 9999 SCT030 BKN040 08/04 Q1008 NOSIG
2026-03-20 23:50:00,METAR LGAV 202350Z 35011KT 9999 SCT030 BKN040 07/04 Q1009 NOSIG
2026-03-20 23:20:00,METAR LGAV 202320Z COR 02007KT 340V050 9999 DZ FEW020 SCT030 BKN040 07/05 Q1009 NOSIG
2026-03-20 22:50:00,METAR LGAV 202250Z 35007KT 330V040 9999 SCT030 BKN050 09/03 Q1009 NOSIG
2026-03-20 22:20:00,METAR LGAV 202220Z 34008KT 310V010 9999 SCT030 BKN050 09/03 Q1009 NOSIG
2026-03-20 21:50:00,METAR LGAV 202150Z 35008KT 310V020 9999 SCT030 BKN050 08/03 Q1009 NOSIG
2026-03-20 21:20:00,METAR LGAV 202120Z 35010KT 9999 SCT030 BKN050 08/03 Q1009 NOSIG
2026-03-20 20:50:00,METAR LGAV 202050Z 35008KT 9999 FEW015 SCT030 BKN040 08/03 Q1009 NOSIG
2026-03-20 20:20:00,METAR LGAV 202020Z 02009KT 9999 SCT030 BKN040 09/02 Q1009 NOSIG
2026-03-20 19:50:00,METAR LGAV 201950Z 02006KT 9999 BKN030 09/02 Q1009 NOSIG
2026-03-20 19:20:00,METAR LGAV 201920Z 33005KT 9999 SCT025 BKN040 09/02 Q1009 NOSIG
2026-03-20 18:50:00,METAR LGAV 201850Z 32005KT 9999 SCT025 BKN040 09/01 Q1009 NOSIG
2026-03-20 18:20:00,METAR LGAV 201820Z 35007KT 9999 SCT025 BKN040 10/01 Q1009 NOSIG
2026-03-20 17:50:00,METAR LGAV 201750Z 35007KT 9999 SCT025 BKN040 10/01 Q1009 NOSIG
2026-03-20 17:20:00,METAR LGAV 201720Z 36007KT 320V020 9999 SCT025 BKN040 09/01 Q1009 NOSIG
2026-03-20 16:50:00,METAR LGAV 201650Z 01008KT 9999 SCT025 BKN050 09/01 Q1009 NOSIG
2026-03-20 16:20:00,METAR LGAV 201620Z 36008KT 9999 SCT025 BKN050 09/01 Q1009 NOSIG
2026-03-20 15:50:00,METAR LGAV 201550Z 35007KT 9999 SCT025 BKN050 10/01 Q1009 NOSIG
2026-03-20 15:20:00,METAR LGAV 201520Z 34009KT 9999 BKN030 09/02 Q1008 NOSIG
2026-03-20 14:50:00,METAR LGAV 201450Z 34008KT 9999 BKN030 09/02 Q1008 NOSIG
2026-03-20 14:20:00,METAR LGAV 201420Z 34012G22KT 9999 SCT025 BKN040 10/02 Q1008 NOSIG
2026-03-20 13:50:00,METAR LGAV 201350Z 34012G22KT 9999 SCT025 BKN040 10/03 Q1008 NOSIG
2026-03-20 13:20:00,METAR LGAV 201320Z 35014KT 9999 SCT025 BKN040 09/04 Q1009 NOSIG
2026-03-20 12:50:00,METAR LGAV 201250Z 36016KT 9999 SCT025 BKN040 10/03 Q1008 NOSIG
2026-03-20 12:20:00,METAR LGAV 201220Z 35014KT 9999 SCT030 BKN040 10/03 Q1008 NOSIG
2026-03-20 11:50:00,METAR LGAV 201150Z 35015KT 9999 SCT030 BKN040 10/03 Q1008 NOSIG
2026-03-20 11:20:00,METAR LGAV 201120Z 36018KT 9999 SCT030 BKN040 10/03 Q1008 NOSIG
2026-03-20 10:50:00,METAR LGAV 201050Z 35017KT 9999 SCT025 BKN040 10/03 Q1008 NOSIG
2026-03-20 10:20:00,METAR LGAV 201020Z 35015KT 9999 SCT025 BKN040 09/03 Q1009 NOSIG
2026-03-20 09:50:00,METAR LGAV 200950Z 36014KT 9999 SCT025 BKN050 10/02 Q1009 NOSIG
2026-03-20 09:20:00,METAR LGAV 200920Z 36014KT 9999 SCT025 BKN040 10/03 Q1009 NOSIG
2026-03-20 08:50:00,METAR LGAV 200850Z 01012KT 9999 SCT025 BKN040 09/03 Q1009 NOSIG
2026-03-20 08:20:00,METAR LGAV 200820Z 36014KT 9999 SCT020 BKN040 09/03 Q1009 NOSIG
2026-03-20 07:50:00,METAR LGAV 200750Z 02013KT 9999 SCT020 BKN030 08/04 Q1009 NOSIG
2026-03-20 07:20:00,METAR LGAV 200720Z 01014KT 9999 SCT020 BKN030 08/04 Q1008 NOSIG
2026-03-20 06:50:00,METAR LGAV 200650Z 02014KT 340V050 9999 SCT018 BKN025 08/04 Q1008 NOSIG
2026-03-20 06:20:00,METAR LGAV 200620Z 02014KT 9999 FEW015 BKN025 08/04 Q1008 NOSIG
2026-03-20 05:50:00,METAR LGAV 200550Z 02016G27KT 9999 FEW018 SCT025 BKN070 08/03 Q1007 NOSIG
2026-03-20 05:20:00,METAR LGAV 200520Z 02015KT 9999 FEW015 SCT025 BKN070 08/03 Q1007 NOSIG
2026-03-20 04:50:00,METAR LGAV 200450Z 02015KT 9999 FEW015 BKN025 07/03 Q1007 NOSIG
2026-03-20 04:20:00,METAR LGAV 200420Z 02015KT 9999 FEW015 SCT025 07/04 Q1007 NOSIG
2026-03-20 03:50:00,METAR LGAV 200350Z 02016G26KT 9999 FEW015 SCT030 07/04 Q1007 NOSIG
2026-03-20 03:20:00,METAR LGAV 200320Z 02017KT 9999 FEW018 SCT025 08/04 Q1007 NOSIG
2026-03-20 02:50:00,METAR LGAV 200250Z 02015KT 9999 FEW018 SCT025 08/04 Q1007 NOSIG
2026-03-20 02:20:00,METAR LGAV 200220Z 02016KT 9999 FEW018 SCT025 08/03 Q1007 NOSIG
2026-03-20 01:50:00,METAR LGAV 200150Z 02019KT 9999 FEW018 SCT025 08/03 Q1007 NOSIG
2026-03-20 01:20:00,METAR LGAV 200120Z 02016KT 9999 FEW015 BKN025 08/04 Q1007 NOSIG
2026-03-20 00:50:00,METAR LGAV 200050Z 01015KT 9999 FEW018 SCT025 08/04 Q1007 NOSIG
2026-03-20 00:20:00,METAR LGAV 200020Z 03017KT 9999 FEW015 BKN025 08/04 Q1007 NOSIG
2026-03-19 23:50:00,METAR LGAV 192350Z 03021KT 9999 FEW015 BKN025 08/04 Q1008 NOSIG
2026-03-19 23:20:00,METAR LGAV 192320Z 03021G32KT 9999 FEW015 BKN025 09/04 Q1007 NOSIG
2026-03-19 22:50:00,METAR LGAV 192250Z 03018G31KT 360V060 9999 FEW015 BKN025 09/04 Q1007 NOSIG
2026-03-19 22:20:00,METAR LGAV 192220Z 03021KT 9999 FEW015 BKN025 09/04 Q1007 NOSIG
2026-03-19 21:50:00,METAR LGAV 192150Z 03016G29KT 9999 FEW015 BKN025 08/05 Q1007 NOSIG
2026-03-19 21:20:00,METAR LGAV 192120Z 01020KT 9999 FEW015 BKN025 09/04 Q1008 NOSIG
2026-03-19 20:50:00,METAR LGAV 192050Z 01019G29KT 9999 FEW015 BKN025 09/04 Q1008 NOSIG
2026-03-19 20:20:00,METAR LGAV 192020Z 04016KT 9999 FEW015 BKN025 09/05 Q1008 NOSIG
2026-03-19 19:50:00,METAR LGAV 191950Z 03015KT 9999 DZ FEW015 BKN025 08/06 Q1009 NOSIG
2026-03-19 19:20:00,METAR LGAV 191920Z 03015G26KT 9999 FEW015 BKN025 08/05 Q1009 NOSIG
2026-03-19 18:50:00,METAR LGAV 191850Z 03015KT 9999 FEW015 BKN025 09/05 Q1008 NOSIG
2026-03-19 18:20:00,METAR LGAV 191820Z 03016KT 9999 FEW015 BKN025 09/05 Q1008 NOSIG
2026-03-19 17:50:00,METAR LGAV 191750Z 03016KT 9999 FEW015 BKN025 09/05 Q1008 NOSIG
2026-03-19 17:20:00,METAR LGAV 191720Z 03018KT 9999 FEW015 BKN025 09/06 Q1008 NOSIG
2026-03-19 16:50:00,METAR LGAV 191650Z 03016KT 9999 FEW015 BKN025 10/06 Q1008 NOSIG
2026-03-19 16:20:00,METAR LGAV 191620Z 03015KT 9999 FEW018 BKN025 10/05 Q1008 NOSIG
2026-03-19 15:50:00,METAR LGAV 191550Z 03016KT 9999 FEW018 BKN025 10/05 Q1008 NOSIG
2026-03-19 15:20:00,METAR LGAV 191520Z 01016KT 9999 FEW018 BKN025 10/06 Q1008 NOSIG
2026-03-19 14:50:00,METAR LGAV 191450Z 36017KT 9999 FEW018 BKN025 10/05 Q1009 NOSIG
2026-03-19 14:20:00,METAR LGAV 191420Z 36013KT 9999 FEW018 BKN025 10/05 Q1009 NOSIG
2026-03-19 13:50:00,METAR LGAV 191350Z 35015KT 9999 FEW018 BKN025 10/06 Q1009 NOSIG
2026-03-19 13:20:00,METAR LGAV 191320Z 36018KT 9999 FEW018 BKN025 11/06 Q1009 NOSIG
2026-03-19 12:50:00,METAR LGAV 191250Z 36017KT 320V020 9999 FEW018 BKN025 11/05 Q1009 NOSIG
2026-03-19 12:20:00,METAR LGAV 191220Z 02020G31KT 9999 FEW018 BKN025 11/05 Q1009 NOSIG
2026-03-19 11:50:00,METAR LGAV 191150Z 03020KT 9999 FEW018 BKN025 11/05 Q1009 NOSIG
2026-03-19 11:20:00,METAR LGAV 191120Z 02019KT 9999 FEW018 BKN025 11/04 Q1010 NOSIG
2026-03-19 10:50:00,METAR LGAV 191050Z 02016G26KT 350V060 9999 FEW018 BKN025 11/04 Q1010 NOSIG
2026-03-19 10:20:00,METAR LGAV 191020Z 02015KT 9999 FEW018 BKN025 11/04 Q1010 NOSIG
2026-03-19 09:50:00,METAR LGAV 190950Z 01014KT 9999 FEW018 BKN025 10/04 Q1011 NOSIG
2026-03-19 09:20:00,METAR LGAV 190920Z 01016KT 340V040 9999 FEW018 BKN025 11/04 Q1011 NOSIG
2026-03-19 08:50:00,METAR LGAV 190850Z 01018G28KT 9999 FEW018 BKN025 11/04 Q1011 NOSIG
2026-03-19 08:20:00,METAR LGAV 190820Z 01017KT 9999 FEW018 BKN025 11/05 Q1011 NOSIG
2026-03-19 07:50:00,METAR LGAV 190750Z 02015G26KT 9999 FEW018 BKN025 10/05 Q1011 NOSIG
2026-03-19 07:20:00,METAR LGAV 190720Z 01015KT 340V050 9999 FEW018 BKN025 10/04 Q1011 NOSIG
2026-03-19 06:50:00,METAR LGAV 190650Z 01015KT 9999 FEW018 BKN025 10/04 Q1011 NOSIG
2026-03-19 06:20:00,METAR LGAV 190620Z 01016KT 340V040 9999 FEW018 BKN025 10/04 Q1011 NOSIG
2026-03-19 05:50:00,METAR LGAV 190550Z 02015KT 9999 FEW018 BKN025 11/04 Q1011 NOSIG
2026-03-19 05:20:00,METAR LGAV 190520Z 01014G27KT 340V050 9999 FEW018 BKN025 11/04 Q1010 NOSIG
2026-03-19 04:50:00,METAR LGAV 190450Z 01017G27KT 9999 BKN025 11/04 Q1010 NOSIG
2026-03-19 04:20:00,METAR LGAV 190420Z 35016G27KT 9999 BKN025 11/05 Q1010 NOSIG
2026-03-19 03:50:00,METAR LGAV 190350Z 35014KT 9999 BKN025 10/05 Q1010 NOSIG
2026-03-19 02:50:00,METAR LGAV 190250Z 35015KT 9999 SCT025 BKN070 11/05 Q1010 NOSIG
2026-03-19 02:20:00,METAR LGAV 190220Z 34011KT 9999 SCT025 BKN070 11/05 Q1011 NOSIG
2026-03-19 01:50:00,METAR LGAV 190150Z 35013G23KT 9999 SCT020 SCT070 11/06 Q1010 NOSIG
2026-03-19 01:20:00,METAR LGAV 190120Z 35016G27KT 9999 SCT025 BKN070 11/06 Q1010 NOSIG
2026-03-19 00:50:00,METAR LGAV 190050Z 35019G29KT 9999 SCT020 BKN070 11/06 Q1010 NOSIG
2026-03-19 00:20:00,METAR LGAV 190020Z 36015G26KT 9999 SCT025 BKN070 11/06 Q1011 NOSIG
2026-03-18 23:50:00,METAR LGAV 182350Z 36019G30KT 9999 SCT025 BKN070 11/06 Q1010 NOSIG
2026-03-18 23:20:00,METAR LGAV 182320Z 36018KT 330V030 9999 SCT025 BKN070 11/06 Q1011 NOSIG
2026-03-18 22:50:00,METAR LGAV 182250Z 01018G28KT 9999 SCT025 BKN070 11/06 Q1011 NOSIG
2026-03-18 22:20:00,METAR LGAV 182220Z 36018G28KT 9999 SCT025 BKN070 11/06 Q1011 NOSIG
2026-03-18 21:50:00,METAR LGAV 182150Z 36015KT 9999 SCT025 BKN070 12/06 Q1011 NOSIG
2026-03-18 21:20:00,METAR LGAV 182120Z 36020KT 9999 FEW018 SCT025 BKN070 12/06 Q1011 NOSIG
2026-03-18 20:50:00,METAR LGAV 182050Z 01018KT 9999 FEW018 SCT025 BKN070 12/06 Q1011 NOSIG
2026-03-18 20:20:00,METAR LGAV 182020Z 03016KT 9999 FEW018 SCT025 BKN070 12/06 Q1011 NOSIG
2026-03-18 19:50:00,METAR LGAV 181950Z COR 03017G27KT 9999 FEW018 SCT025 BKN070 12/06 Q1011 NOSIG
2026-03-18 19:20:00,METAR LGAV 181920Z 03016G26KT 9999 FEW018 SCT030 BKN070 12/06 Q1011 NOSIG
2026-03-18 18:50:00,METAR LGAV 181850Z 03014G24KT 9999 FEW018 SCT025 BKN070 12/06 Q1011 NOSIG
2026-03-18 18:20:00,METAR LGAV 181820Z 03019G29KT 9999 FEW018 SCT025 BKN070 12/07 Q1010 NOSIG
2026-03-18 17:50:00,METAR LGAV 181750Z 03021G31KT 9999 FEW018 SCT025 BKN070 12/07 Q1010 NOSIG
2026-03-18 17:20:00,METAR LGAV 181720Z 03017KT 9999 FEW018 SCT030 BKN070 12/07 Q1010 NOSIG
2026-03-18 16:50:00,METAR LGAV 181650Z 02015G25KT 9999 FEW018 SCT030 BKN070 12/07 Q1010 NOSIG
2026-03-18 16:20:00,METAR LGAV 181620Z 03015KT 9999 FEW018 SCT030 12/07 Q1010 NOSIG
2026-03-18 15:50:00,METAR LGAV 181550Z 02014KT 9999 FEW018 SCT025 12/07 Q1009 NOSIG
2026-03-18 15:20:00,METAR LGAV 181520Z 01021G31KT 9999 FEW018 SCT030 BKN070 12/08 Q1009 NOSIG
2026-03-18 14:50:00,METAR LGAV 181450Z 01023G33KT 9999 FEW018 SCT030 BKN070 13/08 Q1009 NOSIG
2026-03-18 14:20:00,METAR LGAV 181420Z 01022G32KT 9999 FEW020 SCT040 BKN070 13/08 Q1009 NOSIG
2026-03-18 13:50:00,METAR LGAV 181350Z 01022KT 9999 FEW020 SCT040 BKN070 13/08 Q1010 NOSIG
2026-03-18 13:20:00,METAR LGAV 181320Z 02023KT 9999 FEW020 SCT040 BKN070 13/09 Q1009 NOSIG
2026-03-18 12:50:00,METAR LGAV 181250Z 01020KT 9999 FEW020 SCT040 BKN070 13/09 Q1009 NOSIG
2026-03-18 12:20:00,METAR LGAV 181220Z 03017KT 9999 FEW020 SCT040 BKN070 14/08 Q1009 NOSIG
2026-03-18 11:50:00,METAR LGAV 181150Z 03018KT 9999 FEW020 SCT040 BKN070 14/08 Q1010 NOSIG
2026-03-18 11:20:00,METAR LGAV 181120Z 03018KT 9999 FEW020 SCT040 BKN070 14/08 Q1010 NOSIG
2026-03-18 10:50:00,METAR LGAV 181050Z 02016KT 9999 FEW018 SCT040 BKN070 13/08 Q1010 NOSIG
2026-03-18 10:20:00,METAR LGAV 181020Z 03016KT 9999 FEW015 SCT040 BKN070 12/08 Q1011 NOSIG
2026-03-18 09:50:00,METAR LGAV 180950Z 03015KT 9999 FEW020 SCT040 BKN070 12/08 Q1011 NOSIG
2026-03-18 09:20:00,METAR LGAV 180920Z 04016KT 9999 FEW016 SCT040 BKN070 13/08 Q1011 NOSIG
2026-03-18 08:50:00,METAR LGAV 180850Z 04015KT 9999 FEW020 SCT040 BKN070 13/08 Q1011 NOSIG
2026-03-18 08:20:00,METAR LGAV 180820Z 03014KT 9999 FEW025 SCT040 BKN070 13/07 Q1010 NOSIG
2026-03-18 07:50:00,METAR LGAV 180750Z 03015KT 9999 FEW025 SCT040 BKN070 13/07 Q1010 NOSIG
2026-03-18 07:20:00,METAR LGAV 180720Z 03014KT 9999 FEW025 SCT040 BKN070 13/06 Q1010 NOSIG
2026-03-18 06:50:00,METAR LGAV 180650Z 03014KT 9999 FEW025 SCT040 BKN070 12/06 Q1010 NOSIG
2026-03-18 06:20:00,METAR LGAV 180620Z 03012KT 9999 FEW025 SCT040 BKN070 12/06 Q1010 NOSIG
2026-03-18 05:50:00,METAR LGAV 180550Z 02013KT 9999 FEW025 SCT040 BKN070 12/06 Q1010 NOSIG
2026-03-18 05:20:00,METAR LGAV 180520Z 03011KT 9999 FEW025 SCT040 BKN070 12/06 Q1010 NOSIG
2026-03-18 04:50:00,METAR LGAV 180450Z 02010KT 9999 FEW025 SCT040 BKN070 11/06 Q1010 NOSIG
2026-03-18 04:20:00,METAR LGAV 180420Z 36013KT 9999 FEW020 SCT035 BKN070 11/06 Q1010 NOSIG
2026-03-18 03:50:00,METAR LGAV 180350Z 01013KT 9999 FEW025 SCT040 BKN070 11/06 Q1010 NOSIG
2026-03-18 03:20:00,METAR LGAV 180320Z 01014KT 9999 FEW025 SCT040 BKN070 11/05 Q1010 NOSIG
2026-03-18 02:50:00,METAR LGAV 180250Z 36011KT 9999 FEW025 SCT040 BKN070 11/06 Q1010 NOSIG
2026-03-18 02:20:00,METAR LGAV 180220Z 36012KT 9999 FEW025 SCT040 BKN070 11/05 Q1010 NOSIG
2026-03-18 01:50:00,METAR LGAV 180150Z 36011KT 9999 FEW025 SCT040 BKN070 11/05 Q1010 NOSIG
2026-03-18 01:20:00,METAR LGAV 180120Z 36011KT 9999 FEW025 SCT040 BKN070 11/04 Q1011 NOSIG
2026-03-18 00:50:00,METAR LGAV 180050Z 01007KT 9999 FEW025 SCT040 BKN070 11/04 Q1011 NOSIG
2026-03-18 00:20:00,METAR LGAV 180020Z 35007KT 9999 FEW020 SCT040 BKN070 11/03 Q1011 NOSIG
2026-03-17 23:50:00,METAR LGAV 172350Z 36008KT 9999 FEW020 SCT040 BKN070 11/04 Q1011 NOSIG
2026-03-17 23:20:00,METAR LGAV 172320Z 36009KT 9999 FEW020 BKN070 11/04 Q1011 NOSIG
2026-03-17 22:50:00,METAR LGAV 172250Z 36011KT 9999 FEW020 BKN070 12/03 Q1011 NOSIG
2026-03-17 22:20:00,METAR LGAV 172220Z 36009KT 9999 FEW020 BKN070 12/03 Q1012 NOSIG
2026-03-17 21:20:00,METAR LGAV 172120Z 36011KT 9999 FEW020 BKN070 12/03 Q1012 NOSIG
2026-03-17 20:50:00,METAR LGAV 172050Z 36012KT 9999 FEW020 BKN070 11/03 Q1012 NOSIG
2026-03-17 20:20:00,METAR LGAV 172020Z 03009KT 9999 FEW020 BKN070 12/02 Q1012 NOSIG
2026-03-17 19:50:00,METAR LGAV 171950Z 03009KT 9999 FEW020 BKN070 12/02 Q1012 NOSIG
2026-03-17 19:20:00,METAR LGAV 171920Z 03011KT 9999 FEW020 BKN070 12/03 Q1013 NOSIG
2026-03-17 18:50:00,METAR LGAV 171850Z 03010KT 9999 FEW020 BKN070 12/02 Q1013 NOSIG
2026-03-17 18:20:00,METAR LGAV 171820Z 02010KT 9999 FEW020 BKN070 12/02 Q1013 NOSIG
2026-03-17 17:50:00,METAR LGAV 171750Z 03010KT 9999 FEW020 BKN070 12/02 Q1012 NOSIG
2026-03-17 17:20:00,METAR LGAV 171720Z 02010KT 9999 FEW020 BKN070 12/02 Q1012 NOSIG
2026-03-17 16:50:00,METAR LGAV 171650Z 02012KT 9999 FEW025 BKN070 12/02 Q1012 NOSIG
2026-03-17 16:20:00,METAR LGAV 171620Z 03013KT 9999 FEW025 BKN070 12/01 Q1012 NOSIG
2026-03-17 15:50:00,METAR LGAV 171550Z 03014KT 9999 FEW025 BKN070 12/01 Q1012 NOSIG
2026-03-17 15:20:00,METAR LGAV 171520Z 01015KT 9999 FEW025 SCT070 12/01 Q1012 NOSIG
2026-03-17 14:50:00,METAR LGAV 171450Z 01013KT 9999 FEW025 SCT070 12/01 Q1012 NOSIG
2026-03-17 14:20:00,METAR LGAV 171420Z 02015KT 9999 FEW025 SCT070 13/03 Q1012 NOSIG
2026-03-17 13:50:00,METAR LGAV 171350Z 02015KT 9999 FEW025 SCT070 13/03 Q1012 NOSIG
2026-03-17 13:20:00,METAR LGAV 171320Z 36020KT 9999 FEW025 SCT070 13/03 Q1012 NOSIG
2026-03-17 12:50:00,METAR LGAV 171250Z 36017KT 9999 FEW025 SCT070 13/04 Q1013 NOSIG
2026-03-17 12:20:00,METAR LGAV 171220Z 03012KT 9999 FEW025 SCT070 13/04 Q1014 NOSIG
2026-03-17 11:50:00,METAR LGAV 171150Z 04012KT 9999 FEW025 SCT070 13/03 Q1014 NOSIG
2026-03-17 11:20:00,METAR LGAV 171120Z 04015KT 9999 FEW025 SCT070 13/02 Q1014 NOSIG
2026-03-17 10:50:00,METAR LGAV 171050Z 03012KT 9999 FEW025 SCT070 13/03 Q1015 NOSIG
2026-03-17 10:20:00,METAR LGAV 171020Z 04012KT 9999 FEW025 13/03 Q1015 NOSIG
2026-03-17 09:50:00,METAR LGAV 170950Z 04009KT 9999 FEW025 13/03 Q1015 NOSIG
2026-03-17 09:20:00,METAR LGAV 170920Z 03009KT 9999 FEW025 13/04 Q1015 NOSIG
2026-03-17 08:50:00,METAR LGAV 170850Z 04010KT 9999 FEW025 13/05 Q1015 NOSIG
2026-03-17 08:20:00,METAR LGAV 170820Z 04009KT 9999 FEW025 13/05 Q1015 NOSIG
2026-03-17 07:50:00,METAR LGAV 170750Z 03009KT 9999 FEW025 13/05 Q1015 NOSIG
2026-03-17 07:20:00,METAR LGAV 170720Z 03010KT 9999 FEW025 12/05 Q1015 NOSIG
2026-03-17 06:50:00,METAR LGAV 170650Z 03011KT 9999 FEW025 12/05 Q1015 NOSIG
2026-03-17 06:20:00,METAR LGAV 170620Z 03009KT 9999 FEW025 12/06 Q1015 NOSIG
2026-03-17 05:50:00,METAR LGAV 170550Z 03006KT 350V060 9999 FEW025 11/05 Q1015 NOSIG
2026-03-17 05:20:00,METAR LGAV 170520Z 03008KT 010V070 9999 FEW020 11/05 Q1014 NOSIG
2026-03-17 04:50:00,METAR LGAV 170450Z 03008KT 9999 FEW020 11/05 Q1014 NOSIG
2026-03-17 04:20:00,METAR LGAV 170420Z 36011KT 9999 FEW020 11/06 Q1014 NOSIG
2026-03-17 03:50:00,METAR LGAV 170350Z 01010KT 9999 FEW020 10/05 Q1014 NOSIG
2026-03-17 03:20:00,METAR LGAV 170320Z 36006KT 9999 FEW020 10/05 Q1014 NOSIG
2026-03-17 02:50:00,METAR LGAV 170250Z 36006KT 9999 FEW020 09/05 Q1015 NOSIG
2026-03-17 02:20:00,METAR LGAV 170220Z 36009KT 9999 FEW020 09/05 Q1015 NOSIG
2026-03-17 01:50:00,METAR LGAV 170150Z VRB04KT 9999 FEW020 08/05 Q1015 NOSIG
2026-03-17 01:20:00,METAR LGAV 170120Z 35005KT 9999 FEW020 06/04 Q1015 NOSIG
2026-03-17 00:50:00,METAR LGAV 170050Z VRB01KT 9999 FEW020 05/02 Q1015 NOSIG
2026-03-17 00:20:00,METAR LGAV 170020Z VRB02KT 9999 FEW020 06/03 Q1016 NOSIG
2026-03-16 23:50:00,METAR LGAV 162350Z VRB03KT 9999 FEW020 06/03 Q1016 NOSIG
2026-03-16 23:20:00,METAR LGAV 162320Z VRB01KT 9999 FEW020 07/04 Q1016 NOSIG
2026-03-16 22:50:00,METAR LGAV 162250Z 35004KT 9999 FEW020 06/04 Q1016 NOSIG
2026-03-16 22:20:00,METAR LGAV 162220Z 00000KT 9999 FEW020 07/05 Q1016 NOSIG
2026-03-16 21:50:00,METAR LGAV 162150Z VRB02KT 9999 FEW020 06/04 Q1016 NOSIG RMK SCT180
2026-03-16 21:20:00,METAR LGAV 162120Z VRB03KT 9999 FEW020 07/04 Q1017 NOSIG
2026-03-16 20:50:00,METAR LGAV 162050Z VRB02KT 9999 FEW020 08/05 Q1017 NOSIG
2026-03-16 20:20:00,METAR LGAV 162020Z VRB01KT 9999 FEW020 10/04 Q1017 NOSIG
2026-03-16 19:50:00,METAR LGAV 161950Z VRB02KT 9999 FEW020 11/05 Q1017 NOSIG
2026-03-16 19:20:00,METAR LGAV 161920Z VRB02KT 9999 FEW020 11/05 Q1017 NOSIG
2026-03-16 18:50:00,METAR LGAV 161850Z VRB01KT 9999 FEW020 11/05 Q1017 NOSIG
2026-03-16 18:20:00,METAR LGAV 161820Z VRB03KT 9999 FEW020 11/05 Q1017 NOSIG
2026-03-16 17:50:00,METAR LGAV 161750Z VRB01KT 9999 FEW020 11/05 Q1016 NOSIG
2026-03-16 17:20:00,METAR LGAV 161720Z VRB01KT 9999 FEW020 11/05 Q1016 NOSIG RMK SCT080 SCT180
2026-03-16 16:50:00,METAR LGAV 161650Z 05006KT 9999 FEW020 12/06 Q1016 NOSIG
2026-03-16 16:20:00,METAR LGAV 161620Z 04005KT 9999 FEW020 12/06 Q1016 NOSIG
2026-03-16 15:50:00,METAR LGAV 161550Z 04007KT 9999 FEW020 13/05 Q1016 NOSIG
2026-03-16 15:20:00,METAR LGAV 161520Z 02010KT 9999 FEW020 13/06 Q1016 NOSIG
2026-03-16 14:50:00,METAR LGAV 161450Z 05009KT 9999 FEW020 14/06 Q1016 NOSIG
2026-03-16 14:20:00,METAR LGAV 161420Z 03011KT 010V070 9999 FEW020 14/06 Q1016 NOSIG
2026-03-16 13:50:00,METAR LGAV 161350Z 03012KT 9999 FEW020 14/07 Q1015 NOSIG
2026-03-16 13:20:00,METAR LGAV 161320Z 03011KT 010V080 9999 FEW020 14/06 Q1016 NOSIG
2026-03-16 12:50:00,METAR LGAV 161250Z 04012KT 010V070 9999 FEW020 14/05 Q1016 NOSIG
2026-03-16 12:20:00,METAR LGAV 161220Z 06014KT 9999 FEW020 14/04 Q1016 NOSIG
2026-03-16 11:50:00,METAR LGAV 161150Z 05012KT 9999 FEW020 14/05 Q1016 NOSIG
2026-03-16 11:20:00,METAR LGAV 161120Z 06013KT 9999 FEW020 15/05 Q1016 NOSIG
2026-03-16 10:50:00,METAR LGAV 161050Z 06015KT 9999 FEW020 14/04 Q1016 NOSIG
2026-03-16 10:20:00,METAR LGAV 161020Z 06013KT 9999 FEW020 14/04 Q1016 NOSIG
2026-03-16 09:50:00,METAR LGAV 160950Z 06012KT 9999 FEW020 14/04 Q1016 NOSIG
2026-03-16 09:20:00,METAR LGAV 160920Z 05013KT 9999 FEW020 14/03 Q1016 NOSIG
2026-03-16 08:50:00,METAR LGAV 160850Z 06015KT 9999 FEW020 14/04 Q1016 NOSIG
2026-03-16 08:20:00,METAR LGAV 160820Z 04014KT 9999 FEW020 13/04 Q1016 NOSIG
2026-03-16 07:50:00,METAR LGAV 160750Z 03012KT 9999 FEW020 13/05 Q1016 NOSIG
2026-03-16 07:20:00,METAR LGAV 160720Z 02010KT 9999 FEW020 13/05 Q1016 NOSIG
2026-03-16 06:50:00,METAR LGAV 160650Z 03010KT 9999 FEW018 13/05 Q1015 NOSIG
2026-03-16 06:20:00,METAR LGAV 160620Z VRB03KT CAVOK 12/05 Q1015 NOSIG
2026-03-16 05:50:00,METAR LGAV 160550Z VRB02KT CAVOK 10/05 Q1015 NOSIG
2026-03-16 05:20:00,METAR LGAV 160520Z 00000KT CAVOK 09/04 Q1015 NOSIG
2026-03-16 04:50:00,METAR LGAV 160450Z 00000KT 9999 FEW025 08/03 Q1014 NOSIG
2026-03-16 04:20:00,METAR LGAV 160420Z 31003KT 9999 FEW025 06/04 Q1014 NOSIG
2026-03-16 03:50:00,METAR LGAV 160350Z 34003KT 9999 FEW025 06/04 Q1014 NOSIG
2026-03-16 03:20:00,METAR LGAV 160320Z 35005KT 9999 FEW025 05/03 Q1014 NOSIG
2026-03-16 02:50:00,METAR LGAV 160250Z 34003KT 9999 FEW025 06/03 Q1014 NOSIG
2026-03-16 02:20:00,METAR LGAV 160220Z VRB01KT 9999 FEW025 06/03 Q1014 NOSIG
2026-03-16 01:50:00,METAR LGAV 160150Z 26003KT 9999 FEW025 04/01 Q1014 NOSIG
2026-03-16 01:20:00,METAR LGAV 160120Z VRB02KT 9999 FEW025 07/04 Q1014 NOSIG
2026-03-16 00:50:00,METAR LGAV 160050Z 25003KT 9999 FEW025 05/03 Q1014 NOSIG
2026-03-16 00:20:00,METAR LGAV 160020Z 26003KT 9999 FEW025 04/02 Q1014 NOSIG
2026-03-15 23:50:00,METAR LGAV 152350Z 26004KT 9999 FEW025 04/02 Q1014 NOSIG
2026-03-15 23:20:00,METAR LGAV 152320Z VRB03KT 9999 FEW025 04/02 Q1014 NOSIG
2026-03-15 22:50:00,METAR LGAV 152250Z VRB03KT 9999 FEW025 03/01 Q1014 NOSIG
2026-03-15 22:20:00,METAR LGAV 152220Z 33002KT 9999 FEW025 04/02 Q1014 NOSIG
2026-03-15 21:50:00,METAR LGAV 152150Z 29003KT 9999 FEW025 04/02 Q1014 NOSIG
2026-03-15 21:20:00,METAR LGAV 152120Z 35004KT 9999 FEW025 06/03 Q1014 NOSIG
2026-03-15 20:50:00,METAR LGAV 152050Z 35004KT 9999 FEW025 06/04 Q1013 NOSIG
2026-03-15 20:20:00,METAR LGAV 152020Z VRB01KT 9999 FEW025 05/03 Q1013 NOSIG
2026-03-15 19:50:00,METAR LGAV 151950Z 36005KT 9999 FEW030 08/04 Q1013 NOSIG
2026-03-15 19:20:00,METAR LGAV 151920Z 01006KT 9999 FEW030 09/04 Q1013 NOSIG
2026-03-15 18:50:00,METAR LGAV 151850Z 36007KT 9999 FEW030 08/04 Q1013 NOSIG
2026-03-15 18:20:00,METAR LGAV 151820Z 03005KT 9999 FEW030 09/04 Q1012 NOSIG
2026-03-15 17:50:00,METAR LGAV 151750Z 02009KT 9999 FEW030 10/04 Q1012 NOSIG
2026-03-15 17:20:00,METAR LGAV 151720Z 03008KT 9999 FEW030 11/05 Q1011 NOSIG
2026-03-15 16:50:00,METAR LGAV 151650Z 03006KT 9999 FEW030 11/05 Q1011 NOSIG
2026-03-15 16:20:00,METAR LGAV 151620Z 04008KT 9999 FEW030 11/05 Q1011 NOSIG
2026-03-15 15:50:00,METAR LGAV 151550Z 05008KT 9999 FEW030 12/06 Q1011 NOSIG
2026-03-15 15:20:00,METAR LGAV 151520Z 04009KT 010V080 9999 FEW030 SCT050 13/05 Q1010 NOSIG
2026-03-15 14:50:00,METAR LGAV 151450Z 04011KT 010V080 9999 FEW030 SCT050 13/06 Q1010 NOSIG
2026-03-15 14:20:00,METAR LGAV 151420Z 04009KT 010V080 9999 FEW030 SCT050 14/06 Q1010 NOSIG
2026-03-15 13:50:00,METAR LGAV 151350Z 04011KT 9999 FEW030 SCT050 13/06 Q1010 NOSIG
2026-03-15 13:20:00,METAR LGAV 151320Z 05009KT 010V080 9999 FEW030 SCT050 13/06 Q1010 NOSIG
2026-03-15 12:50:00,METAR LGAV 151250Z 04013KT 010V080 9999 FEW030 SCT050 14/06 Q1009 NOSIG
2026-03-15 12:20:00,METAR LGAV 151220Z 06015KT 9999 FEW030 SCT045 14/05 Q1010 NOSIG
2026-03-15 11:50:00,METAR LGAV 151150Z 06015KT 9999 FEW030 SCT045 14/06 Q1010 NOSIG
2026-03-15 11:20:00,METAR LGAV 151120Z 06015KT 9999 FEW030 SCT045 14/06 Q1010 NOSIG
2026-03-15 10:50:00,METAR LGAV 151050Z 06014KT 9999 FEW030 SCT045 14/06 Q1010 NOSIG
2026-03-15 10:20:00,METAR LGAV 151020Z 06012KT 030V090 9999 FEW030 SCT045 14/06 Q1010 NOSIG
2026-03-15 09:50:00,METAR LGAV 150950Z 06012KT 010V080 9999 FEW030 SCT045 14/05 Q1010 NOSIG
2026-03-15 09:20:00,METAR LGAV 150920Z 05013KT 9999 SCT040 14/04 Q1010 NOSIG
2026-03-15 08:50:00,METAR LGAV 150850Z 05011KT 9999 FEW040 14/03 Q1010 NOSIG
2026-03-15 08:20:00,METAR LGAV 150820Z 04011KT 9999 FEW040 13/03 Q1010 NOSIG
