Time_recorded,METAR
2026-05-02 15:20:00,METAR EGWU 021520Z 12004KT CAVOK 22/09 Q1012 TEMPO 7000 SHRA RMK BLU
2026-05-02 14:50:00,METAR EGWU 021450Z 21003KT 9999 FEW011 BKN250 22/09 Q1013 NOSIG RMK BLU BLU
2026-05-02 14:20:00,METAR EGWU 021420Z 20004KT CAVOK 23/08 Q1013 NOSIG RMK BLU BLU
2026-05-02 13:50:00,METAR EGWU 021350Z 19007KT CAVOK 22/08 Q1014 NOSIG RMK BLU BLU
2026-05-02 13:20:00,METAR EGWU 021320Z 17005KT CAVOK 23/08 Q1014 NOSIG RMK BLU BLU
2026-05-02 12:50:00,METAR EGWU 021250Z 15004KT CAVOK 22/08 Q1015 NOSIG RMK BLU BLU
2026-05-02 12:20:00,METAR EGWU 021220Z 17004KT CAVOK 21/08 Q1015 NOSIG RMK BLU
2026-05-02 11:50:00,METAR EGWU 021150Z 22003KT 9999 FEW040 20/08 Q1016 NOSIG RMK BLU BLU
2026-05-02 11:20:00,METAR EGWU 021120Z 14003KT 9999 FEW030 19/08 Q1016 NOSIG RMK BLU BLU
2026-05-02 10:50:00,METAR EGWU 021050Z 16005KT 9999 FEW030 19/09 Q1017 NOSIG RMK BLU BLU
2026-05-02 10:20:00,METAR EGWU 021020Z 17005KT 9999 FEW029 18/09 Q1017 NOSIG RMK BLU BLU
2026-05-02 09:50:00,METAR EGWU 020950Z 19004KT CAVOK 17/09 Q1017 NOSIG RMK BLU BLU
2026-05-02 09:20:00,METAR EGWU 020920Z AUTO 17004KT 9999 NCD 16/10 Q1017
2026-05-02 08:50:00,METAR EGWU 020850Z 21002KT 9999 FEW010 SCT120 14/09 Q1018 NOSIG RMK BLU BLU
2026-05-02 08:20:00,METAR EGWU 020820Z 21002KT 9999 FEW008 SCT120 13/10 Q1018 NOSIG RMK BLU BLU
2026-05-02 07:50:00,METAR EGWU 020750Z 24003KT 8000 BR BKN006 11/09 Q1018 TEMPO 9999 NSW
2026-05-02 07:20:00,METAR EGWU 020720Z 26003KT 7000 BR OVC006 11/09 Q1018 TEMPO 9999 NSW RMK YLO1 TEMPO BLU
2026-05-02 06:50:00,METAR EGWU 020650Z 26004KT 5000 BR OVC004 10/09 Q1018 TEMPO 9999 NSW
2026-05-02 06:20:00,METAR EGWU 020620Z AUTO 24005KT 3900 BR OVC001/// 09/09 Q1018
2026-05-02 05:50:00,METAR EGWU 020550Z AUTO 25005KT 4500 BR OVC003/// 10/09 Q1018
2026-05-02 05:20:00,METAR EGWU 020520Z AUTO 25002KT 4400 // SCT002/// 09/09 Q1018
2026-05-02 04:50:00,METAR EGWU 020450Z AUTO 21003KT 2500 // BKN001/// 09/08 Q1018
2026-05-02 04:20:00,METAR EGWU 020420Z AUTO 23004KT 3700 BR NCD 09/08 Q1018
2026-05-02 03:50:00,METAR EGWU 020350Z AUTO 22004KT 6000 BR FEW038/// 09/09 Q1018
2026-05-02 03:20:00,METAR EGWU 020320Z AUTO 23004KT 6000 BR BKN036/// 10/09 Q1018
2026-05-02 02:50:00,METAR EGWU 020250Z AUTO 23004KT 8000 BR NCD 09/08 Q1018
2026-05-02 02:20:00,METAR EGWU 020220Z AUTO 19002KT 9999 BR NCD 09/08 Q1018
2026-05-02 01:50:00,METAR EGWU 020150Z AUTO 21004KT 9999 NCD 08/07 Q1018
2026-05-02 01:20:00,METAR EGWU 020120Z AUTO 20001KT 9999 NCD 10/08 Q1018
2026-05-02 00:50:00,METAR EGWU 020050Z AUTO 20003KT 9999 FEW032/// 11/08 Q1019
2026-05-02 00:20:00,METAR EGWU 020020Z AUTO 20003KT 9999 NCD 11/08 Q1019
2026-05-01 23:50:00,METAR EGWU 012350Z AUTO 21003KT 9999 NCD 12/08 Q1019
2026-05-01 23:20:00,METAR EGWU 012320Z AUTO 21006KT 9999 FEW096/// 13/07 Q1019
2026-05-01 22:50:00,METAR EGWU 012250Z AUTO 22006KT 9999 BKN096/// 14/08 Q1019
2026-05-01 22:20:00,METAR EGWU 012220Z AUTO 22008KT 9999 NCD 14/08 Q1019
2026-05-01 21:50:00,METAR EGWU 012150Z AUTO 22005KT 9999 NCD 15/09 Q1019
2026-05-01 21:20:00,METAR EGWU 012120Z AUTO 22008KT 9999 FEW085/// 16/10 Q1019
2026-05-01 20:50:00,METAR EGWU 012050Z AUTO 22005KT 9999 FEW089/// 16/11 Q1019
2026-05-01 20:20:00,METAR EGWU 012020Z AUTO 23005KT 9999 FEW090/// 17/11 Q1019
2026-05-01 19:50:00,METAR EGWU 011950Z AUTO 22007KT 9999 SCT091/// 18/11 Q1019
2026-05-01 19:20:00,METAR EGWU 011920Z 23008KT 9999 FEW035 18/11 Q1019 NOSIG RMK BLU BLU
2026-05-01 18:50:00,METAR EGWU 011850Z 23010KT 9999 FEW035 BKN110 19/12 Q1019 NOSIG RMK BLU BLU
2026-05-01 18:20:00,METAR EGWU 011820Z 21009KT 9999 FEW035 20/12 Q1018 NOSIG RMK BLU BLU
2026-05-01 17:50:00,METAR EGWU 011750Z 22010KT 9999 FEW035 21/12 Q1018 NOSIG RMK BLU BLU
2026-05-01 17:20:00,METAR EGWU 011720Z 21011KT 9999 FEW037 22/12 Q1018 NOSIG RMK BLU BLU
2026-05-01 16:50:00,METAR EGWU 011650Z 22011KT 9999 FEW040 22/12 Q1018 NOSIG RMK BLU BLU
2026-05-01 16:20:00,METAR EGWU 011620Z 20010KT 9999 FEW040 23/14 Q1018 NOSIG RMK BLU BLU
2026-05-01 15:50:00,METAR EGWU 011550Z 20010KT 9999 FEW046 24/13 Q1018 NOSIG RMK BLU BLU
2026-05-01 15:20:00,METAR EGWU 011520Z 21010KT 9999 FEW048 24/12 Q1018 NOSIG RMK BLU BLU
2026-05-01 14:50:00,METAR EGWU 011450Z 21010KT CAVOK 25/11 Q1018 NOSIG RMK BLU BLU
2026-05-01 14:20:00,METAR EGWU 011420Z 22011KT CAVOK 25/11 Q1018 NOSIG RMK BLU BLU
2026-05-01 13:50:00,METAR EGWU 011350Z 18009KT CAVOK 25/10 Q1019 NOSIG RMK BLU BLU
2026-05-01 13:20:00,METAR EGWU 011320Z 19011KT CAVOK 25/08 Q1019 NOSIG RMK BLU BLU
2026-05-01 12:50:00,METAR EGWU 011250Z 18011KT CAVOK 25/08 Q1019 NOSIG RMK BLU BLU
2026-05-01 12:20:00,METAR EGWU 011220Z 17008KT CAVOK 24/07 Q1019 NOSIG RMK BLU BLU
2026-05-01 11:50:00,METAR EGWU 011150Z 15007KT CAVOK 25/06 Q1019 NOSIG RMK BLU BLU
2026-05-01 11:20:00,METAR EGWU 011120Z 12006KT CAVOK 24/06 Q1019 NOSIG RMK BLU BLU
2026-05-01 10:50:00,METAR EGWU 011050Z 13008KT CAVOK 23/05 Q1020 NOSIG RMK BLU BLU
2026-05-01 10:20:00,METAR EGWU 011020Z 12006KT CAVOK 22/05 Q1020 NOSIG RMK BLU BLU
2026-05-01 09:50:00,METAR EGWU 010950Z 10005KT CAVOK 20/04 Q1020 NOSIG RMK BLU BLU
2026-05-01 09:20:00,METAR EGWU 010920Z 10005KT CAVOK 20/05 Q1020 NOSIG RMK BLU BLU
2026-05-01 08:50:00,METAR EGWU 010850Z 13005KT CAVOK 19/03 Q1020 NOSIG RMK BLU BLU
2026-05-01 08:20:00,METAR EGWU 010820Z 14005KT CAVOK 17/03 Q1020 NOSIG RMK BLU BLU
2026-05-01 07:50:00,METAR EGWU 010750Z 14005KT CAVOK 16/03 Q1020 NOSIG RMK BLU BLU
2026-05-01 07:20:00,METAR EGWU 010720Z 13006KT CAVOK 15/03 Q1020 NOSIG RMK BLU BLU
2026-05-01 06:50:00,METAR EGWU 010650Z 11005KT CAVOK 13/04 Q1020 NOSIG RMK BLU BLU
2026-05-01 06:20:00,METAR EGWU 010620Z 09004KT CAVOK 12/04 Q1020 NOSIG RMK BLU BLU
2026-05-01 05:50:00,METAR EGWU 010550Z 09005KT CAVOK 11/04 Q1020 NOSIG RMK BLU BLU
2026-05-01 05:20:00,METAR EGWU 010520Z AUTO 09005KT 9999 NCD 08/04 Q1020
2026-05-01 04:50:00,METAR EGWU 010450Z AUTO 08002KT 9999 NCD 07/03 Q1020
2026-05-01 04:20:00,METAR EGWU 010420Z AUTO 08001KT 9999 NCD 07/03 Q1020
2026-05-01 03:50:00,METAR EGWU 010350Z AUTO 08004KT 9999 NCD 06/04 Q1020
2026-05-01 03:20:00,METAR EGWU 010320Z AUTO 06002KT 9999 NCD 07/04 Q1020
2026-05-01 02:50:00,METAR EGWU 010250Z AUTO 05003KT 9999 NCD 07/04 Q1020
2026-05-01 02:20:00,METAR EGWU 010220Z AUTO 06003KT 9999 NCD 07/04 Q1020
2026-05-01 01:50:00,METAR EGWU 010150Z AUTO 08005KT 9999 NCD 08/05 Q1020
2026-05-01 01:20:00,METAR EGWU 010120Z AUTO 07004KT 9999 NCD 07/04 Q1020
2026-05-01 00:50:00,METAR EGWU 010050Z AUTO 07004KT 9999 NCD 08/04 Q1021
2026-05-01 00:20:00,METAR EGWU 010020Z AUTO 06004KT 9999 NCD 09/04 Q1021
2026-04-30 23:50:00,METAR EGWU 302350Z AUTO 13003KT 9999 NCD 10/04 Q1021
2026-04-30 23:20:00,METAR EGWU 302320Z AUTO 10005KT 9999 NCD 10/04 Q1021
2026-04-30 22:50:00,METAR EGWU 302250Z AUTO 10005KT 9999 NCD 11/04 Q1021
2026-04-30 22:20:00,METAR EGWU 302220Z AUTO 09006KT 9999 NCD 11/03 Q1021
2026-04-30 21:50:00,METAR EGWU 302150Z AUTO 09007KT 9999 NCD 13/03 Q1021
2026-04-30 21:20:00,METAR EGWU 302120Z 09006KT CAVOK 13/02 Q1021 NOSIG RMK BLU BLU
2026-04-30 20:50:00,METAR EGWU 302050Z 08006KT CAVOK 13/02 Q1021 NOSIG RMK BLU BLU
2026-04-30 20:20:00,METAR EGWU 302020Z 09007KT CAVOK 15/02 Q1021 NOSIG RMK BLU BLU
2026-04-30 19:50:00,METAR EGWU 301950Z 10008KT CAVOK 15/01 Q1020 NOSIG RMK BLU BLU
2026-04-30 19:20:00,METAR EGWU 301920Z 11008KT CAVOK 17/01 Q1020 NOSIG RMK BLU BLU
2026-04-30 18:50:00,METAR EGWU 301850Z 11013KT CAVOK 17/M01 Q1020 NOSIG RMK BLU BLU
2026-04-30 18:20:00,METAR EGWU 301820Z 10013KT CAVOK 18/M01 Q1020 NOSIG RMK BLU BLU
2026-04-30 17:50:00,METAR EGWU 301750Z 11014KT CAVOK 19/M02 Q1020 NOSIG RMK BLU BLU
2026-04-30 17:20:00,METAR EGWU 301720Z 11013KT CAVOK 19/M01 Q1020 NOSIG RMK BLU BLU
2026-04-30 16:50:00,METAR EGWU 301650Z 09016KT CAVOK 20/01 Q1020 NOSIG RMK BLU BLU
2026-04-30 16:20:00,METAR EGWU 301620Z 10014KT CAVOK 19/00 Q1020 NOSIG RMK BLU BLU
2026-04-30 14:50:00,METAR EGWU 301450Z 11014KT CAVOK 21/02 Q1020 NOSIG RMK BLU BLU
2026-04-30 14:20:00,METAR EGWU 301420Z 09016KT CAVOK 20/03 Q1020 NOSIG RMK BLU BLU
2026-04-30 13:50:00,METAR EGWU 301350Z 10014KT CAVOK 21/04 Q1021 NOSIG RMK BLU BLU
2026-04-30 13:20:00,METAR EGWU 301320Z 10015KT CAVOK 20/03 Q1021 NOSIG RMK BLU BLU
2026-04-30 12:50:00,METAR EGWU 301250Z 10012KT CAVOK 20/03 Q1021 NOSIG RMK BLU BLU
2026-04-30 12:20:00,METAR EGWU 301220Z 10015KT CAVOK 19/03 Q1021 NOSIG RMK BLU BLU
2026-04-30 11:50:00,METAR EGWU 301150Z 11012KT 9999 SKC 19/02 Q1022 NOSIG RMK BLU BLU
2026-04-30 11:20:00,METAR EGWU 301120Z 12014KT CAVOK 20/03 Q1022 NOSIG RMK BLU BLU
2026-04-30 10:50:00,METAR EGWU 301050Z 10012KT CAVOK 19/04 Q1022 NOSIG RMK BLU BLU
2026-04-30 10:20:00,METAR EGWU 301020Z 10015KT 9999 SKC 18/03 Q1022 NOSIG RMK BLU BLU
2026-04-30 09:50:00,METAR EGWU 300950Z 10013KT 9999 SKC 17/04 Q1022 NOSIG RMK BLU BLU
2026-04-30 09:20:00,METAR EGWU 300920Z 10013KT CAVOK 17/04 Q1022 NOSIG RMK BLU BLU
2026-04-30 08:50:00,METAR EGWU 300850Z 10012KT CAVOK 16/04 Q1022 NOSIG RMK BLU BLU
2026-04-30 08:20:00,METAR EGWU 300820Z 10012KT CAVOK 15/04 Q1023 NOSIG RMK BLU BLU
2026-04-30 07:50:00,METAR EGWU 300750Z 10012KT CAVOK 14/04 Q1023 NOSIG RMK BLU BLU
2026-04-30 07:20:00,METAR EGWU 300720Z 10012KT CAVOK 13/05 Q1023 NOSIG RMK BLU BLU
2026-04-30 06:50:00,METAR EGWU 300650Z 10010KT CAVOK 12/05 Q1023 NOSIG RMK BLU BLU
2026-04-30 05:50:00,METAR EGWU 300550Z 08009KT CAVOK 11/05 Q1023 NOSIG RMK BLU BLU
2026-04-30 05:20:00,METAR EGWU 300520Z AUTO 08009KT 9999 NCD 10/05 Q1023
2026-04-30 04:50:00,METAR EGWU 300450Z AUTO 08008KT 9999 NCD 09/04 Q1023
2026-04-30 04:20:00,METAR EGWU 300420Z AUTO 08008KT 9999 NCD 10/04 Q1023
2026-04-30 03:50:00,METAR EGWU 300350Z AUTO 08010KT 9999 NCD 10/05 Q1022
2026-04-30 03:20:00,METAR EGWU 300320Z AUTO 09011KT 9999 NCD 10/04 Q1022
2026-04-30 02:50:00,METAR EGWU 300250Z AUTO 08011KT 9999 NCD 10/05 Q1022
2026-04-30 02:20:00,METAR EGWU 300220Z AUTO 08009KT 9999 NCD 10/04 Q1023
2026-04-30 01:50:00,METAR EGWU 300150Z AUTO 08011KT 9999 NCD 11/05 Q1023
2026-04-30 01:20:00,METAR EGWU 300120Z AUTO 08010KT 9999 NCD 11/05 Q1023
2026-04-30 00:50:00,METAR EGWU 300050Z AUTO 07009KT 9999 NCD 10/05 Q1023
2026-04-30 00:20:00,METAR EGWU 300020Z AUTO 08008KT 9999 NCD 10/04 Q1023
2026-04-29 23:50:00,METAR EGWU 292350Z AUTO 07009KT 9999 NCD 10/04 Q1023
2026-04-29 23:20:00,METAR EGWU 292320Z AUTO 07011KT 9999 NCD 11/04 Q1024
2026-04-29 22:50:00,METAR EGWU 292250Z AUTO 07010KT 9999 NCD 11/04 Q1023
2026-04-29 22:20:00,METAR EGWU 292220Z AUTO 07011KT 9999 NCD 11/03 Q1024
2026-04-29 21:50:00,METAR EGWU 292150Z AUTO 08011KT 9999 NCD 11/03 Q1024
2026-04-29 21:20:00,METAR EGWU 292120Z AUTO 08014KT 9999 NCD 12/02 Q1023
2026-04-29 20:50:00,METAR EGWU 292050Z AUTO 08013KT 9999 NCD 12/02 Q1023
2026-04-29 20:20:00,METAR EGWU 292020Z AUTO 07014KT 9999 NCD 13/02 Q1023
2026-04-29 19:50:00,METAR EGWU 291950Z AUTO 08015KT 9999 NCD 13/01 Q1023
2026-04-29 19:20:00,METAR EGWU 291920Z 08017KT CAVOK 14/01 Q1023 NOSIG RMK BLU BLU
2026-04-29 18:50:00,METAR EGWU 291850Z 08017KT CAVOK 14/01 Q1022 NOSIG RMK BLU BLU
2026-04-29 18:20:00,METAR EGWU 291820Z 08017G28KT CAVOK 15/00 Q1022 NOSIG RMK BLU BLU
2026-04-29 17:50:00,METAR EGWU 291750Z 08017G27KT CAVOK 16/00 Q1022 NOSIG RMK BLU BLU
2026-04-29 17:20:00,METAR EGWU 291720Z 08017KT CAVOK 16/00 Q1022 NOSIG RMK BLU BLU
2026-04-29 16:50:00,METAR EGWU 291650Z 08018KT CAVOK 16/00 Q1022 NOSIG RMK BLU BLU
2026-04-29 16:20:00,METAR EGWU 291620Z 08020KT CAVOK 17/00 Q1022 NOSIG RMK BLU BLU
2026-04-29 15:50:00,METAR EGWU 291550Z 09018KT CAVOK 17/M01 Q1023 NOSIG RMK BLU BLU
2026-04-29 15:20:00,METAR EGWU 291520Z 10017KT CAVOK 17/M00 Q1023 NOSIG RMK BLU BLU
2026-04-29 14:50:00,METAR EGWU 291450Z 08022KT CAVOK 18/00 Q1023 NOSIG RMK BLU BLU
2026-04-29 14:20:00,METAR EGWU 291420Z 09019KT CAVOK 17/M01 Q1023 NOSIG RMK BLU BLU
2026-04-29 13:50:00,METAR EGWU 291350Z 07021G31KT CAVOK 17/M01 Q1023 NOSIG RMK BLU BLU
2026-04-29 13:20:00,METAR EGWU 291320Z 08021KT CAVOK 17/M01 Q1023 NOSIG RMK BLU BLU
2026-04-29 12:50:00,METAR EGWU 291250Z 08021G32KT CAVOK 17/M01 Q1023 NOSIG RMK BLU BLU
2026-04-29 12:20:00,METAR EGWU 291220Z 08021KT CAVOK 17/M01 Q1023 NOSIG RMK BLU BLU
2026-04-29 11:50:00,METAR EGWU 291150Z 09021KT CAVOK 17/M01 Q1024 NOSIG RMK BLU BLU
2026-04-29 11:20:00,METAR EGWU 291120Z 09021KT 9999 SKC 16/M00 Q1024 NOSIG RMK BLU BLU
2026-04-29 10:50:00,METAR EGWU 291050Z 09021G32KT 9999 SKC 17/00 Q1024 NOSIG RMK BLU BLU
2026-04-29 10:20:00,METAR EGWU 291020Z 09021KT 9999 SKC 16/M01 Q1024 NOSIG RMK BLU BLU
2026-04-29 09:50:00,METAR EGWU 290950Z 08023KT CAVOK 16/00 Q1024 NOSIG RMK BLU BLU
2026-04-29 09:20:00,METAR EGWU 290920Z 08019KT CAVOK 16/01 Q1024 NOSIG RMK BLU BLU
2026-04-29 08:50:00,METAR EGWU 290850Z 09016G26KT CAVOK 15/01 Q1024 NOSIG RMK BLU BLU
2026-04-29 08:20:00,METAR EGWU 290820Z 08016KT CAVOK 14/04 Q1024 BECMG 08015G25KT RMK BLU BECMG BLU
2026-04-29 07:50:00,METAR EGWU 290750Z 07015KT CAVOK 13/04 Q1024 BECMG 08015G25KT
2026-04-29 07:20:00,METAR EGWU 290720Z 07015KT CAVOK 12/05 Q1024 BECMG 08015G25KT RMK BLU BECMG BLU
2026-04-29 06:50:00,METAR EGWU 290650Z 07014KT CAVOK 11/05 Q1023 BECMG 07015G25KT
2026-04-29 05:50:00,METAR EGWU 290550Z 06012KT CAVOK 10/05 Q1023 NOSIG RMK BLU BLU
2026-04-29 05:20:00,METAR EGWU 290520Z AUTO 06011KT 9999 NCD 09/04 Q1023
2026-04-29 04:50:00,METAR EGWU 290450Z AUTO 06009KT 9999 NCD 09/04 Q1023
2026-04-29 04:20:00,METAR EGWU 290420Z AUTO 06009KT 9999 NCD 08/04 Q1023
2026-04-29 03:50:00,METAR EGWU 290350Z AUTO 05009KT 9999 NCD 08/05 Q1023
2026-04-29 03:20:00,METAR EGWU 290320Z AUTO 05008KT 9999 NCD 08/04 Q1023
2026-04-29 02:50:00,METAR EGWU 290250Z AUTO 04009KT 9999 NCD 08/05 Q1023
2026-04-29 02:20:00,METAR EGWU 290220Z AUTO 04010KT 9999 NCD 08/04 Q1023
2026-04-29 01:50:00,METAR EGWU 290150Z AUTO 04008KT 9999 NCD 08/04 Q1024
2026-04-29 01:20:00,METAR EGWU 290120Z AUTO 05009KT 9999 NCD 08/04 Q1024
2026-04-29 00:50:00,METAR EGWU 290050Z AUTO 05013KT 9999 NCD 08/03 Q1024
2026-04-29 00:20:00,METAR EGWU 290020Z AUTO 05012KT 9999 NCD 08/03 Q1024
2026-04-28 23:50:00,METAR EGWU 282350Z AUTO 05013KT 9999 NCD 08/02 Q1024
2026-04-28 23:20:00,METAR EGWU 282320Z AUTO 05013KT 9999 NCD 08/02 Q1024
2026-04-28 22:50:00,METAR EGWU 282250Z AUTO 05013KT 9999 NCD 09/01 Q1024
2026-04-28 22:20:00,METAR EGWU 282220Z AUTO 05013KT 9999 NCD 09/01 Q1024
2026-04-28 21:50:00,METAR EGWU 282150Z AUTO 05011KT 9999 NCD 09/01 Q1025
2026-04-28 21:20:00,METAR EGWU 282120Z 04011KT CAVOK 10/00 Q1024 NOSIG RMK BLU BLU
2026-04-28 20:50:00,METAR EGWU 282050Z 04011KT CAVOK 11/M01 Q1024 NOSIG RMK BLU BLU
2026-04-28 20:20:00,METAR EGWU 282020Z 05010KT CAVOK 11/M01 Q1024 NOSIG RMK BLU BLU
2026-04-28 19:50:00,METAR EGWU 281950Z 05013KT CAVOK 12/M01 Q1024 NOSIG RMK BLU BLU
2026-04-28 19:20:00,METAR EGWU 281920Z 05012KT CAVOK 13/M01 Q1024 NOSIG RMK BLU BLU
2026-04-28 18:50:00,METAR EGWU 281850Z 06018KT CAVOK 14/M01 Q1023 NOSIG RMK BLU BLU
2026-04-28 18:20:00,METAR EGWU 281820Z 06017KT CAVOK 14/M01 Q1023 NOSIG RMK BLU BLU
2026-04-28 17:50:00,METAR EGWU 281750Z 07015KT CAVOK 15/M02 Q1023 NOSIG RMK BLU BLU
2026-04-28 17:20:00,METAR EGWU 281720Z 06019KT CAVOK 16/M02 Q1023 NOSIG RMK BLU BLU
2026-04-28 16:50:00,METAR EGWU 281650Z 06016KT CAVOK 16/M00 Q1023 NOSIG RMK BLU BLU
2026-04-28 16:20:00,METAR EGWU 281620Z 05014KT CAVOK 17/01 Q1023 NOSIG RMK BLU BLU
2026-04-28 15:50:00,METAR EGWU 281550Z 05015KT CAVOK 17/03 Q1023 NOSIG RMK BLU BLU
2026-04-28 15:20:00,METAR EGWU 281520Z 07015KT CAVOK 16/02 Q1023 NOSIG RMK BLU BLU
2026-04-28 15:20:00,METAR EGWU 281520Z 07015KT CAVOK 16/02 Q1023 NOSIG
2026-04-28 14:50:00,METAR EGWU 281450Z 06017KT CAVOK 16/02 Q1023 NOSIG RMK BLU BLU
2026-04-28 14:20:00,METAR EGWU 281420Z 06016KT 9999 FEW049 16/04 Q1023 NOSIG RMK BLU BLU
2026-04-28 13:50:00,METAR EGWU 281350Z 05015KT 9999 FEW049 16/03 Q1023 NOSIG RMK BLU BLU
2026-04-28 13:20:00,METAR EGWU 281320Z 05017G27KT 9999 FEW036 15/03 Q1024 NOSIG RMK BLU BLU
2026-04-28 12:50:00,METAR EGWU 281250Z 05017KT 9999 FEW036 15/04 Q1024 NOSIG RMK BLU BLU
2026-04-28 12:20:00,METAR EGWU 281220Z 06014KT 9999 SCT030 13/05 Q1024 NOSIG RMK BLU BLU
2026-04-28 11:50:00,METAR EGWU 281150Z 04014KT 9999 BKN028 12/05 Q1025 NOSIG RMK BLU BLU
2026-04-28 11:20:00,METAR EGWU 281120Z 05014KT 9999 BKN022 11/06 Q1025 BECMG FEW035 RMK WHT BECMG BLU
2026-04-28 10:50:00,METAR EGWU 281050Z 05012KT 9999 BKN022 11/06 Q1025 BECMG FEW035
2026-04-28 10:20:00,METAR EGWU 281020Z 05012KT 9999 BKN020 10/06 Q1025 BECMG FEW035 RMK WHT BECMG BLU
2026-04-28 09:50:00,METAR EGWU 280950Z 06013KT 9999 BKN020 11/06 Q1025 BECMG BKN025
2026-04-28 09:20:00,METAR EGWU 280920Z 06013KT 9999 BKN015 10/07 Q1025 NOSIG RMK WHT WHT
2026-04-28 08:50:00,METAR EGWU 280850Z 05012KT 9999 BKN017 11/07 Q1025 TEMPO 7000 -RADZ
2026-04-28 08:20:00,METAR EGWU 280820Z COR 06010KT 9999 BKN014 10/07 Q1025 BECMG BKN018
2026-04-28 07:50:00,METAR EGWU 280750Z 05009KT 9999 BKN011 10/08 Q1024 TEMPO 7000 -DZ
2026-04-28 07:20:00,METAR EGWU 280720Z 05013KT 9999 BKN009 10/07 Q1024 TEMPO 7000 -DZ RMK GRN TEMPO GRN
2026-04-28 06:50:00,METAR EGWU 280650Z 05012KT 9999 OVC010 10/07 Q1024 TEMPO 7000 -RADZ BKN010
2026-04-28 06:20:00,METAR EGWU 280620Z AUTO 05011KT 9999 // BKN013/// SCT033/// BKN043/// 10/07 Q1024
2026-04-28 05:50:00,METAR EGWU 280550Z 06011KT 9999 SCT007 BKN024 10/07 Q1024 BECMG FEW007
2026-04-28 05:20:00,METAR EGWU 280520Z AUTO 03008KT 9999 // OVC006/// 09/08 Q1023
2026-04-28 04:50:00,METAR EGWU 280450Z AUTO 03008KT 9999 // OVC007/// 09/08 Q1023
2026-04-28 04:20:00,METAR EGWU 280420Z AUTO 02006KT 9999 -DZ OVC006/// 09/08 Q1023
2026-04-28 03:50:00,METAR EGWU 280350Z AUTO 04007KT 9999 OVC009/// 09/07 Q1023
2026-04-28 03:20:00,METAR EGWU 280320Z AUTO 04007KT 9999 OVC012/// 09/07 Q1023
2026-04-28 02:50:00,METAR EGWU 280250Z AUTO 03007KT 9999 OVC016/// 10/06 Q1023
2026-04-28 02:20:00,METAR EGWU 280220Z AUTO 04010KT 9999 OVC016/// 10/06 Q1023
2026-04-28 01:50:00,METAR EGWU 280150Z AUTO 04010KT 9999 OVC014/// 10/06 Q1024
2026-04-28 01:20:00,METAR EGWU 280120Z AUTO 02009KT 9999 OVC013/// 10/07 Q1024
2026-04-28 00:50:00,METAR EGWU 280050Z AUTO 02008KT 9999 BKN013/// 10/07 Q1024
2026-04-28 00:20:00,METAR EGWU 280020Z AUTO 03011KT 9999 BKN011/// 10/07 Q1024
2026-04-27 23:50:00,METAR EGWU 272350Z AUTO 03013KT 9999 FEW012/// 10/07 Q1024
2026-04-27 23:20:00,METAR EGWU 272320Z AUTO 03012KT 9999 SCT120/// 11/07 Q1023
2026-04-27 22:50:00,METAR EGWU 272250Z AUTO 03010KT 9999 OVC093/// 12/07 Q1023
2026-04-27 22:20:00,METAR EGWU 272220Z AUTO 03007KT 9999 SCT067/// BKN100/// 12/08 Q1023
2026-04-27 21:50:00,METAR EGWU 272150Z AUTO 02010KT 9999 // FEW062/// BKN089/// 13/07 Q1023
2026-04-27 21:20:00,METAR EGWU 272120Z AUTO 02009KT 9999 // OVC054/// 13/08 Q1023
2026-04-27 20:50:00,METAR EGWU 272050Z AUTO 03011KT 9999 -DZ BKN050/// BKN066/// 14/08 Q1023
2026-04-27 20:20:00,METAR EGWU 272020Z 04011KT CAVOK 15/08 Q1023 TEMPO 6000 SHRA RMK BLU TEMPO WHT
2026-04-27 19:50:00,METAR EGWU 271950Z 04012KT CAVOK 16/08 Q1023 TEMPO 6000 SHRA
2026-04-27 19:20:00,METAR EGWU 271920Z 04012KT CAVOK 17/08 Q1022 TEMPO 6000 SHRA RMK BLU TEMPO WHT
2026-04-27 18:50:00,METAR EGWU 271850Z 03011KT CAVOK 18/07 Q1022 TEMPO 6000 SHRA
2026-04-27 18:20:00,METAR EGWU 271820Z 03011KT 9999 FEW030 BKN090 19/07 Q1021 TEMPO 6000 SHRA RMK BLU TEMPO WHT
2026-04-27 17:50:00,METAR EGWU 271750Z 03009KT CAVOK 19/06 Q1021 NOSIG RMK BLU BLU
2026-04-27 17:20:00,METAR EGWU 271720Z 06005KT CAVOK 20/06 Q1021 NOSIG RMK BLU BLU
2026-04-27 16:50:00,METAR EGWU 271650Z 02009KT 9999 SHRA BKN050 20/05 Q1022 NOSIG RMK BLU BLU
2026-04-27 16:20:00,METAR EGWU 271620Z 02008KT CAVOK 20/04 Q1021 NOSIG RMK BLU BLU
2026-04-27 15:50:00,METAR EGWU 271550Z 35008KT CAVOK 20/03 Q1022 NOSIG RMK BLU BLU
2026-04-27 15:20:00,METAR EGWU 271520Z 02007KT CAVOK 21/02 Q1022 NOSIG RMK BLU BLU
2026-04-27 14:50:00,METAR EGWU 271450Z 33005KT CAVOK 21/03 Q1022 NOSIG RMK BLU BLU
2026-04-27 14:20:00,METAR EGWU 271420Z 29006KT CAVOK 21/02 Q1022 NOSIG RMK BLU BLU
2026-04-27 13:50:00,METAR EGWU 271350Z 35007KT CAVOK 21/04 Q1023 NOSIG RMK BLU BLU
2026-04-27 13:20:00,METAR EGWU 271320Z AUTO 03005KT 9999 FEW072/// 20/02 Q1023
2026-04-27 12:50:00,METAR EGWU 271250Z 12003KT 9999 FEW030 20/03 Q1023 NOSIG RMK BLU BLU
2026-04-27 12:20:00,METAR EGWU 271220Z 02008KT 9999 FEW030 20/02 Q1023 NOSIG RMK BLU BLU
2026-04-27 11:50:00,METAR EGWU 271150Z 04005KT 9999 FEW030 19/05 Q1024 NOSIG RMK BLU BLU
2026-04-27 11:20:00,METAR EGWU 271120Z 09004KT 9999 FEW030 19/05 Q1024 NOSIG RMK BLU BLU
2026-04-27 10:50:00,METAR EGWU 271050Z 08005KT 9999 FEW030 19/06 Q1024 NOSIG RMK BLU BLU
2026-04-27 10:20:00,METAR EGWU 271020Z 08005KT CAVOK 19/06 Q1024 NOSIG RMK BLU BLU
2026-04-27 09:50:00,METAR EGWU 270950Z 07003KT CAVOK 17/05 Q1024 NOSIG RMK BLU BLU
2026-04-27 09:20:00,METAR EGWU 270920Z 11003KT CAVOK 17/05 Q1025 NOSIG RMK BLU BLU
2026-04-27 08:50:00,METAR EGWU 270850Z 15002KT CAVOK 15/05 Q1025 NOSIG RMK BLU BLU
2026-04-27 08:20:00,METAR EGWU 270820Z 02002KT CAVOK 14/07 Q1025 NOSIG RMK BLU BLU
2026-04-27 07:50:00,METAR EGWU 270750Z 05001KT CAVOK 12/07 Q1025 NOSIG RMK BLU BLU
2026-04-27 07:20:00,METAR EGWU 270720Z 04002KT CAVOK 10/07 Q1025 NOSIG RMK BLU BLU
2026-04-27 06:50:00,METAR EGWU 270650Z 07002KT CAVOK 09/08 Q1025 NOSIG RMK BLU BLU
2026-04-27 06:20:00,METAR EGWU 270620Z 02002KT CAVOK 08/07 Q1025 NOSIG RMK BLU BLU
2026-04-27 05:50:00,METAR EGWU 270550Z 00000KT CAVOK 07/06 Q1025 NOSIG RMK BLU BLU
2026-04-27 05:20:00,METAR EGWU 270520Z AUTO 06001KT 9000 BR NCD 06/05 Q1025
2026-04-27 04:50:00,METAR EGWU 270450Z AUTO 35002KT 9000 BR NCD 06/05 Q1024
2026-04-27 04:20:00,METAR EGWU 270420Z AUTO 32001KT 9999 FEW170/// 06/05 Q1024
2026-04-27 03:50:00,METAR EGWU 270350Z AUTO 30001KT 9999 NCD 06/05 Q1024
2026-04-27 03:20:00,METAR EGWU 270320Z AUTO 34003KT 9999 OVC140/// 07/05 Q1024
2026-04-27 02:50:00,METAR EGWU 270250Z AUTO 28001KT 9999 OVC140/// 08/06 Q1024
2026-04-27 02:20:00,METAR EGWU 270220Z AUTO 30001KT 9999 BKN140/// 08/06 Q1024
2026-04-27 01:50:00,METAR EGWU 270150Z AUTO 09002KT 9999 OVC150/// 09/06 Q1024
2026-04-27 01:20:00,METAR EGWU 270120Z AUTO 24002KT 9999 OVC140/// 09/06 Q1025
2026-04-27 00:50:00,METAR EGWU 270050Z AUTO 07004KT 9999 OVC140/// 09/06 Q1025
2026-04-27 00:20:00,METAR EGWU 270020Z AUTO 07002KT 9999 OVC160/// 09/07 Q1025
2026-04-26 23:50:00,METAR EGWU 262350Z AUTO 28001KT 9999 BKN160/// 09/06 Q1025
2026-04-26 23:20:00,METAR EGWU 262320Z AUTO 10002KT 9999 SCT160/// 10/06 Q1025
2026-04-26 22:50:00,METAR EGWU 262250Z AUTO 10003KT 9999 OVC160/// 10/07 Q1025
2026-04-26 22:20:00,METAR EGWU 262220Z AUTO 10004KT 9999 SCT170/// 10/06 Q1025
2026-04-26 21:50:00,METAR EGWU 262150Z AUTO 11005KT 9999 SCT150/// 11/06 Q1025
2026-04-26 21:20:00,METAR EGWU 262120Z AUTO 13005KT 9999 OVC150/// 12/06 Q1024
2026-04-26 20:50:00,METAR EGWU 262050Z AUTO 11006KT 9999 OVC150/// 12/06 Q1024
2026-04-26 20:20:00,METAR EGWU 262020Z AUTO 11008KT 9999 OVC150/// 13/07 Q1024
2026-04-26 19:50:00,METAR EGWU 261950Z AUTO 11008KT 9999 OVC160/// 14/06 Q1024
2026-04-26 19:20:00,METAR EGWU 261920Z 09008KT CAVOK 14/07 Q1024 NOSIG RMK BLU BLU
2026-04-26 18:50:00,METAR EGWU 261850Z 08009KT CAVOK 15/06 Q1024 NOSIG RMK BLU BLU
2026-04-26 18:20:00,METAR EGWU 261820Z 11008KT CAVOK 16/06 Q1023 NOSIG RMK BLU BLU
2026-04-26 17:50:00,METAR EGWU 261750Z 10009KT CAVOK 17/05 Q1023 NOSIG RMK BLU BLU
2026-04-26 17:20:00,METAR EGWU 261720Z 10010KT CAVOK 18/03 Q1023 NOSIG RMK BLU BLU
2026-04-26 16:50:00,METAR EGWU 261650Z 09008KT CAVOK 18/02 Q1023 NOSIG RMK BLU BLU
2026-04-26 16:20:00,METAR EGWU 261620Z 12007KT CAVOK 19/03 Q1023 NOSIG RMK BLU BLU
2026-04-26 15:50:00,METAR EGWU 261550Z 10006KT CAVOK 19/02 Q1023 NOSIG RMK BLU BLU
2026-04-26 15:20:00,METAR EGWU 261520Z 13006KT CAVOK 19/00 Q1024 NOSIG RMK BLU BLU
2026-04-26 14:50:00,METAR EGWU 261450Z 07005KT CAVOK 19/01 Q1024 NOSIG RMK BLU BLU
2026-04-26 14:20:00,METAR EGWU 261420Z 11006KT CAVOK 19/01 Q1024 NOSIG RMK BLU BLU
2026-04-26 13:50:00,METAR EGWU 261350Z 10005KT CAVOK 19/02 Q1024 NOSIG RMK BLU BLU
2026-04-26 13:20:00,METAR EGWU 261320Z 11006KT CAVOK 19/03 Q1024 NOSIG RMK BLU BLU
2026-04-26 12:50:00,METAR EGWU 261250Z 14005KT CAVOK 18/03 Q1025 NOSIG RMK BLU BLU
2026-04-26 12:20:00,METAR EGWU 261220Z 11005KT CAVOK 19/04 Q1025 NOSIG RMK BLU BLU
2026-04-26 11:50:00,METAR EGWU 261150Z 12006KT CAVOK 18/05 Q1025 NOSIG RMK BLU BLU
2026-04-26 11:20:00,METAR EGWU 261120Z 13005KT CAVOK 19/05 Q1025 NOSIG RMK BLU BLU
2026-04-26 10:58:00,SPECI EGWU 261058Z 16005KT CAVOK 18/05 Q1025 NOSIG RMK BLU BLU
2026-04-26 10:50:00,METAR EGWU 261050Z AUTO 15006KT 9999 NCD 18/06 Q1025
2026-04-26 10:20:00,METAR EGWU 261020Z 10004KT CAVOK 16/05 Q1025 NOSIG RMK BLU BLU
2026-04-26 09:50:00,METAR EGWU 260950Z 07005KT CAVOK 15/07 Q1025 NOSIG RMK BLU BLU
2026-04-26 09:20:00,METAR EGWU 260920Z 11006KT CAVOK 14/06 Q1025 NOSIG RMK BLU BLU
2026-04-26 08:50:00,METAR EGWU 260850Z 09007KT CAVOK 14/07 Q1025 NOSIG RMK BLU BLU
2026-04-26 08:20:00,METAR EGWU 260820Z 09007KT CAVOK 13/08 Q1025 NOSIG RMK BLU BLU
2026-04-26 07:50:00,METAR EGWU 260750Z 09007KT 9999 FEW015 11/08 Q1025 NOSIG RMK BLU BLU
2026-04-26 07:20:00,METAR EGWU 260720Z 09007KT 9999 SCT012 10/07 Q1026 BECMG FEW020 RMK GRN BECMG BLU
2026-04-26 06:50:00,METAR EGWU 260650Z 08008KT 9000 BR BKN010 09/08 Q1025 BECMG 9999 NSW FEW015
2026-04-26 06:20:00,METAR EGWU 260620Z 07007KT 6000 BR OVC007 08/07 Q1025 BECMG 9999 NSW SCT030 RMK GRN BECMG BLU
2026-04-26 05:50:00,METAR EGWU 260550Z 09006KT 5000 HZ BKN004 08/07 Q1025 BECMG BKN007 RMK YLO2 BECMG GRN
2026-04-26 05:20:00,METAR EGWU 260520Z AUTO 08008KT 5000 BR BKN004/// 07/06 Q1025
2026-04-26 04:50:00,METAR EGWU 260450Z AUTO 07007KT 9000 NCD 07/06 Q1024
2026-04-26 04:20:00,METAR EGWU 260420Z AUTO 04006KT 9999 NCD 06/05 Q1024
2026-04-26 03:50:00,METAR EGWU 260350Z AUTO 06004KT 9999 NCD 04/02 Q1024
2026-04-26 03:20:00,METAR EGWU 260320Z AUTO 04002KT 9999 NCD 04/01 Q1024
2026-04-26 02:50:00,METAR EGWU 260250Z AUTO 06001KT 9999 NCD 04/02 Q1024
2026-04-26 02:20:00,METAR EGWU 260220Z AUTO 29002KT 9999 NCD 04/01 Q1024
2026-04-26 01:50:00,METAR EGWU 260150Z AUTO 00000KT 9999 NCD 04/01 Q1023
2026-04-26 01:20:00,METAR EGWU 260120Z AUTO 35001KT 9999 NCD 05/02 Q1023
2026-04-26 00:50:00,METAR EGWU 260050Z AUTO 24001KT 9999 NCD 06/02 Q1023
2026-04-26 00:20:00,METAR EGWU 260020Z AUTO 22001KT 9999 NCD 06/02 Q1023
2026-04-25 23:50:00,METAR EGWU 252350Z AUTO 02001KT 9999 NCD 08/02 Q1023
2026-04-25 23:20:00,METAR EGWU 252320Z AUTO 35002KT 9999 NCD 08/02 Q1023
2026-04-25 22:50:00,METAR EGWU 252250Z AUTO 04004KT 9999 NCD 09/02 Q1023
2026-04-25 22:20:00,METAR EGWU 252220Z AUTO 19001KT 9999 NCD 10/02 Q1022
2026-04-25 21:50:00,METAR EGWU 252150Z AUTO 18001KT 9999 NCD 11/01 Q1022
2026-04-25 21:20:00,METAR EGWU 252120Z AUTO 20002KT 9999 NCD 13/01 Q1022
2026-04-25 20:50:00,METAR EGWU 252050Z AUTO 16005KT 9999 NCD 13/M01 Q1022
2026-04-25 20:20:00,METAR EGWU 252020Z AUTO 14004KT 9999 NCD 14/M01 Q1021
2026-04-25 19:50:00,METAR EGWU 251950Z AUTO 09004KT 9999 NCD 15/M03 Q1021
2026-04-25 19:20:00,METAR EGWU 251920Z 09004KT CAVOK 17/M04 Q1021 NOSIG RMK BLU BLU
2026-04-25 18:50:00,METAR EGWU 251850Z 11002KT CAVOK 19/M04 Q1020 NOSIG RMK BLU BLU
2026-04-25 18:20:00,METAR EGWU 251820Z 21001KT CAVOK 20/M05 Q1020 NOSIG RMK BLU BLU
2026-04-25 17:50:00,METAR EGWU 251750Z 16002KT CAVOK 21/M04 Q1020 NOSIG RMK BLU BLU
2026-04-25 17:20:00,METAR EGWU 251720Z 30002KT CAVOK 22/M05 Q1020 NOSIG RMK BLU BLU
2026-04-25 16:50:00,METAR EGWU 251650Z 25002KT CAVOK 22/M05 Q1020 NOSIG RMK BLU BLU
2026-04-25 16:20:00,METAR EGWU 251620Z 20003KT CAVOK 22/M04 Q1020 NOSIG RMK BLU BLU
2026-04-25 15:50:00,METAR EGWU 251550Z 22003KT CAVOK 21/M05 Q1020 NOSIG RMK BLU BLU
2026-04-25 15:20:00,METAR EGWU 251520Z 26003KT CAVOK 21/M05 Q1020 NOSIG RMK BLU BLU
2026-04-25 14:50:00,METAR EGWU 251450Z 24003KT CAVOK 21/M05 Q1020 NOSIG RMK BLU BLU
2026-04-25 14:20:00,METAR EGWU 251420Z 17004KT CAVOK 21/M07 Q1020 NOSIG RMK BLU BLU
2026-04-25 13:50:00,METAR EGWU 251350Z 19002KT CAVOK 21/M06 Q1020 NOSIG RMK BLU BLU
2026-04-25 13:20:00,METAR EGWU 251320Z 27002KT CAVOK 20/M03 Q1021 NOSIG RMK BLU BLU
2026-04-25 12:50:00,METAR EGWU 251250Z 22002KT CAVOK 19/M03 Q1021 NOSIG RMK BLU BLU
2026-04-25 12:20:00,METAR EGWU 251220Z 36002KT CAVOK 18/M03 Q1021 NOSIG RMK BLU BLU
2026-04-25 11:50:00,METAR EGWU 251150Z 24004KT CAVOK 18/M04 Q1021 NOSIG RMK BLU BLU
2026-04-25 11:20:00,METAR EGWU 251120Z 25003KT CAVOK 18/M01 Q1021 NOSIG RMK BLU BLU
2026-04-25 10:50:00,METAR EGWU 251050Z 21002KT CAVOK 17/00 Q1022 NOSIG RMK BLU BLU
2026-04-25 10:20:00,METAR EGWU 251020Z 14003KT CAVOK 16/04 Q1022 NOSIG RMK BLU BLU
2026-04-25 09:50:00,METAR EGWU 250950Z 12002KT CAVOK 12/05 Q1022 NOSIG RMK BLU BLU
2026-04-25 09:20:00,METAR EGWU 250920Z 14001KT CAVOK 11/06 Q1022 NOSIG RMK BLU BLU
2026-04-25 08:50:00,METAR EGWU 250850Z 11002KT CAVOK 09/06 Q1022 NOSIG RMK BLU BLU
2026-04-25 08:20:00,METAR EGWU 250820Z 08002KT CAVOK 08/06 Q1022 NOSIG RMK BLU BLU
2026-04-25 07:58:00,SPECI EGWU 250758Z COR 17002KT 9999 FEW003 SCT250 06/05 Q1022 NOSIG RMK BLU BLU
2026-04-25 07:50:00,METAR EGWU 250750Z 14002KT 9999 SCT003 06/05 Q1022 BECMG 9999 FEW003
2026-04-25 07:44:00,SPECI EGWU 250744Z 11002KT 9999 SCT003 06/06 Q1022 BECMG 9999 FEW003 RMK YLO2 BECMG BLU
2026-04-25 07:35:00,SPECI EGWU 250735Z 11002KT 2000 BR OVC002 05/05 Q1022 BECMG CAVOK RMK AMB BECMG BLU
2026-04-25 07:30:00,SPECI EGWU 250730Z 11001KT 0800 FG OVC002 05/05 Q1022 BECMG 9999 NSW FEW002 RMK AMB BECMG BLU
2026-04-25 07:20:00,METAR EGWU 250720Z 09003KT 0200 FG OVC001 05/05 Q1022 BECMG 9999 FEW015 RMK RED
2026-04-25 06:50:00,METAR EGWU 250650Z 11003KT 0200 FG OVC001 05/04 Q1022 BECMG 9999 SCT015
2026-04-25 06:20:00,METAR EGWU 250620Z 08002KT 0200 FG OVC001 04/04 Q1022 BECMG 9999 FEW015 RMK RED BECMG BLU
2026-04-25 06:13:00,SPECI EGWU 250613Z 10001KT 0500 FG OVC001 04/04 Q1022 BECMG 9999 FEW015 RMK RED BECMG BLU
2026-04-25 05:50:00,METAR EGWU 250550Z 19001KT 0900 FG BKN003 03/02 Q1022 BECMG 9999 FEW010 RMK AMB BECMG BLU
2026-04-25 05:20:00,METAR EGWU 250520Z AUTO 33002KT 9999 OVC002/// 02/01 Q1022
2026-04-25 04:50:00,METAR EGWU 250450Z AUTO 31002KT 9999 FEW002/// 01/M00 Q1021
2026-04-25 04:20:00,METAR EGWU 250420Z AUTO 01002KT 9999 BR NCD 01/M00 Q1021
2026-04-25 03:50:00,METAR EGWU 250350Z AUTO 34002KT 9999 NCD 01/M00 Q1021
2026-04-25 03:20:00,METAR EGWU 250320Z AUTO 01002KT 9999 NCD 01/M00 Q1021
2026-04-25 02:50:00,METAR EGWU 250250Z AUTO 32002KT 9999 NCD 02/00 Q1022
2026-04-25 02:20:00,METAR EGWU 250220Z AUTO 04003KT 9999 NCD 02/00 Q1022
2026-04-25 01:50:00,METAR EGWU 250150Z AUTO 06001KT 9999 NCD 02/M00 Q1022
2026-04-25 01:20:00,METAR EGWU 250120Z AUTO 05001KT 9999 NCD 03/00 Q1022
2026-04-25 00:50:00,METAR EGWU 250050Z AUTO 03002KT 9999 NCD 03/00 Q1022
2026-04-25 00:20:00,METAR EGWU 250020Z AUTO 21001KT 9999 NCD 04/00 Q1022
2026-04-24 23:50:00,METAR EGWU 242350Z AUTO 15001KT 9999 NCD 06/02 Q1022
2026-04-24 23:20:00,METAR EGWU 242320Z AUTO 07004KT 9999 NCD 06/02 Q1023
2026-04-24 22:50:00,METAR EGWU 242250Z AUTO 09003KT 9999 NCD 07/01 Q1023
2026-04-24 22:20:00,METAR EGWU 242220Z AUTO 08005KT 9999 NCD 08/01 Q1023
2026-04-24 21:50:00,METAR EGWU 242150Z AUTO 10006KT 9999 NCD 08/01 Q1023
2026-04-24 21:20:00,METAR EGWU 242120Z AUTO 10006KT 9999 NCD 09/00 Q1023
2026-04-24 20:50:00,METAR EGWU 242050Z 10004KT CAVOK 10/M02 Q1023 NOSIG RMK BLU BLU
2026-04-24 20:20:00,METAR EGWU 242020Z 10006KT CAVOK 10/M04 Q1023 NOSIG RMK BLU BLU
2026-04-24 19:50:00,METAR EGWU 241950Z 10007KT CAVOK 12/M04 Q1023 NOSIG RMK BLU BLU
2026-04-24 19:20:00,METAR EGWU 241920Z 10008KT CAVOK 14/M02 Q1023 NOSIG RMK BLU BLU
2026-04-24 18:50:00,METAR EGWU 241850Z 11009KT CAVOK 15/00 Q1022 NOSIG RMK BLU BLU
2026-04-24 18:20:00,METAR EGWU 241820Z 11008KT CAVOK 17/M02 Q1022 NOSIG RMK BLU BLU
2026-04-24 17:50:00,METAR EGWU 241750Z 11008KT CAVOK 17/M03 Q1022 NOSIG RMK BLU BLU
2026-04-24 17:20:00,METAR EGWU 241720Z 10008KT CAVOK 18/M03 Q1022 NOSIG RMK BLU BLU
2026-04-24 16:50:00,METAR EGWU 241650Z 13009KT CAVOK 19/M01 Q1022 NOSIG RMK BLU BLU
2026-04-24 16:20:00,METAR EGWU 241620Z 11011KT CAVOK 19/M03 Q1023 NOSIG RMK BLU BLU
2026-04-24 15:50:00,METAR EGWU 241550Z 11011KT CAVOK 19/M01 Q1023 NOSIG RMK BLU BLU
2026-04-24 15:20:00,METAR EGWU 241520Z 09010KT CAVOK 20/M01 Q1023 NOSIG RMK BLU BLU
2026-04-24 14:50:00,METAR EGWU 241450Z 09010KT CAVOK 20/00 Q1023 NOSIG RMK BLU BLU
2026-04-24 14:20:00,METAR EGWU 241420Z 09010KT CAVOK 20/M02 Q1023 NOSIG RMK BLU BLU
2026-04-24 13:50:00,METAR EGWU 241350Z 10009KT CAVOK 19/M02 Q1024 NOSIG RMK BLU BLU
2026-04-24 13:20:00,METAR EGWU 241320Z 08010KT CAVOK 18/M01 Q1024 NOSIG RMK BLU BLU
2026-04-24 12:50:00,METAR EGWU 241250Z 09009KT CAVOK 18/02 Q1025 NOSIG RMK BLU BLU
2026-04-24 12:20:00,METAR EGWU 241220Z 10009KT CAVOK 17/01 Q1025 NOSIG RMK BLU BLU
2026-04-24 11:50:00,METAR EGWU 241150Z 08008KT CAVOK 17/00 Q1026 NOSIG RMK BLU BLU
2026-04-24 11:20:00,METAR EGWU 241120Z 08008KT CAVOK 16/02 Q1026 NOSIG RMK BLU BLU
2026-04-24 10:50:00,METAR EGWU 241050Z 08008KT CAVOK 14/01 Q1026 NOSIG RMK BLU BLU
2026-04-24 10:20:00,METAR EGWU 241020Z 09008KT CAVOK 14/M00 Q1026 NOSIG RMK BLU BLU
2026-04-24 09:50:00,METAR EGWU 240950Z 07007KT CAVOK 13/02 Q1026 NOSIG RMK BLU BLU
2026-04-24 09:20:00,METAR EGWU 240920Z 09004KT CAVOK 10/02 Q1027 NOSIG RMK BLU BLU
2026-04-24 08:50:00,METAR EGWU 240850Z 07005KT CAVOK 08/02 Q1027 NOSIG RMK BLU BLU
2026-04-24 08:20:00,METAR EGWU 240820Z 05005KT CAVOK 07/02 Q1027 NOSIG RMK BLU BLU
2026-04-24 07:50:00,METAR EGWU 240750Z AUTO 05005KT 9999 FEW007/// 05/02 Q1027
2026-04-24 07:20:00,METAR EGWU 240720Z 05005KT 9999 BKN007 04/02 Q1027 TEMPO FEW007 RMK GRN TEMPO BLU
2026-04-24 06:50:00,METAR EGWU 240650Z 06005KT 9999 BKN006 05/03 Q1027 BECMG BKN007
2026-04-24 06:20:00,METAR EGWU 240620Z 08006KT 9999 OVC006 04/03 Q1027 TEMPO FEW006 RMK YLO1 TEMPO BLU
2026-04-24 05:50:00,METAR EGWU 240550Z 07007KT 9999 BKN005 04/03 Q1027 TEMPO SCT004
2026-04-24 05:20:00,METAR EGWU 240520Z AUTO 08006KT 9999 OVC004/// 04/03 Q1027
2026-04-24 04:50:00,METAR EGWU 240450Z AUTO 07008KT 9999 OVC005/// 04/03 Q1027
2026-04-24 04:20:00,METAR EGWU 240420Z AUTO 05007KT 9999 OVC006/// 04/03 Q1027
2026-04-24 03:50:00,METAR EGWU 240350Z AUTO 06007KT 9999 OVC004/// 05/04 Q1027
2026-04-24 03:20:00,METAR EGWU 240320Z AUTO 06009KT 9999 OVC004/// 05/04 Q1027
2026-04-24 02:50:00,METAR EGWU 240250Z AUTO 05005KT 9999 OVC005/// 06/04 Q1027
2026-04-24 02:20:00,METAR EGWU 240220Z AUTO 06005KT 9999 BKN006/// 05/03 Q1027
2026-04-24 01:50:00,METAR EGWU 240150Z AUTO 06006KT 9999 NCD 05/03 Q1027
2026-04-24 01:20:00,METAR EGWU 240120Z AUTO 07007KT 9999 NCD 06/02 Q1027
2026-04-24 00:50:00,METAR EGWU 240050Z AUTO 06006KT 9999 NCD 06/02 Q1028
2026-04-24 00:20:00,METAR EGWU 240020Z AUTO 05004KT 9999 NCD 06/03 Q1028
2026-04-23 23:50:00,METAR EGWU 232350Z AUTO 07005KT 9999 NCD 07/03 Q1028
2026-04-23 23:20:00,METAR EGWU 232320Z AUTO 08006KT 9999 NCD 07/03 Q1028
2026-04-23 22:50:00,METAR EGWU 232250Z AUTO 09008KT 9999 NCD 08/03 Q1028
2026-04-23 22:20:00,METAR EGWU 232220Z AUTO 08010KT 9999 NCD 08/03 Q1028
2026-04-23 21:50:00,METAR EGWU 232150Z AUTO 08009KT 9999 NCD 09/03 Q1028
2026-04-23 21:20:00,METAR EGWU 232120Z AUTO 09010KT 9999 NCD 10/03 Q1028
2026-04-23 20:50:00,METAR EGWU 232050Z AUTO 08010KT 9999 NCD 10/04 Q1028
2026-04-23 20:20:00,METAR EGWU 232020Z AUTO 09009KT 9999 NCD 11/05 Q1028
2026-04-23 19:50:00,METAR EGWU 231950Z AUTO 09008KT 9999 NCD 12/05 Q1027
2026-04-23 19:20:00,METAR EGWU 231920Z 10008KT CAVOK 13/04 Q1027 NOSIG RMK BLU BLU
2026-04-23 18:50:00,METAR EGWU 231850Z 11007KT CAVOK 15/00 Q1027 NOSIG RMK BLU BLU
2026-04-23 18:20:00,METAR EGWU 231820Z 11010KT CAVOK 16/M00 Q1027 NOSIG RMK BLU BLU
2026-04-23 17:50:00,METAR EGWU 231750Z 09012KT CAVOK 17/M09 Q1027 NOSIG RMK BLU BLU
2026-04-23 17:20:00,METAR EGWU 231720Z 10012KT CAVOK 18/M02 Q1027 NOSIG RMK BLU BLU
2026-04-23 16:50:00,METAR EGWU 231650Z 09012KT CAVOK 18/M03 Q1027 NOSIG RMK BLU BLU
2026-04-23 16:20:00,METAR EGWU 231620Z 08012KT CAVOK 19/01 Q1028 NOSIG RMK BLU BLU
2026-04-23 15:50:00,METAR EGWU 231550Z 08013KT CAVOK 19/01 Q1028 NOSIG RMK BLU BLU
2026-04-23 15:20:00,METAR EGWU 231520Z 08012KT CAVOK 19/01 Q1028 NOSIG RMK BLU BLU
2026-04-23 14:50:00,METAR EGWU 231450Z 09012KT CAVOK 19/02 Q1028 NOSIG RMK BLU BLU
2026-04-23 14:20:00,METAR EGWU 231420Z 09012KT CAVOK 19/02 Q1029 NOSIG RMK BLU BLU
2026-04-23 13:50:00,METAR EGWU 231350Z 10012KT CAVOK 18/03 Q1029 NOSIG RMK BLU BLU
2026-04-23 13:20:00,METAR EGWU 231320Z 09011KT CAVOK 18/03 Q1029 NOSIG RMK BLU BLU
2026-04-23 12:50:00,METAR EGWU 231250Z 10012KT CAVOK 19/05 Q1029 NOSIG RMK BLU BLU
2026-04-23 12:20:00,METAR EGWU 231220Z 09012KT CAVOK 17/04 Q1030 NOSIG RMK BLU BLU
2026-04-23 11:50:00,METAR EGWU 231150Z 07013KT CAVOK 17/06 Q1030 NOSIG RMK BLU BLU
2026-04-23 11:20:00,METAR EGWU 231120Z 08011KT CAVOK 16/06 Q1030 NOSIG RMK BLU BLU
2026-04-23 10:50:00,METAR EGWU 231050Z 07013KT CAVOK 16/06 Q1030 NOSIG RMK BLU BLU
2026-04-23 10:20:00,METAR EGWU 231020Z 09011KT CAVOK 14/05 Q1030 NOSIG RMK BLU BLU
2026-04-23 09:50:00,METAR EGWU 230950Z 08009KT CAVOK 13/06 Q1030 NOSIG RMK BLU BLU
2026-04-23 09:20:00,METAR EGWU 230920Z 08009KT CAVOK 12/06 Q1031 NOSIG RMK BLU BLU
2026-04-23 08:50:00,METAR EGWU 230850Z 06010KT 9999 FEW013 SCT270 11/06 Q1031 NOSIG RMK BLU BLU
2026-04-23 08:20:00,METAR EGWU 230820Z 07010KT 9999 SCT013 10/06 Q1031 TEMPO FEW013 RMK GRN TEMPO BLU
2026-04-23 07:50:00,METAR EGWU 230750Z 07010KT 9999 BKN009 08/06 Q1031 TEMPO FEW009
2026-04-23 07:20:00,METAR EGWU 230720Z 08008KT 9999 BKN008 07/05 Q1030 TEMPO FEW008 RMK GRN TEMPO BLU
2026-04-23 06:50:00,METAR EGWU 230650Z 07008KT 9999 BKN007 07/06 Q1030 TEMPO FEW007
2026-04-23 06:20:00,METAR EGWU 230620Z 07010KT 9999 FEW006 SCT009 07/05 Q1030 TEMPO FEW009 RMK GRN TEMPO BLU
2026-04-23 05:50:00,METAR EGWU 230550Z 08008KT 9999 SCT009 07/05 Q1030 TEMPO FEW009
2026-04-23 05:20:00,METAR EGWU 230520Z AUTO 07008KT 9999 SCT009/// 06/05 Q1030
2026-04-23 04:50:00,METAR EGWU 230450Z AUTO 07008KT 9999 NCD 06/05 Q1029
2026-04-23 04:20:00,METAR EGWU 230420Z AUTO 06009KT 9999 NCD 06/05 Q1029
2026-04-23 03:50:00,METAR EGWU 230350Z AUTO 06009KT 9999 NCD 06/05 Q1029
2026-04-23 03:20:00,METAR EGWU 230320Z AUTO 06007KT 9999 NCD 06/05 Q1029
2026-04-23 02:50:00,METAR EGWU 230250Z AUTO 06007KT 9999 NCD 06/04 Q1029
2026-04-23 02:20:00,METAR EGWU 230220Z AUTO 05007KT 9999 NCD 06/04 Q1029
2026-04-23 01:50:00,METAR EGWU 230150Z AUTO 06006KT 9999 NCD 06/04 Q1029
2026-04-23 01:20:00,METAR EGWU 230120Z AUTO 06007KT 9999 NCD 07/04 Q1029
2026-04-23 00:50:00,METAR EGWU 230050Z AUTO 05006KT 9999 NCD 07/04 Q1029
2026-04-23 00:20:00,METAR EGWU 230020Z AUTO 06006KT 9999 NCD 07/04 Q1028
2026-04-22 23:50:00,METAR EGWU 222350Z AUTO 06006KT 9999 NCD 08/04 Q1028
2026-04-22 23:20:00,METAR EGWU 222320Z AUTO 06008KT 9999 NCD 08/03 Q1028
2026-04-22 22:50:00,METAR EGWU 222250Z AUTO 07008KT 9999 NCD 08/03 Q1028
2026-04-22 22:20:00,METAR EGWU 222220Z AUTO 07009KT 9999 NCD 09/02 Q1028
2026-04-22 21:50:00,METAR EGWU 222150Z AUTO 07010KT 9999 NCD 10/02 Q1027
2026-04-22 21:20:00,METAR EGWU 222120Z AUTO 07010KT 9999 NCD 10/01 Q1027
2026-04-22 20:50:00,METAR EGWU 222050Z AUTO 08010KT 9999 NCD 11/01 Q1027
2026-04-22 20:20:00,METAR EGWU 222020Z AUTO 09009KT 9999 NCD 11/00 Q1027
2026-04-22 19:50:00,METAR EGWU 221950Z 08011KT CAVOK 12/00 Q1027 NOSIG RMK BLU BLU
2026-04-22 19:20:00,METAR EGWU 221920Z 09012KT CAVOK 12/M00 Q1026 NOSIG RMK BLU BLU
2026-04-22 18:50:00,METAR EGWU 221850Z 09013KT CAVOK 12/M00 Q1026 NOSIG RMK BLU BLU
2026-04-22 18:20:00,METAR EGWU 221820Z 08011KT CAVOK 13/00 Q1026 NOSIG RMK BLU BLU
2026-04-22 17:50:00,METAR EGWU 221750Z 10011KT CAVOK 14/M01 Q1026 NOSIG RMK BLU BLU
2026-04-22 17:20:00,METAR EGWU 221720Z 09016KT CAVOK 14/M02 Q1026 NOSIG RMK BLU BLU
2026-04-22 16:50:00,METAR EGWU 221650Z 10017KT CAVOK 15/M02 Q1026 NOSIG RMK BLU BLU
2026-04-22 16:20:00,METAR EGWU 221620Z 10015KT CAVOK 16/M02 Q1026 NOSIG RMK BLU BLU
2026-04-22 15:50:00,METAR EGWU 221550Z 09017KT CAVOK 16/M02 Q1025 NOSIG RMK BLU BLU
2026-04-22 15:20:00,METAR EGWU 221520Z 09017KT CAVOK 17/00 Q1025 NOSIG RMK BLU BLU
2026-04-22 14:50:00,METAR EGWU 221450Z 09017KT CAVOK 17/M01 Q1025 NOSIG RMK BLU BLU
2026-04-22 14:20:00,METAR EGWU 221420Z 10017KT CAVOK 17/M00 Q1025 NOSIG RMK BLU BLU
2026-04-22 13:50:00,METAR EGWU 221350Z 09017KT CAVOK 16/01 Q1025 NOSIG RMK BLU BLU
2026-04-22 13:20:00,METAR EGWU 221320Z 09019KT CAVOK 16/01 Q1025 NOSIG RMK BLU BLU
2026-04-22 12:50:00,METAR EGWU 221250Z 10019KT CAVOK 16/01 Q1025 NOSIG RMK BLU BLU
2026-04-22 12:20:00,METAR EGWU 221220Z 09017KT CAVOK 16/01 Q1025 NOSIG RMK BLU BLU
2026-04-22 11:50:00,METAR EGWU 221150Z 08019KT CAVOK 16/02 Q1025 NOSIG RMK BLU BLU
2026-04-22 11:20:00,METAR EGWU 221120Z 10016KT CAVOK 16/04 Q1025 NOSIG RMK BLU BLU
2026-04-22 10:50:00,METAR EGWU 221050Z 10016KT 9999 FEW048 15/03 Q1025 NOSIG RMK BLU BLU
2026-04-22 10:20:00,METAR EGWU 221020Z 10017KT 9999 FEW043 14/03 Q1025 NOSIG RMK BLU BLU
2026-04-22 09:50:00,METAR EGWU 220950Z 08016KT 9999 FEW036 14/05 Q1025 NOSIG RMK BLU BLU
2026-04-22 09:20:00,METAR EGWU 220920Z 08014KT 9999 FEW030 13/05 Q1026 NOSIG RMK BLU BLU
2026-04-22 08:50:00,METAR EGWU 220850Z 08013KT 9999 FEW028 13/06 Q1026 NOSIG RMK BLU BLU
2026-04-22 08:20:00,METAR EGWU 220820Z 08014KT CAVOK 12/06 Q1026 NOSIG RMK BLU BLU
2026-04-22 07:50:00,METAR EGWU 220750Z 08010KT CAVOK 10/06 Q1026 NOSIG RMK BLU BLU
2026-04-22 07:20:00,METAR EGWU 220720Z 07011KT CAVOK 09/06 Q1026 NOSIG RMK BLU BLU
2026-04-22 06:50:00,METAR EGWU 220650Z 08008KT CAVOK 08/06 Q1026 NOSIG RMK BLU BLU
2026-04-22 06:20:00,METAR EGWU 220620Z AUTO 08008KT 9999 NCD 08/06 Q1025
2026-04-22 05:50:00,METAR EGWU 220550Z 07007KT CAVOK 07/05 Q1025 NOSIG RMK BLU BLU
2026-04-22 05:20:00,METAR EGWU 220520Z AUTO 07006KT 9999 NCD 06/05 Q1025
2026-04-22 04:50:00,METAR EGWU 220450Z AUTO 07008KT 9999 NCD 06/05 Q1025
2026-04-22 04:20:00,METAR EGWU 220420Z AUTO 06008KT 9999 NCD 06/05 Q1025
2026-04-22 03:50:00,METAR EGWU 220350Z AUTO 06008KT 9999 NCD 06/04 Q1025
2026-04-22 03:20:00,METAR EGWU 220320Z AUTO 06007KT 9999 NCD 06/04 Q1025
2026-04-22 02:50:00,METAR EGWU 220250Z AUTO 06009KT 9999 NCD 06/04 Q1025
2026-04-22 02:20:00,METAR EGWU 220220Z AUTO 06008KT 9999 NCD 06/04 Q1025
2026-04-22 01:50:00,METAR EGWU 220150Z AUTO 05007KT 9999 NCD 06/04 Q1025
2026-04-22 01:20:00,METAR EGWU 220120Z AUTO 05007KT 9999 NCD 06/03 Q1025
2026-04-22 00:50:00,METAR EGWU 220050Z AUTO 06008KT 9999 NCD 06/03 Q1025
2026-04-22 00:20:00,METAR EGWU 220020Z AUTO 07009KT 9999 NCD 06/03 Q1025
2026-04-21 23:50:00,METAR EGWU 212350Z AUTO 07009KT 9999 NCD 07/03 Q1025
2026-04-21 23:20:00,METAR EGWU 212320Z AUTO 07009KT 9999 NCD 06/02 Q1025
2026-04-21 22:50:00,METAR EGWU 212250Z AUTO 07007KT 9999 NCD 07/02 Q1026
2026-04-21 22:20:00,METAR EGWU 212220Z AUTO 07009KT 9999 NCD 07/02 Q1025
2026-04-21 21:50:00,METAR EGWU 212150Z AUTO 06009KT 9999 NCD 08/01 Q1025
2026-04-21 21:20:00,METAR EGWU 212120Z AUTO 07013KT 9999 NCD 08/01 Q1025
2026-04-21 20:50:00,METAR EGWU 212050Z AUTO 07012KT 9999 NCD 09/01 Q1025
2026-04-21 20:20:00,METAR EGWU 212020Z 07011KT CAVOK 09/00 Q1025 NOSIG RMK BLU BLU
2026-04-21 19:50:00,METAR EGWU 211950Z 08013KT CAVOK 10/00 Q1025 NOSIG RMK BLU BLU
2026-04-21 19:20:00,METAR EGWU 211920Z 08013KT CAVOK 10/M00 Q1025 NOSIG RMK BLU BLU
2026-04-21 18:50:00,METAR EGWU 211850Z 08013KT CAVOK 11/M02 Q1024 NOSIG RMK BLU BLU
2026-04-21 18:20:00,METAR EGWU 211820Z 07016KT CAVOK 12/M03 Q1024 NOSIG RMK BLU BLU
2026-04-21 17:50:00,METAR EGWU 211750Z 07015KT CAVOK 13/M03 Q1024 NOSIG RMK BLU BLU
2026-04-21 17:20:00,METAR EGWU 211720Z 09013KT CAVOK 13/M00 Q1024 NOSIG RMK BLU BLU
2026-04-21 16:50:00,METAR EGWU 211650Z 09015KT 9999 FEW046 14/02 Q1024 NOSIG RMK BLU BLU
2026-04-21 16:20:00,METAR EGWU 211620Z 08015KT 9999 SCT045 14/03 Q1024 NOSIG RMK BLU BLU
2026-04-21 15:50:00,METAR EGWU 211550Z 08017KT 9999 SCT043 14/03 Q1024 NOSIG RMK BLU BLU
2026-04-21 15:20:00,METAR EGWU 211520Z 08015KT 9999 FEW042 14/04 Q1024 NOSIG RMK BLU BLU
2026-04-21 14:50:00,METAR EGWU 211450Z 08016KT 9999 SCT045 14/04 Q1024 NOSIG RMK BLU BLU
2026-04-21 14:20:00,METAR EGWU 211420Z 08017KT 9999 FEW038 SCT044 14/04 Q1024 NOSIG RMK BLU BLU
2026-04-21 13:50:00,METAR EGWU 211350Z 08017KT 9999 FEW040 BKN048 14/04 Q1024 NOSIG RMK BLU BLU
2026-04-21 13:20:00,METAR EGWU 211320Z 07016KT 9999 FEW040 BKN050 14/04 Q1024 NOSIG RMK BLU BLU
2026-04-21 12:50:00,METAR EGWU 211250Z 08013KT 9999 FEW041 BKN048 14/04 Q1025 NOSIG RMK BLU BLU
2026-04-21 12:20:00,METAR EGWU 211220Z 08015KT 9999 BKN042 13/04 Q1025 NOSIG RMK BLU BLU
2026-04-21 11:50:00,METAR EGWU 211150Z 07013KT 9999 FEW044 14/03 Q1025 NOSIG RMK BLU BLU
2026-04-21 11:20:00,METAR EGWU 211120Z 07013KT 9999 FEW041 13/03 Q1025 NOSIG RMK BLU BLU
2026-04-21 10:50:00,METAR EGWU 211050Z 07015KT 9999 FEW038 12/03 Q1025 NOSIG RMK BLU BLU
2026-04-21 10:20:00,METAR EGWU 211020Z 07013KT 9999 FEW035 12/03 Q1025 NOSIG RMK BLU BLU
2026-04-21 09:50:00,METAR EGWU 210950Z 06013KT 9999 FEW035 12/03 Q1025 NOSIG RMK BLU BLU
2026-04-21 09:20:00,METAR EGWU 210920Z 06011KT 9999 FEW034 12/03 Q1025 NOSIG RMK BLU BLU
2026-04-21 08:50:00,METAR EGWU 210850Z 05012KT 9999 FEW030 11/03 Q1025 NOSIG RMK BLU BLU
2026-04-21 08:20:00,METAR EGWU 210820Z 06013KT 9999 FEW025 10/04 Q1025 NOSIG RMK BLU BLU
2026-04-21 07:50:00,METAR EGWU 210750Z 07014KT 9999 FEW020 09/04 Q1025 NOSIG RMK BLU BLU
2026-04-21 07:20:00,METAR EGWU 210720Z 06013KT 9999 FEW018 09/05 Q1025 NOSIG RMK BLU BLU
2026-04-21 06:50:00,METAR EGWU 210650Z 06011KT 9999 FEW016 08/05 Q1025 NOSIG RMK BLU BLU
2026-04-21 06:20:00,METAR EGWU 210620Z AUTO 05010KT 9999 FEW012/// OVC048/// 08/05 Q1025
2026-04-21 05:50:00,METAR EGWU 210550Z 04008KT 9999 FEW012 BKN048 07/05 Q1025 NOSIG RMK BLU BLU
2026-04-21 05:20:00,METAR EGWU 210520Z AUTO 05008KT 9999 SCT032/// BKN048/// 07/05 Q1024
2026-04-21 04:50:00,METAR EGWU 210450Z AUTO 04008KT 9999 FEW017/// BKN046/// 07/05 Q1024
2026-04-21 04:20:00,METAR EGWU 210420Z AUTO 05007KT 9999 BKN043/// 06/05 Q1024
2026-04-21 03:50:00,METAR EGWU 210350Z AUTO 04006KT 9999 NCD 06/04 Q1024
2026-04-21 03:20:00,METAR EGWU 210320Z AUTO 04007KT 9999 NCD 06/04 Q1024
2026-04-21 02:50:00,METAR EGWU 210250Z AUTO 04008KT 9999 NCD 06/04 Q1024
2026-04-21 02:20:00,METAR EGWU 210220Z AUTO 04007KT 9999 NCD 05/03 Q1025
2026-04-21 01:50:00,METAR EGWU 210150Z AUTO 03007KT 9999 FEW014/// 05/03 Q1025
2026-04-21 01:20:00,METAR EGWU 210120Z AUTO 03006KT //// NCD 05/03 Q1025
2026-04-21 00:50:00,METAR EGWU 210050Z AUTO 03005KT 9999 NCD 06/03 Q1025
2026-04-21 00:20:00,METAR EGWU 210020Z AUTO 05007KT 9999 NCD 06/03 Q1025
2026-04-20 23:50:00,METAR EGWU 202350Z AUTO 05005KT 9999 NCD 06/03 Q1025
2026-04-20 23:20:00,METAR EGWU 202320Z AUTO 05006KT 9999 NCD 07/03 Q1025
2026-04-20 22:50:00,METAR EGWU 202250Z AUTO 06008KT 9999 NCD 07/03 Q1025
2026-04-20 22:20:00,METAR EGWU 202220Z AUTO 06008KT 9999 NCD 08/03 Q1025
2026-04-20 21:50:00,METAR EGWU 202150Z 06008KT CAVOK 08/03 Q1024 NOSIG RMK BLU BLU
2026-04-20 21:20:00,METAR EGWU 202120Z 06007KT CAVOK 08/02 Q1024 NOSIG RMK BLU BLU
2026-04-20 20:50:00,METAR EGWU 202050Z 06008KT CAVOK 09/01 Q1024 NOSIG RMK BLU BLU
2026-04-20 20:20:00,METAR EGWU 202020Z 05008KT CAVOK 09/01 Q1024 NOSIG RMK BLU BLU
2026-04-20 19:50:00,METAR EGWU 201950Z 04010KT CAVOK 10/01 Q1024 NOSIG RMK BLU BLU
2026-04-20 19:20:00,METAR EGWU 201920Z 04009KT CAVOK 11/01 Q1023 NOSIG RMK BLU BLU
2026-04-20 18:50:00,METAR EGWU 201850Z 06010KT CAVOK 12/01 Q1023 NOSIG RMK BLU BLU
2026-04-20 17:50:00,METAR EGWU 201750Z 07011KT 9999 FEW049 BKN078 12/01 Q1023 NOSIG RMK BLU BLU
2026-04-20 17:20:00,METAR EGWU 201720Z 06009KT 9999 FEW048 BKN075 12/01 Q1023 NOSIG RMK BLU BLU
2026-04-20 16:50:00,METAR EGWU 201650Z 07011KT CAVOK 12/01 Q1023 NOSIG RMK BLU BLU
2026-04-20 16:20:00,METAR EGWU 201620Z 06009KT CAVOK 13/01 Q1023 NOSIG RMK BLU BLU
2026-04-20 15:50:00,METAR EGWU 201550Z 07010KT 9999 FEW046 BKN078 13/02 Q1023 NOSIG RMK BLU BLU
2026-04-20 15:20:00,METAR EGWU 201520Z 06011KT 9999 FEW046 BKN080 13/01 Q1023 NOSIG RMK BLU BLU
2026-04-20 14:50:00,METAR EGWU 201450Z 07010KT CAVOK 13/02 Q1023 NOSIG RMK BLU BLU
2026-04-20 14:20:00,METAR EGWU 201420Z 09010KT 9999 FEW049 BKN071 13/02 Q1023 NOSIG RMK BLU BLU
2026-04-20 13:50:00,METAR EGWU 201350Z 09012KT 9999 FEW048 BKN075 13/01 Q1023 NOSIG RMK BLU BLU
2026-04-20 13:20:00,METAR EGWU 201320Z 07011KT 9999 FEW048 BKN074 14/01 Q1023 NOSIG RMK BLU BLU
2026-04-20 12:50:00,METAR EGWU 201250Z 08011KT 9999 FEW044 BKN066 13/02 Q1023 NOSIG RMK BLU BLU
2026-04-20 12:20:00,METAR EGWU 201220Z 07013KT 9999 FEW043 SCT052 14/02 Q1023 NOSIG RMK BLU BLU
2026-04-20 11:50:00,METAR EGWU 201150Z 09010KT 9999 FEW042 SCT057 13/02 Q1024 NOSIG RMK BLU BLU
2026-04-20 11:20:00,METAR EGWU 201120Z 06011KT 9999 SCT041 12/02 Q1024 NOSIG RMK BLU BLU
2026-04-20 10:50:00,METAR EGWU 201050Z 07011G21KT 9999 FEW042 13/02 Q1024 NOSIG RMK BLU BLU
2026-04-20 10:20:00,METAR EGWU 201020Z 08010KT 9999 FEW040 12/02 Q1024 NOSIG RMK BLU BLU
2026-04-20 09:50:00,METAR EGWU 200950Z 08010KT 9999 FEW039 12/02 Q1024 NOSIG RMK BLU BLU
2026-04-20 09:20:00,METAR EGWU 200920Z 06009KT 9999 FEW035 12/01 Q1024 NOSIG RMK BLU BLU
2026-04-20 08:50:00,METAR EGWU 200850Z 05008KT 9999 FEW034 11/02 Q1024 NOSIG RMK BLU BLU
2026-04-20 08:20:00,METAR EGWU 200820Z 07007KT 9999 FEW027 10/03 Q1024 NOSIG RMK BLU BLU
2026-04-20 07:50:00,METAR EGWU 200750Z 06005KT 9999 FEW018 09/04 Q1024 NOSIG RMK BLU BLU
2026-04-20 07:20:00,METAR EGWU 200720Z 05004KT 9999 FEW015 07/05 Q1025 NOSIG RMK BLU BLU
2026-04-20 06:50:00,METAR EGWU 200650Z 36002KT CAVOK 06/06 Q1024 NOSIG RMK BLU BLU
2026-04-20 06:20:00,METAR EGWU 200620Z AUTO 00000KT 9999 NCD 04/04 Q1024
2026-04-20 05:50:00,METAR EGWU 200550Z 35001KT CAVOK 03/02 Q1024 NOSIG RMK BLU BLU
2026-04-20 05:20:00,METAR EGWU 200520Z AUTO 36001KT 9999 NCD 03/02 Q1024
2026-04-20 04:50:00,METAR EGWU 200450Z AUTO 34001KT 9999 NCD 03/02 Q1024
2026-04-20 04:20:00,METAR EGWU 200420Z AUTO 31002KT 9999 NCD 03/02 Q1024
2026-04-20 03:50:00,METAR EGWU 200350Z AUTO 33002KT 9999 NCD 02/01 Q1024
2026-04-20 03:20:00,METAR EGWU 200320Z AUTO 31002KT 9999 NCD 03/02 Q1024
2026-04-20 02:50:00,METAR EGWU 200250Z AUTO 33001KT 9999 NCD 03/02 Q1024
2026-04-20 02:20:00,METAR EGWU 200220Z AUTO 04001KT 9999 NCD 03/02 Q1024
2026-04-20 01:50:00,METAR EGWU 200150Z AUTO 34001KT 9999 NCD 04/03 Q1024
2026-04-20 01:20:00,METAR EGWU 200120Z AUTO 32003KT 9999 NCD 04/03 Q1024
2026-04-20 00:50:00,METAR EGWU 200050Z AUTO 29002KT 9999 NCD 04/03 Q1024
2026-04-20 00:20:00,METAR EGWU 200020Z AUTO 01003KT 9999 NCD 05/04 Q1025
2026-04-19 23:50:00,METAR EGWU 192350Z AUTO 23002KT 9999 NCD 06/04 Q1025
2026-04-19 23:20:00,METAR EGWU 192320Z AUTO 09002KT 9999 NCD 07/05 Q1025
2026-04-19 22:50:00,METAR EGWU 192250Z AUTO 11003KT 9999 NCD 07/05 Q1025
2026-04-19 22:20:00,METAR EGWU 192220Z 10005KT CAVOK 08/05 Q1025 NOSIG RMK BLU BLU
2026-04-19 21:50:00,METAR EGWU 192150Z 10005KT CAVOK 09/06 Q1025 NOSIG RMK BLU BLU
2026-04-19 21:20:00,METAR EGWU 192120Z 10008KT CAVOK 10/06 Q1025 NOSIG RMK BLU BLU
2026-04-19 20:50:00,METAR EGWU 192050Z 08007KT CAVOK 11/03 Q1025 NOSIG RMK BLU BLU
2026-04-19 20:20:00,METAR EGWU 192020Z 05006KT CAVOK 11/00 Q1024 NOSIG RMK BLU BLU
2026-04-19 19:50:00,METAR EGWU 191950Z 04004KT CAVOK 11/01 Q1024 NOSIG RMK BLU BLU
2026-04-19 19:20:00,METAR EGWU 191920Z 06006KT CAVOK 12/00 Q1024 NOSIG RMK BLU BLU
2026-04-19 18:50:00,METAR EGWU 191850Z 04007KT CAVOK 13/M00 Q1024 NOSIG RMK BLU BLU
2026-04-19 18:20:00,METAR EGWU 191820Z 03008KT CAVOK 13/M01 Q1024 NOSIG RMK BLU BLU
2026-04-19 17:50:00,METAR EGWU 191750Z 04007KT CAVOK 13/M01 Q1024 NOSIG RMK BLU BLU
2026-04-19 17:20:00,METAR EGWU 191720Z 05008KT CAVOK 14/M00 Q1024 NOSIG RMK BLU BLU
2026-04-19 16:50:00,METAR EGWU 191650Z 04006KT CAVOK 14/M01 Q1024 NOSIG RMK BLU BLU
2026-04-19 16:20:00,METAR EGWU 191620Z 06009KT CAVOK 14/M00 Q1024 NOSIG RMK BLU BLU
2026-04-19 15:50:00,METAR EGWU 191550Z 36009KT CAVOK 15/M00 Q1024 NOSIG RMK BLU BLU
2026-04-19 15:20:00,METAR EGWU 191520Z 02006KT CAVOK 14/M01 Q1024 NOSIG RMK BLU BLU
2026-04-19 14:50:00,METAR EGWU 191450Z 36008KT CAVOK 15/00 Q1024 NOSIG RMK BLU BLU
2026-04-19 14:20:00,METAR EGWU 191420Z 34008KT CAVOK 14/00 Q1025 NOSIG RMK BLU BLU
2026-04-19 13:50:00,METAR EGWU 191350Z 33009KT CAVOK 15/01 Q1025 NOSIG RMK BLU BLU
2026-04-19 13:20:00,METAR EGWU 191320Z AUTO 33009KT 9999 FEW061/// 15/M00 Q1025
2026-04-19 12:50:00,METAR EGWU 191250Z AUTO 35008KT 9999 SCT062/// 15/M00 Q1025
2026-04-19 12:20:00,METAR EGWU 191220Z 34008KT CAVOK 14/M01 Q1025 NOSIG RMK BLU BLU
2026-04-19 11:50:00,METAR EGWU 191150Z 36008KT CAVOK 14/M01 Q1026 NOSIG RMK BLU BLU
2026-04-19 11:20:00,METAR EGWU 191120Z 35008KT CAVOK 14/01 Q1026 NOSIG RMK BLU BLU
2026-04-19 10:50:00,METAR EGWU 191050Z 36007KT 9999 FEW048 13/01 Q1026 NOSIG RMK BLU BLU
2026-04-19 10:20:00,METAR EGWU 191020Z 01008KT 9999 FEW040 13/02 Q1026 NOSIG RMK BLU BLU
2026-04-19 09:50:00,METAR EGWU 190950Z 02009KT 9999 FEW040 12/02 Q1026 NOSIG RMK BLU BLU
2026-04-19 09:20:00,METAR EGWU 190920Z 35007KT 9999 FEW040 11/02 Q1026 NOSIG RMK BLU BLU
2026-04-19 08:50:00,METAR EGWU 190850Z 36007KT CAVOK 11/02 Q1026 NOSIG RMK BLU BLU
2026-04-19 08:20:00,METAR EGWU 190820Z 36008KT CAVOK 10/03 Q1026 NOSIG RMK BLU BLU
2026-04-19 07:50:00,METAR EGWU 190750Z 01006KT CAVOK 09/02 Q1026 NOSIG RMK BLU BLU
2026-04-19 07:20:00,METAR EGWU 190720Z 34003KT CAVOK 08/03 Q1026 NOSIG RMK BLU BLU
2026-04-19 06:50:00,METAR EGWU 190650Z 32004KT CAVOK 07/04 Q1026 NOSIG RMK BLU BLU
2026-04-19 06:20:00,METAR EGWU 190620Z AUTO 33003KT 9999 NCD 06/03 Q1026
2026-04-19 05:50:00,METAR EGWU 190550Z 32004KT CAVOK 05/02 Q1025 NOSIG RMK BLU BLU
2026-04-19 05:20:00,METAR EGWU 190520Z AUTO 32004KT 9999 NCD 05/02 Q1025
2026-04-19 04:50:00,METAR EGWU 190450Z AUTO 34003KT 9999 NCD 05/02 Q1025
2026-04-19 04:20:00,METAR EGWU 190420Z AUTO 34003KT 9999 NCD 05/02 Q1025
2026-04-19 03:50:00,METAR EGWU 190350Z AUTO 32002KT 9999 NCD 05/02 Q1025
2026-04-19 03:20:00,METAR EGWU 190320Z AUTO 33003KT 9999 NCD 05/02 Q1025
2026-04-19 02:50:00,METAR EGWU 190250Z AUTO 32002KT 9999 NCD 05/02 Q1025
2026-04-19 02:20:00,METAR EGWU 190220Z AUTO 32003KT 9999 NCD 06/03 Q1025
2026-04-19 01:50:00,METAR EGWU 190150Z AUTO 33004KT 9999 NCD 07/03 Q1024
2026-04-19 01:20:00,METAR EGWU 190120Z AUTO 36004KT 9999 NCD 08/03 Q1024
2026-04-19 00:50:00,METAR EGWU 190050Z AUTO 02005KT 9999 NCD 08/04 Q1024
2026-04-19 00:20:00,METAR EGWU 190020Z AUTO 33005KT 9999 NCD 08/04 Q1024
2026-04-18 23:50:00,METAR EGWU 182350Z AUTO 33005KT 9999 NCD 08/04 Q1024
2026-04-18 23:20:00,METAR EGWU 182320Z AUTO 33006KT 9999 BKN065/// 09/05 Q1024
2026-04-18 22:50:00,METAR EGWU 182250Z AUTO 33005KT 9999 NCD 09/05 Q1024
2026-04-18 22:20:00,METAR EGWU 182220Z AUTO 32005KT 9999 NCD 09/05 Q1024
2026-04-18 21:50:00,METAR EGWU 182150Z AUTO 33006KT 9999 FEW074/// 10/05 Q1024
2026-04-18 21:20:00,METAR EGWU 182120Z AUTO 33006KT 9999 FEW073/// SCT094/// 10/06 Q1024
2026-04-18 20:50:00,METAR EGWU 182050Z AUTO 34008KT 9999 SCT072/// 11/06 Q1024
2026-04-18 20:20:00,METAR EGWU 182020Z AUTO 34008KT 9999 OVC072/// 11/05 Q1023
2026-04-18 19:50:00,METAR EGWU 181950Z AUTO 34010KT 9999 FEW070/// BKN084/// 12/05 Q1023
2026-04-18 19:20:00,METAR EGWU 181920Z AUTO 34010KT 9999 FEW088/// 12/05 Q1023
2026-04-18 18:50:00,METAR EGWU 181850Z 33007KT CAVOK 13/04 Q1022 NOSIG RMK BLU BLU
2026-04-18 18:20:00,METAR EGWU 181820Z 34008KT CAVOK 14/03 Q1022 NOSIG RMK BLU BLU
2026-04-18 17:50:00,METAR EGWU 181750Z 33009KT CAVOK 15/02 Q1022 NOSIG RMK BLU BLU
2026-04-18 17:20:00,METAR EGWU 181720Z 32011KT CAVOK 15/02 Q1022 NOSIG RMK BLU BLU
2026-04-18 16:50:00,METAR EGWU 181650Z 31011KT CAVOK 15/01 Q1021 NOSIG RMK BLU BLU
2026-04-18 16:20:00,METAR EGWU 181620Z 33011KT CAVOK 16/03 Q1021 NOSIG RMK BLU BLU
2026-04-18 15:20:00,METAR EGWU 181520Z 30011KT CAVOK 17/04 Q1021 NOSIG RMK BLU BLU
2026-04-18 14:50:00,METAR EGWU 181450Z 31010KT CAVOK 17/04 Q1021 NOSIG RMK BLU BLU
2026-04-18 14:20:00,METAR EGWU 181420Z 32010KT 9999 SCT049 16/04 Q1021 NOSIG RMK BLU BLU
2026-04-18 13:50:00,METAR EGWU 181350Z 34010KT 9999 SCT048 16/05 Q1021 NOSIG RMK BLU BLU
2026-04-18 13:20:00,METAR EGWU 181320Z 32011KT 9999 SCT046 15/05 Q1022 NOSIG RMK BLU BLU
2026-04-18 12:50:00,METAR EGWU 181250Z 28009KT CAVOK 16/05 Q1022 NOSIG RMK BLU BLU
2026-04-18 12:20:00,METAR EGWU 181220Z AUTO 31009KT 9999 BKN043/// 14/04 Q1022
2026-04-18 11:50:00,METAR EGWU 181150Z 30007KT 9999 SCT042 16/05 Q1021 RMK BLU
2026-04-18 11:20:00,METAR EGWU 181120Z 32008KT CAVOK 15/04 Q1022 NOSIG RMK BLU BLU
2026-04-18 10:50:00,METAR EGWU 181050Z 27010KT 9999 SCT035 15/05 Q1022 NOSIG RMK BLU BLU
2026-04-18 10:20:00,METAR EGWU 181020Z 30009KT 9999 SCT031 13/05 Q1022 NOSIG RMK BLU BLU
2026-04-18 09:50:00,METAR EGWU 180950Z 29007KT 9999 FEW025 SCT036 13/06 Q1022 NOSIG RMK BLU BLU
2026-04-18 09:20:00,METAR EGWU 180920Z 28009KT 9999 FEW023 13/07 Q1022 NOSIG RMK BLU BLU
2026-04-18 08:50:00,METAR EGWU 180850Z 28008KT 9999 FEW016 12/07 Q1022 NOSIG RMK BLU BLU
2026-04-18 08:20:00,METAR EGWU 180820Z 29007KT 9999 FEW016 11/08 Q1022 NOSIG RMK BLU BLU
2026-04-18 07:50:00,METAR EGWU 180750Z 29007KT 9999 FEW013 11/08 Q1022 NOSIG RMK BLU BLU
2026-04-18 07:20:00,METAR EGWU 180720Z 27005KT 9999 FEW012 10/08 Q1022 NOSIG RMK BLU BLU
2026-04-18 06:50:00,METAR EGWU 180650Z 26006KT CAVOK 09/08 Q1022 NOSIG RMK BLU BLU
2026-04-18 06:20:00,METAR EGWU 180620Z 25002KT CAVOK 08/08 Q1021 NOSIG RMK BLU BLU
2026-04-18 05:50:00,METAR EGWU 180550Z 29001KT CAVOK 06/05 Q1021 NOSIG RMK BLU BLU
2026-04-18 05:20:00,METAR EGWU 180520Z AUTO 26003KT 9999 NCD 07/06 Q1021
2026-04-18 04:50:00,METAR EGWU 180450Z AUTO 25002KT 9999 NCD 07/06 Q1021
2026-04-18 04:20:00,METAR EGWU 180420Z AUTO 26003KT 9999 NCD 08/06 Q1021
2026-04-18 03:50:00,METAR EGWU 180350Z AUTO 27003KT 9999 NCD 09/07 Q1020
2026-04-18 03:20:00,METAR EGWU 180320Z AUTO 31003KT 9999 FEW092/// 09/07 Q1020
2026-04-18 02:50:00,METAR EGWU 180250Z AUTO 29004KT 9999 FEW081/// BKN096/// 10/08 Q1020
2026-04-18 02:20:00,METAR EGWU 180220Z AUTO 28006KT 9999 FEW030/// SCT096/// 11/08 Q1020
2026-04-18 01:50:00,METAR EGWU 180150Z AUTO 28005KT 9999 OVC030/// 11/09 Q1020
2026-04-18 01:20:00,METAR EGWU 180120Z AUTO 26004KT 9999 OVC025/// 11/09 Q1020
2026-04-18 00:50:00,METAR EGWU 180050Z AUTO 28008KT 9999 // OVC023/// 11/09 Q1020
2026-04-18 00:20:00,METAR EGWU 180020Z AUTO 28004KT 9999 // OVC018/// 10/10 Q1020
2026-04-17 23:50:00,METAR EGWU 172350Z AUTO 29006KT 5000 DZ FEW006/// OVC012/// 10/09 Q1020
2026-04-17 23:20:00,METAR EGWU 172320Z AUTO 31008KT 5000 BR OVC006/// 11/09 Q1020
2026-04-17 22:50:00,METAR EGWU 172250Z AUTO 33007KT 9999 OVC009/// 12/09 Q1020
2026-04-17 22:20:00,METAR EGWU 172220Z AUTO 27007KT 9999 OVC013/// 13/09 Q1020
2026-04-17 21:50:00,METAR EGWU 172150Z 23008KT 9999 BKN016 13/09 Q1019 TEMPO 7000 SHRA BKN014
2026-04-17 21:20:00,METAR EGWU 172120Z 23010KT 9999 BKN024 13/09 Q1019 TEMPO 7000 SHRA RMK WHT TEMPO WHT
2026-04-17 20:50:00,METAR EGWU 172050Z 22010KT 9999 SCT044 BKN110 13/08 Q1019 TEMPO 7000 RA SCT020
2026-04-17 20:20:00,METAR EGWU 172020Z 22009KT 9999 SCT042 SCT110 14/08 Q1019 NOSIG RMK BLU
2026-04-17 19:50:00,METAR EGWU 171950Z 22007KT CAVOK 14/08 Q1019 NOSIG RMK BLU BLU
2026-04-17 19:20:00,METAR EGWU 171920Z AUTO 22010KT 9999 BKN048/// 14/07 Q1019
2026-04-17 18:50:00,METAR EGWU 171850Z 22009KT CAVOK 15/07 Q1019 NOSIG RMK BLU BLU
2026-04-17 18:20:00,METAR EGWU 171820Z AUTO 22012KT 9999 NCD 15/07 Q1018
2026-04-17 17:50:00,METAR EGWU 171750Z 23013KT 9999 FEW042 16/07 Q1018 NOSIG RMK BLU BLU
2026-04-17 17:20:00,METAR EGWU 171720Z 22012KT 9999 FEW042 17/07 Q1018 NOSIG RMK BLU BLU
2026-04-17 16:50:00,METAR EGWU 171650Z 23013KT 9999 FEW042 17/07 Q1018 TEMPO BKN022
2026-04-17 16:20:00,METAR EGWU 171620Z 23013KT 9999 FEW044 17/07 Q1018 NOSIG RMK BLU BLU
2026-04-17 15:50:00,METAR EGWU 171550Z 22014KT 9999 FEW043 18/07 Q1018 NOSIG RMK BLU BLU
2026-04-17 15:20:00,METAR EGWU 171520Z 24016KT 9999 BKN043 18/07 Q1018 NOSIG RMK BLU BLU
2026-04-17 14:50:00,METAR EGWU 171450Z 23013KT 9999 FEW039 BKN043 17/08 Q1018 NOSIG RMK BLU BLU
2026-04-17 14:20:00,METAR EGWU 171420Z 21013KT 9999 SCT040 BKN052 18/09 Q1018 NOSIG RMK BLU BLU
2026-04-17 13:50:00,METAR EGWU 171350Z 22014KT 9999 SCT040 BKN050 17/07 Q1018 NOSIG RMK BLU BLU
2026-04-17 13:20:00,METAR EGWU 171320Z 22012KT 9999 SCT038 BKN052 17/08 Q1018 NOSIG RMK BLU BLU
2026-04-17 12:50:00,METAR EGWU 171250Z 22012KT 9999 BKN038 BKN050 16/07 Q1019 NOSIG RMK BLU BLU
2026-04-17 12:20:00,METAR EGWU 171220Z 21013KT 9999 SCT038 BKN050 16/07 Q1019 NOSIG RMK BLU BLU
2026-04-17 11:50:00,METAR EGWU 171150Z 21013KT 9999 FEW035 BKN057 17/08 Q1019 NOSIG RMK BLU BLU
2026-04-17 11:20:00,METAR EGWU 171120Z 23012KT 9999 FEW035 BKN054 16/08 Q1019 NOSIG RMK BLU BLU
2026-04-17 10:50:00,METAR EGWU 171050Z 22011KT 9999 FEW029 BKN060 16/09 Q1019 NOSIG RMK BLU BLU
2026-04-17 10:20:00,METAR EGWU 171020Z 21013KT 9999 FEW024 BKN059 16/09 Q1019 NOSIG RMK BLU BLU
2026-04-17 09:50:00,METAR EGWU 170950Z 22012KT 9999 FEW020 BKN060 15/10 Q1019 TEMPO SCT020
2026-04-17 09:20:00,METAR EGWU 170920Z 22009KT 9999 FEW021 BKN062 14/10 Q1019 TEMPO SCT021
2026-04-17 08:50:00,METAR EGWU 170850Z 22009KT 9999 FEW018 BKN059 14/10 Q1019 TEMPO SCT018
2026-04-17 08:20:00,METAR EGWU 170820Z 22010KT 9999 FEW019 BKN060 13/09 Q1019 TEMPO SCT019 RMK BLU TEMPO WHT
2026-04-17 07:50:00,METAR EGWU 170750Z 22007KT 9999 FEW018 BKN064 13/10 Q1019 TEMPO SCT018
2026-04-17 07:20:00,METAR EGWU 170720Z 21007KT 9999 FEW020 BKN065 13/09 Q1019 NOSIG RMK BLU BLU
2026-04-17 06:50:00,METAR EGWU 170650Z 21006KT CAVOK 12/09 Q1019 NOSIG RMK BLU BLU
2026-04-17 06:20:00,METAR EGWU 170620Z AUTO 20004KT 9999 FEW019/// BKN063/// 11/09 Q1019
2026-04-17 05:50:00,METAR EGWU 170550Z 18003KT 9999 FEW020 BKN068 11/09 Q1019 NOSIG RMK BLU BLU
2026-04-17 05:20:00,METAR EGWU 170520Z AUTO 16003KT 9999 SCT070/// 11/09 Q1019
2026-04-17 04:50:00,METAR EGWU 170450Z AUTO 17003KT 9999 SCT058/// SCT071/// 11/09 Q1019
2026-04-17 04:20:00,METAR EGWU 170420Z AUTO 17003KT 9999 OVC053/// 11/09 Q1019
2026-04-17 03:50:00,METAR EGWU 170350Z AUTO 18004KT 9999 OVC050/// 11/09 Q1019
2026-04-17 03:20:00,METAR EGWU 170320Z AUTO 19005KT 9999 OVC042/// 11/09 Q1019
2026-04-17 02:50:00,METAR EGWU 170250Z AUTO 19007KT 9999 OVC043/// 11/09 Q1019
2026-04-17 02:20:00,METAR EGWU 170220Z AUTO 19007KT 9999 OVC038/// 11/09 Q1019
2026-04-17 01:50:00,METAR EGWU 170150Z AUTO 20007KT 9999 OVC069/// 11/09 Q1019
2026-04-17 01:20:00,METAR EGWU 170120Z AUTO 20007KT 9999 OVC066/// 11/09 Q1019
2026-04-17 00:50:00,METAR EGWU 170050Z AUTO 21007KT 9999 OVC070/// 11/09 Q1020
2026-04-17 00:20:00,METAR EGWU 170020Z AUTO 20006KT 9999 OVC067/// 11/09 Q1020
2026-04-16 23:50:00,METAR EGWU 162350Z AUTO 21005KT 9999 SCT067/// 10/09 Q1020
2026-04-16 23:20:00,METAR EGWU 162320Z AUTO 21006KT 9999 SCT052/// 11/09 Q1020
2026-04-16 22:50:00,METAR EGWU 162250Z AUTO 21006KT 9999 NCD 11/09 Q1020
2026-04-16 22:20:00,METAR EGWU 162220Z AUTO 20005KT 9999 FEW014/// SCT120/// 11/09 Q1020
2026-04-16 21:50:00,METAR EGWU 162150Z AUTO 21006KT 9999 OVC110/// 12/09 Q1020
2026-04-16 21:20:00,METAR EGWU 162120Z AUTO 21006KT 9999 OVC130/// 12/09 Q1020
2026-04-16 20:50:00,METAR EGWU 162050Z AUTO 21008KT 9999 OVC130/// 12/09 Q1020
2026-04-16 20:20:00,METAR EGWU 162020Z AUTO 20007KT 9999 OVC130/// 12/09 Q1020
2026-04-16 19:50:00,METAR EGWU 161950Z AUTO 22009KT 9999 OVC120/// 13/07 Q1020
2026-04-16 19:20:00,METAR EGWU 161920Z AUTO 22008KT 9999 OVC130/// 13/07 Q1019
2026-04-16 18:50:00,METAR EGWU 161850Z 20007KT CAVOK 14/08 Q1019 NOSIG RMK BLU BLU
2026-04-16 18:20:00,METAR EGWU 161820Z 22010KT 9999 FEW040 14/08 Q1019 NOSIG RMK BLU BLU
2026-04-16 17:50:00,METAR EGWU 161750Z 23010KT 9999 FEW035 BKN062 15/08 Q1019 NOSIG RMK BLU BLU
2026-04-16 17:20:00,METAR EGWU 161720Z 22012KT CAVOK 16/08 Q1019 NOSIG RMK BLU BLU
2026-04-16 16:50:00,METAR EGWU 161650Z 22011KT 9999 SCT037 16/08 Q1019 NOSIG RMK BLU BLU
2026-04-16 16:20:00,METAR EGWU 161620Z 23011KT 9999 SCT037 17/08 Q1018 NOSIG RMK BLU BLU
2026-04-16 15:50:00,METAR EGWU 161550Z 23009KT 9999 SCT036 17/08 Q1018 NOSIG RMK BLU BLU
2026-04-16 14:50:00,METAR EGWU 161450Z 24011KT 9999 FEW034 17/08 Q1019 NOSIG RMK BLU BLU
2026-04-16 14:20:00,METAR EGWU 161420Z 23013KT 9999 SCT036 18/07 Q1019 NOSIG RMK BLU BLU
2026-04-16 13:50:00,METAR EGWU 161350Z 25011KT 9999 SCT045 SCT056 17/07 Q1019 NOSIG RMK BLU BLU
2026-04-16 13:20:00,METAR EGWU 161320Z 25012KT 9999 FEW040 18/07 Q1019 NOSIG RMK BLU BLU
2026-04-16 12:50:00,METAR EGWU 161250Z 26012KT 9999 FEW040 17/07 Q1019 NOSIG RMK BLU BLU
2026-04-16 12:20:00,METAR EGWU 161220Z 26010KT CAVOK 17/08 Q1019 NOSIG RMK BLU BLU
2026-04-16 11:50:00,METAR EGWU 161150Z 27010KT 9999 SCT045 16/08 Q1019 NOSIG RMK BLU BLU
2026-04-16 11:20:00,METAR EGWU 161120Z 26012KT 9999 FEW028 SCT048 16/09 Q1019 NOSIG RMK BLU BLU
2026-04-16 10:50:00,METAR EGWU 161050Z 26010KT 9999 FEW030 SCT048 15/10 Q1019 NOSIG RMK BLU BLU
2026-04-16 10:20:00,METAR EGWU 161020Z 26010KT 9999 SCT017 BKN040 13/09 Q1019 BECMG FEW017 RMK WHT BECMG BLU
2026-04-16 09:50:00,METAR EGWU 160950Z 23007KT 9999 SCT017 BKN025 13/10 Q1019 BECMG FEW017
2026-04-16 09:20:00,METAR EGWU 160920Z 26006KT 9999 FEW010 SCT018 BKN028 12/10 Q1019 BECMG FEW018 RMK WHT BECMG BLU
2026-04-16 08:50:00,METAR EGWU 160850Z 26013KT 8000 -DZ FEW010 SCT018 BKN028 11/09 Q1018 NOSIG RMK WHT WHT
2026-04-16 08:34:00,SPECI EGWU 160834Z 22010KT 5000 -DZ BKN012 13/10 Q1018 BECMG 9999 NSW SCT020 RMK GRN BECMG WHT
2026-04-16 08:20:00,METAR EGWU 160820Z 23007KT 9999 SCT018 BKN025 13/09 Q1018 NOSIG RMK WHT WHT
2026-04-16 07:50:00,METAR EGWU 160750Z 23007KT 9999 SCT017 BKN025 13/09 Q1018 NOSIG RMK WHT WHT
2026-04-16 07:20:00,METAR EGWU 160720Z 23009KT 9999 SCT017 BKN028 12/09 Q1018 TEMPO FEW017 RMK WHT TEMPO BLU
2026-04-16 06:50:00,METAR EGWU 160650Z 22008KT 9999 SCT017 BKN048 12/09 Q1018 TEMPO FEW017
2026-04-16 06:20:00,METAR EGWU 160620Z 21006KT 9999 SCT015 BKN049 11/09 Q1017 TEMPO FEW015 RMK WHT TEMPO BLU
2026-04-16 05:50:00,METAR EGWU 160550Z 21008KT 9999 BKN015 BKN250 11/09 Q1017 TEMPO FEW015
2026-04-16 05:20:00,METAR EGWU 160520Z AUTO 21008KT 9999 // OVC015/// 11/09 Q1017
2026-04-16 04:50:00,METAR EGWU 160450Z AUTO 21008KT 5000 -RA OVC016/// 11/09 Q1017
2026-04-16 04:20:00,METAR EGWU 160420Z AUTO 21007KT 9999 FEW020/// OVC029/// 11/08 Q1017
2026-04-16 03:50:00,METAR EGWU 160350Z AUTO 20006KT 9999 BKN043/// SCT170/// 10/08 Q1017
2026-04-16 03:20:00,METAR EGWU 160320Z AUTO 21009KT 9999 SCT170/// 10/08 Q1016
2026-04-16 02:50:00,METAR EGWU 160250Z AUTO 21008KT 9999 FEW017/// 10/08 Q1017
2026-04-16 02:20:00,METAR EGWU 160220Z AUTO 20007KT 9999 FEW017/// 10/08 Q1017
2026-04-16 01:50:00,METAR EGWU 160150Z AUTO 21006KT 9999 FEW017/// 10/08 Q1017
2026-04-16 01:20:00,METAR EGWU 160120Z AUTO 20004KT 9999 NCD 09/08 Q1017
2026-04-16 00:50:00,METAR EGWU 160050Z AUTO 21006KT 9999 FEW017/// 10/08 Q1017
2026-04-16 00:20:00,METAR EGWU 160020Z AUTO 22008KT 9999 FEW015/// 10/08 Q1017
2026-04-15 23:50:00,METAR EGWU 152350Z AUTO 21007KT 9999 FEW016/// 09/08 Q1017
2026-04-15 23:20:00,METAR EGWU 152320Z AUTO 22006KT 9999 NCD 09/08 Q1017
2026-04-15 22:50:00,METAR EGWU 152250Z AUTO 22008KT 9999 NCD 10/08 Q1016
2026-04-15 22:20:00,METAR EGWU 152220Z AUTO 22010KT 9999 NCD 10/08 Q1016
2026-04-15 21:50:00,METAR EGWU 152150Z 22010KT CAVOK 10/08 Q1016 NOSIG RMK BLU BLU
2026-04-15 21:20:00,METAR EGWU 152120Z 23009KT CAVOK 11/08 Q1016 NOSIG RMK BLU BLU
2026-04-15 20:50:00,METAR EGWU 152050Z 22008KT CAVOK 11/08 Q1016 NOSIG RMK BLU BLU
2026-04-15 20:20:00,METAR EGWU 152020Z 22008KT CAVOK 12/08 Q1016 NOSIG RMK BLU BLU
2026-04-15 19:50:00,METAR EGWU 151950Z 22009KT CAVOK 12/08 Q1015 NOSIG RMK BLU BLU
2026-04-15 19:20:00,METAR EGWU 151920Z 22009KT 9999 FEW028 12/08 Q1015 NOSIG RMK BLU BLU
2026-04-15 18:50:00,METAR EGWU 151850Z 23013KT 9999 FEW029 13/08 Q1015 NOSIG RMK BLU BLU
2026-04-15 18:20:00,METAR EGWU 151820Z 23014G24KT 9999 FEW029 14/08 Q1014 NOSIG RMK BLU BLU
2026-04-15 17:50:00,METAR EGWU 151750Z 22013KT 9999 FEW021 14/08 Q1014 TEMPO SCT020 RMK BLU TEMPO WHT
2026-04-15 17:20:00,METAR EGWU 151720Z 22013KT 9999 SCT020 14/10 Q1014 TEMPO FEW020 RMK WHT TEMPO BLU
2026-04-15 16:50:00,METAR EGWU 151650Z 22015KT 9999 SCT015 15/10 Q1014 NOSIG RMK WHT WHT
2026-04-15 16:20:00,METAR EGWU 151620Z 22018KT 9999 // OVC015 14/11 Q1014 TEMPO 7000 -RA SCT014 RMK WHT TEMPO GRN
2026-04-15 15:50:00,METAR EGWU 151550Z 21016G26KT 9999 OVC020 15/10 Q1014 TEMPO 3000 +RA BKN014
2026-04-15 15:20:00,METAR EGWU 151520Z 22012KT 9999 OVC022 15/10 Q1014 TEMPO 3000 +RA BKN014 RMK WHT TEMPO YLO1
2026-04-15 14:50:00,METAR EGWU 151450Z 23017G29KT 9999 SCT018 OVC025 15/10 Q1014 TEMPO 3000 +SHRA BKN014
2026-04-15 14:20:00,METAR EGWU 151420Z 23016KT 9999 FEW030 BKN042 17/09 Q1014 TEMPO BKN024 RMK BLU TEMPO WHT
2026-04-15 13:50:00,METAR EGWU 151350Z 21016KT 9999 FEW027 BKN032 16/09 Q1014 TEMPO BKN024
2026-04-15 13:20:00,METAR EGWU 151320Z 22015KT 9999 BKN028 16/10 Q1014 TEMPO BKN020 RMK BLU TEMPO WHT
2026-04-15 12:50:00,METAR EGWU 151250Z 19015KT 9999 BKN025 16/11 Q1014 TEMPO BKN020
2026-04-15 12:20:00,METAR EGWU 151220Z 20012KT 9999 SCT020 17/12 Q1014 BECMG SCT030 RMK WHT BECMG BLU
2026-04-15 11:50:00,METAR EGWU 151150Z 21012KT 9999 // BKN016 15/13 Q1014 TEMPO SCT014
2026-04-15 11:20:00,METAR EGWU 151120Z 21011KT 9999 BKN008 BKN012 15/13 Q1014 NOSIG RMK GRN GRN
2026-04-15 10:50:00,METAR EGWU 151050Z 20011KT 6000 -DZ OVC009 14/13 Q1015 TEMPO 4000 DZ BKN006
2026-04-15 10:34:00,SPECI EGWU 151034Z 20011KT 6000 -DZ OVC009 14/13 Q1015 TEMPO 4000 DZ BKN006 RMK GRN TEMPO YLO1
2026-04-15 10:20:00,METAR EGWU 151020Z 20011KT 9999 -DZ BKN012 15/12 Q1015 TEMPO BKN015 RMK GRN TEMPO WHT
2026-04-15 09:50:00,METAR EGWU 150950Z 19010KT 9999 -RA BKN015 15/12 Q1015 TEMPO BKN012
2026-04-15 09:20:00,METAR EGWU 150920Z 20011KT 9999 OVC010 15/12 Q1015 NOSIG RMK GRN GRN
2026-04-15 08:50:00,METAR EGWU 150850Z 20009KT 9999 -RA OVC009 14/12 Q1015 NOSIG RMK GRN GRN
2026-04-15 08:20:00,METAR EGWU 150820Z 19008KT 9999 OVC008 13/12 Q1015 TEMPO BKN006 RMK GRN TEMPO YLO1
2026-04-15 07:50:00,METAR EGWU 150750Z 16009KT 9999 SCT007 OVC015 13/12 Q1015 TEMPO BKN006
2026-04-15 07:20:00,METAR EGWU 150720Z 19007KT 9999 SCT007 OVC014 13/12 Q1015 TEMPO BKN006 RMK GRN TEMPO YLO1
2026-04-15 06:50:00,METAR EGWU 150650Z 19007KT 9999 -RA SCT007 OVC014 13/12 Q1015 TEMPO BKN006
2026-04-15 06:20:00,METAR EGWU 150620Z 20007KT 9999 -RA SCT009 OVC012 13/12 Q1015 TEMPO BKN007 RMK GRN TEMPO YLO1
2026-04-15 05:50:00,METAR EGWU 150550Z 21007KT 9999 -DZ BKN006 OVC012 13/12 Q1015 NOSIG RMK YLO1 YLO1
2026-04-15 05:20:00,METAR EGWU 150520Z AUTO 19008KT 6000 DZ BKN006/// BKN014/// 12/11 Q1015
2026-04-15 04:50:00,METAR EGWU 150450Z AUTO 19006KT 9999 // OVC007/// 12/11 Q1015
2026-04-15 04:20:00,METAR EGWU 150420Z AUTO 19008KT 9999 OVC008/// 13/11 Q1015
2026-04-15 03:50:00,METAR EGWU 150350Z AUTO 18005KT 9999 OVC009/// 13/11 Q1015
2026-04-15 03:20:00,METAR EGWU 150320Z AUTO 19007KT 9999 OVC010/// 13/11 Q1016
2026-04-15 02:50:00,METAR EGWU 150250Z AUTO 19007KT 9999 OVC010/// 13/11 Q1016
2026-04-15 02:20:00,METAR EGWU 150220Z AUTO 19006KT 9999 OVC011/// 13/11 Q1016
2026-04-15 01:50:00,METAR EGWU 150150Z AUTO 19006KT 9999 // OVC012/// 13/11 Q1016
2026-04-15 01:20:00,METAR EGWU 150120Z AUTO 18007KT 9999 // OVC013/// 13/11 Q1016
2026-04-15 00:50:00,METAR EGWU 150050Z AUTO 18006KT 9999 OVC014/// 13/10 Q1016
2026-04-15 00:20:00,METAR EGWU 150020Z AUTO 18006KT 9999 OVC015/// 13/10 Q1017
2026-04-14 23:50:00,METAR EGWU 142350Z 18005KT 9999 SCT014 OVC020 12/10 Q1017 TEMPO 6000 -RADZ
2026-04-14 23:20:00,METAR EGWU 142320Z 17006KT 9999 SCT014 OVC020 12/10 Q1017 TEMPO 6000 -RADZ RMK GRN TEMPO GRN
2026-04-14 22:50:00,METAR EGWU 142250Z 20010KT 6000 -DZ SCT014 OVC020 13/10 Q1017 TEMPO 9999 NSW OVC020
2026-04-14 22:20:00,METAR EGWU 142220Z 18006KT 9999 OVC022 13/08 Q1017 TEMPO 7000 -RADZ
2026-04-14 21:50:00,METAR EGWU 142150Z 18006KT 9999 OVC020 13/08 Q1017 TEMPO 7000 -RADZ
2026-04-14 21:20:00,METAR EGWU 142120Z 18008KT 9999 OVC024 13/08 Q1018 TEMPO 7000 -RADZ RMK WHT TEMPO WHT
2026-04-14 20:50:00,METAR EGWU 142050Z COR 18009KT 9999 OVC020 13/08 Q1017 TEMPO 7000 -RADZ
2026-04-14 20:20:00,METAR EGWU 142020Z 18008KT 9999 BKN022 13/08 Q1017 TEMPO 7000 -RADZ RMK WHT TEMPO WHT
2026-04-14 19:50:00,METAR EGWU 141950Z 18007KT 9999 BKN023 14/07 Q1017 TEMPO 7000 -RADZ
2026-04-14 19:20:00,METAR EGWU 141920Z 19007KT 9999 FEW024 BKN026 14/07 Q1017 BECMG BKN024 RMK BLU BECMG WHT
2026-04-14 18:50:00,METAR EGWU 141850Z 18009KT 9999 BKN026 13/07 Q1017 TEMPO BKN024
2026-04-14 18:20:00,METAR EGWU 141820Z 17009KT 9999 BKN028 13/08 Q1017 TEMPO BKN024 RMK BLU TEMPO WHT
2026-04-14 17:50:00,METAR EGWU 141750Z 18010KT 9999 OVC030 13/08 Q1017 TEMPO SCT020
2026-04-14 17:20:00,METAR EGWU 141720Z 18012KT 9999 OVC026 14/07 Q1017 TEMPO SCT020 RMK BLU TEMPO WHT
2026-04-14 16:50:00,METAR EGWU 141650Z 19008KT 9999 OVC025 14/07 Q1017 TEMPO SCT020
2026-04-14 16:20:00,METAR EGWU 141620Z 19011KT 9999 OVC028 14/07 Q1017 TEMPO SCT020 RMK BLU TEMPO WHT
2026-04-14 15:50:00,METAR EGWU 141550Z 19011KT 9999 OVC032 15/07 Q1017 TEMPO SCT020
2026-04-14 15:20:00,METAR EGWU 141520Z 20013KT 9999 BKN037 16/06 Q1017 NOSIG RMK BLU BLU
2026-04-14 14:50:00,METAR EGWU 141450Z 20010KT 9999 BKN039 16/06 Q1017 NOSIG RMK BLU BLU
2026-04-14 14:20:00,METAR EGWU 141420Z 20013KT 9999 BKN046 16/05 Q1017 NOSIG RMK BLU BLU
2026-04-14 13:50:00,METAR EGWU 141350Z 18012KT CAVOK 17/05 Q1017 NOSIG RMK BLU BLU
2026-04-14 13:20:00,METAR EGWU 141320Z 19010KT 9999 FEW045 BKN060 18/06 Q1017 NOSIG RMK BLU BLU
2026-04-14 12:50:00,METAR EGWU 141250Z 19013KT 9999 FEW044 BKN075 17/05 Q1017 NOSIG RMK BLU BLU
2026-04-14 12:20:00,METAR EGWU 141220Z 19012KT 9999 FEW044 SCT075 16/05 Q1017 NOSIG RMK BLU BLU
2026-04-14 11:50:00,METAR EGWU 141150Z 19013KT 9999 SCT044 16/06 Q1017 NOSIG RMK BLU BLU
2026-04-14 11:20:00,METAR EGWU 141120Z 19012KT 9999 SCT044 16/04 Q1017 NOSIG RMK BLU BLU
2026-04-14 10:50:00,METAR EGWU 141050Z 19012KT 9999 SCT040 16/05 Q1017 NOSIG RMK BLU BLU
2026-04-14 10:20:00,METAR EGWU 141020Z AUTO 20011KT 9999 FEW035/// 15/06 Q1017
2026-04-14 09:50:00,METAR EGWU 140950Z 17012KT CAVOK 14/06 Q1017 NOSIG RMK BLU BLU
2026-04-14 09:20:00,METAR EGWU 140920Z 19011KT CAVOK 13/04 Q1018 NOSIG RMK BLU BLU
2026-04-14 08:50:00,METAR EGWU 140850Z 17009KT CAVOK 13/06 Q1018 NOSIG RMK BLU BLU
2026-04-14 08:20:00,METAR EGWU 140820Z 17009KT CAVOK 11/07 Q1018 NOSIG RMK BLU BLU
2026-04-14 07:50:00,METAR EGWU 140750Z 18006KT CAVOK 10/07 Q1017 NOSIG RMK BLU BLU
2026-04-14 07:20:00,METAR EGWU 140720Z 14005KT CAVOK 08/07 Q1017 NOSIG RMK BLU BLU
2026-04-14 06:50:00,METAR EGWU 140650Z 11002KT CAVOK 04/04 Q1017 NOSIG RMK BLU BLU
2026-04-14 06:20:00,METAR EGWU 140620Z 00000KT CAVOK 02/01 Q1017 NOSIG RMK BLU BLU
2026-04-14 05:50:00,METAR EGWU 140550Z 06001KT CAVOK 01/00 Q1017 NOSIG RMK BLU BLU
2026-04-14 05:20:00,METAR EGWU 140520Z AUTO 06001KT 9999 NCD 01/00 Q1017
2026-04-14 04:50:00,METAR EGWU 140450Z AUTO 06001KT 9999 NCD 01/M00 Q1017
2026-04-14 04:20:00,METAR EGWU 140420Z AUTO 20001KT 9999 NCD 01/00 Q1016
2026-04-14 03:50:00,METAR EGWU 140350Z AUTO 00000KT 9999 NCD 01/01 Q1016
2026-04-14 03:20:00,METAR EGWU 140320Z AUTO 07001KT 9999 NCD 01/01 Q1016
2026-04-14 02:50:00,METAR EGWU 140250Z AUTO 00000KT 9999 NCD 02/01 Q1016
2026-04-14 02:20:00,METAR EGWU 140220Z AUTO 13001KT 9999 NCD 03/02 Q1016
2026-04-14 01:50:00,METAR EGWU 140150Z AUTO 16001KT 9999 NCD 03/02 Q1016
2026-04-14 01:20:00,METAR EGWU 140120Z AUTO 17001KT 9999 NCD 04/02 Q1016
2026-04-14 00:50:00,METAR EGWU 140050Z AUTO 23002KT 9999 NCD 05/03 Q1016
2026-04-14 00:20:00,METAR EGWU 140020Z AUTO 23004KT 9999 NCD 05/03 Q1016
2026-04-13 23:50:00,METAR EGWU 132350Z AUTO 20002KT 9999 NCD 04/03 Q1016
2026-04-13 23:20:00,METAR EGWU 132320Z AUTO 21001KT 9999 NCD 05/03 Q1015
2026-04-13 22:50:00,METAR EGWU 132250Z AUTO 11001KT 9999 NCD 06/04 Q1015
2026-04-13 22:20:00,METAR EGWU 132220Z AUTO 22001KT 9999 NCD 07/04 Q1015
2026-04-13 21:50:00,METAR EGWU 132150Z AUTO 15002KT 9999 NCD 07/04 Q1015
2026-04-13 21:20:00,METAR EGWU 132120Z AUTO 21002KT 9999 FEW041/// 07/04 Q1015
2026-04-13 20:50:00,METAR EGWU 132050Z AUTO 21001KT 9999 BKN039/// 07/04 Q1015
2026-04-13 20:20:00,METAR EGWU 132020Z 22001KT 9999 FEW022 07/03 Q1015 NOSIG RMK BLU BLU
2026-04-13 19:50:00,METAR EGWU 131950Z 17001KT 9999 FEW022 08/03 Q1014 NOSIG RMK BLU BLU
2026-04-13 19:20:00,METAR EGWU 131920Z 20001KT 9999 FEW029 09/03 Q1014 NOSIG RMK BLU BLU
2026-04-13 18:50:00,METAR EGWU 131850Z 21003KT 9999 FEW030 10/03 Q1014 NOSIG RMK BLU BLU
2026-04-13 18:20:00,METAR EGWU 131820Z 22005KT 9999 FEW033 11/03 Q1013 NOSIG RMK BLU BLU
2026-04-13 17:50:00,METAR EGWU 131750Z 27003KT 9999 FEW035 12/05 Q1013 NOSIG RMK BLU BLU
2026-04-13 17:20:00,METAR EGWU 131720Z 26006KT 9999 FEW035 11/04 Q1013 NOSIG RMK BLU BLU
2026-04-13 16:50:00,METAR EGWU 131650Z 26005KT 9999 FEW032 13/04 Q1013 NOSIG RMK BLU BLU
2026-04-13 16:20:00,METAR EGWU 131620Z 22004KT 9999 FEW032 12/05 Q1013 TEMPO 7000 SHRA RMK BLU TEMPO WHT
2026-04-13 15:50:00,METAR EGWU 131550Z 29004KT 9999 FEW025CB 12/06 Q1013 TEMPO 7000 SHRA
2026-04-13 15:20:00,METAR EGWU 131520Z 28006KT 9999 FEW033 10/07 Q1013 TEMPO 7000 SHRA RMK BLU TEMPO WHT
2026-04-13 14:50:00,METAR EGWU 131450Z 26006KT 9999 -RA SCT042 BKN052 11/05 Q1013 TEMPO 7000 SHRA
2026-04-13 14:20:00,METAR EGWU 131420Z 28002KT 9999 FEW040 11/04 Q1013 TEMPO 7000 SHRA SCT024CB RMK BLU TEMPO WHT
2026-04-13 13:50:00,METAR EGWU 131350Z 31004KT 9999 FEW028 11/06 Q1013 TEMPO 7000 SHRA SCT024CB
2026-04-13 13:20:00,METAR EGWU 131320Z 25009KT 9999 SHRA SCT024CB 10/06 Q1014 TEMPO FEW025 RMK WHT TEMPO BLU
2026-04-13 12:50:00,METAR EGWU 131250Z 24007KT 9999 VCSH FEW030CB 11/04 Q1013 TEMPO 7000 SHRA
2026-04-13 12:20:00,METAR EGWU 131220Z 27011KT 9999 -SHRA FEW028CB SCT060 10/04 Q1013 TEMPO 7000 SHRA RMK BLU TEMPO WHT
2026-04-13 11:50:00,METAR EGWU 131150Z 25005KT 9999 VCSH FEW032CB 12/04 Q1013 TEMPO 7000 SHRA
2026-04-13 11:20:00,METAR EGWU 131120Z 28004KT 9999 -SHRA BKN036 12/04 Q1013 TEMPO 7000 SHRA RMK BLU TEMPO WHT
2026-04-13 10:50:00,METAR EGWU 131050Z 34004KT 9999 FEW032 SCT042 12/02 Q1013 NOSIG RMK BLU BLU
2026-04-13 10:20:00,METAR EGWU 131020Z 28004KT 9999 FEW030 13/04 Q1013 NOSIG RMK BLU BLU
2026-04-13 09:50:00,METAR EGWU 130950Z 24003KT 9999 FEW028 11/05 Q1013 NOSIG RMK BLU BLU
2026-04-13 09:20:00,METAR EGWU 130920Z 17003KT 9999 FEW021 11/06 Q1013 NOSIG RMK BLU BLU
2026-04-13 08:50:00,METAR EGWU 130850Z 18003KT 9999 FEW015 10/08 Q1013 NOSIG RMK BLU BLU
2026-04-13 08:20:00,METAR EGWU 130820Z 28001KT CAVOK 07/07 Q1013 NOSIG RMK BLU BLU
2026-04-13 07:50:00,METAR EGWU 130750Z 32001KT CAVOK 06/05 Q1013 NOSIG RMK BLU BLU
2026-04-13 07:20:00,METAR EGWU 130720Z 30001KT CAVOK 04/04 Q1013 NOSIG RMK BLU BLU
2026-04-13 06:50:00,METAR EGWU 130650Z 33001KT CAVOK 03/02 Q1013 NOSIG RMK BLU BLU
2026-04-13 06:20:00,METAR EGWU 130620Z 11001KT 9999 7000W SKC 02/01 Q1013 NOSIG RMK WHT WHT
2026-04-13 05:50:00,METAR EGWU 130550Z 00000KT 9999 5000W MIFG SKC 01/01 Q1013 NOSIG
2026-04-13 05:20:00,METAR EGWU 130520Z AUTO 33002KT 9999 NCD 01/M00 Q1013
2026-04-13 04:50:00,METAR EGWU 130450Z AUTO 34002KT 9999 NCD 00/M00 Q1013
2026-04-13 04:20:00,METAR EGWU 130420Z AUTO 32001KT 9999 NCD 01/00 Q1013
2026-04-13 03:50:00,METAR EGWU 130350Z AUTO 00000KT 9999 NCD 01/00 Q1013
2026-04-13 03:20:00,METAR EGWU 130320Z AUTO 01001KT 9999 NCD 01/01 Q1013
2026-04-13 02:50:00,METAR EGWU 130250Z AUTO 00000KT 9999 NCD 01/01 Q1013
2026-04-13 02:20:00,METAR EGWU 130220Z AUTO 00000KT 9999 NCD 01/01 Q1013
2026-04-13 01:50:00,METAR EGWU 130150Z AUTO 13003KT 9999 NCD 02/01 Q1012
2026-04-13 01:20:00,METAR EGWU 130120Z AUTO 00000KT 9999 NCD 02/01 Q1013
2026-04-13 00:50:00,METAR EGWU 130050Z AUTO 31001KT 9999 NCD 02/02 Q1012
2026-04-13 00:20:00,METAR EGWU 130020Z AUTO 14002KT 9999 NCD 03/02 Q1013
2026-04-12 23:50:00,METAR EGWU 122350Z AUTO 00000KT 9999 NCD 03/02 Q1012
2026-04-12 23:20:00,METAR EGWU 122320Z AUTO 00000KT 9999 NCD 04/03 Q1013
2026-04-12 22:50:00,METAR EGWU 122250Z AUTO 27001KT 9999 FEW033/// 04/03 Q1013
2026-04-12 22:20:00,METAR EGWU 122220Z AUTO 13002KT 9999 NCD 05/03 Q1013
2026-04-12 21:50:00,METAR EGWU 122150Z AUTO 00000KT 9999 NCD 05/03 Q1012
2026-04-12 21:20:00,METAR EGWU 122120Z AUTO 16002KT 9999 NCD 06/04 Q1012
2026-04-12 20:50:00,METAR EGWU 122050Z AUTO 14003KT 9999 NCD 07/04 Q1012
2026-04-12 20:20:00,METAR EGWU 122020Z AUTO 29006KT 9999 // FEW028/// 08/04 Q1013
2026-04-12 19:50:00,METAR EGWU 121950Z AUTO 24007G18KT 9999 // SCT023/// SCT042/// 09/06 Q1013
2026-04-12 19:20:00,METAR EGWU 121920Z AUTO 21007KT 9999 FEW039/// BKN060/// 09/05 Q1012
2026-04-12 18:50:00,METAR EGWU 121850Z 23008KT 9999 FEW046 SCT063 09/05 Q1012 TEMPO 7000 SHRA
2026-04-12 18:20:00,METAR EGWU 121820Z 22009KT 9999 FEW040 10/05 Q1011 TEMPO 7000 SHRA RMK BLU TEMPO WHT
2026-04-12 17:50:00,METAR EGWU 121750Z 21007KT 9999 FEW043 11/06 Q1011 TEMPO 7000 SHRA
2026-04-12 17:20:00,METAR EGWU 121720Z 21004KT 9999 FEW040 11/08 Q1011 TEMPO 7000 SHRA RMK BLU TEMPO WHT
2026-04-12 16:50:00,METAR EGWU 121650Z 28002KT 9999 FEW044 09/07 Q1011 TEMPO 7000 SHRA
2026-04-12 16:20:00,METAR EGWU 121620Z 31007KT 9999 -SHRA SCT035CB 08/06 Q1011 TEMPO 7000 SHRA RMK BLU TEMPO WHT
2026-04-12 15:50:00,METAR EGWU 121550Z 29012KT 9999 7000N -SHRA SCT035CB BKN045 10/05 Q1011 TEMPO 9999 NSW
2026-04-12 14:50:00,METAR EGWU 121450Z 19007KT 9999 -SHRA SCT040 10/06 Q1010 TEMPO 23015G25KT 7000 SHRA
2026-04-12 14:20:00,METAR EGWU 121420Z 24014KT 9999 -SHRA SCT030CB 12/04 Q1010 TEMPO 4000 +SHRA RMK BLU TEMPO GRN
2026-04-12 13:50:00,METAR EGWU 121350Z 26015KT 9999 VCSH FEW044CB 14/07 Q1010 RESHGS TEMPO 23015G25KT 7000 SHRA BKN040CB
2026-04-12 13:20:00,METAR EGWU 121320Z 22014KT 9999 VCSH SCT048 15/02 Q1009 TEMPO 23015G25KT 7000 SHRA BKN040CB RMK BLU TEMPO WHT
2026-04-12 12:50:00,METAR EGWU 121250Z 22016KT 9999 FEW048 16/04 Q1009 TEMPO 7000 SHRA
2026-04-12 12:20:00,METAR EGWU 121220Z COR 22012KT 9999 FEW040 15/05 Q1009 TEMPO 7000 SHRA
2026-04-12 11:50:00,METAR EGWU 121150Z 22017G29KT 9999 VCSH FEW030 11/05 Q1010 TEMPO 7000 SHRA
2026-04-12 11:20:00,METAR EGWU 121120Z 22012KT 9999 VCSH FEW040 15/05 Q1010 TEMPO 7000 SHRA RMK BLU TEMPO WHT
2026-04-12 10:50:00,METAR EGWU 121050Z 23018KT 9999 SCT042 15/04 Q1010 TEMPO 7000 SHRA
2026-04-12 10:20:00,METAR EGWU 121020Z 23016KT 9999 FEW039 SCT055 14/03 Q1010 NOSIG RMK BLU BLU
2026-04-12 09:50:00,METAR EGWU 120950Z 22014KT 9999 SCT038 BKN045 12/03 Q1010 NOSIG RMK BLU BLU
2026-04-12 09:20:00,METAR EGWU 120920Z 22015KT 9999 FEW035 13/03 Q1010 NOSIG RMK BLU BLU
2026-04-12 08:50:00,METAR EGWU 120850Z 23015KT 9999 FEW032 11/03 Q1010 NOSIG RMK BLU BLU
2026-04-12 08:20:00,METAR EGWU 120820Z 22014KT 9999 FEW028 11/04 Q1010 NOSIG RMK BLU BLU
2026-04-12 07:50:00,METAR EGWU 120750Z 23012KT 9999 FEW024 10/04 Q1010 NOSIG RMK BLU BLU
2026-04-12 07:20:00,METAR EGWU 120720Z 22012KT 9999 FEW020 09/05 Q1010 NOSIG RMK BLU BLU
2026-04-12 06:50:00,METAR EGWU 120650Z 22010KT CAVOK 09/04 Q1009 NOSIG RMK BLU BLU
2026-04-12 06:20:00,METAR EGWU 120620Z AUTO 21009KT 9999 NCD 08/05 Q1009
2026-04-12 05:50:00,METAR EGWU 120550Z COR 21010KT 9999 FEW016 08/04 Q1009 NOSIG
2026-04-12 05:20:00,METAR EGWU 120520Z 21008KT 9999 FEW030 08/04 Q1009 NOSIG RMK BLU BLU
2026-04-12 04:50:00,METAR EGWU 120450Z AUTO 21011KT 9999 NCD 08/04 Q1008
2026-04-12 04:20:00,METAR EGWU 120420Z AUTO 21012KT 9999 BKN032/// 08/04 Q1008
2026-04-12 03:50:00,METAR EGWU 120350Z AUTO 21010KT 9999 FEW031/// 08/05 Q1008
2026-04-12 03:20:00,METAR EGWU 120320Z AUTO 22011KT 9999 NCD 08/04 Q1008
2026-04-12 02:50:00,METAR EGWU 120250Z AUTO 22012KT 9999 FEW028/// 08/04 Q1008
2026-04-12 02:20:00,METAR EGWU 120220Z AUTO 22012KT 9999 NCD 08/04 Q1008
2026-04-12 01:50:00,METAR EGWU 120150Z AUTO 22014KT 9999 FEW025/// 09/04 Q1008
2026-04-12 01:20:00,METAR EGWU 120120Z AUTO 23014KT 9999 FEW030/// 09/04 Q1008
2026-04-12 00:50:00,METAR EGWU 120050Z AUTO 23015KT 9999 NCD 09/04 Q1008
2026-04-12 00:20:00,METAR EGWU 120020Z AUTO 22011KT 9999 NCD 09/04 Q1008
2026-04-11 23:50:00,METAR EGWU 112350Z AUTO 22015KT 9999 FEW028/// 08/04 Q1008
2026-04-11 23:20:00,METAR EGWU 112320Z AUTO 22014KT 9999 FEW028/// 09/04 Q1008
2026-04-11 22:50:00,METAR EGWU 112250Z AUTO 22013KT 9999 NCD 09/04 Q1008
2026-04-11 22:20:00,METAR EGWU 112220Z AUTO 20014G24KT 9999 // FEW033/// 09/04 Q1008
2026-04-11 21:50:00,METAR EGWU 112150Z AUTO 21012KT 9999 // FEW039/// 08/04 Q1008
2026-04-11 21:20:00,METAR EGWU 112120Z AUTO 20011KT 9999 NCD 08/03 Q1008
2026-04-11 20:50:00,METAR EGWU 112050Z AUTO 21013KT 9999 NCD 09/03 Q1009
2026-04-11 20:20:00,METAR EGWU 112020Z AUTO 21013KT 9999 SCT036/// 09/02 Q1009
2026-04-11 19:50:00,METAR EGWU 111950Z 22012KT CAVOK 09/02 Q1008 NOSIG RMK BLU BLU
2026-04-11 19:20:00,METAR EGWU 111920Z AUTO 21012KT 9999 FEW050/// 09/01 Q1008
2026-04-11 18:50:00,METAR EGWU 111850Z 21013KT CAVOK 10/M00 Q1008 NOSIG RMK BLU BLU
2026-04-11 18:20:00,METAR EGWU 111820Z 22016KT CAVOK 10/M01 Q1008 NOSIG RMK BLU BLU
2026-04-11 17:50:00,METAR EGWU 111750Z 23014KT CAVOK 11/M02 Q1007 NOSIG RMK BLU BLU
2026-04-11 17:20:00,METAR EGWU 111720Z 23016KT CAVOK 12/M02 Q1007 TEMPO 24016G26KT RMK BLU TEMPO BLU
2026-04-11 16:50:00,METAR EGWU 111650Z 24016KT CAVOK 12/M02 Q1007 TEMPO 24018G28KT
2026-04-11 16:20:00,METAR EGWU 111620Z 28015KT CAVOK 12/M01 Q1007 TEMPO 26018G28KT RMK BLU TEMPO BLU
2026-04-11 15:50:00,METAR EGWU 111550Z 27020G30KT CAVOK 12/M01 Q1007 NOSIG RMK BLU BLU
2026-04-11 15:20:00,METAR EGWU 111520Z 26018KT 9999 VCSH SCT050 12/M02 Q1006 NOSIG RMK BLU BLU
2026-04-11 14:50:00,METAR EGWU 111450Z 25015KT 9999 VCSH FEW048 12/M00 Q1006 TEMPO 24018G28KT
2026-04-11 14:20:00,METAR EGWU 111420Z 26014KT 9999 FEW040 12/02 Q1007 TEMPO 24018G28KT RMK BLU TEMPO BLU
2026-04-11 13:50:00,METAR EGWU 111350Z 27021G32KT 9999 -SHRA SCT034 10/02 Q1007 NOSIG RMK BLU BLU
2026-04-11 13:20:00,METAR EGWU 111320Z 27014KT CAVOK 13/M00 Q1006 NOSIG RMK BLU BLU
2026-04-11 12:50:00,METAR EGWU 111250Z 25017KT 9999 FEW048 12/M01 Q1006 NOSIG RMK BLU BLU
2026-04-11 12:20:00,METAR EGWU 111220Z 25016KT 9999 FEW045 12/M00 Q1006 NOSIG RMK BLU BLU
2026-04-11 11:50:00,METAR EGWU 111150Z COR 26014KT 9999 SCT040 11/01 Q1006 NOSIG
2026-04-11 11:20:00,METAR EGWU 111120Z AUTO 26015KT 9999 FEW032/// 11/01 Q1005
2026-04-11 10:50:00,METAR EGWU 111050Z 26011KT 9999 FEW026 BKN080 10/03 Q1005 NOSIG RMK BLU BLU
2026-04-11 10:20:00,METAR EGWU 111020Z 27013KT 9999 FEW025 BKN061 09/04 Q1005 NOSIG RMK BLU BLU
2026-04-11 09:50:00,METAR EGWU 110950Z COR 29014KT 9999 FEW020 BKN068 09/04 Q1005 NOSIG
2026-04-11 09:20:00,METAR EGWU 110920Z 29011KT 9999 FEW014 BKN042 08/05 Q1004 NOSIG RMK BLU BLU
2026-04-11 08:50:00,METAR EGWU 110850Z 28015KT 9999 -RADZ FEW009 SCT018 BKN030 08/06 Q1004 TEMPO 9999 NSW BKN030
2026-04-11 08:20:00,METAR EGWU 110820Z 29015KT 9999 -RADZ SCT011 BKN030 08/06 Q1004 TEMPO SCT018 RMK GRN TEMPO WHT
2026-04-11 07:50:00,METAR EGWU 110750Z 22009KT 9999 BKN018 12/08 Q1002 TEMPO 7000 -RA BKN014
2026-04-11 07:20:00,METAR EGWU 110720Z 20008KT 9999 BKN020 12/07 Q1002 TEMPO 7000 -RA RMK WHT TEMPO WHT
2026-04-11 06:50:00,METAR EGWU 110650Z 18007KT 9999 BKN021 BKN038 11/06 Q1002 TEMPO 7000 -RA
2026-04-11 06:20:00,METAR EGWU 110620Z AUTO 17007KT 9999 FEW028/// OVC036/// 11/06 Q1002
2026-04-11 05:50:00,METAR EGWU 110550Z 17009KT 9999 SCT029 BKN038 11/06 Q1002 NOSIG RMK BLU BLU
2026-04-11 05:20:00,METAR EGWU 110520Z AUTO 18009KT 9999 BKN031/// 11/05 Q1003
2026-04-11 04:50:00,METAR EGWU 110450Z AUTO 17010KT 9999 OVC039/// 11/05 Q1003
2026-04-11 04:20:00,METAR EGWU 110420Z AUTO 16009KT 9999 BKN039/// BKN050/// 11/04 Q1003
2026-04-11 03:50:00,METAR EGWU 110350Z AUTO 15011KT 9999 BKN046/// 11/04 Q1004
2026-04-11 03:20:00,METAR EGWU 110320Z AUTO 15010KT 9999 FEW048/// SCT083/// 10/04 Q1004
2026-04-11 02:50:00,METAR EGWU 110250Z AUTO 15011KT 9999 NCD 10/03 Q1004
2026-04-11 02:20:00,METAR EGWU 110220Z AUTO 15011KT 9999 FEW140/// 10/03 Q1005
2026-04-11 01:50:00,METAR EGWU 110150Z AUTO 15012KT 9999 SCT120/// 10/03 Q1006
2026-04-11 01:20:00,METAR EGWU 110120Z AUTO 14013KT 9999 BKN140/// 10/04 Q1006
2026-04-11 00:50:00,METAR EGWU 110050Z AUTO 14012KT 9999 BKN140/// 10/03 Q1007
2026-04-11 00:20:00,METAR EGWU 110020Z AUTO 15011KT 9999 OVC140/// 09/03 Q1008
2026-04-10 23:50:00,METAR EGWU 102350Z AUTO 14010KT 9999 OVC140/// 09/02 Q1009
2026-04-10 23:20:00,METAR EGWU 102320Z AUTO 14008KT 9999 FEW095/// 09/02 Q1009
2026-04-10 22:50:00,METAR EGWU 102250Z AUTO 14008KT 9999 OVC096/// 09/02 Q1010
2026-04-10 22:20:00,METAR EGWU 102220Z AUTO 14007KT 9999 BKN092/// 08/01 Q1011
2026-04-10 21:50:00,METAR EGWU 102150Z AUTO 15006KT 9999 SCT160/// 08/01 Q1011
2026-04-10 21:20:00,METAR EGWU 102120Z AUTO 16009KT 9999 SCT140/// 08/00 Q1012
2026-04-10 20:50:00,METAR EGWU 102050Z 17008KT CAVOK 09/00 Q1012 NOSIG RMK BLU BLU
2026-04-10 20:34:00,SPECI EGWU 102034Z 17008KT CAVOK 09/M00 Q1012 NOSIG RMK BLU BLU
2026-04-10 20:20:00,METAR EGWU 102020Z AUTO 19009KT 9999 NCD 09/M01 Q1013
2026-04-10 19:50:00,METAR EGWU 101950Z 18007KT CAVOK 10/M01 Q1013 NOSIG RMK BLU BLU
2026-04-10 19:20:00,METAR EGWU 101920Z AUTO 19007KT 9999 NCD 10/M00 Q1013
2026-04-10 19:01:00,SPECI EGWU 101901Z 17008KT CAVOK 10/M00 Q1012 NOSIG RMK BLU BLU
2026-04-10 18:50:00,METAR EGWU 101850Z 16008KT CAVOK 10/00 Q1013 NOSIG RMK BLU BLU
2026-04-10 17:50:00,METAR EGWU 101750Z 17009KT CAVOK 10/01 Q1013 NOSIG RMK BLU BLU
2026-04-10 17:20:00,METAR EGWU 101720Z 19007KT CAVOK 11/01 Q1014 NOSIG RMK BLU BLU
2026-04-10 16:50:00,METAR EGWU 101650Z 18009KT CAVOK 11/M00 Q1014 NOSIG RMK BLU BLU
2026-04-10 16:20:00,METAR EGWU 101620Z 19009KT CAVOK 12/M00 Q1015 NOSIG RMK BLU BLU
2026-04-10 15:50:00,METAR EGWU 101550Z 20009KT CAVOK 12/M01 Q1015 NOSIG RMK BLU BLU
2026-04-10 15:20:00,METAR EGWU 101520Z 21010KT 9999 FEW045 OVC250 13/M01 Q1016 NOSIG RMK BLU BLU
2026-04-10 15:20:00,METAR EGWU 101520Z 21010KT 9999 FEW045 OVC250 13/M01 Q1016 NOSIG
2026-04-10 14:50:00,METAR EGWU 101450Z 19011KT CAVOK 13/M01 Q1017 NOSIG RMK BLU BLU
2026-04-10 14:20:00,METAR EGWU 101420Z 22009KT CAVOK 14/M01 Q1017 NOSIG RMK BLU BLU
2026-04-10 13:50:00,METAR EGWU 101350Z 22009KT 9999 FEW045 BKN250 14/00 Q1017 NOSIG RMK BLU BLU
2026-04-10 13:20:00,METAR EGWU 101320Z 20007G17KT 9999 FEW045 BKN250 13/M01 Q1018 NOSIG RMK BLU BLU
2026-04-10 12:50:00,METAR EGWU 101250Z 21008KT 9999 FEW045 BKN250 13/00 Q1018 NOSIG RMK BLU BLU
2026-04-10 12:20:00,METAR EGWU 101220Z 20008KT 9999 FEW045 BKN250 13/M00 Q1019 NOSIG RMK BLU BLU
2026-04-10 11:50:00,METAR EGWU 101150Z 24006KT 9999 FEW045 BKN250 13/01 Q1019 NOSIG RMK BLU BLU
2026-04-10 11:20:00,METAR EGWU 101120Z 23007KT 9999 FEW020 BKN250 11/M00 Q1020 NOSIG RMK BLU BLU
2026-04-10 10:50:00,METAR EGWU 101050Z 22006KT 9999 FEW020 BKN250 10/00 Q1020 NOSIG RMK BLU BLU
2026-04-10 10:20:00,METAR EGWU 101020Z 23006KT 9999 FEW020 OVC250 10/M01 Q1021 NOSIG RMK BLU BLU
2026-04-10 09:50:00,METAR EGWU 100950Z 25005KT 9999 FEW020 BKN250 10/01 Q1021 NOSIG RMK BLU BLU
2026-04-10 09:20:00,METAR EGWU 100920Z 24002KT CAVOK 10/01 Q1021 NOSIG RMK BLU BLU
2026-04-10 08:50:00,METAR EGWU 100850Z 23003KT CAVOK 09/02 Q1021 NOSIG RMK BLU BLU
2026-04-10 08:20:00,METAR EGWU 100820Z 28003KT CAVOK 08/01 Q1021 NOSIG RMK BLU BLU
2026-04-10 07:50:00,METAR EGWU 100750Z 32002KT CAVOK 07/01 Q1021 NOSIG RMK BLU BLU
2026-04-10 07:20:00,METAR EGWU 100720Z 31004KT CAVOK 07/01 Q1020 NOSIG RMK BLU BLU
2026-04-10 06:50:00,METAR EGWU 100650Z 28003KT CAVOK 07/01 Q1021 NOSIG RMK BLU BLU
2026-04-10 06:20:00,METAR EGWU 100620Z 24002KT CAVOK 06/01 Q1020 NOSIG RMK BLU BLU
2026-04-10 05:50:00,METAR EGWU 100550Z 35003KT 9999 FEW020 OVC100 06/01 Q1020 NOSIG RMK BLU BLU
2026-04-10 05:20:00,METAR EGWU 100520Z AUTO 28003KT 9999 NCD 06/01 Q1020
2026-04-10 04:50:00,METAR EGWU 100450Z AUTO 32003KT 9999 FEW120/// 06/01 Q1020
2026-04-10 04:20:00,METAR EGWU 100420Z AUTO 34004KT 9999 OVC120/// 06/01 Q1021
2026-04-10 03:50:00,METAR EGWU 100350Z AUTO 34007KT 9999 OVC130/// 07/01 Q1021
2026-04-10 03:20:00,METAR EGWU 100320Z AUTO 34009KT 9999 SCT130/// 07/00 Q1021
2026-04-10 02:50:00,METAR EGWU 100250Z AUTO 32010KT 9999 OVC120/// 07/00 Q1022
2026-04-10 02:20:00,METAR EGWU 100220Z AUTO 30008KT 9999 BKN140/// 06/00 Q1022
2026-04-10 01:50:00,METAR EGWU 100150Z AUTO 28010KT 9999 FEW150/// 07/00 Q1023
2026-04-10 01:20:00,METAR EGWU 100120Z AUTO 28008KT 9999 FEW140/// 07/00 Q1023
2026-04-10 00:50:00,METAR EGWU 100050Z AUTO 27010KT 9999 NCD 07/M00 Q1023
2026-04-10 00:20:00,METAR EGWU 100020Z AUTO 26009KT 9999 NCD 07/M00 Q1022
2026-04-09 23:50:00,METAR EGWU 092350Z AUTO 27009KT 9999 NCD 07/M00 Q1022
2026-04-09 23:20:00,METAR EGWU 092320Z AUTO 27009KT 9999 NCD 07/00 Q1022
2026-04-09 22:50:00,METAR EGWU 092250Z AUTO 26008KT 9999 NCD 07/00 Q1021
2026-04-09 22:20:00,METAR EGWU 092220Z AUTO 27006KT 9999 NCD 07/00 Q1021
2026-04-09 21:50:00,METAR EGWU 092150Z AUTO 28009KT 9999 NCD 08/00 Q1020
2026-04-09 21:20:00,METAR EGWU 092120Z AUTO 28006KT 9999 NCD 07/01 Q1019
2026-04-09 20:50:00,METAR EGWU 092050Z AUTO 30006KT 9999 NCD 08/01 Q1019
2026-04-09 20:20:00,METAR EGWU 092020Z 30008KT 9999 SKC 09/02 Q1019 NOSIG RMK BLU BLU
2026-04-09 19:50:00,METAR EGWU 091950Z 31011KT 9999 SKC 10/02 Q1019 NOSIG RMK BLU BLU
2026-04-09 19:20:00,METAR EGWU 091920Z 31015KT 9999 SKC 11/03 Q1019 NOSIG RMK BLU BLU
2026-04-09 18:50:00,METAR EGWU 091850Z 30014KT 9999 SCT038 12/04 Q1018 NOSIG RMK BLU BLU
2026-04-09 18:20:00,METAR EGWU 091820Z 28014KT CAVOK 12/05 Q1017 NOSIG RMK BLU BLU
2026-04-09 17:50:00,METAR EGWU 091750Z 28016G27KT CAVOK 13/04 Q1016 NOSIG RMK BLU BLU
2026-04-09 17:20:00,METAR EGWU 091720Z AUTO 27013KT 9999 BKN045/// 13/05 Q1016
2026-04-09 16:50:00,METAR EGWU 091650Z 28015KT 9999 BKN040 13/05 Q1016 NOSIG RMK BLU BLU
2026-04-09 16:20:00,METAR EGWU 091620Z 28017KT 9999 BKN027 13/05 Q1016 NOSIG RMK BLU BLU
2026-04-09 15:50:00,METAR EGWU 091550Z 26015KT 9999 SCT030 BKN250 15/07 Q1016 NOSIG RMK BLU BLU
2026-04-09 15:20:00,METAR EGWU 091520Z AUTO 25013KT 9999 FEW070/// 15/07 Q1016
2026-04-09 14:50:00,METAR EGWU 091450Z 26014KT 9999 FEW030 SCT090 BKN250 16/06 Q1016 NOSIG RMK BLU BLU
2026-04-09 14:20:00,METAR EGWU 091420Z 28013KT CAVOK 17/05 Q1016 NOSIG RMK BLU BLU
2026-04-09 13:50:00,METAR EGWU 091350Z 27014KT 9999 FEW030 BKN250 17/08 Q1016 NOSIG RMK BLU BLU
2026-04-09 13:20:00,METAR EGWU 091320Z 28013KT 9999 FEW030 BKN250 18/08 Q1016 NOSIG RMK BLU BLU
2026-04-09 12:50:00,METAR EGWU 091250Z 27012KT 9999 FEW030 BKN250 19/11 Q1016 NOSIG RMK BLU BLU
2026-04-09 12:20:00,METAR EGWU 091220Z 27012KT CAVOK 19/10 Q1016 NOSIG RMK BLU BLU
2026-04-09 11:50:00,METAR EGWU 091150Z 26011KT CAVOK 20/11 Q1016 NOSIG RMK BLU BLU
2026-04-09 11:20:00,METAR EGWU 091120Z 27009KT CAVOK 20/11 Q1016 NOSIG RMK BLU BLU
2026-04-09 10:50:00,METAR EGWU 091050Z 26010KT CAVOK 19/11 Q1017 NOSIG RMK BLU BLU
2026-04-09 10:20:00,METAR EGWU 091020Z 26010KT CAVOK 20/11 Q1017 NOSIG RMK BLU BLU
2026-04-09 09:50:00,METAR EGWU 090950Z 26007KT CAVOK 19/11 Q1017 NOSIG RMK BLU BLU
2026-04-09 09:20:00,METAR EGWU 090920Z 24006KT CAVOK 18/11 Q1017 NOSIG RMK BLU BLU
2026-04-09 08:50:00,METAR EGWU 090850Z 25007KT CAVOK 16/11 Q1018 NOSIG RMK BLU BLU
2026-04-09 08:20:00,METAR EGWU 090820Z 26005KT CAVOK 16/11 Q1018 NOSIG RMK BLU BLU
2026-04-09 07:50:00,METAR EGWU 090750Z 24003KT CAVOK 15/11 Q1017 NOSIG RMK BLU BLU
2026-04-09 07:20:00,METAR EGWU 090720Z 25003KT CAVOK 14/11 Q1018 NOSIG RMK BLU BLU
2026-04-09 06:50:00,METAR EGWU 090650Z 23001KT CAVOK 13/11 Q1018 NOSIG RMK BLU BLU
2026-04-09 06:20:00,METAR EGWU 090620Z 26001KT CAVOK 11/09 Q1018 NOSIG RMK BLU BLU
2026-04-09 05:50:00,METAR EGWU 090550Z 25001KT CAVOK 12/10 Q1018 NOSIG RMK BLU BLU
2026-04-09 05:20:00,METAR EGWU 090520Z AUTO 15002KT 9999 NCD 12/10 Q1018
2026-04-09 04:50:00,METAR EGWU 090450Z AUTO 19001KT 9999 SCT100/// 12/10 Q1018
2026-04-09 04:20:00,METAR EGWU 090420Z AUTO 23002KT 9999 SCT089/// 12/11 Q1018
2026-04-09 03:50:00,METAR EGWU 090350Z AUTO 22002KT 9999 BKN096/// 12/11 Q1019
2026-04-09 03:20:00,METAR EGWU 090320Z AUTO 00000KT 9999 SCT095/// 10/10 Q1019
2026-04-09 02:50:00,METAR EGWU 090250Z AUTO 00000KT 9999 NCD 10/09 Q1019
2026-04-09 02:20:00,METAR EGWU 090220Z AUTO 23001KT 9999 NCD 11/10 Q1019
2026-04-09 01:50:00,METAR EGWU 090150Z AUTO 23002KT 9999 NCD 11/10 Q1019
2026-04-09 01:20:00,METAR EGWU 090120Z AUTO 18001KT 9999 NCD 12/10 Q1019
2026-04-09 00:50:00,METAR EGWU 090050Z AUTO 00000KT 9999 NCD 12/10 Q1020
2026-04-09 00:20:00,METAR EGWU 090020Z AUTO 15001KT 9999 NCD 12/11 Q1020
2026-04-08 23:50:00,METAR EGWU 082350Z AUTO 28002KT 9999 NCD 13/11 Q1020
2026-04-08 23:20:00,METAR EGWU 082320Z AUTO 30002KT 9999 NCD 14/12 Q1020
2026-04-08 22:50:00,METAR EGWU 082250Z AUTO 30002KT 9999 NCD 14/11 Q1020
2026-04-08 22:20:00,METAR EGWU 082220Z AUTO 31003KT 9999 NCD 14/12 Q1020
2026-04-08 21:50:00,METAR EGWU 082150Z 31002KT CAVOK 15/12 Q1020 TEMPO 7000 BR RMK BLU TEMPO WHT
2026-04-08 21:20:00,METAR EGWU 082120Z 25002KT CAVOK 16/10 Q1020 TEMPO 7000 BR RMK BLU TEMPO WHT
2026-04-08 20:50:00,METAR EGWU 082050Z 20002KT CAVOK 17/11 Q1020 TEMPO 7000 BR
2026-04-08 20:20:00,METAR EGWU 082020Z 26001KT CAVOK 17/11 Q1020 TEMPO 7000 BR RMK BLU TEMPO BLU
2026-04-08 19:50:00,METAR EGWU 081950Z 30001KT CAVOK 19/12 Q1021 TEMPO 7000 BR
2026-04-08 19:20:00,METAR EGWU 081920Z 32002KT CAVOK 20/12 Q1020 TEMPO 7000 BR RMK BLU TEMPO BLU
2026-04-08 18:50:00,METAR EGWU 081850Z 02001KT CAVOK 21/12 Q1020 NOSIG RMK BLU BLU
2026-04-08 18:20:00,METAR EGWU 081820Z 20003KT CAVOK 23/09 Q1020 NOSIG RMK BLU BLU
2026-04-08 17:50:00,METAR EGWU 081750Z 25003KT CAVOK 24/10 Q1020 NOSIG RMK BLU BLU
2026-04-08 17:20:00,METAR EGWU 081720Z 29005KT CAVOK 25/12 Q1020 NOSIG RMK BLU BLU
2026-04-08 16:50:00,METAR EGWU 081650Z 29006KT CAVOK 25/12 Q1020 NOSIG RMK BLU BLU
2026-04-08 16:20:00,METAR EGWU 081620Z 21005KT CAVOK 26/11 Q1020 NOSIG RMK BLU BLU
2026-04-08 15:50:00,METAR EGWU 081550Z 23004KT CAVOK 26/11 Q1020 NOSIG RMK BLU BLU
2026-04-08 15:20:00,METAR EGWU 081520Z 24005KT CAVOK 26/11 Q1020 NOSIG
2026-04-08 14:50:00,METAR EGWU 081450Z AUTO 24008KT 9999 NCD 26/11 Q1021
2026-04-08 14:20:00,METAR EGWU 081420Z 23006KT CAVOK 26/11 Q1021 NOSIG RMK BLU BLU
2026-04-08 13:50:00,METAR EGWU 081350Z 24007KT CAVOK 26/11 Q1021 NOSIG RMK BLU BLU
2026-04-08 13:20:00,METAR EGWU 081320Z 19006KT CAVOK 26/11 Q1021 NOSIG RMK BLU BLU
2026-04-08 12:50:00,METAR EGWU 081250Z 20006KT CAVOK 25/10 Q1021 NOSIG RMK BLU BLU
2026-04-08 12:20:00,METAR EGWU 081220Z 18006KT CAVOK 25/10 Q1022 NOSIG RMK BLU BLU
2026-04-08 11:50:00,METAR EGWU 081150Z 19004KT CAVOK 23/09 Q1022 NOSIG RMK BLU BLU
2026-04-08 11:20:00,METAR EGWU 081120Z 15004KT CAVOK 22/09 Q1022 NOSIG RMK BLU BLU
2026-04-08 10:50:00,METAR EGWU 081050Z 17003KT CAVOK 22/09 Q1023 NOSIG RMK BLU BLU
2026-04-08 10:20:00,METAR EGWU 081020Z 21001KT CAVOK 20/09 Q1023 NOSIG RMK BLU BLU
2026-04-08 09:50:00,METAR EGWU 080950Z 19001KT CAVOK 19/08 Q1023 NOSIG RMK BLU BLU
2026-04-08 09:20:00,METAR EGWU 080920Z 16001KT CAVOK 17/08 Q1023 NOSIG RMK BLU BLU
2026-04-08 08:50:00,METAR EGWU 080850Z 20001KT CAVOK 15/08 Q1023 NOSIG RMK BLU BLU
2026-04-08 08:20:00,METAR EGWU 080820Z 10002KT CAVOK 14/07 Q1023 NOSIG RMK BLU BLU
2026-04-08 07:50:00,METAR EGWU 080750Z 10003KT CAVOK 12/07 Q1023 NOSIG RMK BLU BLU
2026-04-08 07:43:00,SPECI EGWU 080743Z 10003KT CAVOK 12/08 Q1023 NOSIG RMK BLU BLU
2026-04-08 07:34:00,SPECI EGWU 080734Z 10004KT CAVOK 12/08 Q1023 NOSIG RMK BLU BLU
2026-04-08 07:20:00,METAR EGWU 080720Z AUTO 10002KT 9999 NCD 11/08 Q1023
2026-04-08 06:50:00,METAR EGWU 080650Z 07003KT CAVOK 09/07 Q1023 NOSIG RMK BLU BLU
2026-04-08 06:40:00,SPECI EGWU 080640Z 07003KT CAVOK 08/07 Q1022 NOSIG RMK BLU BLU
2026-04-08 06:20:00,METAR EGWU 080620Z AUTO 07003KT 9999 NCD 08/06 Q1022
2026-04-08 05:50:00,METAR EGWU 080550Z AUTO 05003KT 9999 NCD 07/05 Q1022
2026-04-08 05:20:00,METAR EGWU 080520Z AUTO 04003KT 9999 NCD 06/04 Q1022
2026-04-08 04:50:00,METAR EGWU 080450Z AUTO 08003KT 9999 NCD 06/05 Q1022
2026-04-08 04:20:00,METAR EGWU 080420Z AUTO 06002KT 9999 NCD 06/05 Q1022
2026-04-08 03:50:00,METAR EGWU 080350Z AUTO 04003KT 9999 NCD 06/04 Q1022
2026-04-08 03:20:00,METAR EGWU 080320Z AUTO 05001KT 9999 NCD 06/04 Q1022
2026-04-08 02:50:00,METAR EGWU 080250Z AUTO 33001KT 9999 NCD 06/04 Q1022
2026-04-08 02:20:00,METAR EGWU 080220Z AUTO 06001KT 9999 NCD 07/05 Q1022
2026-04-08 01:50:00,METAR EGWU 080150Z AUTO 09003KT 9999 NCD 07/05 Q1022
2026-04-08 01:20:00,METAR EGWU 080120Z AUTO 09002KT 9999 NCD 07/04 Q1022
2026-04-08 00:50:00,METAR EGWU 080050Z AUTO 06003KT 9999 NCD 08/05 Q1022
2026-04-08 00:20:00,METAR EGWU 080020Z AUTO 03004KT 9999 NCD 08/04 Q1022
2026-04-07 23:50:00,METAR EGWU 072350Z AUTO 08003KT 9999 NCD 09/05 Q1022
2026-04-07 23:20:00,METAR EGWU 072320Z AUTO 08005KT 9999 NCD 10/05 Q1022
2026-04-07 22:50:00,METAR EGWU 072250Z AUTO 09004KT 9999 NCD 10/05 Q1022
2026-04-07 22:20:00,METAR EGWU 072220Z 10005KT CAVOK 10/05 Q1022 NOSIG RMK BLU BLU
2026-04-07 21:50:00,METAR EGWU 072150Z 09005KT CAVOK 11/05 Q1022 NOSIG RMK BLU BLU
2026-04-07 21:20:00,METAR EGWU 072120Z 09006KT CAVOK 12/05 Q1022 NOSIG RMK BLU BLU
2026-04-07 20:50:00,METAR EGWU 072050Z 09005KT CAVOK 13/05 Q1022 NOSIG RMK BLU BLU
2026-04-07 20:20:00,METAR EGWU 072020Z 09007KT CAVOK 13/05 Q1022 NOSIG RMK BLU BLU
2026-04-07 19:50:00,METAR EGWU 071950Z 10008KT CAVOK 13/05 Q1022 NOSIG RMK BLU BLU
2026-04-07 19:20:00,METAR EGWU 071920Z 10009KT CAVOK 14/05 Q1022 NOSIG RMK BLU BLU
2026-04-07 18:50:00,METAR EGWU 071850Z 10010KT 9999 SKC 15/05 Q1022 NOSIG RMK BLU BLU
2026-04-07 18:20:00,METAR EGWU 071820Z 10011KT CAVOK 16/05 Q1021 NOSIG RMK BLU BLU
2026-04-07 17:50:00,METAR EGWU 071750Z 11012KT CAVOK 17/05 Q1021 NOSIG RMK BLU BLU
2026-04-07 17:20:00,METAR EGWU 071720Z 11013KT CAVOK 18/06 Q1021 NOSIG RMK BLU BLU
2026-04-07 16:50:00,METAR EGWU 071650Z 10013KT CAVOK 18/05 Q1021 NOSIG RMK BLU BLU
2026-04-07 16:20:00,METAR EGWU 071620Z 10013KT CAVOK 19/05 Q1021 NOSIG RMK BLU BLU
2026-04-07 15:50:00,METAR EGWU 071550Z 11013KT CAVOK 19/04 Q1021 NOSIG RMK BLU BLU
2026-04-07 15:20:00,METAR EGWU 071520Z 10013KT CAVOK 19/04 Q1021 NOSIG RMK BLU BLU
2026-04-07 14:50:00,METAR EGWU 071450Z 12013KT CAVOK 20/04 Q1021 NOSIG RMK BLU BLU
2026-04-07 14:20:00,METAR EGWU 071420Z 10012KT CAVOK 20/05 Q1021 NOSIG RMK BLU BLU
2026-04-07 13:50:00,METAR EGWU 071350Z 11011KT CAVOK 20/06 Q1021 NOSIG RMK BLU BLU
2026-04-07 13:20:00,METAR EGWU 071320Z 12011KT CAVOK 21/06 Q1022 NOSIG RMK BLU BLU
2026-04-07 12:50:00,METAR EGWU 071250Z 12010KT 9999 SKC 19/05 Q1022 NOSIG RMK BLU BLU
2026-04-07 12:20:00,METAR EGWU 071220Z 12009KT 9999 SKC 19/06 Q1022 NOSIG RMK BLU BLU
2026-04-07 11:50:00,METAR EGWU 071150Z 12010KT 9999 SKC 19/06 Q1022 NOSIG RMK BLU BLU
2026-04-07 11:20:00,METAR EGWU 071120Z 11011KT CAVOK 18/05 Q1022 NOSIG RMK BLU BLU
2026-04-07 10:50:00,METAR EGWU 071050Z 11011KT 9999 SKC 18/04 Q1022 NOSIG RMK BLU BLU
2026-04-07 10:20:00,METAR EGWU 071020Z 12012KT CAVOK 17/05 Q1023 NOSIG RMK BLU BLU
2026-04-07 09:50:00,METAR EGWU 070950Z 13012KT 9999 SKC 17/05 Q1023 NOSIG RMK BLU BLU
2026-04-07 09:20:00,METAR EGWU 070920Z 10010KT 9999 SKC 15/05 Q1023 NOSIG RMK BLU BLU
2026-04-07 08:50:00,METAR EGWU 070850Z 10007KT 9999 SKC 14/05 Q1023 NOSIG RMK BLU BLU
2026-04-07 08:20:00,METAR EGWU 070820Z 10006KT 9999 SKC 12/05 Q1023 NOSIG RMK BLU BLU
2026-04-07 07:50:00,METAR EGWU 070750Z 09006KT 9999 SKC 10/05 Q1023 NOSIG RMK BLU BLU
2026-04-07 07:20:00,METAR EGWU 070720Z 08004KT 9999 SKC 09/06 Q1023 NOSIG RMK BLU BLU
2026-04-07 06:50:00,METAR EGWU 070650Z 08005KT 9999 SKC 07/05 Q1023 NOSIG RMK BLU BLU
2026-04-07 06:20:00,METAR EGWU 070620Z 07005KT 9999 SKC 05/04 Q1023 NOSIG RMK BLU BLU
2026-04-07 05:50:00,METAR EGWU 070550Z AUTO 04003KT 9999 NCD 04/02 Q1023
2026-04-07 05:20:00,METAR EGWU 070520Z AUTO 08004KT 9000 NCD 04/03 Q1023
2026-04-07 04:50:00,METAR EGWU 070450Z AUTO 09005KT 9000 BR NCD 04/03 Q1023
2026-04-07 04:20:00,METAR EGWU 070420Z AUTO 08004KT 9000 NCD 05/04 Q1023
2026-04-07 03:50:00,METAR EGWU 070350Z AUTO 06004KT 9999 NCD 04/03 Q1023
2026-04-07 03:20:00,METAR EGWU 070320Z AUTO 08005KT 9999 NCD 05/03 Q1023
2026-04-07 02:50:00,METAR EGWU 070250Z AUTO 10004KT 9999 NCD 06/04 Q1023
2026-04-07 02:20:00,METAR EGWU 070220Z AUTO 08005KT 9999 NCD 05/03 Q1023
2026-04-07 01:50:00,METAR EGWU 070150Z AUTO 09006KT 9999 NCD 05/04 Q1023
2026-04-07 01:20:00,METAR EGWU 070120Z AUTO 08004KT 9999 NCD 05/03 Q1024
2026-04-07 00:50:00,METAR EGWU 070050Z AUTO 09005KT 9999 NCD 05/03 Q1024
2026-04-07 00:20:00,METAR EGWU 070020Z AUTO 08005KT 9999 NCD 05/02 Q1024
2026-04-06 23:50:00,METAR EGWU 062350Z AUTO 08005KT 9999 NCD 06/02 Q1024
2026-04-06 23:20:00,METAR EGWU 062320Z AUTO 09005KT 9999 NCD 06/02 Q1024
2026-04-06 22:50:00,METAR EGWU 062250Z AUTO 08005KT 9999 NCD 07/01 Q1024
2026-04-06 22:20:00,METAR EGWU 062220Z 10004KT CAVOK 07/01 Q1024 NOSIG RMK BLU BLU
2026-04-06 21:50:00,METAR EGWU 062150Z 11004KT CAVOK 07/00 Q1024 NOSIG RMK BLU BLU
2026-04-06 21:20:00,METAR EGWU 062120Z 12003KT CAVOK 08/M00 Q1024 NOSIG RMK BLU BLU
2026-04-06 20:50:00,METAR EGWU 062050Z 12003KT CAVOK 09/M01 Q1024 NOSIG RMK BLU BLU
2026-04-06 20:20:00,METAR EGWU 062020Z 14005KT CAVOK 10/M01 Q1024 NOSIG RMK BLU BLU
2026-04-06 19:50:00,METAR EGWU 061950Z 16004KT CAVOK 11/M02 Q1024 NOSIG RMK BLU BLU
2026-04-06 19:20:00,METAR EGWU 061920Z 16006KT CAVOK 11/M03 Q1024 NOSIG RMK BLU BLU
2026-04-06 18:50:00,METAR EGWU 061850Z 15006KT CAVOK 12/M03 Q1024 NOSIG RMK BLU BLU
2026-04-06 18:20:00,METAR EGWU 061820Z 15007KT CAVOK 13/M01 Q1024 NOSIG RMK BLU BLU
2026-04-06 17:50:00,METAR EGWU 061750Z 16008KT CAVOK 14/M01 Q1024 NOSIG RMK BLU BLU
2026-04-06 17:20:00,METAR EGWU 061720Z 16009KT CAVOK 15/00 Q1024 NOSIG RMK BLU BLU
2026-04-06 16:50:00,METAR EGWU 061650Z 14009KT CAVOK 16/00 Q1024 NOSIG RMK BLU BLU
2026-04-06 16:20:00,METAR EGWU 061620Z 15009KT CAVOK 16/01 Q1024 NOSIG RMK BLU BLU
2026-04-06 15:50:00,METAR EGWU 061550Z 16008KT CAVOK 17/02 Q1024 NOSIG RMK BLU BLU
2026-04-06 14:50:00,METAR EGWU 061450Z 16008KT CAVOK 17/02 Q1025 NOSIG RMK BLU BLU
2026-04-06 14:20:00,METAR EGWU 061420Z 14009KT CAVOK 16/01 Q1025 NOSIG RMK BLU BLU
2026-04-06 13:50:00,METAR EGWU 061350Z 17008KT CAVOK 16/M00 Q1025 NOSIG RMK BLU BLU
2026-04-06 13:20:00,METAR EGWU 061320Z 19007KT CAVOK 16/00 Q1025 NOSIG RMK BLU BLU
2026-04-06 12:50:00,METAR EGWU 061250Z 15007KT CAVOK 15/00 Q1026 NOSIG RMK BLU BLU
2026-04-06 12:20:00,METAR EGWU 061220Z 14009KT CAVOK 15/01 Q1026 NOSIG RMK BLU BLU
2026-04-06 11:50:00,METAR EGWU 061150Z 18007KT CAVOK 14/01 Q1026 NOSIG RMK BLU BLU
2026-04-06 11:20:00,METAR EGWU 061120Z 15008KT CAVOK 14/01 Q1027 NOSIG RMK BLU BLU
2026-04-06 10:50:00,METAR EGWU 061050Z 17008KT CAVOK 14/00 Q1027 NOSIG RMK BLU BLU
2026-04-06 10:20:00,METAR EGWU 061020Z 19006KT CAVOK 13/02 Q1027 NOSIG RMK BLU BLU
2026-04-06 09:50:00,METAR EGWU 060950Z 17006KT CAVOK 12/02 Q1027 NOSIG RMK BLU BLU
2026-04-06 09:20:00,METAR EGWU 060920Z 13004KT CAVOK 12/02 Q1027 NOSIG RMK BLU BLU
2026-04-06 08:50:00,METAR EGWU 060850Z 12004KT CAVOK 10/03 Q1027 NOSIG RMK BLU BLU
2026-04-06 08:20:00,METAR EGWU 060820Z 12004KT CAVOK 08/03 Q1027 NOSIG RMK BLU BLU
2026-04-06 07:50:00,METAR EGWU 060750Z 10002KT CAVOK 06/03 Q1027 NOSIG RMK BLU BLU
2026-04-06 07:20:00,METAR EGWU 060720Z 10001KT CAVOK 04/03 Q1027 NOSIG RMK BLU BLU
2026-04-06 06:50:00,METAR EGWU 060650Z 03001KT CAVOK 02/01 Q1027 NOSIG RMK BLU BLU
2026-04-06 06:20:00,METAR EGWU 060620Z 32001KT CAVOK 00/M01 Q1027 NOSIG RMK BLU BLU
2026-04-06 05:50:00,METAR EGWU 060550Z 00000KT 9999 BKN025 00/M01 Q1027 NOSIG RMK BLU BLU
2026-04-06 05:20:00,METAR EGWU 060520Z AUTO 00000KT 9999 NCD M00/M01 Q1026
2026-04-06 04:50:00,METAR EGWU 060450Z AUTO 00000KT 9999 NCD M00/M02 Q1026
2026-04-06 04:20:00,METAR EGWU 060420Z AUTO 09002KT 9999 NCD 01/M01 Q1026
2026-04-06 03:50:00,METAR EGWU 060350Z AUTO 28001KT 9999 NCD 00/M01 Q1026
2026-04-06 03:20:00,METAR EGWU 060320Z AUTO 00000KT 9999 NCD 01/M01 Q1026
2026-04-06 02:50:00,METAR EGWU 060250Z AUTO 03001KT 9999 NCD 01/M01 Q1026
2026-04-06 02:20:00,METAR EGWU 060220Z AUTO 22002KT 9999 NCD 01/M00 Q1026
2026-04-06 01:50:00,METAR EGWU 060150Z AUTO 14001KT 9999 NCD 01/M02 Q1026
2026-04-06 01:20:00,METAR EGWU 060120Z AUTO 13002KT 9999 NCD 02/00 Q1026
2026-04-06 00:50:00,METAR EGWU 060050Z AUTO 13001KT 9999 NCD 03/00 Q1026
2026-04-06 00:20:00,METAR EGWU 060020Z AUTO 21002KT 9999 NCD 03/M00 Q1026
2026-04-05 23:50:00,METAR EGWU 052350Z AUTO 19002KT 9999 NCD 03/M00 Q1026
2026-04-05 23:20:00,METAR EGWU 052320Z AUTO 19001KT 9999 NCD 04/M00 Q1025
2026-04-05 22:50:00,METAR EGWU 052250Z AUTO 31003KT 9999 NCD 05/M00 Q1025
2026-04-05 22:20:00,METAR EGWU 052220Z AUTO 27002KT 9999 NCD 06/M00 Q1025
2026-04-05 21:50:00,METAR EGWU 052150Z AUTO 27004KT 9999 NCD 07/00 Q1025
2026-04-05 21:20:00,METAR EGWU 052120Z AUTO 26005KT 9999 NCD 07/00 Q1025
2026-04-05 20:50:00,METAR EGWU 052050Z AUTO 28006KT 9999 NCD 08/00 Q1024
2026-04-05 20:20:00,METAR EGWU 052020Z AUTO 27007KT 9999 NCD 08/00 Q1024
2026-04-05 19:50:00,METAR EGWU 051950Z AUTO 27008KT 9999 NCD 09/M00 Q1024
2026-04-05 19:20:00,METAR EGWU 051920Z 28009KT CAVOK 09/M00 Q1023 NOSIG RMK BLU BLU
2026-04-05 18:50:00,METAR EGWU 051850Z 27012KT CAVOK 10/M01 Q1022 NOSIG RMK BLU BLU
2026-04-05 18:20:00,METAR EGWU 051820Z 27012KT CAVOK 11/M01 Q1022 NOSIG RMK BLU BLU
2026-04-05 17:50:00,METAR EGWU 051750Z 27012KT CAVOK 11/M01 Q1021 NOSIG RMK BLU BLU
2026-04-05 17:20:00,METAR EGWU 051720Z 29009KT CAVOK 12/00 Q1021 NOSIG RMK BLU BLU
2026-04-05 16:50:00,METAR EGWU 051650Z 30013KT CAVOK 12/M00 Q1021 NOSIG RMK BLU BLU
2026-04-05 16:20:00,METAR EGWU 051620Z 30015KT CAVOK 12/00 Q1021 NOSIG RMK BLU BLU
2026-04-05 15:50:00,METAR EGWU 051550Z 28014KT CAVOK 13/M01 Q1020 NOSIG RMK BLU BLU
2026-04-05 15:20:00,METAR EGWU 051520Z 27017KT CAVOK 12/M01 Q1020 NOSIG RMK BLU BLU
2026-04-05 14:50:00,METAR EGWU 051450Z 27019KT CAVOK 14/M00 Q1020 NOSIG RMK BLU BLU
2026-04-05 12:50:00,METAR EGWU 051250Z 29018KT CAVOK 13/01 Q1018 NOSIG RMK BLU BLU
2026-04-05 12:20:00,METAR EGWU 051220Z 27017KT CAVOK 12/M00 Q1018 NOSIG RMK BLU BLU
2026-04-05 11:50:00,METAR EGWU 051150Z 27020KT 9999 SCT040 12/M00 Q1018 NOSIG RMK BLU BLU
2026-04-05 11:20:00,METAR EGWU 051120Z 29019KT 9999 SCT040 12/01 Q1017 NOSIG RMK BLU BLU
2026-04-05 10:50:00,METAR EGWU 051050Z 29017KT 9999 BKN038 11/02 Q1017 NOSIG RMK BLU BLU
2026-04-05 10:20:00,METAR EGWU 051020Z 28018KT 9999 BKN036 11/03 Q1016 7000 SHRA RMK BLU 7000 WHT
2026-04-05 09:50:00,METAR EGWU 050950Z AUTO 27020KT 9999 FEW027/// OVC032/// 11/03 Q1016
2026-04-05 09:20:00,METAR EGWU 050920Z AUTO 26016KT 9999 // OVC027/// 11/05 Q1015
2026-04-05 08:50:00,METAR EGWU 050850Z 27012KT 9999 BKN027 10/05 Q1015 7000 SHRA
2026-04-05 08:20:00,METAR EGWU 050820Z 26014KT 9999 OVC023 10/05 Q1014 7000 SHRA RMK WHT 7000 WHT
2026-04-05 07:50:00,METAR EGWU 050750Z 25012KT 9999 SCT027 BKN033 09/05 Q1014 7000 SHRA
2026-04-05 07:20:00,METAR EGWU 050720Z 30004KT 9999 -DZ OVC021 08/05 Q1013 TEMPO 7000 SHRA RMK WHT TEMPO WHT
2026-04-05 06:50:00,METAR EGWU 050650Z 28004KT 9999 OVC024 08/04 Q1013 TEMPO 7000 SHRA
2026-04-05 06:20:00,METAR EGWU 050620Z 25007KT 9999 FEW025 BKN034 08/03 Q1012 7000 SHRA RMK BLU 7000 WHT
2026-04-05 05:50:00,METAR EGWU 050550Z 26008KT 9999 SCT043 08/03 Q1012 NOSIG RMK BLU BLU
2026-04-05 05:20:00,METAR EGWU 050520Z AUTO 26009KT 9999 NCD 07/03 Q1011
2026-04-05 04:50:00,METAR EGWU 050450Z AUTO 26011KT 9999 NCD 08/03 Q1011
2026-04-05 04:20:00,METAR EGWU 050420Z AUTO 26014KT 9999 FEW190/// 09/03 Q1010
2026-04-05 03:50:00,METAR EGWU 050350Z AUTO 26013KT 9999 NCD 09/04 Q1010
2026-04-05 03:20:00,METAR EGWU 050320Z AUTO 25012KT 9999 FEW035/// 09/04 Q1009
2026-04-05 02:50:00,METAR EGWU 050250Z AUTO 25014KT 9999 SCT032/// 09/04 Q1009
2026-04-05 02:20:00,METAR EGWU 050220Z AUTO 25017KT 9999 SCT038/// 10/04 Q1008
2026-04-05 01:50:00,METAR EGWU 050150Z AUTO 25016G29KT 9999 OVC034/// 10/05 Q1008
2026-04-05 01:20:00,METAR EGWU 050120Z AUTO 25013KT 9999 SCT035/// 10/05 Q1007
2026-04-05 00:50:00,METAR EGWU 050050Z AUTO 26019G30KT 9999 // NCD 10/05 Q1007
2026-04-05 00:20:00,METAR EGWU 050020Z AUTO 26020G35KT 9999 // SCT015/// 10/05 Q1006
2026-04-04 23:50:00,METAR EGWU 042350Z AUTO 24020KT 9999 -DZ OVC017/// 12/09 Q1005
2026-04-04 23:20:00,METAR EGWU 042320Z AUTO 23018G28KT 9999 OVC018/// 12/08 Q1005
2026-04-04 22:50:00,METAR EGWU 042250Z AUTO 23020G31KT 9999 OVC021/// 12/08 Q1005
2026-04-04 22:20:00,METAR EGWU 042220Z AUTO 22020KT 9999 OVC023/// 12/07 Q1005
2026-04-04 21:50:00,METAR EGWU 042150Z AUTO 22018KT 9999 OVC025/// 12/07 Q1006
2026-04-04 21:20:00,METAR EGWU 042120Z AUTO 22018KT 9999 BKN030/// 12/06 Q1006
2026-04-04 20:50:00,METAR EGWU 042050Z AUTO 22016KT 9999 BKN026/// 11/06 Q1007
2026-04-04 20:20:00,METAR EGWU 042020Z AUTO 23015KT 9999 BKN025/// 12/07 Q1007
2026-04-04 19:50:00,METAR EGWU 041950Z AUTO 23015KT 9999 BKN025/// 12/07 Q1008
2026-04-04 19:20:00,METAR EGWU 041920Z AUTO 22018G28KT 9999 OVC025/// 12/07 Q1008
2026-04-04 18:50:00,METAR EGWU 041850Z 23017G28KT 9999 FEW032 BKN250 13/07 Q1008 NOSIG RMK BLU BLU
2026-04-04 18:20:00,METAR EGWU 041820Z 23016KT 9999 FEW032 BKN250 13/08 Q1008 NOSIG RMK BLU BLU
2026-04-04 17:50:00,METAR EGWU 041750Z 22016G26KT 9999 SCT032 14/09 Q1009 NOSIG RMK BLU BLU
2026-04-04 17:20:00,METAR EGWU 041720Z 21014KT 9999 SCT030 BKN040 14/09 Q1009 NOSIG RMK BLU BLU
2026-04-04 16:50:00,METAR EGWU 041650Z 22015KT 9999 BKN025 14/09 Q1010 NOSIG RMK BLU BLU
2026-04-04 16:20:00,METAR EGWU 041620Z 22016KT 9999 BKN026 13/09 Q1011 NOSIG RMK BLU BLU
2026-04-04 15:50:00,METAR EGWU 041550Z 22016KT 9999 BKN025 13/08 Q1011 NOSIG RMK BLU BLU
2026-04-04 15:20:00,METAR EGWU 041520Z 23017KT 9999 BKN025 14/08 Q1012 NOSIG RMK BLU BLU
2026-04-04 14:50:00,METAR EGWU 041450Z 23017G27KT 9999 BKN027 14/07 Q1012 NOSIG RMK BLU BLU
2026-04-04 14:20:00,METAR EGWU 041420Z COR 23018KT 9999 BKN029 15/07 Q1013 NOSIG
2026-04-04 13:50:00,METAR EGWU 041350Z 21017KT 9999 BKN026 14/07 Q1014 NOSIG RMK BLU BLU
2026-04-04 13:20:00,METAR EGWU 041320Z 22017KT 9999 SCT025 BKN060 14/07 Q1014 NOSIG RMK BLU BLU
2026-04-04 12:50:00,METAR EGWU 041250Z 22018KT 9999 FEW020 BKN024 14/08 Q1015 BECMG BKN025
2026-04-04 12:20:00,METAR EGWU 041220Z 21016KT 9999 SCT018 BKN025 14/09 Q1015 BECMG FEW020 BKN025 RMK WHT BECMG BLU
2026-04-04 11:50:00,METAR EGWU 041150Z 21014KT 9999 SCT018 SCT032 15/10 Q1015 BECMG BKN025
2026-04-04 11:20:00,METAR EGWU 041120Z AUTO 22013KT 9999 -DZ OVC014/// 14/10 Q1015
2026-04-04 10:50:00,METAR EGWU 041050Z 21014KT 9999 SCT015 BKN020 13/10 Q1016 NOSIG RMK WHT WHT
2026-04-04 10:20:00,METAR EGWU 041020Z 21014KT 9999 FEW014 BKN017 14/10 Q1016 NOSIG RMK WHT WHT
2026-04-04 09:50:00,METAR EGWU 040950Z COR 21011KT 9999 FEW013 BKN016 13/10 Q1016 NOSIG
2026-04-04 09:20:00,METAR EGWU 040920Z 20006KT 9999 FEW013 BKN016 12/09 Q1017 NOSIG RMK WHT WHT
2026-04-04 08:50:00,METAR EGWU 040850Z 21008KT 9999 -RA BKN015 11/08 Q1017 TEMPO 9999 NSW
2026-04-04 08:20:00,METAR EGWU 040820Z 20007KT 9999 SCT026 BKN050 11/07 Q1017 TEMPO SCT024 RMK BLU TEMPO WHT
2026-04-04 07:50:00,METAR EGWU 040750Z 20007KT 9999 BKN030 10/07 Q1017 NOSIG RMK BLU BLU
2026-04-04 07:20:00,METAR EGWU 040720Z 22006KT 9999 SCT042 BKN060 10/07 Q1017 NOSIG RMK BLU BLU
2026-04-04 06:50:00,METAR EGWU 040650Z 20006KT 9999 FEW045 BKN052 09/07 Q1017 NOSIG RMK BLU BLU
2026-04-04 06:20:00,METAR EGWU 040620Z AUTO 20004KT 9999 FEW058/// 08/06 Q1017
2026-04-04 05:50:00,METAR EGWU 040550Z 20002KT CAVOK 07/05 Q1017 NOSIG RMK BLU BLU
2026-04-04 05:20:00,METAR EGWU 040520Z AUTO 22003KT 9999 OVC130/// 07/05 Q1017
2026-04-04 04:50:00,METAR EGWU 040450Z AUTO 22003KT 9999 SCT140/// 07/05 Q1017
2026-04-04 04:20:00,METAR EGWU 040420Z AUTO 25004KT 9999 BKN140/// 08/06 Q1017
2026-04-04 03:50:00,METAR EGWU 040350Z AUTO 25007KT 9999 NCD 08/06 Q1017
2026-04-04 03:20:00,METAR EGWU 040320Z AUTO 25007KT 9999 NCD 08/06 Q1017
2026-04-04 02:50:00,METAR EGWU 040250Z AUTO 25006KT 9999 NCD 08/06 Q1016
2026-04-04 02:20:00,METAR EGWU 040220Z AUTO 26007KT 9999 NCD 09/06 Q1016
2026-04-04 01:50:00,METAR EGWU 040150Z AUTO 25008KT 9999 NCD 09/06 Q1016
2026-04-04 01:20:00,METAR EGWU 040120Z AUTO 25007KT 9999 NCD 09/06 Q1016
2026-04-04 00:50:00,METAR EGWU 040050Z AUTO 25009KT 9999 SCT055/// 09/06 Q1016
2026-04-04 00:20:00,METAR EGWU 040020Z AUTO 25008KT 9999 SCT055/// 10/06 Q1016
2026-04-03 23:50:00,METAR EGWU 032350Z AUTO 26010KT 9999 NCD 10/06 Q1015
2026-04-03 23:20:00,METAR EGWU 032320Z AUTO 25009KT 9999 FEW048/// 10/06 Q1015
2026-04-03 22:50:00,METAR EGWU 032250Z AUTO 25010KT 9999 SCT047/// 10/06 Q1014
2026-04-03 22:20:00,METAR EGWU 032220Z AUTO 25008KT 9999 NCD 11/06 Q1014
2026-04-03 21:50:00,METAR EGWU 032150Z AUTO 26011KT 9999 BKN068/// 11/06 Q1014
2026-04-03 21:20:00,METAR EGWU 032120Z AUTO 26013KT 9999 NCD 12/06 Q1013
2026-04-03 20:50:00,METAR EGWU 032050Z AUTO 27014KT 9999 BKN073/// 12/06 Q1013
2026-04-03 20:20:00,METAR EGWU 032020Z AUTO 27017KT 9999 NCD 12/06 Q1012
2026-04-03 19:50:00,METAR EGWU 031950Z AUTO 27022G33KT 9999 FEW029/// 13/07 Q1012
2026-04-03 19:20:00,METAR EGWU 031920Z AUTO 26019G29KT 9999 SCT024/// 14/08 Q1011
2026-04-03 18:50:00,METAR EGWU 031850Z 27015G29KT 9999 // FEW028 BKN044 14/09 Q1010 NOSIG
2026-04-03 18:20:00,METAR EGWU 031820Z 26017KT 9999 SCT026 BKN040 15/09 Q1010 TEMPO BKN024 RMK BLU TEMPO WHT
2026-04-03 17:50:00,METAR EGWU 031750Z 26019G30KT 9999 SCT024 BKN040 15/10 Q1010 TEMPO BKN025
2026-04-03 17:20:00,METAR EGWU 031720Z 26015G27KT 9999 BKN022 BKN040 15/10 Q1009 TEMPO BKN025 RMK WHT TEMPO BLU
2026-04-03 16:50:00,METAR EGWU 031650Z 26019KT 9999 SCT024 BKN040 15/10 Q1009 TEMPO BKN025
2026-04-03 16:20:00,METAR EGWU 031620Z 25015KT 9999 SCT024 BKN040 16/11 Q1009 TEMPO BKN025 RMK WHT TEMPO BLU
2026-04-03 15:50:00,METAR EGWU 031550Z 26017KT 9999 SCT024 BKN040 15/10 Q1009 TEMPO BKN025
2026-04-03 15:20:00,METAR EGWU 031520Z AUTO 25017KT 9999 OVC019/// 15/11 Q1009
2026-04-03 14:50:00,METAR EGWU 031450Z 24016KT 9999 SCT020 BKN030 15/11 Q1009 TEMPO BKN025
2026-04-03 14:20:00,METAR EGWU 031420Z 24012KT 9999 BKN022 BKN030 16/11 Q1009 TEMPO BKN025 RMK WHT TEMPO BLU
2026-04-03 13:50:00,METAR EGWU 031350Z 24014KT 9999 BKN022 15/10 Q1009 TEMPO BKN025
2026-04-03 13:20:00,METAR EGWU 031320Z 25017KT 9999 BKN023 15/10 Q1009 TEMPO BKN025 RMK WHT TEMPO BLU
2026-04-03 12:50:00,METAR EGWU 031250Z 25014KT 9999 BKN023 16/10 Q1009 TEMPO 25015G25KT BKN025
2026-04-03 12:20:00,METAR EGWU 031220Z 24012KT 9999 BKN021 15/10 Q1010 NOSIG RMK WHT WHT
2026-04-03 11:50:00,METAR EGWU 031150Z 23013KT 9999 BKN019 14/10 Q1010 NOSIG RMK WHT WHT
2026-04-03 11:20:00,METAR EGWU 031120Z 23012KT 9999 BKN015 13/10 Q1010 NOSIG RMK WHT WHT
2026-04-03 10:50:00,METAR EGWU 031050Z 23011KT 9999 SCT012 BKN015 13/10 Q1010 BECMG BKN015
2026-04-03 10:20:00,METAR EGWU 031020Z 22010KT 9999 SCT010 BKN015 13/10 Q1010 BECMG BKN015 RMK GRN BECMG WHT
2026-04-03 09:50:00,METAR EGWU 030950Z 22013KT 9999 SCT009 BKN015 12/10 Q1010 NOSIG RMK GRN GRN
2026-04-03 09:20:00,METAR EGWU 030920Z 21012KT 9999 BKN010 11/10 Q1010 NOSIG RMK GRN GRN
2026-04-03 08:50:00,METAR EGWU 030850Z 22011KT 9999 -RADZ BKN008 11/10 Q1011 TEMPO 7000 SCT006
2026-04-03 08:20:00,METAR EGWU 030820Z 21011KT 9999 -RADZ BKN009 10/09 Q1011 TEMPO 7000 SCT006 RMK GRN TEMPO YLO1
2026-04-03 07:50:00,METAR EGWU 030750Z 21011KT 9999 -RADZ BKN010 10/08 Q1011 TEMPO 7000
2026-04-03 07:20:00,METAR EGWU 030720Z 22012KT 9999 BKN012 10/08 Q1011 TEMPO 7000 RA RMK GRN TEMPO GRN
2026-04-03 06:50:00,METAR EGWU 030650Z 21009KT 9999 BKN009 09/08 Q1012 TEMPO 7000 RA
2026-04-03 06:20:00,METAR EGWU 030620Z AUTO 21010KT 9999 -DZ OVC009/// 09/08 Q1012
2026-04-03 05:50:00,METAR EGWU 030550Z 21011KT 9999 -RA BKN011 09/07 Q1012 TEMPO 7000 RA
2026-04-03 05:20:00,METAR EGWU 030520Z AUTO 21010KT 9999 -DZ OVC013/// 09/07 Q1012
2026-04-03 04:50:00,METAR EGWU 030450Z AUTO 21009KT 9999 -DZ OVC015/// 09/06 Q1013
2026-04-03 04:20:00,METAR EGWU 030420Z AUTO 21009KT 9999 -RA OVC014/// 08/06 Q1013
2026-04-03 03:50:00,METAR EGWU 030350Z AUTO 21009KT 9999 -RA SCT015/// BKN028/// BKN041/// 08/06 Q1013
2026-04-03 03:20:00,METAR EGWU 030320Z AUTO 21008KT 9999 -DZ OVC032/// 08/06 Q1014
2026-04-03 02:50:00,METAR EGWU 030250Z AUTO 21008KT 9999 -RA OVC036/// 08/06 Q1014
2026-04-03 02:20:00,METAR EGWU 030220Z AUTO 21008KT 9999 OVC039/// 08/05 Q1014
2026-04-03 01:50:00,METAR EGWU 030150Z AUTO 21007KT 9999 BKN040/// 08/05 Q1015
2026-04-03 01:20:00,METAR EGWU 030120Z AUTO 21008KT 9999 FEW019/// SCT057/// 08/05 Q1015
2026-04-03 00:50:00,METAR EGWU 030050Z AUTO 22007KT 9999 BKN020/// BKN076/// 08/05 Q1016
2026-04-03 00:20:00,METAR EGWU 030020Z AUTO 22007KT 9999 FEW080/// SCT099/// 08/05 Q1016
2026-04-02 23:50:00,METAR EGWU 022350Z AUTO 21007KT 9999 FEW080/// 08/05 Q1017
2026-04-02 23:20:00,METAR EGWU 022320Z AUTO 22008KT 9999 OVC080/// 08/05 Q1017
2026-04-02 22:50:00,METAR EGWU 022250Z AUTO 22008KT 9999 BKN081/// 09/05 Q1017
2026-04-02 22:20:00,METAR EGWU 022220Z AUTO 22008KT 9999 OVC081/// 09/04 Q1018
2026-04-02 21:50:00,METAR EGWU 022150Z 22008KT 9999 SCT031 OVC085 09/04 Q1018 NOSIG RMK BLU BLU
2026-04-02 21:20:00,METAR EGWU 022120Z 21008KT 9999 FEW030 OVC100 09/04 Q1018 NOSIG RMK BLU BLU
2026-04-02 20:50:00,METAR EGWU 022050Z 21008KT CAVOK 09/04 Q1018 NOSIG RMK BLU BLU
2026-04-02 20:20:00,METAR EGWU 022020Z 22006KT CAVOK 08/02 Q1019 NOSIG RMK BLU BLU
2026-04-02 19:50:00,METAR EGWU 021950Z 21003KT CAVOK 09/01 Q1019 NOSIG RMK BLU BLU
2026-04-02 19:20:00,METAR EGWU 021920Z 24005KT CAVOK 09/01 Q1019 NOSIG RMK BLU BLU
2026-04-02 18:50:00,METAR EGWU 021850Z 21003KT CAVOK 09/01 Q1019 NOSIG RMK BLU BLU
2026-04-02 18:20:00,METAR EGWU 021820Z 20003KT CAVOK 10/01 Q1019 NOSIG RMK BLU BLU
2026-04-02 17:50:00,METAR EGWU 021750Z 22004KT CAVOK 11/01 Q1019 NOSIG RMK BLU BLU
2026-04-02 17:20:00,METAR EGWU 021720Z 23006KT CAVOK 12/01 Q1019 NOSIG RMK BLU BLU
2026-04-02 16:50:00,METAR EGWU 021650Z 21003KT 9999 FEW045 13/01 Q1020 NOSIG RMK BLU BLU
2026-04-02 16:20:00,METAR EGWU 021620Z 14002KT 9999 FEW045 13/01 Q1020 NOSIG RMK BLU BLU
2026-04-02 15:50:00,METAR EGWU 021550Z 25003KT 9999 FEW045 12/01 Q1020 NOSIG
2026-04-02 15:50:00,METAR EGWU 021550Z 25003KT 9999 FEW045 12/01 Q1020 NOSIG RMK BLU BLU
2026-04-02 15:20:00,METAR EGWU 021520Z 31002KT 9999 FEW042 11/00 Q1020 NOSIG RMK BLU BLU
2026-04-02 14:50:00,METAR EGWU 021450Z 28006KT 9999 FEW042 12/02 Q1021 NOSIG RMK BLU BLU
2026-04-02 14:20:00,METAR EGWU 021420Z 27006KT 9999 FEW041 11/01 Q1021 NOSIG RMK BLU BLU
2026-04-02 13:50:00,METAR EGWU 021350Z 36005KT 9999 FEW037 11/01 Q1021 NOSIG RMK BLU BLU
2026-04-02 13:20:00,METAR EGWU 021320Z 31004KT 9999 FEW034 10/01 Q1021 NOSIG RMK BLU BLU
2026-04-02 12:50:00,METAR EGWU 021250Z 08004KT 9999 SCT032 09/01 Q1022 NOSIG RMK BLU BLU
2026-04-02 12:20:00,METAR EGWU 021220Z 33006KT 9999 BKN030 09/02 Q1022 NOSIG RMK BLU BLU
2026-04-02 11:50:00,METAR EGWU 021150Z 04006KT 9999 BKN029 09/01 Q1022 NOSIG RMK BLU BLU
2026-04-02 11:20:00,METAR EGWU 021120Z 02006KT 9999 BKN029 08/02 Q1022 NOSIG RMK BLU BLU
2026-04-02 10:50:00,METAR EGWU 021050Z 04008KT 9999 BKN024 07/02 Q1022 TEMPO BKN025
2026-04-02 10:20:00,METAR EGWU 021020Z 02008KT 9999 BKN023 07/02 Q1022 TEMPO BKN025 RMK WHT TEMPO BLU
2026-04-02 09:50:00,METAR EGWU 020950Z 02007KT 9999 BKN023 07/02 Q1022 TEMPO BKN025
2026-04-02 09:20:00,METAR EGWU 020920Z 01009KT 9999 BKN025 07/02 Q1022 NOSIG RMK BLU BLU
2026-04-02 08:50:00,METAR EGWU 020850Z 01009KT 9999 BKN025 07/02 Q1022 NOSIG RMK BLU BLU
2026-04-02 08:20:00,METAR EGWU 020820Z 01009KT 9999 BKN026 07/02 Q1022 NOSIG RMK BLU BLU
2026-04-02 07:50:00,METAR EGWU 020750Z 01012KT 9999 BKN025 06/02 Q1022 NOSIG RMK BLU BLU
2026-04-02 07:20:00,METAR EGWU 020720Z 01009KT 9999 BKN021 06/02 Q1021 TEMPO FEW021 RMK WHT TEMPO BLU
2026-04-02 06:50:00,METAR EGWU 020650Z 01009KT 9999 SCT017 06/02 Q1021 TEMPO FEW017
2026-04-02 06:20:00,METAR EGWU 020620Z 34006KT 9999 FEW017 05/02 Q1021 NOSIG RMK BLU BLU
2026-04-02 05:50:00,METAR EGWU 020550Z 34007KT 9999 FEW030 05/02 Q1020 NOSIG RMK BLU BLU
2026-04-02 05:20:00,METAR EGWU 020520Z AUTO 34007KT 9999 NCD 05/02 Q1020
2026-04-02 04:50:00,METAR EGWU 020450Z AUTO 33007KT 9999 NCD 05/01 Q1020
2026-04-02 04:20:00,METAR EGWU 020420Z AUTO 33007KT 9999 NCD 06/01 Q1020
2026-04-02 03:50:00,METAR EGWU 020350Z AUTO 34010KT 9999 SCT060/// 07/01 Q1019
2026-04-02 03:20:00,METAR EGWU 020320Z AUTO 34011KT 9999 OVC048/// 08/01 Q1020
2026-04-02 02:50:00,METAR EGWU 020250Z AUTO 34015KT 9999 BKN031/// SCT051/// 09/01 Q1019
2026-04-02 02:20:00,METAR EGWU 020220Z AUTO 34012KT 9999 OVC011/// 09/03 Q1019
2026-04-02 01:50:00,METAR EGWU 020150Z AUTO 29006KT 9999 BKN012/// SCT034/// 09/07 Q1019
2026-04-02 01:20:00,METAR EGWU 020120Z AUTO 28007KT 9999 FEW028/// 09/07 Q1019
2026-04-02 00:50:00,METAR EGWU 020050Z AUTO 28004KT 9999 // BKN034/// 09/07 Q1019
2026-04-02 00:20:00,METAR EGWU 020020Z AUTO 28004KT 9999 // BKN033/// SCT049/// 10/07 Q1019
2026-04-01 23:50:00,METAR EGWU 012350Z AUTO 29007KT 9999 +DZ FEW023/// BKN038/// 10/07 Q1020
2026-04-01 23:20:00,METAR EGWU 012320Z AUTO 28006KT 9999 OVC042/// 10/07 Q1020
2026-04-01 22:50:00,METAR EGWU 012250Z AUTO 28007KT 9999 OVC044/// 11/07 Q1020
2026-04-01 22:20:00,METAR EGWU 012220Z AUTO 29006KT 9999 OVC045/// 11/06 Q1020
2026-04-01 21:50:00,METAR EGWU 012150Z AUTO 26007KT 9999 OVC044/// 11/06 Q1020
2026-04-01 21:20:00,METAR EGWU 012120Z AUTO 28005KT 9999 OVC042/// 11/06 Q1020
2026-04-01 20:50:00,METAR EGWU 012050Z AUTO 26004KT 9999 OVC044/// 11/06 Q1020
2026-04-01 20:20:00,METAR EGWU 012020Z AUTO 26004KT 9999 OVC042/// 11/05 Q1020
2026-04-01 19:50:00,METAR EGWU 011950Z AUTO 27004KT 9999 OVC042/// 11/05 Q1021
2026-04-01 19:20:00,METAR EGWU 011920Z AUTO 29004KT 9999 BKN042/// 11/05 Q1021
2026-04-01 18:50:00,METAR EGWU 011850Z 29005KT CAVOK 11/06 Q1021 NOSIG RMK BLU BLU
2026-04-01 18:20:00,METAR EGWU 011820Z 29005KT CAVOK 12/05 Q1021 NOSIG RMK BLU BLU
2026-04-01 17:50:00,METAR EGWU 011750Z 28005KT 9999 OVC045 12/05 Q1021 NOSIG RMK BLU BLU
2026-04-01 17:20:00,METAR EGWU 011720Z 30004KT 9999 BKN040 OVC048 12/06 Q1021 NOSIG RMK BLU BLU
2026-04-01 16:50:00,METAR EGWU 011650Z 30006KT 9999 BKN038 OVC050 12/05 Q1021 NOSIG RMK BLU BLU
2026-04-01 16:20:00,METAR EGWU 011620Z 30004KT 9999 FEW040 OVC048 12/06 Q1021 NOSIG RMK BLU BLU
2026-04-01 15:50:00,METAR EGWU 011550Z 32005KT 9999 OVC040 12/06 Q1021 NOSIG RMK BLU BLU
2026-04-01 15:20:00,METAR EGWU 011520Z 27003KT 9999 FEW032 BKN040 13/05 Q1022 NOSIG RMK BLU BLU
2026-04-01 14:50:00,METAR EGWU 011450Z 22002KT 9999 FEW030 BKN045 13/05 Q1022 NOSIG RMK BLU BLU
2026-04-01 13:50:00,METAR EGWU 011350Z 18003KT 9999 FEW035 BKN049 13/05 Q1023 NOSIG RMK BLU BLU
2026-04-01 13:20:00,METAR EGWU 011320Z 26002KT 9999 FEW030 BKN048 13/05 Q1023 NOSIG RMK BLU BLU
2026-04-01 12:50:00,METAR EGWU 011250Z 28002KT 9999 FEW035 BKN043 13/05 Q1023 NOSIG RMK BLU BLU
2026-04-01 12:20:00,METAR EGWU 011220Z 15001KT 9999 FEW033 BKN048 13/05 Q1024 NOSIG RMK BLU BLU
2026-04-01 11:50:00,METAR EGWU 011150Z 22001KT 9999 FEW024 BKN048 12/05 Q1024 NOSIG RMK BLU BLU
2026-04-01 11:20:00,METAR EGWU 011120Z 31002KT 9999 FEW024 BKN047 12/05 Q1024 NOSIG RMK BLU BLU
2026-04-01 10:50:00,METAR EGWU 011050Z 31002KT 9999 FEW020 BKN044 12/06 Q1025 NOSIG RMK BLU BLU
2026-04-01 10:20:00,METAR EGWU 011020Z 31003KT 9999 FEW020 BKN045 12/06 Q1025 NOSIG RMK BLU BLU
2026-04-01 09:50:00,METAR EGWU 010950Z 31004KT 9999 BKN044 11/06 Q1025 NOSIG RMK BLU BLU
2026-04-01 09:20:00,METAR EGWU 010920Z 31003KT 9999 BKN047 11/07 Q1025 NOSIG RMK BLU BLU
2026-04-01 08:50:00,METAR EGWU 010850Z 31003KT 9999 OVC048 11/08 Q1025 NOSIG RMK BLU BLU
2026-04-01 08:20:00,METAR EGWU 010820Z 30002KT 9999 OVC045 10/07 Q1026 NOSIG RMK BLU BLU
2026-04-01 07:50:00,METAR EGWU 010750Z 32002KT 9999 BKN045 09/07 Q1026 NOSIG RMK BLU BLU
2026-04-01 07:20:00,METAR EGWU 010720Z 32001KT 9999 BKN043 09/07 Q1026 NOSIG RMK BLU BLU
2026-04-01 06:50:00,METAR EGWU 010650Z 31002KT 9999 OVC045 08/07 Q1026 NOSIG RMK BLU BLU
2026-04-01 06:20:00,METAR EGWU 010620Z AUTO 29002KT 9999 OVC044/// 08/07 Q1026
2026-04-01 05:50:00,METAR EGWU 010550Z 27002KT 9999 OVC043 08/07 Q1026 NOSIG RMK BLU BLU
2026-04-01 05:20:00,METAR EGWU 010520Z AUTO 28002KT 9999 OVC038/// 07/06 Q1026
2026-04-01 04:50:00,METAR EGWU 010450Z AUTO 29004KT 9999 OVC041/// 07/07 Q1026
2026-04-01 03:50:00,METAR EGWU 010350Z AUTO 16001KT 9999 FEW037/// BKN043/// 07/06 Q1026
2026-04-01 03:20:00,METAR EGWU 010320Z AUTO 24003KT 9999 BKN034/// SCT044/// 08/07 Q1027
2026-04-01 02:50:00,METAR EGWU 010250Z AUTO 25002KT 9999 NCD 08/07 Q1027
2026-04-01 02:20:00,METAR EGWU 010220Z AUTO 33004KT 9999 NCD 07/06 Q1027
2026-04-01 01:50:00,METAR EGWU 010150Z AUTO 35004KT 9999 FEW033/// 08/07 Q1027
2026-04-01 01:20:00,METAR EGWU 010120Z AUTO 33003KT 9999 FEW035/// SCT049/// 09/07 Q1027
2026-04-01 00:50:00,METAR EGWU 010050Z AUTO 30002KT 9999 BKN050/// 09/07 Q1028
2026-04-01 00:20:00,METAR EGWU 010020Z AUTO 28003KT 9999 BKN051/// 09/07 Q1028
2026-03-31 23:50:00,METAR EGWU 312350Z AUTO 33004KT 9999 SCT052/// 08/05 Q1028
2026-03-31 23:20:00,METAR EGWU 312320Z AUTO 28004KT 9999 NCD 09/06 Q1028
2026-03-31 22:50:00,METAR EGWU 312250Z AUTO 30004KT 9999 NCD 09/06 Q1028
2026-03-31 22:20:00,METAR EGWU 312220Z AUTO 32004KT 9999 NCD 10/06 Q1028
2026-03-31 21:50:00,METAR EGWU 312150Z AUTO 32003KT 9999 NCD 10/06 Q1028
2026-03-31 21:20:00,METAR EGWU 312120Z 27002KT 9999 SKC 12/07 Q1028 NOSIG RMK BLU BLU
2026-03-31 20:50:00,METAR EGWU 312050Z 29002KT CAVOK 13/07 Q1028 NOSIG RMK BLU BLU
2026-03-31 20:20:00,METAR EGWU 312020Z 28004KT CAVOK 15/07 Q1028 NOSIG RMK BLU BLU
2026-03-31 19:50:00,METAR EGWU 311950Z 25005KT CAVOK 15/09 Q1028 NOSIG RMK BLU BLU
2026-03-31 19:20:00,METAR EGWU 311920Z 00000KT CAVOK 15/09 Q1028 NOSIG RMK BLU BLU
2026-03-31 18:50:00,METAR EGWU 311850Z 18002KT CAVOK 15/09 Q1028 NOSIG RMK BLU BLU
2026-03-31 18:20:00,METAR EGWU 311820Z 08002KT CAVOK 16/09 Q1028 NOSIG RMK BLU BLU
2026-03-31 17:50:00,METAR EGWU 311750Z 05004KT 9999 FEW040 17/09 Q1028 NOSIG RMK BLU BLU
2026-03-31 17:20:00,METAR EGWU 311720Z 03004KT 9999 SCT040 18/09 Q1028 NOSIG RMK BLU BLU
2026-03-31 16:50:00,METAR EGWU 311650Z 01004KT 9999 SCT042 18/09 Q1028 NOSIG RMK BLU BLU
2026-03-31 16:20:00,METAR EGWU 311620Z 01003KT CAVOK 17/09 Q1028 NOSIG RMK BLU BLU
2026-03-31 15:50:00,METAR EGWU 311550Z 03004KT 9999 BKN040 BKN080 17/09 Q1028 NOSIG
2026-03-31 15:50:00,METAR EGWU 311550Z 03004KT 9999 BKN040 BKN080 17/09 Q1028 NOSIG RMK BLACKBLU BLU
2026-03-31 15:20:00,METAR EGWU 311520Z 34006KT 9999 FEW035 BKN057 17/09 Q1028 NOSIG RMK BLU BLU
2026-03-31 14:50:00,METAR EGWU 311450Z 31010KT 9999 SCT036 BKN060 17/09 Q1028 NOSIG RMK BLU BLU
2026-03-31 14:20:00,METAR EGWU 311420Z 04003KT 9999 SCT035 BKN060 18/10 Q1029 NOSIG RMK BLU BLU
2026-03-31 13:50:00,METAR EGWU 311350Z 31005KT 9999 SCT030 BKN060 17/09 Q1029 NOSIG RMK BLU BLU
2026-03-31 13:20:00,METAR EGWU 311320Z 01003KT 9999 FEW028 BKN060 16/10 Q1029 NOSIG RMK BLU BLU
2026-03-31 12:50:00,METAR EGWU 311250Z 35006KT 9999 SCT030 16/10 Q1029 NOSIG RMK BLU BLU
2026-03-31 12:20:00,METAR EGWU 311220Z 34005KT 9999 SCT030 BKN045 16/09 Q1030 NOSIG RMK BLU BLU
2026-03-31 11:50:00,METAR EGWU 311150Z 35008KT 9999 SCT025 BKN045 15/09 Q1030 NOSIG RMK BLU BLU
2026-03-31 11:20:00,METAR EGWU 311120Z 33009KT 9999 SCT025 BKN060 14/09 Q1030 NOSIG RMK BLU BLU
2026-03-31 10:50:00,METAR EGWU 311050Z 35009KT 9999 SCT023 BKN060 14/09 Q1030 BECMG BKN025
2026-03-31 10:20:00,METAR EGWU 311020Z 35008KT 9999 BKN021 13/09 Q1030 BECMG BKN025 RMK WHT BECMG BLU
2026-03-31 09:50:00,METAR EGWU 310950Z 32008KT 9999 BKN019 12/09 Q1030 BECMG BKN025
2026-03-31 09:20:00,METAR EGWU 310920Z 31008KT 9999 BKN017 12/09 Q1030 NOSIG RMK WHT BLU
2026-03-31 08:50:00,METAR EGWU 310850Z 32004KT 9999 BKN018 11/08 Q1030 NOSIG RMK WHT WHT
2026-03-31 08:20:00,METAR EGWU 310820Z 28003KT 9999 BKN017 10/07 Q1030 NOSIG RMK WHT WHT
2026-03-31 07:50:00,METAR EGWU 310750Z 27004KT 9999 BKN017 10/07 Q1030 TEMPO 6000 -RADZ BKN012
2026-03-31 07:20:00,METAR EGWU 310720Z 28003KT 9999 BKN016 09/07 Q1030 TEMPO 6000 -RADZ BKN012
2026-03-31 06:50:00,METAR EGWU 310650Z 26006KT 9999 SCT020 09/06 Q1029 NOSIG RMK WHT
2026-03-31 06:20:00,METAR EGWU 310620Z AUTO 28003KT 9999 BR OVC018/// 09/05 Q1030
2026-03-31 05:50:00,METAR EGWU 310550Z COR 26005KT 9999 OVC018 09/05 Q1029 TEMPO 6000 -RADZ
2026-03-31 05:20:00,METAR EGWU 310520Z AUTO 26005KT 9999 SCT021/// BKN034/// 09/05 Q1029
2026-03-31 04:50:00,METAR EGWU 310450Z AUTO 26005KT 9999 OVC019/// 09/05 Q1029
2026-03-31 04:20:00,METAR EGWU 310420Z AUTO 27005KT 9999 OVC023/// 09/04 Q1029
2026-03-31 03:50:00,METAR EGWU 310350Z AUTO 25004KT 9999 FEW026/// SCT045/// 08/04 Q1029
2026-03-31 03:20:00,METAR EGWU 310320Z AUTO 26004KT 9999 BKN042/// SCT083/// 08/04 Q1029
2026-03-31 02:50:00,METAR EGWU 310250Z AUTO 28005KT 9999 FEW036/// BKN046/// 08/04 Q1029
2026-03-31 02:20:00,METAR EGWU 310220Z AUTO 28005KT 9999 BKN054/// 08/04 Q1029
2026-03-31 01:50:00,METAR EGWU 310150Z AUTO 29006KT 9999 BKN033/// 08/04 Q1029
2026-03-31 01:20:00,METAR EGWU 310120Z AUTO 29007KT 9999 SCT036/// 08/03 Q1029
2026-03-31 00:50:00,METAR EGWU 310050Z AUTO 29007KT 9999 OVC033/// 09/03 Q1029
2026-03-31 00:20:00,METAR EGWU 310020Z AUTO 28006KT 9999 OVC034/// 09/03 Q1029
2026-03-30 23:50:00,METAR EGWU 302350Z AUTO 29005KT 9999 OVC037/// 09/03 Q1029
2026-03-30 23:20:00,METAR EGWU 302320Z AUTO 26004KT 9999 OVC043/// 09/03 Q1029
2026-03-30 22:50:00,METAR EGWU 302250Z AUTO 29004KT 9999 BKN049/// 08/03 Q1029
2026-03-30 22:20:00,METAR EGWU 302220Z 30004KT CAVOK 09/03 Q1029 NOSIG RMK BLU BLU
2026-03-30 21:50:00,METAR EGWU 302150Z 32005KT CAVOK 09/02 Q1029 NOSIG RMK BLU BLU
2026-03-30 21:20:00,METAR EGWU 302120Z 32005KT CAVOK 09/02 Q1029 NOSIG RMK BLU BLU
2026-03-30 20:50:00,METAR EGWU 302050Z 32007KT CAVOK 09/02 Q1028 NOSIG RMK BLU BLU
2026-03-30 20:20:00,METAR EGWU 302020Z 33007KT CAVOK 09/02 Q1028 NOSIG RMK BLU BLU
2026-03-30 19:50:00,METAR EGWU 301950Z 34007KT CAVOK 09/02 Q1027 NOSIG RMK BLU BLU
2026-03-30 19:20:00,METAR EGWU 301920Z 34008KT CAVOK 10/01 Q1027 NOSIG RMK BLU BLU
2026-03-30 18:50:00,METAR EGWU 301850Z 34011KT CAVOK 10/01 Q1027 NOSIG RMK BLU BLU
2026-03-30 18:20:00,METAR EGWU 301820Z 34010KT 9999 FEW040 BKN062 11/01 Q1027 NOSIG RMK BLU BLU
2026-03-30 17:50:00,METAR EGWU 301750Z 33014KT 9999 FEW044 BKN062 11/01 Q1027 NOSIG RMK BLU BLU
2026-03-30 17:20:00,METAR EGWU 301720Z 34010KT 9999 FEW040 BKN060 11/01 Q1026 NOSIG RMK BLU BLU
2026-03-30 16:50:00,METAR EGWU 301650Z 33015KT 9999 FEW040 ///060 11/01 Q1026 NOSIG
2026-03-30 16:20:00,METAR EGWU 301620Z COR 34013KT 9999 FEW040 BKN055 12/01 Q1026 NOSIG
2026-03-30 15:50:00,METAR EGWU 301550Z 35014KT 9999 FEW036 BKN053 12/01 Q1025 NOSIG RMK BLU BLU
2026-03-30 15:20:00,METAR EGWU 301520Z 35017KT 9999 FEW035 SCT050 12/01 Q1025 NOSIG RMK BLU BLU
2026-03-30 14:50:00,METAR EGWU 301450Z 34015KT 9999 FEW030 BKN050 12/02 Q1025 NOSIG RMK BLU BLU
2026-03-30 14:20:00,METAR EGWU 301420Z 32018KT 9999 FEW030 BKN050 12/03 Q1024 NOSIG RMK BLU BLU
2026-03-30 13:50:00,METAR EGWU 301350Z 33015KT 9999 FEW025 SCT040 12/02 Q1024 NOSIG RMK BLU BLU
2026-03-30 13:20:00,METAR EGWU 301320Z 33016KT 9999 FEW027 BKN043 11/03 Q1024 NOSIG RMK BLU BLU
2026-03-30 12:50:00,METAR EGWU 301250Z 33017G28KT 9999 BKN040 11/02 Q1024 NOSIG RMK BLU BLU
2026-03-30 12:20:00,METAR EGWU 301220Z 32017KT 9999 SCT033 12/03 Q1024 NOSIG RMK BLU BLU
2026-03-30 11:50:00,METAR EGWU 301150Z 33013KT 9999 SCT030 10/05 Q1024 NOSIG RMK BLU BLU
2026-03-30 11:20:00,METAR EGWU 301120Z 31014KT 9999 FEW025 BKN040 11/03 Q1024 NOSIG RMK BLU BLU
2026-03-30 10:50:00,METAR EGWU 301050Z 33014KT 9999 -DZ FEW018 BKN040 10/03 Q1024 NOSIG RMK BLU BLU
2026-03-30 10:20:00,METAR EGWU 301020Z 33016KT 9999 FEW003 BKN050 10/03 Q1024 NOSIG RMK BLU BLU
2026-03-30 09:50:00,METAR EGWU 300950Z 32013G23KT 9999 SCT033 BKN060 10/03 Q1023 NOSIG RMK BLU BLU
2026-03-30 09:20:00,METAR EGWU 300920Z 30016KT 9999 FEW033 SCT060 10/04 Q1023 NOSIG RMK BLU BLU
2026-03-30 08:50:00,METAR EGWU 300850Z 30014G25KT 9999 FEW033 SCT055 10/04 Q1023 NOSIG RMK BLU BLU
2026-03-30 08:20:00,METAR EGWU 300820Z 27009KT CAVOK 09/05 Q1023 NOSIG RMK BLU BLU
2026-03-30 07:50:00,METAR EGWU 300750Z 27009KT CAVOK 08/04 Q1022 NOSIG RMK BLU BLU
2026-03-30 07:20:00,METAR EGWU 300720Z 27007KT 9999 BKN040 07/04 Q1022 NOSIG RMK BLU BLU
2026-03-30 06:50:00,METAR EGWU 300650Z 24005KT 9999 BKN048 06/04 Q1022 NOSIG RMK BLU BLU
2026-03-30 06:20:00,METAR EGWU 300620Z AUTO 25004KT 9999 FEW043/// 05/04 Q1022
2026-03-30 05:50:00,METAR EGWU 300550Z 28006KT CAVOK 05/03 Q1022 NOSIG RMK BLU BLU
2026-03-30 05:20:00,METAR EGWU 300520Z AUTO 29006KT 9999 NCD 06/03 Q1022
2026-03-30 04:50:00,METAR EGWU 300450Z AUTO 28008KT 9999 FEW046/// 06/04 Q1021
2026-03-30 04:20:00,METAR EGWU 300420Z AUTO 28009KT 9999 NCD 06/03 Q1021
2026-03-30 03:50:00,METAR EGWU 300350Z AUTO 29009KT 9999 NCD 06/04 Q1021
2026-03-30 03:20:00,METAR EGWU 300320Z AUTO 29008KT 9999 FEW037/// 06/04 Q1021
2026-03-30 02:50:00,METAR EGWU 300250Z AUTO 29005KT 9999 FEW045/// 06/04 Q1021
2026-03-30 02:20:00,METAR EGWU 300220Z AUTO 30008KT 9999 NCD 07/04 Q1021
2026-03-30 01:50:00,METAR EGWU 300150Z AUTO 28010KT 9999 NCD 08/05 Q1021
2026-03-30 01:20:00,METAR EGWU 300120Z AUTO 27009KT 9999 NCD 08/06 Q1021
2026-03-30 00:50:00,METAR EGWU 300050Z AUTO 28008KT 9999 NCD 08/06 Q1021
2026-03-30 00:20:00,METAR EGWU 300020Z AUTO 28009KT 9999 NCD 08/06 Q1021
2026-03-29 23:50:00,METAR EGWU 292350Z AUTO 28009KT 9999 NCD 08/06 Q1021
2026-03-29 23:20:00,METAR EGWU 292320Z AUTO 28009KT 9999 NCD 08/07 Q1020
2026-03-29 22:50:00,METAR EGWU 292250Z AUTO 27008KT 9999 NCD 08/07 Q1020
2026-03-29 22:20:00,METAR EGWU 292220Z AUTO 25008KT 9999 NCD 08/07 Q1020
2026-03-29 21:50:00,METAR EGWU 292150Z AUTO 25008KT 9999 FEW011/// 09/07 Q1020
2026-03-29 21:20:00,METAR EGWU 292120Z AUTO 25010KT 9999 OVC010/// 09/08 Q1020
2026-03-29 20:50:00,METAR EGWU 292050Z 24011KT 9999 SCT010 BKN018 09/08 Q1020 BECMG SCT025
2026-03-29 20:20:00,METAR EGWU 292020Z 25012KT 9999 BKN009 09/08 Q1020 BECMG SCT025 RMK GRN BECMG BLU
2026-03-29 19:50:00,METAR EGWU 291950Z 25012KT 9999 BKN010 09/08 Q1021 NOSIG RMK GRN GRN
2026-03-29 19:20:00,METAR EGWU 291920Z 24011KT 9999 OVC008 08/08 Q1021 NOSIG RMK GRN GRN
2026-03-29 18:50:00,METAR EGWU 291850Z 24012KT 7000 -RA BKN009 08/07 Q1021 BECMG 9999 NSW BKN020
2026-03-29 18:20:00,METAR EGWU 291820Z 24012KT 5000 -RADZ BKN011 08/07 Q1021 BECMG 9999 NSW BKN020 RMK GRN BECMG WHT
2026-03-29 17:50:00,METAR EGWU 291750Z 24012KT 5000 -RADZ FEW009 BKN017 08/07 Q1022 BECMG 9999 NSW
2026-03-29 17:20:00,METAR EGWU 291720Z 24013G24KT 5000 RADZ BKN015 BKN020 08/06 Q1022 BECMG 9999 NSW RMK WHT BECMG WHT
2026-03-29 16:50:00,METAR EGWU 291650Z 24014KT 9999 -RA BKN021 09/05 Q1022 NOSIG RMK WHT WHT
2026-03-29 16:20:00,METAR EGWU 291620Z 24015KT 9999 FEW020 BKN024 09/05 Q1022 TEMPO BKN025 RMK WHT TEMPO BLU
2026-03-29 15:20:00,METAR EGWU 291520Z 23016KT 9999 FEW020 BKN027 09/05 Q1024 TEMPO 7000 -RA SCT020 RMK BLU TEMPO WHT
2026-03-29 14:50:00,METAR EGWU 291450Z 24012KT 9999 FEW024 BKN035 09/06 Q1025 TEMPO 7000 -RA SCT024
2026-03-29 14:20:00,METAR EGWU 291420Z 26015KT 9999 -RA FEW024 BKN030 08/06 Q1025 TEMPO 7000 SCT024
2026-03-29 13:50:00,METAR EGWU 291350Z 25015G25KT 9999 -RA BKN032 10/04 Q1026 TEMPO 7000
2026-03-29 13:20:00,METAR EGWU 291320Z 25013G24KT 9999 BKN034 10/03 Q1027 TEMPO 7000 RMK BLU TEMPO WHT
2026-03-29 12:50:00,METAR EGWU 291250Z 25017KT 9999 BKN037 10/02 Q1027 NOSIG RMK BLU BLU
2026-03-29 12:20:00,METAR EGWU 291220Z 25015KT 9999 SCT045 OVC140 10/02 Q1028 NOSIG RMK BLU BLU
2026-03-29 11:50:00,METAR EGWU 291150Z 25012KT CAVOK 10/03 Q1028 NOSIG RMK BLU BLU
2026-03-29 11:20:00,METAR EGWU 291120Z AUTO 24012KT 9999 SCT033/// 10/03 Q1028
2026-03-29 10:50:00,METAR EGWU 291050Z 25013KT CAVOK 10/02 Q1029 NOSIG RMK BLU BLU
2026-03-29 10:20:00,METAR EGWU 291020Z 26011KT CAVOK 09/02 Q1030 NOSIG RMK BLU BLU
2026-03-29 09:50:00,METAR EGWU 290950Z 25011KT CAVOK 09/02 Q1030 NOSIG BLU RMK BLU BLU
2026-03-29 09:20:00,METAR EGWU 290920Z 24008KT CAVOK 08/02 Q1030 NOSIG RMK BLU BLU
2026-03-29 08:50:00,METAR EGWU 290850Z 25008KT CAVOK 06/02 Q1030 NOSIG RMK BLU BLU
2026-03-29 08:20:00,METAR EGWU 290820Z 25008KT CAVOK 06/01 Q1030 NOSIG RMK BLU BLU
2026-03-29 07:50:00,METAR EGWU 290750Z 24005KT CAVOK 05/01 Q1031 NOSIG RMK BLU BLU
2026-03-29 07:20:00,METAR EGWU 290720Z 22002KT CAVOK 04/02 Q1031 NOSIG RMK BLU BLU
2026-03-29 06:50:00,METAR EGWU 290650Z 23003KT 9999 SKC 02/00 Q1031 NOSIG RMK BLU BLU
2026-03-29 06:20:00,METAR EGWU 290620Z 19003KT 9999 SKC 02/M00 Q1031 NOSIG RMK BLU BLU
2026-03-29 05:50:00,METAR EGWU 290550Z 19003KT 9999 SKC 01/M01 Q1031 NOSIG RMK BLU BLU
2026-03-29 05:20:00,METAR EGWU 290520Z 19002KT 9999 SKC 01/M01 Q1031 NOSIG RMK BLU BLU
2026-03-29 04:50:00,METAR EGWU 290450Z AUTO 24002KT 9999 NCD 01/M01 Q1031
2026-03-29 04:20:00,METAR EGWU 290420Z AUTO 28003KT 9999 NCD 02/M00 Q1031
2026-03-29 03:50:00,METAR EGWU 290350Z AUTO 28007KT 9999 NCD 02/M00 Q1031
2026-03-29 03:20:00,METAR EGWU 290320Z AUTO 28004KT 9999 NCD 02/M01 Q1031
2026-03-29 02:50:00,METAR EGWU 290250Z AUTO 27005KT 9999 NCD 03/M00 Q1031
2026-03-29 02:20:00,METAR EGWU 290220Z AUTO 32003KT 9999 NCD 03/M00 Q1031
2026-03-29 01:50:00,METAR EGWU 290150Z AUTO 31004KT 9999 NCD 03/M00 Q1031
2026-03-29 01:20:00,METAR EGWU 290120Z AUTO 31006KT 9999 NCD 04/M00 Q1031
2026-03-29 00:50:00,METAR EGWU 290050Z AUTO 32004KT 9999 NCD 03/M00 Q1031
2026-03-29 00:20:00,METAR EGWU 290020Z 32004KT CAVOK 03/M01 Q1031 NOSIG RMK BLU BLU
2026-03-28 23:50:00,METAR EGWU 282350Z 27005KT CAVOK 04/M01 Q1031 NOSIG RMK BLU BLU
2026-03-28 23:20:00,METAR EGWU 282320Z 29005KT CAVOK 04/M00 Q1031 NOSIG RMK BLU BLU
2026-03-28 22:50:00,METAR EGWU 282250Z 29007KT CAVOK 04/M01 Q1031 NOSIG RMK BLU BLU
2026-03-28 22:20:00,METAR EGWU 282220Z 30007KT CAVOK 05/M01 Q1030 NOSIG RMK BLU BLU
2026-03-28 21:50:00,METAR EGWU 282150Z 31009KT CAVOK 05/M00 Q1030 NOSIG RMK BLU BLU
2026-03-28 21:20:00,METAR EGWU 282120Z 32011KT CAVOK 06/M00 Q1030 NOSIG RMK BLU BLU
2026-03-28 20:50:00,METAR EGWU 282050Z 31009KT CAVOK 06/M01 Q1030 NOSIG RMK BLU BLU
2026-03-28 20:20:00,METAR EGWU 282020Z COR 33010KT CAVOK 07/M01 Q1030 NOSIG
2026-03-28 19:50:00,METAR EGWU 281950Z 32008KT CAVOK 06/M01 Q1029 NOSIG RMK BLU BLU
2026-03-28 19:20:00,METAR EGWU 281920Z COR 33010KT CAVOK 07/M01 Q1029 NOSIG
2026-03-28 18:50:00,METAR EGWU 281850Z 32012KT 9999 FEW040 07/M02 Q1028 NOSIG RMK BLU BLU
2026-03-28 18:20:00,METAR EGWU 281820Z 33013KT 9999 FEW036 08/M01 Q1028 NOSIG RMK BLU BLU
2026-03-28 17:50:00,METAR EGWU 281750Z 34013KT 9999 FEW036 08/M01 Q1027 NOSIG RMK BLU BLU
2026-03-28 17:20:00,METAR EGWU 281720Z 34013G24KT 9999 FEW040 09/M01 Q1027 TEMPO 7000 SHRA SCT030CB RMK BLU TEMPO WHT
2026-03-28 16:50:00,METAR EGWU 281650Z 32019G29KT 9999 FEW040 09/M03 Q1026 TEMPO 7000 SHRA
2026-03-28 16:20:00,METAR EGWU 281620Z 32015KT 9999 FEW038 09/M00 Q1026 TEMPO 7000 SHRA RMK BLU TEMPO WHT
2026-03-28 15:50:00,METAR EGWU 281550Z 31017KT 9999 VCSH FEW040 09/M01 Q1025 TEMPO 7000 SHRA
2026-03-28 15:20:00,METAR EGWU 281520Z 32019KT 9999 FEW036CB 10/M00 Q1025 TEMPO 7000 SHRA RMK BLU TEMPO BLU
2026-03-28 14:50:00,METAR EGWU 281450Z COR 32013G25KT 9999 VCSH FEW036CB SCT053 10/01 Q1025 NOSIG
2026-03-28 14:20:00,METAR EGWU 281420Z 32013KT 9999 FEW030CB BKN055 10/M02 Q1024 TEMPO 7000 SHRA RMK BLU TEMPO WHT
2026-03-28 13:50:00,METAR EGWU 281350Z 31018KT 9999 VCSH SCT057 10/M02 Q1024 TEMPO 7000 SHRA
2026-03-28 13:20:00,METAR EGWU 281320Z 31017KT CAVOK 10/M03 Q1024 TEMPO 7000 SHRA RMK BLU TEMPO WHT
2026-03-28 12:50:00,METAR EGWU 281250Z 31016KT CAVOK 10/M02 Q1024 NOSIG RMK BLU BLU
2026-03-28 12:20:00,METAR EGWU 281220Z 32014KT CAVOK 10/M01 Q1024 NOSIG RMK BLU BLU
2026-03-28 11:50:00,METAR EGWU 281150Z 31016KT CAVOK 10/M01 Q1024 NOSIG RMK BLU BLU
2026-03-28 11:20:00,METAR EGWU 281120Z 31018KT 9999 FEW049 09/M02 Q1025 NOSIG RMK BLU BLU
2026-03-28 10:50:00,METAR EGWU 281050Z 32016KT 9999 FEW049 09/M02 Q1024 NOSIG RMK BLU BLU
2026-03-28 10:20:00,METAR EGWU 281020Z 32014KT 9999 FEW040 09/00 Q1024 NOSIG RMK BLU BLU
2026-03-28 09:50:00,METAR EGWU 280950Z 31016KT 9999 FEW035 08/01 Q1024 NOSIG RMK BLU BLU
2026-03-28 09:20:00,METAR EGWU 280920Z 31016KT 9999 FEW033 08/00 Q1024 NOSIG RMK BLU BLU
2026-03-28 08:50:00,METAR EGWU 280850Z 29013KT 9999 FEW030 07/01 Q1024 NOSIG RMK BLU BLU
2026-03-28 08:20:00,METAR EGWU 280820Z 29010KT 9999 FEW022 07/02 Q1024 NOSIG RMK BLU BLU
2026-03-28 07:50:00,METAR EGWU 280750Z 28009KT CAVOK 06/01 Q1023 NOSIG RMK BLU BLU
2026-03-28 07:20:00,METAR EGWU 280720Z 27007KT CAVOK 04/01 Q1023 NOSIG RMK BLU BLU
2026-03-28 06:50:00,METAR EGWU 280650Z 26006KT CAVOK 03/00 Q1023 NOSIG RMK BLU BLU
2026-03-28 06:20:00,METAR EGWU 280620Z 26005KT CAVOK 03/M00 Q1023 RMK BLU
2026-03-28 05:50:00,METAR EGWU 280550Z AUTO 29006KT 9999 NCD 03/M00 Q1022
2026-03-28 05:20:00,METAR EGWU 280520Z AUTO 30008KT 9999 NCD 03/M00 Q1022
2026-03-28 04:50:00,METAR EGWU 280450Z AUTO 30008KT 9999 NCD 03/M00 Q1022
2026-03-28 04:20:00,METAR EGWU 280420Z AUTO 29007KT 9999 NCD 04/M00 Q1022
2026-03-28 03:50:00,METAR EGWU 280350Z AUTO 30008KT 9999 NCD 05/00 Q1022
2026-03-28 03:20:00,METAR EGWU 280320Z AUTO 32008KT 9999 NCD 05/01 Q1021
2026-03-28 02:50:00,METAR EGWU 280250Z AUTO 31009KT 9999 FEW077/// 06/01 Q1021
2026-03-28 02:20:00,METAR EGWU 280220Z AUTO 30008KT 9999 FEW084/// 05/02 Q1021
2026-03-28 01:50:00,METAR EGWU 280150Z AUTO 30007KT 9999 BKN081/// 06/02 Q1021
2026-03-28 01:20:00,METAR EGWU 280120Z AUTO 31007KT 9999 OVC080/// 06/03 Q1021
2026-03-28 00:50:00,METAR EGWU 280050Z AUTO 30006KT 9999 OVC078/// 06/03 Q1020
2026-03-28 00:20:00,METAR EGWU 280020Z AUTO 31006KT 9999 BKN073/// 06/02 Q1020
2026-03-27 23:50:00,METAR EGWU 272350Z AUTO 33006KT 9999 FEW060/// 06/02 Q1020
2026-03-27 23:20:00,METAR EGWU 272320Z AUTO 32007KT 9999 NCD 06/02 Q1020
2026-03-27 22:50:00,METAR EGWU 272250Z AUTO 30007KT 9999 NCD 07/02 Q1019
2026-03-27 22:20:00,METAR EGWU 272220Z AUTO 30007KT 9999 FEW057/// 07/03 Q1019
2026-03-27 21:50:00,METAR EGWU 272150Z AUTO 31006KT 9999 NCD 08/03 Q1019
2026-03-27 21:20:00,METAR EGWU 272120Z AUTO 30007KT 9999 FEW093/// 08/04 Q1019
2026-03-27 20:50:00,METAR EGWU 272050Z AUTO 31006KT 9999 FEW044/// BKN092/// 09/05 Q1018
2026-03-27 20:20:00,METAR EGWU 272020Z AUTO 31008KT 9999 FEW042/// 10/05 Q1018
2026-03-27 19:50:00,METAR EGWU 271950Z AUTO 31009KT 9999 // SCT036/// BKN081/// 10/06 Q1018
2026-03-27 19:20:00,METAR EGWU 271920Z AUTO 32009KT 9999 // SCT025/// SCT036/// 11/08 Q1018
2026-03-27 18:50:00,METAR EGWU 271850Z 32011KT 9999 BKN018 11/09 Q1017 TEMPO SCT014
2026-03-27 18:20:00,METAR EGWU 271820Z 25009KT 8000 RA BKN009 12/10 Q1017 TEMPO 9999 NSW SCT015 RMK GRN TEMPO WHT
2026-03-27 17:50:00,METAR EGWU 271750Z 25008KT 9999 BKN015 ////// 12/11 Q1017 NOSIG
2026-03-27 17:20:00,METAR EGWU 271720Z 25007KT 9999 -RA BKN014 ////// 12/11 Q1017 TEMPO NSW SCT016 RMK GRN TEMPO WHT
2026-03-27 16:50:00,METAR EGWU 271650Z 25009KT 9999 BKN010 BKN018 12/11 Q1017 TEMPO SCT016
2026-03-27 16:20:00,METAR EGWU 271620Z 24009KT 5000 -RADZ BKN009 12/10 Q1017 TEMPO 9999 NSW BKN015 RMK GRN TEMPO WHT
2026-03-25 14:50:00,METAR EGWU 251450Z 32015G30KT 9999 FEW029 BKN055 06/00 Q1012 TEMPO 4000 +SHRA
2026-03-25 14:20:00,METAR EGWU 251420Z 32013G24KT 9999 -RA FEW020 BKN060CB 04/02 Q1011 RESHRA RESHGR TEMPO 4000 +SHRA RMK BLU TEMPO GRN
2026-03-25 14:13:00,SPECI EGWU 251413Z 32020G37KT 9999 -RA FEW020 BKN050CB 04/02 Q1011 TEMPO 7000 SHRA RMK BLU TEMPO WHT
2026-03-25 14:06:00,SPECI EGWU 251406Z 31024G38KT 4000 // FEW020 SCT050CB 04/M01 Q1012 TEMPO NSW 9999 FEW020 RMK GRN TEMPO BLU
2026-03-25 13:50:00,METAR EGWU 251350Z 31019KT 9999 FEW053 SCT060CB 11/M03 Q1010 TEMPO 4000 +SHRA
2026-03-25 13:20:00,METAR EGWU 251320Z 30021G31KT 9999 FEW043TCU SCT053 09/M03 Q1010 TEMPO 7000 SHRA BKN050CB RMK BLU TEMPO WHT
2026-03-25 12:50:00,METAR EGWU 251250Z 30020G32KT CAVOK 09/M03 Q1010 TEMPO 7000 SHRA
2026-03-25 12:20:00,METAR EGWU 251220Z 31020KT CAVOK 09/M02 Q1010 NOSIG RMK BLU BLU
2026-03-25 11:50:00,METAR EGWU 251150Z 31018G32KT 9999 FEW043TCU SCT053 BKN110 09/M02 Q1010 TEMPO 7000 SHRA
2026-03-25 11:20:00,METAR EGWU 251120Z 31019KT 9999 SCT045 BKN110 09/M01 Q1010 TEMPO 7000 SHRA BKN050TCU RMK BLU TEMPO WHT
2026-03-25 10:50:00,METAR EGWU 251050Z 32020G32KT 9999 SCT039 BKN110 08/00 Q1009 NOSIG RMK BLU BLU
2026-03-25 10:20:00,METAR EGWU 251020Z 32017KT 9999 SCT033 BKN041 08/01 Q1009 NOSIG RMK BLU BLU
2026-03-25 09:50:00,METAR EGWU 250950Z 31019G30KT 9999 BKN033 BKN075 07/01 Q1009 TEMPO SCT024
2026-03-25 09:20:00,METAR EGWU 250920Z 31018G31KT 9999 BKN033 BKN075 07/01 Q1008 TEMPO SCT024 RMK BLU TEMPO WHT
2026-03-25 08:50:00,METAR EGWU 250850Z 30018G29KT 9999 -RA BKN023 BKN035 06/02 Q1008 TEMPO FEW025
2026-03-25 08:20:00,METAR EGWU 250820Z 30018G31KT 9999 BKN022 BKN036 06/02 Q1007 TEMPO 29015KT
2026-03-25 07:50:00,METAR EGWU 250750Z 30011KT 9999 SCT022 BKN037 BKN060 07/02 Q1007 TEMPO 7000 SHRA
2026-03-25 07:37:00,SPECI EGWU 250737Z 29012KT 9999 SCT021 SCT036 BKN060 07/03 Q1007 TEMPO 7000 SHRA RMK WHT TEMPO WHT
2026-03-25 06:50:00,METAR EGWU 250650Z 30012KT 9999 FEW021 BKN063 06/03 Q1006 TEMPO SCT021
2026-03-25 06:20:00,METAR EGWU 250620Z AUTO 30013KT 9999 -RA OVC021/// 06/03 Q1005
2026-03-25 05:50:00,METAR EGWU 250550Z AUTO 28012KT 9999 OVC025/// 07/02 Q1004
2026-03-25 05:20:00,METAR EGWU 250520Z AUTO 28013KT 9999 OVC027/// 07/02 Q1004
2026-03-25 04:50:00,METAR EGWU 250450Z AUTO 28013KT 9999 OVC027/// 07/02 Q1004
2026-03-25 04:20:00,METAR EGWU 250420Z AUTO 27013KT 9999 OVC027/// 07/02 Q1003
2026-03-25 03:50:00,METAR EGWU 250350Z AUTO 27015KT 9999 SCT029/// 07/02 Q1003
2026-03-25 03:20:00,METAR EGWU 250320Z AUTO 27015KT 9999 SCT038/// 07/02 Q1003
2026-03-25 02:50:00,METAR EGWU 250250Z AUTO 27015KT 9999 NCD 07/02 Q1003
2026-03-25 02:20:00,METAR EGWU 250220Z AUTO 27014KT 9999 NCD 07/02 Q1003
2026-03-25 01:50:00,METAR EGWU 250150Z AUTO 27019KT 9999 NCD 07/02 Q1003
2026-03-25 01:20:00,METAR EGWU 250120Z AUTO 27019G29KT 9999 NCD 08/02 Q1003
2026-03-25 00:50:00,METAR EGWU 250050Z AUTO 27017KT 9999 NCD 08/02 Q1003
2026-03-25 00:20:00,METAR EGWU 250020Z AUTO 27018KT 9999 NCD 08/02 Q1003
2026-03-24 23:50:00,METAR EGWU 242350Z AUTO 28019KT 9999 FEW033/// 08/03 Q1003
2026-03-24 23:20:00,METAR EGWU 242320Z AUTO 27021KT 9999 FEW100/// 09/03 Q1002
2026-03-24 22:50:00,METAR EGWU 242250Z AUTO 26020KT 9999 // FEW076/// 09/04 Q1002
2026-03-24 22:20:00,METAR EGWU 242220Z AUTO 27019G31KT 9999 // FEW030/// 10/06 Q1002
2026-03-24 21:50:00,METAR EGWU 242150Z 26022G32KT 9000 -RA SCT030 10/07 Q1002 NOSIG RMK BLU BLU
2026-03-24 21:20:00,METAR EGWU 242120Z 24018G30KT 6000 -RADZ OVC011 11/09 Q1002 TEMPO 3000 +RA RMK GRN TEMPO YLO1
2026-03-24 20:50:00,METAR EGWU 242050Z COR 23019KT 9999 BKN016 11/09 Q1002 TEMPO 3000 +RA BKN008
2026-03-24 20:20:00,METAR EGWU 242020Z 23017KT 9999 OVC017 12/08 Q1003 BECMG FEW017 RMK WHT BECMG BLU
2026-03-24 19:50:00,METAR EGWU 241950Z 23015KT 9999 OVC018 12/08 Q1004 BECMG FEW018
2026-03-24 19:20:00,METAR EGWU 241920Z AUTO 22017KT 9999 OVC013/// 11/09 Q1004
2026-03-24 18:50:00,METAR EGWU 241850Z 22016G26KT 9999 SCT014 OVC018 11/09 Q1005 TEMPO FEW014 BKN018
2026-03-24 18:20:00,METAR EGWU 241820Z 23018G28KT 9999 FEW013 BKN015 12/09 Q1006 TEMPO SCT013 RMK WHT TEMPO GRN
2026-03-24 17:50:00,METAR EGWU 241750Z 23018KT 9999 SCT014 BKN017 12/09 Q1007 TEMPO BKN017
2026-03-24 17:20:00,METAR EGWU 241720Z 23016KT 9999 FEW015 BKN017 12/09 Q1007 TEMPO SCT014 RMK WHT TEMPO GRN
2026-03-24 16:50:00,METAR EGWU 241650Z 24016G26KT 9999 BKN017 12/08 Q1008 NOSIG RMK WHT WHT
2026-03-24 16:20:00,METAR EGWU 241620Z 24018G28KT 9999 BKN016 12/08 Q1008 NOSIG RMK WHT WHT
2026-03-24 15:50:00,METAR EGWU 241550Z 23013KT 9999 BKN016 12/09 Q1009 NOSIG RMK WHT WHT
2026-03-24 15:20:00,METAR EGWU 241520Z 22014KT 9999 BKN017 12/08 Q1010 NOSIG RMK WHT WHT
2026-03-24 14:50:00,METAR EGWU 241450Z 22014KT 9999 BKN017 12/08 Q1010 NOSIG RMK WHT WHT
2026-03-24 14:20:00,METAR EGWU 241420Z 22014KT 9999 BKN017 12/08 Q1011 NOSIG RMK WHT WHT
2026-03-24 13:50:00,METAR EGWU 241350Z 23016KT 9999 BKN018 13/08 Q1012 NOSIG RMK WHT WHT
2026-03-24 13:20:00,METAR EGWU 241320Z 24016KT 9999 BKN017 13/09 Q1012 NOSIG RMK WHT WHT
2026-03-24 12:50:00,METAR EGWU 241250Z 23012G23KT 9999 BKN017 12/08 Q1013 NOSIG RMK WHT WHT
2026-03-24 12:20:00,METAR EGWU 241220Z 23014KT 9999 BKN016 13/09 Q1013 NOSIG RMK WHT WHT
2026-03-24 11:50:00,METAR EGWU 241150Z 23011KT 9999 BKN016 13/09 Q1014 NOSIG RMK WHT WHT
2026-03-24 11:20:00,METAR EGWU 241120Z 23013KT 9999 BKN018 13/08 Q1014 NOSIG RMK WHT WHT
2026-03-24 10:50:00,METAR EGWU 241050Z 24012KT 9999 BKN017 13/08 Q1015 NOSIG RMK WHT WHT
2026-03-24 10:20:00,METAR EGWU 241020Z 23013KT 9999 BKN016 12/08 Q1015 NOSIG RMK WHT WHT
2026-03-24 09:50:00,METAR EGWU 240950Z 23011KT 9999 BKN015 11/08 Q1015 TEMPO BKN014
2026-03-24 09:20:00,METAR EGWU 240920Z 24011KT 9999 BKN015 11/08 Q1016 TEMPO BKN014 RMK WHT TEMPO GRN
2026-03-24 08:50:00,METAR EGWU 240850Z 24012KT 9999 BKN014 11/07 Q1016 BECMG BKN015
2026-03-24 08:20:00,METAR EGWU 240820Z 23010KT 9999 BKN014 11/08 Q1016 BECMG BKN015
2026-03-24 07:50:00,METAR EGWU 240750Z 23010KT 9999 BKN014 10/07 Q1016 BECMG BKN015
2026-03-24 06:50:00,METAR EGWU 240650Z 23009KT 7000 HZ BKN012 BKN250 09/07 Q1016 BECMG 9999 NSW BKN015
2026-03-24 06:20:00,METAR EGWU 240620Z AUTO 23006KT 9000 BR BKN012/// SCT220/// 09/07 Q1016
2026-03-24 05:50:00,METAR EGWU 240550Z AUTO 24008KT 7000 BR NCD 09/07 Q1017
2026-03-24 05:20:00,METAR EGWU 240520Z AUTO 24007KT 6000 BR FEW015/// 09/07 Q1016
2026-03-24 04:50:00,METAR EGWU 240450Z AUTO 24008KT 5000 BR NCD 09/07 Q1016
2026-03-24 04:20:00,METAR EGWU 240420Z AUTO 24009KT 5000 BR FEW013/// 09/07 Q1017
2026-03-24 03:50:00,METAR EGWU 240350Z AUTO 24008KT 4700 BR NCD 09/07 Q1017
2026-03-24 03:20:00,METAR EGWU 240320Z AUTO 24008KT 4500 BR NCD 09/07 Q1017
2026-03-24 02:50:00,METAR EGWU 240250Z AUTO 22007KT 4600 BR NCD 09/07 Q1017
2026-03-24 02:20:00,METAR EGWU 240220Z AUTO 24007KT 5000 BR NCD 09/07 Q1018
2026-03-24 01:50:00,METAR EGWU 240150Z AUTO 22006KT 6000 BR NCD 09/07 Q1018
2026-03-24 01:20:00,METAR EGWU 240120Z AUTO 23006KT 7000 BR NCD 09/06 Q1018
2026-03-24 00:50:00,METAR EGWU 240050Z AUTO 22006KT 7000 BR NCD 09/06 Q1018
2026-03-24 00:20:00,METAR EGWU 240020Z AUTO 22004KT 8000 BR NCD 09/06 Q1019
2026-03-23 23:50:00,METAR EGWU 232350Z AUTO 22004KT 8000 BR NCD 10/06 Q1019
2026-03-23 23:20:00,METAR EGWU 232320Z AUTO 22006KT 8000 BR NCD 10/06 Q1019
2026-03-23 22:50:00,METAR EGWU 232250Z 21007KT 8000 HZ BKN150 10/06 Q1019 TEMPO 7000
2026-03-23 22:20:00,METAR EGWU 232220Z COR 21006KT 8000 HZ BKN150 10/06 Q1019 TEMPO 7000
2026-03-23 21:50:00,METAR EGWU 232150Z 22004KT 8000 HZ BKN150 10/06 Q1019 NOSIG RMK BLU BLU
2026-03-23 21:20:00,METAR EGWU 232120Z 22005KT 8000 BR BKN120 11/06 Q1019 NOSIG RMK BLU BLU
2026-03-23 20:50:00,METAR EGWU 232050Z 23006KT 8000 BR BKN120 11/06 Q1019 NOSIG RMK BLU BLU
2026-03-23 20:20:00,METAR EGWU 232020Z 24007KT 9000 BR BKN130 12/06 Q1020 NOSIG RMK BLU BLU
2026-03-23 19:50:00,METAR EGWU 231950Z 23009KT CAVOK 12/06 Q1019 NOSIG RMK BLU BLU
2026-03-23 19:20:00,METAR EGWU 231920Z 22006KT CAVOK 13/06 Q1019 NOSIG RMK BLU BLU
2026-03-23 18:50:00,METAR EGWU 231850Z 23005KT CAVOK 13/06 Q1019 NOSIG RMK BLU BLU
2026-03-23 18:20:00,METAR EGWU 231820Z 24006KT CAVOK 13/06 Q1019 NOSIG RMK BLU BLU
2026-03-23 17:50:00,METAR EGWU 231750Z 25006KT CAVOK 14/06 Q1019 NOSIG RMK BLU BLU
2026-03-23 17:20:00,METAR EGWU 231720Z 27011KT CAVOK 14/06 Q1020 NOSIG RMK BLU BLU
2026-03-23 16:50:00,METAR EGWU 231650Z 27010KT CAVOK 15/06 Q1020 NOSIG RMK BLU BLU
2026-03-23 16:20:00,METAR EGWU 231620Z 26006KT CAVOK 15/06 Q1020 NOSIG RMK BLU BLU
2026-03-23 15:50:00,METAR EGWU 231550Z 27008KT CAVOK 15/06 Q1020 NOSIG RMK BLU BLU
2026-03-23 15:20:00,METAR EGWU 231520Z 26005KT 9999 FEW039 BKN160 15/06 Q1020 NOSIG RMK BLU BLU
2026-03-23 15:20:00,METAR EGWU 231520Z 26005KT 9999 FEW039 BKN160 15/06 Q1020 NOSIG
2026-03-23 14:50:00,METAR EGWU 231450Z 25006KT 9999 FEW039 BKN160 15/06 Q1020 NOSIG RMK BLU BLU
2026-03-23 14:20:00,METAR EGWU 231420Z 28006KT 9999 FEW039 BKN160 15/06 Q1020 NOSIG RMK BLU BLU
2026-03-23 13:50:00,METAR EGWU 231350Z 25007KT 9999 FEW035 BKN160 15/06 Q1020 NOSIG RMK BLU BLU
2026-03-23 13:20:00,METAR EGWU 231320Z 25006KT 9999 FEW034 BKN160 15/06 Q1020 NOSIG RMK BLU BLU
2026-03-23 12:50:00,METAR EGWU 231250Z 20004KT 9999 FEW032 BKN160 15/06 Q1020 NOSIG RMK BLU BLU
2026-03-23 12:20:00,METAR EGWU 231220Z 22004KT 9999 FEW030 BKN160 15/07 Q1020 NOSIG RMK BLU BLU
2026-03-23 11:50:00,METAR EGWU 231150Z 23003KT 9999 FEW030 BKN160 14/06 Q1021 NOSIG RMK BLU BLU
2026-03-23 11:20:00,METAR EGWU 231120Z 20002KT 8000 HZ BKN170 13/07 Q1021 TEMPO 7000 RMK BLU TEMPO WHT
2026-03-23 10:50:00,METAR EGWU 231050Z 16004KT CAVOK 12/06 Q1021 TEMPO 7000
2026-03-23 10:20:00,METAR EGWU 231020Z 17002KT 8000 HZ OVC170 11/07 Q1021 TEMPO 7000 RMK BLU TEMPO WHT
2026-03-23 09:50:00,METAR EGWU 230950Z 14001KT 7000 HZ OVC170 10/06 Q1021 BECMG 9999 NSW
2026-03-23 09:20:00,METAR EGWU 230920Z 15001KT 7000 HZ OVC180 09/06 Q1021 BECMG 9999 NSW RMK WHT BECMG BLU
2026-03-23 08:50:00,METAR EGWU 230850Z 29001KT 7000 HZ OVC180 07/06 Q1021 BECMG 9999 NSW
2026-03-23 08:20:00,METAR EGWU 230820Z COR 28001KT 6000 HZ OVC180 06/05 Q1021 TEMPO 4000 HZ
2026-03-23 07:50:00,METAR EGWU 230750Z 29001KT 5000 BR SKC 05/04 Q1020 TEMPO 4000 BR
2026-03-23 07:20:00,METAR EGWU 230720Z 26002KT 7000 BR OVC180 04/03 Q1020 NOSIG RMK WHT WHT
2026-03-23 06:50:00,METAR EGWU 230650Z 28002KT 7000 BR OVC180 04/02 Q1020 NOSIG RMK WHT WHT
2026-03-23 06:20:00,METAR EGWU 230620Z 28002KT 7000 BR SKC 03/02 Q1020 NOSIG RMK WHT WHT
2026-03-23 05:50:00,METAR EGWU 230550Z AUTO 32002KT 8000 BR NCD 03/02 Q1020
2026-03-23 05:20:00,METAR EGWU 230520Z AUTO 34003KT 9999 NCD 02/01 Q1019
2026-03-23 04:50:00,METAR EGWU 230450Z AUTO 32002KT 9999 NCD 02/01 Q1019
2026-03-23 04:20:00,METAR EGWU 230420Z AUTO 29003KT 9999 NCD 02/00 Q1019
2026-03-23 03:50:00,METAR EGWU 230350Z AUTO 00000KT 9999 NCD 02/01 Q1018
2026-03-23 03:20:00,METAR EGWU 230320Z AUTO 31003KT 9999 NCD 02/00 Q1018
2026-03-23 02:50:00,METAR EGWU 230250Z AUTO 31002KT 9999 NCD 03/01 Q1018
2026-03-23 02:20:00,METAR EGWU 230220Z AUTO 30001KT 9999 NCD 03/01 Q1018
2026-03-23 01:50:00,METAR EGWU 230150Z AUTO 30002KT 9999 NCD 03/01 Q1018
2026-03-23 01:20:00,METAR EGWU 230120Z AUTO 30002KT 9999 FEW034/// 04/01 Q1018
2026-03-23 00:50:00,METAR EGWU 230050Z AUTO 35001KT 9999 FEW034/// 05/01 Q1019
2026-03-23 00:20:00,METAR EGWU 230020Z AUTO 00000KT 9999 BKN035/// 06/01 Q1018
2026-03-22 23:50:00,METAR EGWU 222350Z AUTO 26002KT 9999 FEW035/// 05/01 Q1018
2026-03-22 23:20:00,METAR EGWU 222320Z AUTO 06003KT 9999 NCD 06/01 Q1018
2026-03-22 22:50:00,METAR EGWU 222250Z AUTO 34005KT 9999 NCD 05/01 Q1018
2026-03-22 22:20:00,METAR EGWU 222220Z AUTO 32001KT 9999 FEW140/// 06/01 Q1018
2026-03-22 21:50:00,METAR EGWU 222150Z AUTO 35002KT 9999 BKN140/// 07/01 Q1017
2026-03-22 21:20:00,METAR EGWU 222120Z AUTO 08002KT 9999 OVC140/// 08/00 Q1017
2026-03-22 20:50:00,METAR EGWU 222050Z AUTO 33003KT 9999 BKN150/// 08/M00 Q1017
2026-03-22 20:20:00,METAR EGWU 222020Z AUTO 36002KT 9999 SCT150/// 08/M01 Q1017
2026-03-22 19:50:00,METAR EGWU 221950Z AUTO 35003KT 9999 FEW150/// 08/M00 Q1017
2026-03-22 19:20:00,METAR EGWU 221920Z AUTO 01003KT 9999 NCD 09/M00 Q1017
2026-03-22 18:50:00,METAR EGWU 221850Z AUTO 03003KT 9999 NCD 09/M01 Q1016
2026-03-22 18:20:00,METAR EGWU 221820Z 01004KT CAVOK 11/M01 Q1016 NOSIG RMK BLU BLU
2026-03-22 17:50:00,METAR EGWU 221750Z 33004KT CAVOK 11/02 Q1016 NOSIG RMK BLU BLU
2026-03-22 17:20:00,METAR EGWU 221720Z 33006KT CAVOK 11/02 Q1016 NOSIG RMK BLU BLU
2026-03-22 16:50:00,METAR EGWU 221650Z 34006KT CAVOK 12/02 Q1016 NOSIG RMK BLU BLU
2026-03-22 16:20:00,METAR EGWU 221620Z 33007KT CAVOK 12/02 Q1015 NOSIG RMK BLU BLU
2026-03-22 15:50:00,METAR EGWU 221550Z 31006KT CAVOK 12/03 Q1015 NOSIG RMK BLU BLU
2026-03-22 15:20:00,METAR EGWU 221520Z 31006KT CAVOK 12/02 Q1015 NOSIG RMK BLU BLU
2026-03-22 14:50:00,METAR EGWU 221450Z 29004KT CAVOK 12/03 Q1015 NOSIG RMK BLU BLU
2026-03-22 14:20:00,METAR EGWU 221420Z 28005KT CAVOK 12/03 Q1015 NOSIG RMK BLU BLU
2026-03-22 13:50:00,METAR EGWU 221350Z 29005KT CAVOK 12/02 Q1016 NOSIG RMK BLU BLU
2026-03-22 13:20:00,METAR EGWU 221320Z 32003KT CAVOK 12/03 Q1016 NOSIG RMK BLU BLU
2026-03-22 12:50:00,METAR EGWU 221250Z 01002KT 9999 SKC 11/02 Q1016 NOSIG RMK BLU BLU
2026-03-22 12:20:00,METAR EGWU 221220Z 07002KT 9999 SKC 11/03 Q1016 NOSIG RMK BLU BLU
2026-03-22 11:50:00,METAR EGWU 221150Z 12004KT CAVOK 11/03 Q1016 NOSIG
2026-03-22 11:20:00,METAR EGWU 221120Z 09004KT CAVOK 09/03 Q1016 NOSIG RMK BLU BLU
2026-03-22 10:50:00,METAR EGWU 221050Z 10004KT 9999 FEW020 09/04 Q1016 NOSIG RMK BLU BLU
2026-03-22 10:20:00,METAR EGWU 221020Z 12005KT 9999 FEW016 08/04 Q1017 NOSIG RMK BLU BLU
2026-03-22 09:50:00,METAR EGWU 220950Z 15003KT 8000 BR BKN010 06/05 Q1017 BECMG NSW FEW015 RMK GRN BECMG BLU
2026-03-22 09:20:00,METAR EGWU 220920Z 07002KT 8000 BR BKN007 05/05 Q1017 BECMG NSW FEW007 RMK GRN BECMG BLU
2026-03-22 08:50:00,METAR EGWU 220850Z 05004KT 7000 BR BKN004 04/04 Q1017 BECMG 9999 NSW FEW004 RMK YLO2 BECMG BLU
2026-03-22 08:38:00,SPECI EGWU 220838Z 03004KT 6000 BR OVC004 04/04 Q1017 BECMG 9999 NSW RMK YLO2 BECMG BLU
2026-03-22 08:20:00,METAR EGWU 220820Z 04004KT 1500 BR OVC002 03/03 Q1017 BECMG 9999 NSW RMK AMB BECMG BLU
2026-03-22 07:50:00,METAR EGWU 220750Z 02004KT 0300 FG OVC002 03/02 Q1017 TEMPO 3000 BR SCT003
2026-03-22 07:20:00,METAR EGWU 220720Z 34005KT 0300 FG OVC001 02/01 Q1017 TEMPO 3000 BR FEW003 RMK RED TEMPO YLO2
2026-03-22 06:50:00,METAR EGWU 220650Z 02001KT 0400 FG OVC001 01/00 Q1017 TEMPO 3000 BR SCT003 RMK RED TEMPO YLO2
2026-03-22 06:20:00,METAR EGWU 220620Z AUTO 36002KT 9000 BR FEW004/// 00/M01 Q1016
2026-03-22 05:50:00,METAR EGWU 220550Z AUTO 33004KT 9999 NCD M01/M02 Q1016
2026-03-22 05:20:00,METAR EGWU 220520Z AUTO 03002KT 9999 NCD M00/M01 Q1016
2026-03-22 04:50:00,METAR EGWU 220450Z AUTO 08001KT 9999 NCD M00/M01 Q1016
2026-03-22 04:20:00,METAR EGWU 220420Z AUTO 29001KT 9999 NCD 00/M01 Q1016
2026-03-22 03:50:00,METAR EGWU 220350Z AUTO 00000KT 9999 NCD 00/M00 Q1017
2026-03-22 03:20:00,METAR EGWU 220320Z AUTO 02001KT 9999 NCD 01/M00 Q1017
2026-03-22 02:50:00,METAR EGWU 220250Z AUTO 33002KT 9999 NCD 01/M00 Q1016
2026-03-22 02:20:00,METAR EGWU 220220Z AUTO 32004KT 9999 NCD 01/M00 Q1017
2026-03-22 01:50:00,METAR EGWU 220150Z AUTO 34003KT 9999 NCD 01/M01 Q1017
2026-03-22 01:20:00,METAR EGWU 220120Z AUTO 28002KT 9999 NCD 02/M00 Q1017
2026-03-22 00:50:00,METAR EGWU 220050Z AUTO 29002KT 9999 NCD 02/01 Q1017
2026-03-22 00:20:00,METAR EGWU 220020Z AUTO 25001KT 9999 NCD 03/01 Q1017
2026-03-21 23:50:00,METAR EGWU 212350Z 08003KT CAVOK 03/01 Q1017 BECMG 7000 BR
2026-03-21 23:20:00,METAR EGWU 212320Z 34001KT CAVOK 03/M01 Q1017 BECMG 7000 BR RMK BLU BECMG WHT
2026-03-21 22:50:00,METAR EGWU 212250Z 12001KT CAVOK 04/M00 Q1017 NOSIG RMK BLU BLU
2026-03-21 22:20:00,METAR EGWU 212220Z 13001KT CAVOK 04/00 Q1018 NOSIG RMK BLU BLU
2026-03-21 21:50:00,METAR EGWU 212150Z 00000KT CAVOK 05/M01 Q1018 NOSIG RMK BLU BLU
2026-03-21 21:20:00,METAR EGWU 212120Z 32001KT CAVOK 05/M01 Q1018 NOSIG RMK BLU BLU
2026-03-21 20:50:00,METAR EGWU 212050Z COR 07002KT CAVOK 07/M00 Q1017 NOSIG
2026-03-21 20:20:00,METAR EGWU 212020Z 05003KT CAVOK 08/M00 Q1018 NOSIG RMK BLU BLU
2026-03-21 19:50:00,METAR EGWU 211950Z 03005KT CAVOK 09/M00 Q1018 NOSIG RMK BLU BLU
2026-03-21 19:20:00,METAR EGWU 211920Z 03005KT CAVOK 10/M00 Q1017 NOSIG RMK BLU BLU
2026-03-21 18:50:00,METAR EGWU 211850Z 02004KT CAVOK 11/M02 Q1017 NOSIG RMK BLU BLU
2026-03-21 18:20:00,METAR EGWU 211820Z 05006KT CAVOK 12/M03 Q1017 NOSIG RMK BLU BLU
2026-03-21 17:50:00,METAR EGWU 211750Z 05006KT CAVOK 13/M04 Q1017 NOSIG RMK BLU BLU
2026-03-21 17:20:00,METAR EGWU 211720Z 05007KT CAVOK 13/M04 Q1017 NOSIG RMK BLU BLU
2026-03-21 16:50:00,METAR EGWU 211650Z 05008KT CAVOK 14/M04 Q1017 NOSIG RMK BLU BLU
2026-03-21 16:20:00,METAR EGWU 211620Z 05006KT CAVOK 14/M05 Q1017 NOSIG RMK BLU BLU
2026-03-21 15:50:00,METAR EGWU 211550Z 03008KT CAVOK 14/M07 Q1017 NOSIG RMK BLU BLU
2026-03-21 14:50:00,METAR EGWU 211450Z 11006KT 9999 SKC 14/M08 Q1018 NOSIG RMK BLU BLU
2026-03-21 14:20:00,METAR EGWU 211420Z 07007KT 9999 SKC 14/M07 Q1018 NOSIG RMK BLU BLU
2026-03-21 13:50:00,METAR EGWU 211350Z 10006KT 9999 SKC 14/M04 Q1018 NOSIG RMK BLU BLU
2026-03-21 13:20:00,METAR EGWU 211320Z 09008KT 9999 SKC 13/M05 Q1018 NOSIG RMK BLU BLU
2026-03-21 12:50:00,METAR EGWU 211250Z 08006KT 9999 SKC 13/M04 Q1019 NOSIG RMK BLU BLU
2026-03-21 12:20:00,METAR EGWU 211220Z 08008KT 9999 SKC 12/M05 Q1019 NOSIG RMK BLU BLU
2026-03-21 11:50:00,METAR EGWU 211150Z 08006KT 9999 SKC 12/M05 Q1020 NOSIG RMK BLU BLU
2026-03-21 11:20:00,METAR EGWU 211120Z 07008KT 9999 SKC 10/M03 Q1020 NOSIG RMK BLU BLU
2026-03-21 10:50:00,METAR EGWU 211050Z 07009KT 9999 SKC 10/M01 Q1020 NOSIG RMK BLU BLU
2026-03-21 10:20:00,METAR EGWU 211020Z 03006KT 9999 SKC 08/02 Q1020 NOSIG RMK BLU BLU
2026-03-21 09:50:00,METAR EGWU 210950Z 03006KT 9999 SKC 07/03 Q1020 NOSIG RMK BLU BLU
2026-03-21 09:20:00,METAR EGWU 210920Z 01005KT 9999 FEW010 07/04 Q1020 NOSIG RMK BLU BLU
2026-03-21 08:50:00,METAR EGWU 210850Z 09003KT 9999 FEW006 06/05 Q1020 NOSIG RMK BLU BLU
2026-03-21 08:20:00,METAR EGWU 210820Z 03002KT 9999 FEW006 BKN250 05/04 Q1020 NOSIG RMK BLU BLU
2026-03-21 07:50:00,METAR EGWU 210750Z 01003KT 9999 FEW005 BKN250 04/04 Q1020 NOSIG RMK BLU BLU
2026-03-21 07:20:00,METAR EGWU 210720Z 33003KT 9999 FEW004 BKN250 03/02 Q1020 NOSIG RMK BLU BLU
2026-03-21 06:50:00,METAR EGWU 210650Z 09001KT CAVOK 02/01 Q1020 NOSIG RMK BLU BLU
2026-03-21 06:20:00,METAR EGWU 210620Z AUTO 36003KT 9999 NCD 01/01 Q1020
2026-03-21 05:50:00,METAR EGWU 210550Z AUTO 33002KT 9999 NCD 01/00 Q1020
2026-03-21 05:20:00,METAR EGWU 210520Z AUTO 35001KT 9999 NCD 02/01 Q1020
2026-03-21 04:50:00,METAR EGWU 210450Z AUTO 34003KT 9999 NCD 02/01 Q1020
2026-03-21 04:20:00,METAR EGWU 210420Z AUTO 31001KT 9999 NCD 02/01 Q1020
2026-03-21 03:50:00,METAR EGWU 210350Z AUTO 34003KT 9999 NCD 02/01 Q1020
2026-03-21 03:20:00,METAR EGWU 210320Z AUTO 34001KT 9999 NCD 02/01 Q1020
2026-03-21 02:50:00,METAR EGWU 210250Z AUTO 34001KT 9999 NCD 03/02 Q1020
2026-03-21 02:20:00,METAR EGWU 210220Z AUTO 01004KT 9999 NCD 03/02 Q1020
2026-03-21 01:50:00,METAR EGWU 210150Z AUTO 03004KT 9999 NCD 03/02 Q1020
2026-03-21 01:20:00,METAR EGWU 210120Z AUTO 01003KT 9999 NCD 04/02 Q1020
2026-03-21 00:50:00,METAR EGWU 210050Z AUTO 04004KT 9999 NCD 05/03 Q1020
2026-03-21 00:20:00,METAR EGWU 210020Z AUTO 07004KT 9999 NCD 06/03 Q1020
2026-03-20 23:50:00,METAR EGWU 202350Z 07004KT CAVOK 07/04 Q1020 NOSIG RMK BLU BLU
2026-03-20 23:20:00,METAR EGWU 202320Z 07005KT CAVOK 07/04 Q1021 NOSIG RMK BLU BLU
2026-03-20 22:50:00,METAR EGWU 202250Z 06005KT CAVOK 08/04 Q1021 NOSIG RMK BLU BLU
2026-03-20 22:20:00,METAR EGWU 202220Z 08005KT CAVOK 08/03 Q1021 NOSIG RMK BLU BLU
2026-03-20 21:50:00,METAR EGWU 202150Z 07006KT CAVOK 08/03 Q1021 NOSIG RMK BLU BLU
2026-03-20 21:20:00,METAR EGWU 202120Z 09004KT CAVOK 09/03 Q1021 NOSIG RMK BLU BLU
2026-03-20 20:50:00,METAR EGWU 202050Z 09006KT 9999 FEW029 BKN300 09/04 Q1021 NOSIG RMK BLU BLU
2026-03-20 20:20:00,METAR EGWU 202020Z 10008KT 9999 SCT029 BKN030 10/04 Q1020 NOSIG RMK BLU BLU
2026-03-20 19:50:00,METAR EGWU 201950Z 11007KT 9999 BKN028 11/06 Q1020 NOSIG RMK BLU BLU
2026-03-20 19:20:00,METAR EGWU 201920Z 06004KT 9999 SCT032 BKN300 11/06 Q1020 NOSIG RMK BLU BLU
2026-03-20 18:50:00,METAR EGWU 201850Z 07005KT 9999 FEW030 BKN300 11/06 Q1020 NOSIG RMK BLU BLU
2026-03-20 18:20:00,METAR EGWU 201820Z 09006KT 9999 FEW030 BKN300 12/06 Q1020 NOSIG RMK BLU BLU
2026-03-20 17:50:00,METAR EGWU 201750Z 08006KT 9999 FEW031 BKN300 13/06 Q1020 NOSIG RMK BLU BLU
2026-03-20 17:20:00,METAR EGWU 201720Z 07007KT 9999 FEW033 BKN300 13/06 Q1020 NOSIG RMK BLU BLU
2026-03-20 16:50:00,METAR EGWU 201650Z 09008KT 9999 FEW030 SCT100 BKN300 14/05 Q1020 NOSIG RMK BLU BLU
2026-03-20 16:20:00,METAR EGWU 201620Z 08007KT CAVOK 14/04 Q1020 NOSIG RMK BLU BLU
2026-03-20 15:50:00,METAR EGWU 201550Z 07009KT CAVOK 14/04 Q1020 NOSIG RMK BLU BLU
2026-03-20 15:20:00,METAR EGWU 201520Z 07007KT CAVOK 15/04 Q1020 NOSIG RMK BLU BLU
2026-03-20 14:50:00,METAR EGWU 201450Z 05006KT CAVOK 14/04 Q1021 NOSIG
2026-03-20 14:20:00,METAR EGWU 201420Z 07008KT CAVOK 14/03 Q1021 NOSIG RMK BLU BLU
2026-03-20 13:50:00,METAR EGWU 201350Z 06007KT CAVOK 14/03 Q1021 NOSIG RMK BLU BLU
2026-03-20 13:20:00,METAR EGWU 201320Z 07008KT CAVOK 14/02 Q1021 NOSIG RMK BLU BLU
2026-03-20 12:50:00,METAR EGWU 201250Z 07007KT CAVOK 13/03 Q1022 NOSIG RMK BLU BLU
2026-03-20 12:20:00,METAR EGWU 201220Z 08007KT CAVOK 13/03 Q1022 NOSIG RMK BLU BLU
2026-03-20 11:50:00,METAR EGWU 201150Z 06004KT CAVOK 12/04 Q1022 NOSIG RMK BLU BLU
2026-03-20 11:20:00,METAR EGWU 201120Z 06007KT CAVOK 11/04 Q1023 NOSIG RMK BLU BLU
2026-03-20 10:50:00,METAR EGWU 201050Z 04005KT CAVOK 11/04 Q1023 NOSIG RMK BLU BLU
2026-03-20 10:20:00,METAR EGWU 201020Z 04005KT CAVOK 09/04 Q1023 NOSIG RMK BLU BLU
2026-03-20 09:50:00,METAR EGWU 200950Z 02006KT CAVOK 08/04 Q1023 NOSIG RMK BLU BLU
2026-03-20 09:20:00,METAR EGWU 200920Z 03006KT CAVOK 07/03 Q1023 NOSIG RMK BLU BLU
2026-03-20 08:50:00,METAR EGWU 200850Z 04007KT 8000 HZ FEW050 BKN350 07/03 Q1023 TEMPO 7000 RMK BLU TEMPO WHT
2026-03-20 08:20:00,METAR EGWU 200820Z 04006KT 7000 HZ FEW050 BKN350 06/03 Q1023 TEMPO 9999 NSW RMK WHT TEMPO BLU
2026-03-20 07:50:00,METAR EGWU 200750Z 03005KT 7000 HZ FEW050 BKN250 05/03 Q1023 TEMPO 9999 NSW
2026-03-20 07:20:00,METAR EGWU 200720Z 35002KT 6000 HZ FEW050 BKN250 03/02 Q1023 TEMPO 9999 NSW RMK WHT TEMPO BLU
2026-03-20 06:50:00,METAR EGWU 200650Z 02004KT 7000 HZ FEW050 BKN250 02/00 Q1023 TEMPO 9999 NSW
2026-03-20 06:20:00,METAR EGWU 200620Z AUTO 02001KT 7000 BR NCD 02/01 Q1023
2026-03-20 05:50:00,METAR EGWU 200550Z AUTO 02004KT 7000 BR NCD 02/01 Q1023
2026-03-20 05:20:00,METAR EGWU 200520Z AUTO 03005KT 8000 BR NCD 03/02 Q1023
2026-03-20 04:50:00,METAR EGWU 200450Z AUTO 03004KT 8000 BR NCD 01/00 Q1023
2026-03-20 04:20:00,METAR EGWU 200420Z AUTO 32002KT 7000 BR NCD 02/00 Q1023
2026-03-20 03:50:00,METAR EGWU 200350Z AUTO 34002KT 8000 BR NCD 02/00 Q1023
2026-03-20 03:20:00,METAR EGWU 200320Z AUTO 02005KT 9999 NCD 03/01 Q1023
2026-03-20 02:50:00,METAR EGWU 200250Z AUTO 33003KT 9999 NCD 03/01 Q1023
2026-03-20 02:20:00,METAR EGWU 200220Z AUTO 02002KT 9999 NCD 02/01 Q1024
2026-03-20 01:50:00,METAR EGWU 200150Z AUTO 36003KT 9999 NCD 03/M00 Q1024
2026-03-20 01:20:00,METAR EGWU 200120Z AUTO 35001KT 9999 NCD 03/01 Q1024
2026-03-20 00:50:00,METAR EGWU 200050Z AUTO 05001KT 9999 NCD 04/01 Q1024
2026-03-20 00:20:00,METAR EGWU 200020Z 03004KT CAVOK 06/02 Q1025 NOSIG RMK BLU BLU
2026-03-19 23:50:00,METAR EGWU 192350Z 04001KT CAVOK 05/01 Q1025 NOSIG RMK BLU BLU
2026-03-19 23:20:00,METAR EGWU 192320Z 04004KT CAVOK 06/02 Q1025 NOSIG RMK BLU BLU
2026-03-19 22:50:00,METAR EGWU 192250Z 03003KT CAVOK 06/01 Q1025 NOSIG RMK BLU BLU
2026-03-19 22:20:00,METAR EGWU 192220Z 06004KT CAVOK 08/02 Q1025 NOSIG RMK BLU BLU
2026-03-19 21:50:00,METAR EGWU 192150Z 09006KT CAVOK 09/02 Q1025 NOSIG RMK BLU BLU
2026-03-19 21:20:00,METAR EGWU 192120Z 10004KT CAVOK 09/02 Q1025 NOSIG RMK BLU BLU
2026-03-19 20:50:00,METAR EGWU 192050Z 08007KT CAVOK 10/02 Q1025 NOSIG RMK BLU BLU
2026-03-19 20:20:00,METAR EGWU 192020Z 10003KT CAVOK 10/02 Q1025 NOSIG RMK BLU BLU
2026-03-19 19:50:00,METAR EGWU 191950Z 08004KT CAVOK 10/02 Q1024 NOSIG RMK BLU BLU
2026-03-19 19:20:00,METAR EGWU 191920Z 07004KT CAVOK 11/01 Q1024 NOSIG RMK BLU BLU
2026-03-19 18:50:00,METAR EGWU 191850Z 09004KT CAVOK 12/01 Q1025 NOSIG RMK BLU BLU
2026-03-19 18:20:00,METAR EGWU 191820Z 09005KT CAVOK 14/01 Q1025 NOSIG RMK BLU BLU
2026-03-19 17:50:00,METAR EGWU 191750Z 09007KT CAVOK 15/00 Q1024 NOSIG RMK BLU BLU
2026-03-19 17:20:00,METAR EGWU 191720Z 09007KT CAVOK 16/00 Q1024 NOSIG RMK BLU BLU
2026-03-19 16:50:00,METAR EGWU 191650Z 07009KT CAVOK 16/00 Q1024 NOSIG RMK BLU BLU
2026-03-19 16:20:00,METAR EGWU 191620Z 09008KT CAVOK 16/M00 Q1024 NOSIG RMK BLU BLU
2026-03-19 15:50:00,METAR EGWU 191550Z 06008KT CAVOK 17/01 Q1024 NOSIG RMK BLU BLU
2026-03-19 15:20:00,METAR EGWU 191520Z 11009KT CAVOK 18/00 Q1025 NOSIG RMK BLU BLU
2026-03-19 14:50:00,METAR EGWU 191450Z 11010KT CAVOK 18/01 Q1025 NOSIG RMK BLU BLU
2026-03-19 14:20:00,METAR EGWU 191420Z 11009KT CAVOK 17/00 Q1025 NOSIG RMK BLU BLU
2026-03-19 13:50:00,METAR EGWU 191350Z 09010KT CAVOK 17/01 Q1025 NOSIG RMK BLU BLU
2026-03-19 13:20:00,METAR EGWU 191320Z 10011KT CAVOK 17/00 Q1025 NOSIG RMK BLU BLU
2026-03-19 12:50:00,METAR EGWU 191250Z 12012KT CAVOK 18/02 Q1026 NOSIG RMK BLU BLU
2026-03-19 12:20:00,METAR EGWU 191220Z 09007KT CAVOK 17/02 Q1026 NOSIG RMK BLU BLU
2026-03-19 11:50:00,METAR EGWU 191150Z 10009KT CAVOK 16/03 Q1027 NOSIG RMK BLU BLU
2026-03-19 11:20:00,METAR EGWU 191120Z 09009KT CAVOK 15/02 Q1027 NOSIG RMK BLU BLU
2026-03-19 10:50:00,METAR EGWU 191050Z 10010KT CAVOK 15/04 Q1027 NOSIG RMK BLU BLU
2026-03-19 10:20:00,METAR EGWU 191020Z 10008KT CAVOK 14/04 Q1027 NOSIG RMK BLU BLU
2026-03-19 09:50:00,METAR EGWU 190950Z 10007KT CAVOK 14/05 Q1027 NOSIG RMK BLU BLU
2026-03-19 09:20:00,METAR EGWU 190920Z 10007KT CAVOK 12/05 Q1027 NOSIG RMK BLU BLU
2026-03-19 08:50:00,METAR EGWU 190850Z 07007KT CAVOK 11/05 Q1027 NOSIG RMK BLU BLU
2026-03-19 08:20:00,METAR EGWU 190820Z 07004KT CAVOK 09/06 Q1027 NOSIG RMK BLU BLU
2026-03-19 07:50:00,METAR EGWU 190750Z 09004KT CAVOK 06/05 Q1027 NOSIG RMK BLU BLU
2026-03-19 07:20:00,METAR EGWU 190720Z 06002KT CAVOK 03/03 Q1027 NOSIG RMK BLU BLU
2026-03-19 06:50:00,METAR EGWU 190650Z 03001KT CAVOK 03/02 Q1027 NOSIG RMK BLU BLU
2026-03-19 06:20:00,METAR EGWU 190620Z AUTO 35002KT 9999 NCD 02/00 Q1026
2026-03-19 05:50:00,METAR EGWU 190550Z AUTO 05001KT 9999 NCD 02/01 Q1026
2026-03-19 05:20:00,METAR EGWU 190520Z AUTO 04003KT 9999 NCD 03/02 Q1026
2026-03-19 04:50:00,METAR EGWU 190450Z AUTO 01004KT 9999 NCD 02/01 Q1026
2026-03-19 04:20:00,METAR EGWU 190420Z AUTO 02004KT 9999 NCD 03/01 Q1025
2026-03-19 03:50:00,METAR EGWU 190350Z AUTO 03001KT 9999 NCD 03/01 Q1025
2026-03-19 03:20:00,METAR EGWU 190320Z AUTO 10004KT 9999 NCD 04/02 Q1025
2026-03-19 02:50:00,METAR EGWU 190250Z AUTO 06005KT 9999 NCD 06/03 Q1025
2026-03-19 02:20:00,METAR EGWU 190220Z AUTO 08006KT 9999 NCD 06/03 Q1025
2026-03-19 01:50:00,METAR EGWU 190150Z AUTO 06004KT 9999 NCD 05/02 Q1025
2026-03-19 01:20:00,METAR EGWU 190120Z AUTO 04004KT 9999 NCD 05/02 Q1025
2026-03-19 00:50:00,METAR EGWU 190050Z AUTO 05005KT 9999 NCD 06/02 Q1025
2026-03-19 00:20:00,METAR EGWU 190020Z AUTO 05005KT 9999 NCD 06/02 Q1025
2026-03-18 23:50:00,METAR EGWU 182350Z 06005KT CAVOK 06/02 Q1025 NOSIG RMK BLU BLU
2026-03-18 23:20:00,METAR EGWU 182320Z 05006KT CAVOK 07/02 Q1025 NOSIG RMK BLU BLU
2026-03-18 22:50:00,METAR EGWU 182250Z 05005KT CAVOK 07/02 Q1025 NOSIG RMK BLU BLU
2026-03-18 22:20:00,METAR EGWU 182220Z 07005KT CAVOK 08/02 Q1025 NOSIG RMK BLU BLU
2026-03-18 21:50:00,METAR EGWU 182150Z 07006KT CAVOK 09/03 Q1024 NOSIG RMK BLU BLU
2026-03-18 21:20:00,METAR EGWU 182120Z 08007KT CAVOK 09/02 Q1024 NOSIG RMK BLU BLU
2026-03-18 20:50:00,METAR EGWU 182050Z 09007KT CAVOK 10/02 Q1024 NOSIG RMK BLU BLU
2026-03-18 20:20:00,METAR EGWU 182020Z AUTO 09006KT 9999 NCD 11/02 Q1024
2026-03-18 19:50:00,METAR EGWU 181950Z 09007KT CAVOK 11/02 Q1024 NOSIG RMK BLU BLU
2026-03-18 19:20:00,METAR EGWU 181920Z 09009KT CAVOK 12/03 Q1023 NOSIG RMK BLU BLU
2026-03-18 18:50:00,METAR EGWU 181850Z 09011KT CAVOK 12/03 Q1023 NOSIG RMK BLU BLU
2026-03-18 18:20:00,METAR EGWU 181820Z 08010KT CAVOK 13/04 Q1022 NOSIG RMK BLU BLU
2026-03-18 17:50:00,METAR EGWU 181750Z 10009KT CAVOK 15/05 Q1022 NOSIG RMK BLU BLU
2026-03-18 17:20:00,METAR EGWU 181720Z 10012KT CAVOK 16/06 Q1022 NOSIG RMK BLU BLU
2026-03-18 16:50:00,METAR EGWU 181650Z 10010KT CAVOK 17/05 Q1021 NOSIG RMK BLU BLU
2026-03-18 16:20:00,METAR EGWU 181620Z 10009KT CAVOK 18/05 Q1021 NOSIG RMK BLU BLU
2026-03-18 15:50:00,METAR EGWU 181550Z 12009KT CAVOK 19/04 Q1020 NOSIG RMK BLU BLU
2026-03-18 15:20:00,METAR EGWU 181520Z 13008KT CAVOK 19/05 Q1020 NOSIG RMK BLU BLU
2026-03-18 14:50:00,METAR EGWU 181450Z 14009KT CAVOK 20/06 Q1020 NOSIG RMK BLU BLU
2026-03-18 14:20:00,METAR EGWU 181420Z 12010KT CAVOK 20/05 Q1020 NOSIG RMK BLU BLU
2026-03-18 13:50:00,METAR EGWU 181350Z 13009KT CAVOK 20/06 Q1020 NOSIG RMK BLU BLU
2026-03-18 13:20:00,METAR EGWU 181320Z 11009KT CAVOK 19/07 Q1020 NOSIG RMK BLU BLU
2026-03-18 12:50:00,METAR EGWU 181250Z 11010KT CAVOK 18/// Q1021 NOSIG
2026-03-18 12:20:00,METAR EGWU 181220Z 15008KT CAVOK 19/07 Q1021 NOSIG RMK BLU BLU
2026-03-18 11:50:00,METAR EGWU 181150Z 12009KT CAVOK 19/07 Q1021 NOSIG RMK BLU BLU
2026-03-18 11:20:00,METAR EGWU 181120Z 12008KT CAVOK 18/08 Q1021 NOSIG RMK BLU BLU
2026-03-18 10:50:00,METAR EGWU 181050Z 12008KT CAVOK 17/08 Q1021 NOSIG RMK BLU BLU
2026-03-18 10:20:00,METAR EGWU 181020Z 11008KT CAVOK 16/08 Q1021 NOSIG RMK BLU BLU
2026-03-18 09:50:00,METAR EGWU 180950Z 12007KT CAVOK 15/08 Q1020 NOSIG RMK BLU BLU
2026-03-18 09:20:00,METAR EGWU 180920Z 12008KT CAVOK 14/08 Q1020 NOSIG RMK BLU BLU
2026-03-18 08:50:00,METAR EGWU 180850Z 13007KT CAVOK 13/08 Q1020 NOSIG RMK BLU BLU
2026-03-18 08:20:00,METAR EGWU 180820Z 12007KT CAVOK 11/09 Q1020 NOSIG RMK BLU BLU
2026-03-18 07:50:00,METAR EGWU 180750Z 11005KT CAVOK 08/08 Q1020 NOSIG RMK BLU BLU
2026-03-18 07:20:00,METAR EGWU 180720Z 11003KT CAVOK 04/04 Q1019 NOSIG RMK BLU BLU
2026-03-18 06:50:00,METAR EGWU 180650Z 09002KT CAVOK 03/03 Q1019 NOSIG RMK BLU BLU
2026-03-18 06:20:00,METAR EGWU 180620Z AUTO 00000KT 9999 NCD 03/02 Q1018
2026-03-18 05:50:00,METAR EGWU 180550Z AUTO 00000KT 9999 NCD 03/02 Q1018
2026-03-18 05:20:00,METAR EGWU 180520Z AUTO 08002KT 9999 NCD 03/03 Q1018
2026-03-18 04:50:00,METAR EGWU 180450Z AUTO 08001KT 9999 NCD 04/03 Q1017
2026-03-18 04:20:00,METAR EGWU 180420Z AUTO 11002KT 9999 NCD 04/04 Q1017
2026-03-18 03:50:00,METAR EGWU 180350Z AUTO 13002KT 9999 NCD 04/03 Q1017
2026-03-18 03:20:00,METAR EGWU 180320Z AUTO 13002KT 9999 NCD 04/03 Q1016
2026-03-18 02:50:00,METAR EGWU 180250Z AUTO 10002KT 9999 NCD 05/04 Q1016
2026-03-18 02:20:00,METAR EGWU 180220Z AUTO 09002KT 9999 NCD 05/04 Q1016
2026-03-18 01:50:00,METAR EGWU 180150Z AUTO 06002KT 9999 NCD 05/04 Q1016
2026-03-18 01:20:00,METAR EGWU 180120Z AUTO 11001KT 9999 NCD 06/04 Q1016
2026-03-18 00:50:00,METAR EGWU 180050Z AUTO 09003KT 9999 NCD 06/05 Q1016
2026-03-18 00:20:00,METAR EGWU 180020Z AUTO 11004KT 9999 NCD 07/05 Q1015
2026-03-17 23:50:00,METAR EGWU 172350Z 12004KT CAVOK 07/06 Q1015 NOSIG RMK BLU BLU
2026-03-17 23:20:00,METAR EGWU 172320Z 12005KT CAVOK 08/06 Q1015 NOSIG RMK BLU BLU
2026-03-17 22:50:00,METAR EGWU 172250Z 13007KT CAVOK 08/06 Q1015 NOSIG RMK BLU BLU
2026-03-17 22:20:00,METAR EGWU 172220Z 12006KT CAVOK 07/05 Q1015 NOSIG RMK BLU BLU
2026-03-17 21:50:00,METAR EGWU 172150Z 10005KT CAVOK 08/05 Q1015 NOSIG RMK BLU BLU
2026-03-17 21:20:00,METAR EGWU 172120Z 11003KT CAVOK 08/06 Q1015 NOSIG RMK BLU BLU
2026-03-17 20:50:00,METAR EGWU 172050Z 10002KT CAVOK 08/05 Q1015 NOSIG RMK BLU BLU
2026-03-17 20:20:00,METAR EGWU 172020Z 13002KT CAVOK 09/06 Q1015 NOSIG RMK BLU BLU
2026-03-17 19:50:00,METAR EGWU 171950Z 15004KT CAVOK 10/06 Q1015 NOSIG RMK BLU BLU
2026-03-17 19:20:00,METAR EGWU 171920Z 14004KT CAVOK 11/06 Q1015 NOSIG RMK BLU BLU
2026-03-17 18:50:00,METAR EGWU 171850Z 16004KT CAVOK 11/06 Q1015 NOSIG RMK BLU BLU
2026-03-17 18:20:00,METAR EGWU 171820Z 18005KT CAVOK 12/06 Q1014 NOSIG RMK BLU BLU
2026-03-17 17:50:00,METAR EGWU 171750Z 18006KT CAVOK 13/06 Q1014 NOSIG RMK BLU BLU
2026-03-17 17:20:00,METAR EGWU 171720Z 21009KT CAVOK 13/06 Q1014 NOSIG RMK BLU BLU
2026-03-17 16:50:00,METAR EGWU 171650Z 20009KT CAVOK 14/06 Q1014 NOSIG RMK BLU BLU
2026-03-17 16:20:00,METAR EGWU 171620Z 19009KT CAVOK 15/06 Q1014 NOSIG RMK BLU BLU
2026-03-17 15:50:00,METAR EGWU 171550Z 19010KT CAVOK 15/06 Q1014 NOSIG RMK BLU BLU
2026-03-17 14:50:00,METAR EGWU 171450Z 19013KT CAVOK 15/07 Q1014 NOSIG RMK BLU BLU
2026-03-17 14:20:00,METAR EGWU 171420Z 19010KT CAVOK 15/07 Q1014 NOSIG RMK BLU BLU
2026-03-17 13:50:00,METAR EGWU 171350Z 20012KT CAVOK 15/07 Q1014 NOSIG RMK BLU BLU
2026-03-17 13:20:00,METAR EGWU 171320Z 20014KT 9999 FEW022 SCT250 15/07 Q1015 NOSIG RMK BLU BLU
2026-03-17 12:50:00,METAR EGWU 171250Z 20011KT 9999 FEW022 15/07 Q1015 NOSIG RMK BLU BLU
2026-03-17 12:20:00,METAR EGWU 171220Z 20011KT 9999 FEW022 SCT250 14/08 Q1015 NOSIG RMK BLU BLU
2026-03-17 11:50:00,METAR EGWU 171150Z 20010KT 9999 FEW020 BKN250 13/08 Q1015 NOSIG RMK BLU BLU
2026-03-17 11:20:00,METAR EGWU 171120Z 21011KT 9999 BKN020 12/07 Q1016 BECMG FEW020 RMK WHT BECMG BLU
2026-03-17 10:50:00,METAR EGWU 171050Z 20011KT 9999 BKN017 11/07 Q1016 BECMG FEW020
2026-03-17 10:20:00,METAR EGWU 171020Z 21012KT 9999 BKN016 11/07 Q1016 NOSIG RMK WHT WHT
2026-03-17 09:50:00,METAR EGWU 170950Z 21009KT 9999 FEW014 BKN015 11/07 Q1016 NOSIG RMK WHT WHT
2026-03-17 09:20:00,METAR EGWU 170920Z 21013KT 9999 BKN014 10/07 Q1016 BECMG BKN018 RMK GRN BECMG WHT
2026-03-17 08:50:00,METAR EGWU 170850Z 22012KT 9999 -DZ BKN011 10/07 Q1016 BECMG BKN018
2026-03-17 08:20:00,METAR EGWU 170820Z 21009KT 9999 SCT009 BKN013 10/08 Q1016 BECMG BKN018 RMK GRN BECMG WHT
2026-03-17 07:50:00,METAR EGWU 170750Z 22010KT 9999 OVC011 10/07 Q1016 BECMG BKN018
2026-03-17 07:20:00,METAR EGWU 170720Z AUTO 22011KT 9999 OVC011/// 10/07 Q1016
2026-03-17 06:50:00,METAR EGWU 170650Z 22012KT 9999 OVC012 10/07 Q1015 NOSIG RMK GRN GRN
2026-03-17 06:20:00,METAR EGWU 170620Z AUTO 22009KT 9999 OVC010/// 10/08 Q1015
2026-03-17 05:50:00,METAR EGWU 170550Z AUTO 23013KT 9999 OVC012/// 10/07 Q1015
2026-03-17 05:20:00,METAR EGWU 170520Z AUTO 22010KT 9999 OVC011/// 10/08 Q1015
2026-03-17 04:50:00,METAR EGWU 170450Z AUTO 22010KT 9999 OVC009/// 10/08 Q1015
2026-03-17 04:20:00,METAR EGWU 170420Z AUTO 22009KT 9999 OVC008/// 10/08 Q1015
2026-03-17 03:50:00,METAR EGWU 170350Z AUTO 21010KT 9999 OVC011/// 10/08 Q1015
2026-03-17 03:20:00,METAR EGWU 170320Z AUTO 22008KT 9999 OVC009/// 10/08 Q1015
2026-03-17 02:50:00,METAR EGWU 170250Z AUTO 22007KT 9999 OVC010/// 10/08 Q1016
2026-03-17 02:20:00,METAR EGWU 170220Z AUTO 22007KT 9999 // OVC010/// 10/08 Q1016
2026-03-17 01:50:00,METAR EGWU 170150Z AUTO 23010KT 9999 // OVC010/// 10/08 Q1016
2026-03-17 01:20:00,METAR EGWU 170120Z AUTO 22008KT 9999 // OVC009/// 10/08 Q1016
2026-03-17 00:50:00,METAR EGWU 170050Z AUTO 22008KT 9999 OVC008/// 10/08 Q1016
2026-03-17 00:20:00,METAR EGWU 170020Z AUTO 22010KT 9999 // OVC011/// 10/08 Q1016
2026-03-16 23:50:00,METAR EGWU 162350Z AUTO 24010KT 9999 // OVC011/// 10/08 Q1016
2026-03-16 23:20:00,METAR EGWU 162320Z AUTO 23010KT 9999 OVC012/// 10/08 Q1016
2026-03-16 22:50:00,METAR EGWU 162250Z AUTO 23011KT 9999 OVC014/// 11/08 Q1017
2026-03-16 22:20:00,METAR EGWU 162220Z 22009KT 9999 BKN015 11/08 Q1016 TEMPO BKN014 RMK WHT TEMPO GRN
2026-03-16 21:50:00,METAR EGWU 162150Z 23009KT 9999 BKN016 11/08 Q1016 NOSIG RMK WHT WHT
2026-03-16 21:20:00,METAR EGWU 162120Z 23009KT 9999 BKN017 11/07 Q1016 NOSIG RMK WHT WHT
2026-03-16 20:50:00,METAR EGWU 162050Z 23007KT 9999 BKN018 11/07 Q1016 NOSIG RMK WHT WHT
2026-03-16 20:20:00,METAR EGWU 162020Z 24010KT 9999 BKN020 11/07 Q1016 NOSIG RMK WHT WHT
2026-03-16 19:50:00,METAR EGWU 161950Z 23009KT 9999 FEW022 SCT030 10/07 Q1016 BECMG BKN024
2026-03-16 19:20:00,METAR EGWU 161920Z 23012KT 9999 FEW024 BKN030 11/07 Q1016 BECMG BKN024 RMK BLU BECMG WHT
2026-03-16 18:50:00,METAR EGWU 161850Z 23009KT 9999 SCT025 BKN032 11/06 Q1016 BECMG BKN024
2026-03-16 18:20:00,METAR EGWU 161820Z 23008KT 9999 SCT027 BKN032 12/06 Q1016 NOSIG RMK BLU BLU
2026-03-16 17:50:00,METAR EGWU 161750Z 24010KT 9999 FEW028 BKN051 12/06 Q1016 NOSIG RMK BLU BLU
2026-03-16 17:20:00,METAR EGWU 161720Z 23011KT 9999 FEW027 BKN054 12/06 Q1016 NOSIG RMK BLU BLU
2026-03-16 16:50:00,METAR EGWU 161650Z 25010KT 9999 FEW027 BKN056 12/06 Q1016 NOSIG RMK BLU BLU
2026-03-16 16:20:00,METAR EGWU 161620Z 25011KT 9999 FEW027 BKN060 12/06 Q1016 NOSIG RMK BLU BLU
2026-03-16 15:50:00,METAR EGWU 161550Z 26011KT 9999 -RADZ FEW027 BKN070 12/06 Q1016 NOSIG RMK BLU BLU
2026-03-16 15:20:00,METAR EGWU 161520Z 26012KT 9999 FEW028 BKN090 12/06 Q1016 NOSIG RMK BLU BLU
2026-03-16 14:50:00,METAR EGWU 161450Z 26013KT 9999 SCT030 BKN100 12/05 Q1016 NOSIG RMK BLU BLU
2026-03-16 14:20:00,METAR EGWU 161420Z 26015KT 9999 FEW030 BKN110 12/06 Q1016 NOSIG RMK BLU BLU
2026-03-16 13:50:00,METAR EGWU 161350Z 26014KT 9999 FEW027 BKN130 12/05 Q1016 NOSIG RMK BLU BLU
2026-03-16 13:20:00,METAR EGWU 161320Z 26015KT 9999 FEW022 SCT030 11/05 Q1016 NOSIG RMK BLU BLU
2026-03-16 12:50:00,METAR EGWU 161250Z 27017KT 9999 FEW022 BKN100 11/05 Q1016 NOSIG RMK BLU BLU
2026-03-16 12:20:00,METAR EGWU 161220Z 25014KT 9999 FEW022 BKN100 11/06 Q1016 NOSIG RMK BLU BLU
2026-03-16 11:50:00,METAR EGWU 161150Z 25015KT 9999 FEW021 BKN110 11/06 Q1016 NOSIG RMK BLU BLU
2026-03-16 11:20:00,METAR EGWU 161120Z 26015KT 9999 FEW020 BKN090 10/06 Q1016 NOSIG RMK BLU BLU
2026-03-16 10:50:00,METAR EGWU 161050Z 26014KT 9999 FEW020 BKN100 10/05 Q1016 NOSIG RMK BLU BLU
2026-03-16 10:20:00,METAR EGWU 161020Z 26014KT 9999 FEW018 SCT063 BKN110 10/05 Q1016 NOSIG RMK BLU BLU
2026-03-16 09:50:00,METAR EGWU 160950Z 25015KT CAVOK 09/05 Q1016 NOSIG RMK BLU BLU
2026-03-16 09:20:00,METAR EGWU 160920Z 25013KT CAVOK 09/05 Q1015 NOSIG RMK BLU BLU
2026-03-16 08:50:00,METAR EGWU 160850Z 25011KT CAVOK 08/05 Q1015 NOSIG RMK BLU BLU
2026-03-16 08:20:00,METAR EGWU 160820Z 24010KT CAVOK 07/04 Q1015 NOSIG RMK BLU BLU
2026-03-16 07:50:00,METAR EGWU 160750Z 24011KT CAVOK 07/04 Q1014 NOSIG RMK BLU BLU
2026-03-16 07:20:00,METAR EGWU 160720Z 24008KT 9999 FEW018 BKN065 07/04 Q1014 TEMPO SCT018 RMK BLU TEMPO WHT
2026-03-16 06:50:00,METAR EGWU 160650Z 25009KT CAVOK 06/04 Q1014 NOSIG RMK BLU BLU
2026-03-16 06:20:00,METAR EGWU 160620Z AUTO 24008KT 9999 SCT110/// 06/03 Q1014
2026-03-16 05:50:00,METAR EGWU 160550Z AUTO 25008KT 9999 FEW120/// 05/03 Q1014
2026-03-16 05:20:00,METAR EGWU 160520Z AUTO 25007KT 9999 FEW078/// 05/03 Q1013
2026-03-16 04:50:00,METAR EGWU 160450Z AUTO 25008KT 9999 NCD 05/03 Q1013
2026-03-16 04:20:00,METAR EGWU 160420Z AUTO 23007KT 9999 NCD 04/02 Q1013
2026-03-16 03:50:00,METAR EGWU 160350Z AUTO 25009KT 9999 NCD 05/02 Q1012
2026-03-16 03:20:00,METAR EGWU 160320Z AUTO 25008KT 9999 NCD 05/03 Q1012
2026-03-16 02:50:00,METAR EGWU 160250Z AUTO 25006KT 9999 NCD 05/03 Q1012
2026-03-16 02:20:00,METAR EGWU 160220Z AUTO 26008KT 9999 NCD 05/02 Q1012
2026-03-16 01:50:00,METAR EGWU 160150Z AUTO 27010KT 9999 NCD 06/02 Q1012
2026-03-16 01:20:00,METAR EGWU 160120Z AUTO 26010KT 9999 NCD 06/03 Q1012
2026-03-16 00:50:00,METAR EGWU 160050Z AUTO 25008KT 9999 SCT066/// 06/03 Q1012
2026-03-16 00:20:00,METAR EGWU 160020Z AUTO 26012KT 9999 BKN074/// 07/03 Q1012
2026-03-15 23:50:00,METAR EGWU 152350Z AUTO 26009KT 9999 NCD 06/04 Q1011
2026-03-15 23:20:00,METAR EGWU 152320Z AUTO 25010KT 9999 FEW042/// BKN063/// 07/04 Q1011
2026-03-15 22:50:00,METAR EGWU 152250Z AUTO 26012KT 9999 BKN041/// SCT067/// 07/04 Q1011
2026-03-15 22:20:00,METAR EGWU 152220Z AUTO 25010KT 9999 NCD 06/04 Q1010
2026-03-15 21:50:00,METAR EGWU 152150Z AUTO 26012KT 9999 NCD 07/05 Q1010
2026-03-15 21:20:00,METAR EGWU 152120Z AUTO 26012KT 9999 NCD 07/05 Q1010
2026-03-15 20:50:00,METAR EGWU 152050Z AUTO 27009KT 9999 NCD 07/05 Q1009
2026-03-15 20:20:00,METAR EGWU 152020Z AUTO 26009KT 9999 // BKN033/// 07/05 Q1009
2026-03-15 19:50:00,METAR EGWU 151950Z AUTO 26012KT 9999 // FEW030/// 07/05 Q1009
2026-03-15 19:20:00,METAR EGWU 151920Z AUTO 27010KT 9999 -RA BKN031/// SCT048/// 08/06 Q1009
2026-03-15 18:50:00,METAR EGWU 151850Z AUTO 29015G27KT 4200 RA OVC011/// 08/06 Q1008
2026-03-15 18:20:00,METAR EGWU 151820Z AUTO 26011KT 9999 // FEW033/// BKN054/// 08/07 Q1008
2026-03-15 18:07:00,SPECI EGWU 151807Z 26011KT 9999 FEW017 SCT045 09/07 Q1007 TEMPO 7000 SHRA SCT024 RMK BLU TEMPO WHT
2026-03-15 17:50:00,METAR EGWU 151750Z 26015KT 9999 -RA SCT014 BKN050 09/07 Q1007 BECMG FEW015
2026-03-15 17:20:00,METAR EGWU 151720Z 24015KT 9999 -RA FEW005 SCT013 BKN040 09/08 Q1007 BECMG FEW015 RMK GRN BECMG BLU
2026-03-15 17:00:00,SPECI EGWU 151700Z 21015KT 4000 -RADZ BKN006 09/08 Q1007 TEMPO 3000 +SHRA RMK YLO1 TEMPO YLO1
2026-03-15 16:50:00,METAR EGWU 151650Z 21012KT 5000 -RA BKN007 09/08 Q1007 TEMPO 3000 +SHRA SCT006
2026-03-15 16:20:00,METAR EGWU 151620Z 23014G25KT 4000 RADZ BKN011 09/08 Q1007 TEMPO 7000 -RADZ RMK GRN TEMPO GRN
2026-03-15 16:10:00,SPECI EGWU 151610Z 22017G28KT 6000 -RADZ BKN014 10/07 Q1007 TEMPO 4000 RADZ RMK GRN TEMPO GRN
2026-03-15 15:50:00,METAR EGWU 151550Z 22017KT 9999 BKN018 10/06 Q1007 TEMPO 7000 RA BKN014
2026-03-15 15:20:00,METAR EGWU 151520Z 22016KT 9999 -RA BKN021 10/06 Q1007 TEMPO 7000 RA
2026-03-15 14:50:00,METAR EGWU 151450Z 22017G28KT 9999 -RA BKN025 10/06 Q1008 TEMPO 7000 RA BKN022
2026-03-15 14:20:00,METAR EGWU 151420Z 22016KT 9999 BKN028 11/05 Q1009 TEMPO 7000 RA BKN022 RMK BLU TEMPO WHT
2026-03-15 13:50:00,METAR EGWU 151350Z 23020G30KT 9999 BKN032 12/05 Q1009 NOSIG RMK BLU BLU
2026-03-15 13:20:00,METAR EGWU 151320Z 22016G29KT 9999 SCT034 12/04 Q1010 NOSIG RMK BLU BLU
2026-03-15 12:50:00,METAR EGWU 151250Z 22016G26KT 9999 SCT036 13/04 Q1010 NOSIG RMK BLU BLU
2026-03-15 12:20:00,METAR EGWU 151220Z AUTO 22018KT 9999 SCT038/// 14/04 Q1010
2026-03-15 11:50:00,METAR EGWU 151150Z 23016KT 9999 FEW030 13/04 Q1011 NOSIG RMK BLU BLU
2026-03-15 11:20:00,METAR EGWU 151120Z 22013KT 9999 FEW025 12/04 Q1011 NOSIG RMK BLU BLU
2026-03-15 10:50:00,METAR EGWU 151050Z 23015KT 9999 FEW024 11/04 Q1012 TEMPO SCT022
2026-03-15 10:20:00,METAR EGWU 151020Z 23014KT 9999 FEW022 10/04 Q1012 TEMPO SCT022 RMK BLU TEMPO WHT
2026-03-15 09:50:00,METAR EGWU 150950Z 22011KT 9999 FEW022 10/05 Q1013 NOSIG RMK BLU BLU
2026-03-15 09:20:00,METAR EGWU 150920Z 22011KT 9999 FEW025 09/04 Q1013 NOSIG RMK BLU BLU
2026-03-15 08:50:00,METAR EGWU 150850Z 20008KT CAVOK 08/04 Q1013 NOSIG RMK BLU BLU
2026-03-15 08:20:00,METAR EGWU 150820Z 21010KT CAVOK 07/04 Q1013 NOSIG RMK BLU BLU
